"organization_name","address","apt_suite","city","zipcode","telephone","email_address","website","youth_family_enrichment","support_services","civic_engagement","early_childhood_education","government_agencies","schools","higher_education","workforce_development","mission","geospatial_data","neighborhood"
"311: CITY OF HARTFORD","550 Main ST","Suite 203","Hartford","6103","(860) 757-9311","311@hartford.gov","http://www.hartford.gov/hartford-311",,"Support Services",,,"Government Agency",,,,"Provides a streamlined, integrated and secure way to report, track, and resolve problems or issues resident may have with non-emergency city services and centralizes the process of collecting and sharing that data.","550 Main ST
HARTFORD, Connecticut 06103
(41.762809, -72.674277)","DOWNTOWN"
"ACCESS HEALTH CT","280 TRUMBULL ST","11th Floor","Hartford","6103","1-855-909-2428","Unlisted/Unavailable","http://www.accesshealthct.com/",,"Support Services",,,,,,,"Focuses on providing access to quality insurance choices for individuals and small businesses, delivering a positive customer experience, improving quality, cost transparency and reducing disparities in health care.","280 TRUMBULL ST
HARTFORD, Connecticut 06103
(41.768113, -72.675496)","DOWNTOWN"
"ACHIEVE HARTFORD!","221 MAIN ST","3rd Floor","Hartford","6106","(860) 244-3333","info@achievehartford.org","http://www.achievehartford.org",,,"Civic Engagement",,,,,,"Independently research, evaluate, and engage the community in creating urgency and shared responsibility for closing the educational achievement gap in Hartford.","221 MAIN ST
HARTFORD, Connecticut 06106
(41.758407, -72.675439)","SOUTH GREEN"
"ACHIEVEMENT FIRST HARTFORD ACADEMY ELEMENTARY SCHOOL (K-4)","305 GREENFIELD ST",,"Hartford","6112","(860) 695-6560","admissionsCT@achievementfirst.org","http://www.achievementfirst.org",,,,,,"Schools",,,"Provides all of our students with the academic and character skills they need to graduate from top colleges, to succeed in a competitive world and to serve as the next generation of leaders in our communities.","305 GREENFIELD ST
HARTFORD, Connecticut 06112
(41.784608, -72.697162)","UPPER ALBANY"
"ACHIEVEMENT FIRST HARTFORD ACADEMY MIDDLE SCHOOL (5-8)","305 GREENFIELD ST",,"Hartford","6112","(860) 695-6760","admissionsCT@achievementfirst.org","http://www.achievementfirst.org",,,,,,"Schools",,,"Provides all of our students with the academic and character skills they need to graduate from top colleges, to succeed in a competitive world and to serve as the next generation of leaders in our communities.","305 GREENFIELD ST
HARTFORD, Connecticut 06112
(41.784608, -72.697162)","UPPER ALBANY"
"ACHIEVEMENT FIRST HARTFORD HIGH ACADEMY (9-10)","305 GREENFIELD ST",,"Hartford","6112","(860) 695-6680","admissionsCT@achievementfirst.org","http://www.achievementfirst.org",,,,,,"Schools",,,"Provides all of our students with the academic and character skills they need to graduate from top colleges, to succeed in a competitive world and to serve as the next generation of leaders in our communities.","305 GREENFIELD ST
HARTFORD, Connecticut 06112
(41.784608, -72.697162)","UPPER ALBANY"
"ACTIVE CITY","73 OXFORD ST",,"Hartford","6105","(860) 212-9722","briangallagher82@gmail.com","http://www.activecity.org/","Youth and Family Enrichment",,,,,,,,"To collectively transform Hartford into America’s most physically active city for children. It will ensure that all Hartford youth are involved in organized and affordable athletic programs.","73 OXFORD ST
HARTFORD, Connecticut 06105
(41.764754, -72.713396)","WEST END"
"ADULT EDUCATION CENTER","110 WASHINGTON ST",,"Hartford","6106","(860) 695-5840","welcomecenter@hartfordschools.org","http://adulted.hartfordschools.org/",,"Support Services",,,,,"Higher Education",,"Engages adults in children's education by providing health information, life skills and parenting education, and  guidance on pursuing a college degree (for parent, child, or both!).","110 WASHINGTON ST
HARTFORD, Connecticut 06106
(41.759391, -72.682156)","SOUTH GREEN"
"AFRICAN-AMERICAN AFFAIRS COMMISSION: STATE OF CONNECTICUT","210 CAPITOL AV","Room 509","Hartford","6106","(860) 240-8555","aaac@cga.ct.gov","http://aaac.cga.ct.gov/AAAC/",,,"Civic Engagement",,"Government Agency",,,,"Improves and promotes the economic development, education, health, and political well-being of the African-American community in the State of Connecticut.","210 CAPITOL AV
HARTFORD, Connecticut 06106
(41.762879, -72.682508)","DOWNTOWN"
"AFRICAN CARIBBEAN AMERICAN PARENTS OF CHILDREN WITH DISABILITIES, INC. (AFCAMP)","43 Woodland Street","Suite 520","Hartford","6105","(860) 548-9959","info@afcamp.org","http://www.afcamp.org",,,"Civic Engagement",,,,,,"Educates, empowers, and engages parents and community to improve quality of life for children with special needs and others at risk of education inequity or system involvement.","43 Woodland Street
HARTFORD, Connecticut 06105
(41.770184, -72.701608)","ASYLUM HILL"
"AIDS CONNECTICUT","110 BARTHOLOMEW AV","Suite 3050","Hartford","6106","(860) 247- 2437","slang@aids-ct.org","http://www.aids-ct.org",,"Support Services",,,,,,,"Improves the lives of people impacted by HIV through care and supportive services, housing, advocacy and prevention.","110 BARTHOLOMEW AV
HARTFORD, Connecticut 06106
(41.7547, -72.703668)","PARKVILLE"
"A.I. PRINCE TECHNICAL HIGH SCHOOL (9-12)","401 FLATBUSH AV",,"Hartford","6106","(860) 951-7112","ai.prince@po.state.ct.us","http://www.cttech.org/prince",,,,,,"Schools",,"Workforce Development","Prepares students for post-secondary education, including apprenticeships, and immediate productive employment; and responds to employers' and industries' current and emerging and changing global workforce needs and expectations.","401 FLATBUSH AV
HARTFORD, Connecticut 06106
(41.742942, -72.709302)","BEHIND THE ROCKS"
"AL-ANON / ALATEEN FAMILY GROUPS CONNECTICUT STATE INFORMATION OFFICE","277 MAIN ST",,"Hartford","6106","(888) 425-2666","wso@al-anon.org","http://www.al-anon.org",,"Support Services",,,,,,,"Helps people understand how much they have in common with everyone affected by someone else's drinking, regardless of the specific details of their personal situation.","277 MAIN ST
HARTFORD, Connecticut 06106
(41.759064, -72.675352)","SOUTH GREEN"
"ALCOHOL AND DRUG RECOVERY CENTERS","500 BLUE HILLS AV",,"Hartford","6112","(866) 872-6790","Melissa.rodgers@frnmail.com","http://www.rehabtreatment.com/CT",,"Support Services",,,,,,,"Attain the most effective results from addiction treatment procedures.","500 BLUE HILLS AV
HARTFORD, Connecticut 06112
(41.799614, -72.695184)","BLUE HILLS"
"ALFRED E. BURR ELEMENTARY SCHOOL (PK 4-8)","400 WETHERSFIELD AV",,"Hartford","6114","(860) 695-3080","welcomecenter@hartfordschools.org","http://www.hartfordschools.org",,,,,,"Schools",,,"Creates a challenging, stimulating, and safe environment that promotes attainment of Academic Standards of the State of Connecticut, and that gives students the ability to effectively participate in the global economy.","400 WETHERSFIELD AV
HARTFORD, Connecticut 06114
(41.744899, -72.67309)","BARRY SQUARE"
"ALLAYA DAY CARE LLC","56 SOUTH WHITNEY  ST",,"Hartford","6106","(860) 231-7824","Unlisted/Unavailable","http://www.allayadaycare.com",,,,"Early Childhood Education",,,,,"Provides 24-hour quality care for all children including children with special needs as well as a unique educational program including safety and sign language.","56 SOUTH WHITNEY ST
HARTFORD, Connecticut 06106
(41.758735, -72.70925)","WEST END"
"AMERICAN CIVIL LIBERTIES UNION FOUNDATION OF CONNECTICUT","765 Asylum AV",,"Hartford","6105","(860) 523-9146","info@acluct.org","http://www.acluct.org",,"Support Services","Civic Engagement",,,,,,"Defends, promotes and preserves individual rights and liberties under the U.S. and Connecticut constitutions in state and federal court, the General Assembly and the state's 169 towns and cities.","765 Asylum AV
HARTFORD, Connecticut 06105
(41.769142, -72.689825)","ASYLUM HILL"
"AMERICANS WITH DISABILITIES ACT COALITION OF CONNECTICUT","60 WESTON ST",,"Hartford","6120","(860) 297-4383","adacoalition@sbcglobal.net","http://www.adacc.net",,,"Civic Engagement",,,,,,"Promotes compliance with Americans with Disabilities Act.","60 WESTON ST
HARTFORD, Connecticut 06120
(41.785324, -72.664181)","NORTH MEADOWS"
"APPELLATE COURT: STATE OF CONNECTICUT","231 Capitol AV",,"Hartford","6106","(860) 757-2200","co.webmaster@jud.ct.gov","http://www.jud.ct.gov/",,,,,"Government Agency",,,,"Serves the interests of justice and the public by resolving matters brought before it in a fair, timely, efficient and open manner.","231 Capitol AV
HARTFORD, Connecticut 06106
(41.762935, -72.682838)","FROG HOLLOW"
"ARTISTS COLLECTIVE","1200 ALBANY AV",,"Hartford","6112","(860) 527-3205","info@artistscollective.org","http://www.artistscollective.org","Youth and Family Enrichment",,,,,,,,"Preserves and perpetuates the arts and culture of the African Diaspora by providing training in the performing and visual arts and by sponsoring special events.","1200 ALBANY AV
HARTFORD, Connecticut 06112
(41.782325, -72.696608)","UPPER ALBANY"
"ASIAN FAMILY SERVICES","1921 PARK ST",,"Hartford","6106","(860) 951-8770 EXT 232","afs@crtct.org","http://www.crtct.org/en/need-help/m-health/asian-family-services",,"Support Services",,,,,,,"Provides multicultural and multi-lingual counseling and supported services to individuals and families from many cultures including Vietnamese, other Asiatic cultures, and Spanish.","1921 PARK ST
HARTFORD, Connecticut 06106
(41.756431, -72.710824)","PARKVILLE"
"ASIAN STUDIES ACADEMY AT BELLIZZI SCHOOL (PK 4-8)","215 SOUTH ST",,"Hartford","6114","(860) 695-2400","welcomecenter@hartfordschools.org","http://www.hartfordschools.org",,,,,,"Schools",,,"Provides our students with an intensive, comprehensive education focusing on Chinese Mandarin language and East Asian cultures.","215 SOUTH ST
HARTFORD, Connecticut 06114
(41.734532, -72.6809)","SOUTH END"
"ASYLUM HILL EARLY LEARNING CENTER, DEPARTMENT OF FAMILIES, CHILDREN, YOUTH, AND RECREATION: CITY OF HARTFORD","814 ASYLUM AV",,"Hartford","6105","(860) 757-0750","hardk001@hartford.gov","http://dfcyr.hartford.gov/index.php/youngchildren/division-for-young-children-s-early-learning-centers",,,,"Early Childhood Education",,,,,"High-quality early childhood learning and development services year-round to infants, toddlers and preschool children, including those with special needs.","814 ASYLUM AV
HARTFORD, Connecticut 06105
(41.769609, -72.691763)","ASYLUM HILL"
"ASYLUM HILL NEIGHBORHOOD ASSOCIATION","814 ASYLUM AV",,"Hartford","6105","(860) 278-9398","chair@asylumhill.org","http://www.asylumhill.org",,,"Civic Engagement",,,,,,"Serves as the umbrella organization that empowers residents and supports connection and collaborations among all stakeholders to improve the quality of life in our neighborhood.","814 ASYLUM AV
HARTFORD, Connecticut 06105
(41.769609, -72.691763)","ASYLUM HILL"
"BETANCES STEM MAGNET (4-5)","585 WETHERSFIELD AV",,"Hartford","6114","(860) 695-2970","welcomecenter@hartfordschools.org","http://www.hartfordschools.org",,,,,,"Schools",,,"Offers and exposes students to 21st century skills that will ensure their value to society. They will learn and contribute to learning with a safe, positive, respectful, and ready to learn environment.","585 WETHERSFIELD AV
HARTFORD, Connecticut 06114
(41.739804, -72.671781)","SOUTH END"
"BILLINGS FORGE COMMUNITY WORKS","227 LAWRENCE ST",,"Hartford","6106","(860) 548-9877","cary@billingsfordworks.org","http://www.billingsforgeworks.org","Youth and Family Enrichment",,,,,,,,"Encourages community participation and empowerment in Frog Hollow through promoting access to healthy food; engaging youth; and developing employment opportunities; and economically sustainable social enterprises.","227 LAWRENCE ST
HARTFORD, Connecticut 06106
(41.762333, -72.687904)","FROG HOLLOW"
"BIRTH TO THREE INTERAGENCY COORDINATING COUNCIL","460 CAPITOL AV",,"Hartford","6106","(860) 888-4188","Lynn.S.Johnson@ct.gov","http://www.birth23.org",,,"Civic Engagement",,,,,,"Advises and assists the lead agency (Department of Developmental Services) in the implementation of the Birth to Three System.","460 CAPITOL AV
HARTFORD, Connecticut 06106
(41.76359, -72.69128)","FROG HOLLOW"
"BLUE HILLS CIVIC ASSOCIATION","846 ASYLUM AV",,"Hartford","6105","(860) 560-7670","bhca@bluehillscivic.org","http://www.bluehillscivic.org","Youth and Family Enrichment",,"Civic Engagement",,,,,,"Empowers residents and neighborhoods to become self-sufficient through advocacy, organizing and services for the betterment of Hartford.","846 ASYLUM AV
HARTFORD, Connecticut 06105
(41.76993, -72.69281)","ASYLUM HILL"
"BOYS AND GIRLS CLUBS OF HARTFORD","170 SIGOURNEY ST",,"Hartford","6105","(860) 929-7694","mkiernan-gonzalez@bgchartford.org","http://www.bgchartfordorg","Youth and Family Enrichment",,,,,,,,"Provides a safe, supportive atmosphere where children and teens can learn and grow and reach their full potential as productive, caring and responsible citizens.","170 SIGOURNEY ST
HARTFORD, Connecticut 06105
(41.771168, -72.693454)","ASYLUM HILL"
"BOYS & GIRLS CLUB HARTFORD AT BELLIZZI ASIAN STUDIES ACADEMY SCHOOL","215 SOUTH ST",,"Hartford","6103","(860) 724-0700","sswain@bgchartford.org","http://www.bgchartford.com","Youth and Family Enrichment",,,,,,,,"Provides a safe, supportive atmosphere where children and teens can learn and grow and reach their full potential as productive, caring and responsible citizens.","215 SOUTH ST
HARTFORD, Connecticut 06103
(41.734532, -72.6809)","SOUTH END"
"BOYS & GIRLS CLUB OF HARTFORD (NORTHWEST)","1 NAHUM DR",,"Hartford","6112","(860) 242-5553","ajohnson@bgchartford.org","#https://bgchartford.org/#","Youth and Family Enrichment",,,,,,,,"Provides a safe, supportive atmosphere where children and teens can learn and grow and reach their full potential as productive, caring and responsible citizens.","1 NAHUM DR
HARTFORD, Connecticut 06112
(41.803092, -72.707408)","BLUE HILLS"
"BOYS & GIRLS CLUB OF HARTFORD (SOUTHWEST)","1 CHANDLER ST",,"Hartford","6106","(860) 951-6416","ssanchez@bgchartford.org","http://www.bgchartford.com","Youth and Family Enrichment",,,,,,,,"Provides a safe, supportive atmosphere where children and teens can learn and grow and reach their full potential as productive, caring and responsible citizens.","1 CHANDLER ST
HARTFORD, Connecticut 06106
(41.743501, -72.704684)","BEHIND THE ROCKS"
"BOYS & GIRLS CLUB OF HARTFORD (TRINITY COLLEGE)","1500 BROAD ST",,"Hartford","6106","(860) 727-4154","agarcia@bgchartford.org","http://www.bgchartford.com","Youth and Family Enrichment",,,,,,,,"Provides a safe, supportive atmosphere where children and teens can learn and grow and reach their full potential as productive, caring and responsible citizens.","1500 BROAD ST
HARTFORD, Connecticut 06106
(41.748819, -72.687113)","BARRY SQUARE"
"BOYS & GIRLS CLUBS OF HARTFORD (CAPITAL PREPARATORY MAGNET SCHOOL)","1304 MAIN ST",,"Hartford","6103","(860) 724-0700","sswain@bgchartford.org","http://www.bgchartford.com","Youth and Family Enrichment",,,,,,,,"Provides a safe, supportive atmosphere where children and teens can learn and grow and reach their full potential as productive, caring and responsible citizens.","1304 MAIN ST
HARTFORD, Connecticut 06103
(41.772348, -72.676044)","DOWNTOWN"
"BOYS & GIRLS CLUBS OF HARTFORD EARLY LEARNING CENTER","170 SIGOURNEY ST",,"Hartford","6105","(860) 929-7675","csanders@bgchartford.org","http://www.bgchartford.com",,,,"Early Childhood Education",,,,,"Provides a safe, supportive atmosphere where children and teens can learn and grow and reach their full potential as productive, caring and responsible citizens.","170 SIGOURNEY ST
HARTFORD, Connecticut 06105
(41.771168, -72.693454)","ASYLUM HILL"
"BREAKTHROUGH II ELEMETARY SCHOOL (PK 3-6)","395 LYME ST",,"Hartford","6112","(860) 695-6380","info@breakthroughnorth.org","http://www.hartfordschools.org",,,,,,"Schools",,,"For staff, families, and community members of diverse backgrounds to work in partnership to develop students as models of outstanding character.","395 LYME ST
HARTFORD, Connecticut 06112
(41.804787, -72.704285)","BLUE HILLS"
"BREAKTHROUGH MAGNET SCHOOL (PK3-8)","290 BROOKFIELD ST",,"Hartford","6106","(860) 695-5700","welcomecenter@hartfordschools.org","http://www.hartfordschools.org",,,,,,"Schools",,,"Staff, families, and community members of diverse backgrounds working in partnership to develope students as models of outstanding character.","290 BROOKFIELD ST
HARTFORD, Connecticut 06106
(41.747153, -72.706594)","BEHIND THE ROCKS"
"BRIGHTER FUTURES FAMILY CENTER at  ASYLUM HILL FAMILY CENTER (managed by CATHOLIC CHARITIES)","60 GILLETTE ST",,"Hartford","6105","(860) 244-9944","mbish@ccaoh.org","http://www.ccaoh.org","Youth and Family Enrichment","Support Services",,,,,,,"Provides programs and services that support parents in their role as a child’s first nurturer, teacher and advocate.","60 GILLETTE ST
HARTFORD, Connecticut 06105
(41.75528, -72.720975)","ASYLUM HILL"
"BRIGHTER FUTURES FAMILY CENTER at EL CENTRO DE DESARROLLO Y REAFIRMACION FAMILIAR (managed by CATHOLIC CHARITIES)","45 WADSWORTH ST",,"Hartford","6106","(860) 524-6853","cdosal@ccaoh.org","http://www.ccaoh.org","Youth and Family Enrichment","Support Services",,,,,,,"Provides programs and services that support parents in their role as a child’s first nurturer, teacher and advocate.","45 WADSWORTH ST
HARTFORD, Connecticut 06106
(41.758879, -72.679432)","SOUTH GREEN"
"BRIGHTER FUTURES FAMILY CENTER at PARKVILLE FAMILY CENTER (managed by FAMILY LIFE EDUCATION)","30 ARBOR ST",,"Hartford","6106","(860) 233-9700","cmorales@familylifeedu.org  or ehuertas@familylifeedu.org","http://www.familylifeedu.org","Youth and Family Enrichment","Support Services",,,,,,,"Provide programs and services that support parents in their role as a child’s first nurturer, teacher and advocate.","30 ARBOR ST
HARTFORD, Connecticut 06106
(41.760069, -72.703081)","PARKVILLE"
"BRIGHTER FUTURES FAMILY CENTER at RAMBUH FAMILY CENTER (managed by THE VILLAGE FOR CHILDREN AND FAMILIES)","105 SPRING ST",,"Hartford","6105","(860) 236-4511 ext 3885","sgriffith@villageforchildren.org","http://www.thevillage.org","Youth and Family Enrichment","Support Services",,,,,,,"Brighter Futures Family Centers provide programs and services that support parents in their role as a child’s first nurturer, teacher and advocate.","105 SPRING ST
HARTFORD, Connecticut 06105
(41.771015, -72.683516)","ASYLUM HILL"
"BRIGHTER FUTURES FAMILY CENTER at SOUTHSIDE FAMILY CENTER (managed by CATHOLIC CHARITIES)","35 GROTON ST",,"Hartford","6106","(860) 297-7800","JCruz@ccaoh.org","http://www.ccaoh.org","Youth and Family Enrichment","Support Services",,,,,,,"Brighter Futures Family Centers provide programs and services that support parents in their role as a child’s first nurturer, teacher and advocate.","35 GROTON ST
HARTFORD, Connecticut 06106
(41.755379, -72.673372)","SHELDON-CHARTER OAK"
"BRIGHTER FUTURES FAMILY CENTERS at PARKER MEMORIAL COMMUNITY FAMILY CENTER (managed by CATHOLIC CHARITIES)","2621 MAIN ST",,"Hartford","6120","(860) 757-0827","drobinson@ccaoh.org","http://www.ccaoh.org","Youth and Family Enrichment","Support Services",,,,,,,"Brighter Futures Family Centers provide programs and services that support parents in their role as a child’s first nurturer, teacher and advocate.","2621 MAIN ST
HARTFORD, Connecticut 06120
(41.789326, -72.671631)","NORTH EAST"
"BRIGHT FUTURES YOUTH CENTERS","180 PLEASANT ST",,"Hartford","6103","(860) 525-0360","Unlisted/Unavailable","Unlisted/Unavailable","Youth and Family Enrichment",,,,,,,,"Introduces positive educational and recreational activities to inner-city youth as an alternative to ""street life.""","180 PLEASANT ST
HARTFORD, Connecticut 06103
(41.771484, -72.676278)","DOWNTOWN"
"BULKELEY HIGH SCHOOL - TEACHER PREPARATION AND HUMANITIES ACADEMIES (9-12)","300 WETHERSFIELD AV",,"Hartford","6114","(860) 695-1011","welcomecenter@hartfordschools.org","http://www.hartfordschools.org",,,,,,"Schools",,,"Attracts, recruits and trains students who have an interest in the field of education.","300 WETHERSFIELD AV
HARTFORD, Connecticut 06114
(41.747601, -72.673459)","BARRY SQUARE"
"BURNS LATINO STUDIES ACADEMY AT BURNS (PK 4-8)","195 PUTNAM ST",,"Hartford","6106","(860) 695-2980","welcomecenter@hartfordschools.org crisv001@hartfordschools.org","#https://www.hartfordschools.org/enroll/school-directory-2/burns-latino-studies-academy/#",,,,,,"Schools",,,"A community school in an urban setting, serving students in grades Pre-K through 8.","195 PUTNAM ST
HARTFORD, Connecticut 06106
(41.761181, -72.690452)","FROG HOLLOW"
"CAMP COURANT","285 BROAD ST",,"Hartford","6105","(860) 241-3792","Unlisted/Unavailable","http://www.campcourant.org","Youth and Family Enrichment",,,,,,,,"Provides a free summer sanctuary for Hartford children that enables them to develop positive relationships, learn and have fun.","285 BROAD ST
HARTFORD, Connecticut 06105
(41.764987, -72.686543)","DOWNTOWN"
"CAPITAL COMMUNITY COLLEGE","950 MAIN ST",,"Hartford","6103","(860) 906-5000","Unlisted/Unavailable","http://www.capitalcc.edu",,,,,,,"Higher Education",,"Provides access to higher education for the diverse residents of the greater Hartford region.","950 MAIN ST
HARTFORD, Connecticut 06103
(41.76836, -72.673045)","DOWNTOWN"
"CAPITAL COMMUNITY COLLEGE MAGNET ACADEMY (11-12)","950 MAIN ST",,"Hartford","6103","(860) 906-5122","welcomecenter@hartfordschools.org","http://www.hartfordschools.org",,,,,,"Schools",,,"Connects students in grades eleven and twelve with college and career readiness through dynamic and innovative partnerships with college faculty and students on the Capital Community College campus.","950 MAIN ST
HARTFORD, Connecticut 06103
(41.76836, -72.673045)","DOWNTOWN"
"CAPITAL PREPARATORY MAGNET SCHOOL(PK 3-12)","1304 MAIN ST",,"Hartford","6103","(860) 695-9800","Unlisted/Unavailable","http://www.capitalprep.org",,,,,,"Schools",,,"Creates a community of lifelong learners, students who will be assets to their community by working towards social justice.","1304 MAIN ST
HARTFORD, Connecticut 06103
(41.772348, -72.676044)","DOWNTOWN"
"CAPITAL WORKFORCE PARTNERS","1 UNION PL",,"Hartford","6103","(860) 522-1111","Unlisted/Unavailable","http://www.capitalworkforce.org",,,,,,,,"Workforce Development","Leverages public and private resources to produce skilled workers for a competitive regional economy.","1 UNION PL
HARTFORD, Connecticut 06103
(41.769395, -72.681249)","DOWNTOWN"
"CAPITOL CHILD DEVELOPMENT CENTER","450 BROAD ST",,"Hartford","6106","(860) 240-0330","bjwarner@capitolchild.org","http://www.cga.ct.gov/ccdc",,,,"Early Childhood Education",,,,,"Provides quality child care services for children 8-weeks through 5-years of age through full-year, full-day early care and education for up to 70 children from Hartford and its surrounding areas.","450 BROAD ST
HARTFORD, Connecticut 06106
(41.763273, -72.68666)","FROG HOLLOW"
"CAPITOL REGION EDUCATION COUNCIL","111 CHARTER OAK AV",,"Hartford","6106","(860) 247-2732","communications@crec.org","http://www.crec.org",,,,,,"Schools",,,"Works with boards of education of the Capitol Region to improve the quality of public education by promoting cooperation and collaboration with local school districts and other organizations committed to the improved quality of public education.","111 CHARTER OAK AV
HARTFORD, Connecticut 06106
(41.758569, -72.668312)","SHELDON-CHARTER OAK"
"CAPITOL REGION MENTAL HEALTH CENTER","500 VINE ST",,"Hartford","6112","(860) 297-0800","Unlisted/Unavailable","http://www.ct.gov/dmhas",,"Support Services",,,,,,,"Partnering with persons in recovery to ensure access to quality behavioral healthcare services.","500 VINE ST
HARTFORD, Connecticut 06112
(41.795957, -72.68765)","NORTH EAST"
"CAREER RESOURCES STRIVE PROGRAM","20 SARGEANT ST",,"Hartford","6105","(860) 560-0351","information@careerresources.org","http://www.careerresources.org",,,,,,,,"Workforce Development","Offers jobseekers throughout Connecticut the training, support, and resources needed to become employed and succeed in the workforce.","20 SARGEANT ST
HARTFORD, Connecticut 06105
(41.774592, -72.688016)","ASYLUM HILL"
"CATHEDRAL OF SAINT JOSEPH FOOD PANTRY","140 FARMINGTON AV",,"Hartford","6105","(860) 578-1434","Unlisted/Unavailable","http://www.homelessshelterdirectory.org",,"Support Services",,,,,,,"Food pantry serving only low-income residents of the Asylum Hill neighborhood.","140 FARMINGTON AV
HARTFORD, Connecticut 06105
(41.767904, -72.691684)","ASYLUM HILL"
"CATHOLIC CHARITIES ARCHDIOCESE OF HARTFORD","839 ASYLUM AV",,"Hartford","6105","(860) 493-1841","Unlisted/Unavailable","http://www.ccaoh.org","Youth and Family Enrichment","Support Services",,,,,,,"Promotes the dignity, self-sufficiency and potential of those in need.","839 ASYLUM AV
HARTFORD, Connecticut 06105
(41.769873, -72.692624)","ASYLUM HILL"
"CATHOLIC CHARITIES COMPREHENSIVE YOUTH SERVICES","35 GROTON ST",,"Hartford","6106","(860) 297-7800","Unlisted/Unavailable","http://www.ccaoh.org","Youth and Family Enrichment",,,,,,,,"Promotes the dignity, self-sufficiency and potential of those in need.","35 GROTON ST
HARTFORD, Connecticut 06106
(41.755379, -72.673372)","SHELDON-CHARTER OAK"
"CATHOLIC CHARITIES  EL CENTRO FAMILY CENTER","45 WADSWORTH ST",,"Hartford","6106","(860) 527-1124","Unlisted/Unavailable","http://www.ccaoh.org","Youth and Family Enrichment","Support Services",,,,,,,"Promotes the dignity, self-sufficiency and potential of those in need.","45 WADSWORTH ST
HARTFORD, Connecticut 06106
(41.758879, -72.679432)","SOUTH GREEN"
"CATHOLIC CHARITIES: EL PARAISO INFANTIL","45 WADSWORTH ST",,"Hartford","6106","(860) 524-6853","otoledo@ccaoh.org","http://www.ccaoh.org/childDev_FamCent_Paraiso.html",,,,"Early Childhood Education",,,,,"Offers quality, state licensed, full-time child care for children ages 3-5 years old.","45 WADSWORTH ST
HARTFORD, Connecticut 06106
(41.758879, -72.679432)","SOUTH GREEN"
"CATHOLIC CHARITIES - INSTITUTE FOR THE HISPANIC FAMILY","45 WADSWORTH ST",,"Hartford","6106","(860) 527-1124","Unlisted/Unavailable","http://www.ccaoh.org/",,"Support Services",,,,,,,,"45 WADSWORTH ST
HARTFORD, Connecticut 06106
(41.758879, -72.679432)","SOUTH GREEN"
"CATHOLIC CHARITIES MIGRATION, REFUGEE, AND IMMIGRATION SERVICES","35 GROTON ST",,"Hartford","6106","(860) 297-7800","Unlisted/Unavailable","http://www.ccaoh.org",,"Support Services",,,,,,,"Promotes the dignity, self-sufficiency and potential of those in need.","35 GROTON ST
HARTFORD, Connecticut 06106","SHELDON-CHARTER OAK"
"CATHOLIC CHARITIES: SS CYRIL AND METHODIUS EARLY CHILDHOOD CENTER","45 GROTON ST",,"Hartford","6105","(860) 527-3775","dplourde@ccaoh.org","http://www.ccaoh.org",,,,"Early Childhood Education",,,,,"Offers quality, state licensed, full-time child care for children ages 3-5 years old.","45 GROTON ST
HARTFORD, Connecticut 06105
(41.754838, -72.673233)","SHELDON-CHARTER OAK"
"CENTER FOR HUMAN DEVELOPMENT - ADULT MENTAL HEALTH - HARTFORD","237 HAMILTON ST","2nd Floor","Hartford","6106","(860) 951-3325","Unlisted/Unavailable","http://www.chd.org/adult-services/connecticut-programs",,"Support Services",,,,,,,"Provides a wide array of community-based mental health services and programs to help adults create sober, successful lives.","237 HAMILTON ST
HARTFORD, Connecticut 06106
(41.754228, -72.704047)","BEHIND THE ROCKS"
"CENTER FOR LATINO PROGRESS","95 PARK ST",,"Hartford","6106","(860) 247-3227","LatinoProgress@ctprf.org","http://www.ctprf.org",,,,,,,,"Workforce Development","Advances the socio-economic conditions of the community at large, with emphasis on Hispanics, through education, training, supportive services, leadership development, and advocacy.","95 PARK ST
HARTFORD, Connecticut 06106
(41.757345, -72.677726)","SOUTH GREEN"
"CENTRAL AREA HEALTH EDUCATION CENTER","20 SARGENT ST",,"Hartford","6105","(860) 920-5149","info@centralctahec.org","http://www.centralctahec.org","Youth and Family Enrichment","Support Services","Civic Engagement",,,,,,"Eliminates health disparities among diverse populations of Central Connecticut by providing and coordinating programs that improve the health status of all.","20 SARGENT ST
HARTFORD, Connecticut 06105
(41.774592, -72.688016)","ASYLUM HILL"
"CENTRO RENACER OF CONNECTICUT","164 BARTHOLOMEW AV",,"Hartford","6106","(860) 232-7353","Unlisted/Unavailable","http://www.http://www.centro-renacer.org/",,"Support Services",,,,,,,"Improves the lives of adults, youth and their families by providing successful bilingual treatment, education and holistic support services that assists in recovery from substance abuse problems and re-integration into the community.","164 BARTHOLOMEW AV
HARTFORD, Connecticut 06106
(41.752455, -72.704413)","BEHIND THE ROCKS"
"CHARTER OAK CULTURAL CENTER","21 CHARTER OAK",,"Hartford","6106","(860) 310-2580","Tianna.Glass@charteroakcenter.org","http://www.charteroakcenter.org","Youth and Family Enrichment",,,,,,,,"Doing the work of social justice through the arts, providing wide access to the magic of the arts for all regardless of income and 
celebrating the heritage of our historic building and to preserve it in perpetuity.","21 CHARTER OAK AV
HARTFORD, Connecticut 06106
(41.759629, -72.674296)","SOUTH END"
"CHARTER OAK HEALTH CENTER","21 GRAND ST",,"Hartford","6106","(860) 550-7500","jdamato@thecharteroak.org.","http://www.thecharteroak.org",,"Support Services",,,,,,,"Promotes healthier communities by providing quality, safe, patient-centered health care services in medically underserved areas, regardless of ability to pay.","21 GRAND ST
HARTFORD, Connecticut 06106
(41.759422, -72.685508)","FROG HOLLOW"
"CHILDREN'S LAW CENTER","30 ARBOR ST","NORTH","Hartford","6106","(860) 232-9993","clc@clcct.org","http://www.clcct.org",,"Support Services",,,,,,,"Protecting poor children in family court cases and advocate for systemic changes to the adversarial system and for other policies that advance the well-being of children involved in family transitions.","30 ARBOR ST
HARTFORD, Connecticut 06106
(41.760069, -72.703081)","PARKVILLE"
"CHRIST CHURCH CATHEDRAL - CHURCH STREET EATS PROGRAM","45 CHURCH ST",,"Hartford","6103","(860) 527-7232","office@cccathedral.org","http://www.cccathedral.org",,"Support Services",,,,,,,"Visits the sick, welcomes strangers, reaches out to the poor, provides clothing to the needy, feeds the hungry, encourages the discouraged, and heals the broken-hearted.","45 CHURCH ST
HARTFORD, Connecticut 06103
(41.768864, -72.67565)","DOWNTOWN"
"CHRYSALIS CENTER","255 HOMESTEAD AV",,"Hartford","6112","(860) 263-4400","info@chrysalis.org","http://www.chrysaliscenterct.org",,"Support Services",,,,,,,"Provides social services and develop affordable housing and help people living in poverty who struggle with mental illness, substance abuse, HIV/AIDS, release from incarceration, and homelessness.","255 HOMESTEAD AV
HARTFORD, Connecticut 06112
(41.77873, -72.697856)","UPPER ALBANY"
"CLASSICAL MAGNET SCHOOL (9-12)","85 WOODLAND ST",,"Hartford","6105","(860) 695-9100","Unlisted/Unavailable","http://www.classicalmagnet.org",,,,,,"Schools",,,"Prepares students for acceptance into competitive colleges and universities.","85 WOODLAND ST
HARTFORD, Connecticut 06105
(41.772856, -72.700469)","ASYLUM HILL"
"COMMISSION ON CHILDREN: STATE OF CONNECTICUT","20 TRINITY ST",,"Hartford","6106","(860) 240-0290","Elaine.zimmerman@cga.ct.gov","http://www.cga.ct.gov",,,"Civic Engagement",,"Government Agency",,,,"Promotes public policies in the best interests of children.","20 TRINITY ST
HARTFORD, Connecticut 06106
(41.76347, -72.680761)","DOWNTOWN"
"COMMISSION ON HUMAN RIGHTS AND OPPORTUNITIES: STATE OF CONNECTICUT","450 COLUMBUS BLVD",,"Hartford","6103","(860) 541-3400","Unlisted/Unavailable","http://www.ct.gov/chro",,,"Civic Engagement",,"Government Agency",,,,"Eliminates discrimination through civil and human rights law enforcement and to establish equal opportunity and justice for all persons within the state through advocacy and education.","450 COLUMBUS BLVD","DOWNTOWN"
"COMMUNITY HEALTH SERVICES","500 ALBANY AV",,"Hartford","6120","(860) 249-9625","Gregory.Stanton@chshartford.org","http://www.chshartford.org",,"Support Services",,,,,,,"Cares for each person from Greater Hartford who enters our doors, regardless of their income or ability to pay for services and whether or not they have insurance.","500 ALBANY AV
HARTFORD, Connecticut 06120
(41.777711, -72.684976)","CLAY-ARSENAL"
"COMMUNITY PARTNERS IN ACTION  (Administrative Offices)","110 BARTHOLOMEW AV","Suite 3010","Hartford","6106","(860) 566-2030","Please visit agency website for a complete listing of services and program email contacts.","http://www.cpa-ct.org/programs/",,"Support Services",,,,,,,"Community Partners in Action’s employment, basic needs and recovery services work together to reduce recidivism and enhance public safety as advocates for criminal justice reform and work in partnership with the State of Connecticut.","110 BARTHOLOMEW AV
HARTFORD, Connecticut 06106
(41.7547, -72.703668)","PARKVILLE"
"COMMUNITY RENEWAL TEAM (CRT)","555 WINDSOR ST",,"Hartford","6120","(860) 560-5600","info@crtct.org","http://www.crtct.org",,"Support Services",,,,,,"Workforce Development","Helps individuals and families access resources that will help them meet immediate and longer-term needs, improve job skills, maintain or increase their independence, stabilize living situations, and achieve educational goals.","555 WINDSOR ST
HARTFORD, Connecticut 06120
(41.781051, -72.671776)","CLAY-ARSENAL"
"COMMUNITY RENEWAL TEAM (CRT) ENERGY ASSISTANCE PROGRAM","395 WETHERSFIELD AV",,"Hartford","6114","(860) 560-5800","Energy@crtct.org","http://www.crtct.org",,"Support Services",,,,,,,"Helps people pay for utility or fuel bills including oil, natural gas, electricity, propane, kerosene, or wood.","395 WETHERSFIELD AV
HARTFORD, Connecticut 06114
(41.745084, -72.673114)","BARRY SQUARE"
"COMMUNITY RENEWAL TEAM, INC. (CRT) - CHILDREN'S LEARNING CENTER","211 LAUREL ST",,"Hartford","6105","(860) 560-5401","ECE@crtct.org","http://www.crtct.org",,,,"Early Childhood Education",,,,,"Offers Head Start and School Readiness for preschool children; Infant/toddler day care; after school programs; breakfast and lunch for  children during the summer months; and a food subsidy for home day care providers.","211 LAUREL ST
HARTFORD, Connecticut 06105
(41.764977, -72.697061)","ASYLUM HILL"
"COMMUNITY RENEWAL TEAM, INC. (CRT) - DOUGLAS ST ECE CENTER","170 DOUGLAS ST",,"Hartford","6114","(860) 560-5401","ECE@crtct.org","http://www.crtct.org",,,,"Early Childhood Education",,,,,"Offers Head Start and School Readiness for preschool children; Infant/toddler day care; after school programs; breakfast and lunch for  children during the summer months; and a food subsidy for home day care providers.","170 DOUGLAS ST
HARTFORD, Connecticut 06114
(41.736449, -72.685357)","SOUTH END"
"COMMUNITY RENEWAL TEAM, INC. (CRT) - GRACE STREET ECE CENTER","37 GRACE ST",,"Hartford","6106","(860) 560-5401","ECE@crtct.org","http://www.crtct.org",,,,"Early Childhood Education",,,,,"Offers Head Start and School Readiness for preschool children; Infant/toddler day care; after school programs; breakfast and lunch for  children during the summer months; and a food subsidy for home day care providers.","37 GRACE ST
HARTFORD, Connecticut 06106
(41.755506, -72.708585)","PARKVILLE"
"COMMUNITY RENEWAL TEAM, INC. (CRT) - HERITAGE CHILD DEVELOPMENT CENTER","175 ENFIELD ST",,"Hartford","6112","(860) 560-5437","ECE@crtct.org","http://www.crtct.org",,,,"Early Childhood Education",,,,,"Offers Head Start and School Readiness for preschool children; Infant/toddler day care; after school programs; breakfast and lunch for  children during the summer months; and a food subsidy for home day care providers.","175 ENFIELD ST
HARTFORD, Connecticut 06112
(41.786552, -72.683727)","NORTH EAST"
"COMMUNITY RENEWAL TEAM, INC. (CRT) - JOB CORPS EARLY CARE CENTER","100 WILLIAM SHORTY WAY",,"Hartford","6106","(860) 560-5401","ECE@crtct.org","http://www.crtct.org",,,,"Early Childhood Education",,,,,"Offers Head Start and School Readiness for preschool children; Infant/toddler day care; after school programs; breakfast and lunch for  children during the summer months; and a food subsidy for home day care providers.","100 WILLIAM SHORTY CAMPBELL ST
HARTFORD, Connecticut 06106
(41.739175, -72.710021)","BEHIND THE ROCKS"
"COMMUNITY RENEWAL TEAM RYAN WHITE BEHAVIORAL HEALTH OUTREACH","1921 PARK ST",,"Hartford","6106","(860) 761-7900","BHS@crt.ct.org","http://www.crtct.org",,"Support Services",,,,,,,"Provides physciatric counseling and recovery services for mental illness or drug/alcohol abuse through  intensive outpatient, partial hospitalization and/or medication management.","1921 PARK ST
HARTFORD, Connecticut 06106
(41.756431, -72.710824)","PARKVILLE"
"COMMUNITY SCHOOL AT BURR SCHOOL (managed by THE VILLAGE FOR FAMILIES & CHILDREN)","400 WETHERSFIELD AV",,"Hartford","6114","(860) 695-3080","vita@thevillage.org","http://www.villageforchildren.org","Youth and Family Enrichment",,,,,,,,"To build a community of strong healthy families who protect and nurture children.","400 WETHERSFIELD AV
HARTFORD, Connecticut 06114
(41.744899, -72.67309)","BARRY SQUARE"
"COMMUNITY SCHOOL AT HARTFORD MAGNET TRINITY COLLEGE ACADEMY (managed by COMPASS YOUTH COLLABORATIVE)","53 VERNON ST",,"Hartford","6106","(860) 695-7275","jessicawhite@compassyc.org","http://www.compassyc.org","Youth and Family Enrichment",,,,,,,,"Raising the expectations of youth, inspire families, and build peace in the community.","53 VERNON ST
HARTFORD, Connecticut 06106
(41.751262, -72.686491)","BARRY SQUARE"
"COMMUNITY SCHOOL AT WEST MIDDLE (managed by BOYS & GIRLS CLUB OF HARTFORD)","44 NILES ST",,"Hartford","6112","(860) 695-5510","jbumpers@bgchartford.org","http://www.bgchartford.org","Youth and Family Enrichment",,,,,,,,"Provides a safe, supportive atmosphere where children and teens can learn and grow and reach their full potential as productive, caring and responsible citizens.","44 NILES ST
HARTFORD, Connecticut 06112
(41.769666, -72.696476)","ASYLUM HILL"
"COMMUNITY SCHOOL AT WISH SCHOOL (managed by THE VILLAGE FOR FAMILIES & CHILDREN)","1680 ALBANY AVENUE",,"Hartford","6120","(860) 840-4213","adelgado@thevillage.org","http://www.villageforchildren.org","Youth and Family Enrichment",,,,,,,,"To build a community of strong healthy families who protect and nurture children.","37 CLARK ST
HARTFORD, Connecticut 06120
(41.786036, -72.677628)","BLUE HILLS"
"COMMUNITY SCHOOL LATINO STUDIES ACADEMY AT BURNS (managed by COMPASS YOUTH COLLABORATIVE)","195 PUTNAM ST",,"Hartford","6106","(860) 695-2980","anthonydaddona@compassyc.org","http://www.compassyc.org","Youth and Family Enrichment",,,,,,,,"Raises the expectations of youth, inspire families, and build peace in the community.","195 PUTNAM ST
HARTFORD, Connecticut 06106
(41.761181, -72.690452)","FROG HOLLOW"
"COMMUNITY SCHOOLS AT BELLIZZI ASIAN STUDIES ACADEMY (managed by COMPASS YOUTH COLLABORATIVE)","215 SOUTH ST",,"Hartford","6114","(860) 695-2400","Damionmorgan@compassyc.org","http://www.compassyc.org","Youth and Family Enrichment",,,,,,,,"Raises the expectations of youth, inspire families, and build peace in the community.","215 SOUTH ST
HARTFORD, Connecticut 06114
(41.734532, -72.6809)","SOUTH END"
"COMMUNITY SCHOOLS AT MILNER JUMOKE ACADEMY HONORS (managed by CATHOLIC CHARITIES)","104 VINE ST",,"Hartford","6112","(860) 695-4457","tfeliz@ccaoh.org","http://www.ccaoh.org","Youth and Family Enrichment",,,,,,,,"Promotes the dignity, self-sufficiency and potential of those in need.","104 VINE ST
HARTFORD, Connecticut 06112
(41.782572, -72.688205)","UPPER ALBANY"
"COMMUNITY SUBSTANCE ABUSE CENTER","55 FISHFRY ST",,"Hartford","6120","(860) 247-8300","info@csachelp.com","http://www.csacmethadone.com",,"Support Services",,,,,,,"Provides high-quality, cost-effective care that treats all individuals with the utmost dignity and respect and foster a work environment that supports the diversity, health, and growth of each employee.","55 FISHFRY ST
HARTFORD, Connecticut 06120
(41.793571, -72.659046)","NORTH MEADOWS"
"COMPASS YOUTH COLLABORATIVE, INC.","55 AIRPORT RD","Suite 201","Hartford","6114","(860) 296-2855","jacquelynsantiago@compassyc.org","http://www.compassyc.org","Youth and Family Enrichment",,,,,,,,"Raises the expectations of youth, inspire families, and build peace in the community through focused work in the schools and in the community with our Peacebuilders Program. The schools target youth ages 7-17 and Peacebuilders 13-18.","55 AIRPORT RD
HARTFORD, Connecticut 06114
(41.738078, -72.668503)","SOUTH MEADOWS"
"CONNECTICUT CENTER FOR NON-VIOLENCE - NORTHEND CHURCH OF CHRIST","687 ALBANY AV",,"Hartford","6112","(860) 567-3441","info@ctnonviolence.org","http://www.ctnonviolence.org","Youth and Family Enrichment",,"Civic Engagement",,,,,,"Brings people from diverse communities together in dialogue and creative expression to explore the root causes of violence and to learn constructive methods of developing and applying alternative solutions.","687 ALBANY AV
HARTFORD, Connecticut 06112
(41.778816, -72.688239)","UPPER ALBANY"
"CONNECTICUT CHILDREN'S MEDICAL CENTER","282 WASHINGTON ST",,"Hartford","6106","(860) 545-9000","Unlisted/Unavailable","http://www.connecticutchildrens.org",,"Support Services",,,,,,,"Improves the physical and emotional health of children through family-centered care, research, education, and advocacy.","282 WASHINGTON ST
HARTFORD, Connecticut 06106
(41.753482, -72.682812)","SOUTH GREEN"
"CONNECTICUT FAIR HOUSING CENTER","221 MAIN ST","4th Floor","Hartford","6106","(860) 247-4400","info@ctfairhousing.og","http://www.ctfairhousing.org",,"Support Services","Civic Engagement",,,,,,"Provides free investigative and legal services to residents who believe they have been the victims of housing discrimination and also conducts statewide education and outreach to ensure that residents understand their fair housing rights.","221 MAIN ST
HARTFORD, Connecticut 06106
(41.758407, -72.675439)","SOUTH GREEN"
"CONNECTICUT HISTORICAL SOCIETY","1 ELIZABETH ST",,"Hartford","6105","(860) 236-5621","Ask_us@chs.org","http://www.chs.org","Youth and Family Enrichment",,,,,,,,"Promotes intentional thinking about 
how the CHS's exhibitions, programs, collections, and daily operations affect the natural environment and the health of our community.","1 ELIZABETH ST
HARTFORD, Connecticut 06105
(41.773467, -72.705514)","WEST END"
"CONNECTICUT OFFICE OF EARLY CHILDHOOD: STATE OF CONNECTICUT","450 COLUMBUS BLVD",,"Hartford","6103","(860) 500-4412","Unlisted/Unavailable","http://www.ct.gov/oec",,,"Civic Engagement",,"Government Agency",,,,"Supports all young children in their development by ensuring that early childhood policy, funding and services strengthen the critical role families, providers, educators and communities play in a child's life.","450 COLUMBUS BLVD
HARTFORD, Connecticut 06103
(41.767017, -72.6694)","DOWNTOWN"
"CONNECTICUT PUBLIC BROADCASTING NETWORK","1049 ASYLUM AV",,"Hartford","6105","(860) 275-7550","audiencecare@cpbn.org","http://www.cpbn.org","Youth and Family Enrichment",,"Civic Engagement",,,,,,"Informs, educates, entertains and inspires our audiences in Connecticut and beyond.","1049 ASYLUM AV
HARTFORD, Connecticut 06105
(41.772144, -72.699901)","ASYLUM HILL"
"CONNECTICUT SCIENCE CENTER","250 COLUMBUS BLVD",,"Hartford","6103","(860) 724-3623","outreach@ctsciencecenter.org","http://www.ctsciencecenter.org","Youth and Family Enrichment",,,,,,,,"Connecticut's premier destination for informal science learning, and is well on its way to becoming the state's foremost Science, Technology, Engineering and Mathematics (STEM) resource.","250 COLUMBUS BLVD
HARTFORD, Connecticut 06103
(41.764834, -72.669635)","DOWNTOWN"
"CONNECTIKID, INC","814 ASYLUM AV",,"Hartford","6105","(860) 522-8710","awilliams@ct-kids.org","http://www.ct-kids.org","Youth and Family Enrichment",,,,,,,,"Provides successful mentors, individualized tutoring, enriching activities, and stimulating environments for Hartford's children.","814 ASYLUM AV
HARTFORD, Connecticut 06105
(41.769609, -72.691763)","ASYLUM HILL"
"COUNCIL ON DEVELOPMENTAL DISABILITIES: STATE OF CONNECTICUT","460 CAPITOL AV",,"Hartford","6106","(800) 418-6160","Unlisted/Unavailable","http://www.ct.gov/ctcdd",,,,,"Government Agency",,,,"The mission of the CT Council on Developmental Disabilities is to promote the full inclusion of all people with disabilities in community life.","460 CAPITOL AV
HARTFORD, Connecticut 06106
(41.76359, -72.69128)","FROG HOLLOW"
"COVENANT PREP MIDDLE SCHOOL (6-8)","135 BROAD ST",,"Hartford","6105","(860) 547-0289","Unlisted/Unavailable","http://www.covenantprep.org",,,,,,"Schools",,,"Provides young men from families with limited resources the foundation required to successfully pursue higher education, to develop the strength of their character, and to live with integrity as leaders committed to their communities.","135 BROAD ST
HARTFORD, Connecticut 06105
(41.767378, -72.686185)","ASYLUM HILL"
"COVENANT TO CARE FOR CHILDREN","1477 PARK ST",,"Hartford","6106","(860) 243-1806","dsantis@covenanttocare.org","http://www.covenanttocare.org",,"Support Services",,,,,,,"Encourages caring and faithful people to advocate for and provide direct assistance to Connecticut's children who are neglected, abused and/or impoverished.","1477 PARK ST
HARTFORD, Connecticut 06106
(41.757856, -72.70292)","PARKVILLE"
"CRAYONS & NUMBERS, LLC","691 BLUE HILLS AV",,"Hartford","6112","(860) 293-2577","Unlisted/Unavailable","Unlisted/Unavailable",,,,"Early Childhood Education",,,,,"Our small classroom sizes allow us to give each child individual attention. We provide breakfast, lunch and afternoon snack each day and offer many activities such as art, computer, reading, gardening, and much more.","691 BLUE HILLS AV
HARTFORD, Connecticut 06112
(41.806366, -72.695627)","BLUE HILLS"
"CRRA TRASH MUSEUM","211 MURPHY RD",,"Hartford","6114","(860) 757-7765","education@crra.org","http://www.crra.org","Youth and Family Enrichment",,,,,,,,"Develops and implements environmentally sound solutions and best practices for solid waste disposal and recycling management on behalf of the municipalities and residents of the State of Connecticut.","211 MURPHY RD
HARTFORD, Connecticut 06114
(41.736675, -72.654263)","SOUTH MEADOWS"
"CT PARENT POWER","110 BARTHOLOMEW AV","Suite 4030","Hartford","6106","(860) 951-2212 ext. 273","info@ctparentpower.org","http://www.ctparentpower.org/",,,"Civic Engagement",,,,,,"Engages, educates and mobilizes parents to act on children's issues.","110 BARTHOLOMEW AV
HARTFORD, Connecticut 06106
(41.7547, -72.703668)","PARKVILLE"
"CULINARY ARTS ACADEMY (9-12)","415 GRANBY ST",,"Hartford","6112","(860) 695-1733","welcomecenter@hartfordschools.org","http://www.hartfordschools.org",,,,,,"Schools",,,"Engages 400 students grades 9-12 students in a learning environment that combines rigorous academic courses with a related sequence of career pathway courses focused on Culinary Arts and Hospitality Management.","415 GRANBY ST
HARTFORD, Connecticut 06112
(41.800405, -72.706535)","BLUE HILLS"
"CULTURAL DANCE TROUPE OF THE WEST INDIES, INC.","2998 MAIN ST",,"Hartford","6120","(860) 249-8915","v.coleman@culturaldance.org","http://www.culturaldance.org","Youth and Family Enrichment",,,,,,,,"Through dance and music, brings the rich cultural heritage of the West Indies to the Hartford community.","2998 MAIN ST
HARTFORD, Connecticut 06120
(41.793199, -72.666485)","NORTH EAST"
"DEPARTMENT OF CHILDREN AND FAMILIES: STATE OF CONNECTICUT","505 HUDSON ST",,"Hartford","6106","(860) 550-6300","DCF.WEBMASTER@CT.GOV","http://www.ct.gov/dcf",,,"Civic Engagement",,"Government Agency",,,,"Working together with families and communities for children who are healthy, safe, smart and strong.","505 HUDSON ST
HARTFORD, Connecticut 06106
(41.756984, -72.678703)","SOUTH GREEN"
"DEPARTMENT OF CHILDREN AND FAMILIES: STATE OF CONNECTICUT","250 HAMILTON ST",,"Hartford","6106","(860) 418-8000","Commissioner.dcf@ct.gov","http://www.ct.gov/dcf",,,,,"Government Agency",,,,"Working together with families and communities for children who are healthy, safe, smart and strong.","250 HAMILTON ST
HARTFORD, Connecticut 06106
(41.754504, -72.704883)","PARKVILLE"
"DEPARTMENT OF DEVELOPMENTAL SERVICES: STATE OF CONNECTICUT","460 CAPITOL AV",,"Hartford","6106","(860) 418-6000","ddsct.co@ct.gov","http://www.ct.gov/dds",,,,,"Government Agency",,,,"Creates and promotes meaningful opportunities for individuals to fully participate as valued members of their communities.","460 CAPITOL AV
HARTFORD, Connecticut 06106
(41.76359, -72.69128)","FROG HOLLOW"
"DEPARTMENT OF EDUCATION: STATE OF CONNECTICUT","450 COLUMBUS BLVD",,"Hartford","6103","(860) 713-6543","Unlisted/Unavailable","http://www.sde.ct.gov",,,,,"Government Agency",,,,"Ensures equal opportunity and excellence in education for all Connecticut students through leadership, curriculum, research, planning, evaluation, assessment, data analyses, and other assistance.","450 COLUMBUS BLVD
HARTFORD, Connecticut 06103
(41.767017, -72.6694)","DOWNTOWN"
"DEPARTMENT OF FAMILIES, CHILDREN, YOUTH, AND RECREATION: CITY OF HARTFORD","550 MAIN ST",,"Hartford","6103","(860) 757-9595","dfcyr@hartford.gov","http://www.hartford.gov/dfcyr",,,,,"Government Agency",,,,"Promotes the safety, permanency and well-being of  children, youth and families.","550 MAIN ST
HARTFORD, Connecticut 06103
(41.762809, -72.674277)","DOWNTOWN"
"DEPARTMENT OF HEALTH AND HUMAN SERVICES: CITY OF HARTFORD","131 COVENTRY ST",,"Hartford","6112","(860) 757-4700","Unlisted/Unavailable","http://www.hartford.gov/hhs",,"Support Services","Civic Engagement",,,,,,"Protects the well-being of the people in Hartford; promote an environment conducive to healthy lifestyles; prevent adverse health outcomes; and reduce health disparities.","131 COVENTRY ST
HARTFORD, Connecticut 06112
(41.80037, -72.690054)","BLUE HILLS"
"DEPARTMENT OF HOUSING: STATE OF CONNECTICUT","505 HUDSON ST",,"Hartford","6106","(860) 270-8262","Unlisted/Unavailable","http://www.ct.gov/doh/site/default.asp",,,,,"Government Agency",,,,"Works toward increasing accessability across the state to affordable housing in strong, vibrant, and inclusive communities and to end homelessness.","505 HUDSON ST
HARTFORD, Connecticut 06106
(41.756984, -72.678703)","SOUTH GREEN"
"DEPARTMENT OF MENTAL HEALTH AND ADDICTION SERVICES: STATE OF CONNECTICUT","410 CAPITOL AV","4th Floor","Hartford","6106","(860) 418-7000","Unlisted/Unavailable","http://www.ct.gov/dmhas",,"Support Services",,,"Government Agency",,,,"Improves the quality of life of the people of Connecticut by providing an integrated network of comprehensive, effective and efficient mental health and addiction services that foster self-sufficiency, dignity and respect.","410 CAPITOL AV
HARTFORD, Connecticut 06106
(41.763725, -72.689632)","FROG HOLLOW"
"DEPARTMENT OF REHABILITATION SERVICES: STATE OF CONNECTICUT","67 PROSPECT AV","12th Floor","Hartford","6106","(860) 424-5055","Unlisted/Unavailable","http://www.ct.gov/dors",,,,,"Government Agency",,,,"Maximizes opportunities for people in Connecticut with disabilities to live, learn and work independently.","67 PROSPECT AV
HARTFORD, Connecticut 06106
(41.747267, -72.715231)","SOUTH END"
"DEPARTMENT OF SOCIAL SERVICES:  STATE OF CONNECTICUT","55 FARMINGTON AV",,"Hartford","6105","(800) 842-4524","commis.dss@ct.gov","http://www.ct.gov/dss",,"Support Services",,,"Government Agency",,,,"State agency administers state and federal cash assistance, food stamp and medical insurance programs for low income individuals, individuals who are elderly or disabled, and refugees.","55 FARMINGTON AV
HARTFORD, Connecticut 06105
(41.76808, -72.68776)","ASYLUM HILL"
"DEPARTMENT ON AGING: STATE OF CONNECTICUT","55 FaRMINGTON AV","12th Floor","Hartford","6105","(866) 218-6631","aging.sda@ct.gov","http://www.ct.gov/agingservices",,,,,"Government Agency",,,,"Informs Connecticut's older adult residents about programs and services available to assist them, their families, and their communities.","55 FaRMINGTON AV
HARTFORD, Connecticut 06105
(41.76808, -72.68776)","ASYLUM HILL"
"DISCOVERY ACADEMY (PK-5)","417 FRANKLIN AV",,"Hartford","6114","(860) 296-2090","Unlisted/Unavailable","http://www.crecschools.org",,,,,,"Schools",,,"Develops strong foundational knowledge for students in four interrelated domains of STEM literacy: Science, Technology, Engineering and Mathematics.","417 FRANKLIN AV
HARTFORD, Connecticut 06114
(41.738289, -72.675492)","SOUTH END"
"DIVISION OF PUBLIC DEFENDER SERVICES: STATE OF CONNECTICUT","30 TRINITY ST","4th Floor","Hartford","6106","(860) 509-6400","Unlisted/Unavailable","http://www.ct.gov/ocpd",,"Support Services",,,"Government Agency",,,,"Provides counsel in accordance with both the United States and Connecticut Constitutions to any indigent person charged with the commission of a crime that carries a risk of incarceration.","30 TRINITY ST
HARTFORD, Connecticut 06106
(41.763814, -72.68063)","DOWNTOWN"
"DR. JAMES H. NAYLOR/CCSU LEADERSHIP ACADEMY (PK 3-8)","639 FRANKLIN AV",,"Hartford","6114","(860) 695-4620","welcomecenter@hartfordschools.org","http://www.hartfordschools.org",,,,,,"Schools",,,"Increases student achievement through teacher preparation, professional development, technology, and grants. Collaboration is a critical area of focus.","639 FRANKLIN AV
HARTFORD, Connecticut 06114
(41.730999, -72.67424)","SOUTH END"
"DR. JOSEPH S. RENZULLI GIFTED AND TALENTED ACADEMY (4-8)","110 WASHINGTON ST",,"Hartford","6106","(860) 695-2140","welcomecenter@hartfordschools.org","https://www.hartfordschools.org",,,,,,"Schools",,,"Offers high quality and distinctive programs specific to those needed to accommodate Hartford's identified gifted and talented youth.","110 WASHINGTON ST
HARTFORD, Connecticut 06106
(41.759391, -72.682156)","SOUTH GREEN"
"DR. MICHAEL D. FOX SCHOOL (PK 4-8)","470 MAPLE AV",,"Hartford","6114","(860) 695-7790","welcomecenter@hartfordschools.org","http://www.hartfordschools.org",,,,,,"Schools",,,"Students are challenged academically, nurtured emotionally and practice social skills daily. A career-focused curriculum that prepares students holistically to enter high school.","470 MAPLE AV
HARTFORD, Connecticut 06114
(41.746596, -72.680861)","BARRY SQUARE"
"E.B. KENNELLY ELEMENTARY SCHOOL (PK 4-8)","180 WHITE ST",,"Hartford","6114","(860) 695-3860","welcomecenter@hartfordschools.org","http://www.hartfordschools.org",,,,,,"Schools",,,"Provides a dynamic learning community, with teachers and parents partnering to create a positive, high- achieving environment, where differences are valued.","180 WHITE ST
HARTFORD, Connecticut 06114
(41.73482, -72.695022)","SOUTH WEST"
"EBONY HORSEWOMEN EQUESTRIAN CENTER","337 VINE ST",,"Hartford","6112","(860) 293-2914","info@ebonyhorsewomen.us","http://www.ebonyhorsewomen.us","Youth and Family Enrichment",,,,,,,,"Empowers youth toward successful lives through the use of equine assisted growth, learning programs, and activities.","337 VINE ST
HARTFORD, Connecticut 06112
(41.790345, -72.686824)","NORTH EAST"
"EMERGENCY SERVICES & TELECOMMUNICATIONS: CITY OF HARTFORD","253 HIGH ST",,"Hartford","6103","(860) 757-4050                                       (860) 757-4050","Unlisted/Unavailable","http://www.hartford.gov/emergency-services",,"Support Services",,,"Government Agency",,,,"Provides leadership for an organized effort to mitigate against, prepare for, and recover from, an emergency by conducting local and regional emergency operations planning and providing quality emergency call intake and dispatch.","253 HIGH ST
HARTFORD, Connecticut 06103
(41.772289, -72.677876)","DOWNTOWN"
"END HUNGER CONNECTICUT!","65 HUNGERFORD ST",,"Hartford","6106","(860) 560-2100","endhunger@endhungerct.org","http://www.endhungerct.org",,"Support Services","Civic Engagement",,,,,,"Focus on advocacy, outreach, education and research to serve as a comprehensive anti-hunger resource for policymakers, community organizations, and low-income families to improve the levels of food security and nutrition among Connecticut families.","65 HUNGERFORD ST
HARTFORD, Connecticut 06106
(41.761539, -72.685465)","FROG HOLLOW"
"ENVIRONMENTAL SCIENCES MAGNET SCHOOL AT MARY HOOKER (PK 3-8)","440 BROADVIEW TER",,"Hartford","6106","(860) 695-3760","welcomecenter@hartfordschools.org","http://www.environmentalsciencesmagnet.org",,,,,,"Schools",,,"Serves students from Pre-Kindergarten (age 4) through Grade 8 and ensure that all students attain high academic achievement through theme-based instruction in a safe, responsive learning community.","440 BROADVIEW TER
HARTFORD, Connecticut 06106
(41.741112, -72.700528)","BEHIND THE ROCKS"
"EXPEDITIONARY LEARNING ACADEMY AT MOYLAN (PK 4-5)","101 CATHERINE ST",,"Hartford","6106","(860) 695-4500","welcomecenter@hartfordschools.org","http://www.hartfordschools.org",,,,,,"Schools",,,"Provides a project-based research approach where critical thinking and problem-solving skills are mastered through participation in learning expeditions, case studies, field work, and exhibitions of student work.","101 CATHERINE ST
HARTFORD, Connecticut 06106
(41.746325, -72.69866)","BEHIND THE ROCKS"
"FAMILIES IN CRISIS","60 POPIELUSZKO CT",,"Hartford","6106","(860) 727-5800","info@familiesincrisis.org","http://www.familiesincrisis.org/",,"Support Services",,,,,,,"Strengthens communities by helping offenders rebuild their lives and re-enter society; and promote systemic change by educating the public and policymakers about the impact of incarceration on families.","60 POPIELUSZKO CT
HARTFORD, Connecticut 06106
(41.758056, -72.672277)","SHELDON-CHARTER OAK"
"FAMILY INSTITUTE OF CONNECTICUT","77 BUCKINGHAM ST",,"Hartford","6106","(860) 548-0066","info@ctfamily.org","http://www.ctfamily.org","Youth and Family Enrichment",,,,,,,,"Fosters partnerships that engage families in a participatory process leading to self-efficacy.","77 BUCKINGHAM ST
HARTFORD, Connecticut 06106
(41.760182, -72.676645)","SOUTH GREEN"
"FAMILY LIFE EDUCATION, INC.","30 ARBOR ST",,"Hartford","6106","(860) 231-7744","info@familylifeedu.org","http://www.familylifeedu.org","Youth and Family Enrichment","Support Services",,,,,,,"Building a stronger community by fostering partnerships that engage families in a participatory process leading to self-efficacy.","30 ARBOR ST
HARTFORD, Connecticut 06106
(41.760069, -72.703081)","PARKVILLE"
"FAMILY MEDICINE CENTER AT ASYLUM HILL","99 WOODLAND ST",,"Hartford","6105","(860) 714-4212","Unlisted/Unavailable","http://www.asylumhillfamilymedicine.org",,"Support Services",,,,,,,"Delivers quality patient and family-centered healthcare that strengthens the long-term healing relationships between patients, their physicians and healthcare teams and prioritizes continuity of care, patient access, and disease management.","99 WOODLAND ST
HARTFORD, Connecticut 06105
(41.774252, -72.699832)","ASYLUM HILL"
"FIRST CHURCH OF THE LIVING GOD FOOD PANTRY","70 WHITNEY ST",,"Hartford","6105","(860) 232-4461","Unlisted/Unavailable","Unlisted/Unavailable",,"Support Services",,,,,,,"Provides a food pantry is for Greater Hartford area residents.","70 WHITNEY ST
HARTFORD, Connecticut 06105
(41.76895, -72.711723)","WEST END"
"FOOD AND DRUG ADMINISTRATION UNITED STATES: HARTFORD OFFICE","135 HIGH ST","Room 230","Hartford","6103","(860) 240-4289","Unlisted/Unavailable","http://www.fda.gov",,"Support Services",,,,,,,"Protecting and promoting your health.","135 HIGH ST
HARTFORD, Connecticut 06103
(41.769661, -72.679888)","DOWNTOWN"
"GIRL SCOUTS OF CONNECTICUT","340 WASHINGTON ST",,"Hartford","6106","(860) 522-0163","general@gsofct.org","http://www.gsofct.org","Youth and Family Enrichment",,,,,,,,"Instills girls with courage, confidence, and character in order to make the world a better place.","340 WASHINGTON ST
HARTFORD, Connecticut 06106
(41.751782, -72.683016)","SOUTH GREEN"
"GLOBAL COMMUNICATIONS ACADEMY IB (K-6, 9 & 10)","85 EDWARDS ST",,"Hartford","6120","(860) 695-6020","welcomecenter@hartfordschools.org","http://www.hartfordschools.org",,,,,,"Schools",,,"Develops inquiring, knowledgeable, and caring global citizens through a program that offers a rigorous curriculum fostering scholarly curiosity, respect for humanity and the environment in order to create a better and more peaceful world.","85 EDWARDS ST
HARTFORD, Connecticut 06120
(41.774536, -72.681497)","CLAY-ARSENAL"
"GLORY CHAPEL FOOD PANTRY","221 GREENFIELD ST",,"Hartford","6112","(860) 547-1561","Unlisted/Unavailable","http://www.glorychapelhartford.com/outreach.html",,"Support Services",,,,,,,"Helping feed the hungry by providing groceries to persons in need.","221 GREENFIELD ST
HARTFORD, Connecticut 06112
(41.784442, -72.693729)","UPPER ALBANY"
"GOVERNOR'S OFFICE: STATE OF CONNECTICUT","210 CAPITOL AV",,"Hartford","6106","(800) 566-4840","Governor.Malloy@ct.gov","http://www.governor.ct.gov",,,,,"Government Agency",,,,"Keeps Connecticut residents  up-to-date and in-the-know as we tackle the state's challenges","210 CAPITOL AV
HARTFORD, Connecticut 06106
(41.762879, -72.682508)","DOWNTOWN"
"GRACE ACADEMY (5-8)","277 MAIN ST",,"Hartford","6106","(860) 263-7535","Unlisted/Unavailable","http://www.graceacademyhartford.org",,,,,,"Schools",,,"Provides an independent, interfaith, tuition-free middle school for girls from underserved families in the city of Hartford which offers individualized attention, a challenging and diverse academic program, and a safe and inspiring environment.","277 MAIN ST
HARTFORD, Connecticut 06106
(41.759064, -72.675352)","SOUTH GREEN"
"GRACE EPISCOPAL CHURCH FOOD PANTRY","55 NEW PARK AV",,"Hartford","6106","(860) 233-0825","GraceHartford@sbcglobal.net","http://www.gracehartford.org",,"Support Services",,,,,,,"Builds a strong, worshipping community of caring people reaching out to others in the name of Christ.","55 NEW PARK AV
HARTFORD, Connecticut 06106
(41.755253, -72.707171)","PARKVILLE"
"GRACE EVANGELICAL LUTHERAN CHURCH - GRACE SUPPER GATHERING","46 WOODLAND ST",,"Hartford","6105","(860) 527-7792","Unlisted/Unavailable","http://www.graceistheplace.org",,"Support Services",,,,,,,"Nurture faith (Matt.28:19-20) and serve others (Matt.25:34-36).","46 WOODLAND ST
HARTFORD, Connecticut 06105
(41.770582, -72.701458)","ASYLUM HILL"
"GRACE SEVENTH DAY ADVENTIST CHURCH FOOD PANTRY","870 PROSPECT AV",,"Hartford","6105","(860) 523-0096","Unlisted/Unavailable","http://www.gracesda.org",,"Support Services",,,,,,,"Distributes food for anyone in need, including The Emergency Food Assistance Program (TEFAP) recipients.","870 PROSPECT AV
HARTFORD, Connecticut 06105
(41.774657, -72.714924)","WEST END"
"GREATER HARTFORD ACADEMY OF MATHEMATICS & SCIENCE (9-12)","15 VERNON ST",,"Hartford","6106","(860) 757-6316","Unlisted/Unavailable","http://www.crecschools.org",,,,,,"Schools",,,"Provides a highly competitive science and mathematics curriculum for students in grades 9-12, taught through the integration of state-of-the-art technology.","15 VERNON ST
HARTFORD, Connecticut 06106
(41.751379, -72.684141)","BARRY SQUARE"
"GREATER HARTFORD ACADEMY OF THE ARTS (9-12)","15 VERNON ST",,"Hartford","6106","(860) 757-6300","Unlisted/Unavailable","http://www.crecschools.org",,,,,,"Schools",,,"Students interested in the arts will find a professionally oriented, highly structured, and academically rigorous curriculum at the Greater Hartford Academy of the Arts.","15 VERNON ST
HARTFORD, Connecticut 06106
(41.751379, -72.684141)","BARRY SQUARE"
"GREATER HARTFORD ACADEMY OF THE ARTS MAGNET MIDDLE SCHOOL (6-8)","75 VAN DYKE AV",,"Hartford","6106","(860) 724-0685","Unlisted/Unavailable","http://www.crecschools.org",,,,,,"Schools",,,"Provides an integrated learning environment for students in Grades 6-8 that combines a rigorous core curriculum enhanced by an art-themed focus.","75 VAN DYKE AV
HARTFORD, Connecticut 06106
(41.753383, -72.65935)","SHELDON-CHARTER OAK"
"GREATER HARTFORD ARTS COUNCIL","100 PEARL ST","1st Floor","Hartford","6103","(860) 525-8629","info@letsgoarts.org","http://www.letsgoarts.org","Youth and Family Enrichment",,,,,,,,"Provides leadership for the financial success and organizational stability of the arts, heritage and cultural community of Connecticut's capital region.","100 PEARL ST
HARTFORD, Connecticut 06103
(41.766064, -72.674794)","DOWNTOWN"
"GREATER HARTFORD LEGAL AID","999 ASYLUM AV","3rd Floor","Hartford","6105","(860) 541-5000","ghla@ghla.org","http://www.ghla.org",,"Support Services",,,,,,,"Not-for-profit law office providing free civil legal services to low income people and seniors in the Hartford area.","999 ASYLUM AV
HARTFORD, Connecticut 06105
(41.771495, -72.697802)","ASYLUM HILL"
"GREATER HARTFORD TRANSIT DISTRICT (GHTD)","1 UNION PL",,"Hartford","6103","(860) 247-5329","vshotland@ghtd.org","http://www.hartfordtransit.org",,"Support Services",,,,,,,"Provides the highest quality transportation and transit- related support services and secure capital items crucial to viable transportation systems within the Greater Hartford region and statewide.","1 UNION PL
HARTFORD, Connecticut 06103
(41.769395, -72.681249)","DOWNTOWN"
"GUAKIA INC.","75 CHARTER OAK  AV",,"Hartford","6106","(860) 548-9555","guakiainc@gmail.com","http://www.guakia.org","Youth and Family Enrichment",,,,,,,,"Offers youth high quality instruction in the arts and humanities focused on Puerto Rican and Hispanic culture.","75 CHARTER OAK AV
HARTFORD, Connecticut 06106
(41.758845, -72.670024)","BEHIND THE ROCKS"
"HANDS ON HARTFORD","55 BARTHOLOMEW AV",,"Hartford","6105","(860) 728-3201","Unlisted/Unavailable","http://www.handsonhartford.org/",,"Support Services",,,,,,,"Provides Hartford's neediest residents with assistance in obtaining  food, housing, and economic security.","55 BARTHOLOMEW AV
HARTFORD, Connecticut 06105
(41.755913, -72.703218)","PARKVILLE"
"HARC","900 ASYLUM AV",,"Hartford","6105","(860) 218-6000","info@harc-ct.org","http://www.harc-ct.org",,"Support Services","Civic Engagement",,,,,,"Helps people with intellectual disability and their families enjoy lives of quality, inclusion and dignity by providing support, education, and advocacy.","900 ASYLUM AV
HARTFORD, Connecticut 06105
(41.770617, -72.695036)","ASYLUM HILL"
"HARFORD PUBLIC SCHOOLS - FAMILY SERVICES WELCOME CENTER","960 MAIN ST","1st Floor","Hartford","6103","(860) 695-8400","fagaj001@hartfordschools.org","http://www.hartfordschools.org",,"Support Services",,,,,,,"Links students, parents, principals, teachers, employees, and the community to available resources and ensure accurate information and quality assistance for all.","960 MAIN ST
HARTFORD, Connecticut 06103
(41.768459, -72.673034)","DOWNTOWN"
"HARTFORD AREA CHILD CARE COLLABORATIVE","10 COLUMBUS BLVD","8th Floor","Hartford","6106","(860) 548-1888","haccc@haccc.info","http://www.hfpgcollaborative.org",,"Support Services",,,,,,,"An initiative of the Hartford Foundation, the Collaborative is committed to promoting and sustaining high quality early childhood programs in Greater Hartford.","10 COLUMBUS BLVD
HARTFORD, Connecticut 06106
(41.759345, -72.669566)","SHELDON-CHARTER OAK"
"HARTFORD AREA HABITAT FOR HUMANITY","780 WINDSOR ST",,"Hartford","6120","(860) 541-2208","info@hartfordhabitat.org","http://www.hartfordhabitat.org",,"Support Services",,,,,,,"Brings people together to build homes, communities and hope.","780 WINDSOR ST
HARTFORD, Connecticut 06120
(41.788681, -72.66944)","NORTH EAST"
"HARTFORD AREA SEVENTH DAY ADVENTIST PRESCHOOL (PK-9)","474 WOODLAND ST",,"Hartford","6112","(860) 724-5777","office@hasdas.com","http://www.hasdas.com/",,,,,,"Schools",,,"Serves pre-kindergarten through grade eight children with a quality Christian education.","474 WOODLAND ST
HARTFORD, Connecticut 06112
(41.783113, -72.695789)","UPPER ALBANY"
"HARTFORD BEHAVIORAL HEALTH","1 MAIN ST",,"Hartford","6106","(860) 727-8703","Unlisted/Unavailable","http://www.hbh1.org",,"Support Services",,,,,,,"Meets the behavioral health needs of primarily Hartford residents by providing the highest quality, culturally competent services in a cost- effective manner.","1 MAIN ST
HARTFORD, Connecticut 06106
(41.755446, -72.676367)","SOUTH GREEN"
"HARTFORD CITY MISSION","280 VINE ST",,"Hartford","6112","(860) 246-0132","Unlisted/Unavailable","http://www.hartfordcitymission.org","Youth and Family Enrichment",,,,,,,,"Dedicated to transforming the spiritual, educational, and social fabric of the North End of Hartford.","280 VINE ST
HARTFORD, Connecticut 06112
(41.788649, -72.687166)","NORTH EAST"
"HARTFORD COMMUNITIES THAT CARE, INC.","2550 MAIN ST","3rd Floor","Hartford","6120","(860) 724-1223","info@hartfordctc.org","http://www.hartfordctc.org","Youth and Family Enrichment",,,,,,,,"Creates a non-violent and drug-free environment through the coordination and collaboration of services, promotion of education, healthy lifestyles, and practices and by the formation of effective partnerships with key members of the community.","2550 MAIN ST
HARTFORD, Connecticut 06120
(41.788983, -72.671965)","NORTH EAST"
"HARTFORD CONSORTIUM FOR HIGHER EDUCATION","31 PRATT ST","5TH FLOOR","Hartford","6103","(860) 702-3802","mestey@metrohartford.com","http://www.hartfordconsortium.org",,,"Civic Engagement",,,,,,"Promotes optimal sharing of collegial resources, information, expertise and ideas; serves as a catalyst for innovative educational initiatives that respond to a changing education environment and encourages educational excellence across the lifespan.","31 PRATT ST
HARTFORD, Connecticut 06103
(41.767586, -72.673852)","DOWNTOWN"
"HARTFORD FIRE DEPARTMENT: CITY OF HARTFORD","253 HIGH STREET",,"Hartford","6103","(860) 757-4500","Unlisted/Unavailable","http://www.hartford.gov/fire",,"Support Services",,,"Government Agency",,,,"Committed to preventing and minimizing the loss of life and property through incident stabilization and mitigation with the delivery of professional, high quality, efficient emergency fire, rescue and emergency medical services.","253 HIGH STREET
HARTFORD, Connecticut 06103
(41.772289, -72.677876)","DOWNTOWN"
"HARTFORD FOOD SYSTEM","1 CONGRESS ST","Suite 302","Hartford","6114","(860) 296-9325","hartfordfood@hartfordfood.org","http://www.hartfordfood.org",,,"Civic Engagement",,,,,,"Fights hunger and improves nutrition in our community and build a healthy, culturally-responsive, resilient and sustainable food system that meets the needs of all community members.","1 CONGRESS ST
HARTFORD, Connecticut 06114
(41.755247, -72.676145)","SOUTH GREEN"
"HARTFORD FULL GOSPEL CHURCH EMERGENCY FOOD PANTRY","77 HUNGERFORD ST",,"Hartford","6106","(860) 246-5337","Unlisted/Unavailable","Unlisted/Unavailable",,"Support Services",,,,,,,"Provides an emergency food pantry for people in need.","77 HUNGERFORD ST
HARTFORD, Connecticut 06106
(41.761215, -72.685506)","FROG HOLLOW"
"HARTFORD GAY AND LESBIAN HEALTH COLLECTIVE (HGLHC)","1841 BROAD ST",,"Hartford","6114","(860) 278-4163","Unlisted/Unavailable","http://www.hglhc.org",,"Support Services","Civic Engagement",,,,,,"Empowers individuals of diverse sexual orientations, gender identities and gender expressions to lead healthy lives through the provision of health, support services, education and advocacy.","1841 BROAD ST
HARTFORD, Connecticut 06114
(41.742412, -72.687158)","BARRY SQUARE"
"HARTFORD GUIDES","523 MAIN ST",,"Hartford","6103","(860) 522-0855","Unlisted/Unavailable","http://www.hartfordguides.org",,"Support Services",,,,,,,"Improves public perception of the city, stimulate economic development, and create better human relations.","523 MAIN ST
HARTFORD, Connecticut 06103
(41.762421, -72.674392)","DOWNTOWN"
"HARTFORD HEARING VOICES NETWORK GROUP","399 FRANKLIN AV",,"Hartford","6114","(860) 995-9172","jmiller@advocacyunlimited.org
​","https://www.cthvn.org/",,"Support Services",,,,,,,"Based firmly on a belief in self-help, mutual respect and understanding, provides a safe space for people to share their experiences of voices, visions, unusual sensory perceptions, and to support one another.","399 FRANKLIN AV
HARTFORD, Connecticut 06114
(41.738813, -72.675579)","SOUTH END"
"HARTFORD HOSPITAL","80 SEYMOUR ST",,"Hartford","6106","(860) 545-5000","Unlisted/Unavailable","http://www.harthosp.org",,"Support Services",,,,,,,"Provides prenatal and postnatal education, regardless of ability to pay, to expectant and new families delivering at Hartford Hospital.","80 SEYMOUR ST
HARTFORD, Connecticut 06106
(41.754123, -72.68082)","SOUTH GREEN"
"HARTFORD HOUSING AUTHORITY","180 JOHN D. WARDLAY WAY",,"Hartford","6106","(860) 723-8410","Unlisted/Unavailable","http://www.hartfordhousing.org",,"Support Services",,,,,,,"Provides safe, decent and affordable high-quality housing and homeownership choices to Hartford residents.","180 JOHN D. WARDLAW WAY
HARTFORD, Connecticut 06106
(41.737576, -72.712912)","BEHIND THE ROCKS"
"HARTFORD JOB CORPS ACADEMY","100 WILLIAM SHORTY Way",,"Hartford","6106","(860) 953-7201","Unlisted/Unavailable","http://hartford.jobcorps.gov",,,,,,,,"Workforce Development","Attracts eligible young people, teaches them the skills they need to become employable and independent, and places them in meaningful jobs or further education.","100 WILLIAM SHORTY CAMPBELL ST
HARTFORD, Connecticut 06106
(41.739175, -72.710021)","SOUTH WEST"
"HARTFORD KNIGHTS YOUTH ORGANIZATION","641 FARMINGTON AV","SUITE 202","Hartford","6105","(860) 756-5527","thomas@hartfordnights.org","http://www.hartfordknights.org","Youth and Family Enrichment",,,,,,,,"Ensures the scholastic and social success of every young person we serve to better enable them to have a positive, far-reaching effect on our community.","641 FARMINGTON AV
HARTFORD, Connecticut 06105
(41.76571, -72.715057)","WEST END"
"HARTFORD MAGNET TRINITY COLLEGE ACADEMY (6-12)","53 VERNON ST",,"Hartford","6106","(860) 695-7201","spayne@hartfordschools.org","http://hmms.hartfordschools.org/",,,,,,"Schools",,,"Provides a program built on a rigorous academic foundation that emphasizes two complementary disciplines: science and the arts, blending these themes with the Early College model.","53 VERNON ST
HARTFORD, Connecticut 06106
(41.751262, -72.686491)","BARRY SQUARE"
"HARTFORD NEIGHBORHOOD CENTERS","38 LAWRENCE ST",,"Hartford","6106","(860) 251-6517","jsantos-seda@hnci.org","http://www.hnci.org","Youth and Family Enrichment",,,,,,,,"PRovideS an educational, cultural, social, and recreational ""safe haven"" of opportunity for the diverse, ethnic population of Hartford.","38 LAWRENCE ST
HARTFORD, Connecticut 06106
(41.757193, -72.688038)","FROG HOLLOW"
"HARTFORD NEIGHBORHOOD CENTERS","38 LAWRENCE ST","CMTY","Hartford","6106","(860) 251-6517","jsantos-seda@hnci.org","http://www.hnci.org",,,,"Early Childhood Education",,,,,"A Child Day Care Center in Hartford CT. It has maximum capacity of 42 children. The center accepts children ages of: 3 years-11 years.","38 LAWRENCE ST
HARTFORD, Connecticut 06106
(41.757193, -72.688038)","FROG HOLLOW"
"HARTFORD PARENT UNIVERSITY","207 MAIN STREET","Suite 200","Hartford","6106","(860) 209-5522","millya@hartfordparentuniversity.org","http://www.hartfordparentuniversity.org",,,"Civic Engagement",,,,,,"Increases parent involvement in the schools and empower parents to raise children who are successful in school and in life.","207 MAIN STREET
HARTFORD, Connecticut 06106
(41.758272, -72.675468)","SOUTH GREEN"
"HARTFORD POLICE ATHLETIC LEAGUE","50 WILLIAMS ST",,"Hartford","6120","(860) 757-4401","info@hartfordpal.org","http://www.hartfordpal.org","Youth and Family Enrichment",,,,,,,,"Empowers the youth of Hartford to realize their greatest potential through mentoring, sports, education and a positive relationship with police officers.","50 WILLIAMS ST
HARTFORD, Connecticut 06120
(41.775271, -72.683097)","CLAY-ARSENAL"
"HARTFORD POLICE DEPARTMENT: CITY OF HARTFORD","253 HIGH ST",,"Hartford","6103","(860) 757-4000","Unlisted/Unavailable","http://www.hartford.gov/police",,"Support Services",,,"Government Agency",,,,"Reduce crime, improve the quality of life and respond effectively to calls for police service.","253 HIGH ST
HARTFORD, Connecticut 06103
(41.772289, -72.677876)","DOWNTOWN"
"HARTFORD PRE-K MAGNET SCHOOL","85 EDWARDS ST",,"Hartford","6120","(860) 695-5820","welcomecenter@hartfordschools.org","http://www.hartfordschools.org",,,,,,"Schools",,,"Providing three and four year children with rich learning experiences based on language-rich instruction that draws from the STREAM (Science, Technology, Reading, Engineering, Art, Mathematics) curriculum.","85 EDWARDS ST
HARTFORD, Connecticut 06120
(41.774536, -72.681497)","CLAY-ARSENAL"
"HARTFORD PROUD DRUMMER DRILL SQUAD","69 MANSFIELD ST",,"Hartford","6112","(860) 913-8282","hartfordproud@gmail.com","http://www.hartfordsproud.org/","Youth and Family Enrichment",,,,,,,,"Integrates movement, sound and artistry in the overall development of young people for success in school and in life.","69 MANSFIELD ST
HARTFORD, Connecticut 06112
(41.785737, -72.686185)","NORTH EAST"
"HARTFORD PUBLIC LIBRARY - ALBANY BRANCH","1250 ALBANY AV",,"Hartford","6112","(860) 695-7380","reference@hplct.org","http://www.hplct.org","Youth and Family Enrichment","Support Services",,,,,,,"Provides free resources that inspire reading, guide learning, and encourage individual exploration.","1250 ALBANY AV
HARTFORD, Connecticut 06112
(41.782556, -72.697227)","UPPER ALBANY"
"HARTFORD PUBLIC LIBRARY - BARBOUR BRANCH","261 BARBOUR ST",,"Hartford","6120","(860) 695-7400","reference@hplct.org","http://www.hplct.org","Youth and Family Enrichment","Support Services",,,,,,,"Provides free resources that inspire reading, guide learning, and encourage individual exploration.","261 BARBOUR ST
HARTFORD, Connecticut 06120
(41.792567, -72.677439)","NORTH EAST"
"HARTFORD PUBLIC LIBRARY - CAMPFIELD BRANCH","30 CAMPFIELD AV",,"Hartford","6114","(860) 695-7440","reference@hplct.org","http://www.hplct.org","Youth and Family Enrichment","Support Services",,,,,,,"Provides free resources that inspire reading, guide learning, and encourage individual exploration.","30 CAMPFIELD AV
HARTFORD, Connecticut 06114
(41.742273, -72.682552)","SOUTH END"
"HARTFORD PUBLIC LIBRARY - DOWNTOWN","500 MAIN ST",,"Hartford","6103","(860) 695-6300","reference@hplct.org","http://www.hplct.org","Youth and Family Enrichment","Support Services",,,,,,,"Provides free resources that inspire reading, guide learning, and encourage individual exploration.","500 MAIN ST
HARTFORD, Connecticut 06103
(41.762214, -72.674442)","DOWNTOWN"
"HARTFORD PUBLIC LIBRARY - DWIGHT BRANCH","7 NEW PARK  AV",,"Hartford","6106","(860) 695-7460","reference@hplct.org","http://www.hplct.org","Youth and Family Enrichment","Support Services",,,,,,,"Provides free resources that inspire reading, guide learning, and encourage individual exploration.","7 NEW PARK AV
HARTFORD, Connecticut 06106
(41.756799, -72.706432)","PARKVILLE"
"HARTFORD PUBLIC LIBRARY - PARK STREET BRANCH","744 PARK ST",,"Hartford","6106","(860) 695-7500","reference@hplct.org","http://www.hplct.org","Youth and Family Enrichment","Support Services",,,,,,,"Provides free resources that inspire reading, guide learning, and encourage individual exploration.","744 PARK ST
HARTFORD, Connecticut 06106
(41.758113, -72.68959)","FROG HOLLOW"
"HARTFORD PUBLIC LIBRARY - SAND/HOPKINS BRANCH","1750 MAIN ST",,"Hartford","6120","(860) 695-7520","reference@hplct.org","http://www.hplct.org","Youth and Family Enrichment","Support Services",,,,,,,"Provides free resources that inspire reading, guide learning, and encourage individual exploration.","1750 MAIN ST
HARTFORD, Connecticut 06120
(41.778567, -72.676209)","CLAY-ARSENAL"
"HARTFORD PUBLIC SCHOOLS","960 MAIN ST","8th Floor","Hartford","6103","(860) 695-8000","info@hartfordschools.org","http://www.hartfordschools.org",,,,,,"Schools",,,"Links students, parents, principals, teachers, employees, and the community to available resources and ensure accurate information and quality assistance for all. Facilitates families ability to request information, voice concerns and resolve issues.","960 MAIN ST
HARTFORD, Connecticut 06103
(41.768459, -72.673034)","DOWNTOWN"
"HARTFORD REGIONAL LEAD TREATMENT CENTER AND HEALTHY HOMES PROGRAM","76 NEW BRITAIN AV",,"Hartford","6106","(860) 837-6800","Unlisted/Unavailable","http://www.connecticutchildrens.org",,"Support Services",,,,,,,"Provides treatment for childhood lead poisoning, home visits to families to prevent future poisonings, and placement in transitional housing while family locates permanent housing which is lead free.","76 NEW BRITAIN AV
HARTFORD, Connecticut 06106
(41.746001, -72.685656)","SOUTH WEST"
"HARTFORD SOCCER CLUB","237 OXFORD ST",,"Hartford","6105","(860) 212-9722","Unlisted/Unavailable","http://www.hartfordsoccerclub.com","Youth and Family Enrichment",,,,,,,,"Provides opportunities for Hartford youth to learn and to play soccer.","237 OXFORD ST
HARTFORD, Connecticut 06105
(41.771468, -72.713312)","WEST END"
"HARTFORD SYMPHONY ORCHESTRA MUSICAL INSTRUMENT DONATION PROGRAM","100 PEARL ST","2nd Floor","Hartford","6103","(860) 246-8742","info@hartfordsymphony.org","http://www.hartfordsymphony.org","Youth and Family Enrichment",,,,,,,,"Performs live orchestral music of the highest quality for everexpanding audiences and to increase, through its educational programs, the understanding and enjoyment of that music by residents of Connecticut.","100 PEARL ST
HARTFORD, Connecticut 06103
(41.766064, -72.674794)","DOWNTOWN"
"HARTFORD YOUTH SCHOLARS","129 ALLEN PL",,"Hartford","6106","(860) 297-5116","Unlisted/Unavailable","http://www.hartfordyouthscholars.org","Youth and Family Enrichment",,,,,,,,"An exceptional academic enrichment program prepares gifted middle school students for a rigorous high school education; assists them in gaining acceptance and financial assistance at top college preparatory schools; and supports them through college.","129 ALLEN PL
HARTFORD, Connecticut 06106
(41.752259, -72.688983)","BARRY SQUARE"
"HELPING HAND FOOD PANTRY","344 BLUE HILLS AV",,"Hartford","6112","(860) 243-9787","Unlisted/Unavailable","Unlisted/Unavailable",,"Support Services",,,,,,,"Distributes food to Greater Hartford residents in need.","344 BLUE HILLS AV
HARTFORD, Connecticut 06112
(41.794579, -72.696964)","BLUE HILLS"
"HIGH SCHOOL, INC: HARTFORD'S INSURANCE & FINANCE ACADEMY (9-12)","275 ASYLUM ST",,"Hartford","6103","(860) 695-7106","welcomecenter@hartfordschools.org","https://highschoolinc.hpsschools.org/",,,,,,"Schools",,,"Prepares 400 high school students (Grades 9- 12) who are interested in pursuing careers in the insurance and financial services industries.  Gives students the opportunity to experience the connection between the classroom and the real world.","275 ASYLUM ST
HARTFORD, Connecticut 06103
(41.767449, -72.67826)","DOWNTOWN"
"HISPANIC HEALTH COUNCIL","175 MAIN ST",,"Hartford","6106","(860) 527-0856","info@hispanichealth.com","http://www.hispanichealth.com",,"Support Services",,,,,,,"Develops, delivers, tests and desseminates culturally relevant direct services programs staffed by bilingual and bicultural multi-disciplinary teams.","175 MAIN ST
HARTFORD, Connecticut 06106
(41.75786, -72.675589)","SOUTH GREEN"
"HORACE BUSHNELL CHILDREN'S FOOD PANTRY AT LIBERTY CHRISTIAN CENTER INTERNATIONAL","23 VINE ST",,"Hartford","6112","(860) 522-3296","Unlisted/Unavailable","Unlisted/Unavailable",,"Support Services",,,,,,,"Church food pantry in the Upper Albany Avenue neighborhood offers food to low income families and individuals.","23 VINE ST
HARTFORD, Connecticut 06112
(41.779909, -72.688547)","UPPER ALBANY"
"HOUSE OF BREAD","1453 MAIN ST",,"Hartford","6120","(860) 522-3144","Unlisted/Unavailable","http://www.hobread.org",,"Support Services",,,,,,,"Provides urban ministry to the economically disadvantaged, hungry, and homeless population in  Hartford.","1453 MAIN ST
HARTFORD, Connecticut 06120
(41.774387, -72.6769)","CLAY-ARSENAL"
"HOUSING EDUCATION RESOURCE CENTER","901 WETHERSFIELD AV","2nd Floor","Hartford","6114","(860) 296-4242","Unlisted/Unavailable","http://www.herc-inc.org",,"Support Services",,,,,,,"Promotes equal and expanded housing opportunities through the provision of direct counseling, information, education, and assistance.","901 WETHERSFIELD AV
HARTFORD, Connecticut 06114
(41.731336, -72.669704)","SOUTH END"
"HPHS ACADEMY OF ENGINEERING & GREEN TECHNOLOGY (9-12)","55 FOREST ST",,"Hartford","6105","(860) 695-1315","welcomecenter@hartfordschools.org","http://www.hartfordschools.org",,,,,,"Schools",,,"Graduates Hartford students with 21st Century skills who are prepared to succeed in post-secondary education and careers in engineering and green technologies.","55 FOREST ST
HARTFORD, Connecticut 06105
(41.765472, -72.700221)","ASYLUM HILL"
"HPHS ACADEMY OF NURSING AND HEALTH SCIENCE (9-12)","55 FOREST ST",,"Hartford","6105","(860) 695-1325","welcomecenter@hartfordschools.org","http://www.hartfordschools.org",,,,,,"Schools",,,"Prepares young adults to successfully pursue a degree in nursing or related health care/science-based courses of study.","55 FOREST ST
HARTFORD, Connecticut 06105
(41.765472, -72.700221)","ASYLUM HILL"
"HPHS LAW AND GOVERNMENT ACADEMY (9-12)","55 FOREST ST",,"Hartford","6105","(860) 695-1320","welcomecenter@hartfordschools.org","http://law.hartfordschools.org",,,,,,"Schools",,,"Prepares Law & Government students for success in college and future careers in law, government, and community justice.","55 FOREST ST
HARTFORD, Connecticut 06105
(41.765472, -72.700221)","ASYLUM HILL"
"HYLAND EARLY LEARNING CENTER, DEPARTMENT OF FAMILIES, CHILDREN, YOUTH, AND RECREATION: CITY OF HARTFORD","355 NEW BRITAIN AV",,"Hartford","6106","(860) 757-0700","colot001@hartford.gov","http://www.dfcyr.hartford.gov",,,,"Early Childhood Education",,,,,"Engages children in effective instructional practices that support each child's growth and development based on established State of Connecticut early learning standards.","355 NEW BRITAIN AV
HARTFORD, Connecticut 06106
(41.741248, -72.694126)","SOUTH WEST"
"IMMACULATE CONCEPTION SHELTER AND HOUSING CORPORATION","560 PARK ST",,"Hartford","6106","(860) 724-4823","Unlisted/Unavailable","http://immacare.org/",,"Support Services",,,,,,,"Provides housing and decent shelter with unconditional love to those with no other options.","560 PARK ST
HARTFORD, Connecticut 06106
(41.758031, -72.686173)","FROG HOLLOW"
"IMMANUEL HOUSE","15 WOODLAND ST",,"Hartford","6105","(860) 525-4228","Unlisted/Unavailable","Unlisted/Unavailable",,"Support Services",,,,,,,"Provides a high-quality assisted living facility for the elderly.","15 WOODLAND ST
HARTFORD, Connecticut 06105
(41.768259, -72.702188)","ASYLUM HILL"
"INDEPENDENCE UNLIMITED","151 NEW PARK AV","North Annex, Suite D","Hartford","6106","(860) 523-5021","contact@independencetunlimited.org","http://www.independenceunlimited.org",,"Support Services",,,,,,,"Assists individuals with disabilities in the Greater Hartford Area to achieve their goals and dreams for ian indepenent life style.","151 NEW PARK AV
HARTFORD, Connecticut 06106
(41.752251, -72.709645)","PARKVILLE"
"INJURY PREVENTION CENTER (IPC) - CONNECTICUT CHILDREN'S MEDICAL CENTER","12 CHARTER OAK AV",,"Hartford","6106","(860) 837-5318","Unlisted/Unavailable","http://www.connecticutchildrens.org/community-child-health/injury-prevention-center","Youth and Family Enrichment","Support Services",,,,,,,"The Injury Prevention Center (IPC) at Connecticut Children's is leading an effort to reduce unintentional injury and violence among Connecticut's children, adolescents and adults.","12 CHARTER OAK PL
HARTFORD, Connecticut 06106
(41.757244, -72.67351)","SHELDON-CHARTER OAK"
"INROADS - NEW ENGLAND REGION","241 MAIN ST","2nd Floor","Hartford","6106","(888) 520-8691","Unlisted/Unavailable","http://www.inroads.org","Youth and Family Enrichment",,,,,,,,"Develops and places talented underserved youth in buisness and industry, and prepare them for corporate and community leadership.","241 MAIN ST
HARTFORD, Connecticut 06106
(41.758633, -72.675401)","SOUTH GREEN"
"INSTITUTE FOR COMMUNITY RESEARCH","2 HARTFORD SQUARE","Suite 100","Hartford","6106","(860) 278-2044","connie.yan@icrweb.org","https://icrweb.org/",,,"Civic Engagement",,,,,,"Conducts research in collaboration with community partners to promote justice and equity in a diverse, multiethnic, multicultural world.","2 HARTFORD SQUARE WEST
HARTFORD, Connecticut 06106
(41.720624, -72.742822)","FROG HOLLOW"
"INSTITUTE OF LIVING","200 RETREAT AV",,"Hartford","6106","(800) 673-2411","Unlisted/Unavailable","http://www.instituteofliving.org",,"Support Services",,,,,,,"Offers comprehensive services that meet the challenge of complex medical needs.","200 RETREAT AV
HARTFORD, Connecticut 06106
(41.751919, -72.681212)","BARRY SQUARE"
"JESUS LA FUENTE HOUSE OF HARVEST FOOD PANTRY","114 WOOSTER ST",,"Hartford","6105","(860) 560-0447","Unlisted/Unavailable","Unlisted/Unavailable",,"Support Services",,,,,,,"Provides food when available to those in the Greater Hartford community","114 WOOSTER ST
HARTFORD, Connecticut 06105
(41.781516, -72.674744)","CLAY-ARSENAL"
"JONIS CHILD CARE & PRESCHOOL","1 STATE ST",,"Hartford","6103","(860) 549-2422","hartford@jonischildcare.com","http://www.jonischildcare.com",,,,"Early Childhood Education",,,,,"Provides families with child care and preschool that features its NAEYC Accreditation, Academic Curriculum, Flexible Scheduling, Friendly Responsive Staff, Open-Door Policy, Affordable Rates, and No Contracts.","1 STATE ST
HARTFORD, Connecticut 06103
(41.765623, -72.669515)","DOWNTOWN"
"JOURNALISM & MEDIA ACADEMY MAGNET SCHOOL (9-12)","150 TOWER AV",,"Hartford","6112","(860) 695-7564","choms001@jma.hartfordschools.org","http://jma.hartfordschools.org/",,,,,,"Schools",,,"Advances the study of journalism and media through the use of technology and self-mastery. Students have the opportunity to develop workplace and college readiness competencies through core and elective classes, job shadowing and internships.","150 TOWER AV
HARTFORD, Connecticut 06112
(41.797635, -72.670349)","NORTH EAST"
"JOURNEY HOME","255 MAIN ST","2nd Floor","Hartford","6106","(860) 808-0336","info@journeyhomect.org","http://www.journeyhomect.org",,"Support Services",,,,,,,"Accelerates progress towards ending chronic homelessness in the Greater Hartford region with housing, employment, and support services, rather than managing it with emergency shelter.","255 MAIN ST
HARTFORD, Connecticut 06106
(41.759173, -72.675341)","SOUTH MEADOWS"
"JUBILEE HOUSE","40 CLIFFORD ST",,"Hartford","6114","(860) 247-3030","info@jubileehouse.org","http://hobread.org/education/jubilee-house",,"Support Services",,,,,,,"Provides a holistic literacy program for underserved adult learners in the greater Hartford area with a particular focus on the literacy and basic human needs of the refugee and immigrant person.","40 CLIFFORD ST
HARTFORD, Connecticut 06114
(41.740091, -72.686256)","BARRY SQUARE"
"JUDAH HOUSE","84 VINE ST",,"Hartford","6112","(860) 241-9440","info@judahhouseinc.org","http://www.judahhouseinc.org",,"Support Services",,,,,,,"Empowers those in our community by providing access to opportunities for healing, education and employment.","84 VINE ST
HARTFORD, Connecticut 06112
(41.781955, -72.688285)","UPPER ALBANY"
"JUDY DWORIN PERFORMANCE PROJECT, INC","75 CHARTER OAK AV","SUITE 206","Hartford","6106","(860) 527-9800","info@judydworin.org","http://www.judydworin.org","Youth and Family Enrichment",,,,,,,,"Serves underserved populations, celebrates diversity and builds bridges in the community.","75 CHARTER OAK AV BUILDING ONE
HARTFORD, Connecticut 06106
(41.758845, -72.670024)","SHELDON-CHARTER OAK"
"JUMOKE ACADEMY HONORS AT THE HARTFORD CONSERVATORY (5-8)","875 ASYLUM AV",,"Hartford","6105","(860) 527-0575","Unlisted/Unavailable","http://www.jumokeacademy.org",,,,,,"Schools",,,"An honors middle school with an arts integrated focus. Our mission is to develop our scholars into mature, young adults who will make valuable contributions to the global society.","875 ASYLUM AV
HARTFORD, Connecticut 06105
(41.770264, -72.693896)","ASYLUM HILL"
"JUMOKE ACADEMY HONORS SMART (5-8)","339 BLUE HILLS AV",,"Hartford","6112","(860) 527-0575","Unlisted/Unavailable","http://www.jumokeacademy.org",,,,,,"Schools",,,"Nicknamed ""JAH-SMART"", this middle school academy is thematically centered on STEM education and promotes classroom and enrichment activities that facilitate scientific exploration.","339 BLUE HILLS AV
HARTFORD, Connecticut 06112
(41.794412, -72.697018)","SOUTH WEST"
"KING'S CHAPEL EARLY CARE & EDUCATION CENTER","400 WOODLAND ST",,"Hartford","6112","(860) 560-0387","e.wilson@kingschapeleducation.org","http://www.kingschapeleducation.com",,,,"Early Childhood Education",,,,,"Provides a full day/full year program to meet the educational needs of children ages 6 weeks through 5 years in impoverished areas and urban communities.","400 WOODLAND ST
HARTFORD, Connecticut 06112
(41.780932, -72.696761)","UPPER ALBANY"
"KING'S CHAPEL FOOD PANTRY","400 WOODLAND ST",,"Hartford","6112","(860) 728-5777","Unlisted/Unavailable","Unlisted/Unavailable",,"Support Services",,,,,,,"Operates a food pantry for anyone in need.","400 WOODLAND ST
HARTFORD, Connecticut 06112
(41.780932, -72.696761)","UPPER ALBANY"
"KLINBERG FAMILY CENTERS","157 CHARTER OAK AV",,"Hartford","6106","(860) 515-2366 x-266","judio@klingberg.org","http://www.klingberg.org/",,"Support Services",,,,,,,"Extends hope and healing to children and families whose lives have been traumatized by abuse and/or neglect in its various forms, by severe family problems and by mental health issues","157 CHARTER OAK AV
HARTFORD, Connecticut 06106
(41.758317, -72.666736)","SHELDON-CHARTER OAK"
"KNOX INC.","75 LAUREL ST",,"Hartford","6106","(860) 951-7694","info@knoxhartford.org","http://www.knoxhartford.org",,,"Civic Engagement",,,,,,"Using horticulture as a catalyst for community engagement, KNOX forges partnerships between residents, businesses and government, providing leadership to build greener, stronger, healthier and more beautiful neighborhoods in Hartford.","75 LAUREL ST
HARTFORD, Connecticut 06106
(41.761142, -72.69688)","FROG HOLLOW"
"LA CASA ELDERLY HOUSING","180 OAK ST",,"Hartford","6106","(860) 527-6261","Unlisted/Unavailable","#https://www.manta.com/c/mm4m867/la-casa-elderly-housing-inc#",,"Support Services",,,,,,,"Operates La Casa, a 40 unit rental housing complex for older adults ages 62+. La Casa also rents to adults ages 18+ who have disabilities.","180 OAK ST
HARTFORD, Connecticut 06106
(41.758168, -72.684629)","FROG HOLLOW"
"LATINO COMMUNITY SERVICES","184 WETHERSFIELD AV",,"Hartford","6114","(860) 296-6400","info@lcs-ct.org","http://www.lcs-ct.org",,"Support Services",,,,,,,"Our mission is to reduce the spread of HIV/AIDS in the Latino community and other at-risk populations and improve the quality of life and health of people with HIV/AIDS.","184 WETHERSFIELD AV
HARTFORD, Connecticut 06114
(41.750847, -72.673899)","SHELDON-CHARTER OAK"
"LEADERSHIP GREATER HARTFORD","30 LAUREL ST",,"Hartford","6106","(860) 951-6161","info@leadershipgh.org","http://www.leadershipgh.org",,,"Civic Engagement",,,,,,"Develops, connects and inspires diverse leaders to build strong and vibrant communities. Offer programs providing experiential learning through workshops, tours and hands-on team projects.","30 LAUREL ST
HARTFORD, Connecticut 06106
(41.759879, -72.696833)","FROG HOLLOW"
"LITERACY VOLUNTEERS OF GREATER HARTFORD","30 ARBOR ST",,"Hartford","6106","(860) 233-3853","Unlisted/Unavailable","http://www.lvgh.org/",,"Support Services",,,,,,,"Improves the ability of Greater Hartford adults to read, write, and speak English.","30 ARBOR ST
HARTFORD, Connecticut 06106
(41.760069, -72.703081)","PARKVILLE"
"MALTA HOUSE OF CARE MOBILE MEDICAL CLINIC - HARTFORD","19 WOODLAND ST","Suite 21","Hartford","6105","(860) 725-0171","Unlisted/Unavailable","http://www.maltahouseofcare.org",,"Support Services",,,,,,,"Provides free primary health care to the uninsured. We deliver that health care through operation of a mobile care vehicle that has a fixed schedule in four distinct neighborhoods across the City of Hartford.","19 WOODLAND ST
HARTFORD, Connecticut 06105
(41.768555, -72.702099)","ASYLUM HILL"
"MARIA C. SANCHEZ ELEMENTARY SCHOOL (PK 4-5)","176 BABCOCK ST",,"Hartford","6106","(860) 695-4940","welcomecenter@hartfordschools.org REDZA001@hartfordschools.org","https://www.sanchezschool.com/",,,,,,"Schools",,,"Offer a full academic program that includes music, art, PE, Media and a partnership with Hartford Performs, ING, MI Casa, Girl Scouts, an active PTO and a new School Council.","176 BABCOCK ST
HARTFORD, Connecticut 06106
(41.758918, -72.689238)","FROG HOLLOW"
"MARSHALL HOUSE FAMILY SHELTER","225 SOUTH MARSHALL ST",,"Hartford","6105","(860) 543-8430","Sarah.DiMaio@use.salvationarmy.org","http://ctri.salvationarmy.org/SNE/MarshallHouse",,"Support Services",,,,,,,"A 27-bed Family Shelter and a 23-bed Overflow Shelter that provides comprehensive services to people who are at risk of homelessness, currently experiencing homelessness, or are transitioning from homelessness back into stable homes.","225 SOUTH MARSHALL ST
HARTFORD, Connecticut 06105
(41.765788, -72.698641)","ASYLUM HILL"
"MARTIN LUTHER KING, JR. ELEMENTARY SCHOOL (PK 4-8)","296 GREENFIELD ST",,"Hartford","6112","(860) 695-3980","welcomecenter@hartfordschools.org CRAWD001@hartfordschools.org","http://www.hartfordschools.org",,,,,,"Schools",,,"Serves students in grades Pre-K through 8 with an emphasis on high academic expectations for all students, where cultural diversity is celebrated, and the key to student success is parent and community participation.","296 GREENFIELD ST
HARTFORD, Connecticut 06112
(41.78451, -72.695147)","UPPER ALBANY"
"MCDONOUGH EXPEDITIONARY LEARNING SCHOOL (MELS) (6-12)","111 HILLSIDE AV",,"Hartford","6106","(860) 695-4260","welcomecenter@hartfordschools.org SULLB001@hartfordschools.org","http://www.hartfordschools.org",,,,,,"Schools",,,"Serves students grades 6-8 in an Expeditionary Learning School that requires students to engage in research, use the community in authentic ways, and communicate what they have learned through a presentation to outside audiences.","111 HILLSIDE AV
HARTFORD, Connecticut 06106
(41.750387, -72.697814)","BEHIND THE ROCKS"
"MCKINNEY SHELTER","34 HUYSHOPE AV",,"Hartford","6106","(860) 757-0660","Unlisted/Unavailable","http://www.crtct.org/en/need-help/housing-a-shelters/mens-shelter",,"Support Services",,,,,,,"Since 1983, Mercy Housing and Shelter has been working to empower homeless persons to become independent, so they may live and work with dignity and respect.","34 HUYSHOPE AV
HARTFORD, Connecticut 06106
(41.757498, -72.66637)","SHELDON-CHARTER OAK"
"MERCY HOUSING AND SHELTER CORPORATION","211 WETHERSFIELD AV",,"Hartford","6114","(860) 808-2040","Unlisted/Unavailable","http://www.mercyhousingct.org/index.htm",,"Support Services",,,,,,,"Provides housing assistance and supportive services to persons who are homeless or at risk of becoming homeless.","211 WETHERSFIELD AV
HARTFORD, Connecticut 06114
(41.750025, -72.673781)","BARRY SQUARE"
"METZNER CENTER, DEPARTMENT OF FAMILIES, CHILDREN, YOUTH, AND RECREATION: CITY OF HARTFORD","680 FRANKLIN AV",,"Hartford","6114","(860) 757-4881","tstewart@hartford.gov","http://www.hartford.gov","Youth and Family Enrichment",,,,,,,,"Provides life-long recreational opportunities that promote healthy and active living.","680 FRANKLIN AV
HARTFORD, Connecticut 06114
(41.729232, -72.673928)","SOUTH END"
"METZNER EARLY LEARNING CENTER, DEPARTMENT OF FAMILIES CHILDREN YOUTH AND RECREATION: CITY OF HARTFORD","680 FRANKLIN AV",,"Hartford","6114","(860) 757-0871","matim001@hartford.gov","http://www.dfcyr.hartford.gov",,,,"Early Childhood Education",,,,,"Promotes the safety, permanency and well-being of Hartford's children, youth and families.","680 FRANKLIN AV
HARTFORD, Connecticut 06114
(41.729232, -72.673928)","SOUTH END"
"MI CASA (HISPANIC HEALTH COUNCIL)","590 PARK ST",,"Hartford","6106","(860) 522-5222","richardg@hispanichealth.org","Unlisted/Unavailable","Youth and Family Enrichment",,,,,,,,"Provide a year-round program that operates from 7:00 am to 5:00 pm, Monday through Friday with breakfast, a hot lunch and an afternoon snack to the children enrolled in the program.","590 PARK ST
HARTFORD, Connecticut 06106
(41.758048, -72.686708)","FROG HOLLOW"
"MONTESSORI MAGNET AT BACHELDER","757 NEW BRITAIN AV",,"Hartford","6106","(860) 695-2720","welcomecenter@hartfordschools.org Paul.Casey@hartfordschools.org","http://www.hartfordschools.org",,,,,,"Schools",,,"Creates a community of active learners, where we all interact collaboratively with parents and community organizations to develop and implement educational programs ensuring academic and social excellence for all.","757 NEW BRITAIN AV
HARTFORD, Connecticut 06106
(41.733029, -72.707841)","BARRY SQUARE"
"MONTESSORI MAGNET (MOYLAN/MCDOUGH CAMPUSES) (PK3-6)","101 CATHERINE ST",,"Hartford","6106","(860) 695-2600","info@montessorimagnethartford.org","http://www.montessorimagnethartford.org",,,,,,"Schools",,,"Provides classrooms that are mixed age groups serving specific developmental stages: Primary (3-6 years); Lower Elementary (6-9 years); and Upper Elementary (9-12 years).","101 CATHERINE ST
HARTFORD, Connecticut 06106
(41.746325, -72.69866)","BEHIND THE ROCKS"
"MONTESSORI MAGNET SCHOOL AT ANNIE FISHER (PK 3-6)","280 PLAINFIELD ST",,"Hartford","6112","(860) 695-3560","info@anniefishermontessori.org","http://www.anniefishermontessori.org",,,,,,"Schools",,,"Fosters each child's natural desire to learn through hands-on exploration and discovery.","280 PLAINFIELD ST
HARTFORD, Connecticut 06112
(41.791455, -72.70817)","BLUE HILLS"
"MONTESSORI MAGNET SCHOOL (PK-6)","1460 BROAD ST",,"Hartford","6106","(860) 757-6100","anapoleone@crec.org","http://www.crecschools.org",,,,,,"Schools",,,"Offers a traditional Montessori education for students ages 3-12, extended child care for students participating in the full-day program and a diverse environment in our custom-built school facility.","1460 BROAD ST
HARTFORD, Connecticut 06106
(41.749562, -72.687108)","BARRY SQUARE"
"MOUNT CALVARY BAPTIST CHURCH SOUP KITCHEN","2 F.D. OATES AV",,"Hartford","6120","(860) 278-6671","office@mt-calvarybaptist.com","http://www.mt-calvarybaptist.com/",,"Support Services",,,,,,,"Serves lunch Sat: 11am-1pm to anyone in need.","2 F.D. OATES AV
HARTFORD, Connecticut 06120
(41.782006, -72.679179)","NORTH EAST"
"MOUNT OLIVE CHILD DEVELOPMENT CENTER AT WARBURTON CENTER","420 BROOKFIELD ST",,"Hartford","6106","(860) 549-4380","Unlisted/Unavailable","Unlisted/Unavailable",,,,"Early Childhood Education",,,,,"Provides learning and play experiences for young children ranging anywhere from 2-5 years old.","420 BROOKFIELD ST
HARTFORD, Connecticut 06106
(41.742372, -72.708456)","BEHIND THE ROCKS"
"MOUNT OLIVE CHURCH MINISTRIES EMERGENCY FOOD PANTRY","20 BATTLES ST",,"Hartford","6120","(860) 549-3935","mtolive@snet.net","http://www.mocm.org",,"Support Services",,,,,,,"Provides a food pantry for residents of the Northend of Hartford including low-income families with children under age 18; older adults ages 55+; single adults with referral from DSS worker or case manager.","20 BATTLES ST
HARTFORD, Connecticut 06120
(41.783534, -72.674421)","CLAY-ARSENAL"
"MUSEUM ACADEMY AT WISH  (PK 4-8)","350 BARBOUR ST",,"Hartford","6120","(860) 695-5601","welcomecenter@hartfordschools.org RYANK001@hartfordschools.org","http://www.hartfordschools.org",,,,,,"Schools",,,"Provides a comprehensive and challenging museums-based learning environment to students in preschool through grade 5.","350 BARBOUR ST
HARTFORD, Connecticut 06120
(41.795041, -72.676727)","NORTH EAST"
"MUTUAL HOUSING ASSOCIATION OF GREATER HARTFORD, INC.","95 NILES ST",,"Hartford","6105","(860) 296-1797","info@mutualhousing.org","http://www.mutualhousing.org",,"Support Services",,,,,,,"Develops and manages affordable housing in Greater Hartford while engaging residents in leadership and educational opportunities.","95 NILES ST
HARTFORD, Connecticut 06105
(41.770522, -72.700411)","ASYLUM HILL"
"MY PEOPLE CLINICAL SERVICES","111 GILLETT ST",,"Hartford","6105","(860) 656-0450","info@mypeople-ct.com","http://www.mypeople-ct.com",,"Support Services",,,,,,,"Mission driven, community based social service organization established in the city of Hartford, CT in 2005 to “Support, Empower, and Rebuild” the lives of individuals and families in the Greater Hartford area.","111 GILLETT ST
HARTFORD, Connecticut 06105
(41.771582, -72.698892)","ASYLUM HILL"
"MY SISTERS' PLACE","237 HAMILTON ST","Suite 3","Hartford","6106","(860) 895-6629","Unlisted/Unavailable","http://www.sistersplacect.org",,"Support Services",,,,,,,"Provides a safe and nurturing environment for those who find themselves without a home through a unique combination of services and support, guidance and empowerment, encouragement and outreach.","237 HAMILTON ST
HARTFORD, Connecticut 06106
(41.754228, -72.704047)","BEHIND THE ROCKS"
"NAMI CONNECTICUT","576 FARMINGTON AV",,"Hartford","6105","(860) 882-0236","membership@namict.org","http://www.namict.org",,"Support Services","Civic Engagement",,,,,,"Improves the quality of life for all those affected by mental health conditions through engaging in support, education and advocacy.","576 FARMINGTON AV
HARTFORD, Connecticut 06105
(41.766115, -72.711796)","WEST END"
"NATIONAL MULTIPLE SCLEROSIS SOCIETY - CONNECTICUT CHAPTER","659 TOWER AV","1st Floor","Hartford","6112","(860) 913-2550","info@ctfightsMS.org","http://www.nationalmssociety.org/Chapters/CTN",,"Support Services",,,,,,,"Provides knowledge and assistance to help people with MS and their families maintain the highest possible quality of life. These goals are achieved through vital national and local programs.","659 TOWER AV
HARTFORD, Connecticut 06112
(41.800859, -72.692532)","BLUE HILLS"
"NEW BEGINNINGS FAMILY CENTER, LLC","645 FARMINGTON AV",,"Hartford","6105","(860) 244-2181","Unlisted/Unavailable","http://www.getfave.com/19094382-new-beginnings-family-center",,"Support Services",,,,,,,"Marriage & Family counseling services.","645 FARMINGTON AV
HARTFORD, Connecticut 06105
(41.765663, -72.715459)","WEST END"
"NEW ENGLAND FARM WORKERS' COUNCIL","56 ARBOR ST","Suite 307","Hartford","6103","(860) 293-2552","Unlisted/Unavailable","http://www.partnersforcommunity.org/default/index.cfm/about-pfc/affiliates-programs/nefwc/",,,,,,,,"Workforce Development","Improve the quality of life for thousands of low-income people throughout the Northeast including migrant and seasonal farm workers and their families, inner-city, low-income groups, particularly Hispanic in western and north-central Massachusetts.","56 ARBOR ST
HARTFORD, Connecticut 06103
(41.759575, -72.703467)","PARKVILLE"
"NOAH WEBSTER MICROSOCIETY MAGNET SCHOOL (PK 3-8)","5 CONE ST",,"Hartford","6105","(860) 695-5380","welcomecenter@hartfordschools.org  
MIHAJ001@hartfordschools.org","https://nwmms.org/",,,,,,"Schools",,,"Supports students in developing the values of self-discipline, work habits, academic and life skills needed to achieve success in a global society by creating their own ventures such as museums, travel agencies and quiz shows.","5 CONE ST
HARTFORD, Connecticut 06105
(41.768894, -72.712253)","WEST END"
"NORTHEND CHURCH OF CHRIST FOOD PANTRY","687 ALBANY AV",,"Hartford","6112","(860) 525-5463","Unlisted/Unavailable","Unlisted/Unavailable",,"Support Services",,,,,,,"Food pantry in Hartford's North end is open to Hartford residents in need on the second and fourth Fridays of the month, 10am-12noon. Food pantry is also open at other times for emergencies only.","687 ALBANY AV
HARTFORD, Connecticut 06112
(41.778816, -72.688239)","UPPER ALBANY"
"NORTH UNITED METHODIST CHURCH FOOD PANTRY","1205 ALBANY AV",,"Hartford","6112","(860) 525-0573","staff@umcofhartford.org","http://www.umcofhartford.org/",,"Support Services",,,,,,,"Church based food pantry is open to people in need every other Saturday, 11am-1pm.","1205 ALBANY AV
HARTFORD, Connecticut 06112
(41.782299, -72.696538)","UPPER ALBANY"
"NORTH UNITED METHODIST CHURCH GIFTS FOR GOD CHILDREN'S CLOTHING BANK","1229 ALBANY AV",,"Hartford","6112","(860) 523-5132","staff@umcofhartford.org","http://www.umcofhartford.org/",,"Support Services",,,,,,,"Church run clothing bank distributing free clothing for children ages 0 through 12 every Wednesday starting at 9am. Clothing distributed at other times for emergencies.","1229 ALBANY AV
HARTFORD, Connecticut 06112
(41.782485, -72.697041)","UPPER ALBANY"
"NUTMEG BIG BROTHERS/BIG SISTERS","30 LAUREL ST",,"Hartford","6106","(860) 525-5437","program@nbbbs.org","https://nbbbs.org","Youth and Family Enrichment","Support Services",,,,,,,"Matches children in need with professionally supported adult volunteers in community-based and school-based programs for one-to-one mentoring relationships in 132 Connecticut cities and towns.","30 LAUREL ST
HARTFORD, Connecticut 06106
(41.759879, -72.696833)","FROG HOLLOW"
"OFFICE OF EARLY CHILDHOOD FAMILY SUPPORT SERVICES DIVISION:  STATE OF CONNECTICUT","450 COLUMBUS BLVD",,"Hartford","6103","(860) 500-4412","maggie.adair@ct.gov","http://www.ct.gov/oec",,,,,"Government Agency",,,,"Supports all young children in their development by ensuring that early childhood policy, funding and services strengthen the critical role families, providers, educators and communities play in a child’s life.","450 COLUMBUS BLVD
HARTFORD, Connecticut 06103
(41.767017, -72.6694)","DOWNTOWN"
"OFFICE OF HIGHER EDUCATION: STATE OF CONNECTICUT","450 COLUMBUS BLVD","Suite 510","Hartford","6103","(860) 947-1800","edinfo@ctohe.org","http://www.ctohe.org",,,,,"Government Agency",,"Higher Education",,"Advances the promise of postsecondary education for all state residents, and to advocate on behalf of students, taxpayers, and the postsecondary schools and colleges which fall under its purview.","450 COLUMBUS BLVD
HARTFORD, Connecticut 06103
(41.767017, -72.6694)","DOWNTOWN"
"OFFICE OF PROTECTION AND ADVOCACY FOR PERSONS WITH DISABILITIES: STATE OF CONNECTICUT (P&A)","60 WESTON ST","B","Hartford","6120","(800) 297-4300","Unlisted/Unavailable","http://www.ct.gov/opapd",,,"Civic Engagement",,"Government Agency",,,,"Safeguards and advances the civil and human rights of people with disabilities in Connecticut.","60 WESTON ST
HARTFORD, Connecticut 06120
(41.785324, -72.664181)","NORTH MEADOWS"
"OFFICE OF THE HEALTHCARE ADVOCATE: STATE OF CONNECTICUT","450 CAPITOL AV","2nd Floor","Hartford","6106","(866) 466-4446","healthcare.advocate@ct.gov","http://www.ct.gov/oha",,"Support Services","Civic Engagement",,,,,,"Promote and protect the interests of Connecticut consumers whose health care insurance is provided by a traditional or managed care health organization.","450 CAPITOL AV
HARTFORD, Connecticut 06106
(41.763644, -72.690524)","FROG HOLLOW"
"OPEN HEARTH ASSOCIATION","437 SHELDON ST",,"Hartford","6106","(860) 525-3447","Unlisted/Unavailable","http://www.theopenhearth.org/",,"Support Services",,,,,,,"Provides emergency shelter, transitional housing, and support services while  also offering residents substance abuse recovery services and vocational and life skills training in a work-based therapy program.","437 SHELDON ST
HARTFORD, Connecticut 06106
(41.758543, -72.665994)","SHELDON-CHARTER OAK"
"OPERATION FUEL - 2014 SUMMER SEASON UTILITY ASSISTANCE PROGRAM - GAS AND ELECTRIC UTILITIES","75 CHARTER OAK AV","SUITE 2-240","Hartford","6106","(860) 243-2345","Unlisted/Unavailable","http://www.operationfuel.org",,"Support Services",,,,,,,"Provides a cash grant paid directly to a gas or electric utility to help income eligible households in a crisis situation meet home energy expenses.","75 CHARTER OAK AV
HARTFORD, Connecticut 06106
(41.758845, -72.670024)","SHELDON-CHARTER OAK"
"OPPORTUNITY HIGH SCHOOL (9-12)","28 SARGEANT ST",,"Hartford","6105","(860) 761-7360","Gerald.Dawes@ opp.org","http://www.opp.org",,,,,,"Schools",,,"Helps urban youth become successful adults by offering a relationship-centered approach to help young people access and attain a mix of the educational, employment, and personal skills that contribute to their success.","28 SARGEANT ST
HARTFORD, Connecticut 06105
(41.774538, -72.68774)","NORTH EAST"
"ORGANIZED PARENTS MAKE A DIFFERENCE","350 FARMINGTON AV",,"Hartford","6105","(860) 548-0301","opmad@opmad.org","http://www.opmad.org","Youth and Family Enrichment",,"Civic Engagement",,,,,,"Empowers and unites parents city-wide to meet the academic, social, cultural, creative, and physical needs of children through parent-driven extended-day programs that nurture and encourage responsible citizens.","350 FARMINGTON AV
HARTFORD, Connecticut 06105
(41.767532, -72.701053)","ASYLUM HILL"
"OUR LADY OF FATIMA DAY CARE CENTER","20 MADISON AV",,"Hartford","6106","(860) 233-8037","Olfdaycare2000@yahooo.com","http://www.ourladyoffatimachurch.org",,,,"Early Childhood Education",,,,,"Strives to be faithful to the Lord's teachings and to the Catholic tradition through liturgy, education and service.","20 MADISON AV
HARTFORD, Connecticut 06106
(41.752359, -72.711445)","PARKVILLE"
"OUR PIECE OF THE PIE, INC.","20 SARGEANT ST",,"Hartford","6105","(860) 761-7300","enid.rey@opp.org","http://www.opp.org","Youth and Family Enrichment",,,,,,,"Workforce Development","Helping urban youth become economically independent adults.","20 SARGENT ST
HARTFORD, Connecticut 06105
(41.774592, -72.688016)","ASYLUM HILL"
"PARENTS OPENING DOORS (PADRES ABRIENDO PUERTAS)","60 WESTON ST",,"Hartford","6120","(860) 297-4391","padresabriendopuertasinc@aol.com","http://www.parentsopeningdoors.org",,"Support Services","Civic Engagement",,,,,,"Supports Hispanic parents of children with disabilities.","60 WESTON ST
HARTFORD, Connecticut 06120
(41.785324, -72.664181)","NORTH MEADOWS"
"PARKER MEMORIAL COMMUNITY CENTER, DEPARTMENT OF FAMILIES, CHILDREN, YOUTH, AND RECREATION: CITY OF HARTFORD","2621 MAIN ST",,"Hartford","6120","(860) 757 - 0820","tstewart@hartford.gov","http://dfcyr.hartford.gov","Youth and Family Enrichment",,,,,,,,"Provides life-long recreational opportunities that promote healthy and active living.","2621 MAIN ST
HARTFORD, Connecticut 06120
(41.789326, -72.671631)","NORTH EAST"
"PARKVILLE COMMUNITY SCHOOL (PK 4-5)","47 NEW PARK AV",,"Hartford","6106","(860) 695-4720","welcomecenter@hartfordschools.org OLMSD001@hartfordschools.org","http://www.hartfordschools.org",,,,,,"Schools",,,"Provides a learning environment wherein all students are prepared for middle school. The multicultural and multilingual educational setting ensures sensitivity to and knowledge of a variety of cultures.","47 NEW PARK AV
HARTFORD, Connecticut 06106
(41.755667, -72.706943)","BEHIND THE ROCKS"
"PARTNERSHIP FOR STRONG COMMUNITIES","227 LAWRENCE ST",,"Hartford","6106","(860) 244-0066","Amanda@psc.housing.org","http://www.pschousing.org",,"Support Services","Civic Engagement",,,,,,"Coordinates advocacy and housing policy development to advance solutions to homelessness, affordable housing and foster creation of better neighborhoods.","227 LAWRENCE ST
HARTFORD, Connecticut 06106
(41.762333, -72.687904)","FROG HOLLOW"
"PEQUEÑIN CHILDREN'S MULTICULTURAL - READINESS ACADEMY","1400 PARK ST",,"Hartford","6106","(860) 951-0400","pequenin2008@yahoo.com","http://www.healthy.hartford.gov/dfcyr/",,,,"Early Childhood Education",,,,,"Provides students with an educational program of the highest quality that helps children develop, grow, and learn in a multicultural environment that is nurturing, inclusive, safe, and supportive.","1400 PARK ST
HARTFORD, Connecticut 06106
(41.758101, -72.701655)","PARKVILLE"
"PERMANENT COMMISSION ON THE STATUS OF WOMEN: STATE OF CONNECTICUT","20 TRINITY ST",,"Hartford","6106","(860) 240-8300","info@ctpcsw.org","https://www.ctpcsw.org/",,,"Civic Engagement",,"Government Agency",,,,"Eliminates gender discrimination and sexual harassment, and serves as a liaison between government and private interest groups who are concerned about services for women.","20 TRINITY ST
HARTFORD, Connecticut 06106
(41.76347, -72.680761)","DOWNTOWN"
"RAMON E. BETANCES EARLY READING LAB (PK 3-4)","42 CHARTER OAK AV",,"Hartford","6106","(860) 695-2840","welcomecenter@hartfordschools.org CLARC003@hartfordschools.org","http://www.hartfordschools.org",,,,,,"Schools",,,"Employs outstanding practices in early literacy instruction while also serving as a professional development center for elementary school teachers who want to further develop their skills in early literacy instruction.","42 CHARTER OAK AV
HARTFORD, Connecticut 06106
(41.759238, -72.672398)","SHELDON-CHARTER OAK"
"READY TO GO - PARENT SUPPORT GROUP","44 NILES ST",,"Hartford","6105","(860) 502-5493","Unlisted/Unavailable","Unlisted/Unavailable",,"Support Services",,,,,,,"Offers a support group for parents of any age child that meets on Thursdays at 6pm, in the fall/winter and the spring, at the Boys and Girls Club, 170 Sigourney Street in Hartford.","44 NILES ST
HARTFORD, Connecticut 06105
(41.769666, -72.696476)","ASYLUM HILL"
"REAL ART WAYS, INC","56 ARBOR ST",,"Hartford","6106","(860) 232-1006","info@realartways.org","http://www.realartways.org","Youth and Family Enrichment",,,,,,,,"An alternative multidisciplinary arts organization that presents and supports contemporary artists and their work, facilitates the creation of new work, and creatively engages, builds, and informs audiences and communities.","56 ARBOR ST
HARTFORD, Connecticut 06106
(41.759575, -72.703467)","PARKVILLE"
"RIVERFRONT RECAPTURE","50 COLUMBUS BLVD","1st Floor","Hartford","6106","(860) 713-3131","infodesk@riverfront.org","http://www.riverfront.org","Youth and Family Enrichment",,,,,,,,"Improving the quality of life and urban vitality through beautiful, safe waterfront parks, recreation and activities, youth programs, and cultural events and festivals.","50 COLUMBUS BLVD
HARTFORD, Connecticut 06106
(41.760384, -72.670246)","SHELDON-CHARTER OAK"
"R.J. KINSELLA MAGNET SCHOOL OF PERFORMING ARTS (PK 4-12)","65 VAN BLOCK AV",,"Hartford","6106","(860) 695-4140","welcomecenter@hartfordschools.org","http://www.kinsellamagnet.org/",,,,,,"Schools",,,"Provides comprehensive training, cultural exposure, and arts integration as a means to develop a child socially, linguistically, and cognitively through a broad variety of hands-on experiences.","65 VAN BLOCK AV
HARTFORD, Connecticut 06106
(41.755048, -72.664934)","SHELDON-CHARTER OAK"
"SACRED HEART FOOD BANK - HARTFORD","49 WINTHROP ST",,"Hartford","6103","(860) 527-6459","Unlisted/Unavailable","#http://connecticut.networkofcare.org/mh/services/agency.aspx?pid=SACREDHEARTFOODBANKHARTFORDVolunteerServices_2_556_1#",,"Support Services",,,,,,,"Church food pantry offers emergency food to women and families in Hartford's Northend. Food pantry is open on last Thursday of the month, 9:30-10:30am.","49 WINTHROP ST
HARTFORD, Connecticut 06103
(41.772656, -72.674332)","DOWNTOWN"
"SAFE KIDS CONNECTICUT","282 WASHINGTON ST",,"Hartford","6106","(860) 837-5319","lrivera03@connecticutchildrens.org","http://www.ctsafekids.org",,,"Civic Engagement",,,,,,"Reduces the incidence of unintentional childhood injuries among children ages 0 through 14 through statewide safety laws, advocacy, public awareness campaigns, and by providing information on automobile, bicycle, home and toy safety.","282 WASHINGTON ST
HARTFORD, Connecticut 06106
(41.753482, -72.682812)","SOUTH GREEN"
"SAINT ANN'S IMMACULATE CONCEPTION CHURCH FOOD PANTRY","784 PARK ST",,"Hartford","6106","(860) 522-7128","Unlisted/Unavailable",,,"Support Services",,,,,,,"Operates food pantry T: 1:30-3pm for residents of Frog Hollow. Also operates daily masses in Spanish or English.","784 PARK ST
HARTFORD, Connecticut 06106
(41.758113, -72.689615)","FROG HOLLOW"
"SAINT AUGUSTINE'S CHURCH FOOD PANTRY","10 CAMPFIELD AV",,"Hartford","6114","(860) 522-7128","Unlisted/Unavailable","#http://www.staugustinehtfd.org/#",,"Support Services",,,,,,,"Provides emergency food to families and to disabled or elderly individuals who are residents of the South End of Hartford (06114 zip code). The food pantry is open M,W,F: 2-3pm.","10 CAMPFIELD AV
HARTFORD, Connecticut 06114
(41.74266, -72.682567)","BARRY SQUARE"
"SAINT FRANCIS HOSPITAL AND MEDICAL CENTER","114 WOODLAND ST",,"Hartford","6105","(860) 714-4000","Unlisted/Unavailable","http://www.saintfranciscare.org",,"Support Services",,,,,,,"Provides inpatient and outpatient medical, psychiatric and substance abuse services and community clinics.","114 WOODLAND ST
HARTFORD, Connecticut 06105
(41.77508, -72.699468)","ASYLUM HILL"
"SAINT LAWRENCE O'TOOLE CHURCH FOOD PANTRY","494 NEW BRITAIN AV",,"Hartford","6106","(860) 522-1129","Unlisted/Unavailable","Unlisted/Unavailable",,"Support Services",,,,,,,"Emergency food pantry for Hartford residents in need. Food pantry is located at church rectory, 494 New Britain Avenue, Hartford.","494 NEW BRITAIN AV
HARTFORD, Connecticut 06106
(41.737978, -72.698942)","SOUTH WEST"
"SAINT MICHAEL'S CHURCH FOOD PANTRY - HARTFORD","7 CLARK ST",,"Hartford","6120","(860) 522-6184","Unlisted/Unavailable","Unlisted/Unavailable",,"Support Services",,,,,,,"Church food pantry for Northend Hartford residents is open Sat: 9-10am","7 CLARK ST
HARTFORD, Connecticut 06120
(41.78511, -72.677914)","NORTH END"
"SAINT MONICA'S EPISCOPAL CHURCH FOOD PANTRY AND SOUP KITCHEN","3575 MAIN ST",,"Hartford","6120","(860) 522-7761","Unlisted/Unavailable","http://www.rector1904.wix.com/monica",,"Support Services",,,,,,,"Serves lunch to Hartford residents in need 12noon-2pm on third and fourth Saturdays of every month. The food pantry serves Hartford residents in need and is open W,F: 10am-12noon.","3575 MAIN ST
HARTFORD, Connecticut 06120
(41.80076, -72.66114)","NORTH EAST"
"SALVATION ARMY ADULT REHABILITATION CENTER HARTFORD","333 HOMESTEAD AV",,"Hartford","6112","(860) 527-8106","Unlisted/Unavailable","http://ctri.salvationarmy.org/SNE/ARC",,"Support Services",,,,,,,"Provides 6-9 month residential substance abuse treatment program for men and women ages 22 through 70.","333 HOMESTEAD AV
HARTFORD, Connecticut 06112
(41.780158, -72.700475)","UPPER ALBANY"
"SALVATION ARMY - FAMILY THRIFT STORES","217 WASHINGTON ST",,"Hartford","6106","(860) 543 -84132","Unlisted/Unavailable","http://ctri.salvationarmy.org/",,"Support Services",,,,,,,"Sells used clothing, furniture, and household items. Thrift store proceeds benefit the Salvation Army Adult Rehabilitation Centers.","217 WASHINGTON ST
HARTFORD, Connecticut 06106
(41.755752, -72.682551)","FROG HOLLOW"
"SALVATION ARMY - GREATER HARTFORD SOUTH END COMPLEX","217 WASHINGTON ST",,"Hartford","6106","(860) 543-8413","Unlisted/Unavailable","http://ctri.salvationarmy.org/",,"Support Services",,,,,,,"Houses the Human Services Bureau, the Hartford Citadel Corps Community Center, the Hartford New Hope Recovery Corps, the Hartford Temple Corps Community Center, and the New Life Center.","217 WASHINGTON ST
HARTFORD, Connecticut 06106
(41.755752, -72.682551)","FROG HOLLOW"
"SALVATION ARMY - HARTFORD NORTH END LOCATION","100 NELSON ST",,"Hartford","6120","(860) 543-8419","Barbara.Mason@use.salvationarmy.org P
aul.Mason@use.salvationarmy.org","http://www.ctri.salvationarmy.org/SNE/NorthEnd","Youth and Family Enrichment",,,,,,,,"The After School Enrichment Project, which takes place during the school year, is an afterschool homework club. Each day after school, participants are picked up from Clark Elementary School and walked across the street to The Salvation Army.","100 NELSON ST
HARTFORD, Connecticut 06120
(41.787909, -72.678309)","NORTH EAST"
"SALVATION ARMY - SERVICE UNITS","855 ASYLUM AV",,"Hartford","6105","(860) 543-8400","Unlisted/Unavailable","http://ctri.salvationarmy.org/",,"Support Services",,,,,,,"Provides emergency assistance to people in areas of Connecticut that are not covered by a Salvation Army Corps Community Center","855 ASYLUM AV
HARTFORD, Connecticut 06105
(41.770068, -72.693258)","ASYLUM HILL"
"SALVATION ARMY - SOUTHERN NEW ENGLAND DIVISION","855 ASYLUM AV",,"Hartford","6105","(860) 347-7493","Unlisted/Unavailable","http://ctri.salvationarmy.org/",,"Support Services",,,,,,,"Provides assistance and disaster services to people with emergency needs, school readiness programs, summer camp, after school homework centers, youth groups, senior programming, and homeless assistance services.","855 ASYLUM AV
HARTFORD, Connecticut 06105
(41.770068, -72.693258)","ASYLUM HILL"
"SALVATION ARMY “ THE RIGHT PLACE","121 SIGOURNEY ST",,"Hartford","6105","(860) 543-8488","Heather.LaCasse@usesalvationarmy.org","http://www.ctri.salvationarmy.org/SNETRPHartford",,,,"Early Childhood Education",,,,,"Offers Nationally Accredited Early Childhood Education to children, ages three to five, at two Centers in Hartford, and helps children to acquire the skills they need to be successful learners when they enter kindergarten.","121 SIGOURNEY ST
HARTFORD, Connecticut 06105
(41.768951, -72.693844)","ASYLUM HILL"
"SAMUEL V. ARROYO RECREATION CENTER, DEPARTMENT OF FAMILIES, CHILDREN, YOUTH, AND RECREATION: CITY OF HARTFORD","30 POPE PARK  DR",,"Hartford","6106","(860) 757-0530","tstewart@hartford.gov","http://dfcyr.hartford.gov","Youth and Family Enrichment",,,,,,,,"Provides life-long recreational opportunities that promote healthy and active living.","30 POPE PARK DR
HARTFORD, Connecticut 06106
(41.754495, -72.697542)","CLAY-ARSENAL"
"S.A.N.D. SCHOOL (K-8)","1750 MAIN ST",,"Hartford","6120","(860) 695-5040","welcomecenter@hartfordschools.org","http://sand.hartfordschools.org",,,,,,"Schools",,,"Collaborates with parents and community organizations to develop and implement educational programs ensuring academic and social excellence for all.","1750 MAIN ST
HARTFORD, Connecticut 06120
(41.778567, -72.676209)","CLAY-ARSENAL"
"SAN JUAN CENTER","1283 MAIN ST",,"Hartford","6103","(860) 522-2205","miriam@sanjuancenter.org","http://www.sanjuancenter.org","Youth and Family Enrichment","Support Services",,,,,,,"Provides counseling to families, housing to the poor and activities for youth.","1283 MAIN ST
HARTFORD, Connecticut 06103
(41.772164, -72.675905)","DOWNTOWN"
"SARAH J. RAWSON ELEMENTARY SCHOOL (PK 4-8)","260 HOLCOMB ST",,"Hartford","6112","(860) 695-4840","welcomecenter@hartfordschools.org stont001@hartfordschools.org","http://hpsschools.org/rawson",,,,,,"Schools",,,"Ensures that all students achieve personal excellence, that they develop the skills and interests that result in a passion for life-long learning, and that they gain the ability to participate as responsible citizens in school and in the world.","260 HOLCOMB ST
HARTFORD, Connecticut 06112
(41.795753, -72.700253)","BLUE HILLS"
"SCIENCE, TECHNOLOGY, ENGINEERING AND MATH (STEM) MAGNET SCHOOL AT ANNIE FISHER (K-8)","280 PLAINFIELD ST",,"Hartford","6112","(860) 695-3511","welcomecenter@hartfordschools.org  
tanns001@hartfordschools.org","https://anniefisherstem.hartfordschools.org",,,,,,"Schools",,,"Provides an advanced academic program focused on Science, Technology, Engineering, and Mathematics (STEM). Students participate in an academically challenging curriculum with rigorous science and math instruction.","280 PLAINFIELD ST
HARTFORD, Connecticut 06112
(41.791455, -72.70817)","BLUE HILLS"
"SHILOH BAPTIST CHURCH SOUP KITCHEN AND FOOD PANTRY - HARTFORD","350 ALBANY AV",,"Hartford","6120","(860) 247-3767","Unlisted/Unavailable","Unlisted/Unavailable",,"Support Services",,,,,,,"Offers an emergency food pantry on third and fourth Tuesdays of the month, 10-11am for anyone in need. The soup kitchen serves lunch to anyone in need T,Th: 12noon-1:30pm. The church also gives away used clothing after lunch.","350 ALBANY AV
HARTFORD, Connecticut 06120
(41.77691, -72.682417)","CLAY-ARSENAL"
"SOROMUNDI COMMONS SHELTER","135 BROAD ST",,"Hartford","6105","(860) 727-8094","RNoble@chrysalisct.org","http://www.ywcahartford.org/what_we_do/housing.html",,"Support Services",,,,,,,"Provides temporary shelter for women experiencing homelessness. An array of services is available onsite and case managers collaborate with clients to address health issues, job readiness and daily living skills.","135 BROAD ST
HARTFORD, Connecticut 06105
(41.767378, -72.686185)","ASYLUM HILL"
"SOUTH BAY MENTAL HEALTH","237 HAMILTON ST","SUITE 205","Hartford","6106","(860) 578-1300","Unlisted/Unavailable","https://www.southbaycommunityservices.com",,"Support Services",,,,,,,"Provides outpatient mental health services for children, adolescents, adults, families and groups. Services include assessments, testing, evaluations and diagnoses.","237 HAMILTON ST
HARTFORD, Connecticut 06106
(41.754228, -72.704047)","BEHIND THE ROCKS"
"SOUTH PARK INN","75 MAIN ST",,"Hartford","6106","(860) 724-0071","info@southparkinn.org","http://www.southparkinn.org",,"Support Services",,,,,,,"Helps the homeless help themselves.  The South Park Inn provides an 85 bed shelter for 45 men and 40 women and children. Other services include a wide range of clinical services for our residents and support groups.","75 MAIN ST
HARTFORD, Connecticut 06106
(41.756456, -72.675957)","SOUTH GREEN"
"SPORT & MEDICAL SCIENCES ACADEMY (6-12)","280 HUYSHOPE AV",,"Hartford","6106","(860) 695-6900","welcomecenter@hartfordschools.org","http://www.sportandmedicalsciences.org",,,,,,"Schools",,,"Utilizes a thematic approach in delivering a cross-disciplinary curriculum, integrating technology into all subject areas.","280 HUYSHOPE AV
HARTFORD, Connecticut 06106
(41.752365, -72.660526)","BEHIND THE ROCKS"
"ST. FRANCIS BEHAVIORAL HEALTH GROUP","675 TOWER AV",,"Hartford","6112","(860) 714-9333","Unlisted/Unavailable","http://www.stfranciscare.com",,"Support Services",,,,,,,"Draws out peoples strengths and competencies to assist them with coping more effectively in times of significant challenge or difficulty in their lives.","675 TOWER AV
HARTFORD, Connecticut 06112
(41.800789, -72.6935)","BLUE HILLS"
"SUPERIOR COURT CONNECTICUT - JUVENILE MATTERS: STATE OF CONNECTICUT","920 BROAD ST",,"Hartford","6106","(860) 244-7900","Unlisted/Unavailable","http://www.jud.ct.gov",,,,,"Government Agency",,,,"The initial trial level for all juvenile cases in the State of Connecticut.","920 BROAD ST
HARTFORD, Connecticut 06106
(41.75687, -72.687045)","FROG HOLLOW"
"TEACHER PREPARATORY STUDIES AT BULKELEY - LOWER -- REMOVE","300 WETHERSFIELD AV",,"Hartford","6114","(860) 695-1202","welcomecenter@hartfordschools.org","http://www.hartfordschools.org",,,,,,"Schools",,,"Attracts, recruits and trains students who have an interest in the field of education.","300 WETHERSFIELD AV
HARTFORD, Connecticut 06114
(41.747601, -72.673459)","BARRY SQUARE"
"THE CONNECTICUT YOUTH FORUM","750 MAIN ST",,"Hartford","6103","(860) 509-0909","info@ctforum.org","http://www.ctforum.org","Youth and Family Enrichment",,,,,,,,"Encourages the free and active exchange of ideas in forums that inform, challenge, entertain, inspire and build bridges among all people and organizations in our community.","750 MAIN ST
HARTFORD, Connecticut 06103
(41.765677, -72.673388)","DOWNTOWN"
"THE FAMILY RESOURCE CENTER AT BURNS LATINO STUDIES ACADEMY","195 PUTNAM ST","Room 115","Hartford","6106","(860) 695-2994","mabermudez@villageforchildren.org","https://www.hartfordschools.org",,"Support Services",,,,,,,"Seeks to satisfy families beyond their expectations by linking students, parents, principals, teachers, employees, and the community to available resources and ensure accurate information and quality assistance for all.","195 PUTNAM ST
HARTFORD, Connecticut 06106
(41.761181, -72.690452)","FROG HOLLOW"
"THE FAMILY RESOURCE CENTER AT MARIA C. SANCHEZ SCHOOL","176 BABCOCK ST",,"Hartford","6106","(860) 695-4983","yeseniaC@hispanichealth.com","http://www.hartfordschools.org",,"Support Services",,,,,,,"Seeks to satisfy families beyond their expectations by linking students, parents, principals, teachers, employees, and the community to available resources and ensure accurate information and quality assistance for all.","176 BABCOCK ST
HARTFORD, Connecticut 06106
(41.758918, -72.689238)","FROG HOLLOW"
"THE FAMILY RESOURCE CENTER AT MARTIN LUTHER KING, JR. SCHOOL","25 RIDGEFIELD ST",,"Hartford","6112","(860) 695-4013","tgreen@thevillage.org","http://www.hartfordschools.org",,"Support Services",,,,,,,"We seek to satisfy families beyond their expectations by linking students, parents, principals, teachers, employees, and the community to available resources and ensure accurate information and quality assistance for all.","25 RIDGEFIELD ST
HARTFORD, Connecticut 06112
(41.785597, -72.696006)","UPPER ALBANY"
"THE FAMILY RESOURCE CENTER AT S.A.N.D. SCHOOL","1750 MAIN ST",,"Hartford","6120","(860) 695-5061","jnovatapia@thevillage.org","http://thevillage.org/program/family-resource-centers-at-hartford-public-schools",,"Support Services",,,,,,,"Seeks to satisfy families beyond their expectations by linking students, parents, principals, teachers, employees, and the community to available resources and ensure accurate information and quality assistance for all.","1750 MAIN ST
HARTFORD, Connecticut 06120
(41.778567, -72.676209)","CLAY-ARSENAL"
"THE FAMILY RESOURCE CENTER AT WISH SCHOOL","350 BARBOUR ST",,"Hartford","6120","(860) 695-3338","agraypamphile@thevillage.org","http://www.villageforchildren.org",,"Support Services",,,,,,,"We seek to satisfy families beyond their expectations by linking students, parents, principals, teachers, employees, and the community to available resources and ensure accurate information and quality assistance for all.",,"BLUE HILLS"
"THE FAMILY RESOURCE VENTER AT BELLIZZI ASIAN STUDIES ACADEMY","215 SOUTH ST",,"Hartford","0","(860) 695-2400","paolaab@hispanichealth.com","http://www.hispanichealth.com",,"Support Services",,,,,,,"We seek to satisfy families beyond their expectations by linking students, parents, principals, teachers, employees, and the community to available resources and ensure accurate information and quality assistance for all.",,"SOUTH END"
"THELMA ELLIS DICKERSON'S JUMOKE ACADEMY ELEMENTARY SCHOOL (PK-4)","250 BLUE HILLS AV",,"Hartford","6112","(860) 527-0575","Unlisted/Unavailable","http://www.jumokeacademy.org",,,,,,"Schools",,,"Prepares children to successfully compete in the global marketplace and to overcome cultural, social, and/or economic challenges.","250 BLUE HILLS AV
HARTFORD, Connecticut 06112
(41.79164, -72.697938)","NORTH EAST"
"THE MARK TWAIN HOUSE & MUSEUM","351 FARMINGTON AV",,"Hartford","6105","(860) 247-0998","info@marktwainhouse.org","http://www.marktwainhouse.org","Youth and Family Enrichment",,,,,,,,"Throughout the year, The Mark Twain House & Museum presents special events and 
educational programs that illuminate Twain's literary legacy for fans of all ages.","351 FARMINGTON AV
HARTFORD, Connecticut 06105
(41.767538, -72.701011)","ASYLUM HILL"
"THE MIDDLE GRADES ACADEMY AT WEST MIDDLE (5-8)","305 GREENFIELD ST",,"Hartford","6112","(860) 695-5557","welcomecenter@hartfordschools.org","http://www.hartfordschools.org",,,,,,"Schools",,,"Delivers high quality instruction through the use of interdisciplinary units of study.","305 GREENFIELD ST
HARTFORD, Connecticut 06112
(41.784608, -72.697162)","UPPER ALBANY"
"THE VILLAGE FAMILY RESOURCE AT BURNS LATINO STUDIES ACADEMY","195 PUTNAM ST",,"Hartford","6106","(860) 695-2994","mabermudez@villageforchildren.org","http://www.thevillage.org",,"Support Services",,,,,,,"To build a community of strong, healthy families who protect and nurture children.","195 PUTNAM ST
HARTFORD, Connecticut 06106
(41.761181, -72.690452)","FROG HOLLOW"
"THE VILLAGE FOR CHILDREN & FAMILIES - MARTIN LUTHER KING, JR. SCHOOL","25 RIDGEFIELD ST",,"Hartford","6112","(860) 695-3980","tgreen@thevillage.org","http://www.villageforchildren.org",,"Support Services",,,,,,,"Builds a community of strong healthy families who protect and nurture children.","25 RIDGEFIELD ST
HARTFORD, Connecticut 06112
(41.785597, -72.696006)","UPPER ALBANY"
"THE VILLAGE FOR FAMILIES & CHILDREN - NORTH","1680 ALBANY AV",,"Hartford","6105","(860) 236-4511","Unlisted/Unavailable","http://www.villageforchildren.org",,"Support Services",,,,,,,"To build a community of strong healthy families who protect and nurture children.","1680 ALBANY AV
HARTFORD, Connecticut 06105
(41.78585, -72.710828)","BLUE HILLS"
"THE VILLAGE FOR FAMILIES & CHILDREN - SOUTH","331 WETHERSFIELD AV",,"Hartford","6114","(860) 236-4511","Unlisted/Unavailable","http://www.villageforchildren.org",,"Support Services",,,,,,,"To build a community of strong healthy families who protect and nurture children.","331 WETHERSFIELD AV
HARTFORD, Connecticut 06114
(41.746874, -72.673342)","BARRY SQUARE"
"THIRD TABERNACLE REPAST FOOD PANTRY","829 ALBANY AV",,"Hartford","6112","(860) 522-9639","Unlisted/Unavailable","http://www.cogasoc.org",,"Support Services",,,,,,,"Distributes food to Hartford, Bloomfield, East Hartford and West Hartford residents in need on the second and fourth Thursdays of the month, 2-3pm. Walk-in.","829 ALBANY AV
HARTFORD, Connecticut 06112
(41.779957, -72.690352)","UPPER ALBANY"
"THIRMAN MILNER SCHOOL (PK 4-8)","104 VINE ST",,"Hartford","6112","(860) 695-4380","welcomecenter@hartfordschools.org","http://www.hartfordschools.org",,,,,,"Schools",,,"Prepares children to successfully compete in the global marketplace and to overcome cultural, social, and/or economic challenges.","104 VINE ST
HARTFORD, Connecticut 06112
(41.782572, -72.688205)","UPPER ALBANY"
"THREE ANGELS ADVENTIST COMMUNITY SERVICE FOOD PANTRY AND SOUP KITCHEN","500 WOODLAND ST",,"Hartford","6112","(860) 524-5176","Unlisted/Unavailable","Unlisted/Unavailable",,"Support Services",,,,,,,"Serves anyone in need. Soup kitchen serves lunch on Sun: 12:30-1:30pm. Food pantry is open T: 11am-1pm. Clothing is also distributed, as available, to people in need.","500 WOODLAND ST
HARTFORD, Connecticut 06112
(41.784283, -72.695252)","UPPER ALBANY"
"TRAVELERS EARLY CHILDHOOD LEARNING CENTER - THE VILLAGE FOR FAMILIES & CHILDREN","105 SPRING ST",,"Hartford","6105","(860) 236-4511, x3655","cvalenzuela@thevillage.org","http://www.thevillage.org",,,,"Early Childhood Education",,,,,"Provides a nurturing, open and safe educational environment that helps to promote learning, intellectual curiosity, creativity, independence, social skills, & physical development.","105 SPRING ST
HARTFORD, Connecticut 06105
(41.771015, -72.683516)","ASYLUM HILL"
"TRINITY COLLEGE COMMUNITY CHILD CENTER (PREK)","300 SUMMIT ST",,"Hartford","6106","(860) 297-5374","Christina.gademsky@tc4.org","http://www.tc4.org",,,,"Early Childhood Education",,,,,"Provides readiness skills  that help children succeed in kindergarten including language acquisition, vocabulary building, scientific inquiry, and literacy skills.","300 SUMMIT ST
HARTFORD, Connecticut 06106
(41.745838, -72.692773)","BARRY SQUARE"
"TRINITY COLLEGE VISION ACADEMIC MENTORING PROGRAM","300 SUMMIT ST",,"Hartford","6106","(860) 297-2000","Unlisted/Unavailable","http://www.trincoll.edu","Youth and Family Enrichment",,,,,,,,"Provides weekly homework help, mentoring, enrichment activities and field trips to middle school  students.","300 SUMMIT ST
HARTFORD, Connecticut 06106
(41.745838, -72.692773)","BARRY SQUARE"
"TRINITY HILL CARE CENTER","151 HILLSIDE AV",,"Hartford","6106","(860) 951-1060","davids@icaremanagement.com","http://www.trinity-hill.com",,"Support Services",,,,,,,"Offers intensive, inpatient nursing care, rehabilitative therapies, respite care, hospice services, and a special care unit for people with AIDS, Alzheimer's disease, or other forms of dementia.","151 HILLSIDE AV
HARTFORD, Connecticut 06106
(41.748736, -72.698044)","BEHIND THE ROCKS"
"TRUE COLORS INC","30 ARBOR ST",,"Hartford","6106","(860) 232-0050","director@ourtruecolors.org","http://www.ourtruecolors.org",,"Support Services",,,,,,,"Works with other social service agencies, schools, organizations, and within communities to ensure that the needs of sexual and gender minority youth are both recognized and competently met.","30 ARBOR ST
HARTFORD, Connecticut 06106
(41.760069, -72.703081)","PARKVILLE"
"UNION BAPTIST CHURCH BREAKFAST PROGRAM AND FOOD PANTRY","1921 MAIN ST",,"Hartford","6120","(860) 247-0648","Unlisted/Unavailable","http://www.unionbaptisthartford.org",,"Support Services",,,,,,,"Church serves breakfast Sat, Sun: 8-9am to anyone in need. Program is closed in August.Provides information about cerebral palsy and offers services to people with cerebral palsy and other disabilities.","1921 MAIN ST
HARTFORD, Connecticut 06120
(41.780935, -72.676154)","CLAY-ARSENAL"
"UNITED CEREBRAL PALSY ASSOCIATION OF GREATER HARTFORD","80 WHITNEY ST",,"Hartford","6105","(860) 236-6201 ext. 324","Unlisted/Unavailable","http://www.ucphartford.org",,"Support Services","Civic Engagement",,,,,,"Provides information about cerebral palsy and offers services to people with cerebral palsy and other disabilities. Services include in-home and companion supports, information and referral to community resources, and overnight summer camping programs.","80 WHITNEY ST
HARTFORD, Connecticut 06105
(41.769288, -72.711817)","WEST END"
"UNITED METHODIST CHURCH OF HARTFORD FOOD PANTRY","571 FARMINGTON AV",,"Hartford","6105","(860) 523-5132","Unlisted/Unavailable","http://www.umcofhartford.org/",,"Support Services",,,,,,,"Church food pantry located in the West End of Hartford is for anyone in need. Food distribution is last Tuesday of the month from 5-6pm.","571 FARMINGTON AV
HARTFORD, Connecticut 06105
(41.766196, -72.711172)","WEST END"
"UNITED WAY OF CENTRAL AND NORTHEASTERN CONNECTICUT","30 LAUREL ST",,"Hartford","6106","1 (800) 203-1234","info@unitedwayinc.org","http://www.unitedwayinc.org",,"Support Services",,,,,,,"Serves 40 towns in Central and Northeastern Connecticut to create positive change and achieve long-lasting results. Community priorities to advance the common good are education, income, health and a safety net of basic needs services.","30 LAUREL ST
HARTFORD, Connecticut 06106
(41.759879, -72.696833)","FROG HOLLOW"
"UNIVERSITY HIGH SCHOOL OF SCIENCE AND ENGINEERING (9-12)","351 MARK TWAIN DR",,"Hartford","6112","(860) 695-9020","Folam001@hartfordschools.org","http://www.uhsse.org",,,,,,"Schools",,,"Prepares students for college by earning college credits while in high school and spending time on the college campus.","351 MARK TWAIN DR
HARTFORD, Connecticut 06112
(41.797834, -72.709685)","BLUE HILLS"
"UPPER ALBANY NEIGHBORHOOD COLLABORATIVE","1229 ALBANY AV",,"Hartford","6112","(860) 724-6703","Unlisted/Unavailable","http://www.uanchartford.org/",,,"Civic Engagement",,,,,,"Improves their area's economic stability and quality of life and work with agencies and businesses that are planning project development in the Upper Albany neighborhood to ensure that project employment plans are responsive to the needs of the community.","1229 ALBANY AV
HARTFORD, Connecticut 06112
(41.782485, -72.697041)","UPPER ALBANY"
"URBAN ALLIANCE","750 MAIN ST",,"Hartford","6103","(860) 986-7724","althea@urbanalliance.com","http://www.urbanalliance.com",,,"Civic Engagement",,,,,,"Creates opportunities for people to achieve lasting change in their lives through the collaborative work of churches and organizations in our local community.","750 MAIN ST
HARTFORD, Connecticut 06103
(41.765677, -72.673388)","DOWNTOWN"
"URBAN LEAGUE OF GREATER HARTFORD","140 WOODLAND ST",,"Hartford","6105","(860) 527-0147","Unlisted/Unavailable","http://www.ulgh.org","Youth and Family Enrichment","Support Services",,,,,,"Workforce Development","Promotes the self-empowerment of individuals in the Connecticut Capital Region to achieve educational, occupational and economic equality for themselves and their families.","140 WOODLAND ST
HARTFORD, Connecticut 06105
(41.776682, -72.69871)","ASYLUM HILL"
"WADSWORTH ATHENEUM MUSEUM OF ART","600 MAIN ST",,"Hartford","6103","(860) 278-2670","info@wadsworthatheneum.org.","http://www.thewadsworth.org","Youth and Family Enrichment",,,,,,,,"The oldest continuously-operating public art museum in the United States, founded in 1842 by arts patron Daniel Wadsworth.","600 MAIN ST
HARTFORD, Connecticut 06103
(41.763864, -72.673964)","DOWNTOWN"
"WARBURTON COMMUNITY CHURCH FOOD PANTRY","420 BROOKFIELD ST",,"Hartford","6106","(860) 951-0058","Unlisted/Unavailable","Unlisted/Unavailable",,"Support Services",,,,,,,"Food pantry located in Hartford open Sat: 10am-2pm. Also open other days for emergencies only.","420 BROOKFIELD ST
HARTFORD, Connecticut 06106
(41.742372, -72.708456)","BEHIND THE ROCKS"
"WEST MIDDLE ELEMENTARY SCHOOL (PK 4-5)","44 NILES ST",,"Hartford","6112","(860) 695-5484","welcomecenter@hartfordschools.org ESTEL001@hartfordschools.org","http://www.hartfordschools.org",,,,,,"Schools",,,"Dynamically educates students by fostering high expectations through a joint collaboration of school, home, and a supportive community.","44 NILES ST
HARTFORD, Connecticut 06112
(41.769666, -72.696476)","ASYLUM HILL"
"WHEELER CLINIC","43 WOODLAND ST",,"Hartford","6105","(860) 793-3500","Unlisted/Unavailable","http://www.wheelerclinic.org",,"Support Services",,,,,,,"Fosters positive change in the lives of individuals and families as well as in communities by providing cutting-edge human services that address a diverse range of needs and backgrounds, enhance strengths and provide the supports that encourages recovery.","43 WOODLAND ST
HARTFORD, Connecticut 06105
(41.770184, -72.701608)","ASYLUM HILL"
"WILLIE WARE RECREATION CENTER, DEPARTMENT OF FAMILIES, CHILDREN, YOUTH, AND RECREATION: CITY OF HARTFORD","697 WINDSOR ST",,"Hartford","6120","(860) 722-6537","tstewart@hartford.gov","http://dfcyr.hartford.gov","Youth and Family Enrichment",,,,,,,,"Provides recreational opportunities that promote healthy and active living.","697 WINDSOR ST
HARTFORD, Connecticut 06120
(41.786137, -72.670219)","NORTH EAST"
"WOMEN'S LEAGUE CHILD DEVELOPMENT CENTER","1695 MAIN ST",,"Hartford","6120","(860) 524-5969","irich@ womensleaguecdc.org","http://www.womensleaguecdc.org",,,,"Early Childhood Education",,,,,"Creates an environment where all children love to learn and learn to love...while having fun. To build relationships among children, families and staff that form the foundation for healthy adjustment, development and lifelong learning.","1695 MAIN ST
HARTFORD, Connecticut 06120
(41.777778, -72.676422)","CLAY-ARSENAL"
"YMCA OF GREATER OF HARTFORD","444 ALBANY AV",,"Hartford","6112","(860) 241-9622","info@ghymca.org","http://www.ghymca.org","Youth and Family Enrichment","Support Services",,,,,,,"Helps people develop their God-given potential in spirit, mind and body to develop as caring, honest, respectful, and responsible individuals.","444 ALBANY AV
HARTFORD, Connecticut 06112
(41.777442, -72.684121)","CLAY-ARSENAL"
"Y-US (YOUTH UNITED FOR SURVIVAL, INC.)","1477 PARK ST",,"Hartford","6106","(860) 951-7268","mail@y-us.org","http://www.y-us.org","Youth and Family Enrichment",,,,,,,,"Helps youth who have experienced trauma develop into healthy and responsible people through positive youth development programs.","1477 PARK ST
HARTFORD, Connecticut 06106
(41.757856, -72.70292)","PARKVILLE"
"YWCA","135 BROAD ST",,"Hartford","6105","(860) 525-1163","ywcainfo@ywcahartford.org","http://www.ywcahartford.org",,"Support Services",,,,,,,"Helps eliminate racism and empower women who are the heads of the households we serve.","135 BROAD ST
HARTFORD, Connecticut 06105
(41.767378, -72.686185)","ASYLUM HILL"
"YW CAREER WOMEN","135 BROAD ST",,"Hartford","6105","(860) 525-1163 X 124","BonnieM@ywcahartford.org","http://www.ywcahartford.org",,,,,,,,"Workforce Development","Helps women with families launch their career in a field that leads to greater financial stability. YWCW  does this by assisting female students through a holistic and supportive approach.","135 BROAD ST
HARTFORD, Connecticut 06105
(41.767378, -72.686185)","ASYLUM HILL"
"YWCA - THE GROWING TREE EARLY LEARNING CENTER","195 GARDEN ST",,"Hartford","6105","(860) 548-2003","michelee@ ywcahartford.org","http://www.ywcahartford.org",,,,"Early Childhood Education",,,,,"Provides safety, structure and quality care to children so that their parents can prosper.","195 GARDEN ST
HARTFORD, Connecticut 06105
(41.773049, -72.687179)","ASYLUM HILL"
