"providertype","dfta_id","programname","sponsorname","programaddress","programcity","programstate","programzipcode","borough","programphone","dfta_funded","monhouropen","monhourclose","tuehouropen","tuehourclose","wedhouropen","wedhourclose","thuhouropen","thuhourclose","frihouropen","frihourclose","sathouropen","sathourclose","sunhouropen","sunhourclose","latitude","longitude","community_board","council_district","census_tract","bin","bbl","nta","geocoded_column"
"SOCIAL ADULT DAY CARE SERVICES","S17101","LOVEJOY SENIOR DAYCARE CENTER, INC.","Lovejoy Senior Daycare Center, Inc.","111 MOORE ST  GROUND FLOOR","BROOKLYN","NY","11206","Brooklyn","718-387-0337","N","08:30","03:00","08:30","03:00","08:30","03:00","08:30","03:00","08:30","03:00","08:30","03:00","00:00","00:00","40.703887","-73.941294","301","34","491","3251827","3030970025","East Williamsburg","
,  
(40.703887, -73.941294)"
"SOCIAL ADULT DAY CARE SERVICES","S20801","SUNLIGHT ADULT DAY CARE INC.","Sunlight Adult Day Care Inc.","30-50A WHITESTONE EXPRESSWAY  4TH FLOOR","FLUSHING","NY","11354",,"718-886-8577","N","07:00","03:00","07:00","03:00","07:00","03:00","07:00","03:00","07:00","03:00","07:00","03:00","00:00","00:00","40.770483","-73.835639","407","19","907",,,"College Point","
,  
(40.770483, -73.835639)"
"SOCIAL ADULT DAY CARE SERVICES","S26001","SENIORS IN TOUCH","Seniors In Touch","9000 SHORE RD  WEST BUILDING 1ST FLOOR","BROOKLYN","NY","11209","Brooklyn","347-377-5471","Y","10:00","03:00","10:00","03:00","10:00","03:00","10:00","03:00","10:00","03:00","00:00","00:00","00:00","00:00","40.622093","-74.040244","310","43","5201","3322532","3060780010","Bay Ridge","
,  
(40.622093, -74.040244)"
"SOCIAL ADULT DAY CARE SERVICES","S51401","TLC ADULT DAY CARE CENTER LLC.","Tlc Adult Day Care Center Llc.","3305 3RD AVE.  GROUND FLOOR","BRONX","NY","10456","Bronx","718-292-7700","N","08:30","04:00","08:30","04:00","08:30","04:00","08:30","04:00","08:30","04:00","00:00","00:00","00:00","00:00","40.825809","-73.908017","203","17","185","2116711","2023697501","Morrisania-Melrose","
,  
(40.825809, -73.908017)"
"SOCIAL ADULT DAY CARE SERVICES","S11101","HAPPY ADULT DAY CARE CENTER INC.","Happy Adult Day Care Center Inc.","5118 FORT HAMILTON PKWY","BROOKLYN","NY","11219","Brooklyn","718-686-1899","N","07:30","01:30","07:30","01:30","07:30","01:30","07:30","01:30","07:30","01:30","07:30","01:30","07:30","01:30","40.637289","-73.999297","312","44","114","3138270","3056530014","Borough Park","
,  
(40.637289, -73.999297)"
"SOCIAL ADULT DAY CARE SERVICES","S51701","SILVER SPRINGS ADULT DAY CARE CENTER","Silver Springs Adult Day Care Center","50-15  BEACH CHANNEL DRIVE","FAR ROCKAWAY","NY","11691","Queens","718-734-2172","N","09:00","02:00","00:00","00:00","09:00","02:00","00:00","00:00","09:00","02:00","00:00","00:00","00:00","00:00","40.595303","-73.781147","414","31","97204","4301899","4158420100","Hammels-Arverne-Edgemere","
,  
(40.595303, -73.781147)"
"SOCIAL ADULT DAY CARE SERVICES","S14801","SILVER TOWN AT GRACE AVENUE ADULT DAY CARE CENTER, LLC DBA S","Silver Town At Grace Avenue Adult Day Care Center, Llc Dba S","280 WEST 231 ST  LOWER LEVEL","BRONX","NY","10463","Bronx","917-748-5080","N","09:00","04:30","00:00","00:00","09:00","04:30","09:00","04:30","09:00","04:30","00:00","00:00","00:00","00:00","40.880456","-73.907757","208","11","289","2083199","2057110030","Spuyten Duyvil-Kingsbridge","
,  
(40.880456, -73.907757)"
"SOCIAL ADULT DAY CARE SERVICES","S8601","LA FAMILIA ADULT DAY CENTER INC","La Familia Adult Day Center Inc","2501 PITKIN AVE","BROOKLYN","NY","11208","Brooklyn","347-533-9345","N","09:00","04:00","09:00","04:00","09:00","04:00","09:00","04:00","09:00","04:00","09:00","04:00","00:00","00:00","40.674238","-73.880081","305","37","1166","3000000","3040057501","East New York","
,  
(40.674238, -73.880081)"
"SOCIAL ADULT DAY CARE SERVICES","S59001","HARMONY SOCIAL DAYCARE CENTER","Harmony Social Daycare Center","749 60TH STREET","BROOKLYN","NY","11220","Brooklyn","718-483-8202","N","08:00","05:00","08:00","05:00","08:00","05:00","08:00","05:00","08:00","05:00","08:00","05:00","08:00","05:00","40.636175","-74.010668","307","38","104","3016437","3008660061","Sunset Park East","
,  
(40.636175, -74.010668)"
"SOCIAL ADULT DAY CARE SERVICES","S58701","SARANG CARE INC.","Sarang Care Inc.","144-56 ROOSEVELT AVE  #1C","FLUSHING","NY","11354","Queens","718-445-2207","N","08:00","03:00","08:00","03:00","08:00","03:00","08:00","03:00","08:00","03:00","08:00","03:00","00:00","00:00","40.762113","-73.820227","407","20","863","4113846","4050250031","Murray Hill","
,  
(40.762113, -73.820227)"
"SOCIAL ADULT DAY CARE SERVICES","S55701","SARANG CARE INC.","Sarang Care Inc.","45-25 162ND ST.  1FL.","FLUSHING","NY","11358","Queens","718-445-2207","N","07:00","03:00","07:00","03:00","07:00","03:00","07:00","03:00","07:00","03:00","00:00","00:00","00:00","00:00","40.755552","-73.804631","407","20","1191","4123254","4054410027","East Flushing","
,  
(40.755552, -73.804631)"
"SOCIAL ADULT DAY CARE SERVICES","S161601","NEXUS SOCIAL ADULT DAY CARE","Nexus Social Adult Day Care","147-05 ELM AVE  1ST FLOOR","FLUSHING","NY","11355","Queens","718-886-0741","N","00:00","00:00","09:00","05:00","00:00","00:00","09:00","05:00","00:00","00:00","09:00","05:00","00:00","00:00","40.756229","-73.815251","407","20","1189","4531842","4054050038","East Flushing","
,  
(40.756229, -73.815251)"
"SOCIAL ADULT DAY CARE SERVICES","S59601","FORTUNE SOCIAL DAYCARE CENTER INC","Fortune Social Daycare Center Inc","2402 86TH ST","BROOKLYN","NY","11214","Brooklyn","718-536-2628","N","08:00","05:00","08:00","05:00","08:00","05:00","08:00","05:00","08:00","05:00","00:00","00:00","00:00","00:00","40.599158","-73.989255","311","47","300","3185543","3068640037","Bensonhurst East","
,  
(40.599158, -73.989255)"
"SOCIAL ADULT DAY CARE SERVICES","S60201","HAPPYHOUSE ADULT DAY CARE CENTER INC","Happyhouse Adult Day Care Center Inc","9 BAY 34TH STREET  1FL","BROOKLYN","NY","11214","Brooklyn","917-688-5922","N","08:00","02:30","08:00","02:30","08:00","02:30","08:00","02:30","08:00","02:30","08:00","02:30","08:00","02:30","40.59976","-73.991239","311","47","300","3185456","3068620038","Bensonhurst East","
,  
(40.59976, -73.991239)"
"SOCIAL ADULT DAY CARE SERVICES","S61001","ONE STOP SENIOR DAY CARE, INC.","One Stop Senior Day Care, Inc.","108-10 72ND AVE  FL2","FOREST HILLS","NY","11375","Queens","718-702-4234","N","09:00","03:00","09:00","03:00","09:00","03:00","09:00","03:00","09:00","03:00","00:00","00:00","00:00","00:00","40.719566","-73.842467","406","29","737","4078034","4032580037","Forest Hills","
,  
(40.719566, -73.842467)"
"SOCIAL ADULT DAY CARE SERVICES","S53501","FRIENDLY CONNECTIONS","Friendly Connections","6087 MYRTLE AVENUE","RIDGEWOOD","NY","11385","Queens","718-305-4888","N","07:30","03:00","07:30","03:00","07:30","03:00","07:30","03:00","07:30","03:00","00:00","00:00","00:00","00:00","40.700759","-73.895141","405","30","583","4085342","4035380050","Ridgewood","
,  
(40.700759, -73.895141)"
"SOCIAL ADULT DAY CARE SERVICES","S53901","FIRST HEALTH ADULT DAYCARE CENTER LLC","First Health Adult Daycare Center Llc","2533 OCEAN AVE","BROOKLYN","NY","11229","Brooklyn","718-648-9888","N","08:30","02:00","08:30","02:00","08:30","02:00","08:30","02:00","08:30","02:00","08:30","02:00","00:00","00:00","40.599972","-73.951505","315","48","578","3198328","3073250053","Madison","
,  
(40.599972, -73.951505)"
"SOCIAL ADULT DAY CARE SERVICES","S54101","FRESH MEADOWS ADULT DAY CARE LLC","Fresh Meadows Adult Day Care Llc","181-08 UNION TPKE","FRESH MEADOWS","NY","11366","Queens","718-591-8889","N","08:00","02:00","08:00","02:00","08:00","02:00","08:00","02:00","08:00","02:00","08:00","02:00","09:00","02:00","40.727389","-73.786684","408","24","1277","4155495","4072290037","Jamaica Estates-Holliswood","
,  
(40.727389, -73.786684)"
"SOCIAL ADULT DAY CARE SERVICES","S54601","CHIFU CENTER INC","Chifu Center Inc","37-49 81ST STREET  SUITE 1A","JACKSON HEIGHTS","NY","11372",,"347-924-9888","N","08:30","06:30","08:30","06:30","08:30","06:30","08:30","06:30","08:30","06:30","00:00","00:00","00:00","00:00","40.749304","-73.885165","403","21","283",,,"Jackson Heights","
,  
(40.749304, -73.885165)"
"SOCIAL ADULT DAY CARE SERVICES","S47301","EVERGREEN ADULT DAYCARE IN NY, INC.","Evergreen Adult Daycare In Ny, Inc.","142-25 37 AVENUE","FLUSHING","NY","11354","Queens","917-703-1116","N","08:00","04:00","08:00","04:00","08:00","04:00","08:00","04:00","08:00","04:00","08:00","04:00","00:00","00:00","40.762606","-73.82681","407","20","865","4531289","4050107504","Flushing","
,  
(40.762606, -73.82681)"
"SOCIAL ADULT DAY CARE SERVICES","S57501","QUEENS SOCIAL ADULT DAY CARE, INC","Queens Social Adult Day Care, Inc","1217 LIBERTY AVENUE","BROOKLYN","NY","11208","Brooklyn","718-444-9090","N","09:00","09:00","09:00","09:00","09:00","09:00","09:00","09:00","09:00","09:00","09:00","09:00","09:00","09:00","40.679002","-73.864728","305","37","1188","3094134","3041840062","Cypress Hills-City Line","
,  
(40.679002, -73.864728)"
"SOCIAL ADULT DAY CARE SERVICES","S4101","VIMINI LLC","Vimini Llc","2028 SEAGIRT BLVD  SUITE 100","FAR ROCKAWAY","NY","11691","Queens","718-757-1640","N","08:30","06:00","08:30","06:00","08:30","06:00","08:30","06:00","08:30","06:00","08:30","06:00","00:00","00:00","40.595193","-73.755398","414","31","99801","4440249","4157800020","Far Rockaway-Bayswater","
,  
(40.595193, -73.755398)"
"SOCIAL ADULT DAY CARE SERVICES","S22701","BROOKLYN UNITED METHODIST CHURCH HOME SOCIAL DAY PROGRAM","Brooklyn United Methodist Church Home Social Day Program","1485 DUMONT AVE","BROOKLYN","NY","11208","Brooklyn","718-827-4500","N","08:00","04:00","08:00","04:00","08:00","04:00","08:00","04:00","08:00","04:00","00:00","00:00","00:00","00:00","40.670965","-73.862535","305","42","1208","3096183","3042890001","East New York","
,  
(40.670965, -73.862535)"
"SOCIAL ADULT DAY CARE SERVICES","S14301","JAMAICA SERVICE PROGRAM FOR OLDER ADULTS, INC. - FRIENDSHIP","Jamaica Service Program For Older Adults, Inc. - Friendship","92-33 170TH ST","JAMAICA","NY","11433","Queens","718-657-6540","N","08:00","04:30","08:00","04:30","08:00","04:30","08:00","04:30","08:00","04:30","09:00","03:00","00:00","00:00","40.706193","-73.789136","412","27","444","4457492","4102120033","Jamaica","
,  
(40.706193, -73.789136)"
"SOCIAL ADULT DAY CARE SERVICES","S101","HAMILTON-MADISON HOUSE, INC.","Hamilton-madison House, Inc.","253 SOUTH ST  2ND FLOOR","NEW YORK","NY","10002","Manhattan","212-720-4588","Y","09:00","03:00","09:00","03:00","00:00","00:00","09:00","03:00","09:00","03:00","00:00","00:00","00:00","00:00","40.710004","-73.990521","103","1","6","1085945","1002480015","Lower East Side","
,  
(40.710004, -73.990521)"
"SOCIAL ADULT DAY CARE SERVICES","S31201","GOODWILL SOCIAL ADULT DAY CARE","Goodwill Social Adult Day Care","334 86TH ST","BROOKLYN","NY","11209","Brooklyn","713-737-3717","N","12:00","05:30","00:00","00:00","12:00","05:30","12:00","05:30","00:00","00:00","00:00","00:00","00:00","00:00","40.623186","-74.02996","310","43","60","3153475","3060440021","Bay Ridge","
,  
(40.623186, -74.02996)"
"SOCIAL ADULT DAY CARE SERVICES","S9401","D&H ADULT DAY CARE CENTER INC","D&h Adult Day Care Center Inc","5805 7TH AVE  FIRST FLOOR","BROOKLYN","NY","11220","Brooklyn","718-439-3829","N","08:00","03:00","08:00","03:00","08:00","03:00","08:00","03:00","08:00","03:00","08:00","03:00","00:00","00:00","40.63786","-74.010669","307","38","104","3016180","3008587501","Sunset Park East","
,  
(40.63786, -74.010669)"
"SOCIAL ADULT DAY CARE SERVICES","S42801","KINGS BAY YM-YWHA","Kings Bay Ym-ywha","3495 NOSTRAND AVENUE","BROOKLYN","NY","11229","Brooklyn","718-648-7703","N","09:00","05:00","09:00","05:00","09:00","05:00","09:00","05:00","09:00","05:00","09:00","01:00","00:00","00:00","40.598817","-73.94157","315","46","570","3200300","3073630036","Sheepshead Bay-Gerritsen Beach-Manhattan Beach","
,  
(40.598817, -73.94157)"
"SOCIAL ADULT DAY CARE SERVICES","S13901","HARMONY SOCIAL DAYCARE CENTER INC.","Harmony Social Daycare Center Inc.","819 59TH ST","BROOKLYN","NY","11220","Brooklyn","718-483-8208","N","08:00","05:00","08:00","05:00","08:00","05:00","08:00","05:00","08:00","05:00","08:00","05:00","08:00","05:00","40.635711","-74.008334","312","38","104","3140558","3057000071","Sunset Park East","
,  
(40.635711, -74.008334)"
"SOCIAL ADULT DAY CARE SERVICES","S9001","YOUNG FOREVER SOCIAL ADULT DAY CARE, INC.","Young Forever Social Adult Day Care, Inc.","143 AVE O  C1","BROOKLYN","NY","11204","Brooklyn","718-232-0572","N","08:00","03:00","08:00","03:00","08:00","03:00","08:00","03:00","08:00","03:00","08:00","03:00","08:00","03:00","40.610704","-73.979586","311","44","432","3392237","3065797502","Bensonhurst East","
,  
(40.610704, -73.979586)"
"SOCIAL ADULT DAY CARE SERVICES","S52401","APNA ADULT DAYCARE OF BRIGHTON LLC","Apna Adult Daycare Of Brighton Llc","3140 CONEY ISLAND AVENUE  2","BROOKLYN","NY","11235","Brooklyn","718-513-4447","N","10:00","06:00","10:00","06:00","10:00","06:00","10:00","06:00","10:00","06:00","10:00","06:00","10:00","06:00","40.579524","-73.959767","313","48","362","3000000","3086780064","Brighton Beach","
,  
(40.579524, -73.959767)"
"SOCIAL ADULT DAY CARE SERVICES","S59101","WE CARE ADULT DAYCARE CENTER","We Care Adult Daycare Center","97 MOORE STREET  1ST FLOOR","BROOKLYN","NY","11206","Brooklyn","347-799-1798","N","09:00","05:00","09:00","05:00","09:00","05:00","09:00","05:00","09:00","05:00","09:00","05:00","09:00","05:00","40.703844","-73.941789","301","34","491","3393918","3030977501","East Williamsburg","
,  
(40.703844, -73.941789)"
"SOCIAL ADULT DAY CARE SERVICES","S30101","BIG FAMILY SOCIAL ADULT DAYCARE INC.","Big Family Social Adult Daycare Inc.","6821 8TH AVE","BROOKLYN","NY","11220","Brooklyn","347-517-4090","N","08:30","03:30","08:30","03:30","08:30","03:30","08:30","03:30","08:30","03:30","09:00","03:30","09:00","03:30","40.630745","-74.014483","310","43","12801","3142982","3057700002","Dyker Heights","
,  
(40.630745, -74.014483)"
"SOCIAL ADULT DAY CARE SERVICES","S51801","AN KANG ADULT DAY CARE LLC.","An Kang Adult Day Care Llc.","835 61ST STREET  103","BROOKLYN","NY","11220","Brooklyn","929-480-8285","N","08:00","03:00","08:00","03:00","08:00","03:00","08:00","03:00","08:00","03:00","08:00","02:00","08:00","02:00","40.634396","-74.009288","312","38","118","3141175","3057140057","Sunset Park East","
,  
(40.634396, -74.009288)"
"SOCIAL ADULT DAY CARE SERVICES","S56001","EVERGREEN SENIOR DAYCARE CENTER INC","Evergreen Senior Daycare Center Inc","5815 6TH AVE","BROOKLYN","NY","11220","Brooklyn","917-288-9878","N","07:00","05:00","07:00","05:00","07:00","05:00","07:00","05:00","07:00","05:00","07:00","02:00","07:00","02:00","40.63915","-74.012914","307","38","102","3016110","3008570003","Sunset Park East","
,  
(40.63915, -74.012914)"
"SOCIAL ADULT DAY CARE SERVICES","S27901","CAIPA SOCIAL DAYCARE CENTER LLC","Caipa Social Daycare Center Llc","1933 86TH ST","BROOKLYN","NY","11214","Brooklyn","929-333-9688","N","08:00","04:00","08:00","04:00","08:00","04:00","08:00","04:00","08:00","04:00","08:00","04:00","00:00","00:00","40.605365","-73.999503","311","47","284","3165818","3063450052","Bensonhurst West","
,  
(40.605365, -73.999503)"
"SOCIAL ADULT DAY CARE SERVICES","S14601","BETTER LIVING ADULT CENTER INC.","Better Living Adult Center Inc.","1656 WEST 10TH ST","BROOKLYN","NY","11223","Brooklyn","718-837-8988","N","08:00","03:30","08:00","03:30","08:00","03:30","08:00","03:30","08:00","03:30","08:00","02:00","08:00","02:00","40.606472","-73.983261","311","44","428","3175348","3066210028","Bensonhurst East","
,  
(40.606472, -73.983261)"
"SOCIAL ADULT DAY CARE SERVICES","S26901","DAY DAY UP ADULT DAY CARE CENTER INC","Day Day Up Adult Day Care Center Inc","142-30 38TH AVE  2ND FLOOR","FLUSHING","NY","11354","Queens","718-321-0364","N","08:00","03:00","08:00","03:00","08:00","03:00","08:00","03:00","08:00","03:00","08:00","03:00","00:00","00:00","40.761818","-73.826332","407","20","865","4540143","4050207503","Flushing","
,  
(40.761818, -73.826332)"
"SOCIAL ADULT DAY CARE SERVICES","S46101","BOULEVARD ADULT DAY CARE OF FLUSHING","Boulevard Adult Day Care Of Flushing","636 LOUISIANA AVENUE","BROOKLYN","NY","11239","Brooklyn","718-557-0999","N","09:00","05:00","09:00","05:00","09:00","05:00","09:00","05:00","09:00","05:00","00:00","00:00","09:00","05:00","40.647303","-73.885531","318","42","105804","3000000","3082350140","Starrett City","
,  
(40.647303, -73.885531)"
"SOCIAL ADULT DAY CARE SERVICES","S31601","SILVER AGE OF SHEEPSHEAD BAY INC.","Silver Age Of Sheepshead Bay Inc.","2752 OCEAN AVE","BROOKLYN","NY","11229","Brooklyn","347-409-3657","N","00:00","00:00","09:00","05:00","09:00","05:00","00:00","00:00","09:00","05:00","00:00","00:00","00:00","00:00","40.594155","-73.950429","315","48","592","3392744","3074047503","Sheepshead Bay-Gerritsen Beach-Manhattan Beach","
,  
(40.594155, -73.950429)"
"SOCIAL ADULT DAY CARE SERVICES","S39401","HAPPY ISLAND SENIOR CENTER LLC","Happy Island Senior Center Llc","1671 HYLAN BLVD","STATEN ISLAND","NY","10305","Staten Island","718-524-4211","N","08:30","05:30","08:30","05:30","08:30","05:30","08:30","05:30","08:30","05:30","08:30","01:30","08:30","01:30","40.588017","-74.090799","502","50","9602","5148163","5033400090","Old Town-Dongan Hills-South Beach","
,  
(40.588017, -74.090799)"
"SOCIAL ADULT DAY CARE SERVICES","S12701","MY HOME DAY CARE CENTER INC.","My Home Day Care Center Inc.","1471 DEKALB AVE  2ND FLOOR","BROOKLYN","NY","11237","Brooklyn","718-452-3469","N","09:00","03:00","09:00","05:00","09:00","05:00","09:00","05:00","09:00","03:00","11:00","05:00","00:00","00:00","40.701345","-73.92216","304","37","429","3073582","3032360001","Bushwick North","
,  
(40.701345, -73.92216)"
"SOCIAL ADULT DAY CARE SERVICES","S28301","HIMALAYAN ADULT DAY CARE LLC","Himalayan Adult Day Care Llc","4101 75TH ST","ELMHURST","NY","11373","Queens","929-328-8328","N","09:00","04:00","09:00","04:00","09:00","04:00","00:00","00:00","00:00","00:00","00:00","00:00","00:00","00:00","40.744999","-73.890117","404","25","267","4442797","4014950028","Elmhurst","
,  
(40.744999, -73.890117)"
"SOCIAL ADULT DAY CARE SERVICES","S30901","KINGSBRIDGE SOCIAL ADULT DAY CARE","Kingsbridge Social Adult Day Care","170 W 233RD ST  1ST FLOOR","BRONX","NY","10463","Bronx","347-728-1547","N","08:00","04:00","08:00","04:00","08:00","04:00","08:00","04:00","08:00","04:00","00:00","00:00","00:00","00:00","40.880298","-73.902738","208","11","283","2016171","2032670110","Spuyten Duyvil-Kingsbridge","
,  
(40.880298, -73.902738)"
"SOCIAL ADULT DAY CARE SERVICES","S55301","ALMA CACHE SADC","Alma Cache Sadc","1930 PATTERSON AVE  1ST","BRONX","NY","10473","Bronx","347-597-7680","N","09:00","02:00","09:00","02:00","09:00","02:00","09:00","02:00","09:00","02:00","00:00","00:00","00:00","00:00","40.813629","-73.855669","209","18","4","2020527","2034750045","Soundview-Castle Hill-Clason Point-Harding Park","
,  
(40.813629, -73.855669)"
"SOCIAL ADULT DAY CARE SERVICES","S2801","BEST ADULT DAYCARE CENTER LLC","Best Adult Daycare Center Llc","2 ALLEN ST  2ND FLOOR","NEW YORK","NY","10002","Manhattan","212-226-4988","N","08:30","02:00","08:30","02:00","08:30","02:00","08:30","02:00","08:30","02:00","08:30","01:30","00:00","00:00","40.714406","-73.992793","103","1","16","1088837","1002947502","Chinatown","
,  
(40.714406, -73.992793)"
"SOCIAL ADULT DAY CARE SERVICES","S21601","BRIGHT LIGHT ADULT DAYCARE, INC.","Bright Light Adult Daycare, Inc.","455 SUTTER AVE  GROUND FLOOR","BROOKLYN","NY","11212","Brooklyn","718-484-7093","N","08:00","04:00","08:00","04:00","08:00","04:00","08:00","04:00","08:00","04:00","08:00","01:00","00:00","00:00","40.668324","-73.90233","316","42","908","3394366","3037470001","Brownsville","
,  
(40.668324, -73.90233)"
"SOCIAL ADULT DAY CARE SERVICES","S3601","HAPPY LIFE SOCIAL ADULT DAYCARE, INC.","Happy Life Social Adult Daycare, Inc.","1659 78TH ST  SUITE 1-B","BROOKLYN","NY","11214","Brooklyn","718-996-8126","N","08:30","06:30","08:30","06:30","08:30","06:30","08:30","06:30","08:30","06:30","08:30","02:00","00:00","00:00","40.613764","-74.001221","311","43","182","3329038","3062470034","Bensonhurst West","
,  
(40.613764, -74.001221)"
"SOCIAL ADULT DAY CARE SERVICES","S23301","GRACIOUS CARE AGENCY LLC","Gracious Care Agency Llc","190-11 LINDEN BLVD  1ST FLOOR","QUEENS","NY","11412","Queens","347-548-5341","N","10:00","04:00","10:00","04:00","10:00","04:00","00:00","00:00","00:00","00:00","00:00","00:00","00:00","00:00","40.692055","-73.760917","412","27","528","4238241","4110600056","St. Albans","
,  
(40.692055, -73.760917)"
"SOCIAL ADULT DAY CARE SERVICES","S24301","STATEN ISLAND SENIOR LIFE STYLE CENTER INC","Staten Island Senior Life Style Center Inc","98 PORT RICHMOND AVE","STATEN ISLAND","NY","10302","Staten Island","718-273-6200","N","07:30","02:30","07:30","02:00","07:30","02:00","07:30","02:30","00:00","00:00","07:30","02:00","07:30","02:00","40.638536","-74.132966","501","49","207","5025283","5010730107","Port Richmond","
,  
(40.638536, -74.132966)"
"SOCIAL ADULT DAY CARE SERVICES","S44601","ALL ADVANTAGE SENIOR CARE INC","All Advantage Senior Care Inc","116-42 FARMERS BOULEVARD","JAMAICA","NY","11412","Queens","718-316-6404","N","10:00","03:00","10:00","03:00","00:00","00:00","10:00","03:00","10:00","03:00","00:00","00:00","00:00","00:00","40.692568","-73.76244","412","27","398","4221077","4103830058","St. Albans","
,  
(40.692568, -73.76244)"
"SOCIAL ADULT DAY CARE SERVICES","S7301","FU LE ELDERLY CENTER INC.","Fu Le Elderly Center Inc.","90 ELDRIDGE ST  1ST FLOOR","NEW YORK","NY","10002","Manhattan","212-431-9888","N","07:30","02:30","07:30","02:30","07:30","02:30","07:30","02:30","07:30","02:30","07:30","02:30","00:00","00:00","40.717286","-73.992399","103","1","16","1003977","1003070014","Chinatown","
,  
(40.717286, -73.992399)"
"SOCIAL ADULT DAY CARE SERVICES","S15301","JOY SENIOR SOCIAL DAY CENTER, INC","Joy Senior Social Day Center, Inc","82-20 BRITTON AVE  1ST FLOOR","ELMHURST","NY","11373","Queens","718-205-3688","N","07:30","02:30","07:30","02:30","07:30","02:30","07:30","02:30","07:30","02:30","08:00","01:30","08:00","01:30","40.74298","-73.882473","404","25","271","4037480","4015177502","Elmhurst","
,  
(40.74298, -73.882473)"
"SOCIAL ADULT DAY CARE SERVICES","S23801","LIGHT AND LOVE HOME INC","Light And Love Home Inc","812 54TH ST  4TH FLOOR","BROOKLYN","NY","11220","Brooklyn","718-686-7798","N","09:00","03:00","09:00","03:00","09:00","03:00","09:00","03:00","09:00","03:00","00:00","00:00","00:00","00:00","40.638557","-74.005531","312","38","106","3139119","3056720011","Sunset Park East","
,  
(40.638557, -74.005531)"
"SOCIAL ADULT DAY CARE SERVICES","S7501","KNESSET SOCIAL ADULT DAY CARE INC","Knesset Social Adult Day Care Inc","128-130 BRIGHTON BEACH AVE  SUITE 400A 4TH FLOOR","BROOKLYN","NY","11235","Brooklyn","718-975-3322","N","09:00","05:30","09:00","05:30","09:00","05:30","09:00","05:30","09:00","05:30","00:00","00:00","00:00","00:00","40.576348","-73.967318","313","48","36001","3245027","3086800027","Brighton Beach","
,  
(40.576348, -73.967318)"
"SOCIAL ADULT DAY CARE SERVICES","S33001","DESHI SENIOR CENTER, LLC","Deshi Senior Center, Llc","8310 ROCKAWAY BLVD","OZONE PARK","NY","11416","Queens","718-296-0077","N","09:00","05:00","09:00","05:00","09:00","05:00","09:00","05:00","09:00","05:00","09:00","05:00","00:00","00:00","40.683768","-73.85688","409","32","36","4187297","4090180071","Woodhaven","
,  
(40.683768, -73.85688)"
"SOCIAL ADULT DAY CARE SERVICES","S10701","ELMHURST ADULT DAYCARE CENTER CORP.","Elmhurst Adult Daycare Center Corp.","82-19 QUEENS BLVD","ELMHURST","NY","11373","Queens","718-803-2388","N","08:30","02:00","08:30","02:00","08:30","02:00","08:30","02:00","08:30","02:00","08:30","02:00","08:30","02:00","40.737401","-73.880664","404","25","473","4038630","4015420009","Elmhurst","
,  
(40.737401, -73.880664)"
"SOCIAL ADULT DAY CARE SERVICES","S13301","JEWISH COMMUNITY CENTER OF STATEN ISLAND, INCORPORATED","Jewish Community Center Of Staten Island, Incorporated","1297 ARTHUR KILL RD","STATEN ISLAND","NY","10312","Staten Island","718-475-5287","Y","10:00","03:00","00:00","00:00","10:00","03:00","10:00","03:00","00:00","00:00","00:00","00:00","00:00","00:00","40.565262","-74.183882","503","51","228","5077603","5059000105","New Springville-Bloomfield-Travis","
,  
(40.565262, -74.183882)"
"SOCIAL ADULT DAY CARE SERVICES","S22201","SOPHIA 600 MEDI GROUP INC","Sophia 600 Medi Group Inc","6910 5TH AVE  2ND FLOOR","BROOKLYN","NY","11209","Brooklyn","718-833-5555","N","08:30","05:00","08:30","05:00","08:30","05:00","08:30","05:00","08:30","05:00","00:00","00:00","00:00","00:00","40.633308","-74.021091","310","43","130","3145758","3058730046","Bay Ridge","
,  
(40.633308, -74.021091)"
"SOCIAL ADULT DAY CARE SERVICES","S4301","UNICARE ADULT DAYCARE, INC.","Unicare Adult Daycare, Inc.","176-60 UNION TURNPIKE  SUITE 115","FRESH MEADOWS","NY","11366","Queens","347-770-0466","N","09:30","03:30","09:30","03:30","09:30","03:30","09:30","03:30","09:30","03:30","00:00","00:00","00:00","00:00","40.725856","-73.791441","408","24","1277","4155422","4072270005","Jamaica Estates-Holliswood","
,  
(40.725856, -73.791441)"
"SOCIAL ADULT DAY CARE SERVICES","S17301","R&G DAY CARE LLC","R&g Day Care Llc","1815 85TH ST  201-202","BROOKLYN","NY","11214","Brooklyn","718-232-4312","N","08:30","05:00","08:30","05:00","08:30","05:00","08:30","05:00","08:30","05:00","08:30","05:00","00:00","00:00","40.607399","-74.001235","311","47","278","3398583","3063320071","Bensonhurst West","
,  
(40.607399, -74.001235)"
"SOCIAL ADULT DAY CARE SERVICES","S23701","FRANKLIN SOCIAL ADULT DAY CARE PROGRAM","Franklin Social Adult Day Care Program","45-15 162ND ST  SUITE 102","FLUSHING","NY","11358","Queens","718-762-4561","N","07:30","03:30","07:30","03:30","07:30","03:30","07:30","03:30","07:30","03:30","07:30","03:30","07:30","03:30","40.755742","-73.804605","407","20","1191","4123256","4054410032","East Flushing","
,  
(40.755742, -73.804605)"
"SOCIAL ADULT DAY CARE SERVICES","S57401","LOVE AND CARE SOCIAL ADULT DAY CENTER","Love And Care Social Adult Day Center","3379 SHORE PKWY","BROOKLYN","NY","11235","Brooklyn","718-872-5341","N","09:00","05:00","09:00","05:00","09:00","05:00","09:00","05:00","09:00","05:00","09:00","05:00","09:00","05:00","40.584908","-73.95076","315","48","600","3247036","3087720026","Sheepshead Bay-Gerritsen Beach-Manhattan Beach","
,  
(40.584908, -73.95076)"
"SOCIAL ADULT DAY CARE SERVICES","S37501","SNAPS OPEN DOOR SOCIAL ADULT DAY PROGRAM SERVICES NOW FOR AD","Snaps Open Door Social Adult Day Program Services Now For Ad","80-45 WINCHESTER BLVD  BLDG 4  CBU 29","QUEENS VILLAGE","NY","11427","Queens","718-683-4140","N","00:00","00:00","00:00","00:00","09:30","02:30","00:00","00:00","00:00","00:00","00:00","00:00","00:00","00:00","40.737685","-73.734021","413","23","1567","4537294","4078800400","Bellerose","
,  
(40.737685, -73.734021)"
"SOCIAL ADULT DAY CARE SERVICES","S35701","NEW AGE SOCIAL ADULT DAY CARE INC","New Age Social Adult Day Care Inc","5020 AVE N","BROOKLYN","NY","11234","Brooklyn","646-894-0257","N","08:00","07:00","08:00","07:00","08:00","07:00","08:00","07:00","08:00","07:00","00:00","00:00","00:00","00:00","40.618961","-73.926583","318","46","682","3220969","3078950052","Flatlands","
,  
(40.618961, -73.926583)"
"SOCIAL ADULT DAY CARE SERVICES","S39801","SECOND FAMILY LLC","Second Family Llc","203 EAST 121 STREET","NEW YORK","NY","10035","Manhattan","718-916-7949","N","08:30","05:30","08:30","05:30","08:00","05:30","08:30","05:30","08:30","05:30","00:00","00:00","08:30","04:00","40.800992","-73.937315","111","8","194","1088270","1017860001","East Harlem North","
,  
(40.800992, -73.937315)"
"SOCIAL ADULT DAY CARE SERVICES","S41501","A PLUS ADULT DAYCARE CENTER","A Plus Adult Daycare Center","15 BAY 29TH STREET  STE 1A","BROOKLYN","NY","11214","Brooklyn","718-513-0882","N","07:30","02:00","07:30","02:00","07:30","02:00","07:30","02:00","07:30","02:00","07:30","02:00","00:00","00:00","40.601953","-73.995056","311","47","290","3167061","3063807501","Bensonhurst West","
,  
(40.601953, -73.995056)"
"SOCIAL ADULT DAY CARE SERVICES","S10101","LONGEVITY ADULT DAY CARE CENTER LLC","Longevity Adult Day Care Center Llc","285 GRAND ST  FL 2","NEW YORK","NY","10002","Manhattan","212-966-1378","N","09:00","01:30","09:00","01:30","09:00","01:30","09:00","01:30","09:00","01:30","09:00","01:30","00:00","00:00","40.71773","-73.992493","103","1","16","1077601","1003060022","Chinatown","
,  
(40.71773, -73.992493)"
"SOCIAL ADULT DAY CARE SERVICES","S15701","JOYFUL DAY CENTER INC","Joyful Day Center Inc","139-39 35TH AVE  CF-A","FLUSHING","NY","11354","Queens","917-285-2202","N","08:00","02:30","08:00","02:30","08:00","02:30","08:00","02:30","08:00","02:30","08:00","02:30","00:00","00:00","40.765445","-73.827218","407","20","1161","4534595","4049947505","Flushing","
,  
(40.765445, -73.827218)"
"SOCIAL ADULT DAY CARE SERVICES","S13101","THE THREE COPTIC BROTHERS CORP","The Three Coptic Brothers Corp","2297 CONEY ISLAND AVE","BROOKLYN","NY","11223","Brooklyn","718-645-4500","N","09:00","05:00","09:00","05:00","09:00","05:00","09:00","05:00","09:00","05:00","00:00","00:00","00:00","00:00","40.601068","-73.961389","315","48","556","3196638","3072900056","Homecrest","
,  
(40.601068, -73.961389)"
"SOCIAL ADULT DAY CARE SERVICES","S21901","EAST RED ADULT DAY CARE CENTER LIMITED","East Red Adult Day Care Center Limited","37 CATHERINE ST  GROUND FLOOR","NEW YORK","NY","10038","Manhattan","212-608-1710","N","08:30","02:00","08:30","02:00","08:30","02:00","08:30","02:00","08:30","02:00","09:00","02:30","00:00","00:00","40.712312","-73.996992","103","1","8","1003359","1002770054","Chinatown","
,  
(40.712312, -73.996992)"
"SOCIAL ADULT DAY CARE SERVICES","S6301","MELODY ADULT DAY CARE CENTER, INC.","Melody Adult Day Care Center, Inc.","3040 W 22ND ST  1ST FLOOR","BROOKLYN","NY","11224","Brooklyn","718-373-3300","N","00:00","00:00","09:00","06:00","00:00","00:00","09:00","06:00","09:00","06:00","09:00","06:00","09:00","01:00","40.573267","-73.988553","313","47","352","3411911","3070710019","Seagate-Coney Island","
,  
(40.573267, -73.988553)"
"SOCIAL ADULT DAY CARE SERVICES","S14501","CORONA SOCIAL DAY CARE INC.","Corona Social Day Care Inc.","108-02 OTIS AVENUE","CORONA","NY","11368","Queens","718-271-1678","N","08:30","03:00","08:30","03:00","08:30","03:00","08:30","03:00","08:30","03:00","09:00","02:00","00:00","00:00","40.741223","-73.853733","404","21","439","4048288","4019620001","Corona","
,  
(40.741223, -73.853733)"
"SOCIAL ADULT DAY CARE SERVICES","S36301","QUEENS BOROUGH ADULT DAY CARE, LLC","Queens Borough Adult Day Care, Llc","61-04 LAUREL HILL BLVD","WOODSIDE","NY","11377","Queens","718-353-1740","N","08:30","06:30","08:30","06:30","08:30","06:30","08:30","06:30","08:30","06:30","08:30","06:30","00:00","00:00","40.738051","-73.903505","402","30","243","4053878","4023340015","Elmhurst-Maspeth","
,  
(40.738051, -73.903505)"
"SOCIAL ADULT DAY CARE SERVICES","S25101","ZHIQING SOCIAL DAY CARE INC.","Zhiqing Social Day Care Inc.","34-20 LINDEN PLACE  PARTIAL FLOOR ONE AND FLOOR TWO  LINDEN","FLUSHING","NY","11354","Queens","718-445-0750","N","07:00","01:00","07:00","01:00","07:00","01:00","07:00","01:00","07:00","01:00","07:00","01:00","08:30","02:00","40.766283","-73.831339","407","20","869","4112007","4049500018","Flushing","
,  
(40.766283, -73.831339)"
"SOCIAL ADULT DAY CARE SERVICES","S47501","ALL COMMUNITY ADULT DAY CENTERS, INC.","All Community Adult Day Centers, Inc.","13226 AVERY AVE","FLUSHING","NY","11355","Queens","718-353-0188","N","07:00","04:00","07:00","04:00","07:00","04:00","07:00","04:00","07:00","04:00","07:00","04:00","07:00","04:00","40.752513","-73.831839","407","20","79702","4540147","4051057504","Flushing","
,  
(40.752513, -73.831839)"
"SOCIAL ADULT DAY CARE SERVICES","S15401","RISHAVENA SOCIAL ADULT DAY CARE INC.","Rishavena Social Adult Day Care Inc.","2260 FLATBUSH AVE  1ST FLOOR","BROOKLYN","NY","11234","Brooklyn","718-907-2900","N","09:00","02:00","10:00","02:00","09:00","08:00","10:00","02:00","09:00","08:00","00:00","00:00","00:00","00:00","40.614922","-73.928388","318","46","652","3239481","3084860071","Georgetown-Marine Park-Bergen Beach-Mill Basin","
,  
(40.614922, -73.928388)"
"SOCIAL ADULT DAY CARE SERVICES","S36001","ACCESS SADC LLC","Access Sadc Llc","4224 CHURCH AVE","BROOKLYN","NY","11203","Brooklyn","347-645-3265","N","08:30","06:30","08:30","06:30","08:30","06:30","08:30","06:30","08:30","06:30","12:00","05:00","00:00","00:00","40.651381","-73.937776","317","45","858","3327770","3048960007","East Flatbush-Farragut","
,  
(40.651381, -73.937776)"
"SOCIAL ADULT DAY CARE SERVICES","S12801","SELFHELP ALZHEIMERS RESOURCE PROGRAM","Selfhelp Alzheimers Resource Program","208-11 26TH AVE  1ST FLOOR","BAYSIDE","NY","11360","Queens","718-631-1886","Y","10:00","03:00","10:00","03:00","10:00","03:00","10:00","03:00","10:00","03:00","00:00","00:00","00:00","00:00","40.776381","-73.783798","407","19","99704","4130866","4058630250","Ft. Totten-Bay Terrace-Clearview","
,  
(40.776381, -73.783798)"
"SOCIAL ADULT DAY CARE SERVICES","S16101","A & D ADULT DAY CARE CENTER INC.","A & D Adult Day Care Center Inc.","2015 BATH AVE  UPPER LEVEL","BROOKLYN","NY","11214","Brooklyn","718-372-9888","N","08:00","03:00","08:00","03:00","08:00","03:00","08:00","03:00","08:00","03:00","08:00","03:00","08:00","03:00","40.60116","-74.001116","311","43","286","3378290","3064090062","Bath Beach","
,  
(40.60116, -74.001116)"
"SOCIAL ADULT DAY CARE SERVICES","S13701","GOLDEN FLEECE LLC","Golden Fleece Llc","1519 MERMAID AVE","BROOKLYN","NY","11224","Brooklyn","347-492-5381","N","08:00","04:00","08:00","04:00","08:00","04:00","08:00","04:00","00:00","00:00","00:00","00:00","00:00","00:00","40.576834","-73.982948","313","47","348","3402567","3070220049","Seagate-Coney Island","
,  
(40.576834, -73.982948)"
"SOCIAL ADULT DAY CARE SERVICES","S50501","ROCKGATE SOCIAL ADULT DAY CARE","Rockgate Social Adult Day Care","1221 BEDFORD AVENUE","BROOKLYN","NY","11216","Brooklyn","347-645-5790","N","09:00","02:00","09:00","02:00","09:00","02:00","00:00","00:00","00:00","00:00","00:00","00:00","00:00","00:00","40.681559","-73.95354","303","36","245","3052565","3018370002","Bedford","
,  
(40.681559, -73.95354)"
"SOCIAL ADULT DAY CARE SERVICES","S58301","FRIENDLY CONNECTIONS","Friendly Connections","343 NOSTRAND AVENUE","BROOKLYN","NY","11216","Brooklyn","718-305-4888","N","07:00","04:00","07:00","04:00","07:00","04:00","07:00","04:00","07:00","04:00","00:00","00:00","00:00","00:00","40.686504","-73.950785","303","36","251","3395305","3018087501","Bedford","
,  
(40.686504, -73.950785)"
"SOCIAL ADULT DAY CARE SERVICES","S7701","DIVERSIFIED SOCIAL ADULT DAY CARE INC.","Diversified Social Adult Day Care Inc.","8840 80TH ST","WOODHAVEN","NY","11421","Queens","718-880-9441","N","08:00","04:00","08:00","04:00","08:00","04:00","08:00","04:00","08:00","04:00","08:00","04:00","00:00","00:00","40.6892","-73.861477","409","30","4","4183278","4089100016","Woodhaven","
,  
(40.6892, -73.861477)"
"SOCIAL ADULT DAY CARE SERVICES","S32701","DYKER HEIGHTS ADULT DAYCARE CENTER INC.","Dyker Heights Adult Daycare Center Inc.","6602 11TH AVE","BROOKLYN","NY","11219","Brooklyn","718-238-3869","N","08:00","02:00","08:00","02:00","08:00","02:00","08:00","02:00","08:00","02:00","08:00","02:00","00:00","00:00","40.627952","-74.006658","310","43","210","3142413","3057580037","Dyker Heights","
,  
(40.627952, -74.006658)"
"SOCIAL ADULT DAY CARE SERVICES","S52501","EVERGREEN SENIOR DAYCARE CENTER","Evergreen Senior Daycare Center","949 59TH STREET","BROOKLYN","NY","11219","Brooklyn","718-851-3088","N","07:00","05:00","07:00","05:00","07:00","05:00","07:00","05:00","07:00","05:00","07:00","02:00","07:00","02:00","40.634179","-74.005793","312","38","116","3140597","3057010051","Borough Park","
,  
(40.634179, -74.005793)"
"SOCIAL ADULT DAY CARE SERVICES","S3201","BEAUTIFUL LIFE SOCIAL DAY CARE, LLC","Beautiful Life Social Day Care, Llc","3350 NOSTRAND AVE  1ST FLOOR","BROOKLYN","NY","11229","Brooklyn","718-676-7544","N","09:00","05:00","09:00","05:00","09:00","05:00","09:00","05:00","09:00","05:00","09:00","01:00","09:00","01:00","40.602202","-73.942237","315","46","566","3198899","3073340005","Madison","
,  
(40.602202, -73.942237)"
"SOCIAL ADULT DAY CARE SERVICES","S34801","APNA ADULT DAYCARE OF BRIGHTON LLC","Apna Adult Daycare Of Brighton Llc","236 NEPTUNE AVE  1ST FLOOR","BROOKLYN","NY","11235","Brooklyn","718-648-4300","N","09:00","05:00","09:00","05:00","09:00","05:00","09:00","05:00","09:00","05:00","09:00","05:00","09:00","05:00","40.581498","-73.962073","313","48","364","3244476","3086660662","Brighton Beach","
,  
(40.581498, -73.962073)"
"SOCIAL ADULT DAY CARE SERVICES","S26201","AMERICAN SENIOR CARE CORP.","American Senior Care Corp.","6813 20TH AVE  GROUND FLOOR","BROOKLYN","NY","11204","Brooklyn","718-513-6825","N","07:30","03:30","07:30","03:30","07:30","03:30","07:30","03:30","07:30","03:30","07:30","03:30","07:30","03:30","40.614664","-73.987783","311","47","258","3135069","3055790004","Bensonhurst West","
,  
(40.614664, -73.987783)"
"SOCIAL ADULT DAY CARE SERVICES","S12901","WOORI ADULT DAYCARE INC.","Woori Adult Daycare Inc.","45-65 162ND ST","FLUSHING","NY","11358","Queens","718-709-4747","N","08:30","04:30","08:30","04:30","08:30","04:30","08:30","04:30","08:30","04:30","00:00","00:00","00:00","00:00","40.7548","-73.804734","407","20","1191","4123246","4054410008","East Flushing","
,  
(40.7548, -73.804734)"
"SOCIAL ADULT DAY CARE SERVICES","S19601","HEBREW EDUCATIONAL SOCIETY OF BROOKLYN DBA KINGS BAY YM-YWHA","Hebrew Educational Society Of Brooklyn Dba Kings Bay Ym-ywha","9502 SEAVIEW AVE","BROOKLYN","NY","11236","Brooklyn","718-648-7703","N","09:00","01:00","09:00","01:00","09:00","01:00","00:00","00:00","09:00","01:00","00:00","00:00","00:00","00:00","40.632808","-73.89122","318","46","1028","3235056","3083180008","Canarsie","
,  
(40.632808, -73.89122)"
"SOCIAL ADULT DAY CARE SERVICES","S12001","SECOND HOME SOCIAL ADULT DAY CARE OF 86TH STREET L.L.C.","Second Home Social Adult Day Care Of 86th Street L.l.c.","2444 86TH ST","BROOKLYN","NY","11214","Brooklyn","718-517-2444","N","08:00","06:00","08:00","06:00","08:00","06:00","08:00","06:00","08:00","03:00","08:00","06:00","08:00","06:00","40.598615","-73.988362","311","47","300","3185589","3068650043","Bensonhurst East","
,  
(40.598615, -73.988362)"
"SOCIAL ADULT DAY CARE SERVICES","S28001","GOJ INC. DBA GARDEN OF JOY SADC","Goj Inc. Dba Garden Of Joy Sadc","3152 BRIGHTON 6TH ST  1ST FLOOR","BROOKLYN","NY","11235","Brooklyn","917-818-1729","N","09:00","05:30","09:00","05:30","09:00","05:30","09:00","05:30","09:00","05:30","00:00","00:00","09:00","01:00","40.575728","-73.961137","313","48","36002","3245103","3086900083","Brighton Beach","
,  
(40.575728, -73.961137)"
"SOCIAL ADULT DAY CARE SERVICES","S39001","HAPPY ANGEL CARE INC","Happy Angel Care Inc","135-37 37TH AVE 1ST FLOOR  1ST FLOOR","FLUSHING","NY","11354","Queens","917-285-2648","N","08:00","04:00","08:00","04:00","08:00","04:00","08:00","04:00","08:00","04:00","08:00","04:00","00:00","00:00","40.761326","-73.831748","407","20","869","4530874","4049717501","Flushing","
,  
(40.761326, -73.831748)"
"SOCIAL ADULT DAY CARE SERVICES","S58101","4EVER GOOD ADULT DAYCARE INC","4ever Good Adult Daycare Inc","2980 RICHMOND TERRACE","STATEN ISLAND","NY","10303","Staten Island","718-524-4564","N","08:30","02:00","08:30","02:00","08:30","02:00","08:30","02:00","08:30","02:00","00:00","00:00","00:00","00:00","40.636951","-74.15951","501","49","223","5027769","5012270063","Mariner's Harbor-Arlington-Port Ivory-Graniteville","
,  
(40.636951, -74.15951)"
"SOCIAL ADULT DAY CARE SERVICES","S12301","GOOD FORTUNE ADULT DAY CARE CENTER LLC","Good Fortune Adult Day Care Center Llc","3516 NOSTRAND AVE","BROOKLYN","NY","11229","Brooklyn","718-513-1331","N","09:00","04:00","09:00","04:00","09:00","04:00","09:00","04:00","09:00","04:00","09:00","04:00","00:00","00:00","40.598227","-73.941477","315","48","59402","3201577","3073860106","Sheepshead Bay-Gerritsen Beach-Manhattan Beach","
,  
(40.598227, -73.941477)"
"SOCIAL ADULT DAY CARE SERVICES","S35601","ASIAN ELDERS DAY CARE CENTER INC.","Asian Elders Day Care Center Inc.","812 54TH ST  1ST FLOOR","BROOKLYN","NY","11220","Brooklyn","718-633-2883","N","09:00","05:00","09:00","05:00","09:00","05:00","09:00","05:00","09:00","05:00","09:00","05:00","09:00","05:00","40.638557","-74.005531","312","38","106","3139119","3056720011","Sunset Park East","
,  
(40.638557, -74.005531)"
"SOCIAL ADULT DAY CARE SERVICES","S34001","HAPPY LIFE INC.","Happy Life Inc.","1113 BRIGHTON BEACH AVE  3RD FLOOR","BROOKLYN","NY","11235","Brooklyn","718-676-5588","N","09:00","05:00","09:00","05:00","09:00","05:00","09:00","05:00","09:00","05:00","09:00","05:00","09:00","05:00","40.577865","-73.956431","313","48","61004","3245642","3087160061","Brighton Beach","
,  
(40.577865, -73.956431)"
"SOCIAL ADULT DAY CARE SERVICES","S55901","HEART TO HEART SOCIAL ADULT SERVICES LLC","Heart To Heart Social Adult Services Llc","610 EAST 168TH STREET","BRONX","NY","10456","Bronx","718-305-6290","N","08:00","05:00","08:00","05:00","08:00","05:00","08:00","05:00","08:00","05:00","00:00","00:00","00:00","00:00","40.830183","-73.903223","203","16","185","2113111","2026140019","Morrisania-Melrose","
,  
(40.830183, -73.903223)"
"SOCIAL ADULT DAY CARE SERVICES","S11501","CENTERS ADULT DAY CARE, LLC","Centers Adult Day Care, Llc","91 TOMPKINS AVENUE","STATEN ISLAND","NY","10304","Staten Island","718-876-4331","N","08:00","02:00","08:00","02:00","08:00","02:00","08:00","02:00","08:00","02:00","00:00","00:00","00:00","00:00","40.622968","-74.078742","501","49","27","5110952","5005340120","Stapleton-Rosebank","
,  
(40.622968, -74.078742)"
"SOCIAL ADULT DAY CARE SERVICES","S46801","AMERICAN ADULT DAY CARE CENTER","American Adult Day Care Center","132-41 41 ROAD  GROUND FLOOR","FLUSHING","NY","11355","Queens","718-463-8889","N","08:00","05:00","08:00","05:00","08:00","05:00","08:00","05:00","08:00","05:00","08:00","03:00","08:00","01:00","40.755948","-73.832509","407","20","849","4534922","4050397506","Flushing","
,  
(40.755948, -73.832509)"
"SOCIAL ADULT DAY CARE SERVICES","S6501","GOLDEN TOWN ADULT DAY CARE CENTER INC.","Golden Town Adult Day Care Center Inc.","99 CANAL ST  2ND FLOOR","NEW YORK","NY","10002","Manhattan","212-966-6809","N","08:00","04:00","08:00","04:00","08:00","04:00","08:00","04:00","08:00","04:00","08:00","03:00","00:00","00:00","40.715521","-73.993911","103","1","16","1081956","1003010001","Chinatown","
,  
(40.715521, -73.993911)"
"SOCIAL ADULT DAY CARE SERVICES","S24001","RAINBOW ADULT DAY CARE LLC (DBA THE HEART)","Rainbow Adult Day Care Llc (dba The Heart)","2011 WESTCHESTER AVE","BRONX","NY","10462","Bronx","718-215-1177","N","08:30","03:30","08:30","03:30","08:30","03:30","08:30","03:30","08:30","03:30","00:00","00:00","00:00","00:00","40.83364","-73.857053","209","18","222","2116390","2039320036","Parkchester","
,  
(40.83364, -73.857053)"
"SOCIAL ADULT DAY CARE SERVICES","S59301","MOMMY SOCIAL ADULT DAY CARE","Mommy Social Adult Day Care","61-51 FRESH MEADOW LANE","FRESH MEADOWS","NY","11365","Queens","347-732-0124","N","08:30","01:30","08:30","01:30","08:30","01:30","08:30","01:30","08:30","01:30","00:00","00:00","00:00","00:00","40.737592","-73.795814","408","24","1341","4149069","4069020001","Fresh Meadows-Utopia","
,  
(40.737592, -73.795814)"
"SOCIAL ADULT DAY CARE SERVICES","S31901","KAPE HOLDINGS, LLC","Kape Holdings, Llc","163-28 NORTHERN BLVD  2R","FLUSHING","NY","11358","Queens","917-563-7317","N","09:00","05:00","09:00","05:00","09:00","05:00","09:00","05:00","09:00","05:00","00:00","00:00","00:00","00:00","40.761228","-73.802592","407","20","1171","4120494","4053370027","Murray Hill","
,  
(40.761228, -73.802592)"
"SOCIAL ADULT DAY CARE SERVICES","S21401","AKIVA MANAGEMENT GROUP INC. DBA DEAF WELLNESS AND RECREATION","Akiva Management Group Inc. Dba Deaf Wellness And Recreation","2825 WEST 16TH STREET","BROOKLYN","NY","11224","Brooklyn","347-662-3295","N","08:00","06:00","08:00","06:00","08:00","06:00","08:00","06:00","08:00","06:00","00:00","00:00","00:00","00:00","40.578311","-73.983999","313","47","348","3189104","3070227502","Seagate-Coney Island","
,  
(40.578311, -73.983999)"
"SOCIAL ADULT DAY CARE SERVICES","S38101","NANOOM ADULT DAY CARE INC","Nanoom Adult Day Care Inc","136-21 LATIMER PL  1A","FLUSHING","NY","11354","Queens","718-321-3403","N","08:00","04:00","08:00","04:00","08:00","04:00","08:00","04:00","08:00","04:00","00:00","00:00","00:00","00:00","40.766664","-73.831067","407","20","88901","4595988","4049527503","Flushing","
,  
(40.766664, -73.831067)"
"SOCIAL ADULT DAY CARE SERVICES","S36901","C R E ADULT DAY CARE CENTER INC","C R E Adult Day Care Center Inc","98-15 HORACE HARDING EXPY  1M","CORONA","NY","11368","Queens","718-592-1221","N","08:00","04:00","08:00","04:00","08:00","04:00","08:00","04:00","08:00","04:00","08:00","04:00","00:00","00:00","40.735561","-73.860251","404","21","455","4047332","4019180097","Corona","
,  
(40.735561, -73.860251)"
"SOCIAL ADULT DAY CARE SERVICES","S31301","ADVANCED SENIOR CARE INC","Advanced Senior Care Inc","220-05 JAMAICA AVE  1ST FLOOR","QUEENS VILLAGE","NY","11428","Queens","718-465-4800","N","09:30","01:30","09:30","01:30","09:30","01:30","09:30","01:30","09:30","01:30","00:00","00:00","00:00","00:00","40.719054","-73.734171","413","23","564","4229858","4107250094","Queens Village","
,  
(40.719054, -73.734171)"
"SOCIAL ADULT DAY CARE SERVICES","S21101","RISEBORO COMMUNITY PARTNERSHIP INC.","Riseboro Community Partnership Inc.","85 PALMETTO STREET","BROOKLYN","NY","11221","Brooklyn","718-676-0876","Y","08:30","04:30","08:30","04:30","08:30","04:30","08:30","05:00","08:30","04:30","00:00","00:00","00:00","00:00","40.691599","-73.91884","304","34","399","3076429","3033400020","Bushwick South","
,  
(40.691599, -73.91884)"
"SOCIAL ADULT DAY CARE SERVICES","S11901","EXCELLENCE AND SINCERITY CENTER INC","Excellence And Sincerity Center Inc","1416 AVE U  2ND FLOOR","BROOKLYN","NY","11229","Brooklyn","718-998-3888","N","08:30","03:00","08:30","03:00","08:30","03:00","08:30","03:00","08:30","03:00","08:30","03:00","00:00","00:00","40.59875","-73.957083","315","48","580","3199526","3073470006","Madison","
,  
(40.59875, -73.957083)"
"SOCIAL ADULT DAY CARE SERVICES","S20901","JM SOCIAL ADULT DAYCARE","Jm Social Adult Daycare","32 VAN BUREN STREET  1ST FLOOR","BROOKLYN","NY","11226","Brooklyn","347-446-8220","N","09:00","03:00","09:00","03:00","09:00","03:00","09:00","03:00","00:00","00:00","00:00","00:00","00:00","00:00","40.689967","-73.944011","303","36","263","3050219","3017950020","Bedford","
,  
(40.689967, -73.944011)"
"SOCIAL ADULT DAY CARE SERVICES","S44701","NEW YORK MEMORY CENTER","New York Memory Center","199 14TH STREET  1ST FLR","BROOKLYN","NY","11215","Brooklyn","718-499-7701","N","07:00","07:00","07:00","07:00","07:00","07:00","07:00","07:00","07:00","07:00","00:00","00:00","00:00","00:00","40.666966","-73.990448","306","39","141","3023430","3010340068","Park Slope-Gowanus","
,  
(40.666966, -73.990448)"
"SOCIAL ADULT DAY CARE SERVICES","S39701","ALL BORO COMMUNITY ADULT DAY CARE CENTER","All Boro Community Adult Day Care Center","2595 WEBSTER AVE","BRONX","NY","10458","Bronx","917-819-3301","N","08:00","02:00","08:00","02:00","08:00","02:00","08:00","02:00","08:00","02:00","08:00","02:00","00:00","00:00","40.862718","-73.889984","207","15","397","2095376","2032760001","Belmont","
,  
(40.862718, -73.889984)"
"SOCIAL ADULT DAY CARE SERVICES","S8801","CAREFIRST SOCIAL DAY CARE INC.","Carefirst Social Day Care Inc.","133-04 41ST AVE  CELLAR","FLUSHING","NY","11355","Queens","718-353-2988","N","08:30","04:30","08:30","04:30","08:30","04:30","08:30","04:30","08:30","04:30","08:30","04:30","00:00","00:00","40.757792","-73.830346","407","20","849","4114225","4050410002","Flushing","
,  
(40.757792, -73.830346)"
"SOCIAL ADULT DAY CARE SERVICES","S10201","SUNSET PARK SOCIAL ADULT DAY CARE LLC","Sunset Park Social Adult Day Care Llc","462 52ND ST  C2","BROOKLYN","NY","11220","Brooklyn","718-439-5323","N","09:00","03:00","09:00","03:00","09:00","03:00","09:00","03:00","09:00","03:00","10:00","03:00","10:00","03:00","40.644519","-74.012381","307","38","76","3393384","3008077502","Sunset Park West","
,  
(40.644519, -74.012381)"
"SOCIAL ADULT DAY CARE SERVICES","S8701","GOLDEN AGE OF BROOKLYN LLC","Golden Age Of Brooklyn Llc","9305 AVE L","BROOKLYN","NY","11236","Brooklyn","718-272-2400","N","09:00","03:00","09:00","03:00","09:00","03:00","09:00","03:00","09:00","04:30","00:00","00:00","00:00","00:00","40.636824","-73.898178","318","46","990","3231660","3082390006","Canarsie","
,  
(40.636824, -73.898178)"
"SOCIAL ADULT DAY CARE SERVICES","S55201","PRECIOUS HEARTS ADULT SOCIAL LLC","Precious Hearts Adult Social Llc","2198 FULTON STREET","BROOKLYN","NY","11233","Brooklyn","347-413-5900","N","08:00","04:00","08:00","04:00","08:00","04:00","08:00","04:00","08:00","04:00","08:00","01:00","08:00","01:00","40.678153","-73.908686","316","37","369","3042256","3015520035","Ocean Hill","
,  
(40.678153, -73.908686)"
"SOCIAL ADULT DAY CARE SERVICES","S38801","BETTER DAYS DAYCARE LLC","Better Days Daycare Llc","2542 BOSTON RD.","BRONX","NY","10467","Bronx","718-324-2700","N","08:00","06:00","08:00","06:00","08:00","06:00","08:00","06:00","08:00","06:00","00:00","00:00","00:00","00:00","40.86426","-73.86407","211","13","328","2095041","2044390020","Bronxdale","
,  
(40.86426, -73.86407)"
"SOCIAL ADULT DAY CARE SERVICES","S49701","1ST CHOICE SOCIAL ADULT DAY CARE","1st Choice Social Adult Day Care","8501 NEW UTRECHT AVE  1ST FLOOR","BROOKLYN","NY","11214","Brooklyn","917-757-8118","N","09:00","05:00","09:00","05:00","09:00","05:00","09:00","05:00","09:00","05:00","09:00","05:00","09:00","05:00","40.607519","-74.001685","311","47","278","3165762","3063440014","Bensonhurst West","
,  
(40.607519, -74.001685)"
"SOCIAL ADULT DAY CARE SERVICES","S27601","EXCELLENCE AND LONGEVITY CENTER, LLC","Excellence And Longevity Center, Llc","146-27 BEECH AVE  C1","FLUSHING","NY","11355","Queens","718-709-8260","N","08:00","02:00","08:00","02:00","08:00","02:00","08:00","02:00","08:00","02:00","08:00","02:00","00:00","00:00","40.757792","-73.81786","407","20","861","4523226","4053757502","East Flushing","
,  
(40.757792, -73.81786)"
"SOCIAL ADULT DAY CARE SERVICES","S24801","SWEET HOME SENIOR DAYCARE INC","Sweet Home Senior Daycare Inc","8701 18TH AVE  1ST FL","BROOKLYN","NY","11214","Brooklyn","718-885-5225","N","09:00","01:00","09:00","01:00","09:00","01:00","09:00","01:00","09:00","01:00","09:00","01:00","09:00","01:00","40.605315","-74.004671","311","47","278","3166589","3063690006","Bensonhurst West","
,  
(40.605315, -74.004671)"
"SOCIAL ADULT DAY CARE SERVICES","S52301","HAPPY ADULT DAY CARE NY","Happy Adult Day Care Ny","138-28 NORTHERN BLVD","FLUSHING","NY","11354","Queens","718-888-1211","N","09:00","05:00","09:00","05:00","09:00","05:00","09:00","05:00","09:00","05:00","09:00","05:00","00:00","00:00","40.76407","-73.827413","407","20","865","4113291","4050100028","Flushing","
,  
(40.76407, -73.827413)"
"SOCIAL ADULT DAY CARE SERVICES","S29501","SUNDANCE SADC INC.","Sundance Sadc Inc.","561 UTICA AVE  2ND FLOOR","BROOKLYN","NY","11203","Brooklyn","929-234-2901","N","08:30","06:00","08:30","06:00","08:30","06:00","08:30","06:00","08:30","06:00","09:00","03:00","00:00","00:00","40.659691","-73.93122","317","41","878","3327566","3046040069","Prospect Lefferts Gardens-Wingate","
,  
(40.659691, -73.93122)"
"SOCIAL ADULT DAY CARE SERVICES","S25301","SPLIT ROCK SOCIAL DAY CARE LLC","Split Rock Social Day Care Llc","3525 BAYCHESTER AVE  GROUND FLOOR","BRONX","NY","10466","Bronx","718-798-8900","N","08:30","07:00","08:30","07:00","08:30","07:00","08:30","07:00","08:30","07:00","00:00","00:00","00:00","00:00","40.881703","-73.838998","212","12","460","2065676","2048940011","Eastchester-Edenwald-Baychester","
,  
(40.881703, -73.838998)"
"SOCIAL ADULT DAY CARE SERVICES","S31001","ACT CARE GROUP, LLC","Act Care Group, Llc","1698 VICTORY BLVD","STATEN ISLAND","NY","10314","Staten Island","347-621-6174","N","00:00","00:00","08:30","06:00","08:30","06:00","08:30","06:00","08:30","06:00","00:00","00:00","00:00","00:00","40.613251","-74.120241","501","49","16901","5167182","5007080004","Westerleigh","
,  
(40.613251, -74.120241)"
"SOCIAL ADULT DAY CARE SERVICES","S34201","PARADISE ADULT DAY CARE LLC","Paradise Adult Day Care Llc","5506 CHURCH AVE","BROOKLYN","NY","11203","Brooklyn","347-627-8002","N","09:00","02:30","09:00","02:30","09:00","02:30","09:00","02:30","00:00","00:00","00:00","00:00","00:00","00:00","40.652452","-73.925349","317","41","938","3103059","3047030003","Rugby-Remsen Village","
,  
(40.652452, -73.925349)"
"SOCIAL ADULT DAY CARE SERVICES","S32801","FORT TRYON REHABILITATION AND NURSING CENTER","Fort Tryon Rehabilitation And Nursing Center","1916 PARK AVE  SUITE 102","NEW YORK","NY","10037","Manhattan","212-588-8987","N","07:30","06:00","07:30","06:00","07:30","06:00","07:30","06:00","07:30","06:00","08:00","05:00","08:00","05:00","40.80832","-73.936662","111","9","206","1054286","1017550033","Central Harlem North-Polo Grounds","
,  
(40.80832, -73.936662)"
"SOCIAL ADULT DAY CARE SERVICES","S44101","BAINBRIDGE ADULT DAY CARE CENTER II","Bainbridge Adult Day Care Center Ii","3518 BAINBRIDGE AVENUE","BRONX","NY","10467","Bronx","718-655-5600","N","00:00","00:00","02:30","06:30","02:30","06:30","00:00","00:00","00:00","00:00","00:00","00:00","02:30","06:30","40.881376","-73.878377","207","11","431","2018257","2033440012","Norwood","
,  
(40.881376, -73.878377)"
"SOCIAL ADULT DAY CARE SERVICES","S38201","SOUTH ASIAN ADULT SENIOR CENTER INC","South Asian Adult Senior Center Inc","75-15 WOODSIDE AVE  2ND FLOOR","ELMHURST","NY","11373","Queens","516-849-7940","N","09:00","02:00","00:00","00:00","09:00","02:00","09:00","02:00","00:00","00:00","00:00","00:00","00:00","00:00","40.743311","-73.889527","404","25","267","4036983","4014950064","Elmhurst","
,  
(40.743311, -73.889527)"
"SOCIAL ADULT DAY CARE SERVICES","S19701","BRUCKNER FOREVER YOUNG SOCIAL ADULT DAY CARE INC","Bruckner Forever Young Social Adult Day Care Inc","80 BRUCKNER BLVD","BRONX","NY","10454","Bronx","917-891-8753","N","09:00","05:00","09:00","05:00","09:00","05:00","09:00","05:00","09:00","05:00","00:00","00:00","00:00","00:00","40.8062","-73.925979","201","8","19","2119403","2022957501","Mott Haven-Port Morris","
,  
(40.8062, -73.925979)"
"SOCIAL ADULT DAY CARE SERVICES","S37001","AKAL CARE LLC","Akal Care Llc","507 W 181ST ST  FLOOR C","NEW YORK","NY","10033","Manhattan","516-945-4475","N","09:00","05:00","09:00","05:00","09:00","05:00","09:00","05:00","09:00","05:00","00:00","00:00","00:00","00:00","40.848296","-73.931274","112","10","269","1063701","1021550026","Washington Heights North","
,  
(40.848296, -73.931274)"
"SOCIAL ADULT DAY CARE SERVICES","S17001","JOYFUL ADULT DAY CARE CENTER INC","Joyful Adult Day Care Center Inc","782 61ST ST","BROOKLYN","NY","11220","Brooklyn","718-865-8918","N","08:30","05:00","08:30","05:00","08:30","05:00","08:30","05:00","08:30","05:00","08:30","03:00","08:30","03:00","40.635258","-74.010748","307","38","118","3000000","3057940033","Sunset Park East","
,  
(40.635258, -74.010748)"
"SOCIAL ADULT DAY CARE SERVICES","S54301","52ND STREET SERVICE CENTER","52nd Street Service Center","843 52ND STREET","BROOKLYN","NY","11220","Brooklyn","347-442-1201","N","08:00","01:30","08:00","01:30","08:00","01:30","08:00","01:30","08:00","01:30","08:00","01:30","00:00","00:00","40.639403","-74.003877","312","38","108","3138179","3056510060","Sunset Park East","
,  
(40.639403, -74.003877)"
"SOCIAL ADULT DAY CARE SERVICES","S35201","GENTLE PERSONAL CARE INC.","Gentle Personal Care Inc.","1685 EAST 21ST ST","BROOKLYN","NY","11210","Brooklyn","718-266-7700","N","09:00","02:00","09:00","02:00","08:30","08:30","09:00","02:00","09:00","02:00","09:00","02:00","00:00","00:00","40.612014","-73.952742","314","48","546","3182141","3067687501","Midwood","
,  
(40.612014, -73.952742)"
"SOCIAL ADULT DAY CARE SERVICES","S48701","BEDFORD HEALTH & WELLNESS","Bedford Health & Wellness","390 NOSTRAND AVENUE","BROOKLYN","NY","11216","Brooklyn","718-504-8652","N","08:00","04:00","08:00","04:00","08:00","04:00","08:00","04:00","08:00","04:00","00:00","00:00","00:00","00:00","40.686092","-73.950725","303","36","243","3051074","3018120042","Bedford","
,  
(40.686092, -73.950725)"
"SOCIAL ADULT DAY CARE SERVICES","S30201","HANA ADULT DAY CARE, LLC","Hana Adult Day Care, Llc","130-30 31ST AVE","FLUSHING","NY","11354","Queens","917-285-2757","N","08:00","04:00","08:00","04:00","08:00","04:00","08:00","04:00","08:00","04:00","00:00","00:00","00:00","00:00","40.769258","-73.839306","407","19","907","4100745","4043600001","College Point","
,  
(40.769258, -73.839306)"
"SOCIAL ADULT DAY CARE SERVICES","S51001","WEALTHY HEALTH SOCIAL ADULT DAYCARE INC.","Wealthy Health Social Adult Daycare Inc.","5705-5707 4TH AVE.  GROUND FLOOR","BROOKLYN","NY","11220","Brooklyn","718-439-1888","N","09:00","04:00","09:00","04:00","09:00","04:00","09:00","04:00","09:00","04:00","09:00","04:00","00:00","00:00","40.642443","-74.016748","307","38","74","3015653","3008470007","Sunset Park West","
,  
(40.642443, -74.016748)"
"SOCIAL ADULT DAY CARE SERVICES","S52901","A SONG OF ASCENTS ADULT DAY CARE LLC","A Song Of Ascents Adult Day Care Llc","2526 NEPTUNE AVE","BROOKLYN","NY","11224",,"347-673-8158","N","08:00","03:00","08:00","03:30","08:00","03:00","08:00","03:00","08:00","03:00","07:30","03:00","00:00","00:00","40.578068","-73.992955","313","47","328",,,"Seagate-Coney Island","
,  
(40.578068, -73.992955)"
"SOCIAL ADULT DAY CARE SERVICES","S3001","DYNASTY SOCIAL ADULT DAY CENTER, INC.","Dynasty Social Adult Day Center, Inc.","1009 BRIGHTON BEACH AVENUE  2ND FLOOR","BROOKLYN","NY","11235","Brooklyn","718-864-7993","N","08:00","05:30","08:00","05:30","08:00","05:30","08:00","05:30","08:00","05:30","08:00","05:30","08:00","05:30","40.578058","-73.959372","313","48","61004","3245413","3087070452","Brighton Beach","
,  
(40.578058, -73.959372)"
"SOCIAL ADULT DAY CARE SERVICES","S6601","PINE CARE LLC","Pine Care Llc","153-11 BARCLAY AVE","FLUSHING","NY","11355","Queens","718-358-3355","N","08:00","02:00","08:00","02:00","08:00","02:00","08:00","02:00","08:00","02:00","00:00","00:00","00:00","00:00","40.762067","-73.812087","407","20","1167","4120321","4053260083","Murray Hill","
,  
(40.762067, -73.812087)"
"SOCIAL ADULT DAY CARE SERVICES","S28501","LIVINGWELL DAY CARE CENTER LLC","Livingwell Day Care Center Llc","137-81 NORTHERN BLVD","FLUSHING","NY","11354","Queens","929-362-2477","N","07:30","03:30","07:30","03:30","07:30","03:30","07:30","03:30","07:30","03:30","07:30","03:30","00:00","00:00","40.763868","-73.828471","407","20","869","4112179","4049610003","Flushing","
,  
(40.763868, -73.828471)"
"SOCIAL ADULT DAY CARE SERVICES","S29401","VIMINI LLC","Vimini Llc","18-15 CORNAGA AVE","FAR ROCKAWAY","NY","11691","Queens","718-471-2100","N","08:00","06:00","01:00","06:00","08:00","06:00","00:00","00:00","08:00","06:00","00:00","00:00","00:00","00:00","40.602445","-73.750312","414","31","101001","4298278","4155630016","Far Rockaway-Bayswater","
,  
(40.602445, -73.750312)"
"SOCIAL ADULT DAY CARE SERVICES","S55401","HEALTHY FAMILY SOCIAL DAYCARE INC","Healthy Family Social Daycare Inc","864 56TH ST","BROOKLYN","NY","11220","Brooklyn","347-899-8686","N","08:00","04:00","08:00","04:00","08:00","04:00","08:00","04:00","08:00","04:00","08:00","04:00","08:00","04:00","40.636941","-74.005877","312","38","104","3139869","3056860033","Sunset Park East","
,  
(40.636941, -74.005877)"
"SOCIAL ADULT DAY CARE SERVICES","S3901","KEY TO LIFE ADULT DAYCARE, INC.","Key To Life Adult Daycare, Inc.","229 EAST 2ND ST  UNIT 1A","NEW YORK","NY","10009","Manhattan","646-791-5282","N","09:00","02:00","08:00","02:00","08:00","02:00","08:00","02:00","00:00","00:00","00:00","00:00","00:00","00:00","40.721542","-73.982333","103","2","2202","1087923","1003847505","Lower East Side","
,  
(40.721542, -73.982333)"
"SOCIAL ADULT DAY CARE SERVICES","S29001","GOLDEN SUN LIFE DAYCARE LLC","Golden Sun Life Daycare Llc","75 EAST BROADWAY  2ND FLOOR SOUTH BUILDING","NEW YORK","NY","10002","Manhattan","212-732-7888","N","08:00","05:00","08:00","05:00","08:00","05:00","08:00","05:00","08:00","05:00","08:00","05:00","00:00","00:00","40.713707","-73.99434","103","1","8","1081960","1002820003","Chinatown","
,  
(40.713707, -73.99434)"
"SOCIAL ADULT DAY CARE SERVICES","S2301","OPEN ARMS CIRCLE INC","Open Arms Circle Inc","860 E 161 STREET","BRONX","NY","10459","Bronx","347-913-4343","N","08:30","05:00","08:30","05:00","08:30","05:00","08:30","05:00","08:30","05:00","00:00","00:00","00:00","00:00","40.819913","-73.900626","202","17","87","2120262","2026890009","Longwood","
,  
(40.819913, -73.900626)"
"SOCIAL ADULT DAY CARE SERVICES","S8501","THE NEW JEWISH HOME SADC","The New Jewish Home Sadc","140 WEST 106TH ST  GROUND FLOOR","NEW YORK","NY","10025","Manhattan","212-870-5090","N","09:30","02:30","00:00","00:00","09:30","02:30","00:00","00:00","09:30","02:30","00:00","00:00","00:00","00:00","40.800111","-73.964958","107","7","189","1081583","1018600020","Upper West Side","
,  
(40.800111, -73.964958)"
"SOCIAL ADULT DAY CARE SERVICES","S58201","SPRINGFIELD ADULT DAY CARE CENTER","Springfield Adult Day Care Center","185 AVENUE B  1ST FLOOR","NEW YORK","NY","10009","Manhattan","917-836-7761","N","09:00","04:00","09:00","04:00","09:00","04:00","09:00","04:00","09:00","04:00","00:00","00:00","00:00","00:00","40.727807","-73.979207","103","2","28","1089953","1003940010","Lower East Side","
,  
(40.727807, -73.979207)"
"SOCIAL ADULT DAY CARE SERVICES","S39101","RICHMOND HILL / SOUTH OZONE PARK SENIOR CENTER","Richmond Hill / South Ozone Park Senior Center","16-12 CENTRAL AVE  GROUND FLOOR","FAR ROCKAWAY","NY","11691","Queens","347-484-0565","N","09:00","03:00","09:00","03:00","09:00","03:00","09:00","03:00","09:00","03:00","00:00","00:00","00:00","00:00","40.604966","-73.752186","414","31","103202","4297968","4155370148","Far Rockaway-Bayswater","
,  
(40.604966, -73.752186)"
"SOCIAL ADULT DAY CARE SERVICES","S49501","RED APPLE SOCIAL DAY CARE INC","Red Apple Social Day Care Inc","2502 86TH ST  4FL","BROOKLYN","NY","11214","Brooklyn","718-266-8887","N","08:00","02:00","08:00","02:00","08:00","02:00","08:00","02:00","08:00","02:00","08:00","02:00","08:00","02:00","40.59783","-73.987051","311","47","300","3185698","3068670036","Bensonhurst East","
,  
(40.59783, -73.987051)"
"SOCIAL ADULT DAY CARE SERVICES","S201","CARE AT LENOX HILL NEIGHBORHOOD HOUSE INC","Care At Lenox Hill Neighborhood House Inc","331 EAST 70TH ST","NEW YORK","NY","10021","Manhattan","212-218-0447","Y","09:30","02:30","09:30","02:30","09:30","02:30","09:30","02:30","09:30","02:30","00:00","00:00","00:00","00:00","40.766925","-73.95795","108","5","126","1044838","1014450014","Lenox Hill-Roosevelt Island","
,  
(40.766925, -73.95795)"
"SOCIAL ADULT DAY CARE SERVICES","S14701","Z&W EMPIRE ENTERPRISE, INC","Z&w Empire Enterprise, Inc","143-26 41ST AVE  1A","FLUSHING","NY","11355","Queens","718-886-3838","N","07:00","02:00","07:00","02:00","07:00","02:00","07:00","02:00","07:00","02:00","07:00","02:00","00:00","00:00","40.760103","-73.823131","407","20","855","4584555","4050487503","Flushing","
,  
(40.760103, -73.823131)"
"SOCIAL ADULT DAY CARE SERVICES","S3101","GENESIS ADULT DAY CARE","Genesis Adult Day Care","114-30 ROCKAWAY  BEACH BLVD (UNIT 2)  UNIT 2","ROCKAWAY PK","NY","11694","Queens","718-634-4013","N","08:30","05:00","08:30","05:00","08:30","05:00","08:30","05:00","08:30","05:00","00:00","00:00","08:30","05:00","40.58024","-73.835733","414","32","938","4607409","4161660011","Breezy Point-Belle Harbor-Rockaway Park-Broad Channel","
,  
(40.58024, -73.835733)"
"SOCIAL ADULT DAY CARE SERVICES","S33701","GEORGETOWN ADULT SOCIAL DAY CARE CENTER INC","Georgetown Adult Social Day Care Center Inc","120-13 LIBERTY AVE  1ST FLOOR","RICHMOND HILL","NY","11419","Queens","917-592-8686","N","00:00","00:00","00:00","00:00","00:00","00:00","09:00","02:00","09:00","02:00","00:00","00:00","00:00","00:00","40.68682","-73.822695","410","28","15802","4203773","4095580036","South Ozone Park","
,  
(40.68682, -73.822695)"
"SOCIAL ADULT DAY CARE SERVICES","S57001","TRI-MED SOCIAL ADULT DAY SERVICES, INC.","Tri-med Social Adult Day Services, Inc.","125-12 LIBERTY AVENUE  1ST FLOOR","RICHMOND HILL","NY","11419","Queens","718-529-0900","N","00:00","00:00","08:00","05:00","08:00","05:00","08:00","05:00","00:00","00:00","00:00","00:00","00:00","00:00","40.688176","-73.819147","410","28","15802","4204581","4095790006","South Ozone Park","
,  
(40.688176, -73.819147)"
"SOCIAL ADULT DAY CARE SERVICES","S19101","GRAND ADULT DAYCARE INC.","Grand Adult Daycare Inc.","87-03 GRAND AVE  1ST FLOOR","ELMHURST","NY","11373","Queens","718-565-5800","N","08:00","03:00","08:00","03:00","08:00","03:00","08:00","03:00","08:00","03:00","08:00","03:00","00:00","00:00","40.736312","-73.878461","404","25","475","4314620","4024770021","Elmhurst","
,  
(40.736312, -73.878461)"
"SOCIAL ADULT DAY CARE SERVICES","S14001","HESTIA ADULT SOCIAL DAY CARE CENTER, INC.","Hestia Adult Social Day Care Center, Inc.","162-18 71ST AVE","FRESH MEADOWS","NY","11365","Queens","347-233-3272","N","08:30","02:30","08:30","02:30","08:30","02:30","08:30","02:30","08:30","02:30","08:30","02:30","00:00","00:00","40.73042","-73.806862","408","24","122701","4147310","4068010047","Pomonok-Flushing Heights-Hillcrest","
,  
(40.73042, -73.806862)"
"SOCIAL ADULT DAY CARE SERVICES","S53301","ZHAO HUA FAMILY CARE SERVICE INC","Zhao Hua Family Care Service Inc","738 58TH STREET","BROOKLYN","NY","11220","Brooklyn","347-281-0314","N","07:00","02:00","07:00","02:00","07:00","02:00","07:00","02:00","07:00","02:00","07:00","02:00","00:00","00:00","40.637399","-74.009653","307","38","104","3016192","3008580022","Sunset Park East","
,  
(40.637399, -74.009653)"
"SOCIAL ADULT DAY CARE SERVICES","S23101","NEW YORK GOLDEN EAGLE SENIOR CORP.","New York Golden Eagle Senior Corp.","36-36 PRINCE ST 2ND FL  2ND FLOOR","FLUSHING","NY","11354","Queens","718-460-1888","N","08:00","04:00","08:00","04:00","08:00","04:00","08:00","04:00","08:00","04:00","08:00","02:00","00:00","00:00","40.761399","-73.832896","407","20","869","4534920","4049707501","Flushing","
,  
(40.761399, -73.832896)"
"SOCIAL ADULT DAY CARE SERVICES","S1501","PARK AVE ADULT DAY CARE CENTER LLC","Park Ave Adult Day Care Center Llc","1916 PARK AVE  SUITE 102","NEW YORK","NY","10037","Manhattan","212-490-2541","N","08:00","06:00","08:00","06:00","08:00","06:00","08:00","06:00","08:00","06:00","08:00","05:00","08:00","05:00","40.80832","-73.936662","111","9","206","1054286","1017550033","Central Harlem North-Polo Grounds","
,  
(40.80832, -73.936662)"
"SOCIAL ADULT DAY CARE SERVICES","S701","SUNSHINE ADULT SOCIAL CENTER CORP.","Sunshine Adult Social Center Corp.","1241 LAFAYETTE AVE  1ST FLOOR","BRONX","NY","10474","Bronx","929-259-9247","N","08:00","05:00","08:00","05:00","08:00","05:00","08:00","05:00","08:00","05:00","00:00","00:00","00:00","00:00","40.81653","-73.889742","202","17","93","2006002","2027400100","Hunts Point","
,  
(40.81653, -73.889742)"
"SOCIAL ADULT DAY CARE SERVICES","S36201","WOODHAVEN LIFESTYLE SENIOR CENTER INC.","Woodhaven Lifestyle Senior Center Inc.","85-07 86TH AVE","WOODHAVEN","NY","11421","Queens","347-561-3878","N","07:30","02:30","07:30","02:30","07:30","02:30","07:30","02:30","00:00","00:00","00:00","00:00","00:00","00:00","40.693713","-73.85925","409","32","12","4455678","4088600030","Woodhaven","
,  
(40.693713, -73.85925)"
"SOCIAL ADULT DAY CARE SERVICES","S32901","KANG HUA ADULT DAYCARE CENTER, INC.","Kang Hua Adult Daycare Center, Inc.","4235 MAIN ST  2G","FLUSHING","NY","11355","Queens","718-886-2268","N","07:30","04:30","07:30","04:30","07:30","04:30","07:30","04:30","07:30","04:30","07:30","04:30","00:00","00:00","40.754426","-73.827882","407","20","853","4592106","4051357502","Flushing","
,  
(40.754426, -73.827882)"
"SOCIAL ADULT DAY CARE SERVICES","S31101","HAPPINESS ADULT DAY CARE CENTER INC.","Happiness Adult Day Care Center Inc.","49-03 69TH ST","WOODSIDE","NY","11377","Queens","917-832-6677","N","08:00","04:00","08:00","04:00","08:00","04:00","08:00","04:00","08:00","04:00","08:00","04:00","00:00","00:00","40.737523","-73.895924","402","30","489","4000000","4024350010","Elmhurst-Maspeth","
,  
(40.737523, -73.895924)"
"SOCIAL ADULT DAY CARE SERVICES","S4901","TIAN NIAN HEALTH MANAGEMENT, LLC","Tian Nian Health Management, Llc","41-61 KISSENA BLVD  LEVEL C SUITE 36","FLUSHING","NY","11354","Queens","718-358-3609","N","08:00","03:00","08:00","03:00","08:00","03:00","08:00","03:00","08:00","03:00","08:00","03:00","08:00","03:00","40.757519","-73.827755","407","20","853","4114293","4050450001","Flushing","
,  
(40.757519, -73.827755)"
"SOCIAL ADULT DAY CARE SERVICES","S5601","SILVER TOWN ADULT DAY CARE CENTER, INC.","Silver Town Adult Day Care Center, Inc.","147-28 NORTHERN BLVD","FLUSHING","NY","11354","Queens","718-631-7979","N","08:30","05:30","08:30","05:30","08:30","05:30","08:30","05:30","08:30","05:30","00:00","00:00","00:00","00:00","40.765166","-73.819078","407","20","1163","4113529","4050160033","Murray Hill","
,  
(40.765166, -73.819078)"
"SOCIAL ADULT DAY CARE SERVICES","S6201","WELLCOME ADULT DAYCARE INC","Wellcome Adult Daycare Inc","5515 7TH AVE","BROOKLYN","NY","11220","Brooklyn","347-689-4535","N","08:00","04:00","08:00","04:00","08:00","04:00","08:00","04:00","08:00","04:00","08:00","04:00","08:00","04:00","40.639499","-74.008961","307","38","106","3015128","3008340004","Sunset Park East","
,  
(40.639499, -74.008961)"
"SOCIAL ADULT DAY CARE SERVICES","S15801","FIRST STATEN ISLAND SENIOR DAYCARE CENTER INC.","First Staten Island Senior Daycare Center Inc.","473 CLOVE RD","STATEN ISLAND","NY","10310","Staten Island","718-889-0978","N","09:00","03:00","09:00","03:00","09:00","03:00","09:00","03:00","09:00","03:00","09:00","03:00","09:00","03:00","40.628836","-74.122752","501","49","125","5158395","5002240014","West New Brighton-New Brighton-St. George","
,  
(40.628836, -74.122752)"
"SOCIAL ADULT DAY CARE SERVICES","S38301","SUMMIT ADULT DAYCARE INC","Summit Adult Daycare Inc","178-02 JAMAICA AVE  3RD FLOOR","JAMAICA","NY","11432","Queens","347-969-6243","N","09:00","07:00","00:00","00:00","09:00","07:00","00:00","00:00","09:00","07:00","00:00","00:00","00:00","00:00","40.70795","-73.78319","412","27","444","4000000","4103170008","Jamaica","
,  
(40.70795, -73.78319)"
"SOCIAL ADULT DAY CARE SERVICES","S20201","JY ADULT SOCIAL DAY CARE SERVICE INC.","Jy Adult Social Day Care Service Inc.","6013 7TH AVE","BROOKLYN","NY","11220","Brooklyn","718-238-3636","N","07:30","04:30","07:30","04:30","07:30","04:30","07:30","04:30","07:30","04:30","07:30","04:30","07:30","04:30","40.636682","-74.011894","307","38","118","3143584","3057850001","Sunset Park East","
,  
(40.636682, -74.011894)"
"SOCIAL ADULT DAY CARE SERVICES","S47401","LOVE AND JOY SENIOR DAY CARE, INC","Love And Joy Senior Day Care, Inc","8681 18TH AVE","BROOKLYN","NY","11214","Brooklyn","718-837-2513","N","08:00","02:00","08:00","02:00","08:00","02:00","08:00","02:00","08:00","02:00","08:00","02:00","08:00","02:00","40.605925","-74.004034","311","47","278","3166592","3063690013","Bensonhurst West","
,  
(40.605925, -74.004034)"
"SOCIAL ADULT DAY CARE SERVICES","S6901","PENINSULA DAY CARE INC","Peninsula Day Care Inc","1815 85TH ST  SUITE 301/302","BROOKLYN","NY","11214","Brooklyn","718-837-9588","N","07:30","02:00","07:30","02:00","07:30","02:00","07:30","02:00","07:30","02:00","07:30","02:00","00:00","00:00","40.607399","-74.001235","311","47","278","3398583","3063320071","Bensonhurst West","
,  
(40.607399, -74.001235)"
"SOCIAL ADULT DAY CARE SERVICES","S19001","HAPPY HEALTHY ADULT DAYCARE INC.","Happy Healthy Adult Daycare Inc.","1874 86TH ST","BROOKLYN","NY","11214","Brooklyn","347-916-3355","N","08:00","03:00","08:00","03:00","08:00","03:00","08:00","03:00","08:00","03:00","08:00","03:00","00:00","00:00","40.606218","-74.000947","311","47","278","3166703","3063710050","Bensonhurst West","
,  
(40.606218, -74.000947)"
"SOCIAL ADULT DAY CARE SERVICES","S4701","RAINBOW ADULT SOCIAL DAY CARE LLC","Rainbow Adult Social Day Care Llc","1518 PITKIN AVE","BROOKLYN","NY","11212","Brooklyn","718-393-5565","N","08:00","06:00","08:00","06:00","08:00","06:00","08:00","06:00","08:00","06:00","00:00","00:00","00:00","00:00","40.668655","-73.917613","316","41","900","3080925","3035140037","Brownsville","
,  
(40.668655, -73.917613)"
"SOCIAL ADULT DAY CARE SERVICES","S54001","SILVER AGE OF SHEEPSHEADBAY INC.","Silver Age Of Sheepsheadbay Inc.","2007 EMMONS AVE","BROOKLYN","NY","11235","Brooklyn","347-409-3657","N","09:00","05:00","09:00","05:00","09:00","05:00","09:00","05:00","09:00","05:00","00:00","00:00","00:00","00:00","40.583694","-73.948068","315","48","608","3247095","3087780052","Sheepshead Bay-Gerritsen Beach-Manhattan Beach","
,  
(40.583694, -73.948068)"
"SOCIAL ADULT DAY CARE SERVICES","S22301","SUNSHINE DAYS INC","Sunshine Days Inc","1150 WEBSTER AVE  2ND FLOOR SUITE 1","BRONX","NY","10456","Bronx","347-284-4440","N","09:00","05:00","09:00","05:00","09:00","05:00","09:00","05:00","09:00","05:00","00:00","00:00","00:00","00:00","40.830411","-73.910659","203","16","143","2001626","2023920020","East Concourse-Concourse Village","
,  
(40.830411, -73.910659)"
"SOCIAL ADULT DAY CARE SERVICES","S6701","BLESSING SOCIAL DAY CARE INC.","Blessing Social Day Care Inc.","71-19 162ND ST  UNIT B","FRESH MEADOWS","NY","11365","Queens","718-380-0708","N","09:00","05:00","09:00","05:00","09:00","05:00","09:00","05:00","09:00","05:00","00:00","00:00","00:00","00:00","40.729822","-73.807178","408","24","122701","4537678","4068017503","Pomonok-Flushing Heights-Hillcrest","
,  
(40.729822, -73.807178)"
"SOCIAL ADULT DAY CARE SERVICES","S56201","SUNNY ADULT DAY CARE CENTER","Sunny Adult Day Care Center","31 MONROE STREET  FL 2","NEW YORK","NY","10002","Manhattan","516-362-3338","N","08:00","04:30","08:00","04:30","08:00","04:30","08:00","04:30","08:00","04:30","08:00","04:30","00:00","00:00","40.711538","-73.994968","103","1","8","1088682","1002767503","Chinatown","
,  
(40.711538, -73.994968)"
"SOCIAL ADULT DAY CARE SERVICES","S33601","KOREAN COMMUNITY SERVICES","Korean Community Services","203-05 32ND AVE","BAYSIDE","NY","11361","Queens","718-939-6137","N","09:00","02:00","09:00","02:00","09:00","02:00","09:00","02:00","09:00","02:00","00:00","00:00","00:00","00:00","40.770539","-73.786535","411","19","1085","4134304","4060300040","Bayside-Bayside Hills","
,  
(40.770539, -73.786535)"
"SOCIAL ADULT DAY CARE SERVICES","S7101","ASIAN SENIOR DAY CARE CORP.","Asian Senior Day Care Corp.","6506 BAY PKWY","BROOKLYN","NY","11204","Brooklyn","917-807-4342","N","08:00","04:00","08:00","04:00","08:00","04:00","08:00","04:00","08:00","04:00","08:00","04:00","08:00","04:00","40.613683","-73.98162","311","47","256","3134082","3055570042","Bensonhurst West","
,  
(40.613683, -73.98162)"
"SOCIAL ADULT DAY CARE SERVICES","S32201","CATHOLIC MANAGED LONG TERM CARE, INC.","Catholic Managed Long Term Care, Inc.","88 OLD TOWN RD","STATEN ISLAND","NY","10304","Staten Island","718-979-5000","N","08:30","04:30","08:30","04:30","08:30","04:30","08:30","04:30","08:30","04:30","00:00","00:00","00:00","00:00","40.596236","-74.090479","502","50","9601","5048706","5033070005","Old Town-Dongan Hills-South Beach","
,  
(40.596236, -74.090479)"
"SOCIAL ADULT DAY CARE SERVICES","S16501","AMBER HEALTH LLC","Amber Health Llc","71 INDIA ST  2ND FLOOR","BROOKLYN","NY","11222","Brooklyn","718-388-8388","N","08:00","04:00","08:00","04:00","08:00","04:00","08:00","04:00","08:00","04:00","00:00","00:00","00:00","00:00","40.732083","-73.957243","301","33","563","3064253","3025320001","Greenpoint","
,  
(40.732083, -73.957243)"
"SOCIAL ADULT DAY CARE SERVICES","S53401","WONDERFUL FAMILY SOCIAL DAYCARE INC.","Wonderful Family Social Daycare Inc.","132-35 41 RD.  UNIT CF-1D","FLUSHING","NY","11355","Queens","917-771-8288","N","07:00","12:00","07:00","12:00","07:00","12:00","07:00","12:00","07:00","12:00","07:00","12:00","07:00","12:00","40.755906","-73.832599","407","20","849","4539423","4050397509","Flushing","
,  
(40.755906, -73.832599)"
"SOCIAL ADULT DAY CARE SERVICES","S32601","SOCIAL ADULT DAY CARE CENTERS OF NEW YORK, LLC","Social Adult Day Care Centers Of New York, Llc","130-05 101ST AVE","SOUTH RICHMOND HILL","NY","11419","Queens","347-425-1993","N","09:00","03:00","09:00","03:00","09:00","03:00","09:00","03:00","09:00","03:00","09:00","02:00","00:00","00:00","40.692539","-73.816921","409","28","154","4200225","4094760029","Richmond Hill","
,  
(40.692539, -73.816921)"
"SOCIAL ADULT DAY CARE SERVICES","S45801","SOH TRANSIT LLC D.B.A BOOM BOOM ADULT DAY CARE","Soh Transit Llc D.b.a Boom Boom Adult Day Care","136-39 37TH AVENUE","FLUSHING","NY","11354","Queens","718-886-8836","N","08:00","04:00","08:00","04:00","08:00","04:00","08:00","04:00","08:00","04:00","00:00","00:00","00:00","00:00","40.761848","-73.829888","407","20","869","4112369","4049770090","Flushing","
,  
(40.761848, -73.829888)"
"SOCIAL ADULT DAY CARE SERVICES","S33301","FAMILY SOCIAL ADULT DAY CARE INC","Family Social Adult Day Care Inc","1950 BATH AVE  #3","BROOKLYN","NY","11214","Brooklyn","929-398-2545","N","08:00","08:00","08:00","08:00","08:00","08:00","08:00","08:00","08:00","08:00","08:00","08:00","08:00","08:00","40.601794","-74.002208","311","43","282","3168791","3064410029","Bath Beach","
,  
(40.601794, -74.002208)"
"SOCIAL ADULT DAY CARE SERVICES","S57701","ZHANG FAJUN ADULT DAYCARE INC.","Zhang Fajun Adult Daycare Inc.","2308 JACKSON AVE.  3RD FL.","LONG ISLAND CITY","NY","11101","Queens","929-218-9132","N","08:00","01:00","00:00","00:00","08:00","01:00","00:00","00:00","08:00","01:00","00:00","00:00","00:00","00:00","40.74589","-73.945444","402","26","19","4436629","4000850003","Hunters Point-Sunnyside-West Maspeth","
,  
(40.74589, -73.945444)"
"SOCIAL ADULT DAY CARE SERVICES","S29601","HAPPY HOME ADULT DAY CARE INC","Happy Home Adult Day Care Inc","3636 PRINCE ST  310","FLUSHING","NY","11354","Queens","718-321-9880","N","07:00","03:00","07:00","03:00","07:00","03:00","07:00","03:00","07:00","03:00","08:00","02:00","00:00","00:00","40.761399","-73.832896","407","20","869","4534920","4049707501","Flushing","
,  
(40.761399, -73.832896)"
"SOCIAL ADULT DAY CARE SERVICES","S19401","YOUNG AT HEART ADULT DAY CENTER LLC","Young At Heart Adult Day Center Llc","810 FLUSHING AVE.","BROOKLYN","NY","11206","Brooklyn","718-557-0000","N","09:00","02:30","09:00","02:30","09:00","02:30","09:00","02:30","09:00","02:30","00:00","00:00","00:00","00:00","40.701211","-73.939775","304","34","389","3000000","3031317501","Bushwick South","
,  
(40.701211, -73.939775)"
"SOCIAL ADULT DAY CARE SERVICES","S47801","LUCKY ADULT DAY CARE, INC.","Lucky Adult Day Care, Inc.","235-09 BRADDOCK AVE  GROUND FLOOR","QUEENS VILLAGE","NY","11428","Queens","718-776-1005","N","07:30","02:00","00:00","00:00","07:30","02:00","00:00","00:00","07:30","02:00","00:00","00:00","00:00","00:00","40.727685","-73.732492","413","23","1621","4167114","4079740078","Bellerose","
,  
(40.727685, -73.732492)"
"SOCIAL ADULT DAY CARE SERVICES","S22501","EMPIRE ADULT DAY CARE CENTER INC.","Empire Adult Day Care Center Inc.","71-59 160TH ST  1ST FLOOR LEFT UNIT #CF-1","FRESH MEADOWS","NY","11365","Queens","718-820-8588","N","08:00","02:00","08:00","02:00","08:00","02:00","08:00","02:00","08:00","02:00","08:00","02:00","00:00","00:00","40.728491","-73.809025","408","24","122701","4000000","4067997503","Pomonok-Flushing Heights-Hillcrest","
,  
(40.728491, -73.809025)"
"SOCIAL ADULT DAY CARE SERVICES","S22801","GOOD FAITH ADULT DAY CARE INC.","Good Faith Adult Day Care Inc.","1385-1387 BAY ST","STATEN ISLAND","NY","10305","Staten Island","718-876-0900","N","08:00","02:00","08:00","02:00","08:00","02:00","08:00","02:00","08:00","02:00","08:00","02:00","00:00","00:00","40.60992","-74.063046","501","49","6","5042275","5028340001","Stapleton-Rosebank","
,  
(40.60992, -74.063046)"
"SOCIAL ADULT DAY CARE SERVICES","S35101","NEXUS SOCIAL ADULT DAY CARE LLC","Nexus Social Adult Day Care Llc","83-47 258TH ST  1ST FLOOR","FLORAL PARK","NY","11004","Queens","718-255-8800","N","09:00","05:00","09:00","05:00","09:00","05:00","09:00","05:00","09:00","05:00","00:00","00:00","00:00","00:00","40.737892","-73.710464","413","23","157902","4179349","4087700011","Glen Oaks-Floral Park-New Hyde Park","
,  
(40.737892, -73.710464)"
"SOCIAL ADULT DAY CARE SERVICES","S39201","QUEENS BOROUGH ADULT DAY CARE, LLC","Queens Borough Adult Day Care, Llc","137-08 31ST ROAD  1 FLOOR","FLUSHING","NY","11354","Queens","347-732-4588","N","08:30","06:30","08:30","06:30","08:30","06:30","08:30","06:30","08:30","06:30","08:30","06:30","00:00","00:00","40.769719","-73.83128","407","20","88901","4537661","4044107503","Flushing","
,  
(40.769719, -73.83128)"
"SOCIAL ADULT DAY CARE SERVICES","S50701","QUEENS SOCIAL ADULT DAY CARE, INC","Queens Social Adult Day Care, Inc","148-41 HILLSIDE AVE","JAMAICA","NY","11435","Queens","718-647-4444","N","09:00","09:00","09:00","09:00","09:00","09:00","09:00","09:00","09:00","09:00","09:00","09:00","09:00","09:00","40.706188","-73.808176","408","24","238","4207413","4097040049","Jamaica","
,  
(40.706188, -73.808176)"
"SOCIAL ADULT DAY CARE SERVICES","S23501","MAASER, CORP.","Maaser, Corp.","1117 BRIGHTON BEACH AVE  4TH FLOOR","BROOKLYN","NY","11235","Brooklyn","347-462-4492","N","08:00","06:00","08:00","06:00","08:00","06:00","08:00","06:00","08:00","06:00","08:00","06:00","08:00","06:00","40.577837","-73.956341","313","48","61004","3245642","3087160061","Brighton Beach","
,  
(40.577837, -73.956341)"
"SOCIAL ADULT DAY CARE SERVICES","S57301","PRIME SOCIAL DAY CARE","Prime Social Day Care","1918 1ST AVENUE","NEW YORK","NY","10029","Manhattan","347-277-0110","N","09:00","05:00","09:00","05:00","09:00","05:00","09:00","05:00","09:00","05:00","00:00","00:00","00:00","00:00","40.784985","-73.943444","111","8","162","1052997","1016910001","East Harlem South","
,  
(40.784985, -73.943444)"
"SOCIAL ADULT DAY CARE SERVICES","S2901","HAPPYHOUSE ADULT DAY CARE CENTER INC.","Happyhouse Adult Day Care Center Inc.","1602 AVE U  2ND FLOOR","BROOKLYN","NY","11229","Brooklyn","718-376-1313","N","08:30","02:00","08:30","02:00","08:30","02:00","08:30","02:00","08:30","02:00","08:30","02:00","08:30","02:00","40.598947","-73.955319","315","48","580","3199610","3073490001","Madison","
,  
(40.598947, -73.955319)"
"SOCIAL ADULT DAY CARE SERVICES","S20101","SOCIAL WELLNESS FOR LIVING, INC.","Social Wellness For Living, Inc.","358 GROVE ST  GROUND FLOOR","BROOKLYN","NY","11237","Brooklyn","347-533-8857","N","09:30","05:30","09:30","05:30","09:30","05:30","09:30","05:30","09:30","05:30","00:00","00:00","00:00","00:00","40.700121","-73.913964","304","37","441","3392234","3033287501","Bushwick North","
,  
(40.700121, -73.913964)"
"SOCIAL ADULT DAY CARE SERVICES","S801","OCEAN FRONT SDC","Ocean Front Sdc","11502 OCEAN PROMENADE  BASEMENT","ROCKAWAY PARK","NY","11694","Queens","718-831-2000","N","09:00","07:00","09:00","07:00","09:00","07:00","09:00","07:00","09:00","07:00","00:00","00:00","09:00","01:00","40.578035","-73.835274","414","32","938","4444819","4161880034","Breezy Point-Belle Harbor-Rockaway Park-Broad Channel","
,  
(40.578035, -73.835274)"
"SOCIAL ADULT DAY CARE SERVICES","S30701","KRIS SOCIAL ADULT DAY CARE","Kris Social Adult Day Care","169-14 HILLSIDE AVE","JAMAICA","NY","11432","Queens","718-262-9009","N","00:00","00:00","09:00","03:00","00:00","00:00","09:00","03:00","09:00","03:00","00:00","00:00","00:00","00:00","40.710792","-73.792783","412","27","460","4210189","4098250013","Jamaica","
,  
(40.710792, -73.792783)"
"SOCIAL ADULT DAY CARE SERVICES","S18401","TREMONT SOCIAL GARDEN INC.","Tremont Social Garden Inc.","563 EAST TREMONT AVE  2ND FLOOR","BRONX","NY","10457","Bronx","845-423-7822","N","09:00","04:00","09:00","04:00","09:00","04:00","09:00","04:00","09:00","04:00","09:00","03:30","00:00","00:00","40.846509","-73.894814","206","15","37504","2011828","2030600050","East Tremont","
,  
(40.846509, -73.894814)"
"SOCIAL ADULT DAY CARE SERVICES","S18801","SUNSHINE SERVICES ENTERPRISES INC.","Sunshine Services Enterprises Inc.","101 LAFAYETTE ST  2ND FLOOR","NEW YORK","NY","10013","Manhattan","212-966-2873","N","09:00","04:00","09:00","04:00","09:00","04:00","09:00","04:00","09:00","04:00","09:00","04:00","09:00","04:00","40.717783","-74.001111","101","1","31","1002356","1001970007","SoHo-TriBeCa-Civic Center-Little Italy","
,  
(40.717783, -74.001111)"
"SOCIAL ADULT DAY CARE SERVICES","S48101","HUAN XIAO SOCIAL DAY CARE, INC","Huan Xiao Social Day Care, Inc","1517 WEST 9TH STREET  1FL","BROOKLYN","NY","11204","Brooklyn","718-837-2888","N","08:30","04:00","08:30","04:00","08:30","04:00","08:30","04:00","08:30","04:00","08:30","04:00","08:30","04:00","40.609645","-73.982896","311","44","430","3391734","3065987501","Bensonhurst East","
,  
(40.609645, -73.982896)"
"SOCIAL ADULT DAY CARE SERVICES","S55101","SUNDANCE SADC INC.","Sundance Sadc Inc.","1367 -1377 UTICA  AVE","BROOKLYN","NY","11203","Brooklyn","929-234-2900","N","08:00","04:00","08:00","04:00","08:00","04:00","08:00","04:00","08:00","04:00","00:00","00:00","00:00","00:00","40.639019","-73.929014","317","45","932","3106484","3047850070","East Flatbush-Farragut","
,  
(40.639019, -73.929014)"
"SOCIAL ADULT DAY CARE SERVICES","S49101","775 SOCIAL DAY CENTER INC.","775 Social Day Center Inc.","775 50TH ST  4 FL","BROOKLYN","NY","11220","Brooklyn","718-436-2041","N","08:00","04:00","08:00","04:00","08:00","04:00","08:00","04:00","08:00","04:00","08:00","04:00","08:00","04:00","40.641451","-74.004248","307","38","108","3424561","3007860049","Sunset Park East","
,  
(40.641451, -74.004248)"
"SOCIAL ADULT DAY CARE SERVICES","S29201","CLUB 55 PRESTIGE LLC","Club 55 Prestige Llc","91-33 63 DR  GROUND FLOOR","REGO PARK","NY","11374","Queens","718-812-8112","N","09:00","01:00","09:00","01:00","00:00","00:00","09:00","01:00","00:00","00:00","00:00","00:00","00:00","00:00","40.72695","-73.8644","406","29","695","4072814","4031030048","Rego Park","
,  
(40.72695, -73.8644)"
"SOCIAL ADULT DAY CARE SERVICES","S3801","ORION ADULT DAY CARE INC DBA ROYAL PALACE ADULT DAY CARE","Orion Adult Day Care Inc Dba Royal Palace Adult Day Care","5416-5424 AVE N","BROOKLYN","NY","11234","Brooklyn","718-513-1818","N","09:00","06:00","09:00","06:00","09:00","06:00","09:00","06:00","09:00","06:00","09:00","02:00","09:00","02:00","40.6192","-73.92276","318","46","690","3254636","3078997501","Flatlands","
,  
(40.6192, -73.92276)"
"SOCIAL ADULT DAY CARE SERVICES","S18601","STATEN ISLAND ADULT DAY CARE CENTER INC","Staten Island Adult Day Care Center Inc","2015 FOREST AVENUE  2ND FLOOR","STATEN ISLAND","NY","10303","Staten Island","718-227-8266","N","08:30","03:00","08:30","03:00","08:30","03:00","08:30","03:00","08:30","03:00","08:30","03:00","00:00","00:00","40.625985","-74.156217","501","49","231","5027668","5012220001","Mariner's Harbor-Arlington-Port Ivory-Graniteville","
,  
(40.625985, -74.156217)"
"SOCIAL ADULT DAY CARE SERVICES","S46901","BIG APPLE ADULT DAY CARE","Big Apple Adult Day Care","132-08 POPLE AVENUE  1A","FLUSHING","NY","11355","Queens","718-762-5588","N","08:00","04:00","08:00","04:00","08:00","04:00","08:00","04:00","08:00","04:00","08:00","04:00","00:00","00:00","40.753188","-73.832087","407","20","79702","4597008","4051047503","Flushing","
,  
(40.753188, -73.832087)"
"SOCIAL ADULT DAY CARE SERVICES","S1701","SOCIAL ADULT CARE INC.","Social Adult Care Inc.","516 WEST 181ST ST  6TH FLOOR","MANHATTAN","NY","10033","Manhattan","646-274-4842","N","09:00","04:00","09:00","04:00","09:00","04:00","09:00","04:00","09:00","04:00","00:00","00:00","00:00","00:00","40.848436","-73.93165","112","10","269","1063614","1021520067","Washington Heights North","
,  
(40.848436, -73.93165)"
"SOCIAL ADULT DAY CARE SERVICES","S53601","ROYAL COMMUNITY CARE CENTER INC.","Royal Community Care Center Inc.","192-08 JAMAICA AVE","HOLLIS","NY","11423","Queens","718-535-7675","N","09:00","04:30","09:00","04:30","09:00","04:30","09:00","04:30","09:00","04:30","09:00","04:30","00:00","00:00","40.712905","-73.767887","412","27","500","4231493","4108200042","Hollis","
,  
(40.712905, -73.767887)"
"SOCIAL ADULT DAY CARE SERVICES","S10401","RIVERDALE SENIOR SERVICES ADULT DAY ACTIVITIES PROGRAM","Riverdale Senior Services Adult Day Activities Program","2600 NETHERLAND AVE  SUITE 106","BRONX","NY","10463","Bronx","718-884-5900","Y","09:00","05:00","09:00","05:00","09:00","05:00","09:00","05:00","09:00","05:00","00:00","00:00","00:00","00:00","40.878744","-73.915679","208","11","29302","2083247","2057220475","Spuyten Duyvil-Kingsbridge","
,  
(40.878744, -73.915679)"
"SOCIAL ADULT DAY CARE SERVICES","S59501","HAPPY CITY ADULT DAY CARE CENTER","Happy City Adult Day Care Center","13254 POPLE AVE  1","FLUSHING","NY","11354","Queens","929-362-2988","N","07:00","02:00","07:00","02:00","07:00","02:00","07:00","02:00","07:00","02:00","08:00","02:00","00:00","00:00","40.753486","-73.831277","407","20","79702","4115135","4051040027","Flushing","
,  
(40.753486, -73.831277)"
"SOCIAL ADULT DAY CARE SERVICES","S17501","UNITED ADULT DAY CARE INC.","United Adult Day Care Inc.","103-44 121ST ST","RICHMOND HILL","NY","11419","Queens","718-323-2223","N","08:30","02:00","08:30","02:00","08:30","02:00","08:30","02:00","08:30","02:00","08:30","02:00","00:00","00:00","40.68783","-73.822595","410","28","15802","4203767","4095580028","South Ozone Park","
,  
(40.68783, -73.822595)"
"SOCIAL ADULT DAY CARE SERVICES","S23901","YLC ADULT DAYCARE INC","Ylc Adult Daycare Inc","9740 64TH AVE","REGO PARK","NY","11374","Queens","718-997-0426","N","08:00","05:00","08:00","05:00","08:00","05:00","08:00","05:00","08:00","05:00","08:00","03:00","00:00","00:00","40.729936","-73.859646","406","29","71701","4607563","4020917501","Rego Park","
,  
(40.729936, -73.859646)"
"SOCIAL ADULT DAY CARE SERVICES","S54401","EVERGREEN ADULT DAYCARE IN NY, INC.","Evergreen Adult Daycare In Ny, Inc.","150-12 ROOSEVELT AVENUE","FLUSHING","NY","11354","Queens","917-563-1187","N","07:30","04:00","07:30","04:00","07:30","04:00","07:30","04:00","07:30","04:00","00:00","00:00","00:00","00:00","40.763807","-73.813949","407","20","1167","4114092","4050340023","Murray Hill","
,  
(40.763807, -73.813949)"
"SOCIAL ADULT DAY CARE SERVICES","S56101","HAPPY ISLAND SENIOR CENTER, LLC","Happy Island Senior Center, Llc","555 GREELEY AVE","STATEN ISLAND","NY","10306","Staten Island","718-980-0240","N","08:30","05:30","08:30","05:30","08:30","05:30","08:30","05:30","08:30","05:30","08:30","05:30","08:30","05:30","40.570883","-74.095696","502","50","11202","5055068","5038830006","New Dorp-Midland Beach","
,  
(40.570883, -74.095696)"
"SOCIAL ADULT DAY CARE SERVICES","S9301","QUEENS COMMUNITY HOUSE, INC.","Queens Community House, Inc.","108-25 62ND DRIVE","FOREST HILLS","NY","11375","Queens","718-592-5757","N","09:30","02:30","09:30","02:30","09:30","02:30","09:30","02:30","09:30","02:30","00:00","00:00","00:00","00:00","40.73591","-73.850212","406","29","745","4432108","4021590002","Forest Hills","
,  
(40.73591, -73.850212)"
"SOCIAL ADULT DAY CARE SERVICES","S34901","FINEST ADULT DAYCARE CENTER INC","Finest Adult Daycare Center Inc","132-35 41ST ROAD  SUITE 1A","FLUSHING","NY","11355","Queens","347-506-0706","N","07:30","03:30","07:30","03:30","07:30","03:30","07:30","03:30","07:30","03:30","07:30","03:30","00:00","00:00","40.755906","-73.832599","407","20","849","4539423","4050397509","Flushing","
,  
(40.755906, -73.832599)"
"SOCIAL ADULT DAY CARE SERVICES","S6801","TREMONT ADULT DAYCARE INC.","Tremont Adult Daycare Inc.","901 EAST TREMONT AVE  GROUND FLOOR","BRONX","NY","10460","Bronx","347-537-5222","N","09:00","05:00","09:00","05:00","09:00","05:00","09:00","05:00","09:00","05:00","00:00","00:00","00:00","00:00","40.84221","-73.884611","206","17","363","2113796","2031210033","East Tremont","
,  
(40.84221, -73.884611)"
"SOCIAL ADULT DAY CARE SERVICES","S16401","EZDAY ADULT DAYCARE, INC.","Ezday Adult Daycare, Inc.","620 EAST 102ND ST","BROOKLYN","NY","11236","Brooklyn","718-257-2700","N","09:00","02:00","09:00","02:00","09:00","02:00","09:00","02:00","09:00","02:00","00:00","00:00","00:00","00:00","40.648639","-73.89972","318","42","974","3407064","3081700042","Canarsie","
,  
(40.648639, -73.89972)"
"SOCIAL ADULT DAY CARE SERVICES","S601","WONDERFUL LIFE ADULT DAY CARE LLC","Wonderful Life Adult Day Care Llc","2034 ATLANTIC AVE","BROOKLYN","NY","11233","Brooklyn","929-234-3666","N","09:00","02:00","09:00","02:00","09:00","02:00","09:00","02:00","09:00","02:00","00:00","00:00","00:00","00:00","40.676861","-73.92039","316","41","303","3000000","3014310012","Ocean Hill","
,  
(40.676861, -73.92039)"
"SOCIAL ADULT DAY CARE SERVICES","S29701","BROOKLYN VILLAGE ADULT DAY CARE CENTER INC","Brooklyn Village Adult Day Care Center Inc","6202 16TH AVENUE  1ST FLOOR","BROOKLYN","NY","11204","Brooklyn","718-234-8900","N","08:00","04:00","08:00","04:00","08:00","04:00","08:00","04:00","08:00","04:00","08:00","04:00","00:00","00:00","40.623628","-73.993235","311","38","250","3132699","3055300038","Bensonhurst West","
,  
(40.623628, -73.993235)"
"SOCIAL ADULT DAY CARE SERVICES","S9201","SENIOR D.C. MANAGEMENT USA CORP","Senior D.c. Management Usa Corp","136-82 39TH AVE  2ND FLOOR","FLUSHING","NY","11354","Queens","718-460-1777","N","08:00","05:00","08:00","05:00","08:00","05:00","08:00","05:00","08:00","05:00","09:00","03:00","00:00","00:00","40.760826","-73.82788","407","20","871","4112498","4049800037","Flushing","
,  
(40.760826, -73.82788)"
"SOCIAL ADULT DAY CARE SERVICES","S1601","RIVERSTONE SENIOR LIFE SERVICES, INC.","Riverstone Senior Life Services, Inc.","99 FORT WASHINGTON AVE","NEW YORK","NY","10032","Manhattan","212-927-5600","N","08:30","04:30","08:30","04:30","08:30","04:30","08:30","04:30","08:30","04:30","08:30","04:30","00:00","00:00","40.83851","-73.943738","112","7","247","1063346","1021360235","Washington Heights South","
,  
(40.83851, -73.943738)"
"SOCIAL ADULT DAY CARE SERVICES","S21001","HAPPY SENIORS DAYCARE, INC.","Happy Seniors Daycare, Inc.","611 E 76TH ST  1ST FLOOR","BROOKLYN","NY","11236",,"347-990-3400","N","12:30","04:30","09:30","04:30","00:00","00:00","09:30","02:00","09:30","04:30","00:00","00:00","00:00","00:00","40.635677","-73.918533","318","46","950",,,"Canarsie","
,  
(40.635677, -73.918533)"
"SOCIAL ADULT DAY CARE SERVICES","S37701","RED APPLE SOCIAL DAY CARE INC","Red Apple Social Day Care Inc","6023 FORT HAMILTON PKWY","BROOKLYN","NY","11219","Brooklyn","718-633-2688","N","08:00","02:00","08:00","02:00","08:00","02:00","08:00","02:00","08:00","02:00","08:00","02:00","08:00","02:00","40.632925","-74.005786","312","38","214","3141188","3057150055","Borough Park","
,  
(40.632925, -74.005786)"
"SOCIAL ADULT DAY CARE SERVICES","S2701","CATHAY ADULT DAY CARE CENTER LLC","Cathay Adult Day Care Center Llc","120 BAXTER ST  1ST FLOOR / LOWER LEVEL","NEW YORK","NY","10013","Manhattan","212-226-1353","N","08:00","06:00","08:00","06:00","08:00","06:00","08:00","06:00","08:00","06:00","08:00","06:00","08:00","05:00","40.717972","-73.999058","102","1","41","1002669","1002070017","SoHo-TriBeCa-Civic Center-Little Italy","
,  
(40.717972, -73.999058)"
"SOCIAL ADULT DAY CARE SERVICES","S33101","EAGLE DAY CARE INC","Eagle Day Care Inc","35-41 156TH ST","FLUSHING","NY","11354","Queens","718-888-9833","N","09:00","05:00","09:00","05:00","09:00","05:00","09:00","05:00","09:00","05:00","09:00","02:00","00:00","00:00","40.765087","-73.808985","407","19","1171","4119280","4052720013","Murray Hill","
,  
(40.765087, -73.808985)"
"SOCIAL ADULT DAY CARE SERVICES","S57601","SAMUEL FIELD YM-YWHA, INC.","Samuel Field Ym-ywha, Inc.","58-20 LITTLE NECK PARKWAY","LITTLE NECK","NY","11362","Queens","718-225-6750","N","10:00","02:00","10:00","02:00","10:00","02:00","10:00","02:00","10:00","02:00","00:00","00:00","00:00","00:00","40.761577","-73.723122","411","23","152902","4173029","4083520051","Douglas Manor-Douglaston-Little Neck","
,  
(40.761577, -73.723122)"
"SOCIAL ADULT DAY CARE SERVICES","S47001","ACCESS SADC LLC","Access Sadc Llc","1325 5TH AVE","NY","NY","10029","Manhattan","347-645-3265","N","01:30","06:30","01:30","06:30","01:30","06:30","01:30","06:30","01:30","06:30","02:00","06:30","00:00","00:00","40.797706","-73.948608","111","9","17402","1086046","1016170001","East Harlem South","
,  
(40.797706, -73.948608)"
"SOCIAL ADULT DAY CARE SERVICES","S32501","BOOM BOOM ADULT DAY CARE","Boom Boom Adult Day Care","142-18 38TH AVE  SUITE CF","FLUSHING","NY","11354","Queens","718-886-2811","N","08:00","03:00","08:00","03:00","08:00","03:00","08:00","03:00","08:00","03:00","00:00","00:00","00:00","00:00","40.761777","-73.82652","407","20","865","4467623","4050207502","Flushing","
,  
(40.761777, -73.82652)"
"SOCIAL ADULT DAY CARE SERVICES","S27001","AMERICAN ADULT DAY CARE CENTER, INC.","American Adult Day Care Center, Inc.","132-08 POPLE AVE  1A","FLUSHING","NY","11355","Queens","718-762-5588","N","08:00","04:00","08:00","04:00","08:00","04:00","08:00","04:00","08:00","04:00","08:00","04:00","00:00","00:00","40.753188","-73.832087","407","20","79702","4597008","4051047503","Flushing","
,  
(40.753188, -73.832087)"
"SOCIAL ADULT DAY CARE SERVICES","S11801","JOYOUS SOCIAL ADULT DAY CARE CENTER INC.","Joyous Social Adult Day Care Center Inc.","7110 - 7112 18TH AVE","BROOKLYN","NY","11204","Brooklyn","718-837-3928","N","08:30","02:00","08:30","02:00","08:30","02:00","08:30","02:00","08:30","02:00","08:30","02:00","08:30","02:00","40.615575","-73.993787","311","43","264","3157887","3061820043","Bensonhurst West","
,  
(40.615575, -73.993787)"
"SOCIAL ADULT DAY CARE SERVICES","S48201","PROVIDENCE REST","Providence Rest","3304 WATERBURY AVE.","BRONX","NY","10465","Bronx","718-514-8388","N","08:00","04:00","08:00","04:30","08:00","04:30","08:00","04:30","08:00","04:30","08:00","04:30","08:00","04:30","40.837222","-73.818012","210","13","27402","2075316","2054090100","Pelham Bay-Country Club-City Island","
,  
(40.837222, -73.818012)"
"SOCIAL ADULT DAY CARE SERVICES","S4501","ENRICHED ADULT DAY CARE SERVICES, INC.","Enriched Adult Day Care Services, Inc.","7712 NEW UTRECHT AVE","BROOKLYN","NY","11214","Brooklyn","718-928-7373","N","09:00","06:30","09:00","06:30","09:00","06:30","09:00","06:30","09:00","06:30","09:00","02:00","00:00","00:00","40.613986","-74.000461","311","43","182","3329038","3062470034","Bensonhurst West","
,  
(40.613986, -74.000461)"
"SOCIAL ADULT DAY CARE SERVICES","S34701","HAPPY ISLAND SENIOR CENTER, LLC","Happy Island Senior Center, Llc","823 65TH ST","BROOKLYN","NY","11220","Brooklyn","347-560-6575","N","08:30","05:30","08:30","05:30","08:30","05:30","08:30","05:30","08:30","05:30","08:30","04:00","00:00","00:00","40.63223","-74.01185","310","38","120","3141913","3057420066","Sunset Park East","
,  
(40.63223, -74.01185)"
"SOCIAL ADULT DAY CARE SERVICES","S32001","CATHOLIC MANAGED LONG TERM CARE, INC.","Catholic Managed Long Term Care, Inc.","330 ST. MARKS PLACE","STATEN ISLAND","NY","10304","Staten Island","917-831-9753","N","08:30","04:00","08:30","04:30","08:30","04:30","08:30","04:30","08:30","04:30","00:00","00:00","00:00","00:00","40.641663","-74.077954","501","49","3","5000186","5000160068","West New Brighton-New Brighton-St. George","
,  
(40.641663, -74.077954)"
"SOCIAL ADULT DAY CARE SERVICES","S52801","LENOX SENIOR CENTER","Lenox Senior Center","119 LENOX AVE","NEW YORK","NY","10026","Manhattan","646-484-5143","N","09:30","05:00","09:30","05:00","09:30","05:00","09:30","05:00","09:30","05:00","09:30","05:00","00:00","00:00","40.801923","-73.949768","110","9","218","1055048","1018250036","Central Harlem South","
,  
(40.801923, -73.949768)"
"SOCIAL ADULT DAY CARE SERVICES","S47201","EVERGREEN ADULT DAYCARE IN NY, INC.","Evergreen Adult Daycare In Ny, Inc.","42-19 BELL BLVD.","BAYSIDE","NY","11361","Queens","718-229-2224","N","08:00","04:00","08:00","04:00","08:00","04:00","08:00","04:00","08:00","04:00","00:00","00:00","00:00","00:00","40.762337","-73.770346","411","19","1467","4138319","4062980011","Bayside-Bayside Hills","
,  
(40.762337, -73.770346)"
"SOCIAL ADULT DAY CARE SERVICES","S8101","COUNCIL OF PEOPLES ORGANIZATION, INC.","Council Of Peoples Organization, Inc.","1077 CONEY ISLAND AVE","BROOKLYN","NY","11230","Brooklyn","718-434-3266","N","09:00","05:00","09:00","05:00","09:00","05:00","09:00","05:00","09:00","05:00","00:00","00:00","00:00","00:00","40.631136","-73.966459","314","45","528","3178918","3066860079","Flatbush","
,  
(40.631136, -73.966459)"
"SOCIAL ADULT DAY CARE SERVICES","S28401","ANGELAS ADULT DAY CARE INC","Angelas Adult Day Care Inc","9 ELIZABETH ST","NEW YORK","NY","10013","Manhattan","917-939-3590","N","08:00","05:00","08:00","05:00","08:00","05:00","08:00","05:00","08:00","05:00","08:00","05:00","08:00","05:00","40.715743","-73.997493","103","1","29","1002417","1002010026","Chinatown","
,  
(40.715743, -73.997493)"
"SOCIAL ADULT DAY CARE SERVICES","S16301","HONING ADULT DAY CARE SERVICES INC.","Honing Adult Day Care Services Inc.","135-11 40TH RD  2ND FLOOR","FLUSHING","NY","11354","Queens","718-353-8952","N","08:00","03:00","08:00","03:00","08:00","03:00","08:00","03:00","08:00","03:00","08:00","02:00","00:00","00:00","40.75887","-73.830134","407","20","871","4534330","4050367501","Flushing","
,  
(40.75887, -73.830134)"
"SOCIAL ADULT DAY CARE SERVICES","S24101","CHIFU CENTER, INC","Chifu Center, Inc","136-31 41ST AVE  UNIT 1B1","FLUSHING","NY","11355","Queens","718-321-2700","N","08:00","04:00","08:00","04:00","08:00","04:00","08:00","04:00","08:00","04:00","08:00","04:00","00:00","00:00","40.758679","-73.829073","407","20","853","4531750","4050197501","Flushing","
,  
(40.758679, -73.829073)"
"SOCIAL ADULT DAY CARE SERVICES","S49001","FAMILY ADULT DAY CARE CENTER INC","Family Adult Day Care Center Inc","2138 BATH AVENUE 1M","BROOKLYN","NY","11214","Brooklyn","718-266-2060","N","08:30","02:30","08:30","02:30","08:30","02:30","08:30","02:30","08:30","02:30","08:30","02:30","00:00","00:00","40.599269","-73.998398","311","47","292","3168955","3064467503","Bath Beach","
,  
(40.599269, -73.998398)"
"SOCIAL ADULT DAY CARE SERVICES","S59201","MELROSE PLACE ADULT DAY CARE","Melrose Place Adult Day Care","655 MORRIS AVE","BRONX","NY","10451","Bronx","347-634-9166","N","00:00","00:00","00:00","00:00","08:30","02:00","08:30","02:00","08:30","02:00","08:30","02:00","00:00","00:00","40.81963","-73.921751","201","17","65","2000000","2024410200","Melrose South-Mott Haven North","
,  
(40.81963, -73.921751)"
"SOCIAL ADULT DAY CARE SERVICES","S14401","SUNNYSIDE COMMUNITY SERVICES, INC.","Sunnyside Community Services, Inc.","43-31 39TH ST","SUNNYSIDE","NY","11104","Queens","718-784-6160","Y","09:30","03:00","09:30","03:00","09:30","03:00","09:30","03:00","09:30","03:00","00:00","00:00","00:00","00:00","40.74519","-73.925909","402","26","179","4436677","4001910005","Hunters Point-Sunnyside-West Maspeth","
,  
(40.74519, -73.925909)"
"SOCIAL ADULT DAY CARE SERVICES","S2001","ATLANTIC ADULT DAY CARE CENTER INC","Atlantic Adult Day Care Center Inc","111 WEST END AVE","BROOKLYN","NY","11235","Brooklyn","718-513-6903","N","09:00","06:00","09:00","06:00","09:00","06:00","09:00","06:00","09:00","06:00","00:00","00:00","09:00","06:00","40.578901","-73.953262","315","48","620","3246002","3087320061","Sheepshead Bay-Gerritsen Beach-Manhattan Beach","
,  
(40.578901, -73.953262)"
"SOCIAL ADULT DAY CARE SERVICES","S44001","FAMILY ADULT DAY CARE CENTER INC","Family Adult Day Care Center Inc","6106-6108 18TH AVE","BROOKLYN","NY","11204","Brooklyn","718-975-8118","N","08:30","02:30","08:30","02:30","08:30","02:30","08:30","02:30","08:30","02:30","08:30","02:30","08:30","02:30","40.621331","-73.987969","311","44","248","3132426","3055250041","Bensonhurst West","
,  
(40.621331, -73.987969)"
"SOCIAL ADULT DAY CARE SERVICES","S30501","S & J PEGASUS INC","S & J Pegasus Inc","8754 BAY 16TH ST  CELLAR","BROOKLYN","NY","11214","Brooklyn","347-702-8200","N","08:00","02:00","08:00","02:00","08:00","02:00","08:00","02:00","08:00","02:00","08:00","02:00","00:00","00:00","40.605161","-74.007231","311","43","178","3167663","3064000047","Bath Beach","
,  
(40.605161, -74.007231)"
"SOCIAL ADULT DAY CARE SERVICES","S30001","ST GEORGE ADULT DAY CARE CENTER, INC","St George Adult Day Care Center, Inc","6209 11TH AVE","BROOKLYN","NY","11219","Brooklyn","718-496-4328","N","09:00","05:00","09:00","05:00","09:00","05:00","09:00","05:00","09:00","05:00","00:00","00:00","00:00","00:00","40.630244","-74.004248","310","38","212","3141505","3057310002","Dyker Heights","
,  
(40.630244, -74.004248)"
"SOCIAL ADULT DAY CARE SERVICES","S16601","ASIAN AMERICANS FOR EQUALITY, INC.","Asian Americans For Equality, Inc.","111 NORFOLK ST","NEW YORK","NY","10002","Manhattan","212-358-9922","N","09:00","04:00","09:00","04:00","09:00","04:00","09:00","04:00","09:00","04:00","09:00","04:00","00:00","00:00","40.719036","-73.987038","103","1","18","1087047","1003530032","Chinatown","
,  
(40.719036, -73.987038)"
"SOCIAL ADULT DAY CARE SERVICES","S26601","HAPPY ADULT DAY CARE INC.","Happy Adult Day Care Inc.","4022 8TH AVE  1ST FLOOR","BROOKLYN","NY","11232","Brooklyn","347-335-0998","N","08:00","04:00","08:00","04:00","08:00","04:00","08:00","04:00","08:00","04:00","08:00","04:00","00:00","00:00","40.64655","-73.998068","307","38","90","3421639","3009197503","Sunset Park East","
,  
(40.64655, -73.998068)"
"SOCIAL ADULT DAY CARE SERVICES","S58501","INTEGRATED ADULT DAY CARE","Integrated Adult Day Care","108-11 ATLANTIC AVENUE","RICHMOND HILL","NY","11418","Queens","718-480-1090","N","09:00","05:00","09:00","05:00","09:00","05:00","09:00","05:00","09:00","05:00","00:00","00:00","00:00","00:00","40.691422","-73.837348","409","32","12601","4195452","4093150023","Richmond Hill","
,  
(40.691422, -73.837348)"
"SOCIAL ADULT DAY CARE SERVICES","S33501","ARCHCARE SENIOR LIFE","Archcare Senior Life","1432 FIFTH AVE","NEW YORK","NY","10035","Manhattan","646-289-7715","N","08:30","05:00","08:30","05:00","08:30","05:00","08:30","05:00","08:30","05:00","00:00","00:00","00:00","00:00","40.801441","-73.945911","110","9","190","1051436","1016010027","Central Harlem South","
,  
(40.801441, -73.945911)"
"SOCIAL ADULT DAY CARE SERVICES","S53001","GOLDEN EMPIRE ADULT DAY CARE CENTER INC.","Golden Empire Adult Day Care Center Inc.","154-01 NORTHERN BLVD  2/FL","FLUSHING","NY","11354","Queens","718-762-8898","N","08:00","02:00","08:00","02:00","08:00","02:00","08:00","02:00","08:00","02:00","08:00","02:00","00:00","00:00","40.764664","-73.810849","407","19","1171","4119175","4052650007","Murray Hill","
,  
(40.764664, -73.810849)"
"SOCIAL ADULT DAY CARE SERVICES","S32401","BLUE SKY ADULT DAY CARE INC","Blue Sky Adult Day Care Inc","134-40 CHERRY AVE","FLUSHING","NY","11355","Queens","917-563-7296","N","08:30","05:00","08:30","05:00","08:30","05:00","08:30","05:00","08:30","05:00","08:30","04:00","00:00","00:00","40.752251","-73.827505","407","20","79702","4607335","4051257503","Flushing","
,  
(40.752251, -73.827505)"
"SOCIAL ADULT DAY CARE SERVICES","S13201","FIFTH AVENUE SADC INC","Fifth Avenue Sadc Inc","1325 5TH AVE","NEW YORK","NY","10029","Manhattan","212-831-6100","N","08:30","06:30","08:30","06:30","08:30","06:30","08:30","06:30","08:30","06:30","08:30","05:30","00:00","00:00","40.797706","-73.948608","111","9","17402","1086046","1016170001","East Harlem South","
,  
(40.797706, -73.948608)"
"SOCIAL ADULT DAY CARE SERVICES","S31501","PROGRESSIVE COMMUNITY ADULT DAYCARE SERVICES INC.","Progressive Community Adult Daycare Services Inc.","2431 CHURCH AVE","BROOKLYN","NY","11226","Brooklyn","347-529-0080","N","08:30","05:00","08:30","05:00","08:30","05:00","08:30","05:00","08:30","05:00","00:00","00:00","00:00","00:00","40.650593","-73.954524","317","40","822","3116933","3050900082","Prospect Lefferts Gardens-Wingate","
,  
(40.650593, -73.954524)"
"SOCIAL ADULT DAY CARE SERVICES","S20001","FOREVER YOUNG II, L.L.C.","Forever Young Ii, L.l.c.","55 E 175TH ST  2ND FLOOR","BRONX","NY","10453","Bronx","718-873-2100","N","09:00","05:00","09:00","05:00","09:00","05:00","09:00","07:00","09:00","05:00","00:00","00:00","00:00","00:00","40.847256","-73.911295","205","14","22701","2115885","2028500034","Mount Hope","
,  
(40.847256, -73.911295)"
"SOCIAL ADULT DAY CARE SERVICES","S58001","SHANTINIKETAN, INC","Shantiniketan, Inc","236-03 BRADDOCK AVENUE","BELLEROSE","NY","11426","Queens","718-749-3284","N","00:00","00:00","09:00","02:30","00:00","00:00","09:00","02:30","00:00","00:00","00:00","00:00","00:00","00:00","40.727386","-73.731374","413","23","1621","4167434","4079840045","Bellerose","
,  
(40.727386, -73.731374)"
"SOCIAL ADULT DAY CARE SERVICES","S5001","SERENITY ADULT DAYCARE INC.","Serenity Adult Daycare Inc.","119-40 METROPOLITAN AVE  UNIT CU2-SUITE 101","KEW GARDENS","NY","11415","Queens","718-849-0300","N","09:00","05:00","09:00","05:00","09:00","05:00","09:00","05:00","09:00","05:00","00:00","00:00","00:00","00:00","40.706038","-73.831423","409","29","140","4311351","4092317502","Kew Gardens","
,  
(40.706038, -73.831423)"
"SOCIAL ADULT DAY CARE SERVICES","S19201","GOLDEN YEARS SENIOR PROGRAM, INC.","Golden Years Senior Program, Inc.","257-10 UNION TURNPIKE  3RD FLOOR","GLEN OAKS","NY","11004","Queens","718-740-9700","N","09:00","02:00","09:00","02:00","00:00","00:00","09:00","02:00","09:00","02:00","00:00","00:00","00:00","00:00","40.745825","-73.714197","413","23","157902","4531582","4086940027","Glen Oaks-Floral Park-New Hyde Park","
,  
(40.745825, -73.714197)"
"SOCIAL ADULT DAY CARE SERVICES","S7401","ROYAL COMMUNITY CARE CENTER INC.","Royal Community Care Center Inc.","818 CONEY ISLAND AVE","BROOKLYN","NY","11218","Brooklyn","718-535-7675","N","09:00","05:00","09:00","05:00","09:00","05:00","09:00","05:00","09:00","05:00","09:00","05:00","00:00","00:00","40.637763","-73.968368","312","40","492","3126913","3053930034","Kensington-Ocean Parkway","
,  
(40.637763, -73.968368)"
"SOCIAL ADULT DAY CARE SERVICES","S33201","GREATER NEW YORK SOCIAL AND HEALTH ADULT DAY CARE CENTER, LL","Greater New York Social And Health Adult Day Care Center, Ll","132-06 MAPLE AVENUE  1ST FLOOR","FLUSHING","NY","11355","Queens","347-392-3699","N","07:00","04:30","07:00","04:30","07:00","04:30","07:00","04:30","07:00","04:30","07:00","04:30","07:00","03:30","40.753872","-73.832381","407","20","849","4594686","4051020009","Flushing","
,  
(40.753872, -73.832381)"
"SOCIAL ADULT DAY CARE SERVICES","S27301","CHINESE CHRISTIAN HERALD CRUSADES, INC.","Chinese Christian Herald Crusades, Inc.","156-03 HORACE HARDING EXPY","FLUSHING","NY","11367","Queens","718-359-2030","N","09:00","01:00","09:00","01:00","09:00","01:00","09:00","01:00","09:00","01:00","00:00","00:00","00:00","00:00","40.738948","-73.812113","407","20","1215","4146290","4067340001","Queensboro Hill","
,  
(40.738948, -73.812113)"
"SOCIAL ADULT DAY CARE SERVICES","S56401","DORAL ADULT DAY CARE PROGRAM LLC","Doral Adult Day Care Program Llc","1797 PITKIN AVENUE","BROOKLYN","NY","11212","Brooklyn","718-922-9200","N","08:00","05:00","08:00","05:00","08:00","05:00","08:00","05:00","08:00","05:00","00:00","00:00","00:00","00:00","40.670307","-73.906609","316","37","908","3083740","3037090034","Brownsville","
,  
(40.670307, -73.906609)"
"SOCIAL ADULT DAY CARE SERVICES","S4001","RICHMOND ADULT DAY CENTER, INC.","Richmond Adult Day Center, Inc.","2015 FOREST AVE","STATEN ISLAND","NY","10303","Staten Island","718-524-7543","N","08:00","02:00","00:00","00:00","08:00","02:00","11:00","04:00","08:00","02:00","00:00","00:00","00:00","00:00","40.625985","-74.156217","501","49","231","5027668","5012220001","Mariner's Harbor-Arlington-Port Ivory-Graniteville","
,  
(40.625985, -74.156217)"
"SOCIAL ADULT DAY CARE SERVICES","S34601","EVERGREEN ADULT DAYCARE CENTER INC","Evergreen Adult Daycare Center Inc","150-12 ROOSEVELT AVE  1 FL","FLUSHING","NY","11354","Queens","917-563-1214","N","07:00","04:00","07:00","04:00","07:00","04:00","07:00","04:00","07:00","04:00","07:00","12:00","00:00","00:00","40.763807","-73.813949","407","20","1167","4114092","4050340023","Murray Hill","
,  
(40.763807, -73.813949)"
"SOCIAL ADULT DAY CARE SERVICES","S45301","ORIENTAL SENIOR DAY CARE","Oriental Senior Day Care","779 47TH STREET 2FL  2FL","BROOKLYN","NY","11220","Brooklyn","718-851-8898","N","08:00","03:00","08:00","03:00","08:00","03:00","08:00","03:00","08:00","03:00","08:00","03:00","08:00","03:00","40.643193","-74.002602","307","38","94","3012068","3007590044","Sunset Park East","
,  
(40.643193, -74.002602)"
"SOCIAL ADULT DAY CARE SERVICES","S39501","KINGS COMMUNITY CENTER INC","Kings Community Center Inc","856 39TH ST","BROOKLYN","NY","11232","Brooklyn","718-676-9078","N","08:30","02:00","08:30","02:00","08:30","02:00","08:30","02:00","08:30","02:00","08:30","02:00","08:30","02:00","40.646537","-73.996097","312","38","90","3017933","3009160024","Sunset Park East","
,  
(40.646537, -73.996097)"
"SOCIAL ADULT DAY CARE SERVICES","S49301","TENDER HEARTS SOCIAL CARE INC","Tender Hearts Social Care Inc","1343 WEBSTER AVE","BRONX","NY","10456","Bronx","718-684-3008","N","08:30","05:30","08:30","05:30","08:30","05:30","08:30","05:30","08:30","05:30","00:00","00:00","00:00","00:00","40.835643","-73.907747","204","16","17702","2000000","2028870169","East Concourse-Concourse Village","
,  
(40.835643, -73.907747)"
"SOCIAL ADULT DAY CARE SERVICES","S46401","CRYSTAL ADULT SOCIAL DAY CARE LLC","Crystal Adult Social Day Care Llc","138-31 QUEENS BLVD  GROUND FLOOR","JAMAICA","NY","11435","Queens","718-642-0011","N","08:30","02:00","08:30","02:00","08:30","02:00","08:30","02:00","08:30","02:00","00:00","00:00","08:30","02:00","40.708216","-73.818028","408","24","214","4206512","4096490025","Briarwood-Jamaica Hills","
,  
(40.708216, -73.818028)"
"SOCIAL ADULT DAY CARE SERVICES","S55501","GOLDEN AGE OF BROOKLYN LLC","Golden Age Of Brooklyn Llc","409 BAY RIDGE AVE","BROOKLYN","NY","11220","Brooklyn","718-277-2400","N","09:30","06:30","09:30","06:30","09:30","06:30","09:30","06:30","09:30","06:30","00:00","00:00","00:00","00:00","40.634386","-74.022994","310","43","130","3145312","3058640078","Bay Ridge","
,  
(40.634386, -74.022994)"
"SOCIAL ADULT DAY CARE SERVICES","S1401","SUNNY DAY SOCIAL ADULT DAY CARE CORP.","Sunny Day Social Adult Day Care Corp.","6218 20TH AVE  1ST FLOOR","BROOKLYN","NY","11204","Brooklyn","718-232-5992","N","08:00","03:00","08:00","03:00","08:00","03:00","08:00","03:00","08:00","03:00","08:00","03:00","08:00","03:00","40.618091","-73.984241","311","47","254","3132875","3055340048","Bensonhurst West","
,  
(40.618091, -73.984241)"
"SOCIAL ADULT DAY CARE SERVICES","S47901","YLC 2 ADULT DAYCARE INC","Ylc 2 Adult Daycare Inc","7814 ROOSEVELT AVE  2ND FLOOR SUITE 1","JACKSON HEIGHTS","NY","11372","Queens","718-899-1691","N","09:00","05:00","09:00","05:00","09:00","05:00","09:00","05:00","09:00","05:00","00:00","00:00","00:00","00:00","40.747259","-73.887439","404","25","267","4036807","4014897501","Elmhurst","
,  
(40.747259, -73.887439)"
"SOCIAL ADULT DAY CARE SERVICES","S38601","BAINBRIDGE ADULT DAY CARE CENTER I, LLC","Bainbridge Adult Day Care Center I, Llc","3093 OCEAN AVE","BK","NY","11235","Brooklyn","718-891-2345","N","00:00","00:00","02:30","06:30","02:30","06:30","00:00","00:00","00:00","00:00","00:00","00:00","02:30","06:30","40.58569","-73.9488","315","48","600","3251376","3087760082","Sheepshead Bay-Gerritsen Beach-Manhattan Beach","
,  
(40.58569, -73.9488)"
"SOCIAL ADULT DAY CARE SERVICES","S32101","CATHOLIC MANAGED LONG TERM CARE, INC.","Catholic Managed Long Term Care, Inc.","900 INTERVALE AVE","BRONX","NY","10463","Bronx","718-732-7171","N","08:30","04:00","08:30","04:00","08:30","04:30","08:30","04:30","08:30","04:30","00:00","00:00","00:00","00:00","40.819332","-73.89584","202","17","87","2086555","2027110028","Longwood","
,  
(40.819332, -73.89584)"
"SOCIAL ADULT DAY CARE SERVICES","S24601","AN-NOOR SOCIAL CENTER, INC.","An-noor Social Center, Inc.","7114 5TH AVE","BROOKLYN","NY","11209","Brooklyn","718-836-3289","N","10:00","02:00","10:00","02:00","10:00","02:00","10:00","02:00","10:00","02:00","00:00","00:00","00:00","00:00","40.632361","-74.021476","310","43","130","3146608","3058920050","Bay Ridge","
,  
(40.632361, -74.021476)"
"SOCIAL ADULT DAY CARE SERVICES","S36701","OCEANVIEW ADULT DAY CARE INC","Oceanview Adult Day Care Inc","2910W 32ND ST  GROUND FLOOR","BROOKLYN","NY","11223","Brooklyn","347-462-9600","N","09:00","05:00","09:00","05:00","09:00","05:00","09:00","05:00","09:00","05:00","00:00","00:00","00:00","00:00","40.575035","-73.998557","313","47","342","3189513","3070480007","Seagate-Coney Island","
,  
(40.575035, -73.998557)"
"SOCIAL ADULT DAY CARE SERVICES","S41301","HAPPY HEALTHY ADULT DAYCARE INC.","Happy Healthy Adult Daycare Inc.","950 41ST  STREET","BROOKLYN","NY","11219","Brooklyn","347-916-3355","N","07:30","04:00","07:30","04:00","07:30","04:00","07:30","04:00","07:30","04:00","07:30","04:00","00:00","00:00","40.644201","-73.995247","312","38","112","3396976","3055907503","Sunset Park East","
,  
(40.644201, -73.995247)"
"SOCIAL ADULT DAY CARE SERVICES","S39301","QUEENS BOROUGH ADULT DAY CARE, LLC","Queens Borough Adult Day Care, Llc","141-52 33RD AVENUE","FLUSHING","NY","11354","Queens","347-732-0907","N","08:30","06:30","08:30","06:30","08:30","06:30","08:30","06:30","08:30","01:30","08:30","01:30","00:00","00:00","40.76809","-73.825179","407","20","1161","4594824","4049817504","Flushing","
,  
(40.76809, -73.825179)"
"SOCIAL ADULT DAY CARE SERVICES","S20701","HERITAGE ADULT CARE, LLC","Heritage Adult Care, Llc","86-01 ROCKAWAY BEACH BLVD","ROCKAWAY BEACH","NY","11693","Queens","718-318-0100","N","08:30","06:30","08:30","06:30","08:30","06:30","08:30","01:30","08:30","06:30","09:00","01:30","00:00","00:00","40.587539","-73.811387","414","32","94203","4303596","4161310010","Hammels-Arverne-Edgemere","
,  
(40.587539, -73.811387)"
"SOCIAL ADULT DAY CARE SERVICES","S26301","CATHOLIC CHARITIES NEIGHBORHOOD SERVICES, INC.","Catholic Charities Neighborhood Services, Inc.","190-04 119 AVENUE","ST. ALBANS","NY","11432","Queens","718-358-3541","Y","09:00","03:00","09:00","03:00","09:00","03:00","09:00","03:00","09:00","03:00","00:00","00:00","00:00","00:00","40.688997","-73.75968","412","27","394","4272513","4126460001","St. Albans","
,  
(40.688997, -73.75968)"
"SOCIAL ADULT DAY CARE SERVICES","S12101","CROWN GARDEN ADULT DAYCARE CENTER INC.","Crown Garden Adult Daycare Center Inc.","1743 81TH ST  LOWER LEVEL","BROOKLYN","NY","11214","Brooklyn","718-759-6180","N","08:00","04:00","08:00","04:00","08:00","04:00","08:00","04:00","08:00","04:00","08:00","04:00","08:00","04:00","40.610687","-74.000655","311","43","276","3163307","3062840067","Bensonhurst West","
,  
(40.610687, -74.000655)"
"SOCIAL ADULT DAY CARE SERVICES","S30401","AIM ADULT DAY CARE SERVICES LLC","Aim Adult Day Care Services Llc","1930 BEDFORD AVE","BROOKLYN","NY","11225","Brooklyn","718-855-6666","N","09:30","02:00","09:30","02:00","09:30","02:00","09:30","02:00","00:00","00:00","00:00","00:00","00:00","00:00","40.657963","-73.956624","309","40","79601","3115521","3050420060","Prospect Lefferts Gardens-Wingate","
,  
(40.657963, -73.956624)"
"SOCIAL ADULT DAY CARE SERVICES","S45601","CIRCLE OF FRIENDS KINGS LLC","Circle Of Friends Kings Llc","18 BRIGHTON 11TH STREET","BROOKLYN","NY","11235","Brooklyn","718-373-1520","N","08:30","06:00","08:30","06:00","08:30","06:00","08:30","06:00","08:30","06:00","08:30","02:00","08:30","02:00","40.581831","-73.956378","313","48","61004","3245361","3087070375","Brighton Beach","
,  
(40.581831, -73.956378)"
"SOCIAL ADULT DAY CARE SERVICES","S17601","NEW START DAY CARE CENTER INC. DBA NEW LIFE DAY CARE CENTER","New Start Day Care Center Inc. Dba New Life Day Care Center","1758 CROPSEY AVE  2ND FLOOR","BROOKLYN","NY","11214","Brooklyn","718-232-0211","N","09:00","07:00","09:00","07:00","09:00","07:00","09:00","07:00","09:00","07:00","09:00","02:00","09:00","02:00","40.603018","-74.008189","311","43","176","3169619","3064630045","Bath Beach","
,  
(40.603018, -74.008189)"
"SOCIAL ADULT DAY CARE SERVICES","S11701","HEART TO HEART SOCIAL ADULT SERVICES LLC","Heart To Heart Social Adult Services Llc","209 EMPIRE BLVD","BROOKLYN","NY","11225","Brooklyn","718-305-6200","N","08:00","05:30","08:00","05:30","08:00","05:30","08:00","05:30","08:00","05:30","08:00","03:30","00:00","00:00","40.663644","-73.955319","309","35","323","3034496","3013070061","Crown Heights South","
,  
(40.663644, -73.955319)"
"SOCIAL ADULT DAY CARE SERVICES","S14101","HESTIA CARE, INC.","Hestia Care, Inc.","41-60 MAIN ST  SUITE 201E","FLUSHING","NY","11355","Queens","718-619-4499","N","08:00","04:00","08:00","04:00","08:00","04:00","08:00","04:00","08:00","04:00","08:30","12:00","00:00","00:00","40.756477","-73.828725","407","20","849","4467591","4051210020","Flushing","
,  
(40.756477, -73.828725)"
"SOCIAL ADULT DAY CARE SERVICES","S49201","LEFFERTS GARDEN ADULT DAY CARE LLC","Lefferts Garden Adult Day Care Llc","1289 NOSTRAND AVENUE","BROOKLYN","NY","11226","Brooklyn","917-476-4740","N","09:00","05:00","09:00","05:00","09:00","05:00","09:00","05:00","09:00","05:00","00:00","00:00","00:00","00:00","40.655592","-73.950073","309","40","804","3327688","3048280001","Prospect Lefferts Gardens-Wingate","
,  
(40.655592, -73.950073)"
"SOCIAL ADULT DAY CARE SERVICES","S46001","BOULEVARD ADULT DAY CARE OF FLUSHING","Boulevard Adult Day Care Of Flushing","158-13 72ND AVE","FLUSHING","NY","11365","Queens","718-473-3929","N","09:00","05:00","09:00","05:00","09:00","05:00","09:00","05:00","09:00","05:00","09:00","05:00","09:00","05:00","40.727863","-73.810824","408","24","122701","4147000","4067977503","Pomonok-Flushing Heights-Hillcrest","
,  
(40.727863, -73.810824)"
"SOCIAL ADULT DAY CARE SERVICES","S24701","TRI-MED SOCIAL ADULT DAY SERVICES, INC.","Tri-med Social Adult Day Services, Inc.","1612 CENTRAL AVE  1ST FLOOR","FAR ROCKAWAY","NY","11691","Queens","718-483-1900","N","09:00","02:30","00:00","00:00","09:00","02:30","00:00","00:00","09:00","02:30","00:00","00:00","00:00","00:00","40.604966","-73.752186","414","31","103202","4297968","4155370148","Far Rockaway-Bayswater","
,  
(40.604966, -73.752186)"
"SOCIAL ADULT DAY CARE SERVICES","S15901","COMFORT ADULT DAY CARE CENTER, INC.","Comfort Adult Day Care Center, Inc.","100-05 ROOSEVELT AVENUE  1ST FLOOR","CORONA","NY","11368","Queens","718-651-5700","N","08:00","02:30","08:00","02:30","08:00","07:00","08:00","07:00","08:00","07:00","09:00","02:00","00:00","00:00","40.749598","-73.865408","403","21","407","4044345","4017700007","North Corona","
,  
(40.749598, -73.865408)"
"SOCIAL ADULT DAY CARE SERVICES","S12201","SECOND HOME SOCIAL ADULT DAY CARE, INC.","Second Home Social Adult Day Care, Inc.","4102 13TH AVE","BROOKLYN","NY","11219","Brooklyn","718-517-2400","N","09:00","04:00","09:00","04:00","09:00","04:00","09:00","04:00","09:00","04:00","00:00","00:00","09:00","04:00","40.639416","-73.987562","312","39","224","3412923","3055937514","Borough Park","
,  
(40.639416, -73.987562)"
"SOCIAL ADULT DAY CARE SERVICES","S46701","NEW YORK ADULT DAY CARE CENTER CORP","New York Adult Day Care Center Corp","35-14 150PLACE","FLUSHING","NY","11354","Queens","718-888-1044","N","08:00","01:30","08:00","01:30","08:00","01:30","08:00","01:30","08:00","01:30","00:00","00:00","00:00","00:00","40.766135","-73.814228","407","20","1157","4113277","4050080023","Murray Hill","
,  
(40.766135, -73.814228)"
"SOCIAL ADULT DAY CARE SERVICES","S50601","HAPPY FAMILY SOCIAL ADULT CENTER INC","Happy Family Social Adult Center Inc","8895 26TH AVENUE  GROUND FLOOR","BROOKLYN","NY","11214","Brooklyn","718-208-4684","N","08:00","08:00","08:00","08:00","08:00","08:00","08:00","08:00","08:00","08:00","08:00","08:00","08:00","08:00","40.59071","-73.991164","313","43","314","3397090","3069107501","Gravesend","
,  
(40.59071, -73.991164)"
"SOCIAL ADULT DAY CARE SERVICES","S18201","GOLDEN DREAMS DAY CENTER INC.","Golden Dreams Day Center Inc.","1521 70TH ST","BROOKLYN","NY","11228","Brooklyn","718-232-7500","N","09:00","07:00","09:00","07:00","09:00","07:00","09:00","07:00","09:00","07:00","09:00","02:00","09:00","02:00","40.620132","-73.999474","311","43","190","3156621","3061580073","Bensonhurst West","
,  
(40.620132, -73.999474)"
"SOCIAL ADULT DAY CARE SERVICES","S18501","KENT SENIOR CARE INC.","Kent Senior Care Inc.","144-89 38TH AVE UNIT CF1","FLUSHING","NY","11354","Queens","718-269-3266","N","08:30","05:00","08:30","05:00","08:30","05:00","08:30","05:00","08:30","05:00","08:30","04:00","00:00","00:00","40.763586","-73.819552","407","20","1163","4113487","4050150048","Murray Hill","
,  
(40.763586, -73.819552)"
"SOCIAL ADULT DAY CARE SERVICES","S37601","EAST NY ADULT DAY CARE LLC","East Ny Adult Day Care Llc","89-31 161ST ST  2ND FLOOR","JAMAICA","NY","11432","Queens","718-206-2254","N","08:00","02:00","08:00","02:00","08:00","02:00","08:00","02:00","08:00","02:00","00:00","00:00","00:00","00:00","40.706034","-73.799751","412","24","44601","4208869","4097600027","Jamaica","
,  
(40.706034, -73.799751)"
"SOCIAL ADULT DAY CARE SERVICES","S46201","GREAT GRACE CARE CORP","Great Grace Care Corp","35-06 LEAVITT ST  UNIT CF-E","FLUSHING","NY","11354","Queens","718-762-9200","N","08:00","04:00","08:00","04:00","08:00","04:00","08:00","04:00","08:00","04:00","08:00","04:00","08:00","04:00","40.764871","-73.829007","407","20","869","4534609","4049607501","Flushing","
,  
(40.764871, -73.829007)"
"SOCIAL ADULT DAY CARE SERVICES","S54901","GREAT GRACE CARE CORP","Great Grace Care Corp","132-40 41ST AVE  BASEMENT","FLUSHING","NY","11355","Queens","718-762-9100","N","08:00","04:00","08:00","04:00","08:00","04:00","08:00","04:00","08:00","04:00","08:00","04:00","00:00","00:00","40.756643","-73.832933","407","20","849","4530438","4050390121","Flushing","
,  
(40.756643, -73.832933)"
"SOCIAL ADULT DAY CARE SERVICES","S10601","HONG NING ADULT DAYCARE SERVICES INC.","Hong Ning Adult Daycare Services Inc.","745 58TH ST  GROUND FLOOR","BROOKLYN","NY","11220","Brooklyn","718-439-4920","N","08:00","04:00","08:00","04:00","08:00","04:00","08:00","04:00","08:00","04:00","08:00","04:00","08:00","04:00","40.637355","-74.009545","307","38","104","3397580","3008507501","Sunset Park East","
,  
(40.637355, -74.009545)"
"SOCIAL ADULT DAY CARE SERVICES","S13801","FOUR SEASONS SOCIAL DAY CARE LLC","Four Seasons Social Day Care Llc","1222 EAST 96TH ST","BROOKLYN","NY","11236","Brooklyn","718-688-8704","N","00:00","00:00","09:00","02:00","00:00","00:00","09:00","02:00","00:00","00:00","00:00","00:00","00:00","00:00","40.64172","-73.899893","318","46","966","3230089","3082030078","Canarsie","
,  
(40.64172, -73.899893)"
"SOCIAL ADULT DAY CARE SERVICES","S33401","NEW YORK ADULT DAY CARE CENTER CORP.","New York Adult Day Care Center Corp.","136-03 35TH AVE  1ST FLOOR","FLUSHING","NY","11354","Queens","718-359-7878","N","08:30","01:30","08:30","01:30","08:30","01:30","08:30","01:30","08:30","01:30","08:30","01:30","00:00","00:00","40.764777","-73.830444","407","20","88901","4112027","4049510001","Flushing","
,  
(40.764777, -73.830444)"
"SOCIAL ADULT DAY CARE SERVICES","S38701","GOLDEN ERA SOCIAL ADULT DAY CARE INC","Golden Era Social Adult Day Care Inc","3863 10TH AVENUE  2ND","NEW YORK","NY","10034","Manhattan","212-796-4500","N","08:00","06:00","08:00","06:00","08:00","06:00","08:00","06:00","08:00","06:00","08:00","04:00","00:00","00:00","40.864147","-73.919153","112","10","299","1064510","1022030005","Marble Hill-Inwood","
,  
(40.864147, -73.919153)"
"SOCIAL ADULT DAY CARE SERVICES","S4201","GOLDEN YEARS ADULT DAY CARE CENTER LLC","Golden Years Adult Day Care Center Llc","135 CANAL ST","STATEN ISLAND","NY","10304","Staten Island","718-815-1101","N","09:00","06:00","09:00","06:00","09:00","06:00","09:00","06:00","09:00","06:00","09:00","06:00","09:00","06:00","40.62669","-74.078048","501","49","21","5013793","5005270001","Stapleton-Rosebank","
,  
(40.62669, -74.078048)"
"SOCIAL ADULT DAY CARE SERVICES","S29801","ORIENTAL SENIOR DAY CARE INC.","Oriental Senior Day Care Inc.","8718 BAY PKWY  4TH FLOOR 5TH FLOOR","BROOKLYN","NY","11214","Brooklyn","347-702-7558","N","08:00","03:00","08:00","03:00","08:00","03:00","08:00","03:00","08:00","03:00","08:00","03:00","00:00","00:00","40.599527","-73.996341","311","47","292","3168020","3064140055","Bath Beach","
,  
(40.599527, -73.996341)"
"SOCIAL ADULT DAY CARE SERVICES","S8401","AA PLUS MANAGEMENT, INC.","Aa Plus Management, Inc.","225 PARK ROW  1ST FLOOR","NEW YORK","NY","10038","Manhattan","212-619-1088","N","08:30","03:00","08:30","03:00","08:30","03:00","08:30","03:00","08:30","03:00","08:30","02:00","00:00","00:00","40.71335","-73.998885","103","1","27","1077406","1001170001","Chinatown","
,  
(40.71335, -73.998885)"
"SOCIAL ADULT DAY CARE SERVICES","S5401","RENAISSANCE ADULT DAY SERVICES - BEDFORD LLC","Renaissance Adult Day Services - Bedford Llc","2625 BEDFORD AVE","BROOKLYN","NY","11226","Brooklyn","718-408-8891","N","09:00","05:00","09:00","05:00","09:00","05:00","09:00","05:00","09:00","03:00","00:00","00:00","00:00","00:00","40.63907","-73.954089","317","45","790","3328271","3052110074","Erasmus","
,  
(40.63907, -73.954089)"
"SOCIAL ADULT DAY CARE SERVICES","S5101","WOODHAVEN ADULT DAYCARE INC","Woodhaven Adult Daycare Inc","96-01 JAMAICA AVE","WOODHAVEN","NY","11421","Queens","718-850-5700","N","09:00","04:00","09:00","04:00","09:00","04:00","09:00","04:00","09:00","04:00","09:00","04:00","00:00","00:00","40.694529","-73.849064","409","32","22","4182667","4088920071","Woodhaven","
,  
(40.694529, -73.849064)"
"SOCIAL ADULT DAY CARE SERVICES","S19901","HALLELUJAH ADULT DAY CARE, INC.","Hallelujah Adult Day Care, Inc.","160-18 NORTHERN BLVD  2ND FLOOR","FLUSHING","NY","11358","Queens","718-886-1261","N","08:00","04:00","08:00","04:00","08:00","04:00","08:00","04:00","08:00","04:00","00:00","00:00","00:00","00:00","40.7628","-73.805281","407","20","1171","4120447","4053350058","Murray Hill","
,  
(40.7628, -73.805281)"
"SOCIAL ADULT DAY CARE SERVICES","S54201","IYAHO ADULT DAY CARE LLC","Iyaho Adult Day Care Llc","1554 MINFORD PLACE  3RD","BRONX","NY","10460","Bronx","917-601-0669","N","08:00","06:00","08:00","06:00","08:00","06:00","08:00","06:00","08:00","06:00","00:00","00:00","00:00","00:00","40.834901","-73.890322","203","17","155","2124572","2029770142","Crotona Park East","
,  
(40.834901, -73.890322)"
"SOCIAL ADULT DAY CARE SERVICES","S22401","HINDU CHARITIES, INC.","Hindu Charities, Inc.","118- 09 SUTTER AVE","OZONE PARK","NY","11420","Queens","718-323-8900","N","09:00","02:00","09:00","02:00","09:00","02:00","09:00","02:00","09:00","02:00","00:00","00:00","00:00","00:00","40.674319","-73.820497","410","28","840","4253478","4117110004","South Ozone Park","
,  
(40.674319, -73.820497)"
"SOCIAL ADULT DAY CARE SERVICES","S46601","CONFUCIUS SOCIAL DAYCARE CENTER INC.","Confucius Social Daycare Center Inc.","33 BOWERY 2ND FLOOR","NEW YORK","NY","10002","Manhattan","212-226-2338","N","09:00","06:00","09:00","06:00","09:00","06:00","09:00","06:00","09:00","06:00","09:00","03:00","00:00","00:00","40.715208","-73.996692","103","1","16","1075787","1002890001","Chinatown","
,  
(40.715208, -73.996692)"
"SOCIAL ADULT DAY CARE SERVICES","S20501","BAO KANG ADULT DAY CARE CENTER INC.","Bao Kang Adult Day Care Center Inc.","132-29 BLOSSOM AVE  GROUND FLOOR","FLUSHING","NY","11355","Queens","718-939-1888","N","07:30","03:00","07:30","03:00","07:30","03:00","07:30","03:00","07:30","03:00","07:30","02:00","08:00","02:00","40.751673","-73.831726","407","20","79702","4541376","4051057505","Flushing","
,  
(40.751673, -73.831726)"
"SOCIAL ADULT DAY CARE SERVICES","S44201","CAIPA SOCIAL DAYCARE CENTER LLC","Caipa Social Daycare Center Llc","5721 6TH AVENUE","BROOKLYN","NY","11220","Brooklyn","347-889-6552","N","09:00","05:00","09:00","05:00","09:00","05:00","09:00","05:00","09:00","05:00","09:00","05:00","00:00","00:00","40.639688","-74.012355","307","38","102","3015780","3008490001","Sunset Park East","
,  
(40.639688, -74.012355)"
"SOCIAL ADULT DAY CARE SERVICES","S23201","GRACIOUS CARE AGENCY LLC","Gracious Care Agency Llc","8801 FLATLANDS AVE","BROOKLYN","NY","11236","Brooklyn","917-392-6930","N","09:00","03:00","00:00","00:00","09:00","03:00","09:00","03:00","00:00","00:00","00:00","00:00","00:00","00:00","40.639349","-73.907352","318","46","964","3224613","3080090009","Canarsie","
,  
(40.639349, -73.907352)"
"SOCIAL ADULT DAY CARE SERVICES","S20301","CHINATOWN SENIOR SERVICE INC.","Chinatown Senior Service Inc.","90 LUDLOW ST  2ND FLOOR","NEW YORK","NY","10002","Manhattan","212-598-5878","N","07:00","04:00","07:00","04:00","07:00","04:00","07:00","04:00","07:00","04:00","07:00","04:00","00:00","00:00","40.718331","-73.989239","103","1","18","1082501","1004090039","Chinatown","
,  
(40.718331, -73.989239)"
"SOCIAL ADULT DAY CARE SERVICES","S37401","CHRIST DISCIPLES INTERNATIONAL MINISTRIES INC","Christ Disciples International Ministries Inc","399 EAST MOSHOLU PKWY NORTH  GROUND FLOOR","BRONX","NY","10467","Bronx","646-294-7726","N","10:00","01:00","10:00","01:00","00:00","00:00","10:00","01:00","10:00","01:00","00:00","00:00","00:00","00:00","40.869687","-73.879751","207","11","425","2017907","2033310080","Norwood","
,  
(40.869687, -73.879751)"
"SOCIAL ADULT DAY CARE SERVICES","S56901","EAGLES ADULT DAY CARE INC","Eagles Adult Day Care Inc","1221-1223  BAY ST","STATEN  ISLAND","NY","10305","Staten Island","917-605-1240","N","09:00","05:00","09:00","05:00","09:00","04:00","09:00","04:00","09:00","04:00","09:00","04:00","00:00","00:00","40.613611","-74.065769","501","49","6","5042167","5028300001","Stapleton-Rosebank","
,  
(40.613611, -74.065769)"
"SOCIAL ADULT DAY CARE SERVICES","S28601","FIESTA ADULT DAY CARE LLC","Fiesta Adult Day Care Llc","1777 BROADWAY","BROOKLYN","NY","11207",,"718-576-6336","N","08:00","04:00","08:00","04:00","08:00","04:00","08:00","04:00","08:00","04:00","00:00","00:00","00:00","00:00","40.682403","-73.909556","304","37","403",,,"Bushwick South","
,  
(40.682403, -73.909556)"
"SOCIAL ADULT DAY CARE SERVICES","S37801","EVERGREEN ADULT DAYCARE IN NY, INC.","Evergreen Adult Daycare In Ny, Inc.","37-10 149 PLACE  1A","FLUSHING","NY","11354","Queens","718-321-2112","N","08:00","04:00","08:00","04:00","08:00","04:00","08:00","04:00","08:00","04:00","08:00","01:00","00:00","00:00","40.765159","-73.816107","407","20","1157","4483670","4050177502","Murray Hill","
,  
(40.765159, -73.816107)"
"SOCIAL ADULT DAY CARE SERVICES","S5701","ROCKAWAY ADULT SOCIAL CENTER LLC","Rockaway Adult Social Center Llc","1858 CORNAGA AVE","FAR ROCKAWAY","NY","11691","Queens","347-926-4134","N","09:00","05:00","09:00","05:00","09:00","05:00","09:00","05:00","09:00","05:00","00:00","00:00","00:00","00:00","40.602293","-73.751101","414","31","101001","4518605","4155600054","Far Rockaway-Bayswater","
,  
(40.602293, -73.751101)"
"SOCIAL ADULT DAY CARE SERVICES","S43401","SUNRISE SENIOR SERVICE LLC","Sunrise Senior Service Llc","105-05 NORTHERN BOULEVARD  1ST FLOOR","QUEENS","NY","11368","Queens","347-935-3101","N","09:00","02:00","09:00","02:00","09:00","02:00","09:00","02:00","09:00","02:00","09:00","01:00","00:00","00:00","40.75774","-73.863554","403","21","365","4042144","4017000043","East Elmhurst","
,  
(40.75774, -73.863554)"
"SOCIAL ADULT DAY CARE SERVICES","S36401","MARINA SENIOR CENTER, INC.","Marina Senior Center, Inc.","625 MIDLAND AVE","STATEN ISLAND","NY","10306","Staten Island","718-668-1001","N","09:00","06:00","09:00","06:00","09:00","06:00","09:00","06:00","09:00","06:00","00:00","00:00","00:00","00:00","40.571392","-74.091392","502","50","11202","5054750","5038130001","New Dorp-Midland Beach","
,  
(40.571392, -74.091392)"
"SOCIAL ADULT DAY CARE SERVICES","S2201","CANARSIE ADULT LIVING INC.","Canarsie Adult Living Inc.","1880 ROCKAWAY PKWY","BROOKLYN","NY","11236","Brooklyn","718-513-0776","N","09:00","02:00","09:00","02:00","09:00","02:00","09:00","02:00","09:00","02:00","00:00","00:00","00:00","00:00","40.636413","-73.892612","318","46","1010","3233705","3082800058","Canarsie","
,  
(40.636413, -73.892612)"
"SOCIAL ADULT DAY CARE SERVICES","S29901","REGO PARK SENIORS CLUB LLC","Rego Park Seniors Club Llc","6336 99TH ST","REGO PARK","NY","11374","Queens","718-459-2555","N","08:00","03:00","08:00","03:00","08:00","03:00","08:00","03:00","08:00","03:00","00:00","00:00","08:00","03:00","40.732065","-73.856834","406","29","71701","4539585","4020997502","Rego Park","
,  
(40.732065, -73.856834)"
"SOCIAL ADULT DAY CARE SERVICES","S38901","DYKER SENIOR CENTER, INC.","Dyker Senior Center, Inc.","6713 11TH AVE.","BROOKLYN","NY","11219","Brooklyn","718-331-8388","N","07:00","05:00","07:00","05:00","07:00","05:00","07:00","05:00","07:00","05:00","07:00","01:00","00:00","00:00","40.627317","-74.007292","310","43","210","3336313","3057660008","Dyker Heights","
,  
(40.627317, -74.007292)"
"SOCIAL ADULT DAY CARE SERVICES","S50201","BRIGHTSIDE ADULT CENTER","Brightside Adult Center","2801 EMMONS AVENUE","BROOKLYN","NY","11235","Brooklyn","973-868-0424","N","09:00","06:00","09:00","06:00","09:00","06:00","09:00","06:00","09:00","06:00","09:00","03:00","00:00","00:00","40.583847","-73.940579","315","48","608","3247460","3087920063","Sheepshead Bay-Gerritsen Beach-Manhattan Beach","
,  
(40.583847, -73.940579)"
"SOCIAL ADULT DAY CARE SERVICES","S31701","CONFUCIUS SOCIAL DAYCARE CENTER INC.","Confucius Social Daycare Center Inc.","98 EAST BROADWAY  2ND FLOOR","NEW YORK","NY","10002","Manhattan","646-206-2819","N","08:00","06:00","08:00","06:00","08:00","06:00","08:00","06:00","08:00","06:00","08:00","06:00","00:00","00:00","40.713792","-73.993482","103","1","8","1003548","1002827501","Chinatown","
,  
(40.713792, -73.993482)"
"SOCIAL ADULT DAY CARE SERVICES","S9701","SUNNY ADULT DAY CARE CENTER, INC.","Sunny Adult Day Care Center, Inc.","147-05 ELM AVE","FLUSHING","NY","11355","Queens","718-358-0890","N","08:00","03:00","08:00","03:00","08:00","03:00","08:00","03:00","08:00","03:00","08:00","03:00","00:00","00:00","40.756229","-73.815251","407","20","1189","4531842","4054050038","East Flushing","
,  
(40.756229, -73.815251)"
"SOCIAL ADULT DAY CARE SERVICES","S52201","AM SOCIAL ADULT DAYCARE INC","Am Social Adult Daycare Inc","41-28 HAIGHT STREET  C1","FLUSHING","NY","11355","Queens","917-292-5588","N","08:30","02:30","08:30","02:30","08:30","02:30","08:30","02:30","08:30","02:30","08:30","02:30","08:30","02:30","40.755371","-73.834344","407","20","849","4518699","4050627501","Flushing","
,  
(40.755371, -73.834344)"
"SOCIAL ADULT DAY CARE SERVICES","S46501","HANNA Z ADULT DAY CARE","Hanna Z Adult Day Care","1547 ST NICHOLAS AVE","NEW YORK","NY","10040","Manhattan","800-352-1102","N","09:00","05:30","09:00","05:30","09:00","05:30","09:00","05:30","09:00","05:30","00:00","00:00","00:00","00:00","40.853308","-73.930828","112","10","279","1063998","1021680019","Washington Heights North","
,  
(40.853308, -73.930828)"
"SOCIAL ADULT DAY CARE SERVICES","S57101","MERRY ADULT DAY CARE INC","Merry Adult Day Care Inc","135-10 35TH AVE #1A  1FL","FLUSHING","NY","11354","Queens","718-321-0069","N","08:30","04:30","08:30","04:30","08:30","04:30","08:30","04:30","08:30","04:30","08:30","04:30","00:00","00:00","40.764504","-73.831531","407","20","869","4112140","4049597501","Flushing","
,  
(40.764504, -73.831531)"
"SOCIAL ADULT DAY CARE SERVICES","S26801","HANNA Z ADULT DAYCARE INC.","Hanna Z Adult Daycare Inc.","2559 WEST 13TH ST","BROOKLYN","NY","11223","Brooklyn","718-489-4020","N","08:00","07:00","08:00","07:00","08:00","07:00","08:00","07:00","08:00","07:00","08:00","07:00","08:00","07:00","40.585475","-73.982089","313","47","308","3195638","3072060054","Gravesend","
,  
(40.585475, -73.982089)"
