"district","dbn","school_type","school_name","address","phone","grades","accessibility","dual_language","g_t_in_kindergarten","x_coordinate","y_coordinate","postcode","borough","latitude","longitude","community_board","council_district","census_tract","bin","bbl","nta"
"01","01M015","Non-Zoned School","P.S. 015 Roberto Clemente","333 East 4th Street","212-228-8730","PK-5","Partially Accessible",,"Y","990141","202349","10009","MANHATTAN","40.721791","-73.978986","103","2","2601","1004415","1003740020","Lower East Side"
"01","01M019","Non-Zoned School","P.S. 019 Asher Levy","185 1st Avenue","212-533-5340","PK-5","Not Accessible",,,"988547","205239","10003","MANHATTAN","40.729636","-73.983818","103","2","40","1006478","1004530034","East Village"
"01","01M020","Non-Zoned School","P.S. 020 Anna Silver","166 Essex Street","212-254-9577","PK-5","Partially Accessible","Chinese, Spanish",,"988044","202068","10002","MANHATTAN","40.72154","-73.986648","103","1","3001","1004325","1003550001","Chinatown"
"01","01M034","Non-Zoned School","P.S. 034 Franklin D. Roosevelt","730 East 12th Street","212-228-4433","PK-8","Not Accessible",,,"991163","203782","10009","MANHATTAN","40.726473","-73.975181","103","2","28","1004564","1003810038","Lower East Side"
"01","01M063","Non-Zoned School","The STAR Academy - P.S.63","121 East 3rd Street","212-674-3180","PK-5","Not Accessible",,,"988071","203210","10009","MANHATTAN","40.724117","-73.986381","103","2","32","1005760","1004310014","East Village"
"01","01M064","Non-Zoned School","P.S. 064 Robert Simon","600 East 6th Street","212-673-6510","PK-5","Not Accessible",,,"989351","202733","10009","MANHATTAN","40.724435","-73.981521","103","2","2601","1004627","1003870001","Lower East Side"
"01","01M110","Non-Zoned School","P.S. 110 Florence Nightingale","285 Delancy Street","212-674-2690","PK-5","Not Accessible",,"Y","989846","200153","10002","MANHATTAN","40.715915","-73.979893","103","1","12","1004066","1003310140","Lower East Side"
"01","01M134","Non-Zoned School","P.S. 134 Henrietta Szold","293 East Broadway","212-673-4470","PK-5","Fully Accessible",,,"988726","199497","10002","MANHATTAN","40.71457","-73.983724","103","1","202","1003736","1002880015","Lower East Side"
"01","01M140","Non-Zoned School","P.S. 140 Nathan Straus","123 Ridge Street","212-677-4680","PK-8","Not Accessible",,,"988749","201282","10002","MANHATTAN","40.71925","-73.983056","103","1","2201","1004091","1003440001","Lower East Side"
"01","01M142","Non-Zoned School","P.S. 142 Amalia Castro","100 Attorney Street","212-598-3800","PK-5","Partially Accessible",,,"988653","200908","10002","MANHATTAN","40.718383","-73.984452","103","1","1402","1004080","1003430001","Lower East Side"
"01","01M184","Non-Zoned School","P.S. 184m Shuang Wen","327 Cherry Street","212-602-9700","PK-8","Partially Accessible","Chinese",,"988287","198359","10002","MANHATTAN","40.711549","-73.986542","103","1","201","1003143","1002450007","Lower East Side"
"01","01M188","Non-Zoned School","P.S. 188 The Island School","442 East Houston Street","212-677-5710","PK-8","Fully Accessible","Spanish",,"990520","201552","10002","MANHATTAN","40.719598","-73.977904","103","2","20","1004349","1003560100","Lower East Side"
"01","01M315","Non-Zoned School","The East Village Community School","610 East 12th Street","212-982-0682","PK-5","Not Accessible",,,"990277","204339","10009","MANHATTAN","40.727892","-73.978525","103","2","28","1079053","1003940012","Lower East Side"
"01","01M361","Non-Zoned School","The Children's Workshop School","610 East 12th Street","212-614-9531","PK-5","Not Accessible",,,"990277","204339","10009","MANHATTAN","40.727892","-73.978525","103","2","28","1079053","1003940012","Lower East Side"
"01","01M363","Non-Zoned School","Neighborhood School","121 East 3rd Street","212-387-0195","PK-5","Not Accessible",,,"988071","203210","10009","MANHATTAN","40.724117","-73.986381","103","2","32","1005760","1004310014","East Village"
"01","01M364","Non-Zoned School","Earth School","600 East 6th Street","212-477-1735","PK-5","Not Accessible",,,"989351","202733","10009","MANHATTAN","40.724435","-73.981521","103","2","2601","1004627","1003870001","Lower East Side"
"02","02M001","Zoned School","P.S. 001 Alfred E. Smith","8 Henry Street","212-267-4133","PK-5","Not Accessible","Chinese",,"984949","198878","10038","MANHATTAN","40.71276","-73.997489","103","1","27","1003375","1002790040","Chinatown"
"02","02M002","Zoned School","P.S. 002 Meyer London","122 Henry Street","212-964-0350","PK-5","Not Accessible",,,"986600","199008","10002","MANHATTAN","40.713273","-73.991339","103","1","6","1003248","1002730001","Lower East Side"
"02","02M003","Zoned School","P.S. 003 Charrette School","490 Hudson Street","212-691-1183","PK-5","Not Accessible",,,"982601","206184","10014","MANHATTAN","40.732593","-74.006466","102","3","73","1009872","1005850041","West Village"
"02","02M006","Zoned School","P.S. 006 Lillie D. Blake","45 East 81st Street","212-452-6650","PK-5","Not Accessible",,,"995210","222630","10028","MANHATTAN","40.777455","-73.960713","108","4","142","1046668","1014930021","Upper East Side-Carnegie Hill"
"02","02M011","Zoned School","P.S. 011 William T. Harris","320 West 21st Street","212-929-1743","PK-5","Not Accessible",,"Y","984044","210404","10011","MANHATTAN","40.744349","-74.000253","104","3","89","1013260","1007440024","Hudson Yards-Chelsea-Flatiron-Union Square"
"02","02M033","Zoned School","P.S. 033 Chelsea Prep","281 9th Avenue","212-244-6426","PK-5","Fully Accessible",,"Y","984184","212163","10001","MANHATTAN","40.748977","-73.999531","104","3","97","1012829","1007240023","Hudson Yards-Chelsea-Flatiron-Union Square"
"02","02M040","Zoned School","P.S. 040 Augustus Saint-Gaudens","320 East 20th Street","212-475-5500","PK-5","Not Accessible",,,"989367","207177","10003","MANHATTAN","40.735751","-73.981655","106","2","64","1020513","1009250012","Gramercy"
"02","02M041","Zoned School","P.S. 041 Greenwich Village","116 West 11st Street","212-675-2756","PK-5","Not Accessible",,,"984501","207221","10011","MANHATTAN","40.735692","-73.999026","102","3","71","1010543","1006060049","West Village"
"02","02M042","Zoned School","P.S. 042 Benjamin Altman","71 Hester Street","212-226-8410","PK-5","Not Accessible",,,"986793","200181","10002","MANHATTAN","40.715905","-73.990895","103","1","16","1003998","1003090001","Chinatown"
"02","02M051","Zoned School","P.S. 051 Elias Howe","525 West 44th Street","212-315-7160","PK-5","Fully Accessible",,,"985501","216735","10036","MANHATTAN","40.761479","-73.995823","104","3","129","1089418","1010730014","Clinton"
"02","02M059","Zoned School","P.S. 059 Beekman Hill International","231-249 East 56th Street","212-888-7870","PK-5","Fully Accessible",,,"993533","215912","10022","MANHATTAN","40.75924","-73.967203","106","4","108","1088892","1013300013","Turtle Bay-East Midtown"
"02","02M089","Zoned School","P.S. 89","201 Warren Street","212-571-5659","PK-5","Fully Accessible",,,"980378","200503","10282","MANHATTAN","40.716668","-74.013542","101","1","31703","1085568","1000160220","Battery Park City-Lower Manhattan"
"02","02M111","Zoned School","P.S. 111 Adolph S. Ochs","440 West 53rd Street","212-582-7420","PK-5","Not Accessible",,"Y","987082","218308","10019","MANHATTAN","40.765878","-73.988823","104","3","133","1026740","1010620003","Clinton"
"02","02M116","Zoned School","P.S. 116 Mary Lindley Murray","210 East 33rd Street","212-685-4366","PK-5","Not Accessible",,,"990372","210523","10016","MANHATTAN","40.744838","-73.978116","106","2","70","1020080","1009130007","Murray Hill-Kips Bay"
"02","02M124","Zoned School","P.S. 124 Yung Wing","40 Division Street","212-966-7237","PK-5","Partially Accessible",,"Y","985354","199806","10002","MANHATTAN","40.714201","-73.995087","103","1","16","1075787","1002890001","Chinatown"
"02","02M126","Zoned School","P.S. 126 Jacob August Riis","80 Catherine Street","212-962-2188","PK-8","Not Accessible",,,"984965","198186","10038","MANHATTAN","40.710729","-73.996631","103","1","25","1083357","1001110160","Chinatown"
"02","02M130","Zoned School","P.S. 130 Hernando De Soto","143 Baxter Street","212-226-8072","PK-5","Fully Accessible",,"Y","984714","201104","10013","MANHATTAN","40.718903","-73.998438","102","1","41","1003086","1002360038","SoHo-TriBeCa-Civic Center-Little Italy"
"02","02M150","Non-Zoned School","P.S. 150","334 Greenwich Street","212-732-4392","PK-5","Not Accessible",,,"981234","201421","10013","MANHATTAN","40.718219","-74.010519","101","1","39","1083240","1001420025","SoHo-TriBeCa-Civic Center-Little Italy"
"02","02M151","Zoned School","Yorkville Community School","421 East 88th Street","212-722-5240","PK-5","Not Accessible",,,"998849","222709","10128","MANHATTAN","40.777911","-73.947757","108","5","14402","1050618","1015680008","Yorkville"
"02","02M158","Zoned School","P.S. 158 Bayard Taylor","1458 York Avenue","212-744-6562","PK-5","Partially Accessible",,,"997893","219891","10075","MANHATTAN","40.770419","-73.951135","108","5","132","1046411","1014890001","Lenox Hill-Roosevelt Island"
"02","02M183","Zoned School","P.S. 183 Robert L. Stevenson","419 East 66th Street","212-734-7719","PK-5","Not Accessible",,,"995959","217554","10065","MANHATTAN","40.763736","-73.95815","108","5","116","1045569","1014610007","Lenox Hill-Roosevelt Island"
"02","02M198","Zoned School","P.S. 198 Isador E. Ida Straus","1700 3rd Avenue","212-289-3702","PK-5","Not Accessible",,"Y","997980","225284","10128","MANHATTAN","40.784826","-73.949611","108","5","15801","1048492","1015240023","Upper East Side-Carnegie Hill"
"02","02M212","Non-Zoned School","P.S. 212 Midtown West","328 West 48th Street","212-247-0208","PK-5","Not Accessible",,,"987390","216649","10036","MANHATTAN","40.761448","-73.988019","104","3","127","1025092","1010380014","Clinton"
"02","02M217","Zoned School","P.S./I.S. 217 Roosevelt Island","645 Main Street","212-980-0294","PK-8","Fully Accessible",,"Y","996320","213836","10044","MANHATTAN","40.763894","-73.947916","108","5","23802","1084848","1013730001","Lenox Hill-Roosevelt Island"
"02","02M225","Non-Zoned School","Ella Baker School","317 East 67th Street","212-717-8809","PK-8","Partially Accessible",,,"995392","218222","10065","MANHATTAN","40.765359","-73.960059","108","5","118","1083343","1014420001","Lenox Hill-Roosevelt Island"
"02","02M234","Zoned School","P.S. 234 Independence School","292 Greenwich Street","212-233-6034","K-5","Partially Accessible",,,"981234","201421","10007","MANHATTAN","40.716017","-74.011038","101","1","21","1001533","1001420001","SoHo-TriBeCa-Civic Center-Little Italy"
"02","02M267","Zoned School","East Side Elementary School, PS 267","213 East 63rd Street","212-888-7848","K-5","Fully Accessible",,,"994261","217582","10065","MANHATTAN","40.763842","-73.964222","108","4","110","1087680","1014180007","Lenox Hill-Roosevelt Island"
"02","02M276","Zoned School","Battery Park City School","55 Battery Place","212-266-5800","PK-8","Fully Accessible",,,"979410","196632","10280","MANHATTAN","40.70644","-74.017818","101","1","31704","1087945","1000160040","Battery Park City-Lower Manhattan"
"02","02M281","Zoned School","The River School","425 East 35th Street","212-251-6640","PK-5","Fully Accessible",,,"992064","210453","10016","MANHATTAN","40.74428","-73.972591","106","4","8601","1089385","1009670002","Turtle Bay-East Midtown"
"02","02M290","Zoned School","P.S. 290 Manhattan New School","311 East 82nd Street","212-734-7127","PK-5","Not Accessible",,,"997329","221700","10028","MANHATTAN","40.775078","-73.953096","108","5","138","1049876","1015450005","Yorkville"
"02","02M340","Zoned School","Sixth Avenue Elementary School","64 West 17th Street","917-305-1000","PK-5","Fully Accessible",,,"985577","208489","10011","MANHATTAN","40.738725","-73.994169","105","3","54","1068261","1008187501","Hudson Yards-Chelsea-Flatiron-Union Square"
"02","02M343","Zoned School","The Peck Slip School","1 Peck Slip","212-312-6260","PK-5","Fully Accessible",,,"983721","197443","10038","MANHATTAN","40.708766","-74.002406","101","1","1501","1001363","1001060009","Battery Park City-Lower Manhattan"
"02","02M347","Non-Zoned School","The 47 American Sign Language & English Lower School","223 East 23rd Street","917-326-6609","PK-8","Partially Accessible",,,"989424","208287","10010","MANHATTAN","40.738548","-73.982455","106","2","64","1019775","1009040024","Gramercy"
"02","02M397","Zoned School","Spruce Street School","12 Spruce Street","212-266-4800","PK-8","Fully Accessible",,,"982855","198074","10038","MANHATTAN","40.711132","-74.005277","101","1","1501","1087485","1001007502","Battery Park City-Lower Manhattan"
"02","02M527","Zoned School","P.S. 527 - East Side School for Social Action","323 East 91st Street","212-828-2710","K-5","Not Accessible",,,"998691","223694","10128","MANHATTAN","40.780763","-73.94869","108","5","154","1050217","1015540015","Yorkville"
"03","03M009","Zoned School","P.S. 009 Sarah Anderson","100 West 84th Street","212-678-2812","PK-5","Partially Accessible",,,"991379","225360","10024","MANHATTAN","40.785287","-73.97343","107","6","169","1032119","1012140029","Upper West Side"
"03","03M075","Zoned School","P.S. 075 Emily Dickinson","735 West End Avenue","212-866-5400","K-5","Partially Accessible","Spanish",,"991450","228958","10025","MANHATTAN","40.795157","-73.973292","107","6","183","1034190","1012530065","Upper West Side"
"03","03M076","Zoned School","P.S. 076 A. Philip Randolph","220 West 121st Street","212-678-2865","PK-8","Not Accessible",,,"997690","233123","10027","MANHATTAN","40.806768","-73.951061","110","9","220","1058470","1019260017","Central Harlem South"
"03","03M084","Zoned School","P.S. 084 Lillian Weber","32 West 92nd Street","212-799-2534","PK-5","Not Accessible","French, Spanish",,"992995","226907","10025","MANHATTAN","40.789526","-73.967574","107","6","177","1081042","1012050006","Upper West Side"
"03","03M087","Zoned School","P.S. 087 William Sherman","160 West 78th Street","212-678-2826","PK-5","Not Accessible","Spanish",,"990337","224076","10024","MANHATTAN","40.781958","-73.977638","107","6","161","1030196","1011490007","Upper West Side"
"03","03M145","Zoned School","P.S. 145, The Bloomingdale School","150 West 105th Street","212-678-2857","PK-5","Not Accessible","Russian, Spanish",,"993771","230412","10025","MANHATTAN","40.799376","-73.965308","107","7","189","1076625","1018590001","Upper West Side"
"03","03M149","Zoned School","P.S. 149 Sojourner Truth","41 West 117th Street","646-672-9020","PK-8","Not Accessible",,,"998622","231708","10026","MANHATTAN","40.802136","-73.947828","110","9","190","1051434","1016010001","Central Harlem South"
"03","03M163","Zoned School","P.S. 163 Alfred E. Smith","163 West 97th Street","212-678-2854","PK-5","Not Accessible","Spanish","Y","992980","228978","10025","MANHATTAN","40.794264","-73.968706","107","7","185","1055908","1018520099","Upper West Side"
"03","03M165","Zoned School","P.S. 165 Robert E. Simon","234 West 109th Street","212-678-2873","PK-5","Not Accessible","Spanish","Y","993677","231707","10025","MANHATTAN","40.802917","-73.965613","107","7","195","1056676","1018800013","Morningside Heights"
"03","03M166","Zoned School","P.S. 166 The Richard Rodgers School of The Arts and Technology","132 West 89th Street","212-678-2829","K-5","Partially Accessible",,"Y","991849","226705","10024","MANHATTAN","40.788865","-73.971847","107","6","173","1032308","1012190047","Upper West Side"
"03","03M180","Zoned School","P.S. 180 Hugo Newman","370 West 120th Street","212-678-2849","PK-8","Partially Accessible","Spanish",,"996469","233500","10027","MANHATTAN","40.807843","-73.955569","110","9","257","1059111","1019460001","Central Harlem South"
"03","03M185","Zoned School","The Locke School of Arts and Engineering","20 West 112th Street","212-534-7490","PK-5","Not Accessible",,,"998053","230182","10026","MANHATTAN","40.798511","-73.949251","110","9","186","1051410","1015950015","Central Harlem South"
"03","03M191","Zoned School","The Riverside School for Makers and Artists","300 West 61st Street","347-478-5228","PK-8","Fully Accessible",,,"986901","220799","10023","MANHATTAN","40.772883","-73.989609","107","6","151","1088870","1011717510","Lincoln Square"
"03","03M199","Zoned School","P.S. 199 Jessie Isador Straus","270 West 70th Street","212-799-1033","K-5","Partially Accessible",,,"988564","222579","10023","MANHATTAN","40.778059","-73.984449","107","6","155","1030351","1011580040","Lincoln Square"
"03","03M241","Zoned School","STEM Institute of Manhattan","240 West 113rd Street","212-678-2898","K-5","Partially Accessible",,,"996547","231315","10026","MANHATTAN","40.801689","-73.954908","110","9","216","1055111","1018280015","Central Harlem South"
"03","03M242","Zoned School","P.S. 242 - The Young Diplomats Magnet Academy","134 West 122nd Street","212-678-2908","PK-5","Partially Accessible","Italian",,"998539","232949","10027","MANHATTAN","40.8063","-73.948013","110","9","220","1057683","1019060011","Central Harlem South"
"03","03M333","Non-Zoned School","P.S. 333 Manhattan School for Children","154 West 93rd Street","212-222-1450","K-8","Partially Accessible",,,"992277","227605","10025","MANHATTAN","40.791709","-73.970802","107","6","177","1032522","1012230005","Upper West Side"
"03","03M452","Zoned School","P.S. 452","210 West 61st Street","212-259-6222","PK-5","Partially Accessible",,,"987708","220393","10023","MANHATTAN","40.771925","-73.987328","107","6","147","1030320","1011520029","Lincoln Square"
"03","03M859","Non-Zoned School","Special Music School","129 West 67th Street","212-501-3318","K-12","Partially Accessible",,,"988965","221724","10023","MANHATTAN","40.774919","-73.982745","107","6","153","1081024","1011390008","Lincoln Square"
"04","04M007","Zoned School","P.S. 007 Samuel Stern","160 East 120th Street","212-860-5827","3K-8","Partially Accessible",,,"1001035","230969","10035","MANHATTAN","40.801007","-73.939349","111","8","196","1083501","1017680021","East Harlem North"
"04","04M037","Non-Zoned School","River East Elementary","2351 First Avenue","212-802-3035","3K-5","Not Accessible",,,"1002595","230478","10035","MANHATTAN","40.798884","-73.933319","111","8","194","1054786","1017970100","East Harlem North"
"04","04M038","Zoned School","P.S. 38 Roberto Clemente","232 East 103rd Street","212-860-5882","3K-5","Not Accessible",,,"999546","226615","10029","MANHATTAN","40.788952","-73.944538","111","8","164","1052384","1016520016","East Harlem South"
"04","04M057","Zoned School","James Weldon Johnson","176 East 115th Street","212-876-5522","3K-8","Not Accessible","Spanish",,"1000420","229726","10029","MANHATTAN","40.797577","-73.94128","111","8","182","1083184","1016400139","East Harlem North"
"04","04M072","Zoned School","The Lexington Academy","131 East 104th Street","212-860-5831","3K-8","Not Accessible","Spanish",,"998801","227626","10029","MANHATTAN","40.791179","-73.947776","111","8","166","1081340","1016320011","East Harlem South"
"04","04M083","Zoned School","P.S. 083 Luis Munoz Rivera","219 East 109th Street","212-860-5847","3K-5","Not Accessible",,,"1000322","228326","10029","MANHATTAN","40.793194","-73.942548","111","8","180","1052436","1016590012","East Harlem North"
"04","04M096","Zoned School","P.S. 096 Joseph Lanzetta","216 East 120th Street","212-860-5851","3K-8","Not Accessible","Spanish",,"1001643","230632","10035","MANHATTAN","40.800256","-73.937558","111","8","194","1074333","1017840012","East Harlem North"
"04","04M102","Zoned School","P.S. 102 Jacques Cartier","315 East 113rd Street","212-860-5834","3K-5","Not Accessible",,"Y","1001301","228923","10029","MANHATTAN","40.794869","-73.938711","111","8","180","1081366","1016840101","East Harlem North"
"04","04M108","Zoned School","P.S. 108 Assemblyman Angelo Del Toro Educational Complex","1615 Madison Avenue","212-860-5803","3K-8","Not Accessible",,,"998688","228933","10029","MANHATTAN","40.795146","-73.948368","111","8","17401","1051584","1016140021","East Harlem South"
"04","04M112","Zoned School","P.S. 112 Jose Celso Barbosa","535 East 119th Street","212-860-5868","3K-2","Not Accessible","Spanish",,"1003485","229613","10035","MANHATTAN","40.796668","-73.930966","111","8","192","1084005","1018160001","East Harlem North"
"04","04M146","Zoned School","P.S. 146 Ann M. Short","421 East 106th Street","212-860-5877","3K-5","Partially Accessible",,,"1001217","226932","10029","MANHATTAN","40.789295","-73.939262","111","8","162","1052999","1017000001","East Harlem South"
"04","04M155","Zoned School","P.S. 155 William Paca","319 East 117th Street","212-860-5885","3K-5","Not Accessible","Spanish",,"1001999","229837","10035","MANHATTAN","40.797302","-73.936365","111","8","188","1052986","1016890005","East Harlem North"
"04","04M171","Zoned School","P.S. 171 Patrick Henry","19 East 103rd Street","212-860-5801","3K-8","Not Accessible",,,"997700","227938","10029","MANHATTAN","40.792122","-73.951961","111","8","168","1051497","1016090007","East Harlem South"
"04","04M182","Non-Zoned School","The Bilingual Bicultural School","219 East 109th Street","212-860-6031","3K-5","Not Accessible","Spanish",,"1000322","228326","10029","MANHATTAN","40.793194","-73.942548","111","8","180","1052436","1016590012","East Harlem North"
"04","04M375","Zoned School","Mosaic Preparatory Academy","141 East 111th Street","212-722-3109","3K-5","Fully Accessible",,,"999604","229322","10029","MANHATTAN","40.79564","-73.94441","111","8","172","1081346","1016390003","East Harlem South"
"04","04M497","Non-Zoned School","Central Park East I","1573 Madison Avenue","212-860-5821","PK-5","Not Accessible",,,"998513","228429","10029","MANHATTAN","40.793763","-73.949381","111","8","17401","1051515","1016120050","East Harlem South"
"04","04M964","Non-Zoned School","Central Park East II","433 East 100th Street","212-860-5992","3K-8","Partially Accessible",,,"1000611","225483","10029","MANHATTAN","40.785258","-73.941526","111","8","162","1083933","1016940001","East Harlem South"
"05","05M030","Zoned School","P.S. 030 Hernandez/Hughes","144-176 East 128th Street","212-876-1825","3K-5","Partially Accessible",,,"1002117","232805","10035","MANHATTAN","40.805953","-73.935179","111","9","242","1054502","1017760020","East Harlem North"
"05","05M036","Zoned School","P.S. 036 Margaret Douglas","123 Morningside Drive","212-690-5807","3K-5","Not Accessible",,,"996040","234642","10027","MANHATTAN","40.81027","-73.957482","109","7","19701","1055890","1018500002","Morningside Heights"
"05","05M046","Zoned School","P.S. 046 Arthur Tappan","2987 Frederick Douglass Boulevard","212-360-1519","3K-8","Not Accessible",,,"1001883","242218",,,,,,,,,,
"05","05M092","Zoned School","P.S. 092 Mary McLeod Bethune","222 West 134th Street","212-690-5915","PK-5","Fully Accessible",,,"999242","236178","10030","MANHATTAN","40.815016","-73.945123","110","9","226","1058808","1019390011","Central Harlem North-Polo Grounds"
"05","05M123","Zoned School","P.S. 123 Mahalia Jackson","301 West 140th Street","212-342-6200","3K-8","Not Accessible",,,"999597","238109","10030","MANHATTAN","40.819767","-73.944433","110","9","22102","1060726","1020420035","Central Harlem North-Polo Grounds"
"05","05M125","Zoned School","P.S. 125 Ralph Bunche","425 West 123rd Street","212-666-6400","PK-5","Partially Accessible",,,"996507","234674","10027","MANHATTAN","40.810431","-73.955809","109","7","20901","1059526","1019640012","Morningside Heights"
"05","05M129","Zoned School","P.S. 129 John H. Finley","425 West 130th Street","212-690-5932","3K-8","Not Accessible",,"Y","997531","236176","10027","MANHATTAN","40.814637","-73.951912","109","9","21703","1059407","1019570010","Manhattanville"
"05","05M133","Zoned School","P.S. 133 Fred R Moore","2121 5th Avenue","212-690-5936","3K-5","Not Accessible",,,"1001087","234266","10037","MANHATTAN","40.809672","-73.939872","111","9","206","1054276","1017550001","Central Harlem North-Polo Grounds"
"05","05M154","Zoned School","P.S. 154 Harriet Tubman","250 West 127th Street","212-864-2400","3K-5","Not Accessible",,,"998395","234568","10027","MANHATTAN","40.810928","-73.948938","110","9","224","1058671","1019320010","Central Harlem North-Polo Grounds"
"05","05M161","Zoned School","P.S. 161 Pedro Albizu Campos","499 West 133rd Street","212-690-5945","K-8","Not Accessible","Spanish",,"997404","237198","10027","MANHATTAN","40.81755","-73.953041","109","9","21303","1059645","1019710001","Manhattanville"
"05","05M175","Zoned School","P.S. 175 Henry H Garnet","175 West 134th Street","212-283-0426","3K-5","Partially Accessible",,,"1000109","235986","10030","MANHATTAN","40.814422","-73.943664","110","9","228","1058248","1019190006","Central Harlem North-Polo Grounds"
"05","05M194","Zoned School","P.S. 194 Countee Cullen","244 West 144th Street","212-690-5954","PK-5","Not Accessible",,,"1000549","238471","10030","MANHATTAN","40.821425","-73.940674","110","9","232","1060432","1020290011","Central Harlem North-Polo Grounds"
"05","05M197","Zoned School","P.S. 197 John B. Russwurm","2230 5th Avenue","212-690-5960","3K-5","Not Accessible",,,"1001316","235675","10037","MANHATTAN","40.813184","-73.937322","110","9","212","1076433","1017330017","Central Harlem North-Polo Grounds"
"05","05M200","Zoned School","P.S. 200- The James McCune Smith School","2589 7th Avenue","212-491-6636","3K-5","Fully Accessible",,,"1002033","239485","10039","MANHATTAN","40.824495","-73.936997","110","9","236","1060198","1020160100","Central Harlem North-Polo Grounds"
"05","05M318","Non-Zoned School","Thurgood Marshall Academy Lower School","276 West 151st Street","212-368-8731","K-5","Not Accessible",,,"1001455","240156","10039","MANHATTAN","40.826126","-73.937982","110","9","236","1060596","1020360047","Central Harlem North-Polo Grounds"
"05","05M517","Non-Zoned School","Teachers College Community School","168 Morningside Avenue","212-316-8080","PK-8","Not Accessible",,,"997098","235351","10027","MANHATTAN","40.81242","-73.953315","109","7","21303","1084102","1019670024","Manhattanville"
"06","06M004","Zoned School","P.S. 004 Duke Ellington","500 West 160th Street","212-928-0739","3K-5","Fully Accessible","Spanish",,"1000412","243451","10032","MANHATTAN","40.834899","-73.941085","112","7","245","1062792","1021180022","Washington Heights South"
"06","06M005","Zoned School","P.S. 005 Ellen Lurie","3703 Tenth Avenue","212-567-8109","3K-5","Fully Accessible","Spanish",,"1005750","251746","10034","MANHATTAN","40.85899","-73.922894","112","10","299","1084201","1021500030","Marble Hill-Inwood"
"06","06M008","Zoned School","P.S. 008 Luis Belliard","465 West 167th Street","212-928-4157","3K-5","Fully Accessible","Spanish",,"1001789","245040","10032","MANHATTAN","40.838954","-73.936838","112","10","249","1081842","1021120001","Washington Heights South"
"06","06M018","Zoned School","P.S. 018 Park Terrace","4124 9th Avenue","917-521-2220","K-8","Partially Accessible",,,"1008662","256785","10034","MANHATTAN","40.871278","-73.911516","112","10","299","1082045","1022150824","Marble Hill-Inwood"
"06","06M028","Zoned School","P.S. 028 Wright Brothers","475 West 155th Street","212-690-3014","3K-5","Not Accessible","Spanish",,"1000294","242268","10032","MANHATTAN","40.831227","-73.942143","112","7","239","1076739","1021070026","Washington Heights South"
"06","06M048","Zoned School","P.S. 048 P.O. Michael J. Buczek","4360-78 Broadway","917-521-3800","3K-5","Fully Accessible","Spanish",,"1002611","250126","10033","MANHATTAN","40.853466","-73.934048","112","10","271","1076752","1021670029","Washington Heights North"
"06","06M098","Zoned School","P.S. 098 Shorac Kappock","512 West 212th Street","212-927-7870","3K-5","Fully Accessible","Spanish",,"1006981","255430","10034","MANHATTAN","40.867826","-73.917059","112","10","303","1064871","1022290012","Marble Hill-Inwood"
"06","06M103","Zoned School","Dos Puentes Elementary School","185 Wadsworth Avenue","212-781-1803","K-5","Not Accessible","Spanish",,"1002519","249167","10033","MANHATTAN","40.850626","-73.934377","112","10","271","1063947","1021650026","Washington Heights North"
"06","06M115","Zoned School","P.S. 115 Alexander Humboldt","586 West 177th Street","212-927-9233","PK-5","Not Accessible",,,"1002195","247547","10033","MANHATTAN","40.846542","-73.935205","112","10","261","1063228","1021330040","Washington Heights South"
"06","06M128","Zoned School","P.S. 128 Audubon","560 West 169th Street","212-927-0607","3K-5","Partially Accessible","Spanish",,"1001211","245694","10032","MANHATTAN","40.841359","-73.938593","112","10","251","1062994","1021250001","Washington Heights South"
"06","06M132","Zoned School","P.S. 132 Juan Pablo Duarte","185 Wadsworth Avenue","212-927-7857","K-5","Not Accessible","Spanish",,"1002519","249167","10033","MANHATTAN","40.850626","-73.934377","112","10","271","1063947","1021650026","Washington Heights North"
"06","06M152","Zoned School","P.S. 152 Dyckman Valley","93 Nagle Avenue","212-567-5456","3K-5","Partially Accessible",,,"1004283","252536","10040","MANHATTAN","40.860412","-73.927936","112","10","283","1064149","1021730001","Washington Heights North"
"06","06M153","Zoned School","P.S. 153 Adam Clayton Powell","1750 Amsterdam Avenue","212-927-8611","3K-5","Partially Accessible","Spanish","Y","998752","240403","10031","MANHATTAN","40.826295","-73.946845","109","7","233","1081834","1020780019","Hamilton Heights"
"06","06M173","Zoned School","P.S. 173","306 Fort Washington Avenue","212-927-7850","3K-5","Partially Accessible",,,"1000910","247307","10033","MANHATTAN","40.845469","-73.940468","112","10","263","1063503","1021420154","Washington Heights South"
"06","06M178","Non-Zoned School","Professor Juan Bosch Public School","12-18 Ellwood Street","212-569-0327","K-5","Fully Accessible","Spanish",,"1004083","252330","10040","MANHATTAN","40.859243","-73.927792","112","10","283","1064128","1021710036","Washington Heights North"
"06","06M187","Zoned School","P.S./I.S. 187 Hudson Cliffs","349 Cabrini Boulevard","212-927-8218","PK-8","Not Accessible",,,"1001722","251235","10040","MANHATTAN","40.856693","-73.937093","112","10","273","1064371","1021790365","Washington Heights North"
"06","06M189","Zoned School","P.S. 189","2580 Amsterdam Avenue","212-927-8303","PK-5","Partially Accessible",,,"1004155","250073","10040","MANHATTAN","40.852631","-73.927604","112","10","277","1076750","1021590051","Washington Heights North"
"06","06M192","Zoned School","P.S. 192 Jacob H. Schiff","500 West 138th Street","212-775-9560","3K-5","Partially Accessible",,,"997529","238215","10031","MANHATTAN","40.820953","-73.951145","109","7","22301","1084132","1019880166","Manhattanville"
"06","06M210","Non-Zoned School","P.S./I.S. 210 - Twenty-first Century Academy for Community Leadership","501-503 West 152nd Street","212-283-0012","PK-8","Fully Accessible","Spanish",,"999563","241675","10031","MANHATTAN","40.829815","-73.94475","109","7","237","1087824","1020840129","Hamilton Heights"
"06","06M278","Zoned School","Paula Hedbavny School","421 W 219th St","917-521-2060","K-8","Partially Accessible",,,"1008494","256864","10034","MANHATTAN","40.871245","-73.912141","112","10","299","1064704","1022150831","Marble Hill-Inwood"
"06","06M311","Non-Zoned School","Amistad Dual Language School","4862 Broadway","212-544-8021","K-8","Fully Accessible","Spanish",,"1005321","254933","10034","MANHATTAN","40.866706","-73.923948","112","10","291","1064900","1022340007","Marble Hill-Inwood"
"06","06M314","Non-Zoned School","Muscota","4862 Broadway","212-544-0614","K-5","Fully Accessible",,,"1005321","254933","10034","MANHATTAN","40.866706","-73.923948","112","10","291","1064900","1022340007","Marble Hill-Inwood"
"06","06M348","Non-Zoned School","Washington Heights Expeditionary Learning School","511 West 182nd Street","212-781-0524","PK-12","Partially Accessible","Spanish",,"1003342","248712","10033","MANHATTAN","40.848908","-73.930948","112","10","269","1063703","1021550035","Washington Heights North"
"06","06M366","Non-Zoned School","Washington Heights Academy","202 Sherman Ave","212-304-3320","PK-8","Fully Accessible",,,"1005926","254640","10034","MANHATTAN","40.865384","-73.92114","112","10","293","1081910","1022260041","Marble Hill-Inwood"
"06","06M368","Non-Zoned School","Hamilton Heights School","1750 Amsterdam Avenue","212-862-9940","K-5","Partially Accessible",,,"998752","240403","10031","MANHATTAN","40.826295","-73.946845","109","7","233","1081834","1020780019","Hamilton Heights"
"06","06M513","Non-Zoned School","Castle Bridge School","560 West 169th Street","212-740-4701","PK-5","Partially Accessible","Spanish",,"1001211","245694","10032","MANHATTAN","40.841359","-73.938593","112","10","251","1062994","1021250001","Washington Heights South"
"07","07X001","Non-Zoned School","P.S. 001 Courtlandt School","335 East 152nd Street","718-299-3700","3K-5","Not Accessible",,,"1006494","237792","10451","BRONX","40.818816","-73.91901","201","17","67","2001881","2024110119","Melrose South-Mott Haven North"
"07","07X005","Non-Zoned School","P.S. 5 Port Morris","564 Jackson Avenue","718-292-2683","3K-8","Not Accessible","Spanish",,"1009617","235815","10455","BRONX","40.813728","-73.908886","201","8","73","2004548","2026420001","Melrose South-Mott Haven North"
"07","07X018","Non-Zoned School","P.S. 018 John Peter Zenger","502 Morris Avenue","718-292-2868","PK-5","Not Accessible","Spanish",,"1005647","236712","10451","BRONX","40.816406","-73.92329","201","8","51","2000816","2023240008","Mott Haven-Port Morris"
"07","07X025","Non-Zoned School","P.S. 025 Bilingual School","811 East 149th Street","718-292-2995","3K-5","Not Accessible",,,"1010339","235451","10455","BRONX","40.812619","-73.906063","201","8","79","2004772","2026640001","Melrose South-Mott Haven North"
"07","07X029","Non-Zoned School","P.S./M.S. 029 Melrose School","758 Courtlandt Avenue","718-292-3785","3K-8","Not Accessible",,,"1007383","238599","10451","BRONX","40.821515","-73.917279","201","17","69","2001736","2024030001","Melrose South-Mott Haven North"
"07","07X030","Non-Zoned School","P.S. 030 Wilton","510 East 141st Street","718-292-8817","3K-5","Not Accessible","Spanish",,"1007111","234037","10454","BRONX","40.80937","-73.917584","201","8","39","2000077","2022670015","Mott Haven-Port Morris"
"07","07X031","Non-Zoned School","P.S./M.S. 031 The William Lloyd Garrison","250 East 156th Street","718-292-4397","3K-8","Partially Accessible",,,"1006076","238973","10451","BRONX","40.82316","-73.921631","204","17","61","2002458","2024430190","East Concourse-Concourse Village"
"07","07X043","Non-Zoned School","P.S. 043 Jonas Bronck","165 Brown Place","718-292-4502","3K-5","Not Accessible",,,"1005956","233099","10454","BRONX","40.806351","-73.921196","201","8","25","2000205","2022800040","Mott Haven-Port Morris"
"07","07X049","Non-Zoned School","P.S. 049 Willis Avenue","383 East 139th Street","718-292-4623","3K-5","Not Accessible","Spanish",,"1005640","234542","10454","BRONX","40.810085","-73.923102","201","8","39","2000626","2023020040","Mott Haven-Port Morris"
"07","07X065","Non-Zoned School","P.S. 065 Mother Hale Academy","677 East 141st Street","718-292-4628","PK-5","Fully Accessible",,,"1008457","233635","10454","BRONX","40.807335","-73.912731","201","8","33","2003834","2025710001","Mott Haven-Port Morris"
"07","07X154","Non-Zoned School","P.S. 154 Jonathan D. Hyatt","333 East 135th Street","718-292-4742","PK-5","Not Accessible",,,"1004885","233733","10454","BRONX","40.808034","-73.926204","201","8","23","2097030","2022980001","Mott Haven-Port Morris"
"07","07X157","Non-Zoned School","P.S. 157 Grove Hill","757 Cauldwell Avenue","718-292-5255","3K-5","Not Accessible",,,"1009447","237827","10456","BRONX","40.819258","-73.908553","201","17","75","2004464","2026250001","Melrose South-Mott Haven North"
"07","07X161","Non-Zoned School","P.S. 161 Juan Ponce De Leon School","628 Tinton Avenue","718-292-5478","3K-5","Not Accessible","Spanish",,"1010482","235915","10455","BRONX","40.814916","-73.905518","201","8","79","2004773","2026640029","Melrose South-Mott Haven North"
"07","07X179","Non-Zoned School","P.S. 179","468 East 140th Street","718-292-2237","3K-5","Partially Accessible",,,"1006459","234057","10454","BRONX","40.809534","-73.919903","201","8","39","2000308","2022840034","Mott Haven-Port Morris"
"07","07X277","Non-Zoned School","P.S. 277","519 St Anns Avenue","718-292-3594","3K-5","Not Accessible",,,"1008091","235627","10455","BRONX","40.813517","-73.913402","201","8","43","2000114","2022740023","Mott Haven-Port Morris"
"07","07X359","Non-Zoned School","Concourse Village Elementary School","750 Concourse Village West","718-402-7503","3K-5","Partially Accessible",,,"1005692","239133","10451","BRONX","40.823174","-73.923326","204","17","61","2002454","2024430079","East Concourse-Concourse Village"
"07","07X369","Non-Zoned School","Young Leaders Elementary School","468 East 140th Street","718-292-7391","3K-5","Partially Accessible",,,"1006459","234057","10454","BRONX","40.809534","-73.919903","201","8","39","2000308","2022840034","Mott Haven-Port Morris"
"08","08X014","Zoned School","P.S. X014 Senator John Calandra","3047 Bruckner Boulevard","718-822-5341","K-5","Partially Accessible",,,"1032322","243654","10461","BRONX","40.83587","-73.825774","210","13","184","2072754","2053130092","Schuylerville-Throgs Neck-Edgewater Park"
"08","08X036","Zoned School","P.S. 036 Unionport","1070 Castle Hill Avenue","718-822-5345","PK-5","Not Accessible",,,"1025819","241515","10472","BRONX","40.829344","-73.850428","209","18","78","2026706","2038170001","Westchester-Unionport"
"08","08X048","Zoned School","P.S. 048 Joseph R. Drake","1290 Spofford Avenue","718-589-4312","3K-5","Fully Accessible","Spanish",,"1015575","235872","10474","BRONX","40.814425","-73.886953","202","17","93","2006680","2027660001","Hunts Point"
"08","08X062","Zoned School","P.S. 062 Inocensio Casanova","660 Fox Street","718-585-1617","PK-5","Not Accessible",,,"1011886","235759","10455","BRONX","40.814031","-73.900609","202","8","83","2005089","2026830065","Longwood"
"08","08X069","Zoned School","P.S. 069 Journey Prep School","560 Thieriot Avenue","718-378-4736","PK-5","Not Accessible",,,"1022874","236854","10473","BRONX","40.816693","-73.860904","209","18","16","2021482","2035240020","Soundview-Castle Hill-Clason Point-Harding Park"
"08","08X071","Zoned School","P.S. 071 Rose E. Scala","3040 Roberts Avenue","718-822-5351","K-8","Not Accessible",,,"1031406","247318","10461","BRONX","40.845787","-73.829829","210","13","26602","2046140","2041710001","Pelham Bay-Country Club-City Island"
"08","08X072","Zoned School","P.S. 072 Dr. William Dorney","2951 Dewey Avenue","718-822-5311","3K-5","Fully Accessible",,"Y","1034574","239257","10465","BRONX","40.822604","-73.818247","210","13","158","2077162","2054400001","Schuylerville-Throgs Neck-Edgewater Park"
"08","08X075","Zoned School","P.S. 75 School of Research and Discovery","984 Faile Street","718-860-1630","3K-5","Not Accessible",,,"1014986","238888","10459","BRONX","40.822719","-73.889435","202","17","119","2006079","2027470001","Hunts Point"
"08","08X093","Zoned School","P.S. 093 Albert G. Oliver","1535 Story Avenue","718-430-1700","3K-5","Not Accessible",,,"1018217","238968","10473","BRONX","40.821776","-73.876918","209","17","28","2097341","2036520001","Soundview-Castle Hill-Clason Point-Harding Park"
"08","08X100","Zoned School","P.S. 100 Isaac Clason","800 Taylor Avenue","718-842-1461","PK-5","Not Accessible",,,"1022234","238985","10473","BRONX","40.821409","-73.862976","209","18","42","2022550","2036410001","Soundview-Castle Hill-Clason Point-Harding Park"
"08","08X107","Zoned School","P.S. 107","1695 Seward Avenue","718-860-8760","3K-5","Not Accessible",,,"1020582","237769","10473","BRONX","40.818467","-73.868372","209","18","20","2021972","2035910050","Soundview-Castle Hill-Clason Point-Harding Park"
"08","08X119","Zoned School","The Dr. Emmett W. Bassett School","1075 Pugsley Avenue","718-822-5198","PK-5","Not Accessible",,,"1023716","241145","10472","BRONX","40.828518","-73.856569","209","18","4001","2025696","2037890021","Soundview-Bruckner"
"08","08X130","Zoned School","P.S. 130 Abram Stevens Hewitt","750 Prospect Avenue","718-665-0962","3K-5","Not Accessible",,,"1011456","237218","10455","BRONX","40.817721","-73.902421","202","17","85","2005168","2026880001","Longwood"
"08","08X138","Zoned School","P.S. 138 Samuel Randall","2060 Lafayette Avenue","718-822-5325","PK-5","Not Accessible",,,"1024892","238893","10473","BRONX","40.822665","-73.853366","209","18","74","2022289","2036090016","Soundview-Castle Hill-Clason Point-Harding Park"
"08","08X140","Zoned School","P.S. X140 The Eagle School","916 Eagle Avenue","718-585-1205","PK-5","Not Accessible",,,"1009854","239248","10456","BRONX","40.823289","-73.907948","203","17","185","2004469","2026270009","Morrisania-Melrose"
"08","08X146","Zoned School","P.S. 146 Edward Collins","968 Cauldwell Avenue","718-378-9664","3K-5","Not Accessible",,,"1010339","239758","10456","BRONX","40.825025","-73.906143","203","16","185","2004498","2026320027","Morrisania-Melrose"
"08","08X152","Zoned School","P.S. 152 Evergreen","1007 Evergreen Avenue","718-589-4560","K-5","Partially Accessible",,,"1017329","239484","10472","BRONX","40.824054","-73.880039","209","17","52","2023336","2037110001","Soundview-Bruckner"
"08","08X182","Zoned School","P.S. 182","601 Stickball Boulevard","718-828-6607","3K-5","Not Accessible",,,"1023837","237666","10473","BRONX","40.818228","-73.856302","209","18","16","2021923","2035640001","Soundview-Castle Hill-Clason Point-Harding Park"
"08","08X304","Zoned School","P.S. 304 Early Childhood School","2750 Lafayette Avenue","718-822-5307","3K-5","Partially Accessible",,,"1031516","240651","10465","BRONX","40.827471","-73.829753","210","13","152","2080231","2055470001","Schuylerville-Throgs Neck-Edgewater Park"
"08","08X333","Zoned School","The Longwood Academy of Discovery","888 Rev J A Polite Ave","718-860-3313","PK-5","Not Accessible",,,"1012371","238081","10459","BRONX","40.820403","-73.898912","202","17","87","2005348","2026960085","Longwood"
"08","08X392","Zoned School","Bronx Delta School","650 Hollywood Avenue","718-319-7147","PK-5","Partially Accessible",,,"1034596","240553","10465","BRONX","40.826526","-73.818417","210","13","158","2077130","2054380001","Schuylerville-Throgs Neck-Edgewater Park"
"08","08X583","Zoned School","P.S. 583","1028 White Plains Road","929-348-4960","3K-2","Fully Accessible",,,"1023100","240588","10472","BRONX","40.827029","-73.860034","209","18","4001","2129248","2037330005","Soundview-Bruckner"
"09","09X004","Zoned School","P.S./M.S. 004 Crotona Park West","1701 Fulton Avenue","718-583-6655","3K-8","Not Accessible",,,"1012488","245969","10457","BRONX","40.840891","-73.898166","203","15","165","2009659","2029300001","Claremont-Bathgate"
"09","09X011","Zoned School","P.S. 011 Highbridge","1257 Ogden Avenue","718-681-7553","3K-5","Partially Accessible","Spanish",,"1004756","245209","10452","BRONX","40.839378","-73.925714","204","16","201","2003519","2025290081","Highbridge"
"09","09X028","Zoned School","P.S. 028 Mount Hope","1861 Anthony Avenue","718-583-6444","3K-5","Not Accessible",,,"1010859","248367","10457","BRONX","40.848057","-73.903522","205","15","23302","2007603","2028040031","Mount Hope"
"09","09X035","Zoned School","P.S. 035 Franz Siegel","261 East 163rd Street","718-681-7214","K-5","Not Accessible",,,"1007025","240954","10451","BRONX","40.827304","-73.91767","204","16","18302","2101573","2024460043","East Concourse-Concourse Village"
"09","09X042","Zoned School","P.S. 042 Claremont","1537 Washington Avenue","718-583-7366","PK-5","Not Accessible",,,"1011023","244830","10457","BRONX","40.838288","-73.902987","203","16","169","2009466","2029030023","Claremont-Bathgate"
"09","09X053","Zoned School","P.S. 053 Basheer Quisim","360 East 168th Street","718-681-7276","3K-5","Not Accessible","Spanish",,"1008628","242646","10456","BRONX","40.832866","-73.911418","204","16","175","2002299","2024350075","East Concourse-Concourse Village"
"09","09X055","Zoned School","P.S. 055 Benjamin Franklin","450 Saint Paul's Place","718-681-6227","3K-5","Not Accessible","Spanish",,"1010546","243845","10456","BRONX","40.836404","-73.905014","203","16","14702","2009463","2029020001","Claremont-Bathgate"
"09","09X058","Zoned School","P.S. 058","459 East 176th Street","718-583-6866","3K-5","Not Accessible",,,"1012242","247654","10457","BRONX","40.846162","-73.899264","206","15","395","2009540","2029090032","Claremont-Bathgate"
"09","09X063","Zoned School","P.S. 063 Author's Academy","1260 Franklin Avenue","718-589-3058","3K-5","Not Accessible",,,"1011409","242023","10456","BRONX","40.830995","-73.902705","203","16","149","2004302","2026150014","Morrisania-Melrose"
"09","09X070","Zoned School","P.S. 070 Max Schoenfeld","1691 Weeks Avenue","718-583-6000","3K-5","Not Accessible","Spanish",,"1009685","246869","10457","BRONX","40.844253","-73.907616","204","15","22902","2007387","2027930028","Mount Hope"
"09","09X073","Zoned School","P.S. 073 Bronx","1020 Anderson Avenue","718-681-6776","3K-5","Not Accessible","Spanish",,"1004613","242628","10452","BRONX","40.832706","-73.926838","204","8","189","2003051","2025040082","Highbridge"
"09","09X088","Zoned School","P.S. X088 - S. Silverstein Little Sparrow School","1340 Sheridan Avenue","718-716-7369","K-3","Not Accessible",,,"1008179","244238","10456","BRONX","40.837275","-73.913574","204","16","17902","2094533","2028300017","East Concourse-Concourse Village"
"09","09X109","Zoned School","P.S. 109 Sedgwick","1771 Popham Avenue","718-583-8878","3K-5","Not Accessible","Spanish",,"1006661","249571","10453","BRONX","40.851414","-73.918533","205","14","20502","2094549","2028770393","University Heights-Morris Heights"
"09","09X110","Zoned School","P.S. 110 Theodore Schoenfeld","580 Crotona Park South","718-861-0759","PK-5","Not Accessible",,,"1011741","243313","10456","BRONX","40.835286","-73.900751","203","16","149","2009718","2029320001","Morrisania-Melrose"
"09","09X114","Zoned School","P.S. X114 - Luis Llorens Torres Schools","1155 Cromwell Avenue","718-681-7507","3K-5","Not Accessible",,,"1005475","243492","10452","BRONX","40.834776","-73.923067","204","16","63","2003022","2024950100","West Concourse"
"09","09X126","Zoned School","P.S. 126 Dr Marjorie H Dunbar","175 West 166th Street","718-681-6120","3K-5","Not Accessible",,,"1004118","243814","10452","BRONX","40.835784","-73.928324","204","16","199","2003495","2025260083","Highbridge"
"09","09X132","Zoned School","P.S. 132 Garret A. Morgan","1245 Washington Avenue","718-681-6455","3K-5","Partially Accessible",,,"1009949","242475","10456","BRONX","40.831827","-73.906607","203","16","145","2001619","2023900001","Claremont-Bathgate"
"09","09X163","Zoned School","P.S. 163 Arthur A. Schomburg","2075 Webster Avenue","718-584-3045","PK-5","Not Accessible",,,"1012190","249591","10457","BRONX","40.851741","-73.898493","205","15","379","2013297","2031420048","Mount Hope"
"09","09X170","Zoned School","P.S. 170","1598 Townsend Avenue","718-583-0662","3K, K-2","Fully Accessible",,,"1008251","246915","10452","BRONX","40.844316","-73.913604","204","14","22702","2103870","2028470041","Mount Hope"
"09","09X199","Zoned School","P.S. 199X - The Shakespeare School","1449 Shakespeare Avenue","718-681-7172","3K-5","Not Accessible",,"Y","1006156","246580","10452","BRONX","40.842943","-73.920563","204","16","21302","2088263","2028730027","Highbridge"
"09","09X204","Zoned School","P.S. 204 Morris Heights","1780 Dr. Martin Luther King Jr. Blvd","718-960-9520","PK-5","Fully Accessible",,,"1007706","248754",,,,,,,,,,
"09","09X218","Zoned School","P.S./I.S. 218 Rafael Hernandez Dual Language Magnet School","1220 Gerard Avenue","718-410-7230","K-8","Fully Accessible","Spanish",,"1006506","243749","10452","BRONX","40.835847","-73.920026","204","16","197","2097130","2024800008","West Concourse"
"09","09X236","Non-Zoned School","P.S. 236 Langston Hughes","1871 Walton Avenue","718-299-6128","PK-5","Fully Accessible",,,"1009167","248570","10453","BRONX","40.848896","-73.909528","205","14","23301","2098479","2028510021","Mount Hope"
"09","09X274","Zoned School","The New American Academy at Roberto Clemente State Park","275 Harlem River Park Bridge","718-901-9703","PK-5","Partially Accessible","Spanish",,"1005976","249889","10453","BRONX","40.852536","-73.921467","205","16","53","2009253","2028820130","University Heights-Morris Heights"
"09","09X294","Zoned School","The Walton Avenue School","1425 Walton Avenue","718-293-5970","K-5","Not Accessible",,,"1007526","245469","10452","BRONX","40.840096","-73.915569","204","16","223","2008098","2028430040","West Concourse"
"09","09X311","Zoned School","Lucero Elementary School","1425 Walton Avenue","718-681-8701","K-5","Not Accessible","Spanish",,"1007526","245469","10452","BRONX","40.840096","-73.915569","204","16","223","2008098","2028430040","West Concourse"
"09","09X443","Zoned School","The Family School","1116 Sheridan Avenue","718-538-3266","3K-5","Partially Accessible","Spanish",,"1007073","242362","10456","BRONX","40.831992","-73.91796","204","16","18102","2002745","2024560100","East Concourse-Concourse Village"
"09","09X449","Zoned School","Grant Avenue Elementary School","250 East 164th Street","718-681-6288","PK-5","Not Accessible","Spanish",,"1007025","240954","10456","BRONX","40.828696","-73.917668","204","16","18302","2002497","2024460043","East Concourse-Concourse Village"
"09","09X457","Zoned School","Sheridan Academy for Young Leaders","1116 Sheridan Avenue","718-538-3411","3K-5","Partially Accessible",,,"1007073","242362","10456","BRONX","40.831992","-73.91796","204","16","18102","2002745","2024560100","East Concourse-Concourse Village"
"09","09X555","Non-Zoned School","Mount Eden Children's Academy","1501 Jerome Avenue","718-294-8155","PK-5","Fully Accessible",,,"1007429","246415","10452","BRONX","40.842495","-73.916082","204","14","209","2008336","2028590077","West Concourse"
"10","10X003","Non-Zoned School","P.S. 3 Raul Julia Micro Society","2100 Lafontaine Avenue","718-584-1899","PK-8","Fully Accessible",,,"1014231","249022","10457","BRONX","40.849897","-73.892289","206","15","37504","2099356","2030620043","East Tremont"
"10","10X007","Zoned School","Milton Fein School","3201 Kingsbridge Avenue","718-796-8695","K-5","Not Accessible",,"Y","1010327","260469","10463","BRONX","40.881066","-73.905366","208","11","287","2083564","2057560195","Spuyten Duyvil-Kingsbridge"
"10","10X008","Zoned School","P.S. 008 Isaac Varian","3010 Briggs Avenue","718-584-3043","PK-5","Not Accessible",,,"1016514","257087","10458","BRONX","40.872612","-73.883574","207","11","415","2094734","2032990060","Bedford Park-Fordham North"
"10","10X009","Zoned School","P.S. 9 Ryer Avenue Elementary School","230 East 183rd Street","718-584-3291","PK-5","Fully Accessible",,,"1012239","251318","10458","BRONX","40.857067","-73.898936","205","15","38301","2013561","2031500010","Fordham South"
"10","10X015","Non-Zoned School","P.S. X015 Institute for Environmental Learning","2195 Andrews Avenue","718-563-0473","K-8","Fully Accessible",,,"1009211","252336","10453","BRONX","40.85881","-73.909746","207","14","255","2096013","2032240009","Kingsbridge Heights"
"10","10X020","Zoned School","PS/MS 20 P.O.George J. Werdann, III","3050 Webster Avenue","718-515-9370","PK-8","Fully Accessible",,,"1017790","256077","10467","BRONX","40.870002","-73.878875","207","11","425","2086851","2033300001","Norwood"
"10","10X023","Zoned School","P.S. 023 The New Children's School","2151 Washington Avenue","718-584-3992","PK-5","Fully Accessible",,,"1013311","250173","10457","BRONX","40.85294","-73.894742","206","15","395","2090472","2030370079","Claremont-Bathgate"
"10","10X024","Zoned School","P.S. 024 Spuyten Duyvil","660 West 236th Street","718-796-8845","K-5","Not Accessible",,"Y","1007721","262419","10463","BRONX","40.887111","-73.913697","208","11","309","2085869","2059170140","North Riverdale-Fieldston-Riverdale"
"10","10X032","Zoned School","P.S. 032 Belmont","690 East 183rd Street","718-584-3645","PK-5","Not Accessible",,,"1015727","249604","10458","BRONX","40.852092","-73.885891","206","15","391","2012409","2030850001","Belmont"
"10","10X033","Zoned School","P.S. 033 Timothy Dwight","2424 Jerome Avenue","718-584-3926","PK-5","Not Accessible",,,"1011560","253233","10468","BRONX","40.86185","-73.90176","205","14","239","2014099","2031880020","Fordham South"
"10","10X037","Zoned School","P.S. X037 - Multiple Intelligence School","360 West 230th Street","718-796-0360","K-8","Fully Accessible",,,"1008117","259145","10463","BRONX","40.880263","-73.910466","208","11","29302","2097990","2057160725","Spuyten Duyvil-Kingsbridge"
"10","10X046","Zoned School","P.S. 046 Edgar Allan Poe","279 East 196th Street","718-584-4450","K-5","Not Accessible","Spanish",,"1014563","255230","10458","BRONX","40.866827","-73.890725","207","15","40501","2094729","2032950001","Bedford Park-Fordham North"
"10","10X051","Non-Zoned School","The Bronx STEM and Arts Academy","695 East 182nd Street","718-733-0347","PK-5","Not Accessible",,,"1015610","249277","10457","BRONX","40.850666","-73.886996","206","15","391","2118254","2030840001","Belmont"
"10","10X054","Zoned School","P.S./I.S. 54","2703 Webster Avenue","718-584-4203","PK-5","Fully Accessible","Spanish",,"1015245","254394","10458","BRONX","40.864527","-73.887829","207","15","40502","2113630","2032780014","Bedford Park-Fordham North"
"10","10X056","Zoned School","P.S. 056 Norwood Heights","341 East 207th Street","718-920-1100","K-5","Fully Accessible",,,"1018843","258264","10467","BRONX","40.875156","-73.875217","207","11","42902","2018457","2033510001","Norwood"
"10","10X059","Zoned School","P.S. 059 The Community School of Technology","2185 Bathgate Avenue","718-584-4730","PK-5","Not Accessible",,,"1013674","250118","10457","BRONX","40.852774","-73.893524","206","15","395","2011538","2030490037","Claremont-Bathgate"
"10","10X077","Zoned School","Bedford Park Elementary School","3177 Webster Avenue","718-696-6400","PK-5","Fully Accessible","Spanish",,"1018564","257153","10467","BRONX","40.872551","-73.875374","207","11","425","2098420","2033530040","Norwood"
"10","10X081","Zoned School","P.S. 081 Robert J. Christen","5550 Riverdale Avenue","718-796-8965","K-5","Not Accessible",,,"1010606","268380","10471","BRONX","40.903553","-73.905229","208","11","337","2084806","2058501550","North Riverdale-Fieldston-Riverdale"
"10","10X085","Zoned School","P.S. 085 Great Expectations","2400 Marion Avenue","718-584-5275","PK-5","Partially Accessible",,,"1013383","252139","10458","BRONX","40.858831","-73.895167","205","15","38302","2011054","2030240021","Fordham South"
"10","10X086","Zoned School","P.S. 086 Kingsbridge Heights","2756 Reservoir Avenue","718-584-5585","PK-6","Partially Accessible",,,"1012719","255917","10468","BRONX","40.869835","-73.89874","207","11","409","2100971","2032470070","Van Cortlandt Village"
"10","10X091","Zoned School","P.S. 091 Bronx","2200 Aqueduct Avenue","718-584-5805","K-5","Not Accessible",,,"1009839","251988","10453","BRONX","40.858103","-73.907972","205","14","251","2094683","2032070040","University Heights-Morris Heights"
"10","10X094","Zoned School","P.S. 094 Kings College School","3530 Kings College Place","718-405-6345","K-5","Not Accessible",,,"1018742","260151","10467","BRONX","40.880522","-73.87572","207","11","431","2018628","2033560042","Norwood"
"10","10X095","Zoned School","P.S. 095 Sheila Mencher","3961 Hillman Avenue","718-796-9200","K-8","Fully Accessible",,,"1014207","261015","10463","BRONX","40.882898","-73.891256","208","11","281","2015472","2032520182","Van Cortlandt Village"
"10","10X159","Non-Zoned School","P.S. 159 Luis Munoz Marin Biling","2315 Washington Avenue","718-584-6140","K-5","Not Accessible",,,"1013812","251043","10458","BRONX","40.855639","-73.892804","206","15","385","2094616","2030380065","Claremont-Bathgate"
"10","10X205","Zoned School","P.S. 205 Fiorello LaGuardia","2475 Southern Boulevard","718-584-6390","K-5","Not Accessible",,,"1016961","251076","10458","BRONX","40.855263","-73.881139","206","15","393","2086808","2031150021","Belmont"
"10","10X207","Zoned School","P.S. 207","3030 Godwin Terrace","718-796-9645","PK-4","Not Accessible","Spanish",,"1010190","259290","10463","BRONX","40.878322","-73.906556","208","11","289","2083138","2057010105","Spuyten Duyvil-Kingsbridge"
"10","10X209","Zoned School","P.S. 209","313 East 183rd Street","718-364-0085","PK-2","Fully Accessible",,,"1012567","251462","10458","BRONX","40.856585","-73.897491","205","15","38301","2103868","2031460072","Fordham South"
"10","10X226","Zoned School","P.S. 226","1950 Sedgwick Avenue","929-452-3090","PK-5","Fully Accessible",,,"1007466","251088","10453","BRONX","40.856573","-73.916202","205","14","249","2096465","2032220100","University Heights-Morris Heights"
"10","10X246","Zoned School","P.S. 246 Poe Center","2641 Grand Concourse","718-584-6764","K-5","Not Accessible",,,"1013209","254792","10468","BRONX","40.865593","-73.894758","207","14","401","2013830","2031680027","Bedford Park-Fordham North"
"10","10X279","Zoned School","P.S. 279 Captain Manuel Rivera, Jr.","2100 Walton Avenue","718-584-6004","K-8","Fully Accessible",,,"1010542","250670","10453","BRONX","40.854432","-73.905566","205","14","241","2103867","2031780014","Mount Hope"
"10","10X280","Zoned School","P.S./M.S. 280 Mosholu Parkway","3202 Steuben Avenue","718-405-6360","K-8","Partially Accessible",,,"1017091","258749","10467","BRONX","40.877202","-73.881773","207","11","419","2018046","2033360035","Norwood"
"10","10X291","Zoned School","P.S. 291","2195 Andrews Avenue","718-563-0776","K-5","Fully Accessible",,,"1009211","252336","10453","BRONX","40.85881","-73.909746","207","14","255","2096013","2032240009","Kingsbridge Heights"
"10","10X306","Zoned School","P.S. 306","40 West Tremont Avenue","718-583-5355","K-5","Fully Accessible",,,"1008920","249231","10453","BRONX","40.851823","-73.91118","205","14","217","2098721","2028620014","University Heights-Morris Heights"
"10","10X307","Zoned School","Luisa Pineiro Fuentes School of Science and Discovery","124 Eames Place","718-601-2632","K-5","Partially Accessible",,,"1011404","255945","10468","BRONX","40.869296","-73.901525","208","14","26701","2115783","2032480062","Van Cortlandt Village"
"10","10X310","Zoned School","P.S. 310 Marble Hill","260 W Kingsbridge Rd","718-796-9434","PK-5","Not Accessible",,,"1010372","257159","10463","BRONX","40.872895","-73.905244","207","14","269","2096486","2032390041","Kingsbridge Heights"
"10","10X315","Non-Zoned School","P.S. 315 Lab School","2865 Claflin Avenue","929-237-7750","K-8","Not Accessible",,,"1011887","257591","10468","BRONX","40.873239","-73.899722","208","14","26702","2086833","2032500073","Van Cortlandt Village"
"10","10X340","Zoned School","P.S. 340","25 West 195th Street","718-220-1830","PK-5","Partially Accessible",,,"1012690","256043","10468","BRONX","40.869007","-73.89749","207","11","409","2101862","2032470015","Van Cortlandt Village"
"10","10X344","Non-Zoned School","Ampark Neighborhood","3961 Hillman Avenue","718-548-3451","PK-5","Fully Accessible",,,"1014207","261015","10463","BRONX","40.882898","-73.891256","208","11","281","2015472","2032520182","Van Cortlandt Village"
"10","10X360","Zoned School","P.S. 360","2880 Kingsbridge Terrace","718-548-1511","PK-5","Fully Accessible",,,"1011293","257976","10463","BRONX","40.874411","-73.902573","208","14","273","2103864","2032530341","Van Cortlandt Village"
"10","10X382","Zoned School","Elementary School for Math, Science, and Technology","125 East 181st Street","718-933-8061","K-5","Fully Accessible",,,"1011045","250915","10453","BRONX","40.854872","-73.903458","205","14","23704","2013849","2031700001","Fordham South"
"10","10X386","Zoned School","School for Environmental Citizenship","125 East 181st Street","718-563-3292","PK-5","Fully Accessible",,,"1011045","250915","10453","BRONX","40.854872","-73.903458","205","14","23704","2013849","2031700001","Fordham South"
"10","10X396","Zoned School","P.S. 396","1930 Andrews Avenue","718-294-0862","PK-5","Not Accessible",,,"1008313","250547","10453","BRONX","40.854701","-73.913197","205","14","24502","2014692","2032160002","University Heights-Morris Heights"
"11","11X016","Zoned School","P.S. 016 Wakefield","4550 Carpenter Avenue","718-324-1262","PK-5","Not Accessible",,,"1024546","268048","10470","BRONX","40.902205","-73.854829","212","11","414","2070894","2050760031","Woodlawn-Wakefield"
"11","11X019","Zoned School","P.S. 019 Judith K. Weiss","4318 Katonah Avenue","718-324-1924","K-8","Not Accessible",,,"1021032","266964","10470","BRONX","40.899295","-73.8675","212","11","45102","2019463","2033860001","Woodlawn-Wakefield"
"11","11X021","Zoned School","P.S. 021 Philip H. Sheridan","715 East 225th Street","718-652-3903","K-5","Not Accessible",,,"1023120","262791","10466","BRONX","40.887582","-73.859733","212","12","406","2063435","2048390039","Williamsbridge-Olinville"
"11","11X041","Zoned School","P.S. 041 Gun Hill Road","3352 Olinville Avenue","718-652-3461","K-5","Not Accessible",,,"1020801","258002","10467","BRONX","40.874313","-73.868157","212","12","374","2056898","2046240015","Williamsbridge-Olinville"
"11","11X068","Zoned School","P.S. 068 Bronx","4011 Monticello Avenue","718-324-2854","PK-5","Partially Accessible",,,"1028797","264154","10466","BRONX","40.891732","-73.838471","212","12","426","2067852","2049860081","Woodlawn-Wakefield"
"11","11X076","Zoned School","P.S. 076 The Bennington School","900 Adee Avenue","718-882-8865","K-5","Not Accessible",,,"1022714","255930","10469","BRONX","40.869593","-73.861282","211","12","342","2054933","2045520010","Allerton-Pelham Gardens"
"11","11X078","Zoned School","P.S. 078 Anne Hutchinson","1400 Needham Avenue","718-652-1244","PK-5","Not Accessible",,,"1025575","259365","10469","BRONX","40.878577","-73.851163","212","12","386","2060191","2047190001","Eastchester-Edenwald-Baychester"
"11","11X083","Zoned School","P.S. 083 Donald Hertz","950 Rhinelander Avenue","718-863-1993","K-8","Partially Accessible",,,"1023323","248687","10462","BRONX","40.849395","-73.859249","211","13","244","2045344","2041250001","Van Nest-Morris Park-Westchester Square"
"11","11X087","Zoned School","P.S. 087 Bronx","1935 Bussing Avenue","718-324-5188","K-5","Not Accessible",,,"1026771","265658","10466","BRONX","40.895104","-73.845968","212","12","428","2069061","2050180001","Woodlawn-Wakefield"
"11","11X089","Zoned School","P.S. 089 Bronx","980 Mace Avenue","718-653-0835","PK-8","Not Accessible",,,"1023181","253534","10469","BRONX","40.863055","-73.859387","211","13","324","2051571","2044440016","Bronxdale"
"11","11X096","Zoned School","P.S. 096 Richard Rodgers","2385 Olinville Avenue","718-652-4959","K-5","Fully Accessible",,,"1020490","252892","10467","BRONX","40.860815","-73.868527","211","15","33201","2049999","2043410013","Bronxdale"
"11","11X097","Zoned School","P.S. 097 Bronx","1375 Mace Avenue","718-655-4446","PK-5","Not Accessible",,,"1026634","253920","10469","BRONX","40.862839","-73.846791","211","13","314","2052739","2044740001","Allerton-Pelham Gardens"
"11","11X103","Zoned School","P.S. 103 Hector Fontanez","4125 Carpenter Avenue","718-655-0261","PK-5","Not Accessible","Spanish",,"1022421","264360","10466","BRONX","40.892151","-73.861466","212","12","420","2062883","2048230001","Williamsbridge-Olinville"
"11","11X105","Zoned School","P.S. 105 Sen Abraham Bernstein","725 Brady Avenue","718-824-7350","PK-5","Not Accessible",,,"1021247","250104","10462","BRONX","40.852398","-73.866617","211","13","22404","2048794","2042880001","Pelham Parkway"
"11","11X106","Zoned School","P.S. 106 Parkchester","1514 Olmstead Avenue","718-892-1006","PK-5","Fully Accessible",,,"1024422","244243","10462","BRONX","40.836374","-73.855175","209","18","222","2041211","2039460007","Parkchester"
"11","11X108","Zoned School","P.S. 108 Philip J. Abinanti","1166 Neill Avenue","718-863-9829","PK-5","Not Accessible",,,"1024957","250593","10461","BRONX","40.854726","-73.853227","211","13","288","2048608","2042750001","Pelham Parkway"
"11","11X111","Zoned School","P.S. 111 Seton Falls","3740 Baychester Avenue","718-881-2418","PK-5","Not Accessible",,,"1028689","261519","10466","BRONX","40.884343","-73.840254","212","12","484","2065992","2049160001","Eastchester-Edenwald-Baychester"
"11","11X112","Zoned School","P.S. 112 Bronxwood","1925 Schieffelin Avenue","718-654-6377","PK-5","Not Accessible",,,"1027392","261724","10466","BRONX","40.885008","-73.843193","212","12","458","2065991","2049050500","Eastchester-Edenwald-Baychester"
"11","11X121","Zoned School","P.S. 121 Throop","2750 Throop Avenue","718-654-2055","PK-5","Not Accessible",,"Y","1025597","254993","10469","BRONX","40.86608","-73.850982","211","13","348","2054253","2045260001","Allerton-Pelham Gardens"
"11","11X153","Zoned School","P.S. 153 Helen Keller","650 Baychester Avenue","718-904-5550","PK-5","Partially Accessible",,"Y","1030803","257757","10475","BRONX","40.872614","-73.833698","210","12","46201","2097470","2051410150","Co-op City"
"11","11X160","Zoned School","P.S. 160 Walt Disney","4140 Hutchinson River Pkway Ea","718-822-8402","PK-5","Partially Accessible",,,"1032982","254132","10475","BRONX","40.864676","-73.824303","210","12","302","2072352","2051350200","Co-op City"
"11","11X169","Zoned School","Baychester Academy","3500 Edson Avenue","718-325-1138","PK-5","Fully Accessible",,,"1028664","260416","10466","BRONX","40.881153","-73.839755","212","12","460","2116222","2048940001","Eastchester-Edenwald-Baychester"
"11","11X175","Zoned School","P.S. 175 City Island","200 City Island Avenue","718-885-1093","K-8","Not Accessible",,,"1044140","246972","10464","BRONX","40.843873","-73.785219","210","13","516","2082444","2056410280","Pelham Bay-Country Club-City Island"
"11","11X178","Zoned School","P.S. 178 - Dr. Selman Waksman","850 Baychester Avenue","718-904-5570","K-5","Partially Accessible",,,"1030803","257757","10475","BRONX","40.875894","-73.833863","210","12","46201","2116161","2051410150","Co-op City"
"11","11X189","Zoned School","Cornerstone Academy for Social Action","3441 Steenwick Avenue","718-794-6160","PK-5","Fully Accessible",,,"1031088","260943","10475","BRONX","40.883025","-73.830366","212","12","46202","2124548","2052630192","Co-op City"
"11","11X194","Zoned School","P.S./M.S. 194","2365 Waterbury Avenue","718-892-5270","K-8","Fully Accessible",,,"1026700","243677","10462","BRONX","40.834782","-73.846632","210","18","96","2103494","2038340070","Westchester-Unionport"
"11","11X357","Zoned School","Young Voices Academy of the Bronx","800 Lydig Avenue","718-794-4080","PK-5","Fully Accessible",,,"1022011","250515","10462","BRONX","40.854415","-73.863732","211","13","228","2048831","2042930031","Pelham Parkway"
"11","11X481","Non-Zoned School","The STEAM Bridge School","1684 White Plains Road","718-239-5660","K-4","Partially Accessible",,,"1021575","246643","10462","BRONX","40.843523","-73.865496","211","13","238","2097571","2040370001","Van Nest-Morris Park-Westchester Square"
"11","11X483","Zoned School","The Matilda Avenue School","4520 Matilda Avenue","718-325-4360","K-4","Not Accessible",,,"1024582","267629","10470","BRONX","40.901428","-73.8544","212","11","414","2097456","2050800001","Woodlawn-Wakefield"
"11","11X498","Non-Zoned School","P.S./M.S. 11X498 - Van Nest Academy","1640 Bronxdale Ave","718-409-3001","K-8","Fully Accessible",,,"1023541","247174","10462","BRONX","40.84473","-73.858207","211","13","244","2116414","2040910001","Van Nest-Morris Park-Westchester Square"
"11","11X567","Zoned School","Linden Tree Elementary School","1560 Purdy Street","718-239-7401","PK-5","Fully Accessible",,,"1024869","244894","10462","BRONX","40.837931","-73.853524","209","18","222","2041247","2039480055","Parkchester"
"12","12X006","Zoned School","P.S. 006 West Farms","1000 East Tremont Avenue","718-542-7676","PK-5","Not Accessible",,,"1016753","245496","10460","BRONX","40.840755","-73.881707","206","17","359","2010892","2030050010","East Tremont"
"12","12X044","Zoned School","P.S. 044 David C. Farragut","1825 Prospect Avenue","718-583-2360","PK-5","Not Accessible",,,"1014385","246265","10457","BRONX","40.842084","-73.891116","206","17","36902","2009957","2029490064","East Tremont"
"12","12X047","Zoned School","P.S. 047 John Randolph","1794 East 172nd Street","718-824-0950","K-5","Not Accessible",,,"1021062","242618","10472","BRONX","40.832902","-73.866848","209","18","76","2025622","2037860016","West Farms-Bronx River"
"12","12X057","Zoned School","P.S. 057 Crescent","2111 Crotona Avenue","718-367-9446","PK-5","Not Accessible",,,"1014963","248519","10457","BRONX","40.848472","-73.888561","206","15","373","2012359","2030810026","East Tremont"
"12","12X061","Zoned School","P.S. 061 Francisco Oller","1550 Crotona Park East","718-542-7230","PK-5","Not Accessible",,,"1013918","243930","10460","BRONX","40.836575","-73.892817","203","17","153","2009865","2029390045","Crotona Park East"
"12","12X066","Zoned School","P.S. 066 School of Higher Expectations","1001 Jennings Street","718-319-2820","PK-5","Not Accessible",,,"1015648","242233","10460","BRONX","40.831165","-73.887094","203","17","157","2010916","2030080001","Crotona Park East"
"12","12X067","Zoned School","P.S. 067 Mohegan School","2024 Mohegan Avenue","718-823-4101","PK-5","Not Accessible",,,"1016292","246711","10460","BRONX","40.843945","-73.884788","206","17","363","2013142","2031230003","East Tremont"
"12","12X134","Zoned School","P.S. 134 George F. Bristow","1330 Bristow Street","718-328-3351","PK-5","Not Accessible",,,"1013517","242274","10459","BRONX","40.831194","-73.894773","203","17","153","2010273","2029650082","Crotona Park East"
"12","12X150","Zoned School","P.S. 150 Charles James Fox","920 East 167th Street","718-328-7729","PK-5","Not Accessible",,,"1013490","239759","10459","BRONX","40.82636","-73.894398","202","17","12701","2005681","2027170005","Hunts Point"
"12","12X195","Zoned School","P.S. 195","1250 Ward Avenue","718-861-4461","PK-5","Not Accessible",,,"1018204","241988","10472","BRONX","40.830087","-73.877603","209","18","54","2088553","2037750025","West Farms-Bronx River"
"12","12X196","Zoned School","P.S. 196","1250 Ward Avenue","718-328-7187","PK-5","Not Accessible",,,"1018204","241988","10472","BRONX","40.830087","-73.877603","209","18","54","2088553","2037750025","West Farms-Bronx River"
"12","12X211","Non-Zoned School","P.S. 211","1919 Prospect Avenue","718-901-0436","PK-8","Partially Accessible",,,"1014645","246681","10457","BRONX","40.843546","-73.889755","206","17","36901","2094582","2029510032","East Tremont"
"12","12X212","Non-Zoned School","P.S. 212","1180 Tinton Avenue","718-842-2331","PK-5","Partially Accessible",,,"1011891","241104","10456","BRONX","40.828419","-73.900721","203","17","135","2004869","2026720001","Morrisania-Melrose"
"12","12X214","Non-Zoned School","P.S. 214","1970 West Farms Road","718-589-6728","PK-8","Partially Accessible",,,"1017473","245079","10460","BRONX","40.839565","-73.880358","206","17","60","2094603","2030210038","Crotona Park East"
"12","12X300","Zoned School","The School of Science and Applied Learning","2050 Prospect Avenue","718-584-6310","PK-5","Partially Accessible",,,"1015591","247565","10457","BRONX","40.846236","-73.887405","206","15","371","2012957","2031090001","East Tremont"
"12","12X314","Zoned School","Fairmont Neighborhood School","1550 Vyse Avenue","718-860-5210","PK-5","Not Accessible",,,"1015521","243215","10460","BRONX","40.834157","-73.887512","203","17","157","2010786","2029960010","Crotona Park East"
"12","12X458","Non-Zoned School","Samara Community School","1550 Vyse Avenue","718-860-5332","PK-5","Not Accessible","Spanish",,"1015521","243215","10460","BRONX","40.834157","-73.887512","203","17","157","2010786","2029960010","Crotona Park East"
"12","12X463","Zoned School","Urban Scholars Community School","1180 Tinton Avenue","718-842-8133","PK-5","Partially Accessible","Spanish",,"1011891","241104","10456","BRONX","40.828419","-73.900721","203","17","135","2004869","2026720001","Morrisania-Melrose"
"12","12X531","Zoned School","Archer Elementary School","1827 Archer Street","718-828-3791","PK-5","Partially Accessible",,,"1021318","244667","10460","BRONX","40.837631","-73.866036","209","18","21601","2028640","2039210030","West Farms-Bronx River"
"12","12X536","Zoned School","P.S. 536","1827 Archer Street","718-931-4270","PK-5","Partially Accessible",,,"1021318","244667","10460","BRONX","40.837631","-73.866036","209","18","21601","2028640","2039210030","West Farms-Bronx River"
"12","12X595","Zoned School","P.S. 595","700 East 179th Street","718-960-4795","PK-3","Not Accessible",,,"1014794","247592","10457","BRONX","40.846711","-73.889815","206","17","371","2012620","2030920014","East Tremont"
"12","12X691","Non-Zoned School","Bronx Little School","1827 Archer Street","718-792-2650","PK-5","Partially Accessible",,,"1021318","244667","10460","BRONX","40.837631","-73.866036","209","18","21601","2028640","2039210030","West Farms-Bronx River"
"13","13K003","Zoned School","P.S. 003 The Bedford Village","50 Jefferson Avenue","718-622-2960","PK-5","Not Accessible","French",,"996670","187864","11216","BROOKLYN","40.682663","-73.955338","303","36","227","3057406","3019980001","Clinton Hill"
"13","13K008","Zoned School","P.S. 008 Robert Fulton","37 Hicks Street","718-834-6740","K-5","Partially Accessible",,,"986235","194564","11201","BROOKLYN","40.70071","-73.993241","302","33","1","3001540","3002110001","Brooklyn Heights-Cobble Hill"
"13","13K009","Zoned School","P.S. 009 Teunis G. Bergen","80 Underhill Avenue","718-638-3260","PK-5","Partially Accessible","Spanish","Y","993588","186494","11238","BROOKLYN","40.678297","-73.965541","308","35","205","3028204","3011450026","Prospect Heights"
"13","13K011","Zoned School","P.S. 011 Purvis J. Behan","419 Waverly Avenue","718-638-2661","PK-5","Partially Accessible",,,"993710","189169","11238","BROOKLYN","40.685491","-73.966291","302","35","199","3332865","3019620010","Clinton Hill"
"13","13K020","Zoned School","P.S. 020 Clinton Hill","225 Adelphi Street","718-834-6744","PK-5","Not Accessible","French",,"992321","190934","11205","BROOKLYN","40.690765","-73.971376","302","35","183","3058531","3020910003","Fort Greene"
"13","13K044","Zoned School","P.S. 044 Marcus Garvey","432 Monroe Street","718-834-6939","PK-5","Not Accessible",,,"1000652","189288","11221","BROOKLYN","40.686592","-73.940747","303","36","277","3051540","3018210001","Stuyvesant Heights"
"13","13K046","Zoned School","P.S. 046 Edward C. Blum","100 Clermont Avenue","718-834-7694","PK-5","Not Accessible","Spanish",,"992113","192314","11205","BROOKLYN","40.694633","-73.971165","302","35","187","3058088","3020450011","Fort Greene"
"13","13K054","Zoned School","P.S. 054 Samuel C. Barnes","195 Sandford Street","718-834-6752","PK-5","Not Accessible","Spanish",,"997421","191619","11205","BROOKLYN","40.693018","-73.953034","303","33","241","3049020","3017650015","Bedford"
"13","13K056","Zoned School","P.S. 056 Lewis H. Latimer","170 Gates Avenue","718-857-3149","PK-5","Partially Accessible",,"Y","995195","188583","11238","BROOKLYN","40.68505","-73.960659","302","35","231","3056874","3019830010","Clinton Hill"
"13","13K067","Zoned School","P.S. 067 Charles A. Dorsey","51 Saint Edwards Street","718-834-6756","PK-5","Not Accessible",,,"990441","192608","11205","BROOKLYN","40.695633","-73.978215","302","35","2901","3332507","3020390002","Fort Greene"
"13","13K093","Zoned School","P.S. 093 William H. Prescott","31 New York Avenue","718-604-7363","PK-5","Not Accessible",,,"999122","186688","11216","BROOKLYN","40.679097","-73.94684","303","36","247","3053993","3018680007","Crown Heights North"
"13","13K133","Non-Zoned School","P.S. 133 William A. Butler","610 Baltic Street","718-398-5320","PK-5","Fully Accessible","French, Spanish",,"989671","186989","11217","BROOKLYN","40.680428","-73.980491","306","39","12901","3413716","3009400111","Park Slope-Gowanus"
"13","13K256","Zoned School","P.S. 256 Benjamin Banneker","114 Kosciuszko Street","718-857-9820","PK-5","Not Accessible",,,"998224","190883","11216","BROOKLYN","40.690725","-73.950433","303","36","253","3049769","3017840020","Bedford"
"13","13K270","Zoned School","P.S. 270 Johann DeKalb","241 Emerson Place","718-623-5280","PK-5","Not Accessible",,,"995028","191129","11205","BROOKLYN","40.690202","-73.961478","302","35","193","3055378","3019330102","Clinton Hill"
"13","13K282","Zoned School","P.S. 282 Park Slope","180 6th Avenue","718-622-1626","PK-5,8","Not Accessible",,"Y","990357","185799","11217","BROOKLYN","40.67634","-73.977367","306","39","131","3019597","3009500024","Park Slope-Gowanus"
"13","13K287","Zoned School","P.S. 287 Bailey K. Ashford","50 Navy Street","718-834-4745","PK-5","Not Accessible",,,"989485","193525","11201","BROOKLYN","40.697901","-73.98054","302","35","23","3000203","3001110001","DUMBO-Vinegar Hill-Downtown Brooklyn-Boerum Hill"
"13","13K305","Zoned School","P.S. 305 Dr. Peter Ray","344 Monroe Street","718-789-3962","PK-5","Not Accessible",,,"999301","189083","11216","BROOKLYN","40.686076","-73.945229","303","36","265","3051458","3018190014","Bedford"
"13","13K307","Zoned School","P.S. 307 Daniel Hale Williams","209 York Street","718-834-4748","PK-5","Not Accessible",,,"989352","194958","11201","BROOKLYN","40.701343","-73.982314","302","33","21","3000158","3000560007","DUMBO-Vinegar Hill-Downtown Brooklyn-Boerum Hill"
"13","13K492","Non-Zoned School","Academy of Arts and Letters","225 Adelphi Street","718-222-1605","K-8","Not Accessible",,,"992321","190934","11205","BROOKLYN","40.690765","-73.971376","302","35","183","3058531","3020910003","Fort Greene"
"14","14K016","Zoned School","P.S. 016 Leonard Dunkly","157 Wilson Street","718-782-5352","PK-5","Not Accessible",,,"994772","196519","11211","BROOKLYN","40.706023","-73.961476","301","33","535","3059906","3021770001","Williamsburg"
"14","14K017","Zoned School","P.S. 017 Henry D. Woodworth","208 North 5th Street","718-387-2929","PK-5","Not Accessible",,,"996087","199871","11211","BROOKLYN","40.715351","-73.956716","301","34","519","3062337","3023450001","North Side-South Side"
"14","14K018","Zoned School","P.S. 018 Edward Bush","101 Maujer Street","718-387-3241","PK-5","Not Accessible","Spanish",,"999028","198274","11206","BROOKLYN","40.710609","-73.946977","301","34","503","3000000","3027870001","East Williamsburg"
"14","14K023","Zoned School","P.S. 023 Carter G. Woodson","545 Willoughby Avenue","718-387-0375","PK-5","Partially Accessible",,,"998876","192295","11206","BROOKLYN","40.69407","-73.94756","303","36","25901","3048818","3017590013","Bedford"
"14","14K031","Zoned School","P.S. 031 Samuel F. Dupont","75 Meserole Avenue","718-383-8998","PK-5","Not Accessible",,,"996961","204135","11222","BROOKLYN","40.726587","-73.95427","301","33","561","3065299","3025950001","Greenpoint"
"14","14K034","Zoned School","P.S. 034 Oliver H. Perry","131 Norman Avenue","718-389-5842","PK-5","Not Accessible","Polish",,"998176","203920","11222","BROOKLYN","40.726135","-73.949649","301","33","573","3065733","3026220028","Greenpoint"
"14","14K059","Zoned School","P.S. 059 William Floyd","211 Throop Avenue","718-443-3600","PK-5","Not Accessible","Spanish",,"999978","193443","11206","BROOKLYN","40.696733","-73.943652","303","36","28502","3048546","3017490001","Stuyvesant Heights"
"14","14K084","Zoned School","P.S. 084 Jose De Diego","250 Berry Street","718-384-8063","PK-8","Not Accessible","Spanish",,"994283","199805","11249","BROOKLYN","40.714785","-73.963","301","34","551","3062766","3023910001","North Side-South Side"
"14","14K110","Zoned School","P.S. 110 The Monitor","124 Monitor Street","718-383-7600","PK-5","Fully Accessible","French",,"1000347","202961","11222","BROOKLYN","40.723897","-73.942312","301","33","591","3067144","3026880042","Greenpoint"
"14","14K120","Zoned School","P.S. 120 Carlos Tapia","18 Beaver Street","718-455-1000","PK-5","Not Accessible",,,"1001472","194610","11206","BROOKLYN","40.700609","-73.93834","304","34","389","3071806","3031370026","Bushwick South"
"14","14K132","Zoned School","P.S. 132 The Conselyea School","320 Manhattan Avenue","718-599-7301","PK-5","Fully Accessible",,"Y","999313","199692","11211","BROOKLYN","40.71466","-73.946108","301","34","497","3068728","3027590001","East Williamsburg"
"14","14K147","Zoned School","P.S. 147 Isaac Remsen","325 Bushwick Avenue","718-497-0326","PK-5","Not Accessible","Japanese",,"1001221","196135","11206","BROOKLYN","40.705204","-73.939407","301","34","485","3071418","3030910001","Bushwick South"
"14","14K157","Zoned School","P.S./I.S. 157 The Benjamin Franklin Health & Science Academy","850 Kent Avenue","718-622-9285","PK-8","Not Accessible","Spanish",,"995342","192631","11205","BROOKLYN","40.695417","-73.959571","303","33","1237","3054671","3018970013","Bedford"
"14","14K196","Zoned School","P.S. 196 Ten Eyck","207 Bushwick Avenue","718-497-0139","PK-5","Not Accessible","Spanish",,"1001055","197519","11206","BROOKLYN","40.708723","-73.940002","301","34","485","3071024","3030460001","Bushwick South"
"14","14K250","Zoned School","P.S. 250 George H. Lindsay","108 Montrose Avenue","718-384-0889","PK-5","Not Accessible","Chinese",,"999316","196754","11206","BROOKLYN","40.707104","-73.945475","301","34","505","3071199","3030600001","East Williamsburg"
"14","14K257","Zoned School","P.S. 257 John F. Hylan","60 Cook Street","718-384-7128","PK-5","Partially Accessible",,,"1000513","195316","11206","BROOKLYN","40.702392","-73.941801","301","34","491","3071571","3031140011","East Williamsburg"
"14","14K297","Zoned School","P.S. 297 Abraham Stockton","700 Park Avenue","718-388-4581","PK-5","Not Accessible",,,"998623","193354","11206","BROOKLYN","40.697781","-73.947809","303","36","257","3048508","3017390011","Bedford"
"14","14K319","Zoned School","P.S. 319","360 Keap Street","718-388-1588","PK-1","Partially Accessible","Spanish",,"997036","197818","11211","BROOKLYN","40.709674","-73.954217","301","34","527","3063189","3024240001","North Side-South Side"
"14","14K380","Zoned School","P.S. 380 John Wayne Elementary","370 Marcy Avenue","718-388-0607","PK-5","Partially Accessible","Spanish",,"997087","194961","11206","BROOKLYN","40.702427","-73.952985","301","33","531","3061235","3022360009","Bedford"
"14","14K414","Zoned School","Brooklyn Arbor Elementary School","325 South 3rd Street","718-963-0393","PK-5","Not Accessible","Spanish",,"996815","197991","11211","BROOKLYN","40.709647","-73.95465","301","34","527","3063188","3024230001","North Side-South Side"
"15","15K001","Zoned School","P.S. 001 The Bergen","309 47th Street","718-567-7661","PK-5","Not Accessible","Spanish",,"981081","175710","11220","BROOKLYN","40.649042","-74.012289","307","38","80","3011821","3007550022","Sunset Park West"
"15","15K010","Zoned School","Magnet School of Math, Science and Design Technology","511 7th Avenue","718-965-1190","K-5","Partially Accessible",,,"988149","180065","11215","BROOKLYN","40.661061","-73.986534","307","38","149","3016509","3008690001","Park Slope-Gowanus"
"15","15K015","Zoned School","P.S. 015 Patrick F. Daly","71 Sullivan Street","718-330-9280","PK-5","Not Accessible","Spanish",,"980959","185957","11231","BROOKLYN","40.677343","-74.011558","306","38","53","3008585","3005660001","Carroll Gardens-Columbia Street-Red Hook"
"15","15K024","Zoned School","P.S. 024","427 38th Street","718-832-9366","PK-5","Fully Accessible","Spanish",,"982992","177121","11232","BROOKLYN","40.652701","-74.004743","307","38","84","3346119","3007010001","Sunset Park West"
"15","15K029","Zoned School","P.S. 029 John M. Harrigan","425 Henry Street","718-330-9277","PK-5","Not Accessible",,,"984958","189512","11201","BROOKLYN","40.686951","-73.99806","306","39","45","3255627","3003110001","Carroll Gardens-Columbia Street-Red Hook"
"15","15K032","Zoned School","P.S. 032 Samuel Mills Sprole","317 Hoyt Street","718-222-6400","PK-5","Partially Accessible",,"Y","986707","187077","11231","BROOKLYN","40.680445","-73.991949","306","39","75","3000000","3004370001","Carroll Gardens-Columbia Street-Red Hook"
"15","15K038","Zoned School","P.S. 038 The Pacific","450 Pacific Street","718-330-9305","PK-5","Not Accessible",,"Y","989013","188821","11217","BROOKLYN","40.685264","-73.982639","302","33","39","3001183","3001910001","DUMBO-Vinegar Hill-Downtown Brooklyn-Boerum Hill"
"15","15K039","Zoned School","P.S. 039 Henry Bristow","417 6th Avenue","718-330-9310","K-5","Not Accessible",,,"988991","182882","11215","BROOKLYN","40.668916","-73.983195","306","39","153","3021932","3010000001","Park Slope-Gowanus"
"15","15K058","Zoned School","P.S. 058 The Carroll","330 Smith Street","718-330-9322","PK-5","Not Accessible","French",,"985502","187157","11231","BROOKLYN","40.680415","-73.994754","306","39","77","3007547","3004490015","Carroll Gardens-Columbia Street-Red Hook"
"15","15K094","Zoned School","P.S. 094 The Henry Longfellow","5010 6th Avenue","718-435-6034","K-5","Not Accessible","Chinese, Spanish",,"981809","173805","11220","BROOKLYN","40.64366","-74.008252","307","38","98","3332126","3007920026","Sunset Park East"
"15","15K107","Zoned School","P.S. 107 John W. Kimball","1301 8th Avenue","718-499-2054","PK-5","Not Accessible",,,"989471","180806","11215","BROOKLYN","40.663251","-73.981289","306","39","167","3026517","3011010001","Park Slope-Gowanus"
"15","15K118","Zoned School","The Maurice Sendak Community School","211 8th Street","718-840-5660","PK-5","Not Accessible",,,"987689","183793","11215","BROOKLYN","40.670764","-73.987787","306","39","137","3021840","3009980001","Park Slope-Gowanus"
"15","15K124","Zoned School","P.S. 124 Silas B. Dutcher","515 4th Avenue","718-788-0246","PK-5","Not Accessible","Spanish",,"986852","182452","11215","BROOKLYN","40.667545","-73.991046","306","39","141","3023391","3010340001","Park Slope-Gowanus"
"15","15K130","Zoned School","P.S. 130 The Parkside","70 Ocean Parkway","718-686-1940","PK-5","Not Accessible",,,"990895","175698","11218","BROOKLYN","40.648884","-73.975607","307","39","500","3124019","3053190001","Windsor Terrace"
"15","15K131","Zoned School","P.S. 131 Brooklyn","4305 Ft Hamilton Parkway","718-431-1960","PK-5","Not Accessible",,,"986124","172711","11219","BROOKLYN","40.641157","-73.993482","312","39","224","3136085","3056030001","Borough Park"
"15","15K146","Non-Zoned School","The Brooklyn New School, P.S. 146","610 Henry Street","718-923-4750","PK-5","Not Accessible",,,"983689","186823","11231","BROOKLYN","40.68007","-74.001377","306","39","63","3336036","3003690001","Carroll Gardens-Columbia Street-Red Hook"
"15","15K154","Zoned School","The Windsor Terrace School","1625 11st Avenue","718-768-0057","K-5","Not Accessible",,,"990918","178641","11215","BROOKLYN","40.657472","-73.97618","307","39","171","3121871","3052570001","Windsor Terrace"
"15","15K169","Zoned School","P.S. 169 Sunset Park","4305 7th Avenue","718-853-3224","K-5","Not Accessible","Chinese, Spanish",,"983778","174568","11232","BROOKLYN","40.64629","-74.001903","307","38","92","3011002","3007320001","Sunset Park East"
"15","15K172","Zoned School","P.S. 172 Beacon School of Excellence","825 4th Avenue","718-965-4200","PK-5","Not Accessible",,,"984197","178888","11232","BROOKLYN","40.657914","-74.000652","307","38","101","3009847","3006690001","Sunset Park West"
"15","15K230","Zoned School","P.S. 230 Doris L. Cohen","1 Albemarle Road","718-437-6135","PK-5","Partially Accessible","Spanish","Y","989657","174490","11218","BROOKLYN","40.645017","-73.980761","312","39","498","3124109","3053230032","Kensington-Ocean Parkway"
"15","15K261","Zoned School","P.S. 261 Philip Livingston","314 Pacific Street","718-330-9275","PK-5","Partially Accessible",,,"987393","189649","11201","BROOKLYN","40.687466","-73.988288","302","33","43","3001070","3001880014","DUMBO-Vinegar Hill-Downtown Brooklyn-Boerum Hill"
"15","15K295","Zoned School","P.S. 295","330 18th Street","718-965-0390","PK-5","Not Accessible",,,"987373","180026","11215","BROOKLYN","40.660976","-73.988297","307","38","147","3331274","3008800001","Sunset Park West"
"15","15K321","Zoned School","P.S. 321 William Penn","180 7th Avenue","718-499-2412","K-5","Not Accessible",,,"990177","184038","11215","BROOKLYN","40.67146","-73.977783","306","39","155","3337516","3009710028","Park Slope-Gowanus"
"15","15K418","Non-Zoned School","P.S. 372 -The Children's School","512 Carroll Street","718-624-5271","PK-5","Not Accessible",,,"988272","185634","11215","BROOKLYN","40.676668","-73.985258","306","39","119","3007707","3004550001","Park Slope-Gowanus"
"15","15K516","Zoned School","Sunset Park Avenues Elementary School","4222 4th Avenue","718-369-8330","PK-5","Partially Accessible","Spanish",,"981864","176418","11232","BROOKLYN","40.650785","-74.008105","307","38","82","3337158","3007230025","Sunset Park West"
"15","15K676","Zoned School","Red Hook Neighborhood School","27 Huntington Street","718-330-2238","PK-5","Not Accessible",,,"982821","186259","11231","BROOKLYN","40.677564","-74.005166","306","38","59","3008342","3005250001","Carroll Gardens-Columbia Street-Red Hook"
"15","15K896","Non-Zoned School","The School of Creativity and Innovation","736 48th Street","929-419-6049","PK-1","Partially Accessible","Chinese, Spanish",,"983055","173545","11220","BROOKLYN","40.643018","-74.003856","307","38","108","3332092","3007770001","Sunset Park East"
"16","16K005","Zoned School","P.S. 005 Dr. Ronald McNair","820 Hancock Street","718-218-2444","3K-5","Not Accessible",,,"1005891","188938","11233","BROOKLYN","40.685695","-73.922463","303","41","377","3039906","3014900001","Stuyvesant Heights"
"16","16K021","Zoned School","P.S. 021 Crispus Attucks","180 Chauncey Street","718-493-9681","3K-5","Not Accessible",,,"1004588","187155","11233","BROOKLYN","40.680727","-73.926597","303","36","381","3047914","3016920017","Crown Heights North"
"16","16K025","Zoned School","P.S. 025 Eubie Blake School","787 Lafayette Avenue","718-574-2336","PK-5","Not Accessible",,,"1000681","191204","11221","BROOKLYN","40.691037","-73.941342","303","36","281","3049858","3017870014","Stuyvesant Heights"
"16","16K026","Zoned School","P.S. 026 Jesse Owens","1014 Lafayette Avenue","718-919-5707","3K-5","Fully Accessible",,,"1003152","191221","11221","BROOKLYN","40.692126","-73.931731","303","36","291","3393805","3016160001","Stuyvesant Heights"
"16","16K028","Zoned School","P.S. 028 The Warren Prep Academy","265 Ralph Avenue","718-467-2865","PK-5","Not Accessible",,,"1006482","186387","11233","BROOKLYN","40.680463","-73.922264","303","41","379","3041214","3015180001","Stuyvesant Heights"
"16","16K040","Zoned School","P.S. 040 George W. Carver","265 Ralph Avenue","718-574-2353","3K-5","Not Accessible",,,"1006134","187116","11233","BROOKLYN","40.680463","-73.922264","303","41","379","3041214","3015180001","Stuyvesant Heights"
"16","16K081","Zoned School","P.S. 081 Thaddeus Stevens","990 Dekalb Avenue","718-574-2365","3K-5","Partially Accessible",,,"1002241","191713","11221","BROOKLYN","40.693161","-73.935765","303","36","289","3043248","3016020019","Stuyvesant Heights"
"16","16K243","Zoned School","P.S. 243K- The Weeksville School","1580 Dean Street","718-604-6909","3K-5","Not Accessible",,,"1002254","185450","11213","BROOKLYN","40.676094","-73.935688","308","36","309","3035761","3013470001","Crown Heights North"
"16","16K262","Zoned School","P.S. 262 El Hajj Malik El Shabazz Elementary School","500 Macon Street","718-453-0780","3K-5","Not Accessible",,,"1003628","188101","11233","BROOKLYN","40.683241","-73.930813","303","36","297","3046876","3016710019","Crown Heights North"
"16","16K308","Zoned School","P.S. 308 Clara Cardwell","616 Quincy Street","718-571-6960","3K-8","Partially Accessible",,,"1002135","190058","11221","BROOKLYN","40.688695","-73.935499","303","36","293","3044493","3016300001","Stuyvesant Heights"
"16","16K309","Zoned School","P.S. 309 The George E. Wibecan Preparatory Academy","794 Monroe Street","718-574-2381","3K-5","Not Accessible",,,"1005210","189979","11221","BROOKLYN","40.688419","-73.924833","303","41","385","3045047","3016430036","Stuyvesant Heights"
"16","16K335","Zoned School","P.S. 335 Granville T. Woods","130 Rochester Avenue","718-493-7736","PK-5","Not Accessible",,,"1004035","185020","11213","BROOKLYN","40.674656","-73.927794","308","36","307","3035887","3013550023","Crown Heights North"
"16","16K627","Zoned School","Brighter Choice Community School","280 Hart Street","718-574-2378","3K-5","Not Accessible","Spanish",,"1000534","191999","11206","BROOKLYN","40.694086","-73.940744","303","36","281","3049420","3017730014","Stuyvesant Heights"
"16","16K628","Non-Zoned School","Brooklyn Brownstone School","272 Macdonough Street","718-573-2307","PK-5","Not Accessible",,,"1002031","187582","11233","BROOKLYN","40.681896","-73.935963","303","36","273","3047054","3016740011","Stuyvesant Heights"
"17","17K006","Zoned School","Norma Adams Clemons Academy","43 Snyder Avenue","718-856-6560","PK-5","Fully Accessible",,,"996382","175718","11226","BROOKLYN","40.64859","-73.957138","314","40","794","3117230","3051030079","Erasmus"
"17","17K012","Zoned School","Dr. Jacqueline Peek-Davis School","430 Howard Avenue","718-953-4569","PK-5","Fully Accessible",,,"1006415","184524","11233","BROOKLYN","40.673073","-73.919594","316","41","363","3039174","3014570032","Ocean Hill"
"17","17K091","Zoned School","P.S. 091 The Albany Avenue School","532 Albany Avenue","718-756-0243","PK-5","Not Accessible",,,"1000700","180396","11203","BROOKLYN","40.661886","-73.93994","309","41","806","3106599","3047940026","Prospect Lefferts Gardens-Wingate"
"17","17K092","Zoned School","P.S. 092 Adrian Hegeman","601 Parkside Avenue","718-462-2087","PK-5","Not Accessible",,,"997066","178379","11226","BROOKLYN","40.656046","-73.953742","309","40","802","3115866","3050490055","Prospect Lefferts Gardens-Wingate"
"17","17K138","Zoned School","P.S. 138 Brooklyn","760 Prospect Place","718-467-0800","PK-8","Partially Accessible",,,"997687","184816","11216","BROOKLYN","40.67438","-73.951443","308","36","31701","3330794","3012330026","Crown Heights North"
"17","17K161","Zoned School","P.S. 161 The Crown","330 Crown Street","718-756-3100","PK-5","Not Accessible",,,"998331","181834","11225","BROOKLYN","40.666181","-73.949013","309","35","319","3034181","3012970026","Crown Heights South"
"17","17K181","Zoned School","P.S. 181 Brooklyn","1023 New York Avenue","718-462-5298","PK-8","Fully Accessible",,,"999267","175444","11203","BROOKLYN","40.648215","-73.946374","317","45","856","3327776","3049040010","East Flatbush-Farragut"
"17","17K189","Zoned School","P.S. 189 The Bilingual Center","1100 East New York Avenue","718-756-0210","K-8","Not Accessible","Haitian-Creole, Spanish",,"1004936","181646","11212","BROOKLYN","40.665565","-73.926246","317","41","892","3099537","3045990001","Brownsville"
"17","17K191","Zoned School","P.S. 191 Paul Robeson","1600 Park Place","718-756-1206","PK-5","Not Accessible",,,"1005297","184015","11233","BROOKLYN","40.672005","-73.924329","308","41","359","3036635","3013750012","Crown Heights North"
"17","17K221","Zoned School","P.S. 221 Toussaint L'Ouverture","791 Empire Boulevard","718-756-0122","PK-5","Not Accessible",,,"1002074","181183","11213","BROOKLYN","40.663701","-73.936049","309","35","355","3038372","3014230014","Crown Heights South"
"17","17K241","Zoned School","P.S. 241 Emma L. Johnston","976 President Street","718-636-4725","PK-5","Not Accessible",,,"995090","182982","11225","BROOKLYN","40.669339","-73.960675","309","35","213","3378160","3011880001","Crown Heights South"
"17","17K249","Zoned School","P.S. 249 The Caton","18 Marlborough Road","718-282-8828","PK-5","Partially Accessible","Spanish",,"993558","175912","11226","BROOKLYN","40.64971","-73.966046","314","40","506","3116438","3050750001","Flatbush"
"17","17K289","Zoned School","P.S. 289 George V. Brower","900 St Marks Avenue","718-493-3824","PK-5","Partially Accessible",,,"1000227","184927","11213","BROOKLYN","40.674794","-73.942639","308","36","341","3031050","3012290028","Crown Heights North"
"17","17K316","Zoned School","P.S. 316 Elijah Stroud","750 Classon Avenue","718-638-4043","PK-5","Not Accessible",,"Y","994952","185085","11238","BROOKLYN","40.674406","-73.960254","308","35","215","3029246","3011670018","Prospect Heights"
"17","17K375","Zoned School","P.S. 375 Jackie Robinson School","46 Mckeever Place","718-693-6655","PK-5","Not Accessible","Spanish",,"995490","181629","11225","BROOKLYN","40.665035","-73.959031","309","35","325","3034356","3013010001","Crown Heights South"
"17","17K394","Non-Zoned School","M.S. K394","188 Rochester Avenue","718-756-3164","PK-8","Not Accessible",,,"1003968","184371","11213","BROOKLYN","40.672762","-73.927973","308","36","347","3036289","3013670022","Crown Heights North"
"17","17K397","Zoned School","P.S. 397 Foster-Laurie","490 Fenimore Street","718-774-5200","PK-5","Partially Accessible",,,"999133","179250","11203","BROOKLYN","40.658939","-73.94629","309","40","810","3107315","3048150020","Prospect Lefferts Gardens-Wingate"
"17","17K398","Zoned School","P.S. 398 Walter Weaver","60 East 94th Street","718-774-4466","PK-5","Fully Accessible",,,"1004231","180975","11212","BROOKLYN","40.663559","-73.926959","317","41","882","3323072","3045950015","Rugby-Remsen Village"
"17","17K399","Zoned School","P.S. 399 Stanley Eugene Clark","2707 Albemarle Road","718-693-3023","K-5","Partially Accessible",,,"997663","175465","11226","BROOKLYN","40.648044","-73.951891","317","40","824","3117396","3051110001","Erasmus"
"17","17K532","Zoned School","New Bridges Elementary","1025 Eastern Parkway","718-363-8200","PK-5","Not Accessible",,,"1002471","183221","11213","BROOKLYN","40.669001","-73.934635","308","35","353","3037303","3013890035","Crown Heights North"
"17","17K705","Zoned School","Brooklyn Arts and Science Elementary School","443 St Marks Avenue","718-230-0851","PK-5","Fully Accessible","Spanish",,"995319","185965","11238","BROOKLYN","40.676774","-73.960058","308","35","305","3028281","3011480050","Crown Heights North"
"17","17K770","Non-Zoned School","P.S. 770 New American Academy","60 East 94th Street","718-221-5837","PK-5","Fully Accessible",,,"1004231","180975","11212","BROOKLYN","40.663559","-73.926959","317","41","882","3323072","3045950015","Rugby-Remsen Village"
"18","18K066","Non-Zoned School","P.S. 66","845 East 96th Street","718-922-3505","PK-8","Fully Accessible",,,"1010039","175647","11236","BROOKLYN","40.64883","-73.907774","318","42","970","3325418","3081290060","Canarsie"
"18","18K114","Zoned School","P.S. 114 Ryder Elementary","1077 Remsen Avenue","718-257-4428","PK-5","Fully Accessible",,,"1009815","173437","11236","BROOKLYN","40.642545","-73.908529","318","46","964","3229159","3081600022","Canarsie"
"18","18K115","Zoned School","P.S. 115 Daniel Mucatel School","1500 East 92nd Street","718-241-1000","PK-5","Partially Accessible",,"Y","1012589","170590","11236","BROOKLYN","40.635015","-73.897262","318","46","1008","3232559","3082560001","Canarsie"
"18","18K135","Zoned School","P.S. 135 Sheldon A. Brookner","684 Linden Boulevard","718-693-4363","PK-5","Not Accessible",,,"1002855","177223","11203","BROOKLYN","40.65364","-73.933114","317","41","870","3102005","3046730001","East Flatbush-Farragut"
"18","18K208","Zoned School","P.S. 208 Elsa Ebeling","4801 Avenue D","718-629-1670","PK-5","Not Accessible",,,"1003427","173437","11203","BROOKLYN","40.642031","-73.931151","317","45","840","3105680","3047690025","East Flatbush-Farragut"
"18","18K219","Zoned School","P.S. 219 Kennedy-King","1060 Clarkson Avenue","929-397-9566","PK-5","Not Accessible",,,"1005809","179317","11212","BROOKLYN","40.659288","-73.922919","317","41","886","3101168","3046480001","Rugby-Remsen Village"
"18","18K233","Zoned School","P.S. 233 Langston Hughes","9301 Avenue B","718-346-8103","PK-5","Partially Accessible",,,"1008035","176699","11236","BROOKLYN","40.651022","-73.91402","317","42","930","3104990","3047530001","Rugby-Remsen Village"
"18","18K235","Zoned School","P.S. 235 Janice Marie Knight School","525 Lenox Road","718-773-4869","PK-8","Partially Accessible",,,"1000642","178039","11203","BROOKLYN","40.654704","-73.941089","317","41","814","3107846","3048440001","East Flatbush-Farragut"
"18","18K244","Zoned School","P.S. 244 Richard R. Green","5404 Tilden Avenue","718-346-6240","PK-5","Fully Accessible",,,"1004898","175315","11203","BROOKLYN","40.648423","-73.925948","317","45","946","3104513","3047390001","Rugby-Remsen Village"
"18","18K268","Zoned School","P.S. 268 Emma Lazarus","133 East 53rd Street","718-773-5332","PK-5","Not Accessible",,,"1004349","178801","11203","BROOKLYN","40.657131","-73.928018","317","41","866","3100292","3046230028","Rugby-Remsen Village"
"18","18K272","Zoned School","P.S. 272 Curtis Estabrook","101-24 Seaview Avenue","929-437-5000","PK-5","Not Accessible",,,"1015787","170842","11236","BROOKLYN","40.635916","-73.886412","318","46","1034","3235262","3083290250","Canarsie"
"18","18K276","Zoned School","P.S. 276 Louis Marshall","1070 East 83rd Street","718-241-5757","PK-5","Not Accessible","Haitian-Creole",,"1009664","170275","11236","BROOKLYN","40.634085","-73.907925","318","46","996","3225637","3080340001","Canarsie"
"18","18K279","Zoned School","P.S. 279 Herman Schreiber","1070 East 104th Street","718-444-4316","PK-5","Fully Accessible",,,"1014000","173970","11236","BROOKLYN","40.644203","-73.892264","318","46","986","3326733","3082300001","Canarsie"
"19","19K007","Zoned School","P.S. 007 Abraham Lincoln","858 Jamaica Avenue","718-647-3600","3K-5","Fully Accessible",,,"1019475","190401","11208","BROOKLYN","40.689697","-73.873109","305","37","118201","3090998","3041060039","Cypress Hills-City Line"
"19","19K013","Zoned School","P.S. 013 Roberto Clemente","557 Pennsylvania Avenue","718-498-3717","3K-5","Fully Accessible",,,"1013844","181232","11207","BROOKLYN","40.663673","-73.893754","305","42","1126","3085070","3038230001","East New York (Pennsylvania Ave)"
"19","19K065","Zoned School","P.S. 065","696 Jamaica Avenue","718-235-2223","K-5","Fully Accessible",,,"1017987","189423","11208","BROOKLYN","40.687145","-73.878547","305","37","117601","3397004","3041020019","Cypress Hills-City Line"
"19","19K089","Non-Zoned School","P.S. 089 Cypress Hills","265 Warwick Street","718-964-1180","3K-8","Fully Accessible","Spanish",,"1015673","186204","11207","BROOKLYN","40.677697","-73.886936","305","37","1170","3397079","3039520047","East New York"
"19","19K108","Zoned School","P.S. 108 Sal Abbracciamento","200 Linwood Street","718-277-7010","PK-5","Not Accessible","Spanish",,"1016327","187512","11208","BROOKLYN","40.681268","-73.884063","305","37","117202","3087131","3039260045","Cypress Hills-City Line"
"19","19K149","Zoned School","P.S. 149 Danny Kaye","700 Sutter Avenue","718-688-7620","3K-5","Not Accessible",,"Y","1013999","183161","11207","BROOKLYN","40.669719","-73.892822","305","42","1158","3084348","3037740016","East New York (Pennsylvania Ave)"
"19","19K158","Zoned School","P.S. 158 Warwick","400 Ashford Street","718-277-6116","3K-5","Not Accessible",,,"1016091","184340","11207","BROOKLYN","40.672579","-73.884803","305","37","1150","3089176","3040150001","East New York"
"19","19K159","Zoned School","P.S. 159 Isaac Pitkin","2781 Pitkin Avenue","718-277-4828","K-5","Not Accessible","Spanish",,"1020391","185629","11208","BROOKLYN","40.675766","-73.869469","305","42","1200","3094735","3042160001","East New York"
"19","19K190","Zoned School","P.S. 190 Sheffield","590 Sheffield Avenue","718-346-8780","3K-5","Fully Accessible",,,"1013415","180567","11207","BROOKLYN","40.662326","-73.894441","305","42","1128","3085491","3038380018","East New York (Pennsylvania Ave)"
"19","19K202","Zoned School","P.S. 202 Ernest S. Jenkyns","982 Hegeman Avenue","718-649-7880","3K-5","Not Accessible",,,"1018627","181876","11208","BROOKLYN","40.666417","-73.876563","305","42","1116","3098664","3044770001","East New York"
"19","19K213","Zoned School","P.S. 213 New Lots","580 Hegeman Avenue","718-257-4034","3K-5","Not Accessible",,,"1014778","179695","11207","BROOKLYN","40.66051","-73.890288","305","42","1104","3097334","3043240001","East New York"
"19","19K214","Zoned School","P.S. 214 Michael Friedsam","2944 Pitkin Avenue","718-647-1740","3K-5","Not Accessible","Spanish",,"1022262","185548","11208","BROOKLYN","40.676513","-73.863151","305","37","1202","3095254","3042430001","Cypress Hills-City Line"
"19","19K224","Zoned School","P.S. 224 Hale A. Woodruff","757 Wortman Avenue","718-235-3600","PK-5","Fully Accessible",,,"1021275","181270","11208","BROOKLYN","40.664075","-73.866092","305","42","1220","3098980","3045300001","East New York"
"19","19K273","Zoned School","P.S. 273 Wortman","923 Jerome Street","718-649-5739","3K-5","Not Accessible",,,"1017745","179209","11207","BROOKLYN","40.657922","-73.879354","305","42","1078","3097973","3044010001","East New York"
"19","19K290","Zoned School","P.S. 290 Juan Morel Campos","135 Schenck Avenue","718-647-1113","PK-5","Not Accessible",,,"1014934","186376","11207","BROOKLYN","40.67789","-73.889758","305","37","1198","3087821","3039490018","East New York"
"19","19K306","Zoned School","P.S. 306 Ethan Allen","970 Vermont Street","718-649-3155","3K-5","Not Accessible",,,"1015709","178055","11207","BROOKLYN","40.655997","-73.886547","305","42","1104","3097873","3043920001","East New York"
"19","19K325","Zoned School","The Fresh Creek School","875 Williams Avenue","718-272-1843","3K-5","Not Accessible",,,"1013858","177334","11207","BROOKLYN","40.654031","-73.894854","318","42","982","3229155","3081580035","Canarsie"
"19","19K328","Zoned School","P.S. 328 Phyllis Wheatley","330 Alabama Avenue","718-345-9393","3K-5","Not Accessible",,,"1012477","182658","11207","BROOKLYN","40.668167","-73.897835","305","42","1134","3084283","3037680001","East New York (Pennsylvania Ave)"
"19","19K345","Zoned School","P.S. 345 Patrolman Robert Bolden","111 Berriman Street","718-647-8387","3K-5","Not Accessible","Spanish",,"1017567","185660","11208","BROOKLYN","40.676129","-73.880337","305","37","1192","3088734","3039900001","East New York"
"19","19K346","Zoned School","P.S. 346 Abe Stark","1400 Pennsylvania Avenue","718-642-3000","3K-5","Partially Accessible",,,"1016996","174887","11239","BROOKLYN","40.64726","-73.881114","305","42","105804","3098294","3044520025","Starrett City"
"19","19K557","Zoned School","Brooklyn Gardens Elementary School","574 Dumont Avenue","718-495-7012","3K-5","Not Accessible",,,"1012657","181733","11207","BROOKLYN","40.665798","-73.897723","305","42","1130","3084617","3038020015","East New York (Pennsylvania Ave)"
"19","19K677","Zoned School","East New York Elementary School of Excellence","605 Shepherd Avenue","718-272-6075","3K-5","Partially Accessible",,,"1017780","183165","11208","BROOKLYN","40.669387","-73.879614","305","42","1164","3090219","3040690001","East New York"
"19","19K938","Zoned School","P.S. 938","3269 Atlantic Ave","212-346-5272","K","Fully Accessible",,,"1018878","187282","11208","BROOKLYN","40.680655","-73.875152","305","37","1178",,,"Cypress Hills-City Line"
"20","20K030","Zoned School","P.S./I.S. 30 Mary White Ovington","7002 4th Avenue","718-491-8440","K-8","Not Accessible","Arabic",,"977441","170105","11209","BROOKLYN","40.63359","-74.023948","310","43","68","3146550","3058910048","Bay Ridge"
"20","20K048","Zoned School","P.S. 048 Mapleton","6015 18th Avenue","718-232-3873","PK-5","Not Accessible",,,"987813","165699","11204","BROOKLYN","40.621871","-73.987396","312","44","244","3132140","3055190001","Borough Park"
"20","20K069","Zoned School","P.S. 69 Vincent D. Grippo School","6302 9th Avenue","718-630-3899","K-5","Fully Accessible",,,"981543","169674","11220","BROOKLYN","40.632379","-74.009223","310","38","120","3387646","3057350032","Sunset Park East"
"20","20K102","Zoned School","P.S. 102 The Bayview","211 72nd Street","718-748-7404","K-5","Not Accessible",,"Y","976268","170377","11209","BROOKLYN","40.63402","-74.029036","310","43","68","3146491","3058900001","Bay Ridge"
"20","20K104","Zoned School","P.S./I.S. 104 The Fort Hamilton School","9115 5th Avenue","718-836-4630","K-8","Not Accessible",,"Y","976340","164460","11209","BROOKLYN","40.618415","-74.028842","310","43","160","3154775","3060880001","Bay Ridge"
"20","20K105","Zoned School","P.S. 105 The Blythebourne","1031 59th Street","718-438-3230","K-5","Not Accessible",,,"983241","170012","11219","BROOKLYN","40.632936","-74.00374","312","38","214","3140612","3057020001","Borough Park"
"20","20K112","Zoned School","P.S. 112 Lefferts Park","7115 15th Avenue","718-232-0685","PK-5","Not Accessible","Italian",,"984093","164947","11228","BROOKLYN","40.61978","-74.000792","311","43","190","3157760","3061800001","Bensonhurst West"
"20","20K127","Zoned School","P.S. 127 Mckinley Park","7805 7th Avenue","718-833-2323","K-5","Not Accessible",,,"979134","166503","11228","BROOKLYN","40.624132","-74.018826","310","43","206","3150481","3059730001","Dyker Heights"
"20","20K160","Zoned School","P.S. 160 William T. Sampson","5105 Fort Hamilton Parkway","718-438-0337","K-5","Partially Accessible",,,"984515","171328","11219","BROOKLYN","40.637322","-73.999215","312","44","220","3138276","3056530021","Borough Park"
"20","20K163","Zoned School","P.S. 163 Bath Beach","109 Bay 14th Street","718-236-9003","K-8","Fully Accessible",,,"982176","160328","11214","BROOKLYN","40.606792","-74.00806","311","43","180","3392297","3063990040","Bath Beach"
"20","20K164","Zoned School","P.S. 164 Caesar Rodney","4211 14th Avenue","718-854-4100","PK-5","Not Accessible",,"Y","988208","171390","11219","BROOKLYN","40.637486","-73.985955","312","44","232","3135976","3056000001","Borough Park"
"20","20K170","Zoned School","Ralph A. Fabrizio School","619 72nd Street","718-491-8400","K-5","Fully Accessible","Chinese",,"979054","168939","11209","BROOKLYN","40.630031","-74.018878","310","43","134","3146921","3058990001","Bay Ridge"
"20","20K176","Zoned School","P.S. 176 Ovington","1225 69th Street","718-236-7755","K-5","Partially Accessible",,,"982805","166921","11219","BROOKLYN","40.624611","-74.005378","310","43","196","3143190","3057740001","Dyker Heights"
"20","20K179","Zoned School","P.S. 179 Kensington","202 Avenue C","718-438-4010","PK-5","Not Accessible",,,"990561","172493","11218","BROOKLYN","40.640463","-73.977642","312","39","488","3126001","3053710001","Kensington-Ocean Parkway"
"20","20K180","Zoned School","The SEEALL Academy","5601 16th Avenue","718-851-8070","PK-8","Not Accessible",,,"987234","167511","11204","BROOKLYN","40.627029","-73.989672","312","44","470","3130809","3054920001","Borough Park"
"20","20K185","Zoned School","P.S. 185 Walter Kassenbrock","8601 Ridge Boulevard","718-745-6610","K-5","Not Accessible",,,"974970","166472","11209","BROOKLYN","40.623986","-74.033779","310","43","60","3153416","3060430001","Bay Ridge"
"20","20K186","Zoned School","P.S. 186 Dr. Irving A Gladstone","7601 19th Avenue","718-236-7071","K-5","Not Accessible",,,"985844","161850","11214","BROOKLYN","40.611483","-73.994677","311","47","274","3160923","3062390001","Bensonhurst West"
"20","20K192","Zoned School","P.S. 192 - The Magnet School for Math and Science Inquiry","4715 18th Avenue","718-633-3061","PK-8","Not Accessible",,,"989929","168366","11204","BROOKLYN","40.629303","-73.979995","312","44","476","3128909","3054450001","Borough Park"
"20","20K200","Zoned School","P.S. 200 Benson School","1940 Benson Avenue","718-236-5466","PK-5","Not Accessible","Russian","Y","983718","158896","11214","BROOKLYN","40.603188","-74.001408","311","43","282","3167818","3064070008","Bath Beach"
"20","20K204","Zoned School","P.S. 204 Vince Lombardi","8101 15th Avenue","718-236-2906","PK-5","Partially Accessible",,,"982546","162804","11228","BROOKLYN","40.614159","-74.006638","311","43","184","3163702","3062940001","Bensonhurst West"
"20","20K205","Zoned School","P.S. 205 Clarion","6701 20th Avenue","718-236-2380","PK-5","Fully Accessible",,"Y","987917","163242","11204","BROOKLYN","40.61527","-73.987149","311","47","256","3134749","3055710001","Bensonhurst West"
"20","20K229","Zoned School","P.S. 229 Dyker","1400 Benson Avenue","718-236-5447","PK-8","Fully Accessible",,"Y","980478","161637","11228","BROOKLYN","40.610963","-74.013376","311","43","170","3167212","3063910024","Bath Beach"
"20","20K247","Zoned School","P.S. 247 Brooklyn","7000 21st Avenue","718-236-4205","K-5","Not Accessible",,,"987805","162335","11204","BROOKLYN","40.612273","-73.986713","311","47","258","3157466","3061740036","Bensonhurst West"
"20","20K264","Zoned School","P.S. 264 Bay Ridge Elementary School For The Arts","371 89th Street","718-630-1650","K-5","Fully Accessible",,,"976076","165534","11209","BROOKLYN","40.620957","-74.03015","310","43","60","3413664","3060620141","Bay Ridge"
"20","20K310","Zoned School","The School For Future Leaders","942 62nd Street","718-491-7670","K-5","Fully Accessible",,,"982157","169581","11219","BROOKLYN","40.632478","-74.007645","310","38","120","3141434","3057290024","Sunset Park East"
"20","20K503","Zoned School","P.S. 503: The School of Discovery","330 59th Street","718-439-5962","K-5","Partially Accessible","Spanish",,"978894","173157","11220","BROOKLYN","40.642121","-74.018997","307","38","74","3016258","3008620012","Sunset Park West"
"20","20K506","Zoned School","P.S. 506: The School of Journalism & Technology","330 59th Street","718-492-0087","K-5","Partially Accessible","Spanish",,"978894","173157","11220","BROOKLYN","40.642121","-74.018997","307","38","74","3016258","3008620012","Sunset Park West"
"20","20K682","Zoned School","The Academy of Talented Scholars","50 Avenue P","718-621-2730","K-5","Fully Accessible",,,"987949","160421","11204","BROOKLYN","40.60731","-73.986595","311","44","428","3396829","3066180001","Bensonhurst East"
"20","20K748","Zoned School","P.S. 748 Brooklyn School for Global Scholars","1664 Benson Avenue","718-382-3130","K-5","Not Accessible",,,"982176","160328","11214","BROOKLYN","40.607234","-74.007199","311","43","180","3167623","3063990026","Bath Beach"
"20","20K939","Zoned School","P.S. 939","270 59th Street","212-346-5274","K","Fully Accessible",,,"978492","173508","11220","BROOKLYN","40.643211","-74.020802","307","38","22","3424758","3008610037","Sunset Park West"
"20","20K971","Zoned School","School of Math, Science, and Healthy Living","6214 4th Avenue","718-765-2200","K-5","Fully Accessible",,,"978604","172271","11220","BROOKLYN","40.639571","-74.01976","307","38","72","3143927","3057990038","Sunset Park West"
"21","21K090","Zoned School","P.S. 90 Edna Cohen School","2840 West 12th Street","718-787-3333","PK-5","Partially Accessible","Spanish",,"989698","149928","11224","BROOKLYN","40.578255","-73.979628","313","47","350","3196558","3072660040","West Brighton"
"21","21K095","Zoned School","P.S. 095 The Gravesend","345 Van Sicklen Street","718-449-5050","PK-8","Not Accessible",,"Y","991286","156415","11223","BROOKLYN","40.595698","-73.97518","315","47","398","3192661","3071230066","Gravesend"
"21","21K097","Zoned School","P.S. 97 The Highlawn","1855 Stillwell Avenue","718-627-7550","K-5","Not Accessible",,,"988257","158307","11223","BROOKLYN","40.601433","-73.986139","311","47","404","3177680","3066670024","Bensonhurst East"
"21","21K099","Zoned School","P.S. 099 Isaac Asimov","1120 East 10th Street","718-338-9201","PK-8","Not Accessible",,"Y","993680","165698","11230","BROOKLYN","40.621565","-73.965595","312","44","454","3171478","3065350011","Ocean Parkway South"
"21","21K100","Zoned School","P.S. 100 The Coney Island School","2951 West 3rd Street","718-382-2760","PK-5","Not Accessible",,,"992353","149710","11224","BROOKLYN","40.57732","-73.971313","313","48","35602","3196595","3072810001","West Brighton"
"21","21K101","Zoned School","P.S. 101 The Verrazano","2360 Benson Avenue","718-372-0221","K-5","Not Accessible","Chinese",,"986482","156918","11214","BROOKLYN","40.597863","-73.991693","311","47","302","3185973","3068750032","Bensonhurst East"
"21","21K121","Zoned School","P.S. 121 Nelson A. Rockefeller","5301 20th Avenue","718-377-8845","K-8","Not Accessible",,,"990226","166133","11204","BROOKLYN","40.623273","-73.978822","312","44","464","3253281","3054951101","Borough Park"
"21","21K128","Zoned School","P.S. 128 Bensonhurst","2075 84th Street","718-373-5900","K-5","Not Accessible",,,"985615","159687","11214","BROOKLYN","40.604871","-73.995545","311","47","288","3165232","3063290032","Bensonhurst West"
"21","21K153","Zoned School","P.S. 153 Homecrest","1970 Homecrest Avenue","718-375-4484","PK-5","Not Accessible",,,"995350","158305","11229","BROOKLYN","40.601617","-73.959779","315","48","556","3196677","3072910030","Homecrest"
"21","21K177","Zoned School","P.S. 177 The Marlboro","346 Avenue P","718-375-9506","PK-5","Not Accessible",,,"991351","160850","11204","BROOKLYN","40.608604","-73.974847","311","44","424","3175834","3066310001","Bensonhurst East"
"21","21K188","Zoned School","P.S. 188 Michael E. Berdy","3314 Neptune Avenue","718-265-7580","PK-5","Not Accessible",,,"984114","149396","11224","BROOKLYN","40.577217","-74.000194","313","47","328","3188726","3070060001","Seagate-Coney Island"
"21","21K199","Zoned School","P.S. 199 Frederick Wachtel","1100 Elm Avenue","718-339-1422","PK-5","Not Accessible",,,"994515","163817","11230","BROOKLYN","40.616632","-73.963476","314","48","768","3180761","3067400025","Midwood"
"21","21K209","Zoned School","P.S. 209 Margaret Mead","2609 East 7th Street","718-743-1954","PK-8","Not Accessible",,,"995029","153066","11235","BROOKLYN","40.586845","-73.96198","313","48","370","3196224","3072440001","Brighton Beach"
"21","21K212","Zoned School","P.S. 212 Lady Deborah Moody","87 Bay 49th Street","718-266-4841","PK-5","Not Accessible",,,"988314","153360","11214","BROOKLYN","40.587616","-73.985948","313","47","314","3187407","3069170001","Gravesend"
"21","21K215","Zoned School","P.S. 215 Morris H. Weiss","415 Avenue S","718-339-2464","PK-5","Partially Accessible",,"Y","992533","158866","11223","BROOKLYN","40.602084","-73.970013","315","47","41401","3178584","3066810169","Homecrest"
"21","21K216","Zoned School","P.S. 216 Arturo Toscanini","350 Avenue X","718-645-2862","PK-5","Not Accessible",,,"992680","154231","11223","BROOKLYN","40.590564","-73.969964","315","47","37401","3195175","3071960001","Gravesend"
"21","21K225","Zoned School","P.S. K225 - The Eileen E. Zaglin","1075 Ocean View Avenue","718-743-9793","PK-8","Partially Accessible","Spanish",,"996512","150684","11235","BROOKLYN","40.579737","-73.956329","313","48","61004","3245498","3087120056","Brighton Beach"
"21","21K226","Zoned School","P.S. 226 Alfred De B. Mason","6006 23rd Avenue","718-234-4940","PK-8","Fully Accessible",,,"990608","163486","11204","BROOKLYN","40.615252","-73.97635","312","44","446","3172071","3065490024","Borough Park"
"21","21K238","Zoned School","P.S. 238 Anne Sullivan","1633 East 8th Street","718-339-4355","PK-8","Partially Accessible","Spanish",,"994083","161081","11223","BROOKLYN","40.608862","-73.965058","315","44","420","3176229","3066400013","Homecrest"
"21","21K253","Zoned School","P.S. 253","601 Oceanview Avenue","718-332-3331","PK-5","Not Accessible",,,"994816","150675","11235","BROOKLYN","40.579607","-73.962071","313","48","364","3244470","3086660610","Brighton Beach"
"21","21K288","Zoned School","P.S. 288 The Shirley Tanyhill","2950 West 25th Street","718-382-2100","PK-8","Not Accessible",,,"986363","148411","11224","BROOKLYN","40.574411","-73.99194","313","47","342","3189538","3070540045","Seagate-Coney Island"
"21","21K329","Zoned School","P.S. 329 Surfside","2929 West 30th Street","718-787-3460","PK-5","Partially Accessible",,,"985425","148643","11224","BROOKLYN","40.574607","-73.996292","313","47","342","3189517","3070510001","Seagate-Coney Island"
"22","22K052","Zoned School","P.S. 052 Sheepshead Bay","2675 East 29th Street","718-648-0882","PK-5","Not Accessible",,"Y","1000877","153642","11235","BROOKLYN","40.58792","-73.940532","315","48","600","3205435","3074740001","Sheepshead Bay-Gerritsen Beach-Manhattan Beach"
"22","22K109","Zoned School","P.S. 109","1001 East 45th Street","718-693-3426","PK-8","Fully Accessible",,,"1002818","170938","11203","BROOKLYN","40.636455","-73.933582","317","45","836","3114526","3050220002","East Flatbush-Farragut"
"22","22K119","Non-Zoned School","P.S. 119 Amersfort","3829 Avenue K","718-377-7696","PK-5","Not Accessible",,,"1001257","167365","11210","BROOKLYN","40.625662","-73.938265","318","45","734","3215816","3077860001","Flatlands"
"22","22K134","Zoned School","P.S. K134","4001 18th Avenue","718-436-7200","K-5","Not Accessible",,,"991694","169585","11218","BROOKLYN","40.63228","-73.973898","314","44","480","3127692","3054160048","Flatbush"
"22","22K139","Zoned School","P.S. 139 Alexine A. Fenty","330 Rugby Road","718-282-5254","PK-5","Not Accessible","Spanish",,"993724","172936","11226","BROOKLYN","40.641937","-73.965523","314","40","1522","3328235","3051440064","Flatbush"
"22","22K152","Zoned School","School of Science & Technology","725 East 23rd Street","718-434-5222","PK-5","Partially Accessible",,,"996943","169760","11210","BROOKLYN","40.632562","-73.954724","314","45","772","3205780","3075510026","Flatbush"
"22","22K193","Zoned School","P.S. 193 Gil Hodges","2515 Avenue L","718-338-9011","PK-5","Not Accessible",,"Y","998041","165921","11210","BROOKLYN","40.621507","-73.950473","314","45","754","3208461","3076250001","Midwood"
"22","22K194","Zoned School","P.S. 194 Raoul Wallenberg","3117 Avenue W","718-648-8804","PK-5","Not Accessible",,,"1002533","157176","11229","BROOKLYN","40.596757","-73.933499","315","46","570","3201629","3073930001","Sheepshead Bay-Gerritsen Beach-Manhattan Beach"
"22","22K195","Zoned School","P.S. 195 Manhattan Beach","131 Irwin Street","718-648-9102","PK-5","Partially Accessible",,"Y","999945","150650","11235","BROOKLYN","40.579451","-73.943819","315","48","620","3246519","3087520035","Sheepshead Bay-Gerritsen Beach-Manhattan Beach"
"22","22K197","Zoned School","P.S. 197 - The Kings Highway Academy","1599 East 22nd Street","718-377-7890","PK-5","Not Accessible",,"Y","997744","162372","11210","BROOKLYN","40.612623","-73.951906","314","48","546","3182169","3067690018","Midwood"
"22","22K198","Zoned School","P.S. 198 Brooklyn","4105 Farragut Road","718-282-4920","PK-5","Partially Accessible",,,"1001712","171578","11210","BROOKLYN","40.63694","-73.937339","317","45","836","3113388","3049880066","East Flatbush-Farragut"
"22","22K203","Zoned School","P.S. 203 Floyd Bennett School","5101 Avenue M","718-241-8488","PK-5","Not Accessible",,,"1004867","165936","11234","BROOKLYN","40.621436","-73.925989","318","46","680","3218626","3078490001","Flatlands"
"22","22K206","Zoned School","P.S. 206 Joseph F Lamb","2200 Gravesend Neck Road","718-743-5598","K-8","Not Accessible","Russian",,"998565","156739","11229","BROOKLYN","40.597369","-73.948946","315","48","59401","3201080","3073810201","Sheepshead Bay-Gerritsen Beach-Manhattan Beach"
"22","22K207","Zoned School","P.S. 207 Elizabeth G. Leary","4011 Fillmore Avenue","718-645-8667","PK-8","Not Accessible",,,"1003550","162974","11234","BROOKLYN","40.613353","-73.930129","318","46","652","3239388","3084840001","Georgetown-Marine Park-Bergen Beach-Mill Basin"
"22","22K217","Zoned School","P.S. 217 Colonel David Marcus School","1100 Newkirk Avenue","718-434-6960","PK-5","Partially Accessible",,,"993564","170073","11230","BROOKLYN","40.63398","-73.966558","314","40","526","3121072","3052320001","Flatbush"
"22","22K222","Zoned School","P.S. 222 Katherine R. Snyder","3301 Quentin Road","718-998-4298","K-5","Partially Accessible",,,"1001129","162981","11234","BROOKLYN","40.613317","-73.938871","318","46","646","3212254","3077060001","Georgetown-Marine Park-Bergen Beach-Mill Basin"
"22","22K236","Zoned School","P.S. 236 Mill Basin","6302 Avenue U","718-444-6969","PK-5","Not Accessible",,"Y","1008680","163530","11234","BROOKLYN","40.615998","-73.912989","318","46","698","3326821","3084640001","Georgetown-Marine Park-Bergen Beach-Mill Basin"
"22","22K245","Zoned School","P.S. 245","249 East 17th Street","718-284-2330","PK-5","Not Accessible",,,"994589","174243","11226","BROOKLYN","40.645016","-73.963208","314","40","512","3117584","3051210032","Flatbush"
"22","22K251","Zoned School","P.S. 251 Paerdegat","1037 East 54th Street","718-251-4110","PK-5","Not Accessible",,,"1005374","169522","11234","BROOKLYN","40.632524","-73.924417","318","46","722","3214729","3077580001","Flatlands"
"22","22K254","Zoned School","P.S. 254 Dag Hammarskjold","1801 Avenue Y","718-743-0890","K-5","Fully Accessible",,,"997706","154635","11235","BROOKLYN","40.590423","-73.951753","315","48","592","3203132","3074200026","Sheepshead Bay-Gerritsen Beach-Manhattan Beach"
"22","22K255","Zoned School","P.S. 255 Barbara Reing School","1866 East 17th Street","718-376-8494","K-5","Not Accessible",,,"996498","159501","11229","BROOKLYN","40.604349","-73.955528","315","48","558","3184034","3068210123","Madison"
"22","22K277","Zoned School","P.S. 277 Gerritsen Beach","2529 Gerritsen Avenue","718-743-6689","PK-5","Not Accessible",,,"1004287","156350","11229","BROOKLYN","40.596145","-73.928793","318","46","666","3242369","3085900650","park-cemetery-etc-Brooklyn"
"22","22K312","Zoned School","P.S. 312 Bergen Beach","7103 Avenue T","718-763-4015","PK-5","Not Accessible",,,"1009358","166062","11234","BROOKLYN","40.621413","-73.908987","318","46","69602","3236665","3083930001","Georgetown-Marine Park-Bergen Beach-Mill Basin"
"22","22K315","Zoned School","P.S. K315","2310 Glenwood Road","718-421-9560","PK-5","Partially Accessible",,,"996943","169760","11210","BROOKLYN","40.633232","-73.954655","314","45","772","3205780","3075510026","Flatbush"
"22","22K326","Zoned School","P.S. 326","1800 Utica Avenue","718-241-4828","PK-2","Not Accessible",,,"1004166","168234","11234","BROOKLYN","40.628659","-73.92793","318","45","728","3215550","3077750001","Flatlands"
"22","22K361","Zoned School","P.S. 361 East Flatbush Early Childhood School","1957 Nostrand Avenue","718-941-2800","PK-5","Partially Accessible",,,"998773","171585","11210","BROOKLYN","40.637711","-73.948159","317","45","788","3113780","3049940023","Flatbush"
"22","22K889","Zoned School","P.S. 889","21 Hinckley Place","929-397-9171","PK-2","Fully Accessible",,,"992295","174218","11218","BROOKLYN","40.644469","-73.971032","312","40","492","3425170","3053420006","Kensington-Ocean Parkway"
"23","23K041","Non-Zoned School","P.S. 041 Francis White","411 Thatford Avenue","718-495-7732","K-8","Not Accessible",,,"1010073","179912","11212","BROOKLYN","40.660306","-73.907355","316","42","918","3082389","3036040001","Brownsville"
"23","23K137","Non-Zoned School","P.S./I.S. 137 Rachel Jean Mitchell","121 Saratoga Avenue","718-453-2926","3K-5","Not Accessible",,,"1007370","187849","11233","BROOKLYN","40.682458","-73.917088","316","41","373","3040878","3015100001","Ocean Hill"
"23","23K150","Non-Zoned School","P.S. 150 Christopher","364 Sackman Street","718-495-7746","3K-5","Not Accessible",,,"1010565","182941","11212","BROOKLYN","40.66896","-73.904726","316","41","908","3084012","3037440009","Brownsville"
"23","23K155","Non-Zoned School","P.S./ I.S. 155 Nicholas Herkimer","1355 Herkimer Street","718-240-4340","3K-8","Not Accessible",,,"1009579","186170","11233","BROOKLYN","40.677415","-73.908734","316","37","369","3042263","3015520043","Ocean Hill"
"23","23K156","Non-Zoned School","P.S. 156 Waverly","104 Sutter Avenue","718-498-2811","PK-5","Fully Accessible",,,"1007032","181766","11212","BROOKLYN","40.665965","-73.918107","316","41","900","3081276","3035350016","Brownsville"
"23","23K165","Non-Zoned School","P.S. 165 Ida Posner","76 Lott Avenue","718-495-7759","3K-5","Not Accessible",,,"1008961","178674","11212","BROOKLYN","40.65744","-73.911053","316","42","896","3082726","3036220023","Brownsville"
"23","23K178","Non-Zoned School","P.S. 178 Saint Clair Mckelway","2163 Dean Street","718-495-7768","3K-8","Not Accessible",,,"1007734","185347","11233","BROOKLYN","40.675024","-73.915778","316","41","303","3038718","3014400056","Ocean Hill"
"23","23K184","Non-Zoned School","P.S. 184 Newport","273 Newport Street","718-495-7776","PK-8","Not Accessible",,,"1010606","179887","11212","BROOKLYN","40.659966","-73.904901","316","42","918","3082391","3036060001","Brownsville"
"23","23K284","Non-Zoned School","The Gregory Jocko Jackson School of Sports, Art, and Technology","213 Osborn Street","718-495-7791","3K-5","Not Accessible",,,"1009874","182275","11212","BROOKLYN","40.667377","-73.908214","316","41","912","3081460","3035440135","Brownsville"
"23","23K298","Non-Zoned School","P.S. 298 Dr. Betty Shabazz","85 Watkins Street","718-495-7793","3K-5","Partially Accessible",,,"1009849","183759","11212","BROOKLYN","40.670986","-73.908194","316","37","906","3080768","3035070007","Brownsville"
"23","23K323","Non-Zoned School","P.S./I.S. 323","210 Chester Street","718-495-7781","3K-8","Partially Accessible",,,"1008863","181999","11212","BROOKLYN","40.666545","-73.910904","316","41","924","3081442","3035420001","Brownsville"
"23","23K327","Non-Zoned School","P.S. 327 Dr. Rose B. English","111 Bristol Street","718-495-7801","3K-5","Partially Accessible",,,"1008721","182744","11212","BROOKLYN","40.668475","-73.912351","316","41","924","3081032","3035200008","Brownsville"
"23","23K401","Non-Zoned School","Christopher Avenue Community School","51 Christopher Avenue","718-495-5761","3K-5","Partially Accessible",,,"1010320","184197","11212","BROOKLYN","40.672462","-73.906552","316","37","908","3083608","3036930001","Brownsville"
"23","23K446","Non-Zoned School","Riverdale Avenue Community School","76 Riverdale Avenue","718-485-1679","3K-5","Not Accessible",,,"1008247","179605","11212","BROOKLYN","40.660204","-73.913933","316","42","896","3082253","3035970011","Brownsville"
"23","23K599","Non-Zoned School","Brooklyn Landmark Elementary School","251 Mac Dougal Street","718-443-2747","3K-5","Not Accessible",,,"1009013","187279","11233","BROOKLYN","40.680318","-73.910644","316","37","369","3041561","3015280001","Ocean Hill"
"24","24Q007","Zoned School","P.S. 007 Louis F. Simeone","80-55 Cornish Avenue","718-446-2726","PK-5","Fully Accessible","Chinese, Spanish",,"1016826","208771","11373","QUEENS","40.739115","-73.882487","404","25","485","4467710","4015380075","Elmhurst-Maspeth"
"24","24Q012","Zoned School","P.S. 012 James B. Colgate","42-00 72nd Street","718-424-5905","K-5","Partially Accessible",,,"1013771","209729","11377","QUEENS","40.742633","-73.892805","402","26","483","4031853","4013490028","Elmhurst-Maspeth"
"24","24Q013","Zoned School","P.S. 013 Clement C. Moore","55-01 94th Street","718-271-1021","K-5","Fully Accessible","Chinese, Spanish",,"1020924","207974","11373","QUEENS","40.737613","-73.86851","404","25","457","4437297","4019010040","Elmhurst"
"24","24Q014","Zoned School","P.S. 014 Fairview","107-01 Otis Avenue","718-699-6071","K-5","Not Accessible",,,"1024550","209284","11368","QUEENS","40.74056","-73.854131","404","21","439","4437311","4019540037","Corona"
"24","24Q016","Zoned School","P.S. Q016 The Nancy DeBenedittis School","41-15 104th Street","718-505-0140","K-5","Fully Accessible","Spanish",,"1022889","212187","11368","QUEENS","40.748987","-73.86123","404","21","403","4048820","4019850001","North Corona"
"24","24Q019","Zoned School","P.S. 019 Marino Jeantet","98-02 Roosevelt Avenue","718-424-5859","PK-5","Fully Accessible","Spanish",,"1021224","212040","11368","QUEENS","40.749381","-73.867354","404","21","409","4000000","4016070001","North Corona"
"24","24Q028","Zoned School","P.S. 28 - The Thomas Emanuel Early Childhood Center","109-10 47th Avenue","718-271-4971","PK-2","Fully Accessible",,,"1024630","211469","11368","QUEENS","40.747126","-73.854824","404","21","415","4529578","4020030023","Corona"
"24","24Q049","Zoned School","P.S. 049 Dorothy Bonawit Kole","63-60 80th Street","718-326-2111","K-8","Fully Accessible",,,"1018763","201459","11379","QUEENS","40.719867","-73.875093","405","30","663","4069253","4029900045","Middle Village"
"24","24Q058","Zoned School","P.S. 58 - The School of Heroes","72-24 Grand Avenue","718-533-6712","PK-6","Fully Accessible",,,"1014561","204714","11378","QUEENS","40.728735","-73.890699","405","30","49302","4607309","4028020001","Maspeth"
"24","24Q068","Zoned School","P.S. 068 Cambridge","59-09 Saint Felix Avenue","718-821-7246","PK-5","Partially Accessible",,,"1012708","193215","11385","QUEENS","40.696556","-73.897405","405","30","557","4437837","4035790001","Ridgewood"
"24","24Q071","Zoned School","P.S. 071 Forest","62-85 Forest Avenue","718-821-7772","PK-5","Partially Accessible","Polish",,"1010643","198469","11385","QUEENS","40.711203","-73.905286","405","30","595","4083519","4034920007","Ridgewood"
"24","24Q081","Zoned School","P.S. 81Q Jean Paul Richter","559 Cypress Avenue","718-821-9800","PK-5","Not Accessible",,,"1008681","195754","11385","QUEENS","40.703765","-73.912344","405","34","545","4082076","4034370001","Ridgewood"
"24","24Q087","Zoned School","P.S./I.S. 087 Middle Village","67-54 80th Street","718-326-8243","PK-8","Fully Accessible",,,"1019826","198543","11379","QUEENS","40.711815","-73.871238","405","30","621","4091737","4037820027","Middle Village"
"24","24Q088","Zoned School","P.S. 088 Seneca","60-85 Catalpa Avenue","718-821-8121","PK-5","Partially Accessible",,,"1012964","195818","11385","QUEENS","40.703779","-73.896374","405","30","585","4085173","4035340012","Ridgewood"
"24","24Q089","Zoned School","P.S. 089 Elmhurst","85-28 Britton Avenue","718-898-2230","K-5","Partially Accessible","Spanish",,"1017600","211074","11373","QUEENS","40.745923","-73.880205","404","25","271","4037370","4015140001","Elmhurst"
"24","24Q091","Zoned School","P.S. 091 Richard Arkwright","68-10 Central Ave","718-821-6881","PK-5","Fully Accessible",,,"1016414","195603","11385","QUEENS","40.703885","-73.884161","405","30","625","4089566","4036830001","Glendale"
"24","24Q102","Zoned School","P.S. 102 Bayview","55-24 Van Horn Street","718-446-3308","PK-8","Fully Accessible","Chinese",,"1017994","206364","11373","QUEENS","40.733514","-73.877857","404","25","479","4437597","4028790031","Elmhurst-Maspeth"
"24","24Q110","Zoned School","P.S. 110","43-18 97th Place","718-424-8278","K-5","Fully Accessible","Spanish",,"1021158","210948","11368","QUEENS","40.745995","-73.866372","404","21","375","4439257","4016130017","North Corona"
"24","24Q113","Zoned School","P.S./I.S. 113 Anthony J. Pranzo","78-23 87th Street","718-847-0724","PK-8","Fully Accessible",,,"1022652","196331","11385","QUEENS","40.705516","-73.862208","405","30","637","4094055","4038460040","Glendale"
"24","24Q119","Zoned School","P.S./I.S. 119 The Glendale","74-01 78th Avenue","718-326-8261","K-8","Fully Accessible",,"Y","1018887","196220","11385","QUEENS","40.704406","-73.875183","405","30","63301","4092660","4038120020","Glendale"
"24","24Q128","Zoned School","P.S. 128 The Lorraine Tuzzo, Juniper Valley Elementary School","69-10 65th Drive","718-326-6210","K-8","Fully Accessible",,,"1015860","199793","11379","QUEENS","40.715344","-73.886215","405","30","659","4070445","4030270037","Middle Village"
"24","24Q143","Zoned School","P.S. 143 Louis Armstrong","34-74 113rd Street","718-429-5700","K-5","Fully Accessible","Spanish",,"1024224","214520","11368","QUEENS","40.755451","-73.855192","403","21","381","4043827","4017560025","North Corona"
"24","24Q153","Zoned School","P.S. 153 Maspeth Elem","60-02 60 Lane","718-821-7850","PK-6","Fully Accessible",,"Y","1010734","200257","11378","QUEENS","40.716609","-73.903669","405","30","599","4060987","4027320018","Maspeth"
"24","24Q199","Zoned School","P.S. 199 Maurice A. Fitzgerald","39-20 48th Avenue","718-784-3431","PK-5","Not Accessible",,,"1004734","208826","11104","QUEENS","40.740088","-73.926214","402","26","189","4002915","4002060003","Hunters Point-Sunnyside-West Maspeth"
"24","24Q211","Zoned School","Elm Tree Elementary School","50-51 98th Street","929-208-4860","PK-5","Fully Accessible","Spanish",,"1022101","209323","11368","QUEENS","40.742167","-73.864109","404","21","44302","4046832","4018910001","Corona"
"24","24Q229","Zoned School","P.S. 229 Emanuel Kaplan","67-25 51st Road","718-446-2120","PK-5","Partially Accessible",,"Y","1012765","206958","11377","QUEENS","40.734294","-73.897557","405","30","513","4440274","4024230001","Maspeth"
"24","24Q239","Zoned School","P.S. 239","17-15 Weirfield Street","718-417-2840","PK-5","Fully Accessible",,,"1010914","194113","11385","QUEENS","40.699149","-73.903799","405","34","553","4435561","4035610001","Ridgewood"
"24","24Q290","Zoned School","A.C.E. Academy for Scholars at the Geraldine Ferraro Campus","55-20 Metropolitan Avenue","718-571-6900","PK-5","Fully Accessible",,"Y","1009694","198950","11385","QUEENS","40.713022","-73.908306","405","30","595","4080234","4033650027","Ridgewood"
"24","24Q305","Zoned School","Learners and Leaders","378 Seneca Avenue","718-366-1061","PK-5","Fully Accessible",,,"1007819","196808","11385","QUEENS","40.707121","-73.914998","405","34","539","4538307","4034280015","Ridgewood"
"24","24Q307","Zoned School","Pioneer Academy","40-20 100th Street","718-779-5068","K-5","Fully Accessible",,,"1021437","212250","11368","QUEENS","40.748838","-73.865161","404","21","407","4040271","4016080058","North Corona"
"24","24Q330","Zoned School","Helen M. Marshall School","110-08 Northern Boulevard","718-505-5110","K-5","Fully Accessible","Spanish",,"1023336","215331","11368","QUEENS","40.75788","-73.859201","403","21","381","4540038","4017250001","North Corona"
"24","24Q343","Zoned School","The Children's Lab School","45-45 42nd Street","718-361-3300","K-5","Fully Accessible",,,"1005792","209619","11104","QUEENS","40.742572","-73.922603","402","26","18102","4540402","4001690006","Hunters Point-Sunnyside-West Maspeth"
"25","25Q020","Zoned School","P.S. 020 John Bowne","142-30 Barclay Avenue","718-359-0321","PK-5","Partially Accessible","Chinese",,"1032901","215612","11355","QUEENS","40.758689","-73.824832","407","20","855","4114657","4050470001","Flushing"
"25","25Q021","Zoned School","P.S. 021 Edward Hart","147-36 26th Avenue","718-445-8833","PK-5","Partially Accessible",,"Y","1034498","221367","11354","QUEENS","40.774512","-73.819284","407","19","1047","4108665","4048030001","Murray Hill"
"25","25Q022","Zoned School","P.S. 022 Thomas Jefferson","153-33 Sanford Avenue","718-762-4141","PK-5","Not Accessible",,,"1036504","216857","11355","QUEENS","40.761249","-73.811808","407","20","1167","4438184","4053280001","Murray Hill"
"25","25Q024","Zoned School","P.S. 024 Andrew Jackson","45-57 Union Street","718-359-2288","PK-5","Partially Accessible",,,"1034648","213293","11355","QUEENS","40.75207","-73.818789","407","20","1205","4000000","4052010021","East Flushing"
"25","25Q029","Zoned School","P.S. 029 Queens","125-10 23rd Avenue","718-886-5111","PK-5","Fully Accessible",,,"1027741","222773","11356","QUEENS","40.778601","-73.843187","407","19","907","4099925","4042290014","College Point"
"25","25Q032","Zoned School","P.S. 032 State Street","171-11 35th Avenue","718-463-3747","PK-5","Not Accessible","Korean","Y","1041224","218221","11358","QUEENS","40.764763","-73.794683","407","19","1141","4118954","4052560001","Murray Hill"
"25","25Q079","Zoned School","P.S. 079 Francis Lewis","147-27 15 Drive","718-746-0396","PK-5","Partially Accessible",,"Y","1034833","225764","11357","QUEENS","40.785909","-73.818058","407","19","1039","4105232","4046470001","Whitestone"
"25","25Q107","Zoned School","P.S. 107 Thomas A Dooley","167-02 45th Avenue","718-762-5995","PK-5","Fully Accessible","Spanish",,"1039805","214540","11358","QUEENS","40.756013","-73.799706","407","19","1195","4123454","4054460018","East Flushing"
"25","25Q120","Zoned School","P.S. 120 Queens","58-01 136th Street","718-359-3390","PK-5","Partially Accessible",,,"1031723","210825","11355","QUEENS","40.745526","-73.829309","407","20","80301","4139491","4063730001","Queensboro Hill"
"25","25Q129","Zoned School","P.S. 129 Patricia Larkin","128-02 7th Avenue","718-353-3150","K-5","Partially Accessible",,,"1028692","227109","11356","QUEENS","40.790638","-73.839771","407","19","945","4096774","4039760001","Whitestone"
"25","25Q130","Non-Zoned School","P.S. 130","200-01 42nd Avenue","718-819-2230","PK-5","Partially Accessible",,,"1044086","216319","11361","QUEENS","40.759517","-73.784029","411","19","1463","4137034","4062030001","Bayside-Bayside Hills"
"25","25Q154","Zoned School","P.S. 154 Queens","75-02 162nd Street","718-591-1500","PK-5","Not Accessible",,,"1037536","204009","11366","QUEENS","40.726769","-73.806894","408","24","1257","4148003","4068340001","Kew Gardens Hills"
"25","25Q163","Zoned School","P.S. 163 Flushing Heights","159-01 59th Avenue","718-353-2514","PK-5","Fully Accessible","Chinese",,"1037243","209340","11365","QUEENS","40.740565","-73.809131","407","20","1215","4146042","4067260070","Queensboro Hill"
"25","25Q164","Zoned School","P.S. 164 Queens Valley","138-01 77th Avenue","718-544-1083","PK-8","Not Accessible",,,"1033155","202193","11367","QUEENS","40.720924","-73.823362","408","24","77902","4142980","4066060002","Kew Gardens Hills"
"25","25Q165","Zoned School","P.S. 165 Edith K. Bergtraum","70-35 150th Street","718-263-4004","PK-5","Not Accessible",,"Y","1034979","205196","11367","QUEENS","40.729741","-73.818446","408","24","77906","4144881","4066970012","Kew Gardens Hills"
"25","25Q169","Zoned School","P.S. 169 Bay Terrace","18-25 212th Street","718-428-6160","K-5","Not Accessible",,,"1045611","224379","11360","QUEENS","40.782298","-73.779099","407","19","99704","4131147","4058650050","Ft. Totten-Bay Terrace-Clearview"
"25","25Q184","Zoned School","P.S. 184 Flushing Manor","163-15 21st Road","718-352-7800","PK-5","Not Accessible",,,"1039874","222909","11357","QUEENS","40.778095","-73.800163","407","19","1017","4129072","4057560001","Ft. Totten-Bay Terrace-Clearview"
"25","25Q193","Zoned School","P.S. 193 Alfred J. Kennedy","152-20 11th Avenue","718-767-8810","PK-5","Not Accessible",,,"1037141","227901","11357","QUEENS","40.792483","-73.809741","407","19","987","4103056","4045380001","Whitestone"
"25","25Q200","Zoned School","P.S./M.S. 200 - The Magnet School of Global Studies and Leadership","70-10 164th Street","718-969-7780","PK-8","Not Accessible",,,"1038084","205685","11365","QUEENS","40.731369","-73.805116","408","24","122701","4146990","4067890001","Pomonok-Flushing Heights-Hillcrest"
"25","25Q201","Zoned School","P.S. 201 The Discovery School for Inquiry and Research","65-11 155th Street","718-359-0620","PK-5","Not Accessible",,,"1036070","207674","11367","QUEENS","40.736653","-73.813346","408","24","122702","4146992","4067920100","Pomonok-Flushing Heights-Hillcrest"
"25","25Q209","Zoned School","P.S. 209 Clearview Gardens","16-10 Utopia Parkway","718-352-3939","PK-5","Not Accessible",,"Y","1040787","224894","11357","QUEENS","40.783608","-73.794654","407","19","1017","4128717","4057340001","Ft. Totten-Bay Terrace-Clearview"
"25","25Q214","Zoned School","P.S. 214 Cadwallader Colden","31-15 140th Street","718-461-4055","PK-5","Not Accessible",,,"1032001","219934","11354","QUEENS","40.770387","-73.828617","407","20","88901","4100846","4044130020","Flushing"
"25","25Q219","Zoned School","P.S. 219 Paul Klapper","144-39 Gravett Road","718-793-2130","PK-8","Not Accessible",,,"1033068","207998","11367","QUEENS","40.735275","-73.823778","408","24","809","4448708","4065070001","Kew Gardens Hills"
"25","25Q242","Non-Zoned School","P.S. 242 Leonard P. Stavisky Early Childhood School","29-66 137th Street","718-445-2902","PK-3","Fully Accessible",,,"1030783","219763","11354","QUEENS","40.771265","-73.831525","407","20","88901","4462993","4043710173","Flushing"
"25","25Q244","Non-Zoned School","The Active Learning Elementary School","137-20 Franklin Avenue","718-445-5730","PK-3","Fully Accessible",,,"1032404","214203","11355","QUEENS","40.754654","-73.826759","407","20","79701","4541682","4051370043","Flushing"
"25","25Q499","Non-Zoned School","The Queens College School for Math, Science and Technology","148-20 Reeves Avenue","718-461-7462","PK-8","Fully Accessible",,,"1033904","208419","11367","QUEENS","40.739246","-73.822057","408","24","809","4467571","4065070150","Kew Gardens Hills"
"26","26Q018","Zoned School","P.S. 018 Winchester","86-35 235th Court","718-464-4167","PK-5","Not Accessible",,,"1058445","206024","11427","QUEENS","40.732112","-73.73246","413","23","1621","4166561","4079550002","Bellerose"
"26","26Q026","Zoned School","P.S. 026 Rufus King","195-02 69th Avenue","718-464-4505","PK-5","Not Accessible",,,"1045882","207476","11365","QUEENS","40.736922","-73.77799","408","23","1347","4153296","4071170421","Fresh Meadows-Utopia"
"26","26Q031","Zoned School","P.S. 031 Bayside","211-45 46th Road","718-423-8289","PK-5","Not Accessible",,,"1048248","215412","11361","QUEENS","40.757064","-73.770122","411","19","1447","4156949","4073160018","Bayside-Bayside Hills"
"26","26Q041","Zoned School","P.S. 041 Crocheron","214-43 35th Avenue","718-423-8333","K-5","Not Accessible",,,"1047618","219948","11361","QUEENS","40.769601","-73.770863","411","19","1097","4135975","4061210001","Bayside-Bayside Hills"
"26","26Q046","Zoned School","P.S. 046 Alley Pond","64-45 218th Street","718-423-8395","PK-5","Partially Accessible",,,"1051294","211064","11364","QUEENS","40.746202","-73.758752","411","23","1367","4162449","4076190001","Oakland Gardens"
"26","26Q094","Zoned School","P.S. 094 David D. Porter","41-77 Little Neck Parkway","718-423-8491","PK-5","Not Accessible",,,"1056625","220375","11363","QUEENS","40.771186","-73.739252","411","19","1479","4169468","4081350029","Douglas Manor-Douglaston-Little Neck"
"26","26Q098","Zoned School","P.S. 098 The Douglaston School","40-20 235th Street","718-423-8535","PK-5","Not Accessible",,,"1053499","219509","11363","QUEENS","40.769271","-73.749369","411","19","1483","4168629","4080820285","Douglas Manor-Douglaston-Little Neck"
"26","26Q115","Zoned School","The James J. Ambrose School","80-51 261st Street","718-831-4010","PK-5","Partially Accessible",,"Y","1064773","210543","11004","QUEENS","40.744099","-73.709845","413","23","157902","4178127","4087170001","Glen Oaks-Floral Park-New Hyde Park"
"26","26Q133","Zoned School","P.S. 133 Queens","248-05 86th Avenue","718-831-4016","PK-5","Not Accessible",,"Y","1062455","206257","11426","QUEENS","40.731729","-73.717859","413","23","157101","4175739","4086160001","Bellerose"
"26","26Q159","Zoned School","P.S. 159","205-01 33rd Avenue","718-423-8553","PK-5","Not Accessible",,,"1044087","219922","11361","QUEENS","40.76936","-73.783943","411","19","1099","4134525","4060380013","Bayside-Bayside Hills"
"26","26Q162","Zoned School","P.S. 162 John Golden","201-02 53rd Avenue","718-423-8621","PK-5","Not Accessible",,,"1046156","212020","11364","QUEENS","40.749036","-73.777213","411","20","140901","4159363","4074100001","Bayside-Bayside Hills"
"26","26Q173","Zoned School","P.S. 173 Fresh Meadows","174-10 67th Avenue","718-358-2243","PK-5","Not Accessible",,,"1040883","206794","11365","QUEENS","40.734572","-73.795484","408","24","1223","4149690","4069270022","Pomonok-Flushing Heights-Hillcrest"
"26","26Q178","Zoned School","P.S./ IS 178 Holliswood","189-10 Radnor Road","718-464-5763","PK-8","Not Accessible",,,"1045974","203150","11423","QUEENS","40.724479","-73.777454","408","23","1277","4156558","4072770001","Jamaica Estates-Holliswood"
"26","26Q186","Zoned School","P.S. 186 Castlewood","252-12 72nd Avenue","718-831-4021","PK-5","Fully Accessible",,,"1061389","212483","11426","QUEENS","40.750007","-73.721607","413","23","155102","4173640","4084010375","Glen Oaks-Floral Park-New Hyde Park"
"26","26Q188","Zoned School","P.S. 188 Kingsbury","218-12 Hartland Avenue","929-600-5683","PK-5","Partially Accessible",,"Y","1052428","207540","11364","QUEENS","40.736177","-73.753159","411","23","129104","4164350","4077740165","Oakland Gardens"
"26","26Q191","Zoned School","P.S. 191 Mayflower","85-15 258th Street","718-831-4032","PK-5","Partially Accessible",,,"1065003","206924","11001","QUEENS","40.734318","-73.709137","413","23","157903","4180083","4088010014","Glen Oaks-Floral Park-New Hyde Park"
"26","26Q203","Zoned School","P.S. 203 Oakland Gardens","53-11 Springfield Boulevard","718-423-8652","PK-5","Not Accessible",,"Y","1050793","213927","11364","QUEENS","40.754201","-73.760636","411","23","138501","4161005","4074820317","Oakland Gardens"
"26","26Q205","Zoned School","P.S. 205 Alexander Graham Bell","75-25 Bell Boulevard","718-464-5773","PK-5","Not Accessible",,,"1051764","208247","11364","QUEENS","40.737678","-73.756791","411","23","129103","4164007","4077530001","Oakland Gardens"
"26","26Q213","Zoned School","P.S. 213 The Carl Ullman School","231-02 67th Avenue","718-423-8747","PK-5","Partially Accessible",,,"1054798","211698","11364","QUEENS","40.747747","-73.745747","411","23","1377","4163698","4076770001","Oakland Gardens"
"26","26Q221","Zoned School","P.S. 221 The North Hills School","57-40 Marathon Parkway","718-225-7029","PK-5","Not Accessible",,,"1058629","215845","11362","QUEENS","40.759404","-73.731299","411","23","152901","4171759","4082760620","Douglas Manor-Douglaston-Little Neck"
"26","26Q266","Non-Zoned School","P.S./I.S. 266","74-10 Commonwealth Boulevard","718-479-3920","PK-8","Fully Accessible",,,"1059503","211228","11426","QUEENS","40.746231","-73.727614","413","23","1567","4529900","4078700074","Bellerose"
"26","26Q376","Zoned School","P.S. 376","210-21 48th Avenue","929-267-5900","PK-2","Fully Accessible",,,"1047785","214477","11364","QUEENS","40.754956","-73.770307","411","19","1447","4000000","4073270028","Bayside-Bayside Hills"
"26","26Q390","Non-Zoned School","The Civic School of Bayside Hills","56-10 214TH STREET","212-346-5276","PK-K","Fully Accessible",,,"1049425","212720","11364","QUEENS","40.750221","-73.764732","411","23","1399","4438331","4074420001","Bayside-Bayside Hills"
"27","27Q042","Zoned School","P.S./M.S 042 R. Vernam","488 Beach 66th Street","718-634-7914","3K-8","Partially Accessible",,,"1041237","155884","11692","QUEENS","40.594538","-73.795304","414","31","964","4302817","4160390014","Hammels-Arverne-Edgemere"
"27","27Q043","Zoned School","P.S. 043","160 Beach 29th Street","718-327-5860","3K-8","Fully Accessible",,,"1050602","155588","11691","QUEENS","40.593834","-73.76174","414","31","99802","4467711","4158200001","Far Rockaway-Bayswater"
"27","27Q045","Zoned School","P.S. 045 Clarence Witherspoon","126-28 150th Street","718-480-2500","3K-5","Not Accessible",,,"1042818","184128","11436","QUEENS","40.672727","-73.788164","412","28","788","4262725","4121040001","Baisley Park"
"27","27Q047","Zoned School","P.S. 047 Chris Galas","9 Power Road","718-634-7167","3K-8","Partially Accessible",,,"1033928","160283","11693","QUEENS","40.606353","-73.820445","414","32","107201","4448968","4153130485","Breezy Point-Belle Harbor-Rockaway Park-Broad Channel"
"27","27Q051","Zoned School","P.S. 051","87-45 117th Street","718-850-0738","PK-1","Fully Accessible",,,"1030964","193726","11418","QUEENS","40.699015","-73.832356","409","29","122","4449704","4093270026","Richmond Hill"
"27","27Q060","Zoned School","P.S. 060 Woodhaven","91-02 88th Avenue","718-441-5046","3K-5","Partially Accessible",,,"1025073","191231","11421","QUEENS","40.692179","-73.852636","409","32","18","4184144","4089290058","Woodhaven"
"27","27Q062","Zoned School","P. S. 62 - Chester Park School","97-25 108th Street","718-286-4460","PK-5","Fully Accessible",,,"1029852","190107","11419","QUEENS","40.68867","-73.836205","409","28","110","4197909","4094100001","Richmond Hill"
"27","27Q063","Zoned School","P.S. 063 Old South","90-15 Sutter Avenue","718-845-7560","3K-5","Partially Accessible",,,"1026745","185955","11417","QUEENS","40.67641","-73.846773","410","32","54","4190727","4091550025","Ozone Park"
"27","27Q064","Zoned School","P.S. 064 Joseph P. Addabbo","82-01 101st Avenue","718-845-8290","3K-5","Fully Accessible",,,"1023924","187744","11416","QUEENS","40.681172","-73.856918","409","32","42","4188214","4090530014","Woodhaven"
"27","27Q065","Zoned School","P.S. 65 - The Raymond York Elementary School","103-22 99th Street","718-323-1685","3K-5","Fully Accessible",,,"1028162","187894","11417","QUEENS","40.68259","-73.841202","410","32","4002","4438525","4091210011","Ozone Park"
"27","27Q066","Zoned School","P.S. 066 Jacqueline Kennedy Onassis","85-11 102nd Street","718-849-0184","PK-5","Not Accessible",,,"1026915","193593","11418","QUEENS","40.697836","-73.846558","409","32","24","4191497","4091830001","Richmond Hill"
"27","27Q090","Zoned School","P.S. 090 Horace Mann","86-50 109th Street","718-847-3370","PK-5","Not Accessible",,,"1028751","193127","11418","QUEENS","40.697033","-73.839213","409","32","128","4192167","4092040028","Richmond Hill"
"27","27Q096","Zoned School","P.S. 096","130-01 Rockaway Boulevard","718-529-2547","PK-5","Not Accessible",,,"1037472","185390","11420","QUEENS","40.674991","-73.808371","410","28","180","4253028","4116940027","South Ozone Park"
"27","27Q097","Zoned School","P.S. 097 Forest Park","85-52 85th Street","718-849-4870","PK-5","Partially Accessible",,,"1023064","192235","11421","QUEENS","40.694518","-73.859659","409","32","12","4181565","4088550020","Woodhaven"
"27","27Q100","Zoned School","P.S. 100 Glen Morris","111-11 118th Street","718-558-1510","3K-5","Fully Accessible",,,"1033747","186958","11420","QUEENS","40.679984","-73.822078","410","28","102","4250416","4116230001","South Ozone Park"
"27","27Q104","Zoned School","P.S. 104 The Bays Water","26-01 Mott Avenue","718-327-1910","PK-5","Not Accessible",,,"1049606","160876","11691","QUEENS","40.608467","-73.764548","414","31","100801","4442313","4156930001","Far Rockaway-Bayswater"
"27","27Q105","Zoned School","P.S. 105 The Bay School","420 Beach 51st Street","718-474-8615","3K-8","Not Accessible",,,"1045080","156459","11691","QUEENS","40.595779","-73.781876","414","31","97203","4302397","4159740003","Hammels-Arverne-Edgemere"
"27","27Q106","Zoned School","Lighthouse Elementary School","180 Beach 35th Street","718-327-5828","PK-5","Not Accessible",,,"1049001","156042","11691","QUEENS","40.593779","-73.767199","414","31","992","4441244","4158610035","Hammels-Arverne-Edgemere"
"27","27Q108","Zoned School","P.S. 108 Captain Vincent G. Fowler","108-10 109th Avenue","718-558-2700","3K-5","Partially Accessible",,"Y","1031118","186730","11420","QUEENS","40.679584","-73.831547","410","28","96","4247572","4114750011","South Ozone Park"
"27","27Q114","Zoned School","P.S./M.S. 114 Belle Harbor","134-01 Cronston Avenue","718-634-3382","PK-8","Partially Accessible",,,"1024706","149728","11694","QUEENS","40.578261","-73.854403","414","32","928","4305615","4162570001","Breezy Point-Belle Harbor-Rockaway Park-Broad Channel"
"27","27Q123","Zoned School","P.S. 123","145-01 119th Avenue","718-529-4300","3K-5","Not Accessible",,,"1040952","186689","11436","QUEENS","40.678296","-73.79562","412","28","18402","4260828","4120190010","Baisley Park"
"27","27Q124","Zoned School","P.S. 124 Osmond A Church","129-15 150th Avenue","718-529-2580","K-8","Partially Accessible",,,"1036609","181854","11420","QUEENS","40.665058","-73.811701","410","28","84602","4257530","4118820001","South Ozone Park"
"27","27Q146","Zoned School","P.S. 146 Howard Beach","98-01 159th Avenue","718-659-3140","3K-8","Not Accessible",,,"1030057","179969","11414","QUEENS","40.659873","-73.835068","410","32","884","4295163","4141680016","Lindenwood-Howard Beach"
"27","27Q155","Zoned School","P.S. 155","130-02 115th Avenue","718-558-1310","3K-5","Not Accessible",,,"1036931","186750","11420","QUEENS","40.67956","-73.8106","410","28","176","4252357","4116730001","South Ozone Park"
"27","27Q183","Zoned School","P.S. 183 Dr. Richard R. Green","2-45 Beach 79th Street","718-634-9459","3K-8","Not Accessible",,,"1038169","154005","11693","QUEENS","40.589508","-73.805361","414","31","94202","4303354","4161120001","Hammels-Arverne-Edgemere"
"27","27Q197","Zoned School","P.S. 197 The Ocean School","825 Hicksville Road","718-327-1083","3K-5","Not Accessible","Spanish",,"1055305","157854","11691","QUEENS","40.600199","-73.743968","414","31","101002","4298856","4155970001","Far Rockaway-Bayswater"
"27","27Q207","Zoned School","P.S. 207 Rockwood Park","159-15 88th Street","718-848-2700","3K-8","Partially Accessible",,,"1027566","178946","11414","QUEENS","40.658089","-73.844432","410","32","892","4293311","4140090060","Lindenwood-Howard Beach"
"27","27Q223","Zoned School","P.S. 223 Lyndon B. Johnson","125-20 Sutphin Boulevard","718-558-2900","3K-5","Partially Accessible",,,"1042632","184866","11434","QUEENS","40.674519","-73.789399","412","28","18401","4261713","4120510001","Baisley Park"
"27","27Q232","Zoned School","P.S. 232 Lindenwood","153-23 83rd Street","718-848-9247","3K-8","Partially Accessible",,,"1025691","181738","11414","QUEENS","40.665909","-73.851216","410","32","6202","4247454","4114450001","Lindenwood-Howard Beach"
"27","27Q253","Zoned School","P.S. 253","1307 Central Avenue","718-327-0895","3K-5","Fully Accessible","Spanish",,"1054000","160613","11691","QUEENS","40.60729","-73.7494","414","31","103202","4297972","4155410001","Far Rockaway-Bayswater"
"27","27Q254","Zoned School","P.S. 254 - The Rosa Parks School","84-40 101st Street","718-520-7878","3K-5","Fully Accessible",,,"1026430","193322","11418","QUEENS","40.697961","-73.84796","409","32","24","4191296","4091770023","Richmond Hill"
"27","27Q273","Zoned School","P.S. 273","88-07 102nd Street","718-286-8300","PK-5","Fully Accessible",,,"1027417","192017","11418","QUEENS","40.693606","-73.844631","409","32","28","4539360","4092880101","Richmond Hill"
"27","27Q306","Zoned School","New York City Academy for Discovery","95-16 89th Avenue","718-441-2165","PK-5","Fully Accessible",,,"1026242","191238","11421","QUEENS","40.691765","-73.849006","409","32","20","4538070","4089750100","Woodhaven"
"27","27Q316","Non-Zoned School","Queens Explorers Elementary School","90-07 101st Avenue","718-558-7088","3K-5","Fully Accessible",,,"1025860","188293","11416","QUEENS","40.683104","-73.850121","409","32","38","4541381","4090640031","Woodhaven"
"27","27Q317","Zoned School","Waterside Children's Studio School","190 Beach 110th Street","718-634-1344","PK-5","Not Accessible",,,"1031169","150962","11694","QUEENS","40.580928","-73.831836","414","32","938","4303853","4161810001","Breezy Point-Belle Harbor-Rockaway Park-Broad Channel"
"27","27Q333","Non-Zoned School","Goldie Maple Academy","3-65 Beach 56th Street","718-945-3300","PK-8","Partially Accessible",,,"1043502","155762","11692","QUEENS","40.593967","-73.786182","414","31","97204","4301929","4158940011","Hammels-Arverne-Edgemere"
"27","27Q362","Zoned School","Wave Preparatory Elementary School","535 Briar Place","718-327-7091","3K-5","Partially Accessible",,,"1051290","157771","11691","QUEENS","40.5993","-73.758206","414","31","99801","4301194","4157720031","Far Rockaway-Bayswater"
"27","27Q377","Zoned School","P.S. 377","150-15 Raleigh Street","929-398-3215","3K-2","Fully Accessible",,,"1029510","182719","11417","QUEENS","40.668127","-73.837189","410","32","88","4000000","4115600001","Ozone Park"
"28","28Q040","Zoned School","P.S. 040 Samuel Huntington","109-20 Union Hall Street","718-526-1906","PK-5","Not Accessible",,,"1042214","192028","11433","QUEENS","40.694125","-73.790675","412","28","260","4263341","4121510001","South Jamaica"
"28","28Q048","Zoned School","P.S. 048 William Wordsworth","108-29 155th Street","718-558-6700","PK-5","Fully Accessible",,,"1040721","192089","11433","QUEENS","40.693518","-73.796727","412","28","254","4590626","4101440047","South Jamaica"
"28","28Q050","Zoned School","P.S. 050 Talfourd Lawn Elementary School","143-26 101st Avenue","718-526-5336","PK-5","Fully Accessible",,,"1037813","192495","11435","QUEENS","40.695238","-73.807364","412","28","206","4214461","4100240012","Jamaica"
"28","28Q054","Zoned School","P.S. 054 Hillside","86-02 127th Street","718-849-0962","K-5","Not Accessible",,,"1032875","195322","11418","QUEENS","40.70292","-73.824221","409","29","14201","4193916","4092800001","Richmond Hill"
"28","28Q055","Zoned School","P.S. 055 Maure","131-10 97th Avenue","718-849-3845","PK-5","Not Accessible",,,"1035231","192031","11419","QUEENS","40.694004","-73.816617","409","28","154","4200233","4094770001","Richmond Hill"
"28","28Q080","Zoned School","PS 80 The Thurgood Marshall Magnet School of Multimedia and Communication","171-05 137th Avenue","718-528-7070","PK-5","Partially Accessible",,,"1048294","184729","11434","QUEENS","40.67282","-73.769252","412","28","33402","4270056","4124950166","Springfield Gardens North"
"28","28Q082","Zoned School","P.S. 082 Hammond","88-02 144th Street","718-526-4139","K-5","Fully Accessible",,,"1036320","195781","11435","QUEENS","40.704072","-73.811771","412","24","214","4206905","4096840008","Briarwood-Jamaica Hills"
"28","28Q086","Zoned School","P.S. Q086","87-41 Parsons Boulevard","718-291-6264","PK-5","Not Accessible","Spanish",,"1038866","197814","11432","QUEENS","40.708898","-73.803938","408","24","448","4438678","4097740001","Briarwood-Jamaica Hills"
"28","28Q099","Zoned School","P.S. 099 Kew Gardens","82-37 Kew Gardens Road","718-544-4343","K-6","Not Accessible",,,"1032011","198543","11415","QUEENS","40.711419","-73.828628","409","29","216","4080168","4033600001","Kew Gardens"
"28","28Q101","Zoned School","P.S. 101 School in the Gardens","2 Russell Place","718-268-7230","PK-5","Not Accessible",,,"1027662","200007","11375","QUEENS","40.715462","-73.843974","406","29","723","4078312","4032700001","Forest Hills"
"28","28Q117","Zoned School","P.S. 117 J. Keld / Briarwood School","85-15 143rd Street","718-526-4780","PK-5","Partially Accessible",,,"1036102","198160","11435","QUEENS","40.709463","-73.813376","408","24","232","4208040","4097230150","Briarwood-Jamaica Hills"
"28","28Q121","Zoned School","P.S. 121 Queens","126-10 109th Avenue","718-558-1560","PK-5","Not Accessible",,"Y","1035468","188379","11420","QUEENS","40.68405","-73.815834","410","28","170","4249769","4116070001","South Ozone Park"
"28","28Q139","Zoned School","P.S. 139 Rego Park","93-06 63 Drive","718-459-1044","K-5","Partially Accessible",,,"1022343","204541","11374","QUEENS","40.72814","-73.863582","406","29","693","4072457","4030950050","Rego Park"
"28","28Q140","Zoned School","P.S. 140 Edward K Ellington","166-01 116th Avenue","718-657-4760","PK-5","Not Accessible",,,"1044915","189822","11434","QUEENS","40.686798","-73.781247","412","27","278","4267260","4123410031","Baisley Park"
"28","28Q144","Zoned School","P.S. 144 Col Jeromus Remsen","93-02 69th Avenue","718-268-2775","PK-5","Fully Accessible",,"Y","1025168","199765","11375","QUEENS","40.714978","-73.853372","406","29","729","4076870","4032120001","Forest Hills"
"28","28Q160","Zoned School","P.S. 160 Walter Francis Bishop","109-59 Inwood Street","929-398-3140","PK-5","Not Accessible",,,"1039803","190133","11435","QUEENS","40.688103","-73.800415","412","28","196","4258143","4119420302","South Jamaica"
"28","28Q161","Zoned School","P.S. 161 Arthur Ashe School","101-33 124th Street","718-441-5493","PK-5","Fully Accessible",,,"1033868","190873","11419","QUEENS","40.690798","-73.821657","409","28","156","4200748","4094910001","Richmond Hill"
"28","28Q174","Zoned School","P.S. 174 William Sidney Mount","65-10 Dieterle Crescent","718-897-7006","PK-5","Not Accessible",,"Y","1022652","201835","11374","QUEENS","40.720924","-73.86135","406","29","69702","4073904","4031340024","Rego Park"
"28","28Q175","Zoned School","P.S. 175 The Lynn Gross Discovery School","64-35 102nd Street","718-897-8600","PK-5","Fully Accessible",,,"1025210","205640","11374","QUEENS","40.730941","-73.853164","406","29","721","4051200","4021280014","Forest Hills"
"28","28Q182","Zoned School","P.S. 182 Samantha Smith","153-27 88th Avenue","718-298-7700","PK-5","Fully Accessible",,,"1038818","196826","11432","QUEENS","40.70643","-73.803444","412","24","236","4594831","4097630023","Briarwood-Jamaica Hills"
"28","28Q196","Zoned School","P.S. 196 Grand Central Parkway","71-25 113rd Street","718-263-9770","PK-5","Fully Accessible",,,"1029326","202651","11375","QUEENS","40.722782","-73.837946","406","29","75702","4052713","4022480100","Forest Hills"
"28","28Q206","Zoned School","P.S. 206 The Horace Harding School","61-02 98th Street","718-592-0300","PK-5","Not Accessible",,,"1022771","206738","11374","QUEENS","40.734642","-73.860737","406","29","71702","4050414","4020830123","Rego Park"
"28","28Q220","Zoned School","P.S. 220 Edward Mandel","62-10 108th Street","718-592-3030","PK-5","Not Accessible",,"Y","1025093","207570","11375","QUEENS","40.736524","-73.851455","406","29","745","4051290","4021430001","Forest Hills"
"28","28Q303","Non-Zoned School","The Academy for Excellence through the Arts","108-55 69th Avenue","718-459-1358","PK-4","Partially Accessible",,,"1027480","203739","11375","QUEENS","40.725098","-73.845091","406","29","739","4052265","4022180021","Forest Hills"
"28","28Q312","Zoned School","Jamaica Children's School","109-20 Union Hall Street","718-526-0160","K-5","Not Accessible",,,"1042214","192028","11433","QUEENS","40.694125","-73.790675","412","28","260","4263341","4121510001","South Jamaica"
"28","28Q349","Zoned School","The Queens School for Leadership and Excellence","88-08 164th Street","718-558-6220","PK-4","Fully Accessible",,,"1040178","197421","11432","QUEENS","40.70869","-73.79798","412","24","44602","4310514","4098130033","Jamaica"
"28","28Q354","Zoned School","The Jermaine L. Green STEM Institute of Queens","126-10 Bedell Street","718-276-1348","PK-5","Not Accessible",,,"1046749","187042","11434","QUEENS","40.68031","-73.774432","412","28","33402","4270045","4124950065","Springfield Gardens North"
"29","29Q015","Zoned School","P.S. 015 Jackie Robinson","121-15 Lucas Street","718-525-1670","PK-5","Partially Accessible",,,"1051769","189317","11413","QUEENS","40.68588","-73.757319","412","27","376","4273142","4126720001","St. Albans"
"29","29Q033","Zoned School","P.S. 033 Edward M. Funk","91-37 222nd Street","718-465-6283","PK-5","Partially Accessible",,,"1057948","204317","11428","QUEENS","40.727134","-73.735077","413","23","560","4230589","4107560001","Queens Village"
"29","29Q034","Zoned School","P.S. 034 John Harvard","104-12 Springfield Boulevard","718-465-6818","PK-5","Not Accessible",,,"1056968","198417","11429","QUEENS","40.711753","-73.736624","413","27","582","4240503","4111510081","Queens Village"
"29","29Q035","Zoned School","P.S. 035 Nathaniel Woodhull","191-02 90th Avenue","718-465-6820","PK-5","Fully Accessible",,,"1048318","199286","11423","QUEENS","40.713759","-73.769439","412","23","482","4222137","4104470007","Hollis"
"29","29Q036","Zoned School","P.S. 036 Saint Albans School","187-01 Foch Boulevard","718-528-1862","PK-5","Not Accessible",,,"1049674","191226","11412","QUEENS","40.690828","-73.763907","412","27","366","4268900","4124390032","St. Albans"
"29","29Q037","Zoned School","Cynthia Jenkins School","179-37 137th Avenue","718-528-5399","PK-5","Not Accessible",,,"1051160","185727","11434","QUEENS","40.67588","-73.758505","412","27","352","4279864","4129930118","St. Albans"
"29","29Q038","Zoned School","P.S. 038 Rosedale","135-21 241st Street","718-528-2276","K-5","Not Accessible",,,"1058101","183907","11422","QUEENS","40.671561","-73.734043","413","31","638","4284236","4132220001","Rosedale"
"29","29Q052","Zoned School","P.S. 052 Queens","178-37 146 Terrace","718-528-2238","PK-5","Not Accessible",,,"1048849","180338","11434","QUEENS","40.661122","-73.766733","413","31","320","4285972","4133530020","Springfield Gardens South-Brookville"
"29","29Q095","Zoned School","P.S. 095 Eastwood","179-01 90th Avenue","718-739-0007","K-5","Not Accessible","Spanish",,"1044331","198495","11432","QUEENS","40.710624","-73.783423","412","27","468","4446042","4099140001","Jamaica"
"29","29Q116","Zoned School","P.S./I.S. 116 William C. Hughley","107-25 Wren Place","718-526-4884","PK-8","Not Accessible",,,"1044741","194687","11433","QUEENS","40.700606","-73.782302","412","27","414","4218416","4102500001","South Jamaica"
"29","29Q118","Zoned School","P.S. 118 Lorraine Hansberry","190-20 109th Road","718-465-5538","PK-5","Not Accessible",,,"1049342","195552","11412","QUEENS","40.703585","-73.765838","412","27","504","4233850","4109260050","Hollis"
"29","29Q131","Zoned School","P.S. 131 Abigail Adams","170-45 84th Avenue","718-480-2840","K-5","Not Accessible",,,"1041338","200621","11432","QUEENS","40.716617","-73.794637","408","24","456","4211112","4098750001","Briarwood-Jamaica Hills"
"29","29Q132","Zoned School","P.S. 132 Ralph Bunche","132-15 218th Street","718-528-5734","PK-5","Not Accessible",,,"1053783","187828","11413","QUEENS","40.682114","-73.74992","413","31","626","4278380","4129270028","Laurelton"
"29","29Q134","Zoned School","P.S. 134 Hollis","203-02 109th Avenue","718-464-5544","PK-5","Not Accessible",,,"1052246","197146","11412","QUEENS","40.70799","-73.755269","412","27","508","4440330","4109060001","Hollis"
"29","29Q135","Zoned School","The Bellaire School","207-11 89th Avenue","718-464-2119","K-5","Partially Accessible",,,"1051444","202000","11427","QUEENS","40.720154","-73.757367","413","23","492","4225816","4105820016","Jamaica Estates-Holliswood"
"29","29Q136","Zoned School","P.S. 136 Roy Wilkins","201-15 115th Avenue","718-465-2286","PK-5","Not Accessible",,,"1052824","194016","11412","QUEENS","40.698279","-73.752654","412","27","520","4236757","4110180021","St. Albans"
"29","29Q138","Zoned School","P.S./M.S. 138 Sunrise","251-11 Weller Avenue","929-600-5777","PK-8","Partially Accessible",,,"1057956","179799","11422","QUEENS","40.659728","-73.735176","413","31","660","4288640","4135780001","Rosedale"
"29","29Q147","Zoned School","P.S./M.S. 147 Ronald McNair","218-01 116th Avenue","718-528-2420","PK-8","Partially Accessible",,,"1056306","193694","11411","QUEENS","40.697309","-73.740948","413","27","598","4243743","4113000001","Cambria Heights"
"29","29Q156","Zoned School","P.S. 156 Laurelton","229-02 137th Avenue","718-528-9173","PK-5","Not Accessible",,,"1055450","184303","11413","QUEENS","40.673069","-73.743173","413","31","646","4283015","4131700012","Laurelton"
"29","29Q176","Zoned School","P.S. 176 Cambria Heights","120-45 235th Street","718-525-4057","PK-5","Not Accessible",,"Y","1059347","188952","11411","QUEENS","40.685492","-73.729982","413","27","614","4276382","4128200001","Cambria Heights"
"29","29Q181","Zoned School","P.S. 181 Brookfield","148-15 230th Street","718-528-5807","PK-5","Not Accessible",,,"1052798","178253","11413","QUEENS","40.656126","-73.753207","413","31","694","4291453","4137180001","Springfield Gardens South-Brookville"
"29","29Q195","Zoned School","P.S. 195 William Haberle","253-50 149th Avenue","718-723-0313","PK-5","Not Accessible",,,"1057610","177162","11422","QUEENS","40.653006","-73.736395","413","31","664","4290116","4136550001","Rosedale"
"29","29Q208","Non-Zoned School","P.S./I.S. 208","74-30 Commonwealth Blvd","718-468-6420","K-8","Fully Accessible",,,"1059722","210554","11426","QUEENS","40.745948","-73.727456","413","23","1567","4529898","4078700070","Bellerose"
"29","29Q251","Non-Zoned School","P.S. 251 Queens","144-51 Arthur Street","718-276-2745","PK-5","Not Accessible",,,"1051000","181576","11413","QUEENS","40.664218","-73.760249","413","31","320","4285682","4133310001","Springfield Gardens South-Brookville"
"29","29Q268","Non-Zoned School","P.S./I.S. 268","92-07 175th Street","718-206-3240","K-8","Fully Accessible",,,"1043800","197165","11433","QUEENS","40.707537","-73.785626","412","27","444","4217573","4102150001","Jamaica"
"29","29Q270","Non-Zoned School","The Gordon Parks School","233-15 Merrick Boulevard","718-341-8280","PK-8","Fully Accessible",,,"1057415","185333","11422","QUEENS","40.674831","-73.736713","413","31","618","4529511","4129730001","Laurelton"
"29","29Q295","Zoned School","P.S./I.S. 295","222-14 Jamaica Avenue","718-464-1433","PK-8","Fully Accessible",,,"1058705","201931","11428","QUEENS","40.720619","-73.731997","413","23","568","4231378","4108130005","Queens Village"
"29","29Q360","Non-Zoned School","P.S. 360","199-10 112th Avenue","718-776-7370","PK-4","Not Accessible",,,"1051832","195248","11412","QUEENS","40.702514","-73.756595","412","27","520","4235252","4109750001","St. Albans"
"30","30Q002","Zoned School","P.S. 002 Alfred Zimberg","75-10 21st Avenue","718-728-1459","K-5","Fully Accessible",,,"1013581","219753","11370","QUEENS","40.770335","-73.894476","401","22","317","4021375","4009710001","Steinway"
"30","30Q011","Zoned School","P.S. 011 Kathryn Phelan","54-25 Skillman Avenue","718-779-2090","PK-6","Not Accessible",,,"1009456","211124","11377","QUEENS","40.745244","-73.90872","402","26","251","4000000","4012390001","Woodside"
"30","30Q017","Zoned School","P.S. 017 Henry David Thoreau","28-37 29th Street","718-278-1220","PK-5","Not Accessible","Spanish",,"1005705","219102","11102","QUEENS","40.768985","-73.922428","401","22","71","4007663","4005940001","Old Astoria"
"30","30Q069","Zoned School","P.S. 069 Jackson Heights","77-02 37th Avenue","718-424-7700","PK-5","Partially Accessible",,,"1015156","212106","11372","QUEENS","40.749266","-73.888817","403","25","287","4029892","4012880001","Jackson Heights"
"30","30Q070","Zoned School","P.S. 070","30-44 43rd Street","718-728-4646","PK-5","Fully Accessible",,,"1008084","216819","11103","QUEENS","40.761537","-73.913611","401","22","149","4000000","4006960014","Astoria"
"30","30Q076","Zoned School","P.S. 076 William Hallet","36-36 10th Street","718-361-7464","PK-5","Not Accessible","Spanish",,"1000420","216485","11106","QUEENS","40.760852","-73.941143","401","26","39","4004331","4003540001","Queensbridge-Ravenswood-Long Island City"
"30","30Q078","Zoned School","P.S./I.S. 78Q","48-09 Center Boulevard","718-392-5402","PK-8","Fully Accessible",,,"996116","210473","11109","QUEENS","40.744753","-73.957971","402","26","1","4000019","4000180001","Hunters Point-Sunnyside-West Maspeth"
"30","30Q084","Zoned School","P.S. 084 Steinway","22-45 41st Street","718-278-1915","PK-5","Not Accessible",,,"1010254","220243","11105","QUEENS","40.771512","-73.90633","401","22","119","4015334","4007940017","Steinway"
"30","30Q085","Zoned School","P.S. 085 Judge Charles Vallone","23-70 31st Street","718-278-3630","PK-5","Not Accessible",,"Y","1007782","220959","11105","QUEENS","40.772863","-73.914708","401","22","115","4017485","4008420031","Steinway"
"30","30Q092","Zoned School","P.S. 092 Harry T. Stewart Sr.","99-01 34th Avenue","718-533-1013","PK-5","Fully Accessible",,,"1020606","214729","11368","QUEENS","40.755418","-73.869017","403","21","377","4042496","4017140018","North Corona"
"30","30Q111","Zoned School","P.S. 111 Jacob Blackwell","37-15 13rd Street","718-786-2073","PK-8","Not Accessible",,,"1001099","215567","11101","QUEENS","40.758831","-73.93938","401","26","43","4004419","4003630001","Queensbridge-Ravenswood-Long Island City"
"30","30Q112","Zoned School","P.S. 112 Dutch Kills","25-05 37th Avenue","718-784-5250","PK-5","Partially Accessible","Spanish",,"1002656","215186","11101","QUEENS","40.756891","-73.934523","401","26","33","4004170","4003440001","Queensbridge-Ravenswood-Long Island City"
"30","30Q122","Zoned School","P.S. 122 Mamie Fay","21-21 Ditmars Boulevard","718-721-6410","PK-8","Not Accessible",,"Y","1007573","223648","11105","QUEENS","40.780347","-73.916655","401","22","103","4019633","4008800001","Steinway"
"30","30Q127","Zoned School","P.S. 127 Aerospace Science Magnet School","98-01 25th Avenue","718-446-4700","PK-8","Not Accessible","Spanish",,"1020003","218198","11369","QUEENS","40.764646","-73.871641","403","21","357","4024487","4011090016","East Elmhurst"
"30","30Q148","Zoned School","P.S. 148 Queens","89-02 32nd Avenue","718-898-8181","PK-5","Partially Accessible",,,"1017872","215325","11369","QUEENS","40.758377","-73.879089","403","25","339","4034841","4014190001","Jackson Heights"
"30","30Q149","Zoned School","P.S. 149 Christa McAuliffe","93-11 34th Avenue","718-898-3630","K-5","Partially Accessible","Spanish",,"1019018","214645","11372","QUEENS","40.754837","-73.874605","403","25","273","4035441","4014410015","Jackson Heights"
"30","30Q150","Zoned School","P.S. 150 Queens","40-01 43rd Avenue","718-784-2252","PK-6","Partially Accessible","Spanish","Y","1005482","211033","11104","QUEENS","40.745537","-73.923776","402","26","18101","4002387","4001850001","Hunters Point-Sunnyside-West Maspeth"
"30","30Q151","Zoned School","P.S. 151 Mary D. Carter","50-05 31st Avenue","718-728-2676","PK-5","Not Accessible",,,"1009697","215460","11377","QUEENS","40.757499","-73.908898","401","22","163","4014094","4007520001","Astoria"
"30","30Q152","Zoned School","P.S. 152 Gwendoline N. Alleyne School","33-52 62nd Street","718-429-3141","PK-5","Partially Accessible",,,"1011794","213665","11377","QUEENS","40.753037","-73.900123","402","26","293","4027102","4011840014","Woodside"
"30","30Q166","Zoned School","P.S. 166 Henry Gradstein","33-09 35th Avenue","718-786-6703","PK-5","Partially Accessible","Spanish","Y","1004682","215262","11106","QUEENS","40.757309","-73.926733","401","26","57","4008220","4006100001","Astoria"
"30","30Q171","Zoned School","P.S. 171 Peter G. Van Alst","14-14 29th Avenue","718-932-0909","PK-5","Not Accessible",,,"1003890","220154","11102","QUEENS","40.771336","-73.929086","401","22","83","4006046","4005370014","Old Astoria"
"30","30Q212","Zoned School","P.S. 212","34-25 82nd Street","718-898-6973","PK-5","Fully Accessible","Spanish",,"1016262","213649","11372","QUEENS","40.753078","-73.884906","403","25","283","4437128","4014430019","Jackson Heights"
"30","30Q222","Zoned School","P.S. Q222 - Fire Fighter Christopher A. Santora School","86-15 37th Avenue","718-429-2563","PK-2","Fully Accessible","Spanish",,"1017501","212706","11372","QUEENS","40.750172","-73.880363","403","25","279","4035854","4014600034","Jackson Heights"
"30","30Q228","Zoned School","The Ivan Lafayette Early Childhood School of the Arts","32-63 93rd Street","718-899-5799","PK-2","Fully Accessible","Spanish",,"1018895","215072","11369","QUEENS","40.75747","-73.875279","403","21","353","4034892","4014230057","East Elmhurst"
"30","30Q234","Zoned School","P.S. 234","30-15 29th Street","718-956-2760","PK-5","Fully Accessible",,,"1005567","218688","11102","QUEENS","40.767305","-73.923246","401","22","73","4007619","4005920015","Old Astoria"
"30","30Q280","Zoned School","P.S. 280","34-20 94th Street","718-424-9031","K-5","Not Accessible","Spanish",,"1019129","213766","11372","QUEENS","40.754241","-73.873769","403","25","273","4541605","4014540018","Jackson Heights"
"30","30Q329","Zoned School","East Elmhurst Community School","26-25 97th Street","718-505-6050","K-5","Not Accessible","Spanish",,"1019738","216838","11369","QUEENS","40.761557","-73.872239","403","21","361","4437125","4013770016","East Elmhurst"
"30","30Q361","Zoned School","The Woodside Community School","39-07 57th Street","718-592-3300","PK-4","Fully Accessible",,,"1010327","211726","11377","QUEENS","40.747693","-73.906429","402","26","257","4543408","4012280048","Woodside"
"30","30Q384","Non-Zoned School","P.S. 384","27-35 Jackson Avenue","718-391-4669","K-1","Not Accessible",,,"1000787","211857","11101","QUEENS","40.747962","-73.940046","402","26","19","4005127","4004320008","Hunters Point-Sunnyside-West Maspeth"
"30","30Q398","Zoned School","P.S. 398","69-01 34th Avenue","929-463-7200","PK-K","Fully Accessible",,,"1012869","213549","11377","QUEENS","40.752493","-73.896922","403","25","291","4028492","4012420032","Jackson Heights"
"31","31R001","Zoned School","P.S. 001 Tottenville","58 Summit Street","718-984-0960","PK-5","Not Accessible",,,"916413","124682","10307","STATEN IS","40.509037","-74.244118","503","51","24401","5107854","5078980001","Charleston-Richmond Valley-Tottenville"
"31","31R003","Zoned School","P.S. 003 The Margaret Gioiosa School","80 South Goff Avenue","718-984-1021","PK-5","Partially Accessible",,"Y","925350","129094","10309","STATEN IS","40.520699","-74.211264","503","51","198","5083311","5067960044","Annadale-Huguenot-Prince's Bay-Eltingville"
"31","31R004","Zoned School","P.S. 004 Maurice Wollin","200 Nedra Lane","718-984-1197","3K-5","Partially Accessible",,,"929982","140467","10312","STATEN IS","40.552975","-74.194597","503","51","17010","5079499","5060250030","Arden Heights"
"31","31R005","Zoned School","P.S. 005 Huguenot","348 Deisius Street","718-668-3270","K-5","Partially Accessible",,,"932189","132203","10312","STATEN IS","40.530169","-74.187635","503","51","176","5082407","5065660001","Annadale-Huguenot-Prince's Bay-Eltingville"
"31","31R006","Zoned School","P.S. 6 Corporal Allan F. Kivlehan School","555 Page Avenue","718-697-3760","PK-5","Fully Accessible",,,"920261","125243","10307","STATEN IS","40.510735","-74.231109","503","51","24401","5131697","5077600001","Charleston-Richmond Valley-Tottenville"
"31","31R008","Zoned School","P.S. 8 Shirlee Solomon","112 Lindenwood Road","718-356-2800","PK-5","Not Accessible",,"Y","941948","138807","10308","STATEN IS","40.547692","-74.151755","503","51","15601","5066295","5052210001","Great Kills"
"31","31R009","Non-Zoned School","Naples Street Elementary School","1055 Targee Street","718-876-4610","PK-5","Not Accessible",,,"959190","158851","10304","STATEN IS","40.60223","-74.091355","502","50","50","5046419","5031710001","Grasmere-Arrochar-Ft. Wadsworth"
"31","31R010","Zoned School","Fort Hill Collaborative Elementary School","80 Monroe Avenue","718-420-5115","K-5","Not Accessible",,,"962160","172324","10301","STATEN IS","40.6397","-74.079141","501","49","11","5000291","5000180015","West New Brighton-New Brighton-St. George"
"31","31R011","Zoned School","P.S. 11 Thomas Dongan School","51 Jefferson Street","718-979-1030","3K-5","Not Accessible",,,"956962","154568","10304","STATEN IS","40.590485","-74.097798","502","50","9602","5048647","5033030018","Old Town-Dongan Hills-South Beach"
"31","31R013","Zoned School","P.S. 013 M. L. Lindemeyer","191 Vermont Avenue","718-447-1462","PK-5","Fully Accessible",,,"965103","162734","10305","STATEN IS","40.613216","-74.069889","501","49","8","5042776","5028520001","Stapleton-Rosebank"
"31","31R016","Zoned School","P.S. 016 John J. Driscoll","80 Monroe Avenue","718-447-0124","PK-5","Not Accessible","Spanish",,"962160","172324","10301","STATEN IS","40.6397","-74.079141","501","49","11","5000291","5000180015","West New Brighton-New Brighton-St. George"
"31","31R018","Zoned School","P.S. 018 John G. Whittier","221 Broadway","718-442-0216","3K-5","Not Accessible",,,"951828","171200","10310","STATEN IS","40.636587","-74.117509","501","49","105","5004877","5001760010","New Brighton-Silver Lake"
"31","31R019","Zoned School","P.S. 019 The Curtis School","780 Post Avenue","718-442-3860","3K-5","Not Accessible","Spanish",,"949040","169033","10310","STATEN IS","40.631214","-74.127101","501","49","141","5006175","5002270024","West New Brighton-New Brighton-St. George"
"31","31R020","Zoned School","P.S. 020 Port Richmond","161 Park Avenue","718-442-4110","K-5","Partially Accessible","Spanish",,"947508","171282","10302","STATEN IS","40.636598","-74.132919","501","49","207","5106979","5010200001","Port Richmond"
"31","31R021","Zoned School","P.S. 21 Margaret Emery-Elm Park","168 Hooker Place","718-816-3300","3K-5","Not Accessible",,,"944114","169260","10302","STATEN IS","40.631523","-74.144297","501","49","213","5026335","5011350001","Port Richmond"
"31","31R022","Zoned School","P.S. 022 Graniteville","1860 Forest Avenue","718-442-2219","3K-5","Not Accessible","Spanish",,"942460","166961","10303","STATEN IS","40.625369","-74.15097","501","49","30302","5107239","5017060001","Mariner's Harbor-Arlington-Port Ivory-Graniteville"
"31","31R023","Zoned School","P.S. 023 Richmondtown","30 Natick Street","718-351-1155","PK-5","Not Accessible",,,"947240","147250","10306","STATEN IS","40.571187","-74.132634","503","50","138","5059927","5043730001","Oakwood-Oakwood Beach"
"31","31R026","Zoned School","P.S. 026 The Carteret School","4108 Victory Boulevard","718-698-1530","PK-5","Not Accessible",,,"931455","154850","10314","STATEN IS","40.591702","-74.190648","502","50","29102","5107386","5026340001","New Springville-Bloomfield-Travis"
"31","31R029","Zoned School","P.S. 029 Bardwell","1581 Victory Boulevard","718-556-4400","3K-5","Not Accessible",,,"951989","163009","10314","STATEN IS","40.613604","-74.115988","501","50","147","5009028","5003310001","Westerleigh"
"31","31R030","Zoned School","P.S. 030 Westerleigh","200 Wardwell Avenue","718-442-0462","PK-5","Not Accessible",,,"947304","164494","10314","STATEN IS","40.618439","-74.132645","501","50","201","5113069","5004230009","Westerleigh"
"31","31R031","Zoned School","P.S. 031 William T. Davis","55 Layton Avenue","718-273-3500","3K-5","Not Accessible",,,"960544","173219","10301","STATEN IS","40.641595","-74.085135","501","49","9","5001150","5000490182","West New Brighton-New Brighton-St. George"
"31","31R032","Zoned School","P.S. 032 The Gifford School","232 Barlow Avenue","718-984-1688","PK-5","Not Accessible",,,"941174","142677","10308","STATEN IS","40.558966","-74.155517","503","51","14608","5070651","5054440012","Great Kills"
"31","31R035","Zoned School","P.S. 35 The Clove Valley School","60 Foote Avenue","718-442-3037","K-5","Not Accessible",,,"956765","162824","10301","STATEN IS","40.613721","-74.099626","501","49","47","5015603","5006100127","Grymes Hill-Clifton-Fox Hills"
"31","31R036","Zoned School","P.S. 036 J. C. Drumgoole","255 Ionia Avenue","718-984-1422","3K-5","Partially Accessible",,,"933514","137317","10312","STATEN IS","40.543083","-74.182299","503","51","17005","5107742","5062620012","Annadale-Huguenot-Prince's Bay-Eltingville"
"31","31R038","Zoned School","P.S. 038 George Cromwell","421 Lincoln Avenue","718-351-1225","PK-5","Not Accessible",,,"956634","148707","10306","STATEN IS","40.574747","-74.09992","502","50","11202","5054213","5037320006","New Dorp-Midland Beach"
"31","31R039","Zoned School","P.S. 39 Francis J. Murphy Jr.","71 Sand Lane","718-447-4543","K-5","Not Accessible",,,"964641","157088","10305","STATEN IS","40.597679","-74.071529","502","50","2002",,,"Grasmere-Arrochar-Ft. Wadsworth"
"31","31R041","Zoned School","The Stephanie A. Vierno School","216 Clawson Street","718-351-6777","3K-5","Not Accessible","Spanish",,"954110","148273","10306","STATEN IS","40.574044","-74.109282","502","50","122","5052791","5036450007","New Dorp-Midland Beach"
"31","31R042","Zoned School","P.S. 042 Eltingville","380 Genesee Avenue","718-984-3800","PK-5","Partially Accessible",,"Y","937275","140508","10312","STATEN IS","40.552523","-74.169464","503","51","17012","5074394","5056050001","Annadale-Huguenot-Prince's Bay-Eltingville"
"31","31R044","Zoned School","P.S. 044 Thomas C. Brown","80 Maple Parkway","718-442-0433","3K-5","Partially Accessible","Spanish",,"940588","169457","10303","STATEN IS","40.63179","-74.156439","501","49","231","5027641","5012180001","Mariner's Harbor-Arlington-Port Ivory-Graniteville"
"31","31R045","Zoned School","P.S. 045 John Tyler","58 Lawrence Avenue","718-442-6123","PK-5","Partially Accessible",,"Y","954400","168245","10310","STATEN IS","40.628558","-74.107148","501","49","121","5007417","5002760007","New Brighton-Silver Lake"
"31","31R046","Zoned School","P.S. 046 Albert V. Maniscalco","41 Reid Avenue","718-987-5155","3K-5","Not Accessible",,,"961802","155863","10305","STATEN IS","40.59377","-74.08058","502","50","64","5047613","5032430001","Grasmere-Arrochar-Ft. Wadsworth"
"31","31R048","Zoned School","P.S. 048 William G. Wilcox","1050 Targee Street","718-447-8323","PK-8","Fully Accessible",,,"958720","159013","10304","STATEN IS","40.603484","-74.091237","502","50","50","5046367","5031680004","Grasmere-Arrochar-Ft. Wadsworth"
"31","31R050","Zoned School","P.S. 050 Frank Hankinson","200 Adelaide Avenue","718-987-0396","PK-5","Not Accessible",,"Y","949703","143672","10306","STATEN IS","40.561691","-74.124622","503","50","13204","5063495","5047160060","Oakwood-Oakwood Beach"
"31","31R052","Zoned School","P.S. 052 John C. Thompson","450 Buel Avenue","718-351-5454","PK-5","Partially Accessible",,,"959525","151528","10305","STATEN IS","40.582744","-74.088509","502","50","11201","5053746","5037050001","Old Town-Dongan Hills-South Beach"
"31","31R053","Zoned School","The Barbara Esselborn School","330 Durant Avenue","718-987-8020","PK-5","Not Accessible",,"Y","946278","140388","10308","STATEN IS","40.55258","-74.13706","503","51","13203","5065016","5051060001","Great Kills"
"31","31R054","Zoned School","P.S. 054 Charles W. Leng","1060 Willowbrook Road","718-698-0600","3K-5","Not Accessible",,,"946135","158915","10314","STATEN IS","40.603232","-74.137981","502","50","27302","5034476","5019870104","New Springville-Bloomfield-Travis"
"31","31R055","Zoned School","P.S. 055 Henry M. Boehm","54 Osborne Street","718-697-5200","PK-5","Partially Accessible",,,"938932","134826","10312","STATEN IS","40.536639","-74.163815","503","51","15602","5069075","5053360001","Annadale-Huguenot-Prince's Bay-Eltingville"
"31","31R056","Zoned School","P.S. 56 The Louis Desario School","250 Kramer Avenue","718-605-1189","3K-5","Fully Accessible",,,"924787","136762","10309","STATEN IS","40.542246","-74.214002","503","51","20801","5128148","5070440001","Rossville-Woodrow"
"31","31R057","Zoned School","P.S. 057 Hubert H. Humphrey","140 Palma Drive","718-447-1191","3K-5","Partially Accessible",,,"960983","161941","10304","STATEN IS","40.611508","-74.083177","501","49","40","5043519","5028880040","Grymes Hill-Clifton-Fox Hills"
"31","31R058","Zoned School","Space Shuttle Columbia School","77 Marsh Avenue","718-761-2155","PK-5","Fully Accessible",,,"939566","151644","10314","STATEN IS","40.583139","-74.161862","502","51","27702","5145698","5024500305","Todt Hill-Emerson Hill-Heartland Village-Lighthouse Hill"
"31","31R059","Non-Zoned School","The Harbor View School","300 Richmond Terrace","718-390-2190","3K-5","Partially Accessible",,,"960982","175226","10301","STATEN IS","40.64789","-74.083406","501","49","7","5000126","5000140032","West New Brighton-New Brighton-St. George"
"31","31R060","Zoned School","P.S. 060 Alice Austen","55 Merrill Avenue","718-761-3325","PK-5","Not Accessible",,,"939094","161778","10314","STATEN IS","40.610073","-74.162129","502","50","29104","5031151","5015800044","New Springville-Bloomfield-Travis"
"31","31R062","Zoned School","The Kathleen Grimm School for Leadership and Sustainability","644 Bloomingdale Road","718-668-8640","PK-4","Fully Accessible",,,"923487","136607","10309","STATEN IS","40.541555","-74.217932","503","51","226","5158758","5070920039","Charleston-Richmond Valley-Tottenville"
"31","31R065","Non-Zoned School","P.S. 65 The Academy of Innovative Learning","98 Grant Street","718-981-5034","PK-5","Fully Accessible",,,"962507","170148","10301","STATEN IS","40.634032","-74.078611","501","49","21",,,"Stapleton-Rosebank"
"31","31R068","Zoned School","Port Richmond School for Visionary Learning","1625 Forest Avenue","718-816-3377","PK-3","Fully Accessible",,,"944757","167039","10302","STATEN IS","40.624773","-74.142525","501","49","247","5025214","5010650007","Port Richmond"
"31","31R069","Zoned School","P.S. 069 Daniel D. Tompkins","144 Keating Place","718-698-6661","3K-5","Partially Accessible",,,"940555","154808","10314","STATEN IS","40.591468","-74.156705","502","51","27705","5037541","5023660073","Todt Hill-Emerson Hill-Heartland Village-Lighthouse Hill"
"31","31R074","Zoned School","P.S. 74 Future Leaders Elementary School","211 Daniel Low Terrace","718-727-5380","PK-5","Not Accessible",,,"962203","172089","10301","STATEN IS","40.639087","-74.079922","501","49","11","5000290","5000180006","West New Brighton-New Brighton-St. George"
"31","31R078","Zoned School","P.S. 78","100 Tompkins Avenue","718-442-3094","PK-5","Partially Accessible",,,"962256","166049","10304","STATEN IS","40.622455","-74.078508","501","49","29","5014176","5005450110","Stapleton-Rosebank"
"31","31R080","Non-Zoned School","The Michael J. Petrides School","715 Ocean Terrace","718-815-0186","PK-12","Partially Accessible",,,"954850","160673","10301","STATEN IS","40.608512","-74.102067","502","50","177","5113169","5006830001","Todt Hill-Emerson Hill-Heartland Village-Lighthouse Hill"
"31","31R861","Zoned School","Staten Island School of Civic Leadership","280 Regis Drive","718-697-5250","PK-8","Fully Accessible",,,"938603","165315","10314","STATEN IS","40.620676","-74.164277","501","49","30301","5032481","5016530001","Mariner's Harbor-Arlington-Port Ivory-Graniteville"
"32","32K045","Zoned School","P.S./I.S. 045 Horace E. Greene","84 Schaefer Street","718-642-5360","3K-8","Not Accessible",,,"1009091","189372","11207","BROOKLYN","40.686746","-73.910693","304","37","401","3079428","3034270011","Bushwick South"
"32","32K075","Zoned School","P.S. 075 Mayda Cortiella","95 Grove Street","718-574-0244","3K-5","Not Accessible",,,"1006064","191860","11221","BROOKLYN","40.693313","-73.920666","304","34","419","3075879","3033140001","Bushwick South"
"32","32K086","Zoned School","P.S. 086 The Irvington","220 Irving Avenue","718-574-0252","K-5","Not Accessible","Spanish",,"1007041","194533","11237","BROOKLYN","40.700774","-73.91748","304","37","431","3075109","3032890027","Bushwick North"
"32","32K106","Zoned School","P.S. 106 Edward Everett Hale","1328 Putnam Avenue","718-574-0261","3K-5","Not Accessible",,,"1008271","191883","11221","BROOKLYN","40.693879","-73.913056","304","37","435","3077286","3033770001","Bushwick North"
"32","32K116","Zoned School","P.S. 116 Elizabeth L Farrell","515 Knickerbocker Avenue","718-821-4623","3K, K-5","Not Accessible","Spanish",,"1007386","193616","11237","BROOKLYN","40.697779","-73.916521","304","37","433","3075909","3033170001","Bushwick North"
"32","32K123","Zoned School","P.S. 123 Suydam","100 Irving Avenue","718-821-4810","3K-5","Not Accessible","Spanish",,"1005769","195800","11237","BROOKLYN","40.703767","-73.922702","304","34","445","3072966","3032100001","Bushwick North"
"32","32K145","Zoned School","P.S. 145 Andrew Jackson","100 Noll Street","718-821-4823","3K-5","Fully Accessible","Spanish",,"1002997","194716","11206","BROOKLYN","40.701621","-73.93241","304","34","425","3071915","3031530011","Bushwick South"
"32","32K151","Zoned School","P.S. 151 Lyndon B. Johnson","763 Knickerbocker Avenue","718-326-6360","3K-5","Not Accessible","Spanish",,"1009695","191926","11207","BROOKLYN","40.693293","-73.90864","304","37","437","3078654","3034060001","Bushwick North"
"32","32K274","Zoned School","P.S. 274 Kosciusko","800 Bushwick Avenue","718-642-5300","PK-5","Not Accessible","Spanish",,"1004166","192193","11221","BROOKLYN","40.694921","-73.927931","304","34","393","3073752","3032410037","Bushwick South"
"32","32K299","Zoned School","P.S. 299 Thomas Warren Field","88 Woodbine Street","718-473-8230","PK-5","Not Accessible",,,"1007018","190948","11221","BROOKLYN","40.691077","-73.918152","304","34","399","3076734","3033580001","Bushwick South"
"32","32K376","Zoned School","P.S. 376","194 Harman Street","718-573-0781","K-5","Fully Accessible","Spanish","Y","1006381","193605","11237","BROOKLYN","40.698021","-73.920711","304","37","431","3075072","3032870001","Bushwick North"
"32","32K377","Zoned School","P.S. 377 Alejandrina B. De Gautier","200 Woodbine Street","718-574-0325","PK-5","Partially Accessible",,,"1007777","191964","11221","BROOKLYN","40.694018","-73.915263","304","37","415","3076784","3033600001","Bushwick South"
"32","32K384","Zoned School","P.S. /I.S. 384 Frances E. Carter","242 Cooper Street","718-642-4890","3K-8","Partially Accessible",,,"1010680","190634","11207","BROOKLYN","40.690353","-73.904803","304","37","409","3080043","3034420001","Bushwick North"
