"physical_address_id","location_id","address_1","address_2","city","borough","state_province","postcode","site_catchment","site_intersection_street_1","site_intersection_street_2","street_number","street_name","latitude","longitude","community_board","council_district","census_tract","bin","bbl","nta"
"1","1","40 WORTH STREET",,"NEW YORK","Manhattan","NY","10013",,,,"40","WORTH STREET","40.71736223432259","-74.00689733252743","101","1","33","1001622","1001480015","MN24"
"2","2","36 RICHMOND TERRACE",,"STATEN ISLAND","Staten Island","NY","10301",,,,"36","RICHMOND TERRACE","40.64381010324276","-74.07637799273142","501","49","3","5000073","5000070086","SI22"
"3","3","8900 SUTPHIN BOULEVARD",,"JAMAICA","Queens","NY","11435",,,,"8900","SUTPHIN BOULEVARD","40.70370206272797","-73.8087462903471","412","24","240","4206748","4096760007","QN61"
"4","4","1 WEST 125 STREET",,"NEW YORK","Manhattan","NY","10027",,,,"1","WEST 125 STREET","40.8065220414661","-73.94249339477317","110","9","200","1053504","1017230033","MN11"
"5","5","1118 GRAND CONCOURSE",,"BRONX","Bronx","NY","10456",,,,"1118","GRAND CONCOURSE","40.83223189762735","-73.91965477267921","204","16","18102","2101266","2024620039","BX14"
"6","6","349 EAST 149 STREET",,"BRONX","Bronx","NY","10451",,,,"349","EAST 149 STREET","40.81666956272471","-73.91995897030567","201","17","65","2000933","2023317501","BX34"
"7","7","105 COURT STREET",,"BROOKLYN","Brooklyn","NY","11201",,,,"105","COURT STREET","40.69079282675378","-73.99182530224263","302","33","9","3002702","3002710023","BK09"
"8","8","1360 FULTON STREET",,"BROOKLYN","Brooklyn","NY","11216",,,,"1360","FULTON STREET","40.68018559555126","-73.94593010588461","303","36","247","3329709","3018620001","BK61"
"9","9","3049 BRIGHTON 6TH STREET",,"BROOKLYN","Brooklyn","NY","11235",,,,"3049","BRIGHTON 6TH STREET","40.57843437842163","-73.9617511906496","313","48","362","3397165","3086767501","BK19"
"10","10","126-02 82 AVENUE",,"KEW GARDENS","Queens","NY","11415",,,,"126-02","82 AVENUE","40.71373155961331","-73.82612226577379","409","29","216","4458616","4096530001","QN60"
"11","11","447 NEW LOTS AVENUE",,"BROOKLYN","Brooklyn","NY","11207",,,,"447","NEW LOTS AVENUE","40.66273113759284","-73.89108830200446","305","42","1128","3085632","3038420029","BK85"
"12","12","900 FULTON STREET",,"BROOKLYN","Brooklyn","NY","11238",,,,"900","FULTON STREET","40.68311071745809","-73.96515607400612","302","35","199","3399792","3020120032","BK69"
"13","13","2272 SECOND AVENUE",,"NEW YORK","Manhattan","NY","10035",,,,"2272","SECOND AVENUE","40.79741790638541","-73.93745928366864","111","8","188","1052974","1016880052","MN34"
"14","14","40 WORTH STREET",,"NEW YORK","Manhattan","NY","10013",,,,"40","WORTH STREET","40.71736223432259","-74.00689733252743","101","1","33","1001622","1001480015","MN24"
"15","15","199 WATER STREET",,"NEW YORK","Manhattan","NY","10038",,,,"199","WATER STREET","40.70726987051206","-74.00431378701295","101","1","1502","1001162","1000747501","MN25"
"16","16","1118 GRAND CONCOURSE",,"BRONX","Bronx","NY","10456",,,,"1118","GRAND CONCOURSE","40.83223189762735","-73.91965477267921","204","16","18102","2101266","2024620039","BX14"
"17","17","141 LIVINGSTON STREET",,"BROOKLYN","Brooklyn","NY","11201",,,,"141","LIVINGSTON STREET","40.69064705417875","-73.98834558207787","302","33","37","3000428","3001540028","BK38"
"18","18","89-17 SUTPHIN BOULEVARD",,"JAMAICA","Queens","NY","11435",,,,"89-17","SUTPHIN BOULEVARD","40.70361687332224","-73.80868522159207","412","24","240","4448759","4096800001","QN61"
"3498","3293","NO ADDRESS",,"NEW YORK","Manhattan","NY","10014","HUDSON STREET",,,,,,,,,,,,
"19","19","111 LIVINGSTON STREET",,"BROOKLYN","Brooklyn","NY","11201",,,,"111","LIVINGSTON STREET","40.69114399640502","-73.98980952026824","302","33","9","3002555","3002660001","BK09"
"20","20","60 BAY STREET",,"STATEN ISLAND","Staten Island","NY","10301",,,,"60","BAY STREET","40.64055798656306","-74.07568965455333","501","49","3","5000025","5000050051","SI22"
"21","21","230 EAST 106 STREET",,"NEW YORK","Manhattan","NY","10029",,,,"230","EAST 106 STREET","40.79103949640428","-73.94343489403855","111","8","170","1052427","1016550035","MN33"
"22","22","2090 ADAM CLAYTON POWELL JR BOULEVARD",,"NEW YORK","Manhattan","NY","10027",,,,"2090","ADAM CLAYTON POWELL JR BOULEVARD","40.80863835539116","-73.94858197022523","110","9","222","1058640","1019300030","MN11"
"23","23","260 EAST 161 STREET",,"BRONX","Bronx","NY","10451",,,,"260","EAST 161 STREET","40.82568516540547","-73.91881717346185","204","16","61","2002457","2024430100","BX14"
"24","24","111 CENTRE STREET",,"NEW YORK","Manhattan","NY","10013",,,,"111","CENTRE STREET","40.71631668018484","-74.00127699655344","101","1","31","1001833","1001690010","MN24"
"25","25","120-46 QUEENS BOULEVARD",,"KEW GARDENS","Queens","NY","11415",,,,"120-46","QUEENS BOULEVARD","40.71331259954725","-73.8286123124267","409","29","216","4080152","4033580018","QN60"
"26","25","120-46 QUEENS BOULEVARD",,"JAMAICA","Queens","NY","11415",,,,"120-46","QUEENS BOULEVARD","40.71331259954725","-73.8286123124267","409","29","216","4080152","4033580018","QN60"
"27","26","275 7 AVENUE",,"NEW YORK","Manhattan","NY","10001",,,,"275","7 AVENUE","40.74574307084613","-73.99443503265944","104","3","91","1015000","1008010001","MN13"
"28","27","1000 10 AVENUE",,"NEW YORK","Manhattan","NY","10019",,,,"1000","10 AVENUE","40.77029703162949","-73.987689017353","104","3","145","1082718","1010680001","MN14"
"29","28","210 EAST 64 STREET",,"NEW YORK","Manhattan","NY","10065",,,,"210","EAST 64 STREET","40.76446491972997","-73.963806713523","108","4","110","1043862","1014180006","MN31"
"30","29","17 EAST 102 STREET",,"NEW YORK","Manhattan","NY","10029",,,,"17","EAST 102 STREET","40.79140577061518","-73.95220307212769","111","8","168","1051492","1016080005","MN33"
"31","30","111 EAST 210 STREET",,"BRONX","Bronx","NY","10461",,,,"111","EAST 210 STREET","40.87988443518672","-73.88048062321849","207","11","421","2096399","2033270001","BX43"
"32","31","111 LIVINGSTON STREET",,"BROOKLYN","Brooklyn","NY","11201",,,,"111","LIVINGSTON STREET","40.69114399640502","-73.98980952026824","302","33","9","3002555","3002660001","BK09"
"33","32","25 ELM PLACE",,"BROOKLYN","Brooklyn","NY","11201",,,,"25","ELM PLACE","40.68945537451164","-73.98453076749979","302","33","37","3000452","3001580001","BK38"
"34","33","90-25 161 STREET",,"QUEENS","Queens","NY","11432",,,,"90-25","161 STREET","40.7051982661411","-73.7992526588385","412","24","44601","4442231","4097600001","QN61"
"35","34","1620 BRUCKNER BOULEVARD",,"BRONX","Bronx","NY","10473","Sack Wern, Clason Point Gardens, Monroe Houses",,,"1620","BRUCKNER BOULEVARD","40.82399795703586","-73.87389301486604","209","18","28","2118950","2036530050","BX09"
"36","35","92-31 UNION HALL STREET",,"JAMAICA","Queens","NY","11433",,,,"92-31","UNION HALL STREET","40.70379561685348","-73.79764470258978","412","27","44601","4215623","4101020004","QN61"
"37","36","109-20 UNION HALL STREET",,"JAMAICA","Queens","NY","11433",,,,"109-20","UNION HALL STREET","40.69412429050059","-73.79067452946326","412","28","260","4263341","4121510001","QN01"
"38","37","33-34 80 STREET",,"JACKSON HEIGHTS","Queens","NY","11372",,,,"33-34","80 STREET","40.75466047041931","-73.88711201906968","403","25","285","4442764","4012520001","QN28"
"39","38","4-21 27 AVENUE",,"QUEENS","Queens","NY","11102",,,,"4-21","27 AVENUE","40.77458193548735","-73.93295678363167","401","22","87","4020648","4009090001","QN71"
"40","39","4-21 27 AVENUE",,"ASTORIA","Queens","NY","11102",,,,"4-21","27 AVENUE","40.77458193548735","-73.93295678363167","401","22","87","4020648","4009090001","QN71"
"41","40","850 KENT AVENUE",,"BROOKLYN","Brooklyn","NY","11205",,,,"850","KENT AVENUE","40.69541644086937","-73.9595708446364","303","33","1237","3054671","3018970013","BK75"
"42","41","154 LAWRENCE STREET",,"BROOKLYN","Brooklyn","NY","11201",,,,"154","LAWRENCE STREET","40.69177218482506","-73.98630438544365","302","33","11","3000398","3001510037","BK38"
"43","42","25 ELM PLACE",,"BROOKLYN","Brooklyn","NY","11201",,,,"25","ELM PLACE","40.68945537451164","-73.98453076749979","302","33","37","3000452","3001580001","BK38"
"44","43","384 EAST 149 STREET","6TH FLOOR ROOM 622","BRONX","Bronx","NY","10455",,,,"384","EAST 149 STREET","40.81626228362005","-73.91844571626004","201","17","65","2000851","2023270054","BX34"
"45","44","33-24 NORTHERN BOULEVARD","3RD FLOOR","LONG ISLAND CITY","Queens","NY","11102",,,,"33-24","NORTHERN BOULEVARD","40.75200211309884","-73.93031947773477","401","26","171","4445806","4002140238","QN31"
"46","44","33-24 NORTHERN BOULEVARD","2ND FLOOR","LONG ISLAND CITY","Queens","NY","11101",,,,"33-24","NORTHERN BOULEVARD","40.75200211309884","-73.93031947773477","401","26","171","4445806","4002140238","QN31"
"47","45","512 SOUTHERN BOULEVARD",,"BRONX","Bronx","NY","10455",,,,"512","SOUTHERN BOULEVARD","40.81153107438185","-73.90500941094916","201","8","31","2004085","2026000142","BX39"
"48","46","1231 LAFAYETTE AVENUE",,"QUEENS","Bronx","NY","10474",,,,"1231","LAFAYETTE AVENUE","40.81648594306753","-73.89027670038193","202","17","93","2005939","2027390015","BX27"
"49","46","1231 LAFAYETTE AVENUE",,"BRONX","Bronx","NY","10474",,,,"1231","LAFAYETTE AVENUE","40.81648594306753","-73.89027670038193","202","17","93","2005939","2027390015","BX27"
"50","47","44 COURT STREET",,"BROOKLYN","Brooklyn","NY","11201",,,,"44","COURT STREET","40.6925905861397","-73.9909632355784","302","33","9","3002242","3002550001","BK09"
"51","48","286 FIFTH AVENUE",,"NEW YORK","Manhattan","NY","10001",,,,"286","FIFTH AVENUE","40.74612390597334","-73.98626073161779","105","4","76","1015786","1008320041","MN17"
"52","49","88-11 165 STREET","2ND FL","QUEENS","Queens","NY","11432",,,,"88-11","165 STREET","40.70840800889377","-73.79675422015112","412","27","460","4210062","4098150056","QN61"
"53","50","1931 MOTT AVENUE",,"QUEENS","Queens","NY","11691",,,,"1931","MOTT AVENUE","40.6039366073379","-73.75234442293764","414","31","101001","4298263","4155610029","QN15"
"54","51","1 EDGEWATER PLAZA",,"STATEN ISLAND","Staten Island","NY","10301",,,,"1","EDGEWATER PLAZA","40.6190349781324","-74.0687168389375","501","49","6","5107415","5028200095","SI37"
"55","52","369 EAST 148 STREET",,"BRONX","Bronx","NY","10455",,,,"369","EAST 148 STREET","40.81573318821559","-73.91934954593506","201","17","65","2097041","2023270072","BX34"
"56","52","369 EAST 148 STREET","7TH FL","BRONX","Bronx","NY","10455",,,,"369","EAST 148 STREET","40.81573318821559","-73.91934954593506","201","17","65","2097041","2023270072","BX34"
"493","441","NO ADDRESS",,"QUEENS","Queens","NY",,"QUEENS CDS: 1, 2, 3, 4, 5",,,,,,,,,,,,
"57","53","210 EAST 43 STREET",,"NEW YORK","Manhattan","NY","10017",,,,"210","EAST 43 STREET","40.75122415678911","-73.97346858535423","106","4","88","1037550","1013167501","MN19"
"58","54","633 THIRD AVENUE",,"NEW YORK","Manhattan","NY","10017",,,,"633","THIRD AVENUE","40.74990977843035","-73.97506074579181","106","4","88","1037174","1013147502","MN19"
"59","55","1015 EAST GUN HILL ROAD",,"BRONX","Bronx","NY","10469",,,,"1015","EAST GUN HILL ROAD","40.87455013665335","-73.85752186611637","212","12","368","2097393","2046930033","BX44"
"60","56","210 EAST 43 STREET",,"NEW YORK","Manhattan","NY","10017",,,,"210","EAST 43 STREET","40.75122415678911","-73.97346858535423","106","4","88","1037550","1013167501","MN19"
"61","57","210 WEST 43 STREET",,"NEW YORK","Manhattan","NY","10036",,,,"210","WEST 43 STREET","40.75696849793454","-73.98709229769833","105","3","119","1024686","1010140033","MN17"
"62","58","866 HUNTS POINT AVENUE",,"BRONX","Bronx","NY","10474",,,,"866","HUNTS POINT AVENUE","40.81809572515039","-73.88884696858112","202","17","11502","2006435","2027620044","BX27"
"63","59","104-106 EAST 126 STREET","SUITE 4D","NEW YORK","Manhattan","NY","10035",,,,"104-106","EAST 126 STREET","40.80551792317699","-73.93806574183573","111","9","196","1054493","1017740067","MN34"
"64","60","741 FLUSHING AVENUE",,"BROOKLYN","Brooklyn","NY","11206",,,,"741","FLUSHING AVENUE","40.70060252867814","-73.94300311322897","301","33","507","3335515","3022760037","BK75"
"65","61","1825 PARK AVENUE",,"NEW YORK","Manhattan","NY","10035",,,,"1825","PARK AVENUE","40.805257606263","-73.93887510699076","111","9","196","1054472","1017740001","MN34"
"66","62","74-09 37 AVENUE",,"QUEENS","Queens","NY","11372",,,,"74-09","37 AVENUE","40.74899134801141","-73.89156082740065","403","25","289","4029563","4012740035","QN28"
"67","63","1931 MOTT AVENUE",,"QUEENS","Queens","NY","11691",,,,"1931","MOTT AVENUE","40.6039366073379","-73.75234442293764","414","31","101001","4298263","4155610029","QN15"
"68","64","163-18 JAMAICA AVENUE",,"QUEENS","Queens","NY","11432",,,,"163-18","JAMAICA AVENUE","40.70479822705247","-73.79652357556445","412","27","44601","4216197","4101510007","QN61"
"69","65","55 WEST 125 STREET",,"NEW YORK","Manhattan","NY","10027",,,,"55","WEST 125 STREET","40.8072694790479","-73.94426998337795","110","9","200","1053499","1017230010","MN11"
"70","66","391 EAST 149 STREET",,"BRONX","Bronx","NY","10455",,,,"391","EAST 149 STREET","40.81623196124459","-73.91826150305181","201","17","65","2000859","2023280025","BX34"
"71","67","25 ELM PLACE",,"BROOKLYN","Brooklyn","NY","11201",,,,"25","ELM PLACE","40.68945537451164","-73.98453076749979","302","33","37","3000452","3001580001","BK38"
"72","68","330 POWELL STREET",,"BROOKLYN","Brooklyn","NY","11212","Van Dyke I, Brownsville Houses",,,"330","POWELL STREET","40.66618383451806","-73.9030968832413","316","41","910","3000000","3037770001","BK81"
"73","69","168-46 91 AVENUE",,"JAMAICA","Queens","NY","11432",,,,"168-46","91 AVENUE","40.70741993894175","-73.79216930254856","412","27","460","4209641","4097990001","QN61"
"74","70","1906 MERMAID AVENUE",,"BROOKLYN","Brooklyn","NY","11224",,,,"1906","MERMAID AVENUE","40.57648010691778","-73.98603284385894","313","47","326","3398528","3070600010","BK21"
"75","71","2090 ADAM CLAYTON POWELL JR BOULEVARD",,"NEW YORK","Manhattan","NY","10027",,,,"2090","ADAM CLAYTON POWELL JR BOULEVARD","40.80863835539116","-73.94858197022523","110","9","222","1058640","1019300030","MN11"
"76","72","60 BAY STREET","#540","STATEN ISLAND","Staten Island","NY","10301",,,,"60","BAY STREET","40.64055798656306","-74.07568965455333","501","49","3","5000025","5000050051","SI22"
"77","72","60 BAY STREET",,"STATEN ISLAND","Staten Island","NY","10301",,,,"60","BAY STREET","40.64055798656306","-74.07568965455333","501","49","3","5000025","5000050051","SI22"
"78","73","358 EAST 149 STREET","3RD FL","BRONX","Bronx","NY","10456",,,,"358","EAST 149 STREET","40.8164494358241","-73.91917165249318","201","17","65","2000847","2023270039","BX34"
"79","74","446 WEST 33 STREET",,"NEW YORK","Manhattan","NY","10001",,,,"446","WEST 33 STREET","40.75355200639702","-73.99878364861243","104","3","103","1085401","1007299001","MN13"
"80","74","446 WEST 33 STREET",,"NEW YORK","Manhattan","NY","10457",,,,"446","WEST 33 STREET","40.75355200639702","-73.99878364861243","104","3","103","1085401","1007299001","MN13"
"81","74","446 WEST 33 STREET","6TH FLOOR","NEW YORK","Manhattan","NY","10001",,,,"446","WEST 33 STREET","40.75355200639702","-73.99878364861243","104","3","103","1085401","1007299001","MN13"
"82","75","224 WEST 29 STREET",,"NEW YORK","Manhattan","NY","10001",,,,"224","WEST 29 STREET","40.74823252697265","-73.99382489304051","105","3","95","1014268","1007780052","MN17"
"83","76","110 WEST 97 STREET",,"NEW YORK","Manhattan","NY","10025",,,,"110","WEST 97 STREET","40.79381003707049","-73.9676551013137","107","7","181","1079308","1018517501","MN12"
"84","77","760 BROADWAY",,"BROOKLYN","Brooklyn","NY","11206",,,,"760","BROADWAY","40.70052771855956","-73.94160386242632","303","36","28501","3048341","3017230001","BK78"
"85","78","2094 PITKIN AVENUE",,"BROOKLYN","Brooklyn","NY","11207",,,,"2094","PITKIN AVENUE","40.67197667252665","-73.89524772424853","305","42","1144","3083929","3037380015","BK85"
"86","79","NO ADDRESS",,"BROOKLYN","Brooklyn","NY","11212","BROOKDALE PLAZA",,,,,,,,,,,,
"87","80","NO ADDRESS",,"BRONX","Bronx","NY","10457",,,,,,,,,,,,,
"88","81","NO ADDRESS",,"NEW YORK","Manhattan","NY","10011",,,,,,,,,,,,,
"89","82","PO BOX 1406",,"NEW YORK","Manhattan","NY","10268",,,,,,,,,,,,,
"90","82","PO BOX 1406 WALL STREET STATION",,"NEW YORK","Manhattan","NY","10268",,,,,,,,,,,,,
"91","83","89-64 163 STREET",,"QUEENS","Queens","NY","11432",,,,"89-64","163 STREET","40.70663988207454","-73.79803281885592","412","24","44601","4208888","4097610080","QN61"
"92","84","89-64 163 STREET",,"JAMAICA","Queens","NY","11432",,,,"89-64","163 STREET","40.70663988207455","-73.79803281885592","412","24","44601","4208888","4097610080","QN61"
"93","85","420 BEACH 51 STREET",,"FAR ROCKAWAY","Queens","NY","11691",,,,"420","BEACH 51 STREET","40.59577850061057","-73.78187632722901","414","31","97203","4302397","4159740003","QN12"
"94","86","8-21 BAY 25 STREET",,"QUEENS","Queens","NY","11691",,,,"8-21","BAY 25 STREET","40.60200983870681","-73.76279497085642","414","31","100802","4300730","4157360001","QN15"
"95","87","3251 THIRD AVENUE","3RD FLOOR","BRONX","Bronx","NY","10456",,,,"3251","THIRD AVENUE","40.82415152367614","-73.90868406776552","203","17","185","2001229","2023680043","BX35"
"96","88","89-64 163 Street",,"Queens","QUEENS","NY","11432",,,,"89-64","163 Street","40.70663988207454","-73.79803281885592","412","24","44601","4208888","4097610080","QN61"
"494","441","NO ADDRESS",,"BROOKLYN","Brooklyn","NY",,"BROOKLYN",,,,,,,,,,,,
"97","88","8964 163 Street",,"Jamaica","QUEENS","NY","11432",,,,"8964","163 Street","40.70663988207454","-73.79803281885592","412","24","44601","4208888","4097610080","QN61"
"98","88","89-64 163RD STREET","(5TH & 6TH FLOOR)","JAMAICA","QUEENS","NY","11432",,,,"89-64","163RD STREET","40.70663988207454","-73.79803281885592","412","24","44601","4208888","4097610080","QN61"
"99","89","89-64 163RD STREET","(5TH & 6TH FLOOR)","JAMAICA","QUEENS","NY","11432",,,,"89-64","163RD STREET","40.70663988207455","-73.79803281885592","412","24","44601","4208888","4097610080","QN61"
"100","90","116 NASSAU STREET",,"NEW YORK","Manhattan","NY","10038",,,,"116","NASSAU STREET","40.71084342021651","-74.00699765507446","101","1","1501","1079094","1000920024","MN25"
"101","91","270 EAST 2 STREET",,"NEW YORK","Manhattan","NY","10009",,,,"270","EAST 2 STREET","40.72082194849717","-73.98060204890449","103","2","2202","1004377","1003720064","MN28"
"102","92","PO BOX 663",,"NEW YORK","Manhattan","NY","10035",,,,,,,,,,,,,
"103","93","616 EAST 139 STREET",,"BRONX","Bronx","NY","10454",,,,"616","EAST 139 STREET","40.80684024529956","-73.91546271178518","201","8","2702","2127488","2025510030","BX39"
"104","94","637 EAST 138 STREET",,"BRONX","Bronx","NY","10454",,,,"637","EAST 138 STREET","40.80597290228012","-73.91544936459628","201","8","2702","2119743","2025510040","BX39"
"105","95","5 HANOVER SQUARE",,"NEW YORK","Manhattan","NY","10004",,,,"5","HANOVER SQUARE","40.70492282255369","-74.00904564960787","101","1","7","1000832","1000280005","MN25"
"106","96","PO BOX 641",,"NEW YORK","Manhattan","NY","10037",,,,,,,,,,,,,
"107","97","1780 GRAND CONCOURSE",,"BRONX","Bronx","NY","10457",,,,"1780","GRAND CONCOURSE","40.84649669457291","-73.90927506934007","205","15","22901","2094521","2027950014","BX41"
"108","98","3593 THIRD AVENUE",,"BRONX","Bronx","NY","10456",,,,"3593","THIRD AVENUE","40.83245420447842","-73.90517828887083","203","16","145","2128574","2023737501","BX01"
"109","99","1981 SEDGWICK AVENUE",,"BRONX","Bronx","NY","10453",,,,"1981","SEDGWICK AVENUE","40.85670399364621","-73.91619100658323","205","14","247","2015048","2032300016","BX36"
"110","100","32 BROADWAY",,"NEW YORK","Manhattan","NY","10004",,,,"32","BROADWAY","40.70604504161385","-74.01309621479948","101","1","9","1078979","1000220017","MN25"
"111","101","40 RECTOR STREET",,"NEW YORK","Manhattan","NY","10006",,,,"40","RECTOR STREET","40.70835592454218","-74.01481355517654","101","1","13","1088750","1000557501","MN25"
"112","101","40 RECTOR STREET","9TH FLOOR","NEW YORK","Manhattan","NY","10006",,,,"40","RECTOR STREET","40.70835592454218","-74.01481355517654","101","1","13","1088750","1000557501","MN25"
"113","102","75 BROAD STREET",,"NEW YORK","Manhattan","NY","10038",,,,"75","BROAD STREET","40.70448618033262","-74.01155584989756","101","1","9","1000849","1000290070","MN25"
"114","103","260 EAST 188 STREET",,"BRONX","Bronx","NY","10458",,,,"260","EAST 188 STREET","40.86091450646813","-73.89611783592919","205","15","39902","2013469","2031470050","BX05"
"115","104","123 WILLIAM STREET",,"NEW YORK","Manhattan","NY","10038",,,,"123","WILLIAM STREET","40.70911148143996","-74.00688926490999","101","1","1502","1079063","1000780004","MN25"
"116","105","1455 MYRTLE AVENUE",,"BROOKLYN","Brooklyn","NY","11237",,,,"1455","MYRTLE AVENUE","40.6988772749183","-73.91776705395952","304","37","431","3075463","3033000060","BK77"
"117","106","3144 3 AVENUE",,"BRONX","Bronx","NY","10451",,,,"3144","3 AVENUE","40.82235247147325","-73.91057617995511","201","17","71","2001156","2023600089","BX34"
"118","107","1080 WILLOUGHBY AVENUE",,"BROOKLYN","Brooklyn","NY","11221",,,,"1080","WILLOUGHBY AVENUE","40.70036542660823","-73.92660829065332","304","34","423","3072907","3032080013","BK78"
"119","108","885 FLATBUSH AVENUE",,"BROOKLYN","Brooklyn","NY","11226",,,,"885","FLATBUSH AVENUE","40.65022887206683","-73.95865764521642","314","40","794","3117223","3051030028","BK95"
"120","109","360 EAST 161 STREET",,"BRONX","Bronx","NY","10451",,,,"360","EAST 161 STREET","40.8244553286711","-73.91473214602385","203","17","141","2116642","2024077501","BX35"
"121","110","180 LIVINGSTON STREET",,"BROOKLYN","Brooklyn","NY","11201",,,,"180","LIVINGSTON STREET","40.6900512766477","-73.98683841418313","302","33","37","3000484","3001647501","BK38"
"122","111","191 JORALEMON STREET",,"BROOKLYN","Brooklyn","NY","11201",,,,"191","JORALEMON STREET","40.69267024606049","-73.99178540545059","302","33","9","3002244","3002550008","BK09"
"123","112","301 GROVE STREET",,"BROOKLYN","Brooklyn","NY","11237",,,,"301","GROVE STREET","40.69844754365545","-73.91562900679867","304","37","433","3075926","3033170041","BK77"
"124","113","151 WEST 30 STREET",,"NEW YORK","Manhattan","NY","10001",,,,"151","WEST 30 STREET","40.74788925146947","-73.99105317867493","105","3","101","1015157","1008060006","MN17"
"125","114","777 10 AVENUE",,"NEW YORK","Manhattan","NY","10019",,,,"777","10 AVENUE","40.76619667193808","-73.99070054580608","104","3","135","1088298","1010817503","MN15"
"126","115","159-161 EAST 102 STREET",,"NEW YORK","Manhattan","NY","10029",,,,"159-161","EAST 102 STREET","40.78942753189958","-73.94753147427762","111","8","166","1051885","1016300022","MN33"
"127","116","161 PORT RICHMOND AVENUE",,"STATEN ISLAND","Staten Island","NY","10302",,,,"161","PORT RICHMOND AVENUE","40.63727435457843","-74.13387182125055","501","49","207","5023987","5010230004","SI28"
"128","117","45 WADSWORTH AVENUE",,"NEW YORK","Manhattan","NY","10033",,,,"45","WADSWORTH AVENUE","40.84618614212553","-73.93762306696817","112","10","263","1089928","1021440003","MN36"
"129","118","1512 TOWNSEND AVENUE",,"BRONX","Bronx","NY","10452",,,,"1512","TOWNSEND AVENUE","40.84247725054196","-73.91491505432792","204","14","209","2092057","2028450007","BX63"
"130","119","120 STUYVESANT PLACE",,"STATEN ISLAND","Staten Island","NY","10301",,,,"120","STUYVESANT PLACE","40.64299177328803","-74.07695359555755","501","49","3","5000084","5000080060","SI22"
"131","120","47-01 QUEENS BOULEVARD",,"SUNNYSIDE","Queens","NY","11104",,,,"47-01","QUEENS BOULEVARD","40.74303760845104","-73.91761511080148","402","26","25301","4001307","4001400010","QN31"
"132","121","97-77 QUEENS BOULEVARD",,"REGO PARK","Queens","NY","11374",,,,"97-77","QUEENS BOULEVARD","40.72872114123621","-73.85850114413773","406","29","71701","4050482","4020920001","QN18"
"133","122","331 EAST 70 STREET",,"NEW YORK","Manhattan","NY","10021",,,,"331","EAST 70 STREET","40.76692496422546","-73.95794983271793","108","5","126","1044838","1014450014","MN31"
"134","123","260 BROADWAY",,"BROOKLYN","Brooklyn","NY","11211",,,,"260","BROADWAY","40.70871449937728","-73.95863579982841","301","33","525","3059650","3021400021","BK73"
"135","124","100 WILLIAM STREET",,"NEW YORK","Manhattan","NY","10007",,,,"100","WILLIAM STREET","40.70849661779886","-74.0074771279733","101","1","1502","1001116","1000680036","MN25"
"2256","2146","221-33 45TH DRIVE",,"BAYSIDE","QUEENS","NY","11361",,,,"221-33","45TH DRIVE",,,,,,,,
"136","125","92-10 ROOSEVELT AVENUE",,"JACKSON HEIGHTS","Queens","NY","11372",,,,"92-10","ROOSEVELT AVENUE","40.74862268003118","-73.87448683475661","404","21","469","4038783","4015500020","QN29"
"137","126","1041 CASTLE HILL AVENUE",,"BRONX","Bronx","NY","10472",,,,"1041","CASTLE HILL AVENUE","40.82861927232378","-73.85028134588018","209","18","78","2026358","2038070048","BX59"
"138","127","1616 NEWKIRK AVENUE",,"BROOKLYN","Brooklyn","NY","11226",,,,"1616","NEWKIRK AVENUE","40.63603956445677","-73.96224060762167","314","40","518","3121203","3052370006","BK42"
"139","128","260 EAST 188 STREET",,"BRONX","Bronx","NY","10458",,,,"260","EAST 188 STREET","40.86091450646813","-73.89611783592919","205","15","39902","2013469","2031470050","BX05"
"140","129","260 EAST 188 STREET",,"BRONX","Bronx","NY","10458",,,,"260","EAST 188 STREET","40.86091450646813","-73.89611783592919","205","15","39902","2013469","2031470050","BX05"
"141","130","260 EAST 188 STREET",,"BRONX","Bronx","NY","10458",,,,"260","EAST 188 STREET","40.86091450646813","-73.89611783592919","205","15","39902","2013469","2031470050","BX05"
"142","131","40 RECTOR STREET","9TH FLOOR","MANHATTAN","Manhattan","NY","10006",,,,"40","RECTOR STREET","40.70835592454218","-74.01481355517654","101","1","13","1088750","1000557501","MN25"
"143","131","40 RECTOR STREET","9TH FLOOR","NEW YORK","Manhattan","NY","10006",,,,"40","RECTOR STREET","40.70835592454218","-74.01481355517654","101","1","13","1088750","1000557501","MN25"
"144","132","618 WEST 142 STREET",,"MANHATTAN","Manhattan","NY","10031",,,,"618","WEST 142 STREET","40.82475700676648","-73.95243926741446","109","7","225","1062333","1020880106","MN04"
"145","133","151 LAWRENCE STREET","RM 202A","BROOKLYN","Brooklyn","NY","11201",,,,"151","LAWRENCE STREET","40.69150594135338","-73.98629722814603","302","33","11","3000404","3001520006","BK38"
"146","133","151 LAWRENCE STREET",,"BROOKLYN","Brooklyn","NY","11201",,,,"151","LAWRENCE STREET","40.69150594135338","-73.98629722814603","302","33","11","3000404","3001520006","BK38"
"147","133","151 LAWRENCE STREET","5TH FLOOR","BROOKLYN","Brooklyn","NY","11201",,,,"151","LAWRENCE STREET","40.69150594135338","-73.98629722814603","302","33","11","3000404","3001520006","BK38"
"148","134","20 NEW YORK AVENUE",,"BROOKLYN","Brooklyn","NY","11216",,,,"20","NEW YORK AVENUE","40.6796013723208","-73.9468174955526","303","36","247","3053759","3018610037","BK61"
"149","135","412 EAST 147 STREET",,"BRONX","Bronx","NY","10455",,,,"412","EAST 147 STREET","40.81447795249814","-73.91807579913613","201","8","43","2000506","2022910012","BX39"
"150","136","413 EAST 120TH STREET","2ND FLOOR","NEW YORK","MANHATTAN","NY","10035",,,,"413","EAST 120TH STREET","40.79837055866898","-73.93298700210931","111","8","192","1054888","1018080008","MN34"
"151","137","412 EAST 147TH STREET",,"BRONX","BRONX","NY","10455",,,,"412","EAST 147TH STREET","40.81447795249814","-73.91807579913613","201","8","43","2000506","2022910012","BX39"
"152","138","20 NEW YORK AVENUE",,"BROOKLYN","BROOKLYN","NY","11216",,,,"20","NEW YORK AVENUE","40.6796013723208","-73.9468174955526","303","36","247","3053759","3018610037","BK61"
"153","139","151 LAWRENCE STREET","5TH FLOOR","BROOKLYN","BROOKLYN","NY","11201",,,,"151","LAWRENCE STREET","40.69150594135338","-73.98629722814603","302","33","11","3000404","3001520006","BK38"
"154","140","50 BAY STREET",,"STATEN ISLAND","Staten Island","NY","10301",,,,"50","BAY STREET","40.64090103482147","-74.07576571212064","501","49","3","5000034","5000050099","SI22"
"155","141","4510 16 AVENUE",,"BROOKLYN","Brooklyn","NY","11204",,,,"4510","16 AVENUE","40.63315978192305","-73.98331524847845","312","44","232","3320669","3054337502","BK88"
"156","142","1668 PITKIN AVENUE",,"BROOKLYN","Brooklyn","NY","11212",,,,"1668","PITKIN AVENUE","40.66951750904275","-73.91180125072363","316","41","924","3000000","3035200040","BK81"
"157","143","50 BAY STREET",,"STATEN ISLAND","STATEN IS","NY","10301",,,,"50","BAY STREET","40.64090103482147","-74.07576571212064","501","49","3","5000034","5000050099","SI22"
"158","143","50 BAY STREET",,"STATEN ISLAND","STATEN IS","NY","10301-1827",,,,"50","BAY STREET","40.64090103482147","-74.07576571212064","501","49","3","5000034","5000050099","SI22"
"159","144","1668 PITKIN AVENUE",,"BROOKLYN","BROOKLYN","NY","11212",,,,"1668","PITKIN AVENUE","40.66951750904275","-73.91180125072363","316","41","924","3000000","3035200040","BK81"
"160","145","98 CHESTER AVENUE",,"BROOKLYN","BROOKLYN","NY","11212",,,,"98","CHESTER AVENUE","40.64307672143659","-73.98349293749799","312","39","496","3123811","3053100013","BK41"
"161","146","PO BOX 1161",,"NEW YORK","Manhattan","NY","10035",,,,,,,,,,,,,
"162","147","1375 JEROME AVENUE",,"BRONX","Bronx","NY","10452",,,,"1375","JEROME AVENUE","40.8397707113057","-73.91835907305769","204","16","219","2008289","2028560020","BX26"
"163","148","1910 MONTEREY AVENUE",,"BRONX","Bronx","NY","10457",,,,"1910","MONTEREY AVENUE","40.84693206117053","-73.89509871898471","206","15","37504","2011826","2030600032","BX17"
"164","149","845 BARRETTO STREET",,"BRONX","Bronx","NY","10474",,,,"845","BARRETTO STREET","40.81782559515594","-73.89051655189272","202","17","93","2005939","2027390015","BX27"
"165","150","2857-2865 WEST 8 STREET",,"BROOKLYN","Brooklyn","NY","11224",,,,"2857-2865","WEST 8 STREET","40.57850692361382","-73.97631271209798","313","48","354","3345783","3072790162","BK23"
"166","151","404 PINE STREET",,"BROOKLYN","Brooklyn","NY","11208",,,,"404","PINE STREET","40.67587991885114","-73.87109068754243","305","42","1196","3094690","3042140001","BK82"
"167","152","275 BERGEN STREET",,"BROOKLYN","Brooklyn","NY","11217",,,,"275","BERGEN STREET","40.68374875225442","-73.98281583848336","302","33","39","3335918","3001970028","BK38"
"168","153","500 DEKALB AVENUE",,"BROOKLYN","Brooklyn","NY","11205",,,,"500","DEKALB AVENUE","40.69075749891354","-73.9566348182552","303","36","233","3055395","3019410020","BK75"
"169","154","30 THORNTON STREET",,"BROOKLYN","Brooklyn","NY","11206",,,,"30","THORNTON STREET","40.7011023408413","-73.94354005626053","301","33","507","3061504","3022760012","BK75"
"170","155","2322 THIRD AVENUE",,"NEW YORK","Manhattan","NY","10035",,,,"2322","THIRD AVENUE","40.804467900639","-73.9352673311556","111","9","242","1054497","1017750033","MN34"
"171","156","132 WEST 125 STREET",,"NEW YORK","Manhattan","NY","10027",,,,"132","WEST 125 STREET","40.80845104915412","-73.94711189701422","110","9","222","1057820","1019090012","MN11"
"172","157","4055 10 AVENUE",,"NEW YORK","Manhattan","NY","10034",,,,"4055","10 AVENUE","40.87038786678559","-73.91456116001805","112","10","299","1064513","1022130001","MN01"
"173","158","12 WEST 14 STREET",,"NEW YORK","Manhattan","NY","10011",,,,"12","WEST 14 STREET","40.73630112224507","-73.99434200240498","102","3","63","1009716","1005770034","MN23"
"174","159","165-08 88 AVENUE",,"JAMAICA","Queens","NY","11432",,,,"165-08","88 AVENUE","40.70866043726674","-73.7967029534621","412","27","460","4210062","4098150056","QN61"
"175","159","165-08 88 AVENUE",,"QUEENS","Queens","NY","11432",,,,"165-08","88 AVENUE","40.70866043726674","-73.7967029534621","412","27","460","4210062","4098150056","QN61"
"176","160","32-20 NORTHERN BOULEVARD",,"LONG ISLAND CITY","Queens","NY","11101",,,,"32-20","NORTHERN BOULEVARD","40.75197006181406","-73.93179931060918","401","26","171","4003105","4002147501","QN31"
"177","160","32-20 NORTHERN BOULEVARD",,"QUEENS","Queens","NY","11101",,,,"32-20","NORTHERN BOULEVARD","40.75197006181406","-73.93179931060918","401","26","171","4003105","4002147501","QN31"
"178","161","219 BEACH 59 STREET",,"ROCKAWAY","Queens","NY","11692",,,,"219","BEACH 59 STREET","40.59290161351103","-73.78905107497408","414","31","964","4301932","4159000008","QN12"
"179","161","219 BEACH 59 STREET",,"QUEENS","Queens","NY","11692",,,,"219","BEACH 59 STREET","40.59290161351103","-73.78905107497408","414","31","964","4301932","4159000008","QN12"
"180","162","201 BAY STREET",,"STATEN ISLAND","Staten Island","NY","10301",,,,"201","BAY STREET","40.63699216301067","-74.07621165505614","501","49","21","5013238","5004970009","SI37"
"181","163","1365 JEROME AVENUE",,"BRONX","Bronx","NY","10452",,,,"1365","JEROME AVENUE","40.83960332760019","-73.91842071683445","204","16","219","2008289","2028560020","BX26"
"182","164","847 BARRETTO STREET",,"BRONX","Bronx","NY","10474",,,,"847","BARRETTO STREET","40.81786133134891","-73.89057429857277","202","17","93","2005939","2027390015","BX27"
"183","165","2541-2549 BAINBRIDGE AVENUE",,"BRONX","Bronx","NY","10458",,,,"2541-2549","BAINBRIDGE AVENUE","40.86232001926245","-73.89335719934802","207","15","39901","2016777","2032930008","BX05"
"184","166","300 CANAL PLACE",,"BRONX","Bronx","NY","10451",,,,"300","CANAL PLACE","40.81315312297499","-73.9275785284788","201","8","51","2000978","2023400072","BX39"
"185","167","495 CLERMONT AVENUE",,"BROOKLYN","Brooklyn","NY","11238",,,,"495","CLERMONT AVENUE","40.68285101214268","-73.9688086063479","302","35","199","3335094","3020090001","BK69"
"186","168","3050 WEST 21 STREET",,"BROOKLYN","Brooklyn","NY","11224",,,,"3050","WEST 21 STREET","40.57352960611365","-73.98744811286747","313","47","352","3189654","3070710123","BK21"
"187","169","88 3 AVENUE","1ST FLOOR","BROOKLYN","Brooklyn","NY","11217",,,,"88","3 AVENUE","40.68377054895738","-73.98176661072922","302","33","39","3335918","3001970028","BK38"
"188","169","88 THIRD AVENUE",,"BROOKLYN","Brooklyn","NY","11217",,,,"88","THIRD AVENUE","40.68377054895738","-73.98176661072922","302","33","39","3335918","3001970028","BK38"
"189","170","35 FOURTH AVENUE",,"BROOKLYN","Brooklyn","NY","11217",,,,"35","FOURTH AVENUE","40.68341874276478","-73.9789796126375","306","39","12901","3018375","3009280001","BK37"
"190","171","25 CHAPEL STREET",,"BROOKLYN","Brooklyn","NY","11201",,,,"25","CHAPEL STREET","40.69725345224851","-73.98601475518967","302","33","13","3335884","3001180006","BK38"
"191","172","109 EAST 16 STREET","12TH FL","NEW YORK","Manhattan","NY","10003",,,,"109","EAST 16 STREET","40.73568039390173","-73.98871297726997","105","2","50","1017821","1008720013","MN21"
"192","173","34-00 NORTHERN BOULEVARD",,"QUEENS","Queens","NY","11432",,,,"34-00","NORTHERN BOULEVARD","40.75202073933534","-73.92935578329792","401","26","171","4003107","4002140243","QN31"
"193","174","1790 GRAND CONCOURSE",,"BRONX","Bronx","NY","10457",,,,"1790","GRAND CONCOURSE","40.84671602316936","-73.90896031668022","205","15","22901","2094521","2027950014","BX41"
"194","175","888 GARRISON AVENUE",,"BRONX","Bronx","NY","10474",,,,"888","GARRISON AVENUE","40.81725596908765","-73.89186867961526","202","17","93","2005939","2027390015","BX27"
"195","176","94 FLATBUSH AVENUE",,"BROOKLYN","Brooklyn","NY","11217",,,,"94","FLATBUSH AVENUE","40.68561723570268","-73.97860392948085","302","33","39","3000602","3001740018","BK38"
"196","177","400 8 AVENUE",,"NEW YORK","Manhattan","NY","10001",,,,"400","8 AVENUE","40.74957478067056","-73.9953550422079","105","3","95","1014306","1007790075","MN17"
"197","178","530 WEST 135 STREET",,"NEW YORK","Manhattan","NY","10031",,,,"530","WEST 135 STREET","40.81934199548082","-73.95321268945766","109","7","22301","1059778","1019880053","MN06"
"198","179","33-28 NORTHERN BOULEVARD",,"QUEENS","Queens","NY","11101",,,,"33-28","NORTHERN BOULEVARD","40.75200740782483","-73.92999824727713","401","26","171","4461879","4002140240","QN31"
"199","180","207 BAY STREET",,"STATEN ISLAND","Staten Island","NY","10301",,,,"207","BAY STREET","40.63690156835921","-74.07623677289368","501","49","21","5013238","5004970009","SI37"
"200","181","1958 FULTON STREET",,"BROOKLYN","Brooklyn","NY","11223",,,,"1958","FULTON STREET","40.67879287837813","-73.92038403516622","303","41","301","3042090","3015480019","BK79"
"201","182","1117 EASTERN PARKWAY",,"BROOKLYN","Brooklyn","NY","11213",,,,"1117","EASTERN PARKWAY","40.66883660008808","-73.93167523951374","308","35","351","3259314","3013900044","BK61"
"202","183","2244 CHURCH AVENUE",,"BROOKLYN","Brooklyn","NY","11226",,,,"2244","CHURCH AVENUE","40.65042344936604","-73.95782505318891","314","40","794","3117228","3051030042","BK95"
"203","184","120 STUYVESANT PLACE",,"STATEN ISLAND","Staten Island","NY","10301",,,,"120","STUYVESANT PLACE","40.64299177328803","-74.07695359555755","501","49","3","5000084","5000080060","SI22"
"204","185","209 BAY STREET",,"STATEN ISLAND","Staten Island","NY","10301",,,,"209","BAY STREET","40.63687136854787","-74.07624754751696","501","49","21","5114330","5004970007","SI37"
"205","186","1720 CHURCH AVENUE",,"BROOKLYN","Brooklyn","NY","11226",,,,"1720","CHURCH AVENUE","40.64933839482823","-73.96330698789974","314","40","512","3341487","3050970085","BK42"
"206","187","2211 CHURCH AVENUE",,"BROOKLYN","Brooklyn","NY","11226",,,,"2211","CHURCH AVENUE","40.65042357702177","-73.95817461904521","314","40","79602","3116881","3050890071","BK60"
"207","187","2211 CHURCH AVENUE",,"BROOKLYN","Brooklyn","NY","11226",,,,"2211","CHURCH AVENUE","40.65042357702177","-73.95817461904521","314","40","79602","3116881","3050890071","BK60"
"208","188","885 FLATBUSH AVENUE",,"BROOKLYN","Brooklyn","NY","11226",,,,"885","FLATBUSH AVENUE","40.65022887206683","-73.95865764521642","314","40","794","3117223","3051030028","BK95"
"209","189","1077 REMSEN AVENUE",,"BROOKLYN","Brooklyn","NY","11236",,,,"1077","REMSEN AVENUE","40.64279197214023","-73.90880614974807","318","46","964","3229159","3081600022","BK50"
"210","190","1137 HERKIMER STREET",,"BROOKLYN","Brooklyn","NY","11233",,,,"1137","HERKIMER STREET","40.67780427206701","-73.91584259623642","316","41","301","3042157","3015500001","BK79"
"211","191","1137 HERKIMER STREET",,"BROOKLYN","Brooklyn","NY","11233",,,,"1137","HERKIMER STREET","40.67780427206701","-73.91584259623642","316","41","301","3042157","3015500001","BK79"
"212","192","1150 EAST NEW YORK AVENUE",,"BROOKLYN","Brooklyn","NY","11212",,,,"1150","EAST NEW YORK AVENUE","40.66651797547949","-73.92405739945748","316","41","900","3080779","3035080012","BK81"
"2257","2146",,,"BRONX","BRONX","NY","10458",,,,,,,,,,,,,
"213","193","164 TROY AVENUE",,"BROOKLYN","Brooklyn","NY","11213",,,,"164","TROY AVENUE","40.67383746184422","-73.93624490999665","308","36","343","3324617","3013520080","BK61"
"214","194","18 MARLBOROUGH ROAD",,"BROOKLYN","Brooklyn","NY","11226",,,,"18","MARLBOROUGH ROAD","40.64970978170476","-73.96604562138982","314","40","506","3116438","3050750001","BK42"
"215","195","1957 NOSTRAND AVENUE",,"BROOKLYN","Brooklyn","NY","11210",,,,"1957","NOSTRAND AVENUE","40.63771114306233","-73.94815880138563","317","45","788","3113780","3049940023","BK42"
"216","196","1957 NOSTRAND AVENUE",,"BROOKLYN","Brooklyn","NY","11210",,,,"1957","NOSTRAND AVENUE","40.63771114306233","-73.94815880138563","317","45","788","3113780","3049940023","BK42"
"217","197","214 STUYVESANT AVENUE",,"BROOKLYN","Brooklyn","NY","11221",,,,"214","STUYVESANT AVENUE","40.68798496443789","-73.93306548786478","303","36","293","3044631","3016350041","BK35"
"218","198","2500 NOSTRAND AVENUE",,"BROOKLYN","Brooklyn","NY","11210",,,,"2500","NOSTRAND AVENUE","40.62356089139684","-73.94627857276379","314","45","748","3208638","3076290030","BK43"
"219","199","2702 LINDEN BOULEVARD",,"BROOKLYN","Brooklyn","NY","11208",,,,"2702","LINDEN BOULEVARD","40.66920803898867","-73.8645140240984","305","42","1214","3326995","3044880001","BK82"
"220","200","280 RALPH AVENUE",,"BROOKLYN","Brooklyn","NY","11233",,,,"280","RALPH AVENUE","40.6797931867901","-73.92215307304389","303","41","381","3325173","3016880001","BK61"
"221","201","330 RUGBY ROAD",,"BROOKLYN","Brooklyn","NY","11226",,,,"330","RUGBY ROAD","40.64193639697446","-73.96552349311533","314","40","1522","3328235","3051440064","BK42"
"222","202","3679 NOSTRAND AVENUE",,"BROOKLYN","Brooklyn","NY","11229",,,,"3679","NOSTRAND AVENUE","40.59413117718296","-73.940663498932","315","46","572","3344548","3074051001","BK17"
"223","203","4211 14 AVENUE",,"BROOKLYN","Brooklyn","NY","11219",,,,"4211","14 AVENUE","40.63748591963045","-73.9859552196805","312","44","232","3135976","3056000001","BK88"
"224","204","4211 14 AVENUE",,"BROOKLYN","Brooklyn","NY","11219",,,,"4211","14 AVENUE","40.63748591963045","-73.9859552196805","312","44","232","3135976","3056000001","BK88"
"225","205","475 FOUNTAIN AVENUE",,"BROOKLYN","Brooklyn","NY","11208",,,,"475","FOUNTAIN AVENUE","40.66828724510903","-73.87300506037002","305","42","1210","3337041","3042920061","BK82"
"226","206","50 JEFFERSON AVENUE",,"BROOKLYN","Brooklyn","NY","11216",,,,"50","JEFFERSON AVENUE","40.68266267260064","-73.9553384914436","303","36","227","3057406","3019980001","BK69"
"227","207","600 KINGSTON AVENUE",,"BROOKLYN","Brooklyn","NY","11203",,,,"600","KINGSTON AVENUE","40.65889267472618","-73.9424584694874","309","40","810","3107227","3048110001","BK60"
"228","208","600 KINGSTON AVENUE",,"BROOKLYN","Brooklyn","NY","11203",,,,"600","KINGSTON AVENUE","40.65889267472618","-73.9424584694874","309","40","810","3107227","3048110001","BK60"
"229","209","601 PARKSIDE AVENUE",,"BROOKLYN","Brooklyn","NY","11226",,,,"601","PARKSIDE AVENUE","40.65604593835338","-73.95374168430227","309","40","802","3115866","3050490055","BK60"
"230","210","7109 6 AVENUE",,"BROOKLYN","Brooklyn","NY","11209",,,,"7109","6 AVENUE","40.6308427996082","-74.01913041565113","310","43","134","3146921","3058990001","BK31"
"231","211","72 VERONICA PLACE",,"BROOKLYN","Brooklyn","NY","11226",,,,"72","VERONICA PLACE","40.64860720352341","-73.95282069741032","317","40","794","3117381","3051100025","BK95"
"232","212","726 STANLEY AVENUE",,"BROOKLYN","Brooklyn","NY","11207",,,,"726","STANLEY AVENUE","40.66022428055892","-73.88186177072448","305","42","1110","3324277","3043770001","BK82"
"233","213","800 VAN SICLEN AVENUE",,"BROOKLYN","Brooklyn","NY","11207",,,,"800","VAN SICLEN AVENUE","40.66010982143633","-73.88538697745423","305","42","1104","3097675","3043490050","BK82"
"234","214","800 VAN SICLEN AVENUE",,"BROOKLYN","Brooklyn","NY","11207",,,,"800","VAN SICLEN AVENUE","40.66010982143633","-73.88538697745423","305","42","1104","3097675","3043490050","BK82"
"235","215","832 MARCY AVENUE",,"BROOKLYN","Brooklyn","NY","11216",,,,"832","MARCY AVENUE","40.68500323961874","-73.94715211763611","303","36","249","3051641","3018230038","BK75"
"236","216","895 PENNSYLVANIA AVENUE",,"BROOKLYN","Brooklyn","NY","11207",,,,"895","PENNSYLVANIA AVENUE","40.65596566203373","-73.88865218058505","305","42","1104","3324011","3043690001","BK82"
"237","217","90 WATKINS STREET",,"BROOKLYN","Brooklyn","NY","11212",,,,"90","WATKINS STREET","40.67084314851018","-73.90818020087585","316","41","906","3348343","3034890001","BK81"
"238","218","2211 CHURCH AVENUE",,"BROOKLYN","Brooklyn","NY","11226",,,,"2211","CHURCH AVENUE","40.65042357702177","-73.95817461904521","314","40","79602","3116881","3050890071","BK60"
"239","219","2241 CHURCH AVENUE",,"BROOKLYN","Brooklyn","NY","11226",,,,"2241","CHURCH AVENUE","40.6504371891283","-73.95786828978287","314","40","79602","3116879","3050890064","BK60"
"240","220","72 VERONICA PLACE",,"BROOKLYN","Brooklyn","NY","11226",,,,"72","VERONICA PLACE","40.64860720352341","-73.95282069741032","317","40","794","3117381","3051100025","BK95"
"241","221","885 FLATBUSH AVENUE",,"BROOKLYN","Brooklyn","NY","11226",,,,"885","FLATBUSH AVENUE","40.65022887206683","-73.95865764521642","314","40","794","3117223","3051030028","BK95"
"242","222","880 WILLOUGHBY AVENUE",,"BROOKLYN","Brooklyn","NY",,,,,"880","WILLOUGHBY AVENUE","40.69597764999603","-73.93292042673593","304","34","393","3072828","3032040008","BK78"
"243","223","1247 FLATBUSH AVENUE",,"BROOKLYN","Brooklyn","NY",,,,,"1247","FLATBUSH AVENUE","40.63995380196189","-73.95508242338659","314","45","790","3394972","3052100017","BK95"
"244","224","730 ROCKAWAY AVENUE",,"BROOKLYN","Brooklyn","NY",,,,,"730","ROCKAWAY AVENUE","40.66195053823604","-73.90877635370354","316","42","916","3397844","3035890038","BK81"
"245","225","690-738 ALBANY AVENUE",,"BROOKLYN","Brooklyn","NY",,,,,"690-738","ALBANY AVENUE","40.65724162708993","-73.93965947583904","309","40","808","3327709","3048290004","BK60"
"246","226","690-738 ALBANY AVENUE",,"BROOKLYN","Brooklyn","NY",,,,,"690-738","ALBANY AVENUE","40.65724162708995","-73.93965947583904","309","40","808","3327709","3048290004","BK60"
"247","227","12 PATCHEN AVENUE",,"BROOKLYN","Brooklyn","NY",,,,,"12","PATCHEN AVENUE","40.69237900325562","-73.92795852883287","303","36","387","3393735","3016120039","BK35"
"248","228","854 MYRTLE AVENUE",,"BROOKLYN","Brooklyn","NY",,,,,"854","MYRTLE AVENUE","40.69551333235384","-73.94795879024761","303","36","25901","3391267","3017550020","BK75"
"249","229","2027 MADISON AVENUE",,"NEW YORK","Manhattan","NY","10035",,,,"2027","MADISON AVENUE","40.80796123149193","-73.93900989158993","111","9","206","1054197","1017530052","MN03"
"250","230","1490 DUMONT AVENUE",,"BROOKLYN","Brooklyn","NY",,,,,"1490","DUMONT AVENUE","40.67095134113512","-73.86250977126981","305","42","1208","3395103","3044690001","BK82"
"251","231","560 WINTHROP STREET",,"BROOKLYN","Brooklyn","NY",,,,,"560","WINTHROP STREET","40.65764607031691","-73.9415188581885","309","40","808","3000000","3048290005","BK60"
"252","232","97 CROOKE AVENUE",,"BROOKLYN","Brooklyn","NY",,,,,"97","CROOKE AVENUE","40.65282949871673","-73.96250139757423","314","40","50804","3116108","3050590051","BK42"
"253","233","NO ADDRESS",,"BROOKLYN","Brooklyn","NY",,"NEW YORK CITY",,,,,,,,,,,,
"254","233","NO ADDRESS",,"NEW YORK","Manhattan","NY",,"NEW YORK CITY",,,,,,,,,,,,
"255","233","NO ADDRESS",,"BROOKLYN","Brooklyn","NY",,"BROOKLYN",,,,,,,,,,,,
"256","233","NO ADDRESS",,"BROOKLYN","Brooklyn","NY","11226","BEDFORD AVENUE",,,,,,,,,,,,
"257","233","NO ADDRESS",,"BROOKLYN","Brooklyn","NY","11226",,"GREENE AVENUE","BROADWAY",,,,,,,,,,
"258","233","NO ADDRESS",,"BROOKLYN","Brooklyn","NY","11233","BEDFORD AVENUE",,,,,,,,,,,,
"259","233","NO ADDRESS",,"BROOKLYN","Brooklyn","NY","11233",,,,,,,,,,,,,
"260","233","NO ADDRESS",,"BROOKLYN","Brooklyn","NY","11221","RONALD MCNAIR PARK WASHINGTON AVENUE",,,,,,,,,,,,
"261","233","NO ADDRESS",,"BROOKLYN","Brooklyn","NY","11226","FLATBUSH AVENUE BETWEEN NOSTRAND AVE. AND BEDFORD AVENUE",,,,,,,,,,,,
"262","233","10 GRAND PLAZA",,"BROOKLYN","Brooklyn","NY","11238",,,,"10","GRAND PLAZA",,,,,,,,
"263","233","NO ADDRESS",,"BROOKLYN","Brooklyn","NY","11207","MARTIN LUTHER KING PLAYGROUND BLAKE AVENUE",,,,,,,,,,,,
"264","233","NO ADDRESS",,"BROOKLYN","Brooklyn","NY","11207","MARTIN LUTHER KING PARK",,,,,,,,,,,,
"265","233","NO ADDRESS",,"BROOKLYN","Brooklyn","NY","11232",,,,,,,,,,,,,
"266","233","NO ADDRESS",,"BROOKLYN","Brooklyn","NY","11225",,"NEWIRK AVENUE","NOSTRAND AVENUE",,,,,,,,,,
"267","233","NO ADDRESS",,"BROOKLYN","Brooklyn","NY","11216","NOSTRAND AVE",,,,,,,,,,,,
"268","233","NO ADDRESS",,"BROOKLYN","Brooklyn","NY","11225",,"FLATBUSH AVENUE","LINCOLN ROAD",,,,,,,,,,
"269","233","885 33 STREET",,"BROOKLYN","Brooklyn","NY","11232",,,,"885","33 STREET",,,,,,,,
"270","233","NO ADDRESS",,"BROOKLYN","Brooklyn","NY","11226","CHURCH AVE STATION",,,,,,,,,,,,
"271","233","NO ADDRESS",,"BROOKLYN","Brooklyn","NY","11233","NEWKIRK AVE",,,,,,,,,,,,
"272","233","NO ADDRESS",,"BROOKLYN","Brooklyn","NY","11226","LIVONIA AVE",,,,,,,,,,,,
"273","233","NO ADDRESS",,"BROOKLYN","Brooklyn","NY","11226","ROCKAWAY AVE",,,,,,,,,,,,
"274","233","NO ADDRESS",,"BROOKLYN","Brooklyn","NY","11226","SARATOGA AVE",,,,,,,,,,,,
"275","233","NO ADDRESS",,"BROOKLYN","Brooklyn","NY","11210",,"SUTTER AVE","RUTLAND ROAD",,,,,,,,,,
"276","233","NO ADDRESS",,"BROOKLYN","Brooklyn","NY","11234","KINGS PLAZA MALL",,,,,,,,,,,,
"277","233","NO ADDRESS",,"BROOKLYN","Brooklyn","NY","11216","PROSPECT PARK",,,,,,,,,,,,
"278","234","19 WINTHROP STREET",,"BROOKLYN","Brooklyn","NY",,,,,"19","WINTHROP STREET","40.65653665214005","-73.95941780595541","309","40","79601","3115690","3050450100","BK60"
"279","234","19 WINTHROP STREET",,"BROOKLYN","Brooklyn","NY","11225",,,,"19","WINTHROP STREET","40.65653665214005","-73.95941780595541","309","40","79601","3115690","3050450100","BK60"
"280","234","19 WINTHROP STREET",,"BROOKLYN","Brooklyn","NY","11226",,,,"19","WINTHROP STREET","40.65653665214005","-73.95941780595541","309","40","79601","3115690","3050450100","BK60"
"281","235","NO ADDRESS",,"BROOKLYN","Brooklyn","NY","11225",,"FLATBUSH AVENUE","NOSTRAND AVENUE",,,"40.6328855972474","-73.9476977854403","314","45","774",,,
"282","236","650 FULTON STREET",,"BROOKLYN","Brooklyn","NY","11217",,,,"650","FULTON STREET","40.68681886909987","-73.97570092382816","302","35","35","3059247","3021130022","BK68"
"283","237","650 FULTON STREET",,"BROOKLYN","Brooklyn","NY","11217",,,,"650","FULTON STREET","40.68681886909987","-73.97570092382816","302","35","35","3059247","3021130022","BK68"
"284","238","25 FLATBUSH AVENUE",,"BROOKLYN","Brooklyn","NY","11217",,,,"25","FLATBUSH AVENUE","40.68795882290475","-73.98026905811204","302","35","33","3059164","3021060024","BK68"
"285","239","NO ADDRESS",,"BROOKLYN","Brooklyn","NY","11226",,"FLATBUSH AVENUE","CHURCH AVENUE",,,"40.6503880875762","-73.9587079993454","314","40","50801",,,
"286","239","NO ADDRESS",,"BROOKLYN","Brooklyn","NY","11226",,"CHURCH AVENUE","FLATBUSH AVE",,,"40.6503880875762","-73.9587079993454","314","40","50801",,,
"287","240","NO ADDRESS",,"BROOKLYN","Brooklyn","NY","11226",,"FLATBUSH AVE","NEWKIRK AVENUE",,,"40.6396243048077","-73.9547691677079","314","40","51601",,,
"288","241","NO ADDRESS",,"BROOKLYN","Brooklyn","NY","11226",,"AVENUE H","FLATBUSH AVENUE",,,"40.6317075229257","-73.9464809751139","314","45","774",,,
"289","242","753 A FLATBUSH AVENUE",,"BROOKLYN","Brooklyn","NY","11226",,,,"753 A","FLATBUSH AVENUE","40.6543985312663","-73.95959930594474","314","40","79602","3116191","3050640015","BK60"
"290","243","NO ADDRESS",,"BROOKLYN","Brooklyn","NY","11226",,"FLUSHING AVENUE","BROADWAY",,,"40.7007255077179","-73.9419318799525","301","34","491",,,
"291","244","NO ADDRESS",,"BROOKLYN","Brooklyn","NY","11226",,"MYRTLE AVE","BROADWAY",,,"40.6969862994393","-73.9352238312201","304","34","389",,,
"292","245","352-358 CLASSON AVENUE",,"BROOKLYN","Brooklyn","NY","11226",,,,"352-358","CLASSON AVENUE","40.68847779134089","-73.95993563461478","302","35","231","3335008","3019480035","BK69"
"293","246","NO ADDRESS",,"BROOKLYN","Brooklyn","NY","11201",,"ALBEE SQUARE W","FULTON STREET",,,"40.6899218436904","-73.9835101876069","302","33","33",,,
"294","247","180 REMSEN STREET",,"BROOKLYN","Brooklyn","NY","11201",,,,"180","REMSEN STREET","40.69327682563049","-73.99158699585692","302","33","9","3335934","3002550036","BK09"
"295","248","670 LAFAYETTE AVENUE",,"BROOKLYN","Brooklyn","NY","11216",,,,"670","LAFAYETTE AVENUE","40.69036106064564","-73.94721277784446","303","36","261","3049973","3017900001","BK75"
"296","249","301 GROVE STREET",,"BROOKLYN","Brooklyn","NY","11237",,,,"301","GROVE STREET","40.69844754365545","-73.91562900679867","304","37","433","3075926","3033170041","BK77"
"297","250","NO ADDRESS",,"BROOKLYN","Brooklyn","NY","11207",,"GREENE AVENUE","MYRTLE AVE",,,"40.698757273153","-73.9188491178829","304","37","431",,,
"298","251","992 4 AVENUE",,"BROOKLYN","Brooklyn","NY","11232",,,,"992","4 AVENUE","40.65302211184813","-74.00577346782615","307","38","84","3010427","3007040040","BK32"
"299","252","941 4 AVENUE",,"BROOKLYN","Brooklyn","NY","11232",,,,"941","4 AVENUE","40.65422163844158","-74.0044977636687","307","38","84","3010335","3006970010","BK32"
"300","253","870 4 AVENUE",,"BROOKLYN","Brooklyn","NY","11232",,,,"870","4 AVENUE","40.65683474382089","-74.00180926747018","307","38","101","3010002","3006760042","BK32"
"301","254","1439 ST JOHNS PLACE",,"BROOKLYN","Brooklyn","NY","11213",,,,"1439","ST JOHNS PLACE","40.67056787795439","-73.9305451442892","308","36","349","3036880","3013790078","BK61"
"302","255","223 UTICA AVENUE",,"BROOKLYN","Brooklyn","NY","11213",,,,"223","UTICA AVENUE","40.67108959584839","-73.93089427531662","308","36","349","3036854","3013790007","BK61"
"303","256","218 UTICA AVENUE",,"BROOKLYN","Brooklyn","NY","11213",,,,"218","UTICA AVENUE","40.67127898750756","-73.93089768398433","308","36","351","3036819","3013780045","BK61"
"304","257","228 UTICA AVENUE",,"BROOKLYN","Brooklyn","NY","11213",,,,"228","UTICA AVENUE","40.67096610044242","-73.93092684722089","308","36","351","3036822","3013780051","BK61"
"305","258","269 UTICA AVENUE",,"BROOKLYN","Brooklyn","NY","11213",,,,"269","UTICA AVENUE","40.66934401589727","-73.9310582996927","308","41","349","3037346","3013910001","BK61"
"306","259","213 UTICA AVENUE",,"BROOKLYN","Brooklyn","NY","11213",,,,"213","UTICA AVENUE","40.67160833020537","-73.93084687391014","308","36","347","3036535","3013730001","BK61"
"307","260","740 FRANKLIN AVENUE",,"BROOKLYN","Brooklyn","NY","11225",,,,"740","FRANKLIN AVENUE","40.67311152733053","-73.95709691654335","308","35","217","3029487","3011750052","BK61"
"308","261","788 NOSTRAND AVENUE",,"BROOKLYN","Brooklyn","NY","11216",,,,"788","NOSTRAND AVENUE","40.67181875911253","-73.9503276920817","308","35","31702","3031883","3012470049","BK61"
"309","262","658 NOSTRAND AVENUE",,"BROOKLYN","Brooklyn","NY","11216",,,,"658","NOSTRAND AVENUE","40.67586439312552","-73.94994613840933","308","36","315","3030664","3012190037","BK61"
"310","263","804 NOSTRAND AVENUE",,"BROOKLYN","Brooklyn","NY","11216",,,,"804","NOSTRAND AVENUE","40.67119297516837","-73.95038583645217","308","35","31702","3032270","3012540140","BK61"
"311","264","794 NOSTRAND AVENUE",,"BROOKLYN","Brooklyn","NY","11216",,,,"794","NOSTRAND AVENUE","40.67145371952459","-73.95036401303565","308","35","31702","3032267","3012540137","BK61"
"312","265","NO ADDRESS",,"BROOKLYN","Brooklyn","NY","11226",,"NOSTRAND AVE","EASTERN PARKWAY",,,"40.6698645533205","-73.9505021789545","308","35","31702",,,
"313","266","777 FRANKLIN AVENUE",,"BROOKLYN","Brooklyn","NY","11238",,,,"777","FRANKLIN AVENUE","40.67223330908521","-73.95739308745381","308","35","219","3032120","3012520012","BK61"
"314","267","787 FRANKLIN AVENUE",,"BROOKLYN","Brooklyn","NY","11238",,,,"787","FRANKLIN AVENUE","40.67199729040095","-73.95747975674591","308","35","219","3032116","3012520008","BK61"
"315","268","305 UTICA AVENUE",,"BROOKLYN","Brooklyn","NY","11213",,,,"305","UTICA AVENUE","40.66752982240289","-73.93123320032576","309","41","349","3037792","3014030007","BK61"
"316","269","398 UTICA AVENUE",,"BROOKLYN","Brooklyn","NY","11213",,,,"398","UTICA AVENUE","40.66478795154129","-73.9315063682198","309","35","355","3038278","3014190039","BK63"
"317","270","286 UTICA AVENUE",,"BROOKLYN","Brooklyn","NY","11213",,,,"286","UTICA AVENUE","40.66829832744676","-73.93117833691834","309","35","351","3343184","3013960040","BK61"
"318","271","415 UTICA AVENUE",,"BROOKLYN","Brooklyn","NY","11213",,,,"415","UTICA AVENUE","40.66418137717685","-73.93154303623514","309","41","355","3038416","3014250006","BK63"
"319","272","1763 UNION STREET",,"BROOKLYN","Brooklyn","NY","11213",,,,"1763","UNION STREET","40.6677984490746","-73.93063093647102","309","41","349","3037569","3013970001","BK61"
"320","273","353 UTICA AVENUE",,"BROOKLYN","Brooklyn","NY","11213",,,,"353","UTICA AVENUE","40.66590775189763","-73.93138987082875","309","41","349","3038158","3014150007","BK61"
"321","274","333 UTICA AVENUE",,"BROOKLYN","Brooklyn","NY","11213",,,,"333","UTICA AVENUE","40.66659390740548","-73.93132428139396","309","41","349","3414185","3014090006","BK61"
"322","275","347 UTICA AVENUE",,"BROOKLYN","Brooklyn","NY","11213",,,,"347","UTICA AVENUE","40.66625906399387","-73.93135706780606","309","41","349","3037964","3014090001","BK61"
"323","276","1645 CARROLL STREET",,"BROOKLYN","Brooklyn","NY","11213",,,,"1645","CARROLL STREET","40.66616333096183","-73.93191948760942","309","35","351","3337890","3014080047","BK61"
"324","277","311 UTICA AVENUE",,"BROOKLYN","Brooklyn","NY","11213",,,,"311","UTICA AVENUE","40.66735965487775","-73.93124779451769","309","41","349","3037791","3014030006","BK61"
"325","278","349 UTICA AVENUE",,"BROOKLYN","Brooklyn","NY","11213",,,,"349","UTICA AVENUE","40.66599009090749","-73.93138257690576","309","41","349","3038158","3014150007","BK61"
"326","279","325 OCEAN AVENUE",,"BROOKLYN","Brooklyn","NY","11225",,,,"325","OCEAN AVENUE","40.65367461581834","-73.96166480659834","309","40","79802","3114663","3050260313","BK60"
"327","280","547 FLATBUSH AVENUE",,"BROOKLYN","Brooklyn","NY","11225",,,,"547","FLATBUSH AVENUE","40.6605279818159","-73.96062282444787","309","40","79801","3114677","3050280001","BK60"
"328","281","811 NOSTRAND AVENUE",,"BROOKLYN","Brooklyn","NY","11225",,,,"811","NOSTRAND AVENUE","40.66878315019721","-73.95059310058649","309","35","319","3033237","3012760010","BK63"
"329","282","847 FRANKLIN AVENUE",,"BROOKLYN","Brooklyn","NY","11225",,,,"847","FRANKLIN AVENUE","40.66946419564862","-73.95839338632759","309","35","325","3033116","3012730008","BK63"
"330","283","541 FLATBUSH AVENUE",,"BROOKLYN","Brooklyn","NY","11225",,,,"541","FLATBUSH AVENUE","40.6607448267789","-73.96064432242527","309","40","79801","3114678","3050280006","BK60"
"331","284","656 FLATBUSH AVENUE",,"BROOKLYN","Brooklyn","NY","11225",,,,"656","FLATBUSH AVENUE","40.65739607283548","-73.96028948724224","309","40","79802","3114640","3050260222","BK60"
"332","285","1034 UNION STREET",,"BROOKLYN","Brooklyn","NY","11225",,,,"1034","UNION STREET","40.66962034240106","-73.95755697305748","309","35","325","3337861","3012730011","BK63"
"333","286","696 FLATBUSH AVENUE",,"BROOKLYN","Brooklyn","NY","11225",,,,"696","FLATBUSH AVENUE","40.65627611377671","-73.96003426360848","309","40","79802","3114644","3050260250","BK60"
"334","287","671 FLATBUSH AVENUE",,"BROOKLYN","Brooklyn","NY","11225",,,,"671","FLATBUSH AVENUE","40.65688824110254","-73.96015283290863","309","40","79601","3115647","3050450006","BK60"
"335","288","675 FLATBUSH AVENUE",,"BROOKLYN","Brooklyn","NY","11225",,,,"675","FLATBUSH AVENUE","40.65672079700217","-73.96011689179737","309","40","79601","3115645","3050450004","BK60"
"336","289","NO ADDRESS",,"BROOKLYN","Brooklyn","NY","11226",,"PARKSIDE AVENUE","OCEAN AVENUE",,,"40.6548823914571","-73.9618803533782","314","40","50803",,,
"337","290","248 PARKSIDE AVENUE",,"BROOKLYN","Brooklyn","NY","11226",,,,"248","PARKSIDE AVENUE","40.65566650953608","-73.95928498521431","309","40","79601","3115951","3050550012","BK60"
"338","291","9 CLARKSON AVENUE",,"BROOKLYN","Brooklyn","NY","11226",,,,"9","CLARKSON AVENUE","40.65489238017283","-73.95900074056499","309","40","79601","3115940","3050550001","BK60"
"339","292","731 FLATBUSH AVENUE",,"BROOKLYN","Brooklyn","NY","11226",,,,"731","FLATBUSH AVENUE","40.65514516479746","-73.95975022294877","309","40","79601","3115944","3050550005","BK60"
"340","293","544 FLATBUSH AVENUE",,"BROOKLYN","Brooklyn","NY","11226",,,,"544","FLATBUSH AVENUE","40.66079154340424","-73.96080648983101","309","40","79802","3114594","3050260065","BK60"
"341","294","5 RUTLAND ROAD",,"BROOKLYN","Brooklyn","NY","11226",,,,"5","RUTLAND ROAD","40.65882869915489","-73.95985973147012","309","40","79801","3115044","3050340001","BK60"
"342","295","2030 BEDFORD AVENUE",,"BROOKLYN","Brooklyn","NY","11226",,,,"2030","BEDFORD AVENUE","40.65525370968064","-73.95633353373519","309","40","79601","3115971","3050550059","BK60"
"343","296","7 CLARKSON AVENUE",,"BROOKLYN","Brooklyn","NY","11226",,,,"7","CLARKSON AVENUE","40.65488965208301","-73.95904759442068","309","40","79601","3115940","3050550001","BK60"
"344","297","90 CHURCH AVENUE",,"BROOKLYN","Brooklyn","NY","11218",,,,"90","CHURCH AVENUE","40.64262324812277","-73.97983204514263","312","39","486","3125217","3053520088","BK41"
"345","298","486 MCDONALD AVENUE",,"BROOKLYN","Brooklyn","NY","11218",,,,"486","MCDONALD AVENUE","40.64227731950128","-73.97934930317673","312","39","486","3345681","3053520006","BK41"
"346","299","113 CHURCH AVENUE",,"BROOKLYN","Brooklyn","NY","11218",,,,"113","CHURCH AVENUE","40.64302382323967","-73.97892027080513","312","39","496","3124533","3053340059","BK41"
"347","300","853 FLATBUSH AVENUE",,"BROOKLYN","Brooklyn","NY","11225",,,,"853","FLATBUSH AVENUE","40.65153825321796","-73.9589919902752","314","40","79602","3116700","3050860004","BK60"
"348","301","734 FLATBUSH AVENUE",,"BROOKLYN","Brooklyn","NY","11226",,,,"734","FLATBUSH AVENUE","40.65511497725034","-73.95976465726551","314","40","50803","3387565","3050540035","BK42"
"349","302","1711 NEWKIRK AVENUE",,"BROOKLYN","Brooklyn","NY","11226",,,,"1711","NEWKIRK AVENUE","40.63647295719383","-73.96138644686785","314","40","518","3423992","3052030041","BK42"
"350","303","2332 NEWKIRK AVENUE",,"BROOKLYN","Brooklyn","NY","11226",,,,"2332","NEWKIRK AVENUE","40.63945700560264","-73.95510798006094","314","40","51601","3120713","3052230099","BK42"
"351","304","354 OCEAN AVENUE",,"BROOKLYN","Brooklyn","NY","11226",,,,"354","OCEAN AVENUE","40.65428125926622","-73.9618050132615","314","40","50804","3115917","3050530038","BK42"
"352","305","871 FLATBUSH AVENUE",,"BROOKLYN","Brooklyn","NY","11226",,,,"871","FLATBUSH AVENUE","40.65086023020309","-73.9588194248111","314","40","79602","3116849","3050890007","BK60"
"353","306","1081 FLATBUSH AVENUE",,"BROOKLYN","Brooklyn","NY","11226",,,,"1081","FLATBUSH AVENUE","40.64425870017956","-73.95792263924368","314","40","792","3118905","3051650084","BK95"
"354","307","882 FLATBUSH AVENUE",,"BROOKLYN","Brooklyn","NY","11226",,,,"882","FLATBUSH AVENUE","40.65056651912187","-73.95876554939684","314","40","50801","3116592","3050820047","BK42"
"355","308","2137 CORTELYOU ROAD",,"BROOKLYN","Brooklyn","NY","11226",,,,"2137","CORTELYOU ROAD","40.64404172315368","-73.95754441614699","314","40","792","3118873","3051650025","BK95"
"356","309","2189 CLARENDON ROAD",,"BROOKLYN","Brooklyn","NY","11226",,,,"2189","CLARENDON ROAD","40.64275141283912","-73.95684258228839","314","40","792","3118886","3051650046","BK95"
"357","310","840 FLATBUSH AVENUE",,"BROOKLYN","Brooklyn","NY","11226",,,,"840","FLATBUSH AVENUE","40.65186217343575","-73.95909269897993","314","40","50801","3116574","3050820024","BK42"
"358","311","972 FLATBUSH AVENUE",,"BROOKLYN","Brooklyn","NY","11226",,,,"972","FLATBUSH AVENUE","40.64766506367867","-73.95815833017028","314","40","51002","3117182","3051020061","BK42"
"359","312","2017 CHURCH AVENUE",,"BROOKLYN","Brooklyn","NY","11226",,,,"2017","CHURCH AVENUE","40.65012255421079","-73.96073707845565","314","40","50801","3116556","3050810039","BK42"
"360","313","353 OCEAN AVENUE",,"BROOKLYN","Brooklyn","NY","11226",,,,"353","OCEAN AVENUE","40.65428948642722","-73.96178338466348","314","40","50803","3115923","3050547501","BK42"
"361","314","2176 CLARENDON ROAD",,"BROOKLYN","Brooklyn","NY","11226",,,,"2176","CLARENDON ROAD","40.64271037036777","-73.95718853100873","314","45","790","3119607","3051870011","BK95"
"362","315","939 FLATBUSH AVENUE",,"BROOKLYN","Brooklyn","NY","11226",,,,"939","FLATBUSH AVENUE","40.64888930105481","-73.95833414320747","314","40","794","3117218","3051030001","BK95"
"363","316","966 FLATBUSH AVENUE",,"BROOKLYN","Brooklyn","NY","11226",,,,"966","FLATBUSH AVENUE","40.64788190942126","-73.95817981599332","314","40","51002","3328187","3051020057","BK42"
"364","317","1199 FLATBUSH AVENUE",,"BROOKLYN","Brooklyn","NY","11226",,,,"1199","FLATBUSH AVENUE","40.64110430481292","-73.9562166787452","314","45","790","3119632","3051880009","BK95"
"365","318","2228 CHURCH AVENUE",,"BROOKLYN","Brooklyn","NY","11226",,,,"2228","CHURCH AVENUE","40.65041527568891","-73.95799083187242","314","40","794","3117226","3051030036","BK95"
"366","319","1918 CHURCH AVENUE",,"BROOKLYN","Brooklyn","NY","11226",,,,"1918","CHURCH AVENUE","40.64986217581828","-73.96185439175491","314","40","51002","3117116","3050990106","BK42"
"367","320","2016 CHURCH AVENUE",,"BROOKLYN","Brooklyn","NY","11226",,,,"2016","CHURCH AVENUE","40.65010608428501","-73.9607334843927","314","40","51002","3117137","3051010006","BK42"
"368","321","2255 CHURCH AVENUE",,"BROOKLYN","Brooklyn","NY","11226",,,,"2255","CHURCH AVENUE","40.65044537057884","-73.95772413366724","314","40","79602","3116875","3050890059","BK60"
"369","322","2245 CHURCH AVENUE",,"BROOKLYN","Brooklyn","NY","11226",,,,"2245","CHURCH AVENUE","40.65043991938214","-73.95782864655098","314","40","79602","3116878","3050890063","BK60"
"370","323","872 FLATBUSH AVENUE",,"BROOKLYN","Brooklyn","NY","11226",,,,"872","FLATBUSH AVENUE","40.65085474837855","-73.95884105096962","314","40","50801","3116590","3050820045","BK42"
"371","324","848 FLATBUSH AVENUE",,"BROOKLYN","Brooklyn","NY","11226",,,,"848","FLATBUSH AVENUE","40.65167551158408","-73.95904596351005","314","40","50801","3116576","3050820028","BK42"
"372","325","1260 FLATBUSH AVENUE",,"BROOKLYN","Brooklyn","NY","11226",,,,"1260","FLATBUSH AVENUE","40.63949800209573","-73.95466115784302","314","40","51601","3120714","3052230100","BK42"
"373","326","1102 FLATBUSH AVENUE",,"BROOKLYN","Brooklyn","NY","11226",,,,"1102","FLATBUSH AVENUE","40.64351756612817","-73.95780779782585","314","40","51602","3118833","3051640016","BK42"
"374","327","992 FLATBUSH AVENUE",,"BROOKLYN","Brooklyn","NY","11226",,,,"992","FLATBUSH AVENUE","40.64714080218431","-73.9581370373706","314","40","51001","3117634","3051250015","BK42"
"375","328","1274 FLATBUSH AVENUE",,"BROOKLYN","Brooklyn","NY","11226",,,,"1274","FLATBUSH AVENUE","40.63918772013906","-73.95435509956914","314","40","51601","3120719","3052230107","BK42"
"376","329","1439 FLATBUSH AVENUE",,"BROOKLYN","Brooklyn","NY","11226",,,,"1439","FLATBUSH AVENUE","40.63542572285299","-73.9503980167113","314","45","786","3121661","3052500006","BK42"
"3499","3293","NO ADDRESS",,"NEW YORK","Manhattan","NY","10011","W 4TH STREET",,,,,,,,,,,,
"377","330","210 PARKSIDE AVENUE",,"BROOKLYN","Brooklyn","NY","11226",,,,"210","PARKSIDE AVENUE","40.6552526090553","-73.9609034488004","314","40","50803","3115928","3050540019","BK42"
"378","331","1272 FLATBUSH AVENUE",,"BROOKLYN","Brooklyn","NY","11226",,,,"1272","FLATBUSH AVENUE","40.63923165386699","-73.95439830753521","314","40","51601","3120718","3052230106","BK42"
"379","332","755 FLATBUSH AVENUE",,"BROOKLYN","Brooklyn","NY","11226",,,,"755","FLATBUSH AVENUE","40.65435735701573","-73.95959212290914","314","40","79602","3116190","3050640014","BK60"
"380","333","2020 CHURCH AVENUE",,"BROOKLYN","Brooklyn","NY","11226",,,,"2020","CHURCH AVENUE","40.65011156400349","-73.96070465112251","314","40","51002","3117137","3051010006","BK42"
"381","334","2135 CATON AVENUE",,"BROOKLYN","Brooklyn","NY","11226",,,,"2135","CATON AVENUE","40.65295182745237","-73.95902355657093","314","40","79602","3116602","3050830012","BK60"
"382","335","1068 FLATBUSH AVENUE",,"BROOKLYN","Brooklyn","NY","11226",,,,"1068","FLATBUSH AVENUE","40.64465123067885","-73.9579944609206","314","40","514","3118556","3051520011","BK42"
"383","336","2171 CLARENDON ROAD",,"BROOKLYN","Brooklyn","NY","11226",,,,"2171","CLARENDON ROAD","40.64272137765278","-73.95726419443443","314","40","792","3396547","3051650057","BK95"
"384","337","1930 CHURCH AVENUE",,"BROOKLYN","Brooklyn","NY","11226",,,,"1930","CHURCH AVENUE","40.64988684535077","-73.96175347283278","314","40","51002","3117116","3050990106","BK42"
"385","338","585 EAST 16 STREET",,"BROOKLYN","Brooklyn","NY","11226",,,,"585","EAST 16 STREET","40.63619885403821","-73.96252155182346","314","40","518","3120196","3052020029","BK42"
"386","339","961 OCEAN AVENUE",,"BROOKLYN","Brooklyn","NY","11226",,,,"961","OCEAN AVENUE","40.63889024451682","-73.95887725593367","314","40","51601","3120264","3052060062","BK42"
"387","340","1170 FLATBUSH AVENUE",,"BROOKLYN","Brooklyn","NY","11226",,,,"1170","FLATBUSH AVENUE","40.64163700172405","-73.9567676338092","314","40","51602","3253109","3051860004","BK42"
"388","341","2126 NOSTRAND AVENUE",,"BROOKLYN","Brooklyn","NY","11226",,,,"2126","NOSTRAND AVENUE","40.63344006562039","-73.94774418800883","314","45","786","3205888","3075570092","BK42"
"389","342","2131 NOSTRAND AVENUE",,"BROOKLYN","Brooklyn","NY","11226",,,,"2131","NOSTRAND AVENUE","40.63344005579401","-73.94772257088269","314","45","786","3205913","3075580049","BK42"
"390","343","859 FLATBUSH AVENUE",,"BROOKLYN","Brooklyn","NY","11226",,,,"859","FLATBUSH AVENUE","40.65139825776","-73.95895964189803","314","40","79602","3116697","3050860001","BK60"
"391","344","1397 FLATBUSH AVENUE",,"BROOKLYN","Brooklyn","NY","11226",,,,"1397","FLATBUSH AVENUE","40.63657905064977","-73.95161137887378","314","45","788","3120878","3052280012","BK42"
"392","345","1218 FLATBUSH AVENUE",,"BROOKLYN","Brooklyn","NY","11226",,,,"1218","FLATBUSH AVENUE","40.6403656878764","-73.95551453365569","314","40","51601","3120287","3052090001","BK42"
"393","346","2180 CLARENDON ROAD",,"BROOKLYN","Brooklyn","NY","11226",,,,"2180","CLARENDON ROAD","40.64271856442755","-73.95708042505865","314","45","790","3119608","3051870014","BK95"
"394","347","2100 NOSTRAND AVENUE",,"BROOKLYN","Brooklyn","NY","11226",,,,"2100","NOSTRAND AVENUE","40.63451606639963","-73.94784062411749","314","45","786","3382187","3052520071","BK42"
"395","348","872A FLATBUSH AVENUE",,"BROOKLYN","Brooklyn","NY","11226",,,,"872A","FLATBUSH AVENUE","40.65085474837855","-73.95884105096962","314","40","50801","3116591","3050820046","BK42"
"396","349","732 FLATBUSH AVENUE",,"BROOKLYN","Brooklyn","NY","11226",,,,"732","FLATBUSH AVENUE","40.65519458220136","-73.95978262940599","314","40","50803","3387565","3050540035","BK42"
"397","350","964 FLATBUSH AVENUE",,"BROOKLYN","Brooklyn","NY","11226",,,,"964","FLATBUSH AVENUE","40.64793131813989","-73.95818699229982","314","40","51002","3328188","3051020057","BK42"
"398","351","1622 NEWKIRK AVENUE",,"BROOKLYN","Brooklyn","NY","11226",,,,"1622","NEWKIRK AVENUE","40.63605876494341","-73.9622009637935","314","40","518","3121206","3052370010","BK42"
"399","352","1916 CHURCH AVENUE",,"BROOKLYN","Brooklyn","NY","11226",,,,"1916","CHURCH AVENUE","40.64985669222781","-73.96187241359938","314","40","51002","3117116","3050990106","BK42"
"400","353","1228 FLATBUSH AVENUE",,"BROOKLYN","Brooklyn","NY","11226",,,,"1228","FLATBUSH AVENUE","40.64020368408963","-73.9553560999498","314","40","51601","3120291","3052090007","BK42"
"401","354","2125 CHURCH AVENUE",,"BROOKLYN","Brooklyn","NY","11226",,,,"2125","CHURCH AVENUE","40.65027585749864","-73.95956936853148","314","40","50801","3116592","3050820047","BK42"
"402","355","2138 BEVERLY ROAD",,"BROOKLYN","Brooklyn","NY","11226",,,,"2138","BEVERLY ROAD","40.64458797111104","-73.95764136192354","314","40","792","3118863","3051650001","BK95"
"403","356","1254 FLATBUSH AVENUE",,"BROOKLYN","Brooklyn","NY","11226",,,,"1254","FLATBUSH AVENUE","40.63978356886424","-73.95493841005825","314","40","51601","3120303","3052090019","BK42"
"404","357","2177 CLARENDON ROAD",,"BROOKLYN","Brooklyn","NY","11226",,,,"2177","CLARENDON ROAD","40.64273230448158","-73.95712365650668","314","40","792","3118891","3051650052","BK95"
"405","358","937 FLATBUSH AVENUE",,"BROOKLYN","Brooklyn","NY","11226",,,,"937","FLATBUSH AVENUE","40.6489661615028","-73.9583521136775","314","40","794","3117218","3051030001","BK95"
"406","359","2120 CATON AVENUE",,"BROOKLYN","Brooklyn","NY","11226",,,,"2120","CATON AVENUE","40.65275722265191","-73.95980211818923","314","40","50801","3116565","3050820007","BK42"
"407","360","2266 CHURCH AVENUE",,"BROOKLYN","Brooklyn","NY","11226",,,,"2266","CHURCH AVENUE","40.65043434634481","-73.9576016123662","314","40","794","3336216","3051030050","BK95"
"408","361","1604 NEWKIRK AVENUE",,"BROOKLYN","Brooklyn","NY","11226",,,,"1604","NEWKIRK AVENUE","40.63600390704858","-73.96231629066668","314","40","518","3121199","3052370002","BK42"
"409","362","2026 NOSTRAND AVENUE",,"BROOKLYN","Brooklyn","NY","11226",,,,"2026","NOSTRAND AVENUE","40.63581990384164","-73.94798012139293","314","45","786","3121727","3052520040","BK42"
"410","363","14 DURYEA PLACE",,"BROOKLYN","Brooklyn","NY","11226",,,,"14","DURYEA PLACE","40.64532626885396","-73.95750756382105","314","40","792","3117870","3051320059","BK95"
"411","364","875 FLATBUSH AVENUE",,"BROOKLYN","Brooklyn","NY","11226",,,,"875","FLATBUSH AVENUE","40.6507449390184","-73.95879066565423","314","40","79602","3328178","3050890105","BK60"
"412","365","1161 FLATBUSH AVENUE",,"BROOKLYN","Brooklyn","NY","11226",,,,"1161","FLATBUSH AVENUE","40.64176055088482","-73.95685763637847","314","45","790","3119642","3051880028","BK95"
"413","366","8 LENOX ROAD",,"BROOKLYN","Brooklyn","NY","11226",,,,"8","LENOX ROAD","40.65360501209583","-73.95881773055113","314","40","79602","3328175","3050830017","BK60"
"414","367","1023 FLATBUSH AVENUE",,"BROOKLYN","Brooklyn","NY","11226",,,,"1023","FLATBUSH AVENUE","40.64610050424832","-73.95806922283586","314","40","792","3117843","3051320001","BK95"
"415","368","1922 CHURCH AVENUE",,"BROOKLYN","Brooklyn","NY","11226",,,,"1922","CHURCH AVENUE","40.64987039940439","-73.96182195336979","314","40","51002","3117116","3050990106","BK42"
"416","369","932 FLATBUSH AVENUE",,"BROOKLYN","Brooklyn","NY","11226",,,,"932","FLATBUSH AVENUE","40.64887832975445","-73.95835577219343","314","40","51002","3117164","3051020038","BK42"
"417","370","1135 FLATBUSH AVENUE",,"BROOKLYN","Brooklyn","NY","11226",,,,"1135","FLATBUSH AVENUE","40.64264464772498","-73.9575993553534","314","45","790","3119607","3051870011","BK95"
"418","371","2259 CHURCH AVENUE",,"BROOKLYN","Brooklyn","NY","11226",,,,"2259","CHURCH AVENUE","40.65044535600056","-73.95768449216547","314","40","79602","3116873","3050890057","BK60"
"419","372","864A FLATBUSH AVENUE",,"BROOKLYN","Brooklyn","NY","11226",,,,"864A","FLATBUSH AVENUE","40.65108533199896","-73.95890217345904","314","40","50801","3116586","3050820041","BK42"
"420","373","1121 FLATBUSH AVENUE",,"BROOKLYN","Brooklyn","NY","11226",,,,"1121","FLATBUSH AVENUE","40.64312228008005","-73.95770715318683","314","40","792","3118896","3051650063","BK95"
"421","374","1347 FLATBUSH AVENUE",,"BROOKLYN","Brooklyn","NY","11226",,,,"1347","FLATBUSH AVENUE","40.63816349691877","-73.9533145012204","314","45","788","3120866","3052270021","BK42"
"422","375","1325 FOSTER AVENUE",,"BROOKLYN","Brooklyn","NY","11230",,,,"1325","FOSTER AVENUE","40.63336961494168","-73.96452992901993","314","40","520","3121116","3052340027","BK42"
"423","376","1324 NEWKIRK AVENUE",,"BROOKLYN","Brooklyn","NY","11230",,,,"1324","NEWKIRK AVENUE","40.63481071142068","-73.96479938274685","314","40","520","3121112","3052340011","BK42"
"424","377","2019 CHURCH AVENUE",,"BROOKLYN","Brooklyn","NY","11226",,,,"2019","CHURCH AVENUE","40.6501252940714","-73.96072266181774","314","40","50801","3116556","3050810039","BK42"
"425","378","2281 CHURCH AVENUE",,"BROOKLYN","Brooklyn","NY","11226",,,,"2281","CHURCH AVENUE","40.65045899748866","-73.95746104949639","314","40","79602","3116870","3050890048","BK60"
"426","379","2 NEWKIRK PLAZA",,"BROOKLYN","Brooklyn","NY","11226",,,,"2","NEWKIRK PLAZA","40.63555941459761","-73.96281735446522","314","40","520","3121174","3052360010","BK42"
"427","380","1924 CHURCH AVENUE",,"BROOKLYN","Brooklyn","NY","11226",,,,"1924","CHURCH AVENUE","40.64987588298694","-73.96180393151748","314","40","51002","3117116","3050990106","BK42"
"428","381","1471 FLATBUSH AVENUE",,"BROOKLYN","Brooklyn","NY","11210",,,,"1471","FLATBUSH AVENUE","40.63458543543716","-73.94951952943153","314","45","786","3121672","3052510007","BK42"
"429","382","1461 FLATBUSH AVENUE",,"BROOKLYN","Brooklyn","NY","11210",,,,"1461","FLATBUSH AVENUE","40.63471999318556","-73.94966354463337","314","45","786","3121674","3052510011","BK42"
"430","383","622 EAST 28 STREET",,"BROOKLYN","Brooklyn","NY","11210",,,,"622","EAST 28 STREET","40.63574115306893","-73.94988976209922","314","45","786","3121658","3052500003","BK42"
"431","384","1398 FLATBUSH AVENUE",,"BROOKLYN","Brooklyn","NY","11210",,,,"1398","FLATBUSH AVENUE","40.63643352382401","-73.95148537879751","314","45","770","3120852","3052260037","BK42"
"432","385","2088 NOSTRAND AVENUE",,"BROOKLYN","Brooklyn","NY","11210",,,,"2088","NOSTRAND AVENUE","40.6347274248091","-73.94786207646911","314","45","786","3121740","3052520066","BK42"
"433","386","2516 FOSTER AVENUE",,"BROOKLYN","Brooklyn","NY","11210",,,,"2516","FOSTER AVENUE","40.63843780950278","-73.95290715614108","314","45","788","3120870","3052270026","BK42"
"434","387","1459 FLATBUSH AVENUE",,"BROOKLYN","Brooklyn","NY","11210",,,,"1459","FLATBUSH AVENUE","40.63474470888369","-73.94969234939875","314","45","786","3121674","3052510011","BK42"
"435","388","1326 FLATBUSH AVENUE",,"BROOKLYN","Brooklyn","NY","11210",,,,"1326","FLATBUSH AVENUE","40.63800698843897","-73.95317769283695","314","45","770","3120813","3052250046","BK42"
"436","389","1352 FLATBUSH AVENUE",,"BROOKLYN","Brooklyn","NY","11210",,,,"1352","FLATBUSH AVENUE","40.63742758452463","-73.95255837120222","314","45","770","3120833","3052260017","BK42"
"437","390","1356 FLATBUSH AVENUE",,"BROOKLYN","Brooklyn","NY","11210",,,,"1356","FLATBUSH AVENUE","40.63732323650657","-73.95244675036668","314","45","770","3120834","3052260019","BK42"
"438","391","2630 FARRAGUT ROAD",,"BROOKLYN","Brooklyn","NY","11210",,,,"2630","FARRAGUT ROAD","40.63598353327819","-73.95185321121508","314","45","770","3121631","3052490040","BK42"
"439","392","1324 FLATBUSH AVENUE",,"BROOKLYN","Brooklyn","NY","11210",,,,"1324","FLATBUSH AVENUE","40.6380317017816","-73.9532028972204","314","45","770","3120812","3052250045","BK42"
"440","393","1468 FLATBUSH AVENUE",,"BROOKLYN","Brooklyn","NY","11210",,,,"1468","FLATBUSH AVENUE","40.63512367471697","-73.95011721139531","314","45","770","3121646","3052490063","BK42"
"441","393","1468 FLATBUSH AVENUE","2ND FLOOR","BROOKLYN","Brooklyn","NY","11210",,,,"1468","FLATBUSH AVENUE","40.63512367471697","-73.95011721139531","314","45","770","3121646","3052490063","BK42"
"442","394","1958 NOSTRAND AVENUE",,"BROOKLYN","Brooklyn","NY","11210",,,,"1958","NOSTRAND AVENUE","40.63770840802055","-73.94818042202691","314","45","788","3121055","3052310040","BK42"
"443","395","1391 FLATBUSH AVENUE",,"BROOKLYN","Brooklyn","NY","11210",,,,"1391","FLATBUSH AVENUE","40.63668065470065","-73.95172299914397","314","45","788","3120881","3052280015","BK42"
"444","396","2914 GLENWOOD ROAD","2ND FLOOR","BROOKLYN","Brooklyn","NY","11210",,,,"2914","GLENWOOD ROAD","40.63393996796522","-73.94852201920945","314","45","786","3205882","3075570086","BK42"
"445","397","1366 FLATBUSH AVENUE",,"BROOKLYN","Brooklyn","NY","11210",,,,"1366","FLATBUSH AVENUE","40.63705961744846","-73.9521586941478","314","45","770","3120838","3052260023","BK42"
"446","398","1449 FLATBUSH AVENUE",,"BROOKLYN","Brooklyn","NY","11210",,,,"1449","FLATBUSH AVENUE","40.63516485121008","-73.95012798946212","314","45","786","3121668","3052500102","BK42"
"447","399","2120 NOSTRAND AVENUE",,"BROOKLYN","Brooklyn","NY","11210",,,,"2120","NOSTRAND AVENUE","40.63360750420084","-73.94775846835661","314","45","786","3205885","3075570089","BK42"
"448","400","592 ROCKAWAY AVENUE",,"BROOKLYN","Brooklyn","NY","11212",,,,"592","ROCKAWAY AVENUE","40.66551946518499","-73.90967982936156","316","41","924","3081790","3035600026","BK81"
"449","401","8 THOMAS S BOYLAND STREET",,"BROOKLYN","Brooklyn","NY","11233",,,,"8","THOMAS S BOYLAND STREET","40.68495920444568","-73.91489970550558","316","41","373","3040218","3014980035","BK79"
"450","402","NO ADDRESS",,"BROOKLYN","Brooklyn","NY","11206",,"HERKIMER ST","SACKMAN STREET",,,"40.6772559437269","-73.906015447716","316","37","367",,,
"451","403","NO ADDRESS",,"BROOKLYN","Brooklyn","NY","11221",,"BEVERLY RD","NOSTRAND AVENUE",,,"40.645130659703","-73.9489638212588","317","40","826",,,
"452","404","1620 NOSTRAND AVENUE",,"BROOKLYN","Brooklyn","NY","11226",,,,"1620","NOSTRAND AVENUE","40.64643449904071","-73.94911417334355","317","40","826","3118084","3051400011","BK95"
"453","405","721 ROGERS AVENUE",,"BROOKLYN","Brooklyn","NY","11226",,,,"721","ROGERS AVENUE","40.65375091487549","-73.95279183219486","317","40","820","3116670","3050850019","BK60"
"454","406","1497 NOSTRAND AVENUE",,"BROOKLYN","Brooklyn","NY","11226",,,,"1497","NOSTRAND AVENUE","40.64961584563479","-73.9494360825684","317","40","824","3109270","3048840052","BK95"
"455","407","1407 NOSTRAND AVENUE",,"BROOKLYN","Brooklyn","NY","11226",,,,"1407","NOSTRAND AVENUE","40.65212469504736","-73.9497044709625","317","40","818","3108501","3048687501","BK95"
"456","408","1805 NOSTRAND AVENUE",,"BROOKLYN","Brooklyn","NY","11226",,,,"1805","NOSTRAND AVENUE","40.64187518329035","-73.94860237682073","317","45","828","3111288","3049470064","BK95"
"457","409","1602 NOSTRAND AVENUE",,"BROOKLYN","Brooklyn","NY","11226",,,,"1602","NOSTRAND AVENUE","40.64718386155616","-73.9491964845783","317","40","824","3117841","3051310019","BK95"
"458","410","1398 NOSTRAND AVENUE",,"BROOKLYN","Brooklyn","NY","11226",,,,"1398","NOSTRAND AVENUE","40.65236900110026","-73.94975113719705","317","40","820","3116823","3050880039","BK60"
"459","411","1379 NOSTRAND AVENUE",,"BROOKLYN","Brooklyn","NY","11226",,,,"1379","NOSTRAND AVENUE","40.65307992313743","-73.94980466048321","317","40","818","3108049","3048530001","BK95"
"460","412","1040 ROGERS AVENUE",,"BROOKLYN","Brooklyn","NY","11226",,,,"1040","ROGERS AVENUE","40.64472018228701","-73.95183970003305","317","40","792","3119104","3051700010","BK95"
"461","413","NO ADDRESS",,"BROOKLYN","Brooklyn","NY","11226",,"CHURCH AVENUE","NOSTRAND AVENUE",,,"40.6508071413086","-73.9495721238566","317","40","818",,,
"462","413","NO ADDRESS",,"BROOKLYN","Brooklyn","NY","11210",,"CHURCH AVENUE","NOSTRAND AVENUE",,,"40.6508071413086","-73.9495721238566","317","40","818",,,
"463","414","1036 ROGERS AVENUE",,"BROOKLYN","Brooklyn","NY","11226",,,,"1036","ROGERS AVENUE","40.64481076468867","-73.95185044506007","317","40","792","3119104","3051700010","BK95"
"464","415","1529 NOSTRAND AVENUE",,"BROOKLYN","Brooklyn","NY","11226",,,,"1529","NOSTRAND AVENUE","40.64880883988307","-73.94934660202814","317","45","824","3109971","3049010001","BK95"
"465","416","828 ROGERS AVENUE",,"BROOKLYN","Brooklyn","NY","11226",,,,"828","ROGERS AVENUE","40.65038567130004","-73.95245185516825","317","40","794","3117244","3051040096","BK95"
"466","417","1430 NOSTRAND AVENUE",,"BROOKLYN","Brooklyn","NY","11226",,,,"1430","NOSTRAND AVENUE","40.65143024157825","-73.94965093708187","317","40","820","3116976","3050910046","BK60"
"467","418","1325 FLATBUSH AVENUE",,"BROOKLYN","Brooklyn","NY","11226",,,,"1325","FLATBUSH AVENUE","40.63869345444521","-73.95384379190418","317","45","790","3120362","3052110071","BK95"
"468","419","3010 CORTELYOU ROAD",,"BROOKLYN","Brooklyn","NY","11226",,,,"3010","CORTELYOU ROAD","40.64442512030364","-73.94867248156723","317","45","826","3110695","3049300061","BK95"
"469","420","2602 CHURCH AVENUE",,"BROOKLYN","Brooklyn","NY","11226",,,,"2602","CHURCH AVENUE","40.65064934394705","-73.95287331008207","317","40","794","3117242","3051040092","BK95"
"470","421","1053-B ROGERS AVENUE",,"BROOKLYN","Brooklyn","NY","11226",,,,"1053-B","ROGERS AVENUE","40.64440982149894","-73.9513642689275","317","45","826","3119170","3051710080","BK95"
"471","422","810 ROGERS AVENUE",,"BROOKLYN","Brooklyn","NY","11226",,,,"810","ROGERS AVENUE","40.65101974280392","-73.95251627176374","317","40","822","3392953","3050900053","BK60"
"472","423","723 ROGERS AVENUE",,"BROOKLYN","Brooklyn","NY","11226",,,,"723","ROGERS AVENUE","40.6537124849782","-73.95278465148786","317","40","820","3116670","3050850019","BK60"
"473","424","1818 NOSTRAND AVENUE",,"BROOKLYN","Brooklyn","NY","11226",,,,"1818","NOSTRAND AVENUE","40.641655598884","-73.94859894266142","317","45","828","3120046","3051950035","BK95"
"474","425","2705 FOSTER AVENUE",,"BROOKLYN","Brooklyn","NY","11226",,,,"2705","FOSTER AVENUE","40.63846719960891","-73.95098666872798","317","45","828","3328283","3052140066","BK95"
"475","426","1624 NOSTRAND AVENUE",,"BROOKLYN","Brooklyn","NY","11226",,,,"1624","NOSTRAND AVENUE","40.64636038669594","-73.94910702275929","317","40","826","3118086","3051400013","BK95"
"476","427","NO ADDRESS",,"BROOKLYN","Brooklyn","NY","11213",,"EASTERN PARKWAY","UTICA AVE",,,"40.6687978421866","-73.9311201452519","308","35","349",,,
"477","428","NO ADDRESS",,"BROOKLYN","Brooklyn","NY","11216",,"RALPH AVE","GATES AVE",,,"40.6892748491329","-73.9239737868861","303","41","375",,,
"478","429","NO ADDRESS",,"BROOKLYN","Brooklyn","NY","11226",,"UTICA AVE","ST JOHN PL",,,"40.6705818470327","-73.9309524791986","308","36","349",,,
"479","430","NO ADDRESS",,"BROOKLYN","Brooklyn","NY","11226",,"PARKSIDE AVE","FLATBUSH AVE",,,"40.6556337748435","-73.9598616538274","309","40","79601",,,
"480","431","NO ADDRESS",,"BROOKLYN","Brooklyn","NY","11207",,"PENNSYLVANIA AVE","ATLANTIC AVENUE",,,"40.6757357231438","-73.8968533186381","305","37","1198",,,
"481","432","1514 EASTERN PARKWAY",,"BROOKLYN","Brooklyn","NY","11233",,,,"1514","EASTERN PARKWAY","40.67020840730719","-73.91816648954398","316","41","361","3039468","3014710071","BK79"
"482","433","521 OCEAN AVENUE","2ND FLOOR","BROOKLYN","Brooklyn","NY","11226",,,,"521","OCEAN AVENUE","40.64986736426343","-73.96095705692136","314","40","51002","3117136","3051010001","BK42"
"483","434","521 OCEAN AVENUE","2ND FLOOR","BROOKLYN","BROOKLYN","NY","11226",,,,"521","OCEAN AVENUE","40.64986736426343","-73.96095705692136","314","40","51002","3117136","3051010001","BK42"
"484","435","885 FLATBUSH AVENUE",,"BROOKLYN","BROOKLYN","NY","11226",,,,"885","FLATBUSH AVENUE","40.65022887206683","-73.95865764521642","314","40","794","3117223","3051030028","BK95"
"485","436","444 THOMAS BOYLAND AVENUE","3RD FLOOR","BROOKLYN","BROOKLYN","NY","11212",,,,"444","THOMAS BOYLAND AVENUE",,,,,,,,
"486","437","3060 FULTON STREET",,"BROOKLYN","Brooklyn","NY","11208",,,,"3060","FULTON STREET","40.68082384149212","-73.88185772673738","305","37","1168","3402450","3039580020","BK82"
"487","438","560 LIVONIA AVENUE",,"BROOKLYN","Brooklyn","NY","11207",,,,"560","LIVONIA AVENUE","40.66437204235505","-73.89652125156438","305","42","1130","3418179","3038207501","BK85"
"488","439","161-10 JAMAICA AVENUE",,"QUEENS","Queens","NY","11432",,,,"161-10","JAMAICA AVENUE","40.70403301399336","-73.79841220477124","412","27","44601","4440641","4101010015","QN61"
"489","439","161-10 JAMAICA AVENUE","2ND FLOOR","JAMAICA","Queens","NY","11432",,,,"161-10","JAMAICA AVENUE","40.70403301399336","-73.79841220477124","412","27","44601","4440641","4101010015","QN61"
"490","440","1847 MOTT AVENUE",,"QUEENS","Queens","NY","11691",,,,"1847","MOTT AVENUE","40.60339093142493","-73.7513236926472","414","31","101001","4298245","4155600017","QN15"
"491","440","1847 MOTT AVENUE","1ST FLOOR","FAR ROCKAWAY","QUEENS","NY","11691",,,,"1847","MOTT AVENUE","40.60339093142493","-73.7513236926472","414","31","101001","4298245","4155600017","QN15"
"492","441","NO ADDRESS",,"BROOKLYN","Brooklyn","NY","11234",,,,,,,,,,,,,
"495","442","1328 PUTNAM AVENUE",,"BROOKLYN","Brooklyn","NY","11221",,,,"1328","PUTNAM AVENUE","40.69387833338745","-73.91305641114069","304","37","435","3077286","3033770001","BK77"
"496","443","143-26 101 AVENUE",,"JAMAICA","Queens","NY","11435",,,,"143-26","101 AVENUE","40.69523762228131","-73.80736415190628","412","28","206","4214461","4100240012","QN61"
"497","444","1328 PUTNAM AVENUE",,"BROOKLYN","Brooklyn","NY","11221",,,,"1328","PUTNAM AVENUE","40.69387833338745","-73.91305641114069","304","37","435","3077286","3033770001","BK77"
"498","445","191 JORALEMON STREET",,"BROOKLYN","Brooklyn","NY","11201",,,,"191","JORALEMON STREET","40.69267024606049","-73.99178540545059","302","33","9","3002244","3002550008","BK09"
"499","446","1920 NEW HAVEN AVENUE",,"FAR ROCKAWAY","Queens","NY","11691",,,,"1920","NEW HAVEN AVENUE","40.60054453297386","-73.75258027270162","414","31","101001","4298304","4155640079","QN15"
"500","447","2-30 BEACH 102 STREET",,"FAR ROCKAWAY","Queens","NY","11694",,,,"2-30","BEACH 102 STREET","40.58402197111722","-73.82309019185867","414","32","94201","4000000","4161570010","QN10"
"501","448","52 WILSON AVENUE",,"BROOKLYN","Brooklyn","NY","11237",,,,"52","WILSON AVENUE","40.70254900786915","-73.92898623689612","304","34","425","3072069","3031640026","BK78"
"502","449","1328 PUTNAM AVENUE",,"BROOKLYN","Brooklyn","NY","11221",,,,"1328","PUTNAM AVENUE","40.69387833338745","-73.91305641114069","304","37","435","3077286","3033770001","BK77"
"503","450","23-40 ASTORIA BOULEVARD",,"ASTORIA","Queens","NY","11102",,,,"23-40","ASTORIA BOULEVARD","40.77158170006153","-73.92374985302051","401","22","69","4439576","4005420008","QN71"
"504","451","249 CLASSON AVENUE",,"BROOKLYN","Brooklyn","NY","11205",,,,"249","CLASSON AVENUE","40.69266660123778","-73.96078054069817","303","33","193","3329837","3019100052","BK69"
"505","452","2866 WEST 17 STREET",,"BROOKLYN","Brooklyn","NY","11224",,,,"2866","WEST 17 STREET","40.57749829209886","-73.98494907987542","313","47","326","3329329","3070200039","BK21"
"506","453","2866 WEST 17 STREET",,"BROOKLYN","Brooklyn","NY","11224",,,,"2866","WEST 17 STREET","40.57749829209886","-73.98494907987542","313","47","326","3329329","3070200039","BK21"
"507","454","3060 FULTON STREET",,"BROOKLYN","Brooklyn","NY","11208",,,,"3060","FULTON STREET","40.68082384149212","-73.88185772673738","305","37","1168","3402450","3039580020","BK82"
"508","455","35-24 83 STREET",,"JACKSON HEIGHTS","Queens","NY","11372",,,,"35-24","83 STREET","40.75154727863521","-73.88370294824003","403","25","283","4437136","4014560001","QN28"
"509","456","552 59 STREET",,"BROOKLYN","Brooklyn","NY","11220",,,,"552","59 STREET","40.63936605192983","-74.01441990624156","307","38","102","3337343","3008640001","BK34"
"510","457","249 CLASSON AVENUE",,"BROOKLYN","Brooklyn","NY",,,,,"249","CLASSON AVENUE","40.69266660123778","-73.96078054069817","303","33","193","3329837","3019100052","BK69"
"511","458","683 DEAN STREET",,"BROOKLYN","Brooklyn","NY",,,,,"683","DEAN STREET","40.68006190793108","-73.96731368066177","308","35","203","3027676","3011300075","BK64"
"512","459","2037 UTICA AVENUE",,"BROOKLYN","Brooklyn","NY",,,,,"2037","UTICA AVENUE","40.62213133940599","-73.92720583334405","318","46","680","3336912","3078480015","BK58"
"513","459","2037 UTICA AVENUE","2ND FLOOR","BROOKLYN","Brooklyn","NY",,,,,"2037","UTICA AVENUE","40.62213133940599","-73.92720583334405","318","46","680","3336912","3078480015","BK58"
"514","460","191 JORALEMON STREET",,"BROOKLYN","Brooklyn","NY","11201",,,,"191","JORALEMON STREET","40.69267024606049","-73.99178540545059","302","33","9","3002244","3002550008","BK09"
"515","461","1463 FLATBUSH AVENUE",,"BROOKLYN","Brooklyn","NY",,,,,"1463","FLATBUSH AVENUE","40.63469253269305","-73.94963474196085","314","45","786","3121674","3052510011","BK42"
"516","462","179 NORTH 6 STREET",,"BROOKLYN","Brooklyn","NY","11211",,,,"179","NORTH 6 STREET","40.71668481541008","-73.95733942019922","301","33","553","3062100","3023280025","BK73"
"517","463","1230 63 STREET",,"BROOKLYN","Brooklyn","NY","11219",,,,"1230","63 STREET","40.62798156323111","-74.00171842127777","310","38","194","3345690","3057390001","BK30"
"518","464","89-02 91 STREET",,"WOODHAVEN","Queens","NY","11421",,,,"89-02","91 STREET","40.69045487767545","-73.85294626569423","409","32","18","4185709","4089720004","QN53"
"519","465","3643 NOSTRAND AVENUE",,"BROOKLYN","Brooklyn","NY","11229",,,,"3643","NOSTRAND AVENUE","40.5949656793889","-73.94082479246877","315","46","572","3344554","3074051001","BK17"
"520","466","5701 AVENUE H",,"BROOKLYN","Brooklyn","NY","11234",,,,"5701","AVENUE H","40.6332879415403","-73.92155520645986","318","45","94402","3331006","3079780001","BK58"
"521","467","7711 18 AVENUE",,"BROOKLYN","Brooklyn","NY","11214",,,,"7711","18 AVENUE","40.61208645469222","-73.99728791798927","311","47","274","3161485","3062490006","BK28"
"522","468","715 LEONARD STREET",,"BROOKLYN","Brooklyn","NY","11222",,,,"715","LEONARD STREET","40.72900699295494","-73.95276016749955","301","33","575","3333076","3025740053","BK76"
"523","469","55 PIERREPONT STREET",,"BROOKLYN","Brooklyn","NY","11201",,,,"55","PIERREPONT STREET","40.69578300295817","-73.99511717282907","302","33","501","3001825","3002367502","BK09"
"524","470","230 KINGSTON AVENUE",,"BROOKLYN","Brooklyn","NY","11213",,,,"230","KINGSTON AVENUE","40.67182034283653","-73.9419822804104","308","35","339","3032045","3012500025","BK61"
"525","471","230 RIVERDALE AVENUE",,"BROOKLYN","Brooklyn","NY","11212",,,,"230","RIVERDALE AVENUE","40.66108258859356","-73.90802423151139","316","42","916","3413856","3036030025","BK81"
"526","472","103-02 101 AVENUE",,"OZONE PARK","Queens","NY","11416",,,,"103-02","101 AVENUE","40.68602644287513","-73.83977719164326","409","28","112","4198392","4094210001","QN54"
"527","473","23-56 BROADWAY",,"ASTORIA","Queens","NY","11106",,,,"23-56","BROADWAY","40.76428466112474","-73.93001061303218","401","22","53","4006560","4005660050","QN70"
"528","474","221-15 HORACE HARDING EXPRESSWAY",,"BAYSIDE","Queens","NY","11364",,,,"221-15","HORACE HARDING EXPRESSWAY","40.74968816037707","-73.75655945266709","411","23","138501","4161696","4075270065","QN42"
"529","475","35-24 83 STREET",,"JACKSON HEIGHTS","Queens","NY","11372",,,,"35-24","83 STREET","40.75154727863521","-73.88370294824003","403","25","283","4437136","4014560001","QN28"
"530","476","320 BEACH 94 STREET",,"ROCKAWAY","Queens","NY","11693",,,,"320","BEACH 94 STREET","40.58769920004284","-73.81730901753713","414","32","94202","4303571","4161260004","QN12"
"531","477","168-01 HILLSIDE AVENUE",,"JAMAICA","Queens","NY","11432",,,,"168-01","HILLSIDE AVENUE","40.71007027909944","-73.79461019675423","408","24","454","4210504","4098400001","QN35"
"532","478","155-55 CROSSBAY BOULEVARD",,"HOWARD BEACH","Queens","NY","11414",,,,"155-55","CROSSBAY BOULEVARD","40.66437204030979","-73.8411520689931","410","32","884","4442269","4115880075","QN57"
"610","555","2276 3 AVENUE",,"NEW YORK","Manhattan","NY","10035",,,,"2276","3 AVENUE","40.80283819539662","-73.93645727216756","111","8","196","1054439","1017720039","MN34"
"533","479","103-02 101 AVENUE",,"OZONE PARK","Queens","NY","11416",,,,"103-02","101 AVENUE","40.68602644287513","-73.83977719164326","409","28","112","4198392","4094210001","QN54"
"534","480","168-01B HILLSIDE AVENUE",,"JAMAICA","Queens","NY","11432",,,,"168-01B","HILLSIDE AVENUE","40.71031757083077","-73.79475732260394","408","24","454","4210504","4098400001","QN35"
"535","481","89-18 ASTORIA BOULEVARD",,"ELMHURST","Queens","NY","11369",,,,"89-18","ASTORIA BOULEVARD","40.76372696469321","-73.87956999821662","403","22","329","4032388","4013630011","QN28"
"536","482","6823 FIFTH AVENUE",,"BROOKLYN","Brooklyn","NY","11220",,,,"6823","FIFTH AVENUE","40.63395235494323","-74.02079944176603","310","43","130","3145313","3058650001","BK31"
"537","483","183-16 JAMAICA AVENUE",,"HOLLIS","Queens","NY","11423",,,,"183-16","JAMAICA AVENUE","40.70893133554754","-73.77698295395723","412","27","444","4438800","4103520058","QN61"
"538","484","1165 ROCKAWAY AVENUE",,"BROOKLYN","Brooklyn","NY","11236",,,,"1165","ROCKAWAY AVENUE","40.6514413390094","-73.9060770399246","318","42","1098","3083086","3036440200","BK82"
"539","485","525 PARKSIDE AVENUE",,"BROOKLYN","Brooklyn","NY","11226",,,,"525","PARKSIDE AVENUE","40.65593684659445","-73.95551496260363","309","40","802","3115846","3050490001","BK60"
"540","486","38-11 27 STREET",,"QUEENS","Queens","NY","11101",,,,"38-11","27 STREET","40.75515595789052","-73.93524667265349","401","26","31","4004679","4003860007","QN68"
"541","487","220 HENDRIX STREET",,"BROOKLYN","Brooklyn","NY","11207",,,,"220","HENDRIX STREET","40.67706381575267","-73.89050248209647","305","37","1198","3327068","3039470005","BK82"
"542","488","1165 ROCKAWAY AVENUE",,"BROOKLYN","BROOKLYN","NY","11236",,,,"1165","ROCKAWAY AVENUE","40.6514413390094","-73.9060770399246","318","42","1098","3083086","3036440200","BK82"
"543","489","3060 FULTON STREET",,"BROOKLYN","BROOKLYN","NY","11208",,,,"3060","FULTON STREET","40.68082384149212","-73.88185772673738","305","37","1168","3402450","3039580020","BK82"
"544","490","161-10 JAMAICA AVENUE","2ND FLOOR","JAMAICA","QUEENS","NY","11432",,,,"161-10","JAMAICA AVENUE","40.70403301399336","-73.79841220477124","412","27","44601","4440641","4101010015","QN61"
"545","491","630 JACKSON AVENUE",,"BRONX","Bronx","NY","10455",,,,"630","JACKSON AVENUE","40.81542573964057","-73.9082805790403","201","8","73","2004558","2026430001","BX34"
"546","491","630 JACKSON AVENUE",,"BRONX","Bronx","NY","10455","East 152nd Street-Courtlandt Avenue, Moore, Betances, Melrose Houses",,,"630","JACKSON AVENUE","40.81542573964057","-73.9082805790403","201","8","73","2004558","2026430001","BX34"
"547","492","1130 GRAND CONCOURSE",,"BRONX","Bronx","NY","10456",,,,"1130","GRAND CONCOURSE","40.83233066190085","-73.9195896081384","204","16","18102","2002833","2024620042","BX14"
"548","493","1118 GRAND CONCOURSE",,"BRONX","Bronx","NY","10456",,,,"1118","GRAND CONCOURSE","40.83223189762735","-73.91965477267921","204","16","18102","2101266","2024620039","BX14"
"549","494","60 EAST TREMONT AVENUE",,"BRONX","Bronx","NY","10453",,,,"60","EAST TREMONT AVENUE","40.85117556132355","-73.90819152158687","205","14","23301","2007915","2028280020","BX41"
"550","495","2070 GRAND CONCOURSE",,"BRONX","Bronx","NY","10457",,,,"2070","GRAND CONCOURSE","40.85322156304797","-73.90294729262462","205","15","23502","2013631","2031560009","BX41"
"551","496","1477 TOWNSEND AVENUE",,"BRONX","Bronx","NY","10452",,,,"1477","TOWNSEND AVENUE","40.8415034106154","-73.91563912482995","204","14","223","2098821","2028440021","BX63"
"552","497","1130 GRAND CONCOURSE",,"BRONX","Bronx","NY","10456",,,,"1130","GRAND CONCOURSE","40.83233066190085","-73.9195896081384","204","16","18102","2002833","2024620042","BX14"
"553","498","1130 GRAND CONCOURSE",,"BRONX","Bronx","NY","10456",,,,"1130","GRAND CONCOURSE","40.83233066190085","-73.9195896081384","204","16","18102","2002833","2024620042","BX14"
"554","499","1130 GRAND CONCOURSE",,"BRONX","Bronx","NY","10456",,,,"1130","GRAND CONCOURSE","40.83233066190085","-73.9195896081384","204","16","18102","2002833","2024620042","BX14"
"555","500","1537 WASHINGTON AVENUE",,"BRONX","Bronx","NY","10457",,,,"1537","WASHINGTON AVENUE","40.83828764133435","-73.90298714837428","203","16","169","2009466","2029030023","BX01"
"556","501","1595 BATHGATE AVENUE",,"BRONX","Bronx","NY","10457",,,,"1595","BATHGATE AVENUE","40.83924412787782","-73.90131608435738","203","16","167","2009555","2029130001","BX01"
"557","502","286 EAST 156 STREET",,"BRONX","Bronx","NY","10451",,,,"286","EAST 156 STREET","40.82202199406332","-73.92028854748858","201","17","67","2120133","2024130001","BX34"
"558","503","360 EAST 145 STREET",,"BRONX","Bronx","NY","10454",,,,"360","EAST 145 STREET","40.8139830491665","-73.92078226834425","201","8","43","2097038","2023060054","BX39"
"559","504","465 STREET ANNS AVENUE",,"BRONX","Bronx","NY","10455",,,,"465","STREET ANNS AVENUE","40.81248807142765","-73.91435732294298","201","8","43","2093910","2022720119","BX39"
"560","505","500 EAST 165 STREET",,"BRONX","Bronx","NY","10456",,,,"500","EAST 165 STREET","40.82674242497268","-73.90854320584913","203","17","185","2116712","2023697502","BX35"
"561","506","520 EAST 156 STREET",,"BRONX","Bronx","NY","10455",,,,"520","EAST 156 STREET","40.81941057972671","-73.91115458827262","201","17","71","2001152","2023590210","BX34"
"562","507","595 TRINITY AVENUE",,"BRONX","Bronx","NY","10455",,,,"595","TRINITY AVENUE","40.81486953797448","-73.9095168817007","201","17","73","2091317","2026230135","BX34"
"563","508","750 PROSPECT AVENUE",,"BRONX","Bronx","NY","10455",,,,"750","PROSPECT AVENUE","40.81772100596358","-73.90242101226626","202","17","85","2005168","2026880001","BX33"
"564","509","1130 GRAND CONCOURSE",,"BRONX","Bronx","NY","10456",,,,"1130","GRAND CONCOURSE","40.83233066190085","-73.9195896081384","204","16","18102","2002833","2024620042","BX14"
"565","510","200 WEST TREMONT AVENUE",,"BRONX","Bronx","NY","10453",,,,"200","WEST TREMONT AVENUE","40.85198354783427","-73.91680422305657","205","14","20502","2008966","2028770522","BX36"
"566","511","1130 GRAND CONCOURSE",,"BRONX","Bronx","NY","10456",,,,"1130","GRAND CONCOURSE","40.83233066190085","-73.9195896081384","204","16","18102","2002833","2024620042","BX14"
"567","512","1710 WEBSTER AVENUE",,"BRONX","Bronx","NY","10457",,,,"1710","WEBSTER AVENUE","40.84358788558283","-73.90323602974483","203","15","165","2094564","2028980001","BX01"
"568","513","630 JACKSON AVENUE",,"BRONX","Bronx","NY","10455",,,,"630","JACKSON AVENUE","40.81542573964057","-73.9082805790403","201","8","73","2004558","2026430001","BX34"
"569","514","1477 TOWNSEND AVENUE",,"BRONX","Bronx","NY","10452",,,,"1477","TOWNSEND AVENUE","40.8415034106154","-73.91563912482995","204","14","223","2098821","2028440021","BX63"
"570","515","2070 GRAND CONCOURSE",,"BRONX","Bronx","NY","10457",,,,"2070","GRAND CONCOURSE","40.85322156304797","-73.90294729262462","205","15","23502","2013631","2031560009","BX41"
"3500","3293","NO ADDRESS",,"NEW YORK","Manhattan","NY","10003","W 4TH/ W VILLAGE",,,,,,,,,,,,
"571","516","2925 GRAND CONCOURSE",,"BRONX","Bronx","NY","10468",,,,"2925","GRAND CONCOURSE","40.87157062746251","-73.88858040723284","207","11","40701","2017617","2033200028","BX28"
"572","517","630 SOUTHERN BOULEVARD",,"BRONX","Bronx","NY","10455",,,,"630","SOUTHERN BOULEVARD","40.81297976614111","-73.901123823638","202","8","83","2004141","2026030150","BX33"
"573","518","800 BARRETTO STREET",,"BRONX","Bronx","NY","10474",,,,"800","BARRETTO STREET","40.81661456937293","-73.88988269590837","202","17","93","2006002","2027400100","BX27"
"574","519","455 EAST 148 STREET",,"BRONX","Bronx","NY","10455",,,,"455","EAST 148 STREET","40.81467446848671","-73.91653656075259","201","8","43","2116171","2022930058","BX39"
"575","520","2054 MORRIS AVENUE",,"BRONX","Bronx","NY","10453",,,,"2054","MORRIS AVENUE","40.85349248160458","-73.90527842831492","205","14","241","2092406","2031690001","BX41"
"576","521","1650 SELWYN AVENUE",,"BRONX","Bronx","NY","10457",,,,"1650","SELWYN AVENUE","40.84324784511875","-73.91040713674676","204","16","22703","2094530","2028240005","BX41"
"577","522","2058 JEROME AVENUE",,"BRONX","Bronx","NY","10453",,,,"2058","JEROME AVENUE","40.85421845043946","-73.90695828393537","205","14","241","2127653","2031790004","BX41"
"578","523","85 BURNSIDE AVENUE",,"BRONX","Bronx","NY","10453",,,,"85","BURNSIDE AVENUE",,,,,,,,
"579","524","2038-48 JEROME AVENUE",,"BRONX","Bronx","NY","10453",,,,"2038-48","JEROME AVENUE","40.85346420669874","-73.90764253150311","205","14","241","2097273","2028540044","BX41"
"580","525","3444 KOSSUTH AVENUE",,"BRONX","Bronx","NY","10467",,,,"3444","KOSSUTH AVENUE","40.88061566993131","-73.88159311448798","207","11","421","2094749","2033270001","BX43"
"581","526","NO ADDRESS",,"BRONX","Bronx","NY","10453",,"JEROME AVENUE","CLINTON PLACE",,,"40.8564099433665","-73.9050862967008","205","14","239",,,
"582","527","80 EAST 181 STREET",,"BRONX","Bronx","NY","10453",,,,"80","EAST 181 STREET","40.85507528428032","-73.90419894507195","205","14","241","2013953","2031780032","BX41"
"583","528","200 WEST TREMONT AVENUE",,"BRONX","Bronx","NY","10453",,,,"200","WEST TREMONT AVENUE","40.85198354783427","-73.91680422305657","205","14","20502","2008966","2028770522","BX36"
"584","529","515 JACKSON AVENUE",,"BRONX","Bronx","NY","10455",,,,"515","JACKSON AVENUE","40.81235253659876","-73.90940108977529","201","8","35","2091284","2025570083","BX39"
"585","530","236 EAST TREMONT AVENUE",,"BRONX","Bronx","NY","10457",,,,"236","EAST TREMONT AVENUE","40.84893568057659","-73.90456201145379","205","15","23302","2007599","2028040021","BX41"
"586","531","1130 GRAND CONCOURSE","3RD FL, RM 350","BRONX","BRONX","NY","10456-3902",,,,"1130","GRAND CONCOURSE","40.83233066190085","-73.9195896081384","204","16","18102","2002833","2024620042","BX14"
"587","532","2155 BLACKROCK AVENUE",,"BRONX","Bronx","NY","10472",,,,"2155","BLACKROCK AVENUE","40.82886824726105","-73.8517912044293","209","18","78","2119153","2038080038","BX59"
"588","533","890 GARRISON AVENUE",,"BRONX","Bronx","NY","10474",,,,"890","GARRISON AVENUE","40.81728613386831","-73.89183972811696","202","17","93","2005939","2027390015","BX27"
"589","534","2901 WHITE PLAINS ROAD",,"BRONX","Bronx","NY","10467",,,,"2901","WHITE PLAINS ROAD","40.86802390754617","-73.86728342311572","211","15","336","2054713","2045420001","BX07"
"590","535","4377 BRONX BOULEVARD",,"BRONX","Bronx","NY","10466",,,,"4377","BRONX BOULEVARD","40.89917364364275","-73.8582504119544","212","11","418","2097441","2050350034","BX62"
"591","536","80 MAIDEN LANE",,"NEW YORK","Manhattan","NY","10038",,,,"80","MAIDEN LANE","40.70711601124766","-74.00732909279688","101","1","7","1001015","1000420031","MN25"
"592","537","1155 UNIVERSITY AVENUE",,"BRONX","Bronx","NY","10452",,,,"1155","UNIVERSITY AVENUE","40.83713685865353","-73.92822098975947","204","16","193","2095219","2025270032","BX26"
"593","538","1257 OGDEN AVENUE",,"BRONX","Bronx","NY","10452",,,,"1257","OGDEN AVENUE","40.8393776998502","-73.92571406383972","204","16","201","2003519","2025290081","BX26"
"594","539","159-10 HARLEM RIVER DRIVE",,"NEW YORK","Manhattan","NY","10039",,,,"159-10","HARLEM RIVER DRIVE","40.8322006370973","-73.93542825757093","110","9","24302","1084188","1021060320","MN03"
"595","540","185 WADSWORTH AVENUE",,"NEW YORK","Manhattan","NY","10033",,,,"185","WADSWORTH AVENUE","40.85062527465794","-73.93437659014252","112","10","271","1063947","1021650026","MN35"
"596","541","3782 TENTH AVENUE",,"MANHATTAN","Manhattan","NY","10034",,,,"3782","TENTH AVENUE","40.8613652855344","-73.92120665087768","112","10","299","1080033","1022160001","MN01"
"597","542","511 WEST 182 STREET",,"NEW YORK","Manhattan","NY","10033",,,,"511","WEST 182 STREET","40.84890783271685","-73.93094809884894","112","10","269","1063703","1021550035","MN35"
"598","543","125 EAST 105 STREET",,"MANHATTAN","Manhattan","NY","10029",,,,"125","EAST 105 STREET","40.79186756110653","-73.94745009981935","111","8","172","1081384","1016330010","MN33"
"599","544","34 WEST 134 STREET",,"MANHATTAN","Manhattan","NY","10037",,,,"34","WEST 134 STREET","40.81270170242919","-73.93964497052892","110","9","212","1083984","1017300016","MN03"
"600","545","402 EAST 152 STREET",,"BRONX","Bronx","NY","10455",,,,"402","EAST 152 STREET","40.81815202936121","-73.91653581213501","201","17","67","2001346","2023740035","BX34"
"601","546","1257 OGDEN AVENUE",,"BRONX","Bronx","NY","10452",,,,"1257","OGDEN AVENUE","40.8393776998502","-73.92571406383972","204","16","201","2003519","2025290081","BX26"
"602","547","443 WEST 135 STREET",,"NEW YORK","Manhattan","NY","10031",,,,"443","WEST 135 STREET","40.81818801881857","-73.95035573051915","109","9","21703","1059409","1019570078","MN06"
"603","548","515 WEST 182 STREET",,"NEW YORK","Manhattan","NY","10033",,,,"515","WEST 182 STREET","40.84895455537851","-73.93105287168981","112","10","269","1063703","1021550035","MN35"
"604","549","549 AUDUBON AVENUE",,"NEW YORK","Manhattan","NY","10040",,,,"549","AUDUBON AVENUE","40.85595383385726","-73.9270511409141","112","10","277","1076751","1021600018","MN35"
"605","550","549 AUDUBON AVENUE",,"NEW YORK","Manhattan","NY","10040",,,,"549","AUDUBON AVENUE","40.85595383385726","-73.9270511409141","112","10","277","1076751","1021600018","MN35"
"606","551","145 EAST 98 STREET",,"BROOKLYN","Brooklyn","NY","11212",,,,"145","EAST 98 STREET","40.66365340340117","-73.92142577982159","316","41","892","3393311","3035480001","BK81"
"607","552","1875 BROADWAY",,"BROOKLYN","Brooklyn","NY","11207",,,,"1875","BROADWAY","40.68070385585869","-73.90659827037037","304","37","405","3000000","3034680065","BK78"
"608","553","90 BEAVER STREET",,"BROOKLYN","Brooklyn","NY","11206",,,,"90","BEAVER STREET","40.69970444857805","-73.9367142551178","304","34","389","3071799","3031370011","BK78"
"609","554","1475 MYRTLE AVENUE",,"BROOKLYN","Brooklyn","NY","11237",,,,"1475","MYRTLE AVENUE","40.69897267577053","-73.91684009198856","304","37","433","3075697","3033090002","BK77"
"611","556","265 HENRY STREET",,"NEW YORK","Manhattan","NY","10002",,,,"265","HENRY STREET","40.71385634236735","-73.98453231885071","103","1","202","1079627","1002880078","MN28"
"612","557","201 ST ANNS AVENUE",,"BRONX","Bronx","NY","10454","Mill Brook Houses",,,"201","ST ANNS AVENUE","40.80574161231361","-73.91823826364403","201","8","25","2090986","2022630019","BX39"
"613","557","201 ST ANNS AVENUE",,"BRONX","Bronx","NY","10454",,,,"201","ST ANNS AVENUE","40.80574161231361","-73.91823826364403","201","8","25","2090986","2022630019","BX39"
"614","558","337 ALEXANDER AVENUE",,"BRONX","Bronx","NY","10454",,,,"337","ALEXANDER AVENUE","40.8123215737788","-73.92348642578499","201","8","41","2090408","2023150038","BX39"
"615","559","1025 MORRISON AVENUE",,"BRONX","Bronx","NY","10472",,,,"1025","MORRISON AVENUE","40.82540300492964","-73.87366633040435","209","18","48","2087014","2037180001","BX55"
"616","560","201 ST ANNS AVENUE",,"BRONX","Bronx","NY","10454",,,,"201","ST ANNS AVENUE","40.80574161231361","-73.91823826364403","201","8","25","2090986","2022630019","BX39"
"617","561","210 ALEXANDER AVENUE",,"BRONX","Bronx","NY","10454",,,,"210","ALEXANDER AVENUE","40.80917212870469","-73.92577667582755","201","8","23","2091097","2022980040","BX39"
"618","562","2225 WEBSTER AVENUE",,"BRONX","Bronx","NY","10457",,,,"2225","WEBSTER AVENUE","40.85449244100248","-73.896717083859","205","15","379","2013307","2031430043","BX41"
"619","563","340 MORRIS AVENUE",,"BRONX","Bronx","NY","10451",,,,"340","MORRIS AVENUE","40.81371703639823","-73.9252297147797","201","8","51","2091127","2023250001","BX39"
"620","564","4124 9 AVENUE",,"NEW YORK","Manhattan","NY","10034",,,,"4124","9 AVENUE","40.87127759763231","-73.91151556103274","112","10","299","1082045","1022150824","MN01"
"621","565","468 EAST 140 STREET",,"BRONX","Bronx","NY","10454",,,,"468","EAST 140 STREET","40.80953324551901","-73.91990252939155","201","8","39","2000308","2022840034","BX39"
"622","566","650 ACADEMY STREET",,"MANHATTAN","Manhattan","NY","10034",,,,"650","ACADEMY STREET","40.86605290642628","-73.92483463271829","112","10","291","1076776","1022330020","MN01"
"623","567","650 HOLLYWOOD AVENUE",,"BRONX","Bronx","NY","10465",,,,"650","HOLLYWOOD AVENUE","40.82652593953263","-73.8184166079296","210","13","158","2077130","2054380001","BX52"
"624","568","977 FOX STREET",,"BRONX","Bronx","NY","10459",,,,"977","FOX STREET","40.82244263405853","-73.89390164769605","202","17","159","2005660","2027140004","BX27"
"625","569","188 LINCOLN AVENUE",,"BRONX","Bronx","NY","10454",,,,"188","LINCOLN AVENUE","40.80987340102688","-73.92793250065691","201","8","23","2091142","2023110001","BX39"
"626","570","308 EAST 145 STREET",,"BRONX","Bronx","NY","10451",,,,"308","EAST 145 STREET","40.81519716726904","-73.92217893650191","201","8","51","2091115","2023240001","BX39"
"627","571","372 EAST 152 STREET",,"BRONX","Bronx","NY","10455",,,,"372","EAST 152 STREET","40.81851533312634","-73.91792992673089","201","17","67","2090413","2023980014","BX34"
"628","572","337 ALEXANDER AVENUE",,"BRONX","Bronx","NY","10454",,,,"337","ALEXANDER AVENUE","40.8123215737788","-73.92348642578499","201","8","41","2090408","2023150038","BX39"
"629","573","337 ALEXANDER AVENUE",,"BRONX","Bronx","NY","10454",,,,"337","ALEXANDER AVENUE","40.8123215737788","-73.92348642578499","201","8","41","2090408","2023150038","BX39"
"630","574","188 LINCOLN AVENUE",,"BRONX","Bronx","NY","10454",,,,"188","LINCOLN AVENUE","40.80987340102688","-73.92793250065691","201","8","23","2091142","2023110001","BX39"
"631","575","372 EAST 152 STREET",,"BRONX","Bronx","NY","10455",,,,"372","EAST 152 STREET","40.81851533312634","-73.91792992673089","201","17","67","2090413","2023980014","BX34"
"632","576","337 ALEXANDER AVENUE",,"BRONX","Bronx","NY","10454",,,,"337","ALEXANDER AVENUE","40.8123215737788","-73.92348642578499","201","8","41","2090408","2023150038","BX39"
"633","577","414 MORRIS AVENUE",,"BRONX","Bronx","NY","10451",,,,"414","MORRIS AVENUE","40.81552769810628","-73.92392349080407","201","8","51","2097853","2023240001","BX39"
"634","578","375 EAST 143 STREET",,"BRONX","Bronx","NY","10454",,,,"375","EAST 143 STREET","40.81270183776057","-73.92162190739309","201","8","41","2091101","2023060009","BX39"
"635","579","200 ALEXANDER AVENUE",,"BRONX","Bronx","NY","10454",,,,"200","ALEXANDER AVENUE","40.80875238119125","-73.92608058098303","201","8","23","2091097","2022980040","BX39"
"636","580","888 EAST SIXTH STREET",,"NEW YORK","Manhattan","NY","10009","Wald, Riis II Houses",,,"888","EAST SIXTH STREET","40.72217427831269","-73.97614981264657","103","2","20","1078051","1003560001","MN28"
"637","581","265 HENRY STREET",,"NEW YORK","Manhattan","NY","10002",,,,"265","HENRY STREET","40.71385634236735","-73.98453231885071","103","1","202","1079627","1002880078","MN28"
"638","582","166 ESSEX STREET",,"NEW YORK","Manhattan","NY","10002",,,,"166","ESSEX STREET","40.7215391904361","-73.98664820730578","103","1","3001","1004325","1003550001","MN27"
"639","583","220 HENRY STREET",,"NEW YORK","Manhattan","NY","10002",,,,"220","HENRY STREET","40.71368365060411","-73.98633595514849","103","1","201","1003223","1002690041","MN28"
"640","584","350 GRAND STREET",,"MANHATTAN","Manhattan","NY","10002",,,,"350","GRAND STREET","40.71677731317643","-73.98933664432391","103","1","18","1005283","1004080030","MN27"
"641","585","80 AVENUE D",,"NEW YORK","Manhattan","NY","10009",,,,"80","AVENUE D","40.72256417319348","-73.97683152334778","103","2","24","1077552","1003620001","MN28"
"642","586","888 EAST 6 STREET",,"MANHATTAN","Manhattan","NY","10009",,,,"888","EAST 6 STREET","40.72217427831269","-73.97614981264657","103","2","20","1078051","1003560001","MN28"
"643","587","1958 FULTON STREET",,"BROOKLYN","Brooklyn","NY","11233",,,,"1958","FULTON STREET","40.67879287837813","-73.92038403516622","303","41","301","3042090","3015480019","BK79"
"644","588","89-25 PARSONS BOULEVARD",,"QUEENS","Queens","NY","11432",,,,"89-25","PARSONS BOULEVARD","40.70547109946303","-73.80146999300567","412","24","44601","4208858","4097580001","QN61"
"645","589","99 ESSEX STREET",,"NEW YORK","Manhattan","NY","10002",,,,"99","ESSEX STREET","40.71894279848512","-73.98801235377732","103","1","18","1087565","1004100064","MN27"
"646","590","99 ESSEX STREET","3RD FLOOR","NEW YORK","Manhattan","NY","10002",,,,"99","ESSEX STREET","40.71894279848512","-73.98801235377732","103","1","18","1087565","1004100064","MN27"
"647","591","290 EAST THIRD STREET",,"NEW YORK","Manhattan","NY","10009",,,,"290","EAST THIRD STREET","40.72139274705607","-73.97995251301553","103","2","2202","1004358","1003720018","MN28"
"648","592","334 MADISON STREET",,"NEW YORK","Manhattan","NY","10002",,,,"334","MADISON STREET","40.71326603738367","-73.98323748185723","103","2","202","1077526","1002600001","MN28"
"649","593","265 HENRY STREET",,"NEW YORK","Manhattan","NY","10002",,,,"265","HENRY STREET","40.71385634236735","-73.98453231885071","103","1","202","1079627","1002880078","MN28"
"650","594","265 HENRY STREET",,"NEW YORK","Manhattan","NY","10002",,,,"265","HENRY STREET","40.71385634236735","-73.98453231885071","103","1","202","1079627","1002880078","MN28"
"651","595","301 HENRY STREET",,"NEW YORK","Manhattan","NY","10002",,,,"301","HENRY STREET","40.71405371898162","-73.98279720384139","103","1","202","1003737","1002880021","MN28"
"652","596","630 FLUSHING AVENUE",,"BROOKLYN","Brooklyn","NY","11206","Armstrong I and II, Marcy, Lafayette Houses",,,"630","FLUSHING AVENUE","40.6999628214251","-73.94844940068975","303","36","257","3329628","3017200001","BK75"
"653","597","425 NEW LOTS AVENUE",,"BROOKLYN","Brooklyn","NY","11207","Pennsylvania Avenue-Wortman Avenue Houses",,,"425","NEW LOTS AVENUE","40.66236960219798","-73.891910700115","305","42","1128","3085611","3038410038","BK85"
"654","598","1368 FULTON STREET",,"BROOKLYN","Brooklyn","NY","11216",,,,"1368","FULTON STREET","40.68017451630477","-73.9457173974154","303","36","247","3053786","3018620014","BK61"
"655","599","1368 FULTON STREET",,"BROOKLYN","Brooklyn","NY","11216",,,,"1368","FULTON STREET","40.68017451630477","-73.9457173974154","303","36","247","3053786","3018620014","BK61"
"656","600","1368 FULTON STREET",,"BROOKLYN","Brooklyn","NY","11216",,,,"1368","FULTON STREET","40.68017451630477","-73.9457173974154","303","36","247","3053786","3018620014","BK61"
"657","601","1698 BERGEN STREET",,"BROOKLYN","Brooklyn","NY","11213",,,,"1698","BERGEN STREET","40.67478101306851","-73.92598752865774","308","36","307","3035942","3013560124","BK61"
"658","602","630 FLUSHING AVENUE",,"BROOKLYN","Brooklyn","NY","11206",,,,"630","FLUSHING AVENUE","40.6999628214251","-73.94844940068975","303","36","257","3329628","3017200001","BK75"
"659","603","30 BAY STREET",,"STATEN ISLAND","Staten Island","NY","10301","Todt Hill, Mariners Harbor, South Beach, West Brighton I, Stapleton, Richmond Terrace Houses",,,"30","BAY STREET","40.64132361994255","-74.0759355462041","501","49","3","5000028","5000050068","SI22"
"660","604","630 FLUSHING AVENUE",,"BROOKLYN","Brooklyn","NY","11206",,,,"630","FLUSHING AVENUE","40.6999628214251","-73.94844940068975","303","36","257","3329628","3017200001","BK75"
"661","605","2417 THIRD AVENUE",,"BRONX","Bronx","NY","10451",,,,"2417","THIRD AVENUE","40.80849173590881","-73.93066491950142","201","8","51","2000784","2023190100","BX39"
"662","606","335 EAST 111 STREET",,"NEW YORK","Manhattan","NY","10029","Jefferson, Johnson and ClintonHouses",,,"335","EAST 111 STREET","40.79317240026267","-73.93855755656581","111","8","180","1052877","1016830018","MN34"
"663","607","4-25 ASTORIA BOULEVARD",,"ASTORIA","Queens","NY","11102","Astoria Houses",,,"4-25","ASTORIA BOULEVARD","40.77288861908849","-73.93327981400081","401","22","87","4430788","4004900101","QN71"
"664","608","1797 CONEY ISLAND AVENUE",,"BROOKLYN","Brooklyn","NY","11230",,,,"1797","CONEY ISLAND AVENUE","40.61365057202616","-73.96305647038733","314","48","542","3389010","3067490069","BK43"
"665","609","115 WEST 30 STREET",,"NEW YORK","Manhattan","NY","10001",,,,"115","WEST 30 STREET","40.74758178069649","-73.99032419633936","105","3","101","1015161","1008060026","MN17"
"666","610","55 EAST 175 STREET",,"BRONX","Bronx","NY","10453",,,,"55","EAST 175 STREET","40.84725580431135","-73.91129450459356","205","14","22701","2115885","2028500034","BX41"
"667","611","106-16 70 AVENUE",,"FOREST HILLS","Queens","NY","11375",,,,"106-16","70 AVENUE","40.72119650463377","-73.84680322933225","406","29","711","4077482","4032380039","QN17"
"668","612","1150 CARROLL STREET",,"BROOKLYN","Brooklyn","NY","11225",,,,"1150","CARROLL STREET","40.66725224100006","-73.95219471334256","309","35","321","3337869","3012890025","BK63"
"669","613","128 BRIGHTON BEACH AVENUE",,"BROOKLYN","Brooklyn","NY","11235",,,,"128","BRIGHTON BEACH AVENUE","40.57634730138312","-73.96731763895032","313","48","36001","3245027","3086800027","BK19"
"670","614","158-24 73 AVENUE",,"FRESH MEADOWS","Queens","NY","11366",,,,"158-24","73 AVENUE","40.72720024309314","-73.81054415307386","408","24","1257","4147763","4068220036","QN37"
"671","615","176 JAVA STREET",,"BROOKLYN","Brooklyn","NY","11222",,,,"176","JAVA STREET","40.73169169631153","-73.95357731831986","301","33","575","3064615","3025510014","BK76"
"672","616","202 AVENUE C",,"BROOKLYN","Brooklyn","NY","11218",,,,"202","AVENUE C","40.64046269692255","-73.97764193171103","312","39","488","3126001","3053710001","BK41"
"673","617","2075 84 STREET",,"BROOKLYN","Brooklyn","NY","11214",,,,"2075","84 STREET","40.60487033413118","-73.99554517551053","311","47","288","3165232","3063290032","BK28"
"674","618","245 23 STREET",,"BROOKLYN","Brooklyn","NY","11215",,,,"245","23 STREET","40.65994169779464","-73.9940961789881","307","38","145","3017611","3008990001","BK32"
"675","619","2951 WEST 3 STREET",,"BROOKLYN","Brooklyn","NY","11224",,,,"2951","WEST 3 STREET","40.57732002896854","-73.9713129720379","313","48","35602","3196595","3072810001","BK23"
"676","620","345 VAN SICKLEN STREET",,"BROOKLYN","Brooklyn","NY","11223",,,,"345","VAN SICKLEN STREET","40.59569737225473","-73.97517955764664","315","47","398","3192661","3071230066","BK26"
"677","621","420 TARGEE STREET",,"STATEN ISLAND","Staten Island","NY","10304",,,,"420","TARGEE STREET","40.61689426254322","-74.08482261524648","501","49","29","5016344","5006420001","SI37"
"678","622","443 39 STREET",,"BROOKLYN","Brooklyn","NY","11232",,,,"443","39 STREET","40.6520010842805","-74.00511026971611","307","38","84","3396141","3007050059","BK32"
"679","623","6006 23 AVENUE",,"BROOKLYN","Brooklyn","NY","11204",,,,"6006","23 AVENUE","40.61525154565305","-73.97635009955157","312","44","446","3172071","3065490024","BK88"
"680","624","87 35 STREET",,"BROOKLYN","Brooklyn","NY","11232",,,,"87","35 STREET","40.65650245601444","-74.00649819323318","307","38","18","3336900","3006870001","BK32"
"681","625","150 VICTORY BOULEVARD",,"STATEN ISLAND","Staten Island","NY","10301",,,,"150","VICTORY BOULEVARD","40.63694758315564","-74.08119101347353","501","49","17","5161878","5005690103","SI37"
"682","626","156 CANAL STREET",,"STATEN ISLAND","Staten Island","NY","10304",,,,"156","CANAL STREET","40.62604437240975","-74.07854435359926","501","49","27","5113097","5005260053","SI37"
"683","627","230 BROAD STREET",,"STATEN ISLAND","Staten Island","NY","10304",,,,"230","BROAD STREET","40.62375539392745","-74.08221604036346","501","49","29","5154565","5005450100","SI37"
"684","628","350 PORT RICHMOND AVENUE",,"STATEN ISLAND","Staten Island","NY","10302",,,,"350","PORT RICHMOND AVENUE","40.6332252366471","-74.13667391983135","501","49","213","5025698","5010910032","SI28"
"685","629","1797 CONEY ISLAND AVENUE",,"BROOKLYN","Brooklyn","NY","11230",,,,"1797","CONEY ISLAND AVENUE","40.61365057202616","-73.96305647038733","314","48","542","3389010","3067490069","BK43"
"686","630","2800 OCEAN PARKWAY",,"BROOKLYN","Brooklyn","NY","11235",,,,"2800","OCEAN PARKWAY","40.58168045086537","-73.9673078290331","313","47","354","3196293","3072540001","BK23"
"3501","3293","NO ADDRESS",,"NEW YORK","Manhattan","NY","10029",,,,,,,,,,,,,
"687","631","3001 WEST 37 STREET",,"BROOKLYN","Brooklyn","NY","11224",,,,"3001","WEST 37 STREET","40.573176184697","-74.00250892429382","313","47","340","3189617","3070650001","BK21"
"688","632","310 CROWN STREET",,"BROOKLYN","Brooklyn","NY","11225",,,,"310","CROWN STREET","40.66621360745762","-73.94960012715468","309","35","319","3034180","3012970023","BK63"
"689","633","570 CROWN STREET",,"BROOKLYN","Brooklyn","NY","11213",,,,"570","CROWN STREET","40.66565141060411","-73.93923733964486","309","35","333","3393264","3014170007","BK63"
"690","634","3001 WEST 37 STREET",,"BROOKLYN","Brooklyn","NY","11224",,,,"3001","WEST 37 STREET","40.573176184697","-74.00250892429382","313","47","340","3189617","3070650001","BK21"
"691","635","3001 WEST 37 STREET",,"BROOKLYN","Brooklyn","NY","11224",,,,"3001","WEST 37 STREET","40.573176184697","-74.00250892429382","313","47","340","3189617","3070650001","BK21"
"692","636","3024 WEST 24 STREET",,"BROOKLYN","Brooklyn","NY","11224",,,,"3024","WEST 24 STREET","40.57317034154442","-73.99064462886551","313","47","352","3322050","3070700001","BK21"
"693","637","2600 OCEAN AVENUE",,"BROOKLYN","Brooklyn","NY","11229",,,,"2600","OCEAN AVENUE","40.59815725886995","-73.95118550338039","315","48","578","3199766","3073520032","BK44"
"694","638","2298 WEST 8 STREET",,"BROOKLYN","Brooklyn","NY","11223",,,,"2298","WEST 8 STREET","40.59208039032411","-73.97846827140678","313","47","382","3322179","3071400016","BK26"
"695","639","1960 EAST 7 STREET",,"BROOKLYN","Brooklyn","NY","11223",,,,"1960","EAST 7 STREET","40.6030837434159","-73.96508260021258","315","47","418","3178703","3066820045","BK25"
"696","640","3001 WEST 37 STREET",,"BROOKLYN","Brooklyn","NY","11224",,,,"3001","WEST 37 STREET","40.573176184697","-74.00250892429382","313","47","340","3189617","3070650001","BK21"
"697","641","1960 EAST 7 STREET",,"BROOKLYN","Brooklyn","NY","11223",,,,"1960","EAST 7 STREET","40.6030837434159","-73.96508260021258","315","47","418","3178703","3066820045","BK25"
"698","642","25 CHAPEL STREET",,"BROOKLYN","Brooklyn","NY","11201",,,,"25","CHAPEL STREET","40.69725345224851","-73.98601475518967","302","33","13","3335884","3001180006","BK38"
"699","643","PO BOX 1507 CANAL STREET STATION",,"NEW YORK","Manhattan","NY","10013",,,,,,,,,,,,,
"700","644","287 EAST 10 STREET",,"NEW YORK","Manhattan","NY","10009",,,,"287","EAST 10 STREET","40.72804922775408","-73.98268895980785","103","2","34","1005949","1004380032","MN22"
"701","645","432 EAST 149 STREET",,"BRONX","Bronx","NY","10455",,,,"432","EAST 149 STREET","40.81548397463587","-73.91627904299503","201","8","43","2115795","2022930044","BX39"
"702","646","300 WILLOUGHBY AVENUE",,"BROOKLYN","Brooklyn","NY","11205",,,,"300","WILLOUGHBY AVENUE","40.69264120404364","-73.95879361968659","303","33","235","3055165","3019260010","BK69"
"703","647","1491 BROADWAY STREET","3RD FLOOR","BROOILYN","BROOKLYN","NY","11221",,,,"1491","BROADWAY STREET",,,,,,,,
"704","648","400 LIBERTY AVENUE",,"BROOKLYN","BROOKLYN","NY","11207",,,,"400","LIBERTY AVENUE","40.67460601111286","-73.89507415563426","305","37","1144","3083681","3037050016","BK85"
"705","649","240 SECOND AVENUE",,"NEW YORK","Manhattan","NY","10003",,,,"240","SECOND AVENUE","40.73271559186676","-73.98466505358859","106","2","48","1020416","1009210064","MN21"
"706","650","104-60 QUEENS BOULEVARD",,"FOREST HILLS","Queens","NY","11375",,,,"104-60","QUEENS BOULEVARD","40.72348512371875","-73.84848999301076","406","29","71305","4433859","4031750001","QN17"
"707","651","50 BROADWAY",,"NEW YORK","Manhattan","NY","10004",,,,"50","BROADWAY","40.70644855960819","-74.01276086158806","101","1","9","1000813","1000220024","MN25"
"708","652","110 WILLIAM STREET",,"NEW YORK","Manhattan","NY","10038",,,,"110","WILLIAM STREET","40.70879032584719","-74.00718860670976","101","1","1502","1001186","1000770008","MN25"
"709","653","175 REMSEN STREET",,"BROOKLYN","Brooklyn","NY","11201",,,,"175","REMSEN STREET","40.69330702150314","-73.99163387121683","302","33","9","3002095","3002500007","BK09"
"710","654","67-35 112 STREET",,"FOREST HILLS","Queens","NY","11375",,,,"67-35","112 STREET","40.72935375491392","-73.84259914260844","406","29","747","4441126","4022060006","QN17"
"711","655","203-09 HOLLIS AVENUE",,"SAINT ALBANS","Queens","NY","11412",,,,"203-09","HOLLIS AVENUE","40.70660740843338","-73.75449497751165","412","27","508","4233344","4109060032","QN07"
"712","656","67-35 112 STREET",,"FOREST HILLS","Queens","NY","11375",,,,"67-35","112 STREET","40.72935375491392","-73.84259914260844","406","29","747","4441126","4022060006","QN17"
"713","657","203-09 HOLLIS AVENUE",,"HOLLIS","Queens","NY","11412",,,,"203-09","HOLLIS AVENUE","40.70660740843338","-73.75449497751165","412","27","508","4233344","4109060032","QN07"
"714","658","203-09 HOLLIS AVENUE",,"HOLLIS","QUEENS","NY","11412",,,,"203-09","HOLLIS AVENUE","40.70660740843338","-73.75449497751165","412","27","508","4233344","4109060032","QN07"
"715","659","67-35 112TH STREET",,"FOREST HILLS","QUEENS","NY","11375-2349",,,,"67-35","112TH STREET","40.72935375491392","-73.84259914260844","406","29","747","4441126","4022060006","QN17"
"716","660","120 BROADWAY",,"NEW YORK","Manhattan","NY","10271",,,,"120","BROADWAY","40.7085457369004","-74.0110407648935","101","1","7","1001026","1000477501","MN25"
"717","661","305 SEVENTH AVENUE",,"NEW YORK","Manhattan","NY","10001",,,,"305","SEVENTH AVENUE","40.74681622745389","-73.99365540195873","105","3","95","1015060","1008037502","MN17"
"718","662","1014 LAFAYETTE AVENUE",,"BROOKLYN","Brooklyn","NY","11221",,,,"1014","LAFAYETTE AVENUE","40.69212603918344","-73.93173070668082","303","36","291","3393805","3016160001","BK35"
"719","663","1053 41 STREET",,"BROOKLYN","Brooklyn","NY","11219",,,,"1053","41 STREET","40.6428334040819","-73.99294822017883","312","39","110","3328583","3055870038","BK34"
"720","664","110 WEST 9 STREET",,"BROOKLYN","Brooklyn","NY","11231",,,,"110","WEST 9 STREET","40.67602347535852","-74.00231811495435","306","38","85","3339411","3005380001","BK33"
"721","665","120 EAST 184 STREET",,"BRONX","Bronx","NY","10468",,,,"120","EAST 184 STREET","40.85975157833783","-73.90016135346927","205","14","23703","2013899","2031720046","BX40"
"722","666","125 EAST 181 STREET",,"BRONX","Bronx","NY","10453",,,,"125","EAST 181 STREET","40.85487155873557","-73.90345819391148","205","14","23704","2013849","2031700001","BX40"
"723","667","125 EAST 181 STREET",,"BRONX","Bronx","NY","10453",,,,"125","EAST 181 STREET","40.85487155873557","-73.90345819391148","205","14","23704","2013849","2031700001","BX40"
"724","668","1580 DEAN STREET",,"BROOKLYN","Brooklyn","NY","11213",,,,"1580","DEAN STREET","40.67609335720226","-73.93568755876885","308","36","309","3035761","3013470001","BK61"
"725","669","1980 LAFAYETTE AVENUE",,"BRONX","Bronx","NY","10473",,,,"1980","LAFAYETTE AVENUE","40.82228920627148","-73.85616685054431","209","18","16","2022205","2036040039","BX09"
"3502","3293","NO ADDRESS",,"BROOKLYN","Brooklyn","NY","11224",,"W 22ND STREET","SURF AVENUE",,,,,,,,,,
"726","670","2050 PROSPECT AVENUE",,"BRONX","Bronx","NY","10457",,,,"2050","PROSPECT AVENUE","40.84623588612906","-73.88740479535424","206","15","371","2012957","2031090001","BX17"
"727","671","2100 MONTEREY AVENUE",,"BRONX","Bronx","NY","10457",,,,"2100","MONTEREY AVENUE","40.85028974570552","-73.8930981626755","206","15","37504","2011855","2030620021","BX17"
"728","672","2195 ANDREWS AVENUE",,"BRONX","Bronx","NY","10453",,,,"2195","ANDREWS AVENUE","40.8588098077517","-73.90974630644877","207","14","255","2096013","2032240009","BX30"
"729","673","2195 ANDREWS AVENUE",,"BRONX","Bronx","NY","10453",,,,"2195","ANDREWS AVENUE","40.8588098077517","-73.90974630644877","207","14","255","2096013","2032240009","BX30"
"730","674","2195 ANDREWS AVENUE",,"BRONX","Bronx","NY","10453",,,,"2195","ANDREWS AVENUE","40.8588098077517","-73.90974630644877","207","14","255","2096013","2032240009","BX30"
"731","675","2280 AQUEDUCT AVENUE",,"BRONX","Bronx","NY","10468",,,,"2280","AQUEDUCT AVENUE","40.85968552306078","-73.90649513129519","207","14","253","2086823","2032090001","BX30"
"732","676","2502 LORILLARD PLACE",,"BRONX","Bronx","NY","10458",,,,"2502","LORILLARD PLACE","40.85903396529619","-73.88691316822143","206","15","387","2011937","2030670001","BX06"
"733","677","2635 LINDEN BOULEVARD",,"BROOKLYN","Brooklyn","NY","11208",,,,"2635","LINDEN BOULEVARD","40.66883786870483","-73.86718951632119","305","42","1208","3327470","3044640025","BK82"
"734","678","2641 GRAND CONCOURSE",,"BRONX","Bronx","NY","10468",,,,"2641","GRAND CONCOURSE","40.86559298743394","-73.8947583548884","207","14","401","2013830","2031680027","BX05"
"735","679","27 HUNTINGTON STREET",,"BROOKLYN","Brooklyn","NY","11231",,,,"27","HUNTINGTON STREET","40.67756320109076","-74.00516630703756","306","38","59","3008342","3005250001","BK33"
"736","680","27 HUNTINGTON STREET",,"BROOKLYN","Brooklyn","NY","11231",,,,"27","HUNTINGTON STREET","40.67756320109076","-74.00516630703756","306","38","59","3008342","3005250001","BK33"
"737","681","301 VERMONT STREET",,"BROOKLYN","Brooklyn","NY","11207",,,,"301","VERMONT STREET","40.67198641281273","-73.89389585650943","305","42","1144","3083931","3037400001","BK85"
"738","682","317 HOYT STREET",,"BROOKLYN","Brooklyn","NY","11231",,,,"317","HOYT STREET","40.68044504763712","-73.99194915411066","306","39","75","3395587","3004370001","BK33"
"739","683","40 WEST TREMONT AVENUE",,"BRONX","Bronx","NY","10458",,,,"40","WEST TREMONT AVENUE","40.8518229065558","-73.91117997320211","205","14","217","2098721","2028620014","BX36"
"740","684","700 PARK AVENUE",,"BROOKLYN","Brooklyn","NY","11206",,,,"700","PARK AVENUE","40.69778044295668","-73.94780916095127","303","36","257","3048508","3017390011","BK75"
"741","685","71 SULLIVAN STREET",,"BROOKLYN","Brooklyn","NY","11231",,,,"71","SULLIVAN STREET","40.67734315459596","-74.01155835711819","306","38","53","3008585","3005660001","BK33"
"742","686","778 FOREST AVENUE",,"BRONX","Bronx","NY","10456",,,,"778","FOREST AVENUE","40.81887395794012","-73.90592744401033","201","17","77","2004690","2026550030","BX34"
"743","687","876 SCHENK AVENUE",,"BROOKLYN","Brooklyn","NY","11207",,,,"876","SCHENK AVENUE","40.65841277924341","-73.88191543767","305","42","1106","3000000","3043750001","BK82"
"744","688","595 SUTTER AVENUE",,"BROOKLYN","Brooklyn","NY","11207",,,,"595","SUTTER AVENUE","40.66913727720446","-73.8968527084827","305","42","1156","3084058","3037530043","BK85"
"745","689","876 SCHENCK AVENUE",,"BROOKLYN","Brooklyn","NY","11207",,,,"876","SCHENCK AVENUE","40.65841277924341","-73.88191543767","305","42","1106","3000000","3043750001","BK82"
"746","690","55 EAST 110 STREET",,"NEW YORK","Manhattan","NY","10029",,,,"55","EAST 110 STREET","40.79601477417276","-73.94728791329261","111","8","17402","1087365","1016160024","MN33"
"747","691","202 WEST 24 STREET",,"NEW YORK","Manhattan","NY","10011",,,,"202","WEST 24 STREET","40.74493890980344","-73.99560437846685","104","3","91","1087205","1007730134","MN13"
"748","692","441 4 AVENUE",,"BROOKLYN","Brooklyn","NY","11215",,,,"441","4 AVENUE","40.6700804925534","-73.98857628032688","306","39","139","3022246","3010100006","BK37"
"749","693","173 CONOVER STREET",,"BROOKLYN","Brooklyn","NY","11231",,,,"173","CONOVER STREET","40.67796864710002","-74.01436335830496","306","38","53","3398190","3005750003","BK33"
"750","694","685 EAST 187 STREET","ROOM 201","BRONX","Bronx","NY","10458",,,,"685","EAST 187 STREET","40.85441572244093","-73.88524012547774","206","15","389","2012547","2030900032","BX06"
"751","695","2190 UNIVERSITY AVENUE",,"BRONX","Bronx","NY","10453",,,,"2190","UNIVERSITY AVENUE","40.85841933004559","-73.90881776995732","205","14","251","2014582","2032110020","BX36"
"752","696","2471 MORRIS AVENUE",,"BRONX","Bronx","NY","10468",,,,"2471","MORRIS AVENUE","40.86268253215579","-73.89971588962541","207","14","401","2014128","2031890030","BX05"
"753","697","305 SEVENTH AVENUE",,"New York","MANHATTAN","NY","10001",,,,"305","SEVENTH AVENUE","40.74681622745389","-73.99365540195873","105","3","95","1015060","1008037502","MN17"
"754","697","305 Seventh Avenue",,"New York","MANHATTAN","NY","10001",,,,"305","Seventh Avenue","40.74681622745389","-73.99365540195873","105","3","95","1015060","1008037502","MN17"
"755","697","305 Seventh Avenu",,"New York","MANHATTAN","NY","10001",,,,"305","Seventh Avenu","40.74681622745389","-73.99365540195873","105","3","95","1015060","1008037502","MN17"
"756","697","305 7TH AVENUE","9TH FLOOR","NEW YORK","MANHATTAN","NY","10001",,,,"305","7TH AVENUE","40.74681622745389","-73.99365540195873","105","3","95","1015060","1008037502","MN17"
"757","698","479 NEW JERSEY AVENUE",,"BROOKLYN","BROOKLYN","NY","11207",,,,"479","NEW JERSEY AVENUE","40.66746557938428","-73.89369758040424","305","42","1158","3084500","3037900020","BK85"
"758","699","337 EAST 17TH STREET",,"NEW YORK",,,,,,,"337","EAST 17TH STREET",,,,,,,,
"759","699","685 EAST 187TH STREET","RM 206","BRONX",,,,,,,"685","EAST 187TH STREET",,,,,,,,
"760","699","685 EAST 187TH STREET","RM 201","BRONX",,,,,,,"685","EAST 187TH STREET",,,,,,,,
"761","699","2190 UNIVERSITY AVENUE",,"BRONX",,,,,,,"2190","UNIVERSITY AVENUE",,,,,,,,
"762","699","2471 MORRIS AVENUE",,"BRONX",,,,,,,"2471","MORRIS AVENUE",,,,,,,,
"763","699","441 4TH AVENUE",,"BROOKLYN","MANHATTAN","NY","10003",,,,"441","4TH AVENUE",,,,,,,,
"764","699","173 CONOVER STREET",,"BROOKLYN","BRONX","NY","10458",,,,"173","CONOVER STREET",,,,,,,,
"765","699","503 5TH AVENUE","4TH FLOOR","BROOKLYN","BRONX","NY","10458",,,,"503","5TH AVENUE",,,,,,,,
"766","700","75 EAST 116 STREET",,"NEW YORK","Manhattan","NY","10029",,,,"75","EAST 116 STREET","40.79965549501144","-73.94403436374232","111","8","184","1074189","1016220020","MN34"
"767","701","1 PIERREPONT PLAZA",,"BROOKLYN","Brooklyn","NY","11201",,,,"1","PIERREPONT PLAZA","40.6956098336137","-73.99099167606515","302","33","502","3001937","3002390001","BK09"
"768","702","301 WEST 140 STREET",,"NEW YORK","Manhattan","NY","10030",,,,"301","WEST 140 STREET","40.8197662748202","-73.94443293914773","110","9","22102","1060726","1020420035","MN03"
"769","703","530 WEST 133 STREET",,"MANHATTAN","Manhattan","NY","10027",,,,"530","WEST 133 STREET","40.8181265914564","-73.95447804288288","109","7","219","1084130","1019840001","MN06"
"770","704","730 BRYANT AVENUE",,"BRONX","Bronx","NY","10474",,,,"730","BRYANT AVENUE","40.8154550399206","-73.88576973608926","202","17","117","2006566","2027630279","BX27"
"771","705","1946 WEBSTER AVENUE","2ND FLOOR","BRONX","Bronx","NY","10457",,,,"1946","WEBSTER AVENUE","40.84887990185447","-73.90027164892626","206","15","379","2011085","2030270017","BX41"
"772","706","1 SOUTH BROADWAY",,"HASTINGS HUDSON",,"NY","10706",,,,"1","SOUTH BROADWAY",,,,,,,,
"773","706",,"ONE PIERREPOINT PLAZA, SUITE 901","BROOKLYN","BROOKLYN","NY","11201",,,,,,,,,,,,,
"774","707","730 BRYANT AVENUE","RM # 125","BRONX","BRONX","NY","10474",,,,"730","BRYANT AVENUE","40.8154550399206","-73.88576973608926","202","17","117","2006566","2027630279","BX27"
"775","708","450 ST. PAULS PLACE",,"BRONX","BRONX","NY","10456",,,,"450","ST. PAULS PLACE","40.83640371110117","-73.9050136505214","203","16","14702","2009463","2029020001","BX01"
"776","709","1946 WEBSTER AVENUE","2ND FL","BRONX","BRONX","NY","10457-6003",,,,"1946","WEBSTER AVENUE","40.84887990185447","-73.90027164892626","206","15","379","2011085","2030270017","BX41"
"777","710","301 WEST 140TH STREET","ROOM B1","NEW YORK","MANHATTAN","NY","10030",,,,"301","WEST 140TH STREET","40.8197662748202","-73.94443293914773","110","9","22102","1060726","1020420035","MN03"
"778","711","540 ATLANTIC AVENUE",,"BROOKLYN","BROOKLYN","NY","11217",,,,"540","ATLANTIC AVENUE","40.68497243458715","-73.97982284248046","302","33","39","3340500","3001860012","BK38"
"779","712","127 WEST 127TH STREET","# 408","NEW YORK","MANHATTAN","NY","10027",,,,"127","WEST 127TH STREET","40.80948780218755","-73.94549633694241","110","9","224","1057904","1019120012","MN03"
"780","713","274 WEST 145TH STREET",,"NEW YORK","MANHATTAN","NY","10039",,,,"274","WEST 145TH STREET","40.82245441077104","-73.94103439048389","110","9","232","1060443","1020300005","MN03"
"781","714","66 BOERUM PLACE",,"BROOKLYN","Brooklyn","NY","11201",,,,"66","BOERUM PLACE","40.68951913695977","-73.99032180428836","302","33","9","3002801","3002770001","BK09"
"782","715","211 72 STREET",,"BROOKLYN","Brooklyn","NY","11209",,,,"211","72 STREET","40.63401918979162","-74.02903566093231","310","43","68","3146491","3058900001","BK31"
"783","716","280 WYCKOFF STREET",,"BROOKLYN","Brooklyn","NY","11217",,,,"280","WYCKOFF STREET","40.68336464667742","-73.98394086981342","306","33","127","3336056","3003940001","BK38"
"784","717","2947 WEST 28 STREET",,"BROOKLYN","Brooklyn","NY","11224",,,,"2947","WEST 28 STREET","40.57445239395937","-73.99408933657737","313","47","342","3385303","3070530014","BK21"
"785","718","2950 WEST 25 STREET",,"BROOKLYN","Brooklyn","NY","11224",,,,"2950","WEST 25 STREET","40.57441109123107","-73.99194033664521","313","47","342","3189538","3070540045","BK21"
"786","719","7305 FORT HAMILTON PARKWAY",,"BROOKLYN","Brooklyn","NY","11228",,,,"7305","FORT HAMILTON PARKWAY","40.62667955155788","-74.01511965081876","310","43","206","3148031","3059230001","BK30"
"787","720","66 BOERUM PLACE",,"BROOKLYN","BROOKLYN","NY","11201",,,,"66","BOERUM PLACE","40.68951913695977","-73.99032180428836","302","33","9","3002801","3002770001","BK09"
"788","721","120-20 109TH AVENUE",,"JAMAICA","QUEENS","NY","11420",,,,"120-20","109TH AVENUE","40.68256785727776","-73.82104042372437","410","28","166","4249511","4116010009","QN55"
"789","722","167-01 HIGHLAND AVENUE",,"JAMAICA","QUEENS","NY","11432",,,,"167-01","HIGHLAND AVENUE","40.71151161322761","-73.79634076324662","408","24","454","4210685","4098500006","QN35"
"790","723","207 WHEELER AVENUE",,"STATEN ISLAND","STATEN IS","NY","10314",,,,"207","WHEELER AVENUE","40.60683810498904","-74.1308144053094","502","49","18702","5019599","5007650018","SI05"
"791","724","128 FRANKLIN AVENUE",,"STATEN ISLAND","STATEN IS","NY","10301",,,,"128","FRANKLIN AVENUE","40.64242356568887","-74.0919536519204","501","49","81","5148071","5000640135","SI22"
"792","725","12 STEUBEN STREET",,"STATEN ISLAND","MANHATTAN","NY","10204",,,,"12","STEUBEN STREET",,,,,,,,
"793","725","89-31 161ST","6TH FLOOR","JAMAICA","QUEENS","NY","11432",,,,"89-31","161ST",,,,,,,,
"794","726","123 LINDEN BOULEVARD",,"BROOKLYN","BROOKLYN","NY","11226",,,,"123","LINDEN BOULEVARD","40.65241478604589","-73.95422712196176","317","40","822","3116661","3050840084","BK60"
"795","727","8718 BAY PARKWAY","7TH FLOOR","BROOKLYN","BROOKLYN","NY","11214",,,,"8718","BAY PARKWAY","40.59952624289831","-73.99634135859509","311","47","292","3425023","3064140055","BK27"
"796","728","1702 MERMAID AVENUE",,"BROOKLYN","BROOKLYN","NY","11224",,,,"1702","MERMAID AVENUE","40.57659799520616","-73.98493848338171","313","47","326","3189577","3070610009","BK21"
"797","729","2950 WEST 25TH STREET","ROOM 235","BROOKLYN","BROOKLYN","NY","11224",,,,"2950","WEST 25TH STREET","40.57441109123107","-73.99194033664521","313","47","342","3189538","3070540045","BK21"
"798","730","441 WEST 26 STREET",,"NEW YORK","Manhattan","NY","10001",,,,"441","WEST 26 STREET","40.74919608480906","-74.00181538499376","104","3","97","1012827","1007240010","MN13"
"799","731","300 WEST 61 STREET",,"NEW YORK","Manhattan","NY","10023",,,,"300","WEST 61 STREET","40.77288276494084","-73.98960927162828","107","6","151","1088870","1011717510","MN14"
"800","732","430 WEST 25 STREET",,"NEW YORK","Manhattan","NY","10001",,,,"430","WEST 25 STREET","40.74829032040932","-74.00164934326506","104","3","93","1012811","1007220057","MN13"
"801","733","441 WEST 26 STREET",,"MANHATTAN","Manhattan","NY","10001",,,,"441","WEST 26 STREET","40.74919608480906","-74.00181538499376","104","3","97","1012827","1007240010","MN13"
"802","734","441 WEST 26 STREET",,"NEW YORK","Manhattan","NY","10001",,,,"441","WEST 26 STREET","40.74919608480906","-74.00181538499376","104","3","97","1012827","1007240010","MN13"
"803","735","119 NINTH AVENUE",,"NEW YORK","Manhattan","NY","10011",,,,"119","NINTH AVENUE","40.74317131329158","-74.00376035806184","104","3","83","1078418","1007150010","MN13"
"804","736","441 WEST 26 STREET",,"NEW YORK","Manhattan","NY","10001",,,,"441","WEST 26 STREET","40.74919608480906","-74.00181538499376","104","3","97","1012827","1007240010","MN13"
"805","737","410 WEST 40 STREET",,"NEW YORK","Manhattan","NY","10018",,,,"410","WEST 40 STREET","40.75733137269724","-73.99402979422472","104","3","115","1013005","1007370043","MN15"
"806","738","459 WEST 26 STREET",,"NEW YORK","Manhattan","NY","10001",,,,"459","WEST 26 STREET","40.7493799752115","-74.00225209416124","104","3","97","1083583","1007240001","MN13"
"3503","3293","NO ADDRESS",,"BROOKLYN","Brooklyn","NY","11235",,"BRIGHTON 4TH STREET","BRIDEGWATER COURT",,,,,,,,,,
"807","739","858 EAST 29 STREET",,"BROOKLYN","Brooklyn","NY","11210",,,,"858","EAST 29 STREET","40.6298557058199","-73.9484855402803","314","45","774","3206416","3075740070","BK42"
"808","740","NO ADDRESS",,"BRONX","Bronx","NY",,,,,,,,,,,,,,
"809","741","1150 EAST 229 STREET",,"BRONX","Bronx","NY","10466",,,,"1150","EAST 229 STREET","40.88617438601892","-73.84510662944348","212","12","458","2094178","2049050001","BX03"
"810","742","2756 RESERVOIR AVENUE",,"BRONX","Bronx","NY","10468",,,,"2756","RESERVOIR AVENUE","40.86983436279893","-73.89873972117059","207","11","409","2100971","2032470070","BX28"
"811","743","3512 DEKALB AVENUE",,"BRONX","Bronx","NY","10467",,,,"3512","DEKALB AVENUE","40.88272749867554","-73.88005962986186","207","11","431","2094751","2033280138","BX43"
"812","744","3512 DEKALB AVENUE",,"BRONX","Bronx","NY","10467",,,,"3512","DEKALB AVENUE","40.88272749867554","-73.88005962986186","207","11","431","2094751","2033280138","BX43"
"813","745","745 MAGENTA STREET",,"BRONX","Bronx","NY","10467",,,,"745","MAGENTA STREET","40.87494340832505","-73.86502049394926","212","12","374","2093516","2046290050","BX44"
"814","746","1150 EAST 229 STREET",,"BRONX","Bronx","NY","10466",,,,"1150","EAST 229 STREET","40.88617438601892","-73.84510662944348","212","12","458","2094178","2049050001","BX03"
"815","747","5365 BROADWAY",,"BRONX","Bronx","NY","10463",,,,"5365","BROADWAY","40.87606150395635","-73.90788595913352","208","10","309","1082782","1022150623","MN01"
"816","748","800 GUN HILL ROAD",,"BRONX","Bronx","NY","10467",,,,"800","GUN HILL ROAD","40.87595259273056","-73.86197015720069","212","12","372","2057045","2046330040","BX44"
"817","749","1150 EAST 229 STREET",,"BRONX","Bronx","NY","10466",,,,"1150","EAST 229 STREET","40.88617438601892","-73.84510662944348","212","12","458","2094178","2049050001","BX03"
"818","750","3450 DEKALB AVENUE",,"BRONX","Bronx","NY","10467",,,,"3450","DEKALB AVENUE","40.88148536022017","-73.881226319304","207","11","421","2096396","2033270001","BX43"
"819","751","3512 DEKALB AVENUE",,"BRONX","Bronx","NY","10467",,,,"3512","DEKALB AVENUE","40.88272749867554","-73.88005962986186","207","11","431","2094751","2033280138","BX43"
"820","752","3010 BRIGGS AVENUE",,"BRONX","Bronx","NY","10458",,,,"3010","BRIGGS AVENUE","40.87261141449989","-73.88357437250377","207","11","415","2094734","2032990060","BX05"
"821","753","3350 BAILEY AVENUE",,"BRONX","Bronx","NY","10463",,,,"3350","BAILEY AVENUE","40.88009302279556","-73.90074194940367","208","14","277","2086835","2032610102","BX28"
"822","754","3450 DEKALB AVENUE",,"BRONX","Bronx","NY","10467",,,,"3450","DEKALB AVENUE","40.88148536022017","-73.881226319304","207","11","421","2096396","2033270001","BX43"
"823","755","785 PELHAM PARKWAY NORTH",,"BRONX","Bronx","NY","10467",,,,"785","PELHAM PARKWAY NORTH","40.857914816875","-73.8646140214913","211","13","328","2093364","2043490001","BX07"
"824","756","590 AVENUE OF THE AMERICAS",,"NEW YORK","Manhattan","NY","10011",,,,"590","AVENUE OF THE AMERICAS","40.73917767388586","-73.99550010994352","105","3","54","1068261","1008187501","MN13"
"825","757","590 AVENUE OF THE AMERICAS",,"NEW YORK","MANHATTAN","NY","10011",,,,"590","AVENUE OF THE AMERICAS","40.73917767388586","-73.99550010994352","105","3","54","1068261","1008187501","MN13"
"826","758","119 TOMPKINS AVENUE",,"STATEN ISLAND","STATEN IS","NY","10304",,,,"119","TOMPKINS AVENUE","40.62162832976601","-74.07806366411697","501","49","27","5013956","5005340088","SI37"
"827","759","997 EAST 179TH","APT 1N & 3-N","BRONX","BRONX","NY","10460",,,,"997","EAST 179TH",,,,,,,,
"828","759","590 6TH AVENUE/590 AVENUE OF THE AMERICAS",,"NEW YORK","MANHATTAN","NY","10011",,,,"590","6TH AVENUE/590 AVENUE OF THE AMERICAS",,,,,,,,
"829","760","2123 BOSTON RD","APT 2J","BRONX","BRONX","NY","10460",,,,"2123","BOSTON RD","40.84316581738694","-73.87785400273388","206","15","361","2013280","2031380001","BX17"
"830","761","170 BROWN PLACE",,"BRONX","BRONX","NY","10454",,,,"170","BROWN PLACE","40.8063804162005","-73.9211489262667","201","8","25","2000023","2022630001","BX39"
"831","762","180 LIVINGSTON STREET","SUITE 304","BROOKLYN","BROOKLYN","NY","11201",,,,"180","LIVINGSTON STREET","40.6900512766477","-73.98683841418313","302","33","37","3000484","3001647501","BK38"
"832","763","1437 SHAKESPEARE AVENUE",,"BRONX","BRONX","NY","10452",,,,"1437","SHAKESPEARE AVENUE","40.84262141577222","-73.92079153549686","204","16","21302","2008732","2028730054","BX26"
"833","764","2090 ADAM CLAYTON POWELL JR. BLVD.","7TH FL.","NEW YORK","MANHATTAN","NY","10027",,,,"2090","ADAM CLAYTON POWELL JR. BLVD.","40.80863835539116","-73.94858197022523","110","9","222","1058640","1019300030","MN11"
"834","765","3300 NORTHERN BLVD","5TH FLOOR","LONG ISLAND CITY","QUEENS","NY","11101",,,,"3300","NORTHERN BLVD","40.75198611358789","-73.9310990962687","401","26","171","4003105","4002147501","QN31"
"835","766","6025 6 AVENUE",,"BROOKLYN","Brooklyn","NY","11220",,,,"6025","6 AVENUE","40.63796075490321","-74.0141493701331","307","38","118","3143523","3057840001","BK34"
"836","767","809 WESTCHESTER AVENUE",,"BRONX","Bronx","NY","10455",,,,"809","WESTCHESTER AVENUE","40.81914297400803","-73.90266099225938","201","17","77","2004795","2026660041","BX34"
"837","768","108-25 62 DRIVE",,"FOREST HILLS","Queens","NY","11375",,,,"108-25","62 DRIVE","40.73591015812242","-73.85021181482574","406","29","745","4432108","4021590002","QN17"
"838","769","108-25 62 DRIVE",,"FOREST HILLS","Queens","NY","11375",,,,"108-25","62 DRIVE","40.73591015812242","-73.85021181482574","406","29","745","4432108","4021590002","QN17"
"839","770","108-25 62 DRIVE",,"QUEENS","Queens","NY","11375",,,,"108-25","62 DRIVE","40.73591015812242","-73.85021181482574","406","29","745","4432108","4021590002","QN17"
"840","771","148-20 REEVES AVENUE",,"QUEENS","Queens","NY","11367",,,,"148-20","REEVES AVENUE","40.73924614858438","-73.82205737038608","408","24","809","4467571","4065070150","QN37"
"841","772","150-91 87 ROAD",,"QUEENS","Queens","NY","11432",,,,"150-91","87 ROAD","40.70752711687862","-73.80641249295978","408","24","236","4207510","4097070048","QN35"
"842","773","167-01 GOTHIC DRIVE",,"JAMAICA","Queens","NY","11432",,,,"167-01","GOTHIC DRIVE","40.71321769763245","-73.79723734460137","408","24","452","4448806","4098580100","QN35"
"843","774","48-01 90 STREET",,"QUEENS","Queens","NY","11373",,,,"48-01","90 STREET","40.74112152650591","-73.87472109532551","404","25","461","4045629","4018490001","QN29"
"844","775","63-55 102 STREET",,"REGO PARK","Queens","NY","11374",,,,"63-55","102 STREET","40.73228897567385","-73.8538245513497","406","29","721","4442846","4021260014","QN17"
"845","776","67-09 KISSENA BOULEVARD",,"FLUSHING","Queens","NY","11367",,,,"67-09","KISSENA BOULEVARD","40.73503236114717","-73.81472561916819","408","24","122702","4455430","4067920030","QN38"
"885","816","163-59 17 AVENUE",,"LITTLE NECK","Queens","NY","11357",,,,"163-59","17 AVENUE","40.78297597324693","-73.79898205427592","407","19","1017",,,"QN47"
"846","777","68-17 AUSTIN STREET",,"FOREST HILLS","Queens","NY","11375",,,,"68-17","AUSTIN STREET","40.72270704457608","-73.85169899481515","406","29","71305","4075214","4031720002","QN17"
"847","778","68-40 AUSTIN STREET",,"FOREST HILLS","Queens","NY","11375",,,,"68-40","AUSTIN STREET","40.72243991847935","-73.8510141316442","406","29","711","4077446","4032340022","QN17"
"848","779","85-05 144 STREET",,"JAMAICA","Queens","NY","11435",,,,"85-05","144 STREET","40.71002396828418","-73.81250829045754","408","24","232","4208124","4097240173","QN35"
"849","780","85-15 143 STREET",,"JAMAICA","Queens","NY","11435",,,,"85-15","143 STREET","40.70946269988274","-73.81337554248768","408","24","232","4208040","4097230150","QN35"
"850","781","87-41 PARSONS BOULEVARD",,"JAMAICA","Queens","NY","11432",,,,"87-41","PARSONS BOULEVARD","40.70889805828011","-73.803937756015","408","24","448","4438678","4097740001","QN35"
"851","782","88-02 144 STREET",,"JAMAICA","Queens","NY","11435",,,,"88-02","144 STREET","40.70407210374448","-73.81177123388923","412","24","214","4206905","4096840008","QN35"
"852","783","93-11 101 AVENUE",,"OZONE PARK","Queens","NY","11416",,,,"93-11","101 AVENUE","40.68385754434093","-73.8474695095469","409","32","38","4188567","4090670001","QN53"
"853","784","93-11 101 AVENUE",,"OZONE PARK","Queens","NY","11416",,,,"93-11","101 AVENUE","40.68385754434093","-73.8474695095469","409","32","38","4188567","4090670001","QN53"
"854","785","108-25 62 DRIVE",,"FOREST HILLS","Queens","NY","11375",,,,"108-25","62 DRIVE","40.73591015812242","-73.85021181482574","406","29","745","4432108","4021590002","QN17"
"855","786","110-01 62 DRIVE",,"FOREST HILLS","Queens","NY","11375",,,,"110-01","62 DRIVE","40.73637208688829","-73.84873132173665","406","29","745","4432110","4021590002","QN17"
"856","787","93-29 QUEENS BOULEVARD",,"REGO PARK","Queens","NY","11374",,,,"93-29","QUEENS BOULEVARD","40.73146943178345","-73.86604357823555","406","29","71702","4050408","4020770050","QN18"
"857","788","108-25 62 DRIVE",,"FLUSHING","Queens","NY","11375",,,,"108-25","62 DRIVE","40.73591015812242","-73.85021181482574","406","29","745","4432108","4021590002","QN17"
"858","789","67-09 KISSENA BOULEVARD",,"FLUSHING","Queens","NY","11367",,,,"67-09","KISSENA BOULEVARD","40.73503236114717","-73.81472561916819","408","24","122702","4455430","4067920030","QN38"
"859","790","80-02 KEW GARDENS ROAD",,"KEW GARDENS","Queens","NY","11415",,,,"80-02","KEW GARDENS ROAD","40.71368594545455","-73.83050513209646","409","29","773","4312089","4033480037","QN60"
"860","791","108-25 62 DRIVE",,"FOREST HILLS","Queens","NY","11375",,,,"108-25","62 DRIVE","40.73591015812242","-73.85021181482574","406","29","745","4432108","4021590002","QN17"
"861","792","107-20 71 ROAD",,"FOREST HILLS","Queens","NY","11375",,,,"107-20","71 ROAD","40.72006666670352","-73.84346884865374","406","29","737","4533735","4032577501","QN17"
"862","793","108-25 62 DRIVE",,"FOREST HILLS","Queens","NY","11375",,,,"108-25","62 DRIVE","40.73591015812242","-73.85021181482574","406","29","745","4432108","4021590002","QN17"
"863","794","442 LORIMER STREET",,"BROOKLYN","Brooklyn","NY","11206",,,,"442","LORIMER STREET","40.71010484388352","-73.94870847516046","301","34","503","3338218","3027920002","BK90"
"864","795","767 HICKS STREET",,"BROOKLYN","Brooklyn","NY","11231",,,,"767","HICKS STREET","40.67680291844926","-74.00470478284981","306","38","59","3393808","3005350001","BK33"
"865","796","767 HICKS STREET",,"BROOKLYN","Brooklyn","NY","11231",,,,"767","HICKS STREET","40.67680291844926","-74.00470478284981","306","38","59","3393808","3005350001","BK33"
"866","797","767 HICKS STREET",,"BROOKLYN","Brooklyn","NY","11231",,,,"767","HICKS STREET","40.67680291844926","-74.00470478284981","306","38","59","3393808","3005350001","BK33"
"867","798","812 EDGEWATER ROAD",,"BRONX","Bronx","NY","10474",,,,"812","EDGEWATER ROAD","40.81792029244961","-73.88351831459285","202","17","11502","2006493","2027620314","BX27"
"868","799","812 EDGEWATER ROAD",,"BRONX","Bronx","NY","10474",,,,"812","EDGEWATER ROAD","40.81792029244961","-73.88351831459285","202","17","11502","2006493","2027620314","BX27"
"869","800","58-20 LITTLE NECK PARKWAY",,"LITTLE NECK","Queens","NY","11362",,,,"58-20","LITTLE NECK PARKWAY","40.76157704141104","-73.72312171983634","411","23","152902","4173029","4083520051","QN45"
"870","801","131-10 97 AVENUE",,"RICHMOND HILL","Queens","NY","11419",,,,"131-10","97 AVENUE","40.69400386621135","-73.81661745531636","409","28","154","4200233","4094770001","QN54"
"871","802","147-36 26 AVENUE",,"FLUSHING","Queens","NY","11354",,,,"147-36","26 AVENUE","40.77451187739104","-73.81928414931912","407","19","1047","4108665","4048030001","QN51"
"872","803","18-25 212 STREET",,"QUEENS","Queens","NY","11360",,,,"18-25","212 STREET","40.78229730537472","-73.77909876689597","407","19","99704","4131147","4058650050","QN47"
"873","804","18-25 212 STREET",,"BAYSIDE","Queens","NY","11360",,,,"18-25","212 STREET","40.78229730537472","-73.77909876689597","407","19","99704","4131147","4058650050","QN47"
"874","805","189-10 RADNOR ROAD",,"JAMAICA","Queens","NY","11423",,,,"189-10","RADNOR ROAD","40.72447861990739","-73.77745405511985","408","23","1277","4156558","4072770001","QN06"
"875","806","46-35 OCEANIA STREET",,"BAYSIDE","Queens","NY","11361",,,,"46-35","OCEANIA STREET","40.75613870037352","-73.77286166690635","411","19","1447","4438325","4073120001","QN46"
"876","807","64-20 175 STREET",,"FRESH MEADOWS","Queens","NY","11365",,,,"64-20","175 STREET","40.73751689737316","-73.79403122773334","408","24","1341","4149078","4069030001","QN41"
"877","808","74-10 COMMONWEALTH BOULEVARD",,"BELLEROSE","Queens","NY","11426",,,,"74-10","COMMONWEALTH BOULEVARD","40.74623082092649","-73.72761370838836","413","23","1567","4529900","4078700074","QN43"
"878","809","80-50 261 STREET",,"GLEN OAKS","Queens","NY","11004",,,,"80-50","261 STREET","40.74409597302419","-73.70986685716349","413","23","157902","4178125","4087160061","QN44"
"879","810","81-14 257 STREET",,"FLORAL PARK","Queens","NY","11004",,,,"81-14","257 STREET","40.74194360647243","-73.71296531325454","413","23","157902","4178464","4087310004","QN44"
"880","811","58-20 LITTLE NECK PARKWAY",,"LITTLE NECK","Queens","NY","11362",,,,"58-20","LITTLE NECK PARKWAY","40.76157704141104","-73.72312171983634","411","23","152902","4173029","4083520051","QN45"
"881","812","75 COLONIAL SPRING ROAD",,"WHEATLEY HEIGHTS","NOT NYC","NY","11798",,,,"75","COLONIAL SPRING ROAD",,,,,,,,
"882","813","59-28 LITTLE NECK PARKWAY","GROUND FLOOR","LITTLE NECK","Queens","NY","11362",,,,"59-28","LITTLE NECK PARKWAY","40.760588348579","-73.72288036672504","411","23","152902","4173012","4083520001","QN45"
"883","814","58-20 LITTLE NECK PARKWAY",,"LITTLE NECK","Queens","NY","11362",,,,"58-20","LITTLE NECK PARKWAY","40.76157704141104","-73.72312171983634","411","23","152902","4173029","4083520051","QN45"
"884","815","58-20 LITTLE NECK PARKWAY",,"LITTLE NECK","Queens","NY","11362",,,,"58-20","LITTLE NECK PARKWAY","40.76157704141104","-73.72312171983634","411","23","152902","4173029","4083520051","QN45"
"886","817","57-17 MARATHON PARKWAY",,"LITTLE NECK","Queens","NY","11362",,,,"57-17","MARATHON PARKWAY","40.75941977964457","-73.73128496968177","411","23","152902","4459800","4083370001","QN45"
"887","818","305 SEVENTH AVENUE",,"NEW YORK","Manhattan","NY","10001",,,,"305","SEVENTH AVENUE","40.74681622745389","-73.99365540195873","105","3","95","1015060","1008037502","MN17"
"888","819","126-10 BEDELL STREET",,"QUEENS","Queens","NY","11434",,,,"126-10","BEDELL STREET","40.68030931777953","-73.77443230945063","412","28","33402","4270045","4124950065","QN02"
"889","820","26-01 MOTT AVENUE",,"FAR ROCKAWAY","Queens","NY","11691",,,,"26-01","MOTT AVENUE","40.60846648126228","-73.7645475792184","414","31","100801","4442313","4156930001","QN15"
"890","821","420 BEACH 51 STREET",,"FAR ROCKAWAY","Queens","NY","11691",,,,"420","BEACH 51 STREET","40.59577850061057","-73.78187632722901","414","31","97203","4302397","4159740003","QN12"
"891","822","509 WEST 129 STREET",,"NEW YORK","Manhattan","NY","10027",,,,"509","WEST 129 STREET","40.81525594584078","-73.95532537782422","109","7","219","1059723","1019840033","MN06"
"892","823","6 EDGECOMBE AVENUE",,"NEW YORK","Manhattan","NY","10030",,,,"6","EDGECOMBE AVENUE","40.81737166842871","-73.94771176023305","110","9","22102","1059460","1019600001","MN03"
"893","824","6 EDGECOMBE AVENUE",,"MANHATTAN","Manhattan","NY","10030",,,,"6","EDGECOMBE AVENUE","40.81737166842871","-73.94771176023305","110","9","22102","1059460","1019600001","MN03"
"894","825","681 KELLY STREET",,"BRONX","Bronx","NY","10455",,,,"681","KELLY STREET","40.81542892462502","-73.9021389689345","202","17","83","2005133","2026860020","BX33"
"895","826","8-21 BAY 25 STREET",,"FAR ROCKAWAY","Queens","NY","11691",,,,"8-21","BAY 25 STREET","40.60200983870681","-73.76279497085642","414","31","100802","4300730","4157360001","QN15"
"896","827","984 FAILE STREET",,"BRONX","Bronx","NY","10459",,,,"984","FAILE STREET","40.82271839950219","-73.88943540943743","202","17","119","2006079","2027470001","BX27"
"897","828","16-00 CENTRAL AVENUE",,"FAR ROCKAWAY","Queens","NY","11691",,,,"16-00","CENTRAL AVENUE","40.60518192435734","-73.75196166230351","414","31","103202","4297967","4155370147","QN15"
"898","829","89-74 162 STREET",,"QUEENS","Queens","NY","11432",,,,"89-74","162 STREET","40.70507835576045","-73.79817460579028","412","24","44601","4208875","4097607501","QN61"
"899","830","16-00 CENTRAL AVENUE",,"FAR ROCKAWAY","Queens","NY","11691",,,,"16-00","CENTRAL AVENUE","40.60518192435734","-73.75196166230351","414","31","103202","4297967","4155370147","QN15"
"900","830","1600 CENTRAL AVENUE",,"RAR ROCKAWAY","QUEENS","NY","11691",,,,"1600","CENTRAL AVENUE","40.60518192435734","-73.75196166230351","414","31","103202","4297967","4155370147","QN15"
"901","831","89-74 162 STREET","3RD FLOOR","JAMAICA","Queens","NY","11432",,,,"89-74","162 STREET","40.70507835576045","-73.79817460579028","412","24","44601","4208875","4097607501","QN61"
"902","832","107-14 LIBERTY AVENUE","2ND FLOOR","OZONE PARK","Queens","NY","11417",,,,"107-14","LIBERTY AVENUE","40.68347412679385","-73.83419469913926","410","32","96","4202229","4095300005","QN55"
"903","833","528 EAST 146 STREET",,"BRONX","Bronx","NY","10455",,,,"528","EAST 146 STREET","40.81272763022425","-73.91539743258872","201","8","43","2093913","2022720038","BX39"
"904","834","292 FROST STREET",,"BROOKLYN","Brooklyn","NY","11222",,,,"292","FROST STREET","40.71889465889346","-73.93963251813108","301","34","449","3327829","3028670001","BK90"
"905","835","2289 FIFTH AVENUE",,"NEW YORK","Manhattan","NY","10039",,,,"2289","FIFTH AVENUE","40.81494492573094","-73.93601219099783","111","9","210","1054344","1017630001","MN34"
"906","836","500 BERGEN AVENUE",,"BRONX","Bronx","NY","10455",,,,"500","BERGEN AVENUE","40.8148760496286","-73.91823426694678","201","8","43","2112706","2022920013","BX39"
"907","837","669 LENOX AVENUE",,"NEW YORK","Manhattan","NY","10037",,,,"669","LENOX AVENUE","40.81938917820278","-73.93701231028287","110","9","232","1085366","1020120025","MN03"
"908","838","565 MORRIS AVENUE",,"BRONX","Bronx","NY","10451",,,,"565","MORRIS AVENUE","40.81807382211569","-73.92245737504025","201","17","65","2128547","2023380003","BX34"
"909","839","111-12 NORTHERN BOULEVARD",,"QUEENS","Queens","NY","11368",,,,"111-12","NORTHERN BOULEVARD","40.75793065106144","-73.85837051182506","403","21","381","4042862","4017260005","QN26"
"910","840","494 MARCY AVENUE",,"BROOKLYN","Brooklyn","NY","11206",,,,"494","MARCY AVENUE","40.69808323389366","-73.94975635234788","303","36","255","3325586","3017190001","BK75"
"911","841","2967 FREDERICK DOUGLASS BOULEVARD",,"NEW YORK","Manhattan","NY","10039",,,,"2967","FREDERICK DOUGLASS BOULEVARD","40.83028265927305","-73.93646719761502","110","9","24302","1084520","1021060003","MN03"
"912","842","464 EAST TENTH STREET",,"NEW YORK","Manhattan","NY","10009",,,,"464","EAST TENTH STREET","40.72460029961449","-73.97453987301327","103","2","24","1077538","1003620010","MN28"
"913","843","110 TAYLOR STREET",,"BROOKLYN","Brooklyn","NY","11211",,,,"110","TAYLOR STREET","40.70542253342052","-73.96383516310183","301","33","545","3341989","3021760001","BK72"
"914","844","305 7th  Avenue",,"New York","MANHATTAN","NY","10001",,,,"305","7th Avenue","40.74681622745389","-73.99365540195873","105","3","95","1015060","1008037502","MN17"
"915","844","305 SEVENTH AVENUE","4TH FLOOR","NEW YORK","MANHATTAN","NY","10001",,,,"305","SEVENTH AVENUE","40.74681622745389","-73.99365540195873","105","3","95","1015060","1008037502","MN17"
"916","845","658 EAST 234TH STREET",,"BRONX","BRONX","NY","10466",,,,"658","EAST 234TH STREET","40.89462865789405","-73.85842286989026","212","11","420","2068063","2049940066","BX44"
"917","846","50 CLIFFORD PLACE",,"BRONX","BRONX","NY","10453",,,,"50","CLIFFORD PLACE","40.84615308321723","-73.9121453538219","205","14","22701","2008164","2028480054","BX41"
"918","847","3030 BRUNER AVENUE",,"BRONX","BRONX","NY","10469",,,,"3030","BRUNER AVENUE","40.87178202777031","-73.8377133541036","212","12","46202","2062189","2047760065","BX13"
"919","848","500 BERGEN AVENUE",,"BRONX","BRONX","NY","10456",,,,"500","BERGEN AVENUE","40.8148760496286","-73.91823426694678","201","8","43","2112706","2022920013","BX39"
"920","849","89-74 162ND STREET","3RD FLOOR","JAMAICA","QUEENS","NY","11432",,,,"89-74","162ND STREET","40.70507835576045","-73.79817460579028","412","24","44601","4208875","4097607501","QN61"
"921","850","107-14 LIBERTY AVENUE","2ND FLOOR","OZONE PARK","QUEENS","NY","11417",,,,"107-14","LIBERTY AVENUE","40.68347412679385","-73.83419469913926","410","32","96","4202229","4095300005","QN55"
"922","851","555 BERGEN AVENUE",,"BRONX","Bronx","NY","10455",,,,"555","BERGEN AVENUE","40.81595886604185","-73.91635431306804","201","17","71","2097027","2022940002","BX34"
"923","852","1792 1 AVENUE",,"NEW YORK","Manhattan","NY","10128",,,,"1792","1 AVENUE","40.78114882045254","-73.94624170338527","108","5","152","1076333","1015730020","MN32"
"924","853","1700 THIRD AVENUE",,"NEW YORK","Manhattan","NY","10128",,,,"1700","THIRD AVENUE","40.78482554289895","-73.94961145292788","108","5","15801","1048492","1015240023","MN40"
"925","854","1833 LEXINGTON AVENUE",,"MANHATTAN","Manhattan","NY","10029",,,,"1833","LEXINGTON AVENUE","40.79689372901244","-73.94287371753346","111","8","182","1082335","1016400021","MN34"
"926","855","410 EAST 100 STREET",,"NEW YORK","Manhattan","NY","10029",,,,"410","EAST 100 STREET","40.78567036061745","-73.94254751545502","111","8","162","1052998","1016930001","MN33"
"927","856","415 EAST 93 STREET",,"NEW YORK","Manhattan","NY","10128",,,,"415","EAST 93 STREET","40.78090400630853","-73.9451117097979","108","5","152","1082367","1015730001","MN32"
"928","857","555 EAST 90 STREET",,"NEW YORK","Manhattan","NY","10128",,,,"555","EAST 90 STREET","40.77796111162347","-73.94399482630716","108","5","152","1051374","1015870001","MN32"
"929","858","415 EAST 93 STREET",,"MANHATTAN","Manhattan","NY","10128",,,,"415","EAST 93 STREET","40.78090400630853","-73.9451117097979","108","5","152","1082367","1015730001","MN32"
"930","859","415 EAST 93 STREET",,"NEW YORK","Manhattan","NY","10128",,,,"415","EAST 93 STREET","40.78090400630853","-73.9451117097979","108","5","152","1082367","1015730001","MN32"
"931","860","415 EAST 93 STREET",,"NEW YORK","Manhattan","NY","10128",,,,"415","EAST 93 STREET","40.78090400630853","-73.9451117097979","108","5","152","1082367","1015730001","MN32"
"932","861","415 EAST 93 STREET",,"NEW YORK","Manhattan","NY","10128",,,,"415","EAST 93 STREET","40.78090400630853","-73.9451117097979","108","5","152","1082367","1015730001","MN32"
"933","862","240 EAST 123 STREET",,"NEW YORK","Manhattan","NY","10035",,,,"240","EAST 123 STREET","40.80164618123167","-73.93501723799291","111","8","194","1054629","1017870080","MN34"
"934","863","43-31 39 STREET",,"SUNNYSIDE","Queens","NY","11104",,,,"43-31","39 STREET","40.74518963804297","-73.92590931000171","402","26","179","4436677","4001910005","QN31"
"935","864","39-20 48 AVENUE",,"LONG ISLAND CITY","Queens","NY","11104",,,,"39-20","48 AVENUE","40.7400873408723","-73.92621449957186","402","26","189","4002915","4002060003","QN31"
"936","865","40-01 43 AVENUE",,"SUNNYSIDE","Queens","NY","11104",,,,"40-01","43 AVENUE","40.74553682931912","-73.92377605311836","402","26","18101","4002387","4001850001","QN31"
"937","866","43-31 39 STREET",,"SUNNYSIDE","Queens","NY","11104",,,,"43-31","39 STREET","40.74518963804297","-73.92590931000171","402","26","179","4436677","4001910005","QN31"
"938","867","45-45 42 STREET",,"QUEENS","Queens","NY","11104",,,,"45-45","42 STREET","40.74257171584992","-73.92260299038753","402","26","18102","4540402","4001690006","QN31"
"939","868","50-19 BROADWAY",,"QUEENS","Queens","NY","11377",,,,"50-19","BROADWAY","40.75497193464194","-73.91046811700716","401","26","163","4431001","4007380050","QN70"
"940","869","50-40 JACOBUS STREET",,"ELMHURST","Queens","NY","11373",,,,"50-40","JACOBUS STREET","40.73771743044541","-73.88742940475804","404","25","489","4454423","4024500017","QN50"
"941","870","79-00 QUEENS BOULEVARD",,"QUEENS","Queens","NY","11373",,,,"79-00","QUEENS BOULEVARD","40.73814564282162","-73.88468620625906","404","25","479","4056461","4024530040","QN50"
"942","871","43-31 39 STREET",,"LONG ISLAND CITY","Queens","NY","11104",,,,"43-31","39 STREET","40.74518963804297","-73.92590931000171","402","26","179","4436677","4001910005","QN31"
"943","872","45-45 42 STREET",,"QUEENS","Queens","NY","11104",,,,"45-45","42 STREET","40.74257171584992","-73.92260299038753","402","26","18102","4540402","4001690006","QN31"
"944","873","43-31 39 STREET",,"SUNNYSIDE","Queens","NY","11104",,,,"43-31","39 STREET","40.74518963804297","-73.92590931000171","402","26","179","4436677","4001910005","QN31"
"945","874","43-31 39 STREET",,"LONG ISLAND CITY","Queens","NY","11104",,,,"43-31","39 STREET","40.74518963804297","-73.92590931000171","402","26","179","4436677","4001910005","QN31"
"946","875","43-11 39 STREET",,"SUNNYSIDE","Queens","NY","11104",,,,"43-11","39 STREET","40.74541467723337","-73.92586214388137","402","26","179","4000000","4001910020","QN31"
"947","876","711 THIRD AVENUE",,"NEW YORK","Manhattan","NY","10017",,,,"711","THIRD AVENUE","40.75237415898349","-73.9732660072224","106","4","90","1037568","1013180001","MN19"
"948","876","711 THIRD AVENUE","SUITE 700","NEW YORK","Manhattan","NY","10017",,,,"711","THIRD AVENUE","40.75237415898349","-73.9732660072224","106","4","90","1037568","1013180001","MN19"
"949","877","105 EAST 22 STREET",,"NEW YORK","Manhattan","NY","10010",,,,"105","EAST 22 STREET","40.73926476887455","-73.98621523452363","105","2","68","1018010","1008780001","MN21"
"950","878","1522 SOUTHERN BOULEVARD",,"BRONX","Bronx","NY","10460",,,,"1522","SOUTHERN BOULEVARD","40.83431769089024","-73.88956068289208","203","17","157","2010589","2029820001","BX75"
"951","879","105 HAMILTON AVENUE",,"STATEN ISLAND","Staten Island","NY","10301",,,,"105","HAMILTON AVENUE","40.64473452156784","-74.08122210964471","501","49","7","5106483","5000220001","SI22"
"952","880","130 EAST 101 STREET",,"NEW YORK","Manhattan","NY","10029",,,,"130","EAST 101 STREET","40.78930752233542","-73.94922526401692","111","8","166","1051816","1016280062","MN33"
"953","881","14-32 WEST 118 STREET",,"NEW YORK","Manhattan","NY","10026",,,,"14-32","WEST 118 STREET","40.8022777670918","-73.94625714735457","110","9","190","1051435","1016010018","MN11"
"954","882","1550 CROTONA PARK EAST",,"BRONX","Bronx","NY","10460",,,,"1550","CROTONA PARK EAST","40.83657417216315","-73.89281663718467","203","17","153","2009865","2029390045","BX75"
"955","883","1550 VYSE AVENUE",,"BRONX","Bronx","NY","10460",,,,"1550","VYSE AVENUE","40.83415651748769","-73.88751196724176","203","17","157","2010786","2029960010","BX75"
"956","884","1732 MADISON AVENUE",,"NEW YORK","Manhattan","NY","10029",,,,"1732","MADISON AVENUE","40.79884385057731","-73.9456964776833","111","9","184","1080505","1016180001","MN34"
"957","885","1919 PROSPECT AVENUE",,"BRONX","Bronx","NY","10457",,,,"1919","PROSPECT AVENUE","40.84354559693942","-73.88975498870984","206","17","36901","2094582","2029510032","BX17"
"958","886","1919 PROSPECT AVENUE",,"BRONX","Bronx","NY","10457",,,,"1919","PROSPECT AVENUE","40.84354559693942","-73.88975498870984","206","17","36901","2094582","2029510032","BX17"
"959","887","21 JUMEL PLACE",,"NEW YORK","Manhattan","NY","10032",,,,"21","JUMEL PLACE","40.83930435724366","-73.93615861958399","112","10","249","1076741","1021120058","MN36"
"960","888","21 JUMEL PLACE",,"NEW YORK","Manhattan","NY","10032",,,,"21","JUMEL PLACE","40.83930435724366","-73.93615861958399","112","10","249","1076741","1021120058","MN36"
"961","889","240 WEST 113 STREET",,"NEW YORK","Manhattan","NY","10026",,,,"240","WEST 113 STREET","40.80168861480778","-73.95490827194348","110","9","216","1055111","1018280015","MN11"
"962","890","240 WEST 113 STREET",,"MANHATTAN","Manhattan","NY","10026",,,,"240","WEST 113 STREET","40.80168861480778","-73.95490827194348","110","9","216","1055111","1018280015","MN11"
"963","891","304 PROSPECT AVENUE",,"STATEN ISLAND","Staten Island","NY","10301",,,,"304","PROSPECT AVENUE","40.63896052088238","-74.09755178608843","501","49","67","5113051","5001000030","SI35"
"964","892","3630 THIRD AVENUE",,"BRONX","Bronx","NY","10456",,,,"3630","THIRD AVENUE","40.83351035146972","-73.90449018236089","203","16","14701","2009611","2029250001","BX01"
"965","893","3703 10 AVENUE",,"NEW YORK","Manhattan","NY","10034",,,,"3703","10 AVENUE","40.85898951511131","-73.9228940903907","112","10","299","1084201","1021500030","MN01"
"966","894","433 EAST 100 STREET",,"NEW YORK","Manhattan","NY","10029",,,,"433","EAST 100 STREET","40.7852581367462","-73.941525938106","111","8","162","1083933","1016940001","MN33"
"967","895","445 CASTLETON AVENUE",,"STATEN ISLAND","Staten Island","NY","10301",,,,"445","CASTLETON AVENUE","40.63400868943654","-74.09782557277855","501","49","67","5002227","5001000100","SI35"
"968","896","4600 BROADWAY",,"NEW YORK","Manhattan","NY","10040",,,,"4600","BROADWAY","40.86078948481889","-73.93067185465743","112","10","285","1076756","1021720016","MN35"
"969","897","4600 BROADWAY",,"NEW YORK","Manhattan","NY","10040",,,,"4600","BROADWAY","40.86078948481889","-73.93067185465743","112","10","285","1076756","1021720016","MN35"
"970","898","4600 BROADWAY",,"MANHATTAN","Manhattan","NY","10040",,,,"4600","BROADWAY","40.86078948481889","-73.93067185465743","112","10","285","1076756","1021720016","MN35"
"971","899","465 WEST 167 STREET",,"NEW YORK","Manhattan","NY","10032",,,,"465","WEST 167 STREET","40.83895340861592","-73.93683838564696","112","10","249","1081842","1021120001","MN36"
"972","900","885 COLUMBUS AVENUE",,"NEW YORK","Manhattan","NY","10025",,,,"885","COLUMBUS AVENUE","40.79776134564607","-73.96394391563844","107","7","189","1081301","1018360001","MN12"
"973","901","93 NAGLE AVENUE",,"NEW YORK","Manhattan","NY","10040",,,,"93","NAGLE AVENUE","40.86041178431615","-73.92793557843983","112","10","283","1064149","1021730001","MN35"
"974","902","216 FORT WASHINGTON AVENUE",,"MANHATTAN","Manhattan","NY","10032",,,,"216","FORT WASHINGTON AVENUE","40.84257095039941","-73.94209719991717","112","10","251","1063381","1021380079","MN36"
"975","903","219 WEST 135 STREET",,"MANHATTAN","Manhattan","NY","10030",,,,"219","WEST 135 STREET","40.81567120867049","-73.94454835269863","110","9","228","1058883","1019410020","MN03"
"976","904","1919 PROSPECT AVENUE",,"BRONX","Bronx","NY","10457",,,,"1919","PROSPECT AVENUE","40.84354559693942","-73.88975498870984","206","17","36901","2094582","2029510032","BX17"
"977","905","4600 BROADWAY",,"NEW YORK","Manhattan","NY","10040",,,,"4600","BROADWAY","40.86078948481889","-73.93067185465743","112","10","285","1076756","1021720016","MN35"
"978","906","4600 BROADWAY",,"NEW YORK","Manhattan","NY","10040",,,,"4600","BROADWAY","40.86078948481889","-73.93067185465743","112","10","285","1076756","1021720016","MN35"
"979","907","4 WEST 125 STREET","4TH FLOOR","NEW YORK","Manhattan","NY","10027",,,,"4","WEST 125 STREET","40.80653030625218","-73.94255479545609","110","9","200","1053467","1017220040","MN11"
"980","908","219 WEST 135 STREET","BASEMENT","NEW YORK","Manhattan","NY","10030",,,,"219","WEST 135 STREET","40.81567120867049","-73.94454835269863","110","9","228","1058883","1019410020","MN03"
"981","909","369 EAST 148 STREET","2ND FLOOR","BRONX","Bronx","NY","10455",,,,"369","EAST 148 STREET","40.81573318821559","-73.91934954593506","201","17","65","2097041","2023270072","BX34"
"982","910","465 VILLA AVENUE",,"STATEN ISLAND","Staten Island","NY","10302",,,,"465","VILLA AVENUE","40.62904796748255","-74.14318971460979","501","49","247","5107099","5011320046","SI28"
"983","911","1515 SOUTHERN BOULEVARD",,"BRONX","Bronx","NY","10460",,,,"1515","SOUTHERN BOULEVARD","40.8337334235957","-73.88993386423704","203","17","155","2113511","2029770110","BX75"
"984","912","3703 10 AVENUE",,"NEW YORK","Manhattan","NY","10034",,,,"3703","10 AVENUE","40.85898951511131","-73.9228940903907","112","10","299","1084201","1021500030","MN01"
"985","913","1919 PROSPECT AVENUE",,"BRONX","Bronx","NY","10457",,,,"1919","PROSPECT AVENUE","40.84354559693942","-73.88975498870984","206","17","36901","2094582","2029510032","BX17"
"986","914","159 BROADWAY",,"STATEN ISLAND","Staten Island","NY","10310",,,,"159","BROADWAY","40.63753095047736","-74.11759362245294","501","49","105","5004830","5001740006","SI35"
"987","915","1550 CROTONA PARK EAST",,"BRONX","Bronx","NY","10460",,,,"1550","CROTONA PARK EAST","40.83657417216315","-73.89281663718467","203","17","153","2009865","2029390045","BX75"
"988","916","2672 EIGHTH AVENUE",,"NEW YORK","Manhattan","NY","10030",,,,"2672","EIGHTH AVENUE","40.82098710396799","-73.94326130461029","110","9","232","1060427","1020280001","MN03"
"989","917","14-32 WEST 118 STREET",,"NEW YORK","Manhattan","NY","10026",,,,"14-32","WEST 118 STREET","40.8022777670918","-73.94625714735457","110","9","190","1051435","1016010018","MN11"
"990","918","130 EAST 101 STREET",,"NEW YORK","Manhattan","NY","10029",,,,"130","EAST 101 STREET","40.78930752233542","-73.94922526401692","111","8","166","1051816","1016280062","MN33"
"991","919","885 COLUMBUS AVENUE",,"NEW YORK","Manhattan","NY","10025",,,,"885","COLUMBUS AVENUE","40.79776134564607","-73.96394391563844","107","7","189","1081301","1018360001","MN12"
"992","920","93 NAGLE AVENUE",,"NEW YORK","Manhattan","NY","10040",,,,"93","NAGLE AVENUE","40.86041178431615","-73.92793557843983","112","10","283","1064149","1021730001","MN35"
