"type_of_business","business_type_other","company_name","company_description","street_address","apt_number","borough","postal_code","business_phone","contact_name","contact_title","contact_phone","contact_fax","location_1","latitude","longitude","community_board","community_council","census_tract","bin","bbl","nta"
"Advertising",,"Latinvox","We are a 100+ minority-owned Hispanic business and advertising communications agency helping clients communicate effectively with the U.S. Hispanic markets in a fully integrated fashion.","28 West 25th Street","6th Floor","Manhattan","10010","(212)633-0440","Roberto Ramos","President/CEO","(212)633-0440","(212)633-0434","28 25th Street
Manhattan, NY 10010
(40.741935692384, -73.986622259818)","40.743416","-73.990083","5","3","58","1080687","1008260057","Hudson Yards-Chelsea-Flatiron-Union Square                                 "
"Dance Company",,"Ballet Hispanico","Ballet Hispanico explores, preserves, and celebrates Latino cultures through dance. The mission unfolds in the work of the professional Company, the School of Dance, and the Education and Outreach programs. Together, these divisions celebrate the dynamic aesthetics of the Hispanic Diaspora, building new avenues of cultural dialogue and sharing the joy of dance with all communities.","167 West 89th Street",,"New York","10024","212-362-6710","Anne Johnson","Marketing Manager","212-362-6710","646-492-5988","167 89th Street
New York, NY 10024
(40.789265783498, -73.972795694122)","40.78917","-73.972525","7","6","173","1081050","1012200107","Upper West Side                                                            "
"Production Company",,"Nuyorktricity","Nuyorktricity (a.k.a. NY3) is a full service one-stop shop for all your video, graphic, and music productions.  Services include the production, direction, and editing of affordable live event coverage, promos, music videos, E.P.K.'s, television commercials, photography, feature films, and web design.","325 3rd Avenue","Suite 42","Manhattan","10010","212-213-9890","Michael Vargas","CEO, Director of Production","917-496-4813","212-213-9890","325 3rd Avenue
Manhattan, NY 10010
(40.739731126124, -73.982490385597)","40.739682","-73.98252","6","2","66","1019784","1009050003","Murray Hill-Kips Bay                                                       "
"Production Company",,"rhinoedit","rhinoedit and rhinofx are committed to providing the advertising, broadcast television and feature film industries with the best in post-production services. What began as a creative editorial company has expanded into one of the largest boutiques in the industry.","50 E. 42nd St.","3rd Floor","Manhattan","10017","(212)986-1577","David Binstock","CEO","(212)986-1577","(212)972-0702","50 42nd St
Manhattan, NY 10017
(40.752621047366, -73.978892600674)","40.752702","-73.97907","5","4","82","1035336","1012760051","Murray Hill-Kips Bay                                                       "
"Production Company",,"Red Creek Productions","Red Creek Productions is a film, TV spots, live events, theater and television production company. It has its headquarters in New York City and offices in Buenos Aires, Argentina and San Jose, Costa Rica. It has produced over 100 television commercials for the likes of Nintendo, Procter & Gamble and Beck's, and it's currently completing its first two feature films.","184 Kent Avenue","Suite 305","Brooklyn","11211","718-486-8928","Nicolas Entel","Producer/Director","718-486-8928","718-486-8928","184 Kent Avenue
Brooklyn, NY 11211
(40.718528853431, -73.963686090784)","40.718491","-73.963698","1","33","555","3062358","3023487501","North Side-South Side                                                      "
"Production Company",,"The Image Factory, Inc. ","The Image Factory, Inc. is a Latin owned full-service production company handling all aspects of Film and Television production in the heart of New York City.","244-250 West 49th Street","Suite 703","Manhattan","10019","646-432-3300","Carlo Ocando","President","646-432-3301","646-432-3303","244 250 West 49th Street
Manhattan, NY 10019
(40.76761164716, -73.991805500224)","40.761152","-73.985377","5","3","125","1024785","1010200059","Midtown-Midtown South                                                      "
"Production Company",,"Chica Luna Productions, Inc.","Chica Luna Productions is a non-profit organization that seeks to develop and support women of color who use popular media to engage social justice themes and are accountable to their communities. Founded in September 2001 by three working artists who gathered to produce progressive multi-media projects, Chica Luna has since grown to include members in both New York and Los Angeles, and has established a track record of partnering with like-minded individuals and organizations toward promoting socially conscious media by, about and for people of color.","1690 Lexington Ave","2nd Floor","Manhattan","10029","(212) 410-3544","Karly Beaumont","Director Of Operations","212-410-3544","212-410-3545","1690 Lexington Ave
Manhattan, NY 10029
(40.792386430939, -73.946175762054)","40.79235","-73.946215","11","8","172","1052019","1016340015","East Harlem South                                                          "
"Production Company",,"Maximas Productions","Maximas Productions is a boutique, fully functional production facility based in New York City, which combines the business acumen of Robert Rose, President with the creative talents of Renzo Devia, Creative Director and Supervising Producer. Maximas is an award winning production company that specializes in producing content for the young, U.S. born Latino market. The production company is best known for producing ""Urban Latino TV"", ""American Latino TV"", ""Sonidos"" and ""Latin Fuze.""","201 East 16th Street","5th Floor","Manhattan","10003","212-255-0595","Renzo Devia ","Supervising Producer","212-255-0595","212-255-9232","201 16th Street
Manhattan, NY 10003
(40.734628220571, -73.9861523325)","40.734533","-73.985992","6","2","48","1019533","1008970041","Gramercy                                                                   "
"Magazine / Newspaper / Publishing",,"People en EspaÃ±ol","With unparalleled access and powerful, exclusive coverage of cultural icons, trends and community, People en Espanol celebrates the pride and passion of Hispanic culture.","1271 Ave. of the Americas","35th Floor","Manhattan","10020","(212) 522-1212","Peter Castro","Publisher","(212) 522-1212","(212)467-4845","1271 Ave
Manhattan, NY 10020
(40.759498513146, -73.980074397216)","40.760289","-73.980157","5","4","131","1022709","1010030029","Midtown-Midtown South                                                      "
"PR / Communications / Marketing","Marketing & Media ","Planet Sur ","Planet Sur is a lifestyle marketing and media company that develops innovative in-culture brand strategies through original content that engages; culture that inspires; events that entertain; marketing campaigns that call to action. Our mission is to become the go-to resource for marketers who wish to connect with cultural creative, professionals and urban influentials pushing the edge of Latin-American art, culture, music, fashion, film, media and entertainment. ","210 East 15th Street","6H","Manhattan","10003","212-533-9544","Shari Grossman","Founder & CEO","212-533-9544","212-375-1513","210 15th Street
Manhattan, NY 10003
(40.733770423896, -73.986273280087)","40.733688","-73.986018","6","2","48","1019521","1008960039","Gramercy                                                                   "
"Magazine / Newspaper / Publishing",,"Latina Media Ventures","Our mission is to bring the U.S. Hispanic community the best, most empowering, engaging and culturally relevant content across a range of media platforms that include publishing, digital and live events. Through it all, we entertain and inspire Hispanic women with award-winning content that covers Latin culture, style, beauty, food, and music, and create products and services that have, at their core, the real Latina woman.","1500 Broadway","Suite 700","Manhattan","10036","(212)642-0200","Fabio Freyre","CEO","(212)642-0200","(917)770-0860","1500 Broadway
Manhattan, NY 10036
(40.756872204002, -73.985997741512)","40.756856","-73.985973","5","4","119","1022610","1009960001","Midtown-Midtown South                                                      "
"Television Network",,"Galavision","Mission statement: To provide a live, direct connection to the people, places and events that matter most to Hispanic America.","605 Third Ave.","12th Floor","Manhattan","10158","(212)455-5330","Joanne Lynch","SVP/General Manager","(212)455-5330","(212)953-0198","605 Third Ave
Manhattan, NY 10158
(40.749062668312, -73.975754900466)","40.749076","-73.975682","6","4","88","1082153","1009200012","Turtle Bay-East Midtown                                                    "
"Production Company",,"Mendoza Gomez Associates","Creative Marketing and Promotion Concepts for the Hispanic market for over 15 years","501 Fifth Avenue","Suite 407","Manhattan","10017","212-905-5010","Carmen J. Gomez","President","212-905-5010","212-300-2100","501 Fifth Avenue
Manhattan, NY 10017
(40.753265922665, -73.98103348391)","40.753315","-73.980993","5","4","82","1035342","1012760069","Murray Hill-Kips Bay                                                       "
"Other",,"BMI - Broadcast Music, Inc. (Latin Music Dept.)","BMI is an American performing rights organization that represents approximately 300,000 songwriters, composers and music publishers in all genres of music. The non-profit-making company, founded in 1939, collects license fees on behalf of those American creators it represents, as well as thousands of creators from around the world who chose BMI for representation in the United States. The license fees BMI collects for the ""public performances"" of its repertoire of approximately 4.5 million compositions - including radio airplay, broadcast and cable television carriage, Internet and live and recorded performances by all other users of music - are then distributed as royalties to the writers, composers and copyright holders it represents.","320 West 57th Street","3rd Floor","Manhattan","10019","212-586-2000","Porfirio Pina","Associate Director, Latin Music","212-830-2573","212-245-8986","320 57th Street
Manhattan, NY 10019
(40.76695555576, -73.98353281148)","40.767061","-73.983715","4","3","139","1025450","1010477503","Clinton                                                                    "
"Music Ensemble/Orchestra",,"Mariachi Academy of New York (MANY)","MANY is a community-led non-profit 501c3 organization devoted to preserving the rich heritage of mariachi to youth in New York. It intends to develop the skills in musical training, discipline, creativity and self-esteem while strengthening language, team working skills and a strong sense of identity.","114 East 118 Street",,"New York","10035","212-729-7678","Ramon Ponce","Director","917-673-7101",,"114 118 Street
New York, NY 10035
(40.800354102314, -73.941748467306)","40.800225","-73.941386","11","8","182","1052335","1016450007","East Harlem North                                                          "
"Production Company",,"BOND","BOND is a dynamic full-service editorial and FX studio. Our editors, graphic designers and effects team have had many years of success creating award-winning work for Hispanic advertisers and broadcasters.","665 Broadway","12th Floor","Manhattan","10012","(212)533-9400","Jeff Beckerman","President/Creative Director","(212)533-9400","(212)533-0463","665 Broadway
Manhattan, NY 10012
(40.727093231537, -73.995363105187)","40.727354","-73.995162","2","1","5501","1083504","1005320015","West Village                                                               "
"PR / Communications / Marketing",,"Soccer United Marketing","SUM is the preeminent commercial soccer company in the U.S. They hold the exclusive rights to the most  important soccer properties in the nation, including all commercial rights to Major League Soccer, the U.S. Soccer Federation and all men's and women's national teams, among others.  ","420 Fifth Ave.","7th Floor","Manhattan","10018","(212)450-1200","Michael Gandler","Director, Hispanic Business","(212)450-1200","(212)450-1326","420 Fifth Ave
Manhattan, NY 10018
(40.751024693981, -73.982756089343)","40.750809","-73.982845","5","4","84","1081017","1008397501","Midtown-Midtown South                                                      "
"Magazine / Newspaper / Publishing","Media Company/Publishing","Latina Media Ventures, LLC","Publishers of LATINA Magazine, the leading lifestyle magazine for bicultural Hispanic women in the US today. Covering the best of Latino fashion, beauty and culture, LATINA also features celebrity profiles and interviews, as well as the real women inspiring change in their communities, their families, and their jobs. ","1500 Broadway","Suite 700","Manhattan","10036","212-642-0200","Charlotte Castillo","Marketing & Creative Services Director","212-642-0238","917-777-0860","1500 Broadway
Manhattan, NY 10036
(40.756872204002, -73.985997741512)","40.756856","-73.985973","5","4","119","1022610","1009960001","Midtown-Midtown South                                                      "
"Advertising",,"The Bravo Group","We strive to be our client's most valuable business partner. We provice our clients with resonant brand experiences that secure brand loyalty by creating distinctive, relevant and emotional connections between the evolving Hispanic market and our clients' brands.","20 Cooper Square",,"Manhattan","10003","(212)780-5800","Eddie Gonzalez","Chairman & CEO","(212)780-5800","(212)780-0602","20 Cooper Square
Manhattan, NY 10003
(40.728016462283, -73.991359963237)","40.727672","-73.99137","2","2","57","1008780","1005440050","West Village                                                               "
"Advertising",,"Aragon Advertising","Aragon Advertising is dedicated to using its extensive consumer insight and vast product experience to help advertisers gain leadership positions in the Hispanic market. We combine big agency capabilites with personal, hands-on, small agency service to help brands increase market share and reach marketing goals.","96-17 69th Avenue",,"Queens","11375","(718)544-0151","Michelle Aragon","President-CEO","(718)544-0151","(718)575-1815","96 17 69th Avenue
Queens, NY 11375
(40.72070726303, -73.846284296083)","40.717204","-73.851989","6","29","709","4076400","4032000035","Forest Hills                                                               "
"Advertising",,"d exposito & partners llc","Mission statement: To deliver work that: - Moves! Products, Services, Hearts, Minds - Delights! Breaks through, Entertains, Captivates, Connects - Sells! Builds Brands, Profitability, ROI.","875 Ave. of the Americas","25th Floor","Manhattan","10001","(646)747-8800","Daisy Exposito-Ulla","Partner","(646)747-8800","(212)273-0778","875 Ave
Manhattan, NY 10001
(40.750259021437, -73.99688630376)","40.747991","-73.989108","5","3","101","1015182","1008070039","Midtown-Midtown South                                                      "
"Production Company",,"Caicedo Productions","Caicedo Productions was founded by Veronica Caicedo in 1990. The company's mission continues to be that of providing creative and technical space for actors, writers and visual artists from inter-related genres (i.e. theater, film video and television). It seeks to have them shared and cooperatively develop their concepts in an environment that seeks to support and bring to the audiences their Ã¢â¬Åminds eyeÃ¢â¬Â creations.","7304 5th Avenue","PMB 184","Brooklyn","11209","201-969-8599","Veronica Caicedo","Executive Director","201-969-8599","718-389-0864","7304 5th Avenue
Brooklyn, NY 11209
(40.630955237886, -74.022086620087)","40.630873","-74.022081","10","43","134","3147885","3059190039","Bay Ridge                                                                  "
"Other",,"Metro Newspaper Advertising Services","Our mission is twofold: Demonstrate the effectiveness and efficieny of newspapers to advertisers, and bring our 70+ years of newpaper planning and execution to the Hispanic and other multicultural markets.","8 W. 38th Street",,"Manhattan","10018","(212)689-8200","Phyllis Cavaliere","President/CEO","(212)689-8200","(212)532-1710","8 38th Street
Manhattan, NY 10018
(40.751088541542, -73.983036746305)","40.751215","-73.983354","5","4","84","1075696","1008390055","Midtown-Midtown South                                                      "
"Music Company",,"Vivelo!, A Clear Channel Entertainment Televisa Company","Vivelo! is an entertainment, lifestyle marketing and promotions company focused on the U.S. based Hispanic market. Our areas of expertise include, production of events, concert tours, soccer events, development of proprietary programs and promotions targeting the Hispanic community.","220 West 42nd Street",,"Manhattan","10036",,,,,,"220 42nd Street
Manhattan, NY 10036
(40.756289268833, -73.987603712773)","40.756412","-73.987858","5","3","113","1024663","1010130042","Midtown-Midtown South                                                      "
"Magazine / Newspaper / Publishing",,"Business Latino","Business Latino is a publication devoted to the financial business and trade goings on in the Latino community of the United States with an emphasis in the New York Tri-State area.

Trade with Latin America in this globalized world which is a very important component in this business equation is fully covered in the pages of Business Latino.

Food be imported from Latin America to the US or exported to Latin America from US plays an immense role in the economies of  Latin countries From MÃ©xico to Colombia and  Argentina and other countries in between food exports to the United States and other parts of the world are often vital to economic well being of those nations And in turn for thousands of businesses in the US who depend on the timely and steady availability of those products to stay in business.","Rockefeller Center 1230 Avenue of the Americas, Ste 7T",,"New York","10020","917-639-4226","Rosemary Carillo","Publisher","917-639-4226",,"1230 Avenue
of the Americas New York, NY 10020
(40.759288641501, -73.980826185983)","40.759268","-73.977844","5","4","104",,,"Midtown-Midtown South                                                      "
"Other",,"Latin American Video Archives","The Latin American Video Archives is a non-profit organization dedicated to the promotion and distribution of Latin American and U.S. Latino films and videos.","124 Washington Place",,"Manhattan","10014","212-243-4804","N/A","N/A","212-243-4804","212-243-2007","124 Washington Place
Manhattan, NY 10014
(40.732761380397, -74.001421114314)","40.732714","-74.001346","2","3","71","1010207","1005920007","West Village                                                               "
"Magazine / Newspaper / Publishing",,"24 Horas","24 Hora's is one of America's leading Spanish-language daily newspapers","485 Seventh Ave.","Suite 505","Manhattan","10018","(646) 839-4403","Armando Tonatiuh Hernandez","Executive Editor","(646) 839-4403","(212) 330-8083","485 Seventh Ave
Manhattan, NY 10018
(40.752483512499, -73.989559056748)","40.752465","-73.989544","5","3","109","1015235","1008127501","Midtown-Midtown South                                                      "
"Magazine / Newspaper / Publishing","Magazine","Urban Latino Magazine","As the first lifestyle and cultural publication geared to bicultural Latinos, Urban Latino has earned its rightful place: we are the premier magazine for both male and female Latinos in the United States.","735 Second Avenue","Penthouse","Manhattan","10016","212-681-2491","Jorge Cano Moreno","Publisher","212-681-2493","212-681-2487","735 Second Avenue
Manhattan, NY 10016
(40.748148780318, -73.973416226322)","40.748213","-73.973401","6","4","88","1020380","1009200031","Turtle Bay-East Midtown                                                    "
"PR / Communications / Marketing","Consulting & Marketing","Latin Force, LLC","Latin Force, LLC is a Hispanic market consulting firm. We provide the following services: Strategic Planning, Press and Publicity, Grassroots Marketing, Events and Promotions, and Web Development.","670 Broadway","2nd Floor","Manhattan","10012","212-813-6767","David Perez","CEO","212-813-6767","212-253-9799","670 Broadway
Manhattan, NY 10012
(40.727365448221, -73.995089887228)","40.727299","-73.995183","2","1","5502","1008467","1005300001","West Village                                                               "
"Advertising",,"REVOLUCION","Mission statement: INSPIRE CHANGE.","22 West 23rd Street","3rd Floor","Manhattan","10010","(212)229-0700","Alberto Rodriguez","Chief Creative Officer","(212)229-0700","(212)229-0770","22 23rd Street
Manhattan, NY 10010
(40.740829976789, -73.987947865776)","40.741944","-73.990534","5","3","58","1015572","1008240051","Hudson Yards-Chelsea-Flatiron-Union Square                                 "
"Television Network",,"NBC4","WNBC is the flagship station of NBC/Universal serving the New York Metropolitan area.","30 Rockefeller Plaza","615E","Manhattan","10112","212-664-5247","Anna Carbonell","VP - Stations Relations","212-664-5247","212-790-4710","30 Rockefeller Plaza
Manhattan, NY 10112
(40.759031999727, -73.978372000367)","40.758754","-73.978692","5","4","104","1076262","1012657501","Midtown-Midtown South                                                      "
"Other",,"MPG Diversity","MPG Diversity aims to provide a full range of multicultural media services including media and market research, strategic planning, and a strong media buying operation. MPG Diversity's goal is to optimize its client's investments and to contribute to build up brand equity through effective multicultural media communication consulting.","195 Broadway","12th Floor","Manhattan","10007","(646)587-5000","Jorge Percovich","EVP/Managing Director","(646)587-5000","(646)587-5005","195 Broadway
Manhattan, NY 10007
(40.710602085595, -74.009290182071)","40.710536","-74.009378","1","1","13","1001227","1000800001","Battery Park City-Lower Manhattan                                          "
"Dance Company",,"Flamenco Vivo Carlota Santana","Flamenco Vivo Carlota Santana is one of the nations premier flamenco and Spanish dance companies. We believe that the universal spirit of flamenco, a multicultural art form, has the power to build bridges between cultures and inspire audiences from diverse backgrounds. Artistic Director Carlota Santana leads this company of energetic dancers and musicians in powerful performances, extensive community outreach, and innovative arts education programs.","4 West 43rd Street",,"New York","10036","212-736-4499","Leslie Malmed","Executive Director","212-736-4499","212-736-1326","4 43rd Street
New York, NY 10036
(40.754489000625, -73.981177375435)","40.754371","-73.980932","5","4","96","1034201","1012580042","Midtown-Midtown South                                                      "
"Advertising",,"The Vidal Partnership","Aims to be the most effective Hispanic communications agency in the US dedicated to their core business by delivering unmatched market insight, creative innovation and flawless execution across a broad range of communications disciplines.","228 E. 45th St.","11th Floor","Manhattan","10017","(212)867-5185","Manny Vidal","Chairman/CEO","(212)867-5185","(212)661-7650","228 45th St
Manhattan, NY 10017
(40.752390853687, -73.972390382812)","40.752355","-73.972266","6","4","90","1037578","1013180033","Turtle Bay-East Midtown                                                    "
"PR / Communications / Marketing","Hispanic Public Relations","RL Public Relations & Marketing","Young, vibrant and creative, RL Public Relations  Marketing is a bi-coastal full-service agency dedicated to developing and executing breakthrough public relations and marketing communications programs for the Latino market both in the U.S. and Latin America. Founded in 1996, RLPR is the brainchild of Argentina-born Roxana Lissa, a marketing professional and visionary who at age 25 recognized and responded to an untapped opportunity to connect clients with this growing, diverse and rich population.","27 West 20th Street","# 307","Manhattan","10011","212-206-8668","Melissa Karp","Senior Vice President","212-206-8668","212-206-8778","27 20th Street
Manhattan, NY 10011
(40.740096030437, -73.991835007259)","40.740136","-73.992021","5","3","54","1015491","1008220015","Hudson Yards-Chelsea-Flatiron-Union Square                                 "
"Television Network",,"AIM Tell-A-Vision ","AIM Tell-A-Vision is a division of Artist and Idea Management and is a New York City based network of English language programming for U.S. Latinos via broadcast syndication and cable. AIM Tell-A-Vision focuses on critical, underserved markets including the U.S. born Latino market. AIM Tell-A-Vision's network of programming includes ""Urban Latino TV"", ""American Latino TV"", ""Sonidos"" and ""Latin Fuze.""  ","201 East 16th Street","5th Floor","Manhattan","10003","212-627-3192","Robert G. Rose","President","212-627-3192","212-255-9232","201 16th Street
Manhattan, NY 10003
(40.734628220571, -73.9861523325)","40.734533","-73.985992","6","2","48","1019533","1008970041","Gramercy                                                                   "
"Advertising",,"Schramm Sports & Entertainment","Schramm Sports & Entertainment is committed to serving the diverse, new American family, by marketing a variety of sports & entertainment properties that are of particular interest and appeal to America's many different sports fans and audience segments. Schramm promotes each property to is particular fan or audience segment with respect for each culture and with special attention to the interests that make each audience group unique.","363 Seventh Ave.","22nd Floor","Manhattan","10001","(212)983-0219","Joseph Schramm  ","President","(212)983-0219","(212)983-0524","363 Seventh Ave
Manhattan, NY 10001
(40.748607434553, -73.9923739347)","40.748609","-73.992349","5","3","101","1015154","1008060001","Midtown-Midtown South                                                      "
"Magazine / Newspaper / Publishing",,"Un Chin Magazine","Un Chin is the journalistic definition of avant-garde.  It is a metro lifestyle magazine that features riveting visuals, daring editorials and accentuates  the pulse of a new culture. By fusing arts, fashion, politics, language and intangible sensibilities, Un Chin redefines american culture and lifestyle bringing neglected elements from the fringe to the mainstream. This cross-gender publication is designed for trendsetters with progressive ideas, professional goals and unlimited creative energy.","1202 Lexington Avenue ","Suite 348","Manhattan","10028","212-304-8188","Celines De Leon","Sales and Marketing","212-304-8188","212-304-8288","1202 Lexington Avenue
Manhattan, NY 10028
(40.776648295426, -73.957651111148)","40.776672","-73.957658","8","4","140","1047599","1015100156","Upper East Side-Carnegie Hill                                              "
"Other",,"Mediamark Research Inc.","MRI provides the sharpest picture possible of the American consumer: who they are, what they buy, how they think, and how they can be reached. As the nation's fastest growing minority community, MRI recognizes Hispanic consumers as a large and influential segment of the American consumer.","75 Ninth Ave","5th Floor","Manhattan","10011","(212)884-9200","Kathi Love","President/CEO","(212)884-9200","(212)884-9339","75 Ninth Ave
Manhattan, NY 10011
(40.741880143007, -74.004788640416)","40.741876","-74.004713","4","3","83","1012541","1007130001","Hudson Yards-Chelsea-Flatiron-Union Square                                 "
"PR / Communications / Marketing",,"Ibernet Media","Experts in Communication and Marketing in Spain and New York Consultants creators with innovative ideas for the Hispanic market.","37-06   82 Street, Ste 3F",,"Jackson Heights","11372","201-606-5479","Carla Marrero","Sales Representative","201-606-5479",,"37 06 82 Street Jackson Heights
NY,  11372
(40.751630739367, -73.883612545283)","40.749421","-73.884262","3","21","283","4030013","4012920006","Jackson Heights                                                            "
"Other",,"Nouveau Media, Corp.","Coaching Shoots And Techniques is a program created for Models and Actors within a workshop environment. It was developed in order to create new ways of showing individuals within the entertainment industry the steps needed to enter this industry, the people to contact, the safety aspects behind - Personal Safety For Models and Actors, and the digital photography & digital video modeling and acting workshop. Coaching Shoots And Techniques were developed by Mike Racioppo retired NYC Employee, Cable TV program producer for the Fire Departments FDTV cable show, and safety video programs for the Board of Education, Bronx Crosswalks cable programming. Mike is also a Latino - American FilmMaker, currently judging Films for NY Festivals, and has in the past worked with Tribeca Film Festivals and the IFP Market. Mike has associated himself with the National Association of Latino Independent Producers, DiversitInc, Mas Ruido, latin style magazine, and Hispanic film, to name a few. Mike has been certified by the New Jersey Institute of Technology as a Webmaster, Graphic Artist, and Multimedia certifications.","233 Pelton Avenue","Suite 2","Staten Island","10310"," 973-258-1781","Mike Racioppo","Director","973-258-1781",,"233 Pelton Avenue Staten Island
NY,  10310
(40.637347016501, -74.110690128132)","40.637063","-74.110664","1","49","105","5004145","5001510125","New Brighton-Silver Lake                                                   "
"PR / Communications / Marketing","Events, Magazine, Internet","LatCom Communications","LatCom Communications is a leading New Generation Latino media and entertainment company with properties that generate millions of targeted impressions including: iCaramba College Tour,  iCaramba Comedy Series, Latin Alternative Series, iCaramba U. Magazine, iCaramba.com,  LatinoGreeks.com, LatinosStep.com, and Lugar Heights TV Cartoon. All of our properties exclusively target the New Generation Latino making us one of only a handful of companies who specialize in this lucrative audience.","262 West 38th Street","# 1503","Manhattan","10018","212-967-8267","David Chitel","CEO","212-967-8267","212-792-5839","262 38th Street
Manhattan, NY 10018
(40.754240878972, -73.990579405604)","40.754216","-73.990478","5","3","109","1014468","1007870076","Midtown-Midtown South                                                      "
"Magazine / Newspaper / Publishing",,"Fama y Fortuna","A monthly entertainment and general interest content magazine published monthly and free to the Latino consumer that resides in NY and NJ.","418 CPW, Ste 30",,"New York","10025","212-642-8088","Mercedes Ramirez","Publisher","212-642-8088",,"418 CPW
New York, NY 10025
(40.796850127631, -73.963725810598)","40.79539","-73.96198","7","7","189","1055310","1018377501","Upper West Side                                                            "
"Advertising",,"MosaicaMD","Mission statement: To propel our clients' success ino America's growing multicultural marketplace in a way that's impactful, relevant and respectful.","20 Cooper Square","4th Floor","Manhattan","10003","(212)780-5900","Eddie Gonzalez","Chairman","(212)780-5900","(212)780-5959","20 Cooper Square
Manhattan, NY 10003
(40.728016462283, -73.991359963237)","40.727672","-73.99137","2","2","57","1008780","1005440050","West Village                                                               "
"Music Company",,"Fuerte Group","Fuerte Group is a multi-cultural music promotion and lifestyle marketing company with specific expertise in the US Hispanic market. The company has three divisions: Fuerte Marketing, Fuerte Artist Management, and Fuerte Records.","73 Spring Street","# 406","Manhattan","11552","212-219-2525","Rich Isaacson ","Principal","212-219-2525","212-219-8915","73 Spring Street
Manhattan, NY 11552
(40.693933415095, -73.651541806009)",,,,,,,,
"Production Company",,"Latino Flavored Productions Inc.","Latino Flavored Productions Inc. produces English language theater/film/television projects flavored with the Latino experience.","648 Bay Street","#301","Staten Island","10314","(718) 720-7979","Linda Nieves-Powell","President/CEO","(718) 720-7979","(718) 720-7979","648 Bay Street Staten Island
NY,  10314
(40.626249538889, -74.075442002946)","40.626266","-74.075414","1","49","27","5013746","5005240032","Stapleton-Rosebank                                                         "
"Internet",,"MiGente.com","Latino online community boasting 2.2 Million members. Latest U.S.-Latino-relevant news. Offers email, job searches and dating.","205 Hudson Street","6th Floor","Manhattan","10013","212-431-4477","Carlos VÃÂ¡zquez-Firpi","Editor","212-431-4477","212-505-5483","205 Hudson Street
Manhattan, NY 10013
(40.723616428456, -74.007990826043)","40.723352","-74.00798","1","1","39","1002933","1002250008","SoHo-TriBeCa-Civic Center-Little Italy                                     "
"Dance Company",,"Afro Cuban Folklor Dance Company","yu Oro is committed to the preservation of Afro-Cuban culture through dance, song and music. Oyu Oro explores traditional forms of dance that derive from the Yoruba, Congo, Carabali, Arara, and Dahomeyan cultures of West Africa; the rich Haitian influences that remain in Cuba along with popular dances of Cuban heritage, including Rumba, Conga, Chancletas and Son.","626 Riverside Drive","Ste. 4H","Manhattan","10031","212-281-3580","Danys Perez","Founder/Artistic Director/Choreographer","917-370-5081","212-281-3580","626 Riverside Drive
Manhattan, NY 10031
(40.823889681626, -73.954224694217)","40.823647","-73.954431","9","7","225","1062307","1020870078","Hamilton Heights                                                           "
"Television Network",,"Univision","Univision Communications Inc. is the leading Spanish-language media company in the United States.  Their powerhouse portfolio includes Television, Radio, Music and Internet offerings that entertain and inform more Hispanics each day than any other media company in the country.  Their television operations include the Univision Network, TeleFutura Network, GalavisiÃ³n and Univision and TeleFutura Television Groups. Univision also owns and operates Univision Radio, Univision Music Group and Univision Online. Univision holds a 50% interest in TuTv, a joint venture formed to broadcast Televisa's pay television channels in the U.S.","605 Third Ave.","12th Floor","Manhattan","10158","(212) 455-5200","Joseph Uva","CEO","(212) 455-5200",,"605 Third Ave
Manhattan, NY 10158
(40.749062668312, -73.975754900466)","40.749076","-73.975682","6","4","88","1082153","1009200012","Turtle Bay-East Midtown                                                    "
"Television Network",,"Azteca America","TV Azteca's mission is to create shareholder value by producing and distributing the best Spanish-language television content in the world.","152 Madison Ave.","4th Floor","Manhattan","10016","(212)207-8535","Luis Echarte","President/CEO","(212)207-8535","(212)207-8223","152 Madison Ave
Manhattan, NY 10016
(40.746610939648, -73.983776416099)","40.746574","-73.983839","5","4","74","1017012","1008620016","Midtown-Midtown South                                                      "
"Advertising",,"Euro RSCG Latino","We help engage Latino consumers with brands at every stage of acculturation through creative business ideas.","350 Hudson Street",,"Manhattan","10014","(212)886-4100","Gustavo Razzetti","CEO","(212)886-4100","(212)886-4602","350 Hudson Street
Manhattan, NY 10014
(40.727672322272, -74.007208331061)","40.727548","-74.007274","2","3","37","1009750","1005800039","SoHo-TriBeCa-Civic Center-Little Italy                                     "
"Internet",,"nocheLatina.com","nocheLatina provides a destination for the affluent, bicultural trendsetting ""New Generation"" Latino who enjoys the nightlife arena and is looking for a guide to the latest Latino lifestyle events.","485 Madison Ave.","21st Fl.","Manhattan","10022","212-921-2100","Alex Frias","Managing Director","212-921-2100","212-921-2290","485 Madison Ave
Manhattan, NY 10022
(40.758886685348, -73.974792189027)","40.758825","-73.974877","5","4","102","1035474","1012870052","Midtown-Midtown South                                                      "
"Music Company",,"Sefarad Records & Management","Sefarad Records & Management promotes Judeo-Spanish, Middle Eastern, Flamenco, and French music and artists. The label has ten CD releases, one song book and two more CDs scheduled for release at the beginning of 2005. Our management company represents the various artists on the Sefarad Records label. We book The Ivory Consort, The Gerard Edery Ensemble, The Sons of Sepharad, The Minstrel and the Storyteller, as well as solo artists and smaller ensembles. Our programs include ""Flamenco Sepharad"", ""Music in the Land of Three Faiths"", ""Treasures of World Song"" and many more.","18 West 21st Street","Suite 801","Manhattan","10010","212-924-3746","Thia Knowlton","Manager","212-924-3746","212-924-3749","18 21st Street
Manhattan, NY 10010
(40.739815300726, -73.989553857544)","40.740619","-73.991379","5","3","54","1015504","1008220052","Hudson Yards-Chelsea-Flatiron-Union Square                                 "
"Magazine / Newspaper / Publishing","Newspaper","El Diario - La Prensa","Established in 1913, El Diario - La Prensa is the oldest Spanish-language daily newspaper in America and the #1 read newspaper in New York.  It's also the longest running and one of the most reputable Hispanic media organizations in the United States.","345 Hudson Street","13th Floor","Manhattan","10014","212-807-4600","Jorge Ayala","General Sales Manager","212-807-4608","212-807-4746","345 Hudson Street
Manhattan, NY 10014
(40.727478755408, -74.007313086992)","40.72754","-74.007295","2","3","37","1010378","1005980058","SoHo-TriBeCa-Civic Center-Little Italy                                     "
"Cultural Center",,"El Taller Latino Americano","El Taller Latino American (The Latin American Workshop) is an Latin American arts and education organization located on the Upper West Side. Visit us to hear live music, and see art exhibits.","2710 Broadway","3rd Floor","Manhattan","10025","(212)655-9460","Franklin","Office Manager","(212)665-9460","(212)280-0680","2710 Broadway
Manhattan, NY 10025
(40.799563020733, -73.968182172111)","40.799558","-73.968299","7","7","191","1056574","1018750046","Upper West Side                                                            "
"PR / Communications / Marketing",,"Sur Communications LLC","Sur Communications LLC is a boutique public relations agency that specializes in the US Hispanic market from public relations to event planning to market research. We deliver on all fronts Creativity Expertise and Results.","740 West End Ave",,"New York","10025","201-650-1418","Maria Belen Reyfman","Partner and Director","201-650-1418","212-665-8494","740 End Ave
New York, NY 10025
(40.796850127631, -73.963725810598)","40.795352","-73.973126","7","6","183","1056059","1018680001","Upper West Side                                                            "
"Magazine / Newspaper / Publishing",,"Selecciones","Selecciones empowers the Hispanic family in the U.S. with content that is practical, informative and inspirational - providing news on extraordinary people, the latest trends and relevant service, all while celebrating the diversity of the Hipsanic experience.","260 Madison Ave.","5th Floor","Manhattan","10016","(212)850-7212","Rosanne Tifre","Associate Publisher","(212)850-7212","(212)850-7228","260 Madison Ave
Manhattan, NY 10016
(40.750576949797, -73.980907578826)","40.750707","-73.980828","5","4","82","1017230","1008680016","Murray Hill-Kips Bay                                                       "
"Magazine / Newspaper / Publishing",,"ImpreMedia","ImpreMedia is the #1 Spanish language newspaper and online news publisher in the United States. They provide marketers with effective multi-platform solutions in print and online to reach the rapidly growing and influential Latino market.","345 Hudson St.","13th Floor","Manhattan","10014","(212)807-4626","Erich Linker","SVP National Advertising","(212)807-4626","(212)807-4746","345 Hudson St
Manhattan, NY 10014
(40.727478755408, -74.007313086992)","40.72754","-74.007295","2","3","37","1010378","1005980058","SoHo-TriBeCa-Civic Center-Little Italy                                     "
"Production Company",,"Newyoricanfilms","Newyoricanfilms develops and films its own independent projects.","77 Fulton Street","# 298","Manhattan","10038","212-393-9039","Ralph Nieves","Owner","917-589-4056","212-393-9047","77 Fulton Street
Manhattan, NY 10038
(40.709136981936, -74.005528281463)","40.708837","-74.005176","1","1","1501","1083353","1000940001","Battery Park City-Lower Manhattan                                          "
"Internet",,"NYMosaico","Online guide to Latin American and Latino culture in NYC.  Site is made up of event listings, articles, interviews, forum, photo galleries, and more!  ARTE . CULTURA . MUSICA . CINE . COMER Y BEBER ","236 Devoe St.","#2","Brooklyn","11211","646-265-5241","Claire Frisbie","Editor-in-Chief","646-265-5241","718-387-3560","236 Devoe St
Brooklyn, NY 11211
(40.713953656867, -73.941348930102)","40.713977","-73.941318","1","34","481","3330336","3029190118","East Williamsburg                                                          "
"Music Company",,"Tu Casa Entertainment Inc.","Multi-level Entertainment Company - Talent Management / Music Publishing / Marketing / TV  Film Casting","139 Norfolk Street","Storefront","Manhattan","10002","212-677-6370","Maribel Schumacher","President","212-677-6370","212-677-6448","139 Norfolk Street
Manhattan, NY 10002
(40.71997302114, -73.98655532117)","40.720071","-73.986515","3","1","3001","1004315","1003540027","Chinatown                                                                  "
"Other",,"Medialink","Medialink is a global leader in providing unique news and marketing media strategies and solutions that enable corporations and organizations to inform and educate their target audiences with maximum impact on television, radio, print and the Internet.","708 Third Avenue",,"Manhattan","10017","(212)682-8300","Laurence Moskowitz","Chairman, President & CEO","(212)682-8300","(212)682-5260","708 Third Avenue
Manhattan, NY 10017
(40.752370069933, -73.973323362724)","40.752328","-73.973324","6","4","92","1036177","1012990033","Turtle Bay-East Midtown                                                    "
"Cable Network",,"ESPN Deportes","ESPN Deportes is ESPN new 24-hour, Spanish-language sports network serving the U.S. Hispanic sports fans. ESPN Deportes telecasts a wide variety of domestic and international sports programming, including Major League Baseball, the NBA, the NFL, UEFA Champions League, Wimbledon, the French Open, IRL Indy Car Series, and more. ESPN Deportes also showcases a selection of Spanish-language sports and information shows, including a its own production of SportsCenter. Since launching on January 7, ESPN Deportes has secured distribution agreements with six of the ten largest cable operators in the U.S., including Adelphia, Cablevision, Charter, Cox, Insight, Cable One, and with the National Cable Television Cooperative (NCTC).  ESPN Deportes affiliates serve many of the largest U.S. Hispanic markets including Los Angeles, New York, Miami-Ft. Lauderdale, Houston, Dallas-Ft. Worth, San Antonio, Phoenix, Denver, and San Diego.","77 West 66th Street","21st Floor","Manhattan","10023","212-456-7777","Felix Perez","Director of Sales","212-456-0268","212-456-0236","77 66th Street
Manhattan, NY 10023
(40.773344208255, -73.980867928929)","40.773247","-73.980691","7","6","153","1082810","1011190008","Lincoln Square                                                             "
"Production Company",,"AfterDark CATV PROductions, Inc","CATV PRO is a multi-media, 501 c3 organization and producers of REBEL MEDIA. The programming concept of A.C.E.S. describes the various areas through which advocates and acivists address issues of social change and evolution. They include, but are not limited to, art, culture, entrepreneurs, education, and services. Our productions incorporate and feature alternative news and information from reliable independent news and information media sources around the world. Our links and networks focus on presenting perspective excluded from the traditional and mainstream sources on both P.E.G. Access TV and the Internet. Our programs reach every basic cable subcriber in a given market as well as being web streamed worldwide. CATV PRO also provides media production services to businesses and organzations  producing commercials, PSAs, industrial videos, and archival footage for marketing and public education purposes. ","1425 Bryant Avenue","Box 16","Bronx","10459","(646) 546-0206","Felix Leo Campos","President","(646) 546-0206",,"1425 Bryant Avenue
Bronx, NY 10459
(40.831174330358, -73.888317370965)","40.830702","-73.888569","3","17","123","2099622","2029940138","Crotona Park East                                                          "
"Advertising",,"Directo Hispano, Inc.","We help our clients to plan and execute their Hispanic direct marketing campaigns. We have a flexible business model that lets us give them the lowest Agency or project fee out there. In other words, they will have access to the leading Hispanic direct marketers, with substansial savings for their company.","436 E. 58th St.","Suite 3D","Manhattan","10022","(212)935-9353","Humberto Freydell","Partner","(212)935-9353",,"436 58th St
Manhattan, NY 10022
(40.758603896653, -73.961614941852)","40.758588","-73.961525","6","5","10601","1040547","1013690031","Turtle Bay-East Midtown                                                    "
"Production Company",,"The Latino Group","A production company formed by a group of Latino filmmakers in New York, whose mission is to help, support and foster innovative filmmaking by or about the Latino experience in the US.","107 Suffolk Street","Suite 311","Manhattan","10002","212-475-6601","Vlamyr Vizcaya","director","212-475-6601","877-764-4783","107 Suffolk Street
Manhattan, NY 10002
(40.719521874541, -73.985837319549)","40.718943","-73.986122","3","1","1402","1004301","1003530054","Lower East Side                                                            "
"Advertising",,"GlobalHue ","Mission statement: To provide ""Never the Expected"" marketing and advertising solutions to our client partners' business needs.","300 Park Avenue South","6th Floor","Manhattan","10010","(212)344-16111","Christopher Campos","EVP, Director of Client Services","(212)344-16111","(917)344-1616","300 Park Avenue
Manhattan, NY 10010
(40.739988278581, -73.986662938156)","40.739921","-73.986569","5","2","56","1016286","1008510035","Hudson Yards-Chelsea-Flatiron-Union Square                                 "
"PR / Communications / Marketing",,"Cindy Byram PR","Music PR company with focus on crossover media coverage from Latin to non-Latin. Specializes in artists from Spain and Latin America releasing CDs and touring in North America","49 West 27th St","#930","Manhattan","10001","212-545-7536","Cindy Byram","Director","201-400-4104","212-889-2771","49 27th St
Manhattan, NY 10001
(40.74487910835, -73.989594992225)","40.744911","-73.98974","5","3","58","1015676","1008290007","Hudson Yards-Chelsea-Flatiron-Union Square                                 "
"Other",,"Casita Maria Center for Arts and Education","The mission of the Casita Maria Center for the Arts and Education is to empower youth and their families by creating a culture of learning through high quality social, cultural, and educational opportunities.  For 75 years Casita Maria has responded to community needs.  Today we offer a wide range of after-school and in-school art and education programs; music, dance, theater, and other performances; and gallery exhibitions.","928 Simpson Street",,"Bronx","10459","718-589-2230","Sarah Calderon","Executive Director","718-589-2230","718-842-4622","928 Simpson Street
Bronx, NY 10459
(40.820629050188, -73.893030457108)","40.820579","-73.893128","2","17","89","2116211","2027230033","Hunts Point                                                                "
"Production Company",,"Silent Warrior Productions/The New Family Theater, LLC","A Latino-flavored film, stage, and multi-media production company. Projects range from two independent films recently showcased in the NY International Latino Film Festival: ""The STARSEED incident"" (Myztico Campo) and ""18B Justice"" (Ralph Nieves) to various stage projects such as original theater & spoken word pieces and revival presentations of Pinero works. Antone Pagan and Scott Morfee will present ""SHORT EYES"" for the 2004/05 season.","357 West 45th Street","# 2FE","Manhattan","10036","917-337-0164","Antone Pagan","President/Executive Artistic Director","917-337-0164","212-459-1910","357 45th Street
Manhattan, NY 10036
(40.759859591513, -73.989972121829)","40.759826","-73.989947","4","3","121","1085020","1010360005","Clinton                                                                    "
"Advertising",,"HispanicWorks","At HispanicWorks, we see the brand, not the Hispanic consumer, as the outsider. Our mission is to build bridges into the Hispanic community for our Client brands in a way that drives preference and generates revenue.","220 5th Ave","11th Floor","Manhattan","10001","(212)252-8800","William Ortiz","President","(212)252-8800","(212)252-0002","220 5th Ave
Manhattan, NY 10001
(40.743732570643, -73.988034005181)","40.74361","-73.988091","5","2","58","1015650","1008280035","Hudson Yards-Chelsea-Flatiron-Union Square                                 "
"Production Company",,"BigLou Films","Company Motto: No Flim Is A Small Film. Award winning Producer (Manito 10X Award Winning). Film & Digital Filmmaking, Video Production Services Film & Digital), Script Development (stage & film), Casting Services ,Location Scouting, Coaching for Actors, Editing Services, Video Taping, Music Video Production, and Consulting Services.","P.O. Box 918",,"Bronx","10455","347-879-6894","Lou Torres","CEO","917-208-8170","347-879-6894","918 Bronx
NY,  10455
(40.813535754971, -73.905355252043)",,,,,,,,
"Production Company",,"RiverFish Productions Inc.","RiverFish Productions Inc., is a New York City based multi-media company.  We specialize in television programming targeting the US Hispanic market in English.","30 West 61 Street",,"Manhattan","10023","212-489-9781","Isabel Rivera","President","212-489-9781","212-489-9781","30 61 Street
Manhattan, NY 10023
(40.76991996204, -73.982638958884)","40.769998","-73.982739","7","3","145","1027195","1011137501","Lincoln Square                                                             "
"Music Company",,"Mariachi Real De Mexico","Mariachi Real De Mexico is considered to be the ambassador of mariachi music in New York. They are also founders of the Mariachi Academy of New York. The first and only mariachi educational program in New York.","84-19 112th Street",,"Queens","11418","917-673-7101","Ramon Ponce","Director","917-673-7101",,"84 19 112th Street
Queens, NY 11418
(40.696370412365, -73.840310249918)","40.701893","-73.838639","9","32","130","4192329","4092100033","Richmond Hill                                                              "
"Theater",,"Thalia Spanish Theatre","It's always Hispanic Heritage Month at Thalia Spanish Theatre, the only bilingual Hispanic theatre in the borough of Queens.  Its mission is to celebrate the vibrancy and diversity of Spanish and Latin American culture and heritage with unique productions of theatre, music and dance.","41-17 Greenpoint Avenue",,"Queens","11104","718-729-3880","Kathryn Giaimo","Administrative Director","718-729-3880","718-729-3388","41 17 Greenpoint Avenue
Queens, NY 11104
(40.744893366636, -73.920541345307)","40.740108","-73.9238","2","26","18502","4002638","4001960001","Hunters Point-Sunnyside-West Maspeth                                       "
"PR / Communications / Marketing","P.R. Event Productions, Jingles, Publicity campaigns","Aurora Communications, Inc.","Premier Latina/woman owned firm specializing in producing special events production; publicity campaigns, music bookings and management, packaged information, scripts, jingles, articles, brochures, annual reports, position papers, creative copy.","4 East 107th Street","14C","Manhattan","10029","212-876-1936","Aurora Flores","President & Creative Director","646-345-7474","212-410-2999","4 107th Street
Manhattan, NY 10029
(40.794910278981, -73.950561021411)","40.794831","-73.950344","11","9","17401","1051514","1016120001","East Harlem South                                                          "
"Production Company",,"Wild(child)","Wild(child) offers elite editing, graphics, inferno/flame, and audio services for broadcast.","44 W. 28th St","14th Floor","Manhattan","10001","(212)725-5333","Alexandra Leal","Executive Producer","(212)725-5333","(212)725-2932","44 28th St
Manhattan, NY 10001
(40.745512259041, -73.989332821325)","40.745556","-73.989386","5","3","58","1015707","1008290068","Hudson Yards-Chelsea-Flatiron-Union Square                                 "
"Advertising",,"Hispanamerica","We believe Hispanic consumers deserve excellent brand experiences at all points of their relationship with a company, from acquisition through retention and winback.  Our mission is to build and maintain those consumer relationships for our clients.","49 W. 37th St.","13th Floor","Manhattan","10018","(212)994-0202","Beatriz Mallory","CEO & Chief Strategist","(212)994-0202","(212)994-0203","49 37th St
Manhattan, NY 10018
(40.751193299594, -73.985130416766)","40.751018","-73.984758","5","4","84","1015958","1008390009","Midtown-Midtown South                                                      "
"Production Company",,"Big Mama","Big Mama is a new company with a fresh attitude that emerged out of frequent requests by clients to work with South American and European directors for advertising commercials. Big Mama's goal is to provide clients with high quality work at a fraction of the cost by offering exceptional local directors, production and post-production as one package.","27 W. 24th Street","Suite 9D","Manhattan","10010","(212)431-4400","Lorenzo Benedick","Executive Producer","(212)431-4400","(212)431-4445","27 24th Street
Manhattan, NY 10010
(40.741372722233, -73.987050687716)","40.742718","-73.990292","5","3","58","1015595","1008260019","Hudson Yards-Chelsea-Flatiron-Union Square                                 "
"Advertising",,"Conill","Our purpose is to transform our clients' brands, businesses and reputations within the rapidly expnading U.S. Latino market.","375 Hudson St.","8th Floor","Manhattan","10014","(212)463-2500","Cynthia McFarlane","EVP/Managing Director","(212)463-2500","(212)463-2509","375 Hudson St
Manhattan, NY 10014
(40.728434198916, -74.007163149531)","40.728435","-74.007151","2","3","37","1010379","1005990064","SoHo-TriBeCa-Civic Center-Little Italy                                     "
"Production Company",,"Hispanicspots.com","Hispanic Spots offers original production of commercials and corporate videos for the Hispanic and general market in Spanish and English We also provide adaptation of television radio print and internet advertising campaigns for the US Hispanic market Latin America and Spain and voice-over or subtitle Spanish programs into English or other languages Other services casting multilingual voice-overs and foreign accent narration dubbing translation transcription and subtitling.","5 West 36th Street","4th Floor","Manhattan","10018","212-489-6035","Julie H. Setbon","CEO","212-489-6035","212-202-4790","5 36th Street
Manhattan, NY 10018
(40.749853164796, -73.983869603502)","40.749898","-73.984011","5","4","84","1080728","1008380038","Midtown-Midtown South                                                      "
"Advertising",,"Winglatino","Winglatino generates ideas from the ""insight-out"".  There is no better way to connect brands with a moving target.","114 5th Avenue","11th Floor","Manhattan","10011","(212)500-9400","Jackie Bird","President/CEO","(212)500-9400","(212)500-9483","114 5th Avenue
Manhattan, NY 10011
(40.737716644778, -73.992355948259)","40.737696","-73.992397","5","3","54","1015394","1008180051","Hudson Yards-Chelsea-Flatiron-Union Square                                 "
"Cable Network",,"HITN-TV","Hispanic Information & Telecommunications Network TV began operations in 1987 as the first Hispanic public television network in the U.S.  Reaching an audience of 12.5 million, HITN-TV is the #1 distributed Spanish-language cable network in the U.S., and is the source for educational, enriching and empowering content (e3) for our nation's largest and fastest-growing minority group.","449 Broadway","3rd Fl","Manhattan","10013","212-966-5660","Jill Lewis","Director of Public Relations","212-966-5660","212-966-5725","449 Broadway
Manhattan, NY 10013
(40.720431675375, -74.00099843296)","40.720437","-74.001014","2","1","47","1003021","1002310036","SoHo-TriBeCa-Civic Center-Little Italy                                     "
"Other",,"Emanon Entertainment, Inc.","Emanon Entertainment, Inc.is the product of an enterprising Latina, Rosalind Rodriguez. Emanon is a full service organization that fosters the continuous development of artist management, consulting and media divisions that cater to all aspects of the entertainment industry.  Early 2004 a catering division was created with new partner Chef Steve Paret their clients have been Nickelodeon, Convergence, model Heidi Klum, Comedy Central.","30-27 31 Street","Ste.4A","Queens","11102","718-204-8276","Rosalind Rodriguez / Steve Paret","President / CFO","718-204-8276","718-204-0668","30 27 31 Street
Queens, NY 11102
(40.771524024514, -73.926435450735)","40.766193","-73.921947","1","22","63","4444962","4006150126","Astoria                                                                    "
"Advertising",,"National Cable Communications","NCC is the nation's premiere Spot Cable advertising firm. NCC is the only company who represents every U.S. market and reaches virtually every wired cable home. We harness the enormous impact of every MSO's new technologies, products and services on behalf of America's leading regional and national advertisers","405 Lexington Ave","6th Floor","Manhattan","10174","(212)548-3300","Greg Schaefer","President","(212)548-3300","(212)519-0099","405 Lexington Ave
Manhattan, NY 10174
(40.751376000102, -73.975844999847)","40.751823","-73.97576","6","4","92","1036156","1012970023","Turtle Bay-East Midtown                                                    "
"Television Network",,"Telemundo Communications","Telemundo aims to entertain, inform and serve the Spanish-speaking U.S. Hispanic population with a comprehensive and quality broadcasting service. To provide advertising agencies and corporate clients with a wide spectrum of marketing and promotional opportunities to effectively and efficiently reach Telemundo network and station viewers.","30 Rockefeller Plaza",,"Manhattan","10112","(212)664-4444","Don Browne","President","(212)664-4444","(212)664-7985","30 Rockefeller Plaza
Manhattan, NY 10112
(40.759031999727, -73.978372000367)","40.758754","-73.978692","5","4","104","1076262","1012657501","Midtown-Midtown South                                                      "
"Advertising",,"OLE","Our philosophy is in our name.  For Hispanics ""ole!"" is an expression that celebrates creativity, enthusiasm and things well done.  That is OLE's promise: clients should asy ""ole!"" after seeing our work and what is does for their business.","41-51 E. 11th St.","11th Floor","Manhattan","10003","(212)465-3222","Javier Escobedo","Managing Partner","(212)465-3222","(212)937-3652","41 51 E 11th St
Manhattan, NY 10003
(40.731943947555, -73.98887214913)","40.733164","-73.99296","2","2","61","1009127","1005630001","West Village                                                               "
"Advertising",,"Reynardus & Moya Advertising","We are committed to creating measurable value for our clients in every service we offer; a great work environment where our people can thrive; relevant advertising that touches the heart and talks to the intellect; above all we are committed to our clients' success.","817 Broadway","2nd Floor","Manhattan","10003","(212)204-8340","Jorge E. Reynardus","Principal","(212)204-8340","(212)979-9357","817 Broadway
Manhattan, NY 10003
(40.73318406175, -73.991132870299)","40.733043","-73.99116","2","2","61","1009134","1005630031","West Village                                                               "
"Other",,"National Association of Latino Independent Producers","National members organization of Latino/a film, television and documentary writers, directors, producers and craftspeople, educators, advocates and students.  eNewsletter LATINOS IN THE INDUSTRY, a national conference and other programs develop skills and relationships to increase employment and projects by and about Latinos.","32 Broadway","Fl. 14","Manhattan","10004","646-336-6664","Kathryn Galan","Executive Director","310-457-4445","310-589-9997","32 Broadway
Manhattan, NY 10004
(40.706042522906, -74.013085321034)","40.706045","-74.013096","1","1","9","1078979","1000220017","Battery Park City-Lower Manhattan                                          "
"Advertising",,".30 Segundos LLC","Mission statement: Create impactful advertising that connects with Hispanic comsumers emotionally and rationally in order to influence their decision.","110 5th Avenue",,"Manhattan","10011","(212)463-1196","Marta Ferreira","Partner","(212)463-1196",,"110 5th Avenue
Manhattan, NY 10011
(40.737500807491, -73.992508833004)","40.737424","-73.992599","5","3","54","1015393","1008180041","Hudson Yards-Chelsea-Flatiron-Union Square                                 "
"Magazine / Newspaper / Publishing",,"MIRA!","Mira! Features exclusive news, gossip and goings-on about the hottest movie, music and TV stars in the Latino community. With its emphasis on newsstand sales, Mira! Is the Spanish language celebrity title that's ""bought to be read"".","One Park Avenue",,"Manhattan","10016","(212)743-6683","Michelle Cortes","Associate Publisher","(212)743-6683","(212)743-6627","One Park Avenue
Manhattan, NY 10016
(40.745242969987, -73.978232985864)",,,,,,,,
