"dvs_res_id","name","service","hours","phone_number","address","city","state","zip","building_details","borough","walk_in","email_address","website","service_details"
"1","Bronx Employment Works","Employment","Mon - Wed: 9:00 AM - 5:00 PM; Thu - Fri: 9:00 AM - 7:00 PM","Please call 311 to contact this location.","369 East 148th Street","Bronx","NY","10455","1st Floor","Bronx","true","N/A","https://www1.nyc.gov/site/sbs/careers/careers.page","This center provides career advisement and preparation workshops to help Bronx and Manhattan candidates succeed beyond barriers to work that are common for individuals formerly acquainted with the criminal justice system."
"2","East New York Workforce1 Career Center","Employment","Mon - Fri: 8:30 AM - 5:00 PM","Please call 311 to contact this location.","400 East Fordham Road","Bronx","NY","10458","Entrance on Webster Avenue","Bronx","true","N/A","http://www.nyc.gov/html/sbs/wf1/html/about/about.shtml","Dedicated Veteran Specialist available to connect veterans and their spouses to training, jobs, and supportive services to meet your career goals while leveraging your military skills and experiences. Workforce1 Career Centers are a proud partner of the American Job Center network."
"3","Bronx Workforce1 Industrial & Transportation Career Center","Employment","Mon - Fri: 8:30 AM - 5:00 PM","Please call 311 to contact this location.","14 Bruckner Boulevard","Bronx","NY","10454","3rd Floor","Bronx","true","N/A","http://www.nyc.gov/html/sbs/wf1/html/about/transportation.shtml","The center offers comprehensive career services and connections to high-quality employment in the industrial and manufacturing sectors. Workforce1 Career Centers are a proud partner of the American Job Center network."
"4","Brooklyn Employment Works","Employment","Mon: 8:30 AM - 5:00 PM; Tue: 8:30 AM - 7:00 PM; Wed: 8:30 AM - 6:00 PM; Thu - Fri: 8:30 AM - 5:00 PM","Please call 311 to contact this location.","9 Bond Street","Brooklyn","NY","11201","5th Floor","Brooklyn","true","N/A","https://www1.nyc.gov/site/sbs/careers/careers.page","This center provides career advisement and preparation workshops to help Brooklyn, Queens, and Staten Island candidates succeed beyond barriers to work that are common for individuals formerly acquainted with the criminal justice system."
"5","Brooklyn Workforce1 Career Center","Employment","Mon - Fri: 9:00 AM - 5:00 PM","Please call 311 to contact this location.","9 Bond Street","Brooklyn","NY","11201","5th Floor","Brooklyn","true","N/A","http://www.nyc.gov/html/sbs/wf1/html/about/about.shtml","Dedicated Veteran Specialist available to connect veterans and their spouses to training, jobs, and supportive services to meet your career goals while leveraging your military skills and experiences. Workforce1 Career Centers are a proud partner of the American Job Center network."
"6","Brooklyn Workforce1 Industrial & Transportation Career Center","Employment","Mon - Fri: 8:30 AM - 5:00 PM","Please call 311 to contact this location.","140 58th Street","Brooklyn","NY","11220","Building B"" Lobby""","Brooklyn","true","N/A","http://www.nyc.gov/html/sbs/wf1/html/about/transportation.shtml","The center offers comprehensive career services and connections to high-quality employment in the industrial and manufacturing sectors. Workforce1 Career Centers are a proud partner of the American Job Center network."
"7","East New York Workforce1 Career Center","Employment","Mon - Fri: 9:00 AM - 5:00 PM","Please call 311 to contact this location.","2619 Atlantic Avenue","Brooklyn","NY","11207",,"Brooklyn","true","N/A","https://www1.nyc.gov/site/sbs/careers/careers.page","This center provides an array of career services for area residents, including specially designed workshops to serve out-of-school, out-of-work youth and individuals formerly acquainted with the criminal justice system. Workforce1 Career Centers are a proud partner of the American Job Center network."
"8","Flushing Workforce1 Career Center","Employment","Mon - Fri: 9:00 AM - 5:00 PM","Please call 311 to contact this location.","41-17 Main Street","Flushing","NY","11355","3rd Floor","Queens","true","N/A","http://www.nyc.gov/html/sbs/wf1/html/about/about.shtml","Workforce1 Career Centers are a proud partner of the American Job Center network."
"9","Hunts Point Workforce1 Career Center","Employment","Mon - Fri: 9:00 AM - 5:00 PM","Please call 311 to contact this location.","1029 East 163rd Street","Bronx","NY","10459","3rd Floor","Bronx","true","N/A","http://www.nyc.gov/html/sbs/wf1/html/about/about.shtml","Dedicated Veteran Specialist available to connect veterans and their spouses to training, jobs, and supportive services to meet your career goals while leveraging your military skills and experiences. Workforce1 Career Centers are a proud partner of the American Job Center network."
"10","Long Island City Workforce1 Career Center","Employment","Mon - Fri: 9:00 AM - 5:00 PM","Please call 311 to contact this location.","38-81 13th Street","Long Island City","NY","11101",,"Queens","true","N/A","http://www.nyc.gov/html/sbs/wf1/html/about/about.shtml","Workforce1 Career Centers are a proud partner of the American Job Center network."
"11","Midtown Workforce1 Career Center","Employment","Mon - Fri: 9:00 AM - 5:00 PM","Please call 311 to contact this location.","1250 Broadway","New York","NY","10001","Suite 810","Manhattan","true","N/A","http://www.nyc.gov/html/sbs/wf1/html/about/about.shtml","Dedicated Veteran Specialist available to connect veterans and their spouses to training, jobs, and supportive services to meet your career goals while leveraging your military skills and experiences. Workforce1 Career Centers are a proud partner of the American Job Center network."
"12","NYC Business Solutions Bronx Center","Entrepreneurship","Mon - Fri: 9:00 AM - 5:00 PM","Please call 311 to contact this location.","400 East Fordham Road","Bronx","NY","10458","7th Floor","Bronx","true","N/A","https://www1.nyc.gov/site/sbs/businesses/businesses.page","Access free services to start, operate, and grow a small business."
"13","NYC Business Solutions Brooklyn Center","Entrepreneurship","Mon - Fri: 9:00 AM - 5:00 PM","Please call 311 to contact this location.","9 Bond Street","Brooklyn","NY","11201","5th Floor","Brooklyn","true","N/A","https://www1.nyc.gov/site/sbs/businesses/businesses.page","Access free services to start, operate, and grow a small business."
"14","NYC Business Solutions Industrial and Transportation - Bronx","Entrepreneurship","Call 311 to contact this location for hours.","Please call 311 to contact this location.","555 Bergen Avenue","Bronx","NY","10455","3rd Floor","Bronx","true","N/A","http://www.nyc.gov/html/sbs/wf1/html/about/transportation.shtml","Begin or advance your career with the Workforce1 Industrial & Transportation Career Center. We work closely with leading businesses to recruit and train job candidates for positions in high growth sectors, such as transportation, manufacturing, construction, and wholesale trade."
"15","NYC Business Solutions Industrial and Transportation - Brooklyn","Entrepreneurship","Call 311 to contact this location for hours.","Please call 311 to contact this location.","85 South Oxford Street","Brooklyn","NY","11217",,"Brooklyn","true","N/A","http://www.nyc.gov/html/sbs/wf1/html/about/transportation.shtml","Begin or advance your career with the Workforce1 Industrial & Transportation Career Center. We work closely with leading businesses to recruit and train job candidates for positions in high growth sectors, such as transportation, manufacturing, construction, and wholesale trade."
"16","NYC Business Solutions Industrial and Transportation - Brooklyn","Entrepreneurship","Call 311 to contact this location for hours.","Please call 311 to contact this location.","2 Kingsland Avenue","Brooklyn","NY","11211",,"Brooklyn","true","N/A","http://www.nyc.gov/html/sbs/wf1/html/about/transportation.shtml","Begin or advance your career with the Workforce1 Industrial & Transportation Career Center. We work closely with leading businesses to recruit and train job candidates for positions in high growth sectors, such as transportation, manufacturing, construction, and wholesale trade."
"17","NYC Business Solutions Industrial and Transportation - Brooklyn","Entrepreneurship","Call 311 to contact this location for hours.","Please call 311 to contact this location.","241 41st Street","Brooklyn","NY","11232",,"Brooklyn","true","N/A","http://www.nyc.gov/html/sbs/wf1/html/about/transportation.shtml","Begin or advance your career with the Workforce1 Industrial & Transportation Career Center. We work closely with leading businesses to recruit and train job candidates for positions in high growth sectors, such as transportation, manufacturing, construction, and wholesale trade."
"18","NYC Business Solutions Industrial and Transportation - Manhattan","Entrepreneurship","Call 311 to contact this location for hours.","Please call 311 to contact this location.","79 John Street","New York","NY","10038","2nd Floor","Manhattan","true","N/A","http://www.nyc.gov/html/sbs/wf1/html/about/transportation.shtml","Begin or advance your career with the Workforce1 Industrial & Transportation Career Center. We work closely with leading businesses to recruit and train job candidates for positions in high growth sectors, such as transportation, manufacturing, construction, and wholesale trade."
"19","NYC Business Solutions Industrial and Transportation - Queens","Entrepreneurship","Call 311 to contact this location for hours.","Please call 311 to contact this location.","96-11 40th Road","Corona","NY","11368",,"Queens","true","N/A","http://www.nyc.gov/html/sbs/wf1/html/about/transportation.shtml","Begin or advance your career with the Workforce1 Industrial & Transportation Career Center. We work closely with leading businesses to recruit and train job candidates for positions in high growth sectors, such as transportation, manufacturing, construction, and wholesale trade."
"20","NYC Business Solutions Industrial and Transportation - Queens","Entrepreneurship","Call 311 to contact this location for hours.","Please call 311 to contact this location.","27-01 Queens Plaza North","Long Island City","NY","11101","9th Floor","Queens","true","N/A","http://www.nyc.gov/html/sbs/wf1/html/about/transportation.shtml","Begin or advance your career with the Workforce1 Industrial & Transportation Career Center. We work closely with leading businesses to recruit and train job candidates for positions in high growth sectors, such as transportation, manufacturing, construction, and wholesale trade."
"21","NYC Business Solutions Industrial and Transportation - Queens","Entrepreneurship","Call 311 to contact this location for hours.","Please call 311 to contact this location.","90-04 161st Street","Jamaica","NY","11432",,"Queens","true","N/A","http://www.nyc.gov/html/sbs/wf1/html/about/transportation.shtml","Begin or advance your career with the Workforce1 Industrial & Transportation Career Center. We work closely with leading businesses to recruit and train job candidates for positions in high growth sectors, such as transportation, manufacturing, construction, and wholesale trade."
"22","NYC Business Solutions Industrial and Transportation - Staten Island","Entrepreneurship","Call 311 to contact this location for hours.","Please call 311 to contact this location.","900 South Avenue","Staten Island","NY","10314","Suite 402","Staten Island","true","N/A","http://www.nyc.gov/html/sbs/wf1/html/about/transportation.shtml","Begin or advance your career with the Workforce1 Industrial & Transportation Career Center. We work closely with leading businesses to recruit and train job candidates for positions in high growth sectors, such as transportation, manufacturing, construction, and wholesale trade."
"23","NYC Business Solutions Lower Manhattan Center","Entrepreneurship","Mon - Fri: 9:00 AM - 5:00 PM","Please call 311 to contact this location.","79 John Street","New York","NY","10038","2nd Floor","Manhattan","true","N/A","https://www1.nyc.gov/site/sbs/businesses/businesses.page","Access free services to start, operate, and grow a small business."
"24","NYC Business Solutions Queens Center at the NYC Small Business Support Center","Entrepreneurship","Mon - Fri: 9:00 AM - 5:00 PM","Please call 311 to contact this location.","90-27 Sutphin Boulevard","Jamaica","NY","11435","4th Floor","Queens","true","N/A","https://www1.nyc.gov/site/sbs/businesses/businesses.page","The NYC Small Business Support Center offers services from Department of Consumer Affairs (DCA), Department of Health and Mental Hygiene (DOHMH), and Small Business Services (SBS) at one convenient location."
"25","NYC Business Solutions Staten Island Center","Entrepreneurship","Mon - Fri: 9:00 AM - 5:00 PM","Please call 311 to contact this location.","120 Stuyvesant Place","Staten Island","NY","10301","3rd Floor","Staten Island","true","N/A","https://www1.nyc.gov/site/sbs/businesses/businesses.page","Access free services to start, operate, and grow a small business."
"26","NYC Business Solutions Upper Manhattan Center","Entrepreneurship","Mon - Fri: 9:00 AM - 5:00 PM","Please call 311 to contact this location.","361 John Street","New York","NY","10027","2nd Floor","Manhattan","true","N/A","https://www1.nyc.gov/site/sbs/businesses/businesses.page","Access free services to start, operate, and grow a small business."
"27","NYC Business Solutions Washington Heights Center","Entrepreneurship","Mon - Fri: 9:00 AM - 5:00 PM","Please call 311 to contact this location.","560 West 181st Street","New York","NY","10033","2nd Floor","Manhattan","true","N/A","https://www1.nyc.gov/site/sbs/businesses/businesses.page","Access free services to start, operate, and grow a small business."
"28","NYS Department of Labor Flushing Workforce1 Career Center","Employment","Mon - Fri: 8:30 AM - 5:00 PM","Please call 311 to contact this location.","138-60 Barclay Avenue","Flushing","NY","11355","2nd Floor","Queens","true","N/A","http://www.nyc.gov/html/sbs/wf1/html/about/about.shtml","Workforce1 Career Centers are a proud partner of the American Job Center network."
"29","NYS Department of Labor Lower Manhattan Workforce1 Career Center","Employment","Mon - Fri: 8:30 AM - 4:30 PM","Please call 311 to contact this location.","75 Varick Street","New York","NY","10013","2nd Floor","Manhattan","true","N/A","http://www.nyc.gov/html/sbs/wf1/html/about/about.shtml","Workforce1 Career Centers are a proud partner of the American Job Center network."
"30","NYS Department of Labor MetroTech Workforce1 Career Center","Employment","Mon - Fri: 8:00 AM - 4:30 PM","Please call 311 to contact this location.","250 Schermerhorn Street","Brooklyn","NY","11201",,"Brooklyn","true","N/A","http://www.nyc.gov/html/sbs/wf1/html/about/about.shtml","Workforce1 Career Centers are a proud partner of the American Job Center network."
"31","Queens Workforce1 Career Center","Employment","Mon - Fri: 9:00 AM - 5:00 PM","Please call 311 to contact this location.","168-25 Jamaica Avenue","Jamaica","NY","11432","2nd Floor","Queens","true","N/A","http://www.nyc.gov/html/sbs/wf1/html/about/about.shtml","Dedicated Veteran Specialist available to connect veterans and their spouses to training, jobs, and supportive services to meet your career goals while leveraging your military skills and experiences. Workforce1 Career Centers are a proud partner of the American Job Center network."
"32","Rockaway Workforce1 Career Center","Employment","Mon - Fri: 8:30 AM - 5:00 PM","Please call 311 to contact this location.","57-17 Shore Front Parkway","Arverne","NY","11692",,"Queens","true","N/A","http://www.nyc.gov/html/sbs/wf1/html/about/about.shtml","Workforce1 Career Centers are a proud partner of the American Job Center network."
"33","Sandy Recovery Workforce1 Career Center","Employment","Mon - Fri: 9:00 AM - 5:00 PM","Please call 311 to contact this location.","1906 Mermaid Avenue","Brooklyn","NY","11224","2nd Floor","Brooklyn","true","N/A","https://www1.nyc.gov/site/sbs/careers/careers.page","The center connects Sandy-affected residents to recovery- and resiliency-related career opportunities and job training. Workforce1 Career Centers are a proud partner of the American Job Center network."
"34","Staten Island South Shore Workforce1 Career Center","Employment","Mon - Fri: 9:00 AM - 5:00 PM","Please call 311 to contact this location.","3845 Richmond Avenue","Staten Island","NY","10312","2nd Floor","Staten Island","true","N/A","https://www1.nyc.gov/site/sbs/careers/careers.page","The center connects Sandy-affected residents to recovery- and resiliency-related career opportunities and job training. Workforce1 Career Centers are a proud partner of the American Job Center network."
"35","Staten Island Workforce1 Career Center","Employment","Mon - Fri: 8:30 AM - 5:00 PM","Please call 311 to contact this location.","120 Stuyvesant Place","Staten Island","NY","10301","3rd Floor","Staten Island","true","N/A","http://www.nyc.gov/html/sbs/wf1/html/about/about.shtml","Dedicated Veteran Specialist available to connect veterans and their spouses to training, jobs, and supportive services to meet your career goals while leveraging your military skills and experiences. Workforce1 Career Centers are a proud partner of the American Job Center network."
"36","Staten Island Workforce1 Industrial & Transportation Career Center","Employment","Mon - Fri: 8:30 AM - 5:00 PM","Please call 311 to contact this location.","1972 Richmond Terrace","Staten Island","NY","10302",,"Staten Island","true","N/A","http://www.nyc.gov/html/sbs/wf1/html/about/transportation.shtml","The center offers comprehensive career services and connections to high-quality employment in the industrial and manufacturing sectors. Workforce1 Career Centers are a proud partner of the American Job Center network."
"37","Upper Manhattan Workforce1 Career Center","Employment","Mon - Tue: 8:30 AM - 5:00 PM; Wed: 8:30 AM - 8:00 PM; Thu - Fri: 8:30 AM - 5:00 PM","Please call 311 to contact this location.","215 West 125th Street","New York","NY","10027","6th Floor","Manhattan","true","N/A","http://www.nyc.gov/html/sbs/wf1/html/about/about.shtml","Dedicated Veteran Specialist available to connect veterans and their spouses to training, jobs, and supportive services to meet your career goals while leveraging your military skills and experiences. Workforce1 Career Centers are a proud partner of the American Job Center network."
"38","Washington Heights Workforce1 Career Center","Employment","Mon - Fri: 8:30 AM - 5:00 PM","Please call 311 to contact this location.","516 West 181st Street","New York","NY","10033","5th Floor","Manhattan","true","N/A","https://www1.nyc.gov/site/sbs/careers/careers.page","The center offers Global Talent Pipeline services, which support connections to employment and training for foreign-born New Yorkers. Workforce1 Career Centers are a proud partner of the American Job Center network."
"39","West Farms Workforce1 Career Center","Employment","Mon - Fri: 8:30 AM - 5:00 PM","Please call 311 to contact this location.","901 East Tremont Avenue","Bronx","NY","10460","2nd Floor","Bronx","true","N/A","https://www1.nyc.gov/site/sbs/careers/careers.page","The center offers services for youth, ages 18-24, who seek to obtain a High School Equivalency Diploma while preparing for careers. Workforce1 Career Centers are a proud partner of the American Job Center network."
"40","Workforce1 Healthcare Career Center","Employment","Mon - Fri: 9:00 AM - 5:00 PM","Please call 311 to contact this location.","79 John Street","New York","NY","10038","2nd Floor","Manhattan","true","N/A","http://www.nyc.gov/html/sbs/wf1/html/about/about.shtml","Workforce1 Career Centers are a proud partner of the American Job Center network."
"41","Workforce1 Industrial & Transportation Career Center","Employment","Mon - Fri: 8:30 AM - 5:00 PM","Please call 311 to contact this location.","168-46 91 Avenue","Jamaica","NY","11432","2nd Floor","Queens","true","N/A","http://www.nyc.gov/html/sbs/wf1/html/about/transportation.shtml","The center offers comprehensive career services and connections to high-quality employment in the industrial and manufacturing sectors. Dedicated Veteran Specialist available to connect veterans and their spouses to training, jobs, and supportive services to meet your career goals while leveraging your military skills and experiences. Workforce1 Career Centers are a proud partner of the American Job Center network."
"42","NYC Small Business Services","Entrepreneurship","Mon - Fri: 9:00 AM - 5:00 PM","(212) 618-8952","110 William Street","New York","NY","10038","7th Floor","Manhattan","true","N/A","http://www1.nyc.gov/site/sbs/index.page","The�NYC Department of Small Business Services (SBS)�helps unlock economic potential and create economic security for all New Yorkers by connecting New Yorkers to good jobs, creating stronger businesses, and building thriving neighborhoods across the five boroughs."
"43","NYC Department of Consumer Affairs (DCA)","Entrepreneurship","Mon - Fri: 9:00 AM - 5:00 PM; The Licensing Center and Settlement Unit open early at 8:30 a.m. on Wednesdays.","(212) 487-4110","42 Broadway","New York","NY","10004","1st Floor","Manhattan","true","N/A","https://www1.nyc.gov/site/dca/index.page","If you are interested in, Street Vendor Licenses: (212) 487-4104"
"44","NYC Department of Veterans' Services - Bronx","Advocacy and Assistance","Call (212) 416-5250 to schedule an appointment","(212) 416-5250","851 Grand Concourse","Bronx","NY","10451","Room 209","Bronx","true","connect@veterans.nyc.gov","https://www1.nyc.gov/site/veterans/programs/dvs-in-your-borough.page","Our Outreach Team of veterans and veteran family members understand from experience how hard it can be to navigate services. We help every service member, veteran, or family member -- regardless of era of service, branch of service, or discharge status -- find services you�re eligible for. Get one-on-one assistance in your home borough."
"168","Supportive Services for Veteran Families (SSFV)","Homelessness","Please contact location for hours.","(212) 873-2600","135 W 50th Street","New York","NY","10020","9th Floor","Manhattan","true","N/A","https://www.voa-gny.org/ssvf","Ensuring housing stability for those who served"
"45","NYC Department of Veterans' Services - Main Office","Advocacy and Assistance","Mon - Fri: 9:00 AM - 5:00 PM","(212) 416-5250","1 Centre Street","New York","NY","10007","22nd Floor, Room 2208","Manhattan","true","connect@veterans.nyc.gov","http://www.nyc.gov/vets","DVS works to match veterans with programs and services to support fulfilling and purpose-driven lives. DVS is dedicated to improving the lives of all New York City service members, veterans, and their families, regardless of type, length, or era of service, and regardless of discharge status."
"46","NYC Department of Veterans' Services - Manhattan","Advocacy and Assistance","Call (212) 416-5250 to schedule an appointment","(212) 416-5250","431 West 125th Street","New York","NY","10027",,"Manhattan","true","connect@veterans.nyc.gov","https://www1.nyc.gov/site/veterans/programs/dvs-in-your-borough.page","Our Outreach Team of veterans and veteran family members understand from experience how hard it can be to navigate services. We help every service member, veteran, or family member -- regardless of era of service, branch of service, or discharge status -- find services you�re eligible for. Get one-on-one assistance in your home borough."
"47","NYC Department of Veterans' Services - Queens","Advocacy and Assistance","Call (212) 416-5250 to schedule an appointment","(212) 416-5250","120-55 Queens Blvd","Queens","NY","11424",,"Queens","true","connect@veterans.nyc.gov","https://www1.nyc.gov/site/veterans/programs/dvs-in-your-borough.page","Our Outreach Team of veterans and veteran family members understand from experience how hard it can be to navigate services. We help every service member, veteran, or family member -- regardless of era of service, branch of service, or discharge status -- find services you�re eligible for. Get one-on-one assistance in your home borough."
"48","NYC Department of Veterans' Services - Brooklyn","Advocacy and Assistance","Call (212) 416-5250 to schedule an appointment","(212) 416-5250","9 Bond Street","Brooklyn","NY","11201","5th Floor","Brooklyn","true","connect@veterans.nyc.gov","https://www1.nyc.gov/site/veterans/programs/dvs-in-your-borough.page","Our Outreach Team of veterans and veteran family members understand from experience how hard it can be to navigate services. We help every service member, veteran, or family member -- regardless of era of service, branch of service, or discharge status -- find services you�re eligible for. Get one-on-one assistance in your home borough."
"49","NYC Department of Veterans' Services - Staten Island","Advocacy and Assistance","Call (212) 416-5250 to schedule an appointment","(212) 416-5250","10 Richmond Terrace","Staten Island","NY","10301","#G-15","Staten Island","true","connect@veterans.nyc.gov","https://www1.nyc.gov/site/veterans/programs/dvs-in-your-borough.page","Our Outreach Team of veterans and veteran family members understand from experience how hard it can be to navigate services. We help every service member, veteran, or family member -- regardless of era of service, branch of service, or discharge status -- find services you�re eligible for. Get one-on-one assistance in your home borough."
"50","Phipps Neighborhoods Opportunity Center at Melrose","Financial Assistance","Mon, Thurs, Fri 9am - 6pm; Tues & Wed 9:00 AM - 5:00 PM","Please call 311 to book an appointment.","3125 Third Avenue","Bronx","NY","10451",,"Bronx","true","N/A","https://www1.nyc.gov/site/dca/consumers/get-free-financial-counseling.page","Get free financial counseling at the City's Financial Empowerment Center, you can meet one-on-one with a professional financial counselor who can help you with tackling debt, improving your credit, creating a budget, opening a bank account, planning for your future and much more."
"51","Phipps Neighborhoods Opportunity Center at West Farms","Financial Assistance","Mon, Tues, Wed, and Fri: 9:00 AM - 5:00 PM","Please call 311 to book an appointment.","1030 East 178th Street","Bronx","NY","10460",,"Bronx","true","N/A","https://www1.nyc.gov/site/dca/consumers/get-free-financial-counseling.page","Get free financial counseling at the City's Financial Empowerment Center, you can meet one-on-one with a professional financial counselor who can help you with tackling debt, improving your credit, creating a budget, opening a bank account, planning for your future and much more."
"52","Phipps Neighborhoods - Catholic Charities Homebase (Bronx)","Financial Assistance","Wed: 9:00 AM - 5:00 PM","Please call 311 to book an appointment.","2155 Blackrock Avenue","Bronx","NY","10472",,"Bronx","true","N/A","https://www1.nyc.gov/site/dca/consumers/get-free-financial-counseling.page","Get free financial counseling at the City's Financial Empowerment Center, you can meet one-on-one with a professional financial counselor who can help you with tackling debt, improving your credit, creating a budget, opening a bank account, planning for your future and much more."
"53","BSRC- Brooklyn Cooperative Federal Credit Union","Financial Assistance","Tues and Fri 9:00 AM - 4:00 PM; Sat 9:00 AM-2:00 PM","Please call 311 to book an appointment.","834 Dekalb Avenue","Brooklyn","NY","11237",,"Brooklyn","true","N/A","https://www1.nyc.gov/site/dca/consumers/get-free-financial-counseling.page","Get free financial counseling at the City's Financial Empowerment Center, you can meet one-on-one with a professional financial counselor who can help you with tackling debt, improving your credit, creating a budget, opening a bank account, planning for your future and much more."
"54","Bedford Stuyvesant Restoration Corporation (BSRC)","Financial Assistance","Mon- Wed, and Fri: 9:00 AM-6:00 PM; Thurs: 9:00 AM -8:00 PM","Please call 311 to book an appointment.","1368 Fulton Street","Brooklyn","NY","11216",,"Brooklyn","true","N/A","https://www1.nyc.gov/site/dca/consumers/get-free-financial-counseling.page","Get free financial counseling at the City's Financial Empowerment Center, you can meet one-on-one with a professional financial counselor who can help you with tackling debt, improving your credit, creating a budget, opening a bank account, planning for your future and much more."
"55","BSRC - Brooklyn Central Library","Financial Assistance","Tues and Thurs: 10:00 AM-4:00 PM; Sat: 10:00 AM - 4:00 PM","Please call 311 to book an appointment.","10 Grand Army Plaza","Brooklyn","NY","11238",,"Brooklyn","true","N/A","https://www1.nyc.gov/site/dca/consumers/get-free-financial-counseling.page","Get free financial counseling at the City's Financial Empowerment Center, you can meet one-on-one with a professional financial counselor who can help you with tackling debt, improving your credit, creating a budget, opening a bank account, planning for your future and much more."
"56","BSRC - The Gregory Jackson Center for Brownsville","Financial Assistance","Tues: 9:00 AM-4:00 PM; Thurs: 10:00 AM -6:00 PM","Please call 311 to book an appointment.","519 Rockaway Avenue","Brooklyn","NY","11212",,"Brooklyn","true","N/A","https://www1.nyc.gov/site/dca/consumers/get-free-financial-counseling.page","Get free financial counseling at the City's Financial Empowerment Center, you can meet one-on-one with a professional financial counselor who can help you with tackling debt, improving your credit, creating a budget, opening a bank account, planning for your future and much more."
"57","NTFP - CAMBA","Financial Assistance","Mon - Thurs: 9:00 - 6:00 PM","Please call 311 to book an appointment.","885 Flatbush Avenue","Brooklyn","NY","11226",,"Brooklyn","true","N/A","https://www1.nyc.gov/site/dca/consumers/get-free-financial-counseling.page","Get free financial counseling at the City's Financial Empowerment Center, you can meet one-on-one with a professional financial counselor who can help you with tackling debt, improving your credit, creating a budget, opening a bank account, planning for your future and much more."
"58","NTFP - University Settlement - Ingersoll Center","Financial Assistance","Wed - Thurs: 9:00 AM - 6:00 PM, Friday 9:00 AM - 12:00 PM","Please call 311 to book an appointment.","177 Myrtle Avenue","Brooklyn","NY","11201",,"Brooklyn","true","N/A","https://www1.nyc.gov/site/dca/consumers/get-free-financial-counseling.page","Get free financial counseling at the City's Financial Empowerment Center, you can meet one-on-one with a professional financial counselor who can help you with tackling debt, improving your credit, creating a budget, opening a bank account, planning for your future and much more."
"59","NTFP - Northern Manhattan Improvement Corporation","Financial Assistance","M, W-F 9am-6pm, Tuesday 11am-8pm","Please call 311 to book an appointment.","45 Wadsworth Avenue","Manhattan","NY","10033",,"Manhattan","true","N/A","https://www1.nyc.gov/site/dca/consumers/get-free-financial-counseling.page","Get free financial counseling at the City's Financial Empowerment Center, you can meet one-on-one with a professional financial counselor who can help you with tackling debt, improving your credit, creating a budget, opening a bank account, planning for your future and much more."
"60","NTFP -Neighborhood Housing Services of New York City (Midtown)","Financial Assistance","Mon - Thurs: 9:00 AM - 6:00 PM; Fri:  9:00 AM-1:0 0PM","Please call 311 to book an appointment.","307 West 36th Street","Manhattan","NY","10018",,"Manhattan","true","N/A","https://www1.nyc.gov/site/dca/consumers/get-free-financial-counseling.page","Get free financial counseling at the City's Financial Empowerment Center, you can meet one-on-one with a professional financial counselor who can help you with tackling debt, improving your credit, creating a budget, opening a bank account, planning for your future and much more."
"61","NTFP - Midtown Community Court","Financial Assistance","Tues-Wed: 9:00 AM -6:00 PM","Please call 311 to book an appointment.","314 West 54th Street","Manhattan","NY","10019",,"Manhattan","true","N/A","https://www1.nyc.gov/site/dca/consumers/get-free-financial-counseling.page","Get free financial counseling at the City's Financial Empowerment Center, you can meet one-on-one with a professional financial counselor who can help you with tackling debt, improving your credit, creating a budget, opening a bank account, planning for your future and much more."
"62","NTFP - Lower East Side People's Federal Credit Union","Financial Assistance","Mon: 9:00 AM - 4 PM, Tues: 9:00 AM - 6:00 PM","Please call 311 to book an appointment.","237 East 104th Street","Manhattan","NY","10027",,"Manhattan","true","N/A","https://www1.nyc.gov/site/dca/consumers/get-free-financial-counseling.page","Get free financial counseling at the City's Financial Empowerment Center, you can meet one-on-one with a professional financial counselor who can help you with tackling debt, improving your credit, creating a budget, opening a bank account, planning for your future and much more."
"63","NTFP - Lower East Side People's Federal Credit Union","Financial Assistance","Thurs - Fri: 9:00 AM - 6:00 PM","Please call 311 to book an appointment.","37 Avenue B","Manhattan","NY","10009",,"Manhattan","true","N/A","https://www1.nyc.gov/site/dca/consumers/get-free-financial-counseling.page","Get free financial counseling at the City's Financial Empowerment Center, you can meet one-on-one with a professional financial counselor who can help you with tackling debt, improving your credit, creating a budget, opening a bank account, planning for your future and much more."
"64","Neighborhood Trust Financial Partners (NTFP)","Financial Assistance","Mon-Tues, Thurs - Fri: 9 AM -6: 00 PM, Wed: 11:00 AM-8:00 PM, Sat: 10:00 AM -2:00 PM","Please call 311 to book an appointment.","530 West 166th Street","Manhattan","NY","10032",,"Manhattan","true","N/A","https://www1.nyc.gov/site/dca/consumers/get-free-financial-counseling.page","Get free financial counseling at the City's Financial Empowerment Center, you can meet one-on-one with a professional financial counselor who can help you with tackling debt, improving your credit, creating a budget, opening a bank account, planning for your future and much more."
"65","NTFP - Manhattan Legal Services","Financial Assistance","Mon - Thurs: 9:00 AM-6:00 PM","Please call 311 to book an appointment.","1 West 125th Street","Manhattan","NY","10027",,"Manhattan","true","N/A","https://www1.nyc.gov/site/dca/consumers/get-free-financial-counseling.page","Get free financial counseling at the City's Financial Empowerment Center, you can meet one-on-one with a professional financial counselor who can help you with tackling debt, improving your credit, creating a budget, opening a bank account, planning for your future and much more."
"66","NYC Department of Consumer Affairs Licensing Center - The Financial Clinic","Financial Assistance","Mon and Thurs: 9:00 AM-5:00 PM","Please call 311 to book an appointment.","42 Broadway","Manhattan","NY","10004",,"Manhattan","true","N/A","https://www1.nyc.gov/site/dca/consumers/get-free-financial-counseling.page","Get free financial counseling at the City's Financial Empowerment Center, you can meet one-on-one with a professional financial counselor who can help you with tackling debt, improving your credit, creating a budget, opening a bank account, planning for your future and much more."
"67","NTFP - Neighborhood Housing Services of Northern Queens","Financial Assistance","Mon and Wed: 9:00 AM-6:00 PM","Please call 311 to book an appointment.","60-20 Woodside Avenue","Queens","NY","11377",,"Queens","true","N/A","https://www1.nyc.gov/site/dca/consumers/get-free-financial-counseling.page","Get free financial counseling at the City's Financial Empowerment Center, you can meet one-on-one with a professional financial counselor who can help you with tackling debt, improving your credit, creating a budget, opening a bank account, planning for your future and much more."
"68","TFC - Make the Road New York","Financial Assistance","Mon, Wed, and Fri: 9:00 AM-6:00 PM","Please call 311 to book an appointment.","92-10 Roosevelt Avenue","Queens","NY","11372",,"Queens","true","N/A","https://www1.nyc.gov/site/dca/consumers/get-free-financial-counseling.page","Get free financial counseling at the City's Financial Empowerment Center, you can meet one-on-one with a professional financial counselor who can help you with tackling debt, improving your credit, creating a budget, opening a bank account, planning for your future and much more."
"132","Homebase -RiseBoro Community Partnership","Homelessness","Please contact location for hours.","(718) 366-4300","90 Beaver Street","Brooklyn","NY","11206","1st Floor","Brooklyn","true","N/A","https://www1.nyc.gov/site/hra/help/homebase.page","Will only be able to assist residents with the following zip codes of: 11206, 11211, 11221, 11222, 11237, 11249, 11251"
"69","TFC -Catholic Charities Homebase (Queens)","Financial Assistance","Mon, Wed, and Fri: 9:00 AM-5:00 PM","Please call 311 to book an appointment.","161-10 Jamaica Avenue","Jamaica","NY","11432",,"Queens","true","N/A","https://www1.nyc.gov/site/dca/consumers/get-free-financial-counseling.page","Get free financial counseling at the City's Financial Empowerment Center, you can meet one-on-one with a professional financial counselor who can help you with tackling debt, improving your credit, creating a budget, opening a bank account, planning for your future and much more."
"70","Urban Upbound (UU)","Financial Assistance","Mon- Wed and Fri:  9:00 AM - 6:00 PM; Thurs: 11:00 AM -7:00 PM","Please call 311 to book an appointment.","10-38 41st Avenue","Queens","NY","11101",,"Queens","true","N/A","https://www1.nyc.gov/site/dca/consumers/get-free-financial-counseling.page","Get free financial counseling at the City's Financial Empowerment Center, you can meet one-on-one with a professional financial counselor who can help you with tackling debt, improving your credit, creating a budget, opening a bank account, planning for your future and much more."
"71","NTFP - University Neighborhood Housing Program","Financial Assistance","Mon, Tues, and Wed: 9:00 AM - 6:00 PM","Please call 311 to book an appointment.","2715 Bainbridge Avenue","Bronx","NY","10458",,"Bronx","true","N/A","https://www1.nyc.gov/site/dca/consumers/get-free-financial-counseling.page","Get free financial counseling at the City's Financial Empowerment Center, you can meet one-on-one with a professional financial counselor who can help you with tackling debt, improving your credit, creating a budget, opening a bank account, planning for your future and much more."
"72","NTFP -New York City Financial Empowerment Center
At Lower East Side People's Federal Credit Union (LESPFCU) � North Shore Branch","Financial Assistance","Mon and Tues: 9:00 AM - 4:00PM","Please call 311 to book an appointment.","2 Saint Pauls Avenue","Staten Island","NY","10301",,"Staten Island","true","N/A","https://www1.nyc.gov/site/dca/consumers/get-free-financial-counseling.page","Get free financial counseling at the City's Financial Empowerment Center, you can meet one-on-one with a professional financial counselor who can help you with tackling debt, improving your credit, creating a budget, opening a bank account, planning for your future and much more."
"73","NYS Division of US Department of Veterans' Affairs","Advocacy and Assistance","Mon - Fri: 8:00 AM - 5:00 PM","(888) 838-7697","245 W Houston Street","New York","NY","10014",,"Manhattan","true","DVAInfo@veterans.ny.gov","https://www.benefits.va.gov/newyork/","If you would like to learn more about the benefits and services you may be eligible for as a Veteran, servicemember, or as a family member of a Veteran or servicemember, please call the New York State Division of Veterans� Affairs Help Line at�1.888.838.7697 (VETSNYS), where you may also schedule an initial phone contact appointment with one of our Veterans Benefits Advisors."
"74","Services for the UnderServed (S:US) - Veteran's Services","Advocacy and Assistance","Mon - Fri: 9:00 AM - 5:00 PM","(646) 790-2449","463 7th Avenue","New York","NY","10018",,"Manhattan","true","N/A","https://sus.org/our-services/veterans/","In addition to serving veterans with the greatest barriers to independence and a full community embrace, we serve the needs of veterans at the highest risk of suicide due to: the effects of chronic homelessness and unemployment, untreated PTSD, and disconnection from their families and a variety of social supports."
"75","30th Street Intake Center","Homelessness","24/7","(718) 557-1399","400 East 30th Street","New York","NY","10016",,"Manhattan","true","N/A","https://www1.nyc.gov/site/dhs/shelter/singleadults/single-adults-applying.page","Shelter Intake Center for Adult Men"
"76","Adult Family Intake Center (AFIC)","Homelessness","24/7","Please call 311 to contact this location.","430 E 29th St","New York","NY","10016",,"Manhattan","true","N/A","https://www1.nyc.gov/site/dhs/shelter/families/adult-families-applying.page","Shelter Intake Center for Adult Families with no children under 21 years old"
"77","Frankline Women's Shelter","Homelessness","24/7","(929) 281-2330","1122 Franklin Avenue","Bronx","NY","10456",,"Bronx","true","N/A","https://www1.nyc.gov/site/dhs/shelter/singleadults/single-adults-applying.page","Shelter Intake Center for Adult Women"
"78","HELP Women's Center","Homelessness","24/7","(718) 483-7700","116 Williams Avenue","Brooklyn","NY","11207",,"Brooklyn","true","N/A","https://www1.nyc.gov/site/dhs/shelter/singleadults/single-adults-applying.page","Shelter Intake Center for Adult Women"
"79","The Living Room","Homelessness","24/7","(718) 893-3606","800 Barretto Street","Bronx","NY","10474",,"Bronx","true","N/A","http://www.bronxworks.org/living-room-safe-havens","24 Hour Drop-In Center For Adults"
"80","Mainchance","Homelessness","24/7","(212) 883-0680","120 E 32nd St","New York","NY","10016",,"Manhattan","true","N/A","http://www.grandcentralneighborhood.org/services/mainchance-drop-in-center/","24 Hour Drop-In Center For Adults"
"81","Olivierie Center for Homeless","Homelessness","24/7","(212) 947-3211","257 W 30th St","New York","NY","10001",,"Manhattan","true","N/A","https://www.nycservice.org/organizations/index.php?org_id=1520","24 Hour Drop-In Center For Adults"
"82","Prevention Assistance and Temporary Housing Office (PATH)","Homelessness","24/7","(844) 347-7284","151 E 151st St","Bronx","NY","10451",,"Bronx","true","N/A","https://www1.nyc.gov/site/dhs/shelter/families/families-with-children-applying.page","Shelter Intake Center for Families with children under 21 and pregnant women"
"83","Project Hospitality","Homelessness","24/7","(718) 448-1544","100 Park Avenue","Staten Island","NY","10301",,"Staten Island","true","N/A","https://www.projecthospitality.org/","24 Hour Drop-In Center For Adults"
"84","The Gathering Place","Homelessness","24/7","(718) 385-8726","2402 Atlantic Avenue","Brooklyn","NY","11233","Basement","Brooklyn","true","N/A","https://www.camba.org/programs/housing/homelessshelters/dropincenterandrelatedprograms/thegatheringplacedropincenter","24 Hour Drop-In Center For Adults"
"85","Bronx Veterans Court","Advocacy and Assistance","Mon - Fri: 8:00 AM - 4:00 PM","(718) 618-3171","265 East 161st Street","Bronx","NY","10451",,"Bronx","true","ProblemSolving@nycourts.gov","https://www.nycourts.gov/courts/problem_solving/vet/courts.shtml","A Veterans' Treatment Court/Track is located within an existing Drug Treatment or Mental Health Court. It provides veteran-defendants suffering from addiction, mental illness and/or co-occurring disorders with links to community-based services as well as to local, state, and federal agencies specializing in veterans' affairs.�"
"113","Success Academy - Military Veteran Initiative","Employment","Please contact location for hours.","(646) 597-4641","95 Pine Street","New York","NY","10005","Floor 6","Manhattan",,"veterans@successacademies.org","https://jobs.successacademies.org/veterans/","We have a dedicated team of military veteran recruiters who will respond to emails, review all resumes, support veterans during the interview and onboarding process, and offer opportunities to network with other veterans."
"86","Brooklyn Veterans Treatment Court","Advocacy and Assistance","Please contact location for hours.","(347) 296-1133","320 Jay Street","Brooklyn","NY","11201",,"Brooklyn","true","ProblemSolving@nycourts.gov","https://www.nycourts.gov/courts/2jd/brooklyntreatment/","A Veterans' Treatment Court/Track is located within an existing Drug Treatment or Mental Health Court. It provides veteran-defendants suffering from addiction, mental illness and/or co-occurring disorders with links to community-based services as well as to local, state, and federal agencies specializing in veterans' affairs.�"
"87","City Bar Justice Center","Advocacy and Assistance","Mon-Thurs: 9:00 AM - 5:00 PM; Fri: 9:00 AM - 1:00 PM; Closed daily 1:00 PM - 2:00 PM","(212) 626-7383","42 West 44th Street","New York","NY","10036",,"Manhattan","true","cbjc@nycbar.org","http://www.citybarjusticecenter.org/projects/veterans-assistance-project/","The Legal Hotline is staffed by attorneys who assist low-income callers on a range of civil legal issues, including matrimonial and family law, housing law, domestic violence, bankruptcy, and debt collection and benefits. Our staff includes bilingual attorneys who speak English and Spanish, and we can accept calls in any language through interpreting services."
"88","Kings Misdemeanor Veterans Treatment Center","Advocacy and Assistance","Please contact location for hours.","(347) 404-9556","320 Jay Street","Brooklyn","NY","11201","14th Floor","Brooklyn","true","ProblemSolving@nycourts.gov","https://www.nycourts.gov/courts/problem_solving/vet/courts.shtml","A Veterans' Treatment Court/Track is located within an existing Drug Treatment or Mental Health Court. It provides veteran-defendants suffering from addiction, mental illness and/or co-occurring disorders with links to community-based services as well as to local, state, and federal agencies specializing in veterans' affairs.�"
"89","Legal Services NYC (LSNY)","Advocacy and Assistance","Mon - Fri: 10:00 AM - 4:00 PM","(347) 592-2409","40 Worth Street","New York","NY","10013",,"Manhattan","true","N/A","http://www.legalservicesnyc.org/what-we-do/practice-areas-and-projects/veterans-justice-project","The Veteran Justice Project (VJP) works holistically to protect veterans and their family members from homelessness, resolve barriers to employment, preserve economic stability, and remedy many other problems that derail veterans� successful reintegration into civilian life."
"90","Manhattan Veteran Treatment Court","Advocacy and Assistance","Please contact location for hours.","(646) 386-4634","100 Centre Street","New York","NY","10013",,"Manhattan","true","ProblemSolving@nycourts.gov","https://www.nycourts.gov/courts/problem_solving/vet/courts.shtml","A Veterans' Treatment Court/Track is located within an existing Drug Treatment or Mental Health Court. It provides veteran-defendants suffering from addiction, mental illness and/or co-occurring disorders with links to community-based services as well as to local, state, and federal agencies specializing in veterans' affairs.�"
"91","New York Legal Assistance Group (NYLAG)","Advocacy and Assistance","Mon - Fri: 9:00 AM - 5:00 PM","(212) 613-5081","7 Hanover Square","New York","NY","10004",,"Manhattan","true","N/A","http://nylag.org/units","The New York Legal Assistance Group uses the power of the law to help New Yorkers in need combat social and economic injustice. We address emerging and urgent legal needs with comprehensive, free civil legal services, impact litigation, policy advocacy, and community education."
"92","Richmond County Veterans Treatment Court","Advocacy and Assistance","Please contact location for hours.","(718) 675-8530","26 Central Avenue","Staten Island","NY","10301",,"Staten Island","true","ProblemSolving@nycourts.gov","https://www.nycourts.gov/courts/nyc/drug_treatment/sitc/index.shtml","A Veterans' Treatment Court/Track is located within an existing Drug Treatment or Mental Health Court. It provides veteran-defendants suffering from addiction, mental illness and/or co-occurring disorders with links to community-based services as well as to local, state, and federal agencies specializing in veterans' affairs.�"
"93","Veteran Advocacy Project - Urban Justice Center","Advocacy and Assistance","Please contact location to schedule an appointment.","(646) 602-5620","40 Rector Street","New York","NY","10006","9th Floor","Manhattan","false","veterans@urbanjustice.org","https://vap.urbanjustice.org/","If you are a veteran experiencing legal problems, we may be able to help."
"94","James J. Peters VA Medical Center","Health/Wellness","24/7","(718) 584-9000","130 West Kingsbridge Road","Bronx","NY","10468",,"Bronx","true","N/A","https://www.bronx.va.gov/","The VA New York Harbor Healthcare System serves veterans from the Manhattan, Brooklyn, Queens, Staten Island and the surrounding 5 boroughs of New York. In addition to our main medical center in Brooklyn, we offer a number of services to our patients in several community-based outpatient clinics. For mental health, call (718) 594-9000 x5172."
"95","St. Albans VA Medical Center","Health/Wellness","Mon - Fri: 8:00 AM - 5:00 PM","(718) 526-1000","179-00 Linden Boulevard","Jamaica","NY","11425",,"Queens","true","N/A","https://www.nyharbor.va.gov/","The VA New York Harbor Healthcare System serves veterans from the Manhattan, Brooklyn, Queens, Staten Island and the surrounding 5 boroughs of New York. In addition to our main medical center in Brooklyn, we offer a number of services to our patients in several community-based outpatient clinics. For mental health, call (718) 836-6600 x4165."
"96","Steven A. Cohen Military Family Clinic at NYU Langone","Health/Wellness","Mon - Thurs: 9:00 AM - 8:00 PM; Fri: 9:00 AM - 6:00 PM","(855) 698-4677","1 Park Avenue","New York","NY","10016",,"Manhattan","true","N/A","http://nyulangone.org/locations/steven-a-cohen-military-family-clinic","The VA New York Harbor Healthcare System serves veterans from the Manhattan, Brooklyn, Queens, Staten Island and the surrounding 5 boroughs of New York. In addition to our main medical center in Brooklyn, we offer a number of services to our patients in several community-based outpatient clinics."
"97","VA NY Harbor Health Care System Brooklyn Campus (Brooklyn VA Medical Center)","Health/Wellness","Mon - Fri: 8:00 AM - 6:00 PM","(718) 836-6600","800 Poly Place","Brooklyn","NY","11209",,"Brooklyn","true","N/A","https://www.nyharbor.va.gov/","The VA New York Harbor Healthcare System serves veterans from the Manhattan, Brooklyn, Queens, Staten Island and the surrounding 5 boroughs of New York. In addition to our main medical center in Brooklyn, we offer a number of services to our patients in several community-based outpatient clinics. For mental health, call (718) 836-6600 x4165."
"98","VA NY Harbor Health Care System Manhattan Campus (Manhattan VA Medical Center)","Health/Wellness","24/7","(212) 686-7500","423 E 23 Street","New York","NY","10010",,"Manhattan","true","N/A","https://www.nyharbor.va.gov/","The VA New York Harbor Healthcare System serves veterans from the Manhattan, Brooklyn, Queens, Staten Island and the surrounding 5 boroughs of New York. In addition to our main medical center in Brooklyn, we offer a number of services to our patients in several community-based outpatient clinics. For mental health, call (212) 686-7500 x4656."
"99","Thomas P. Noonan Jr. Department of Veterans Affairs Outpatient Clinic (Queens Community Clinic)","Health/Wellness","Mon - Fri: 8:00 AM - 4:30 PM","(718) 741-4800","4103 Queens Boulevard","Sunnyside","NY","11104-2801",,"Queens","true","N/A","https://www.bronx.va.gov/locations/Queens.asp","The VA New York Harbor Healthcare System serves veterans from the Manhattan, Brooklyn, Queens, Staten Island and the surrounding 5 boroughs of New York. In addition to our main medical center in Brooklyn, we offer a number of services to our patients in several community-based outpatient clinics. For mental health, call (212) 686-7500 x4656."
"100","Harlem VA Clinic","Health/Wellness","Mon - Fri: 8:00 AM - 4:30 PM","(646) 273-8125","55 West 125th Street","New York","NY","10027-4544","11th Floor, Room 1101","Manhattan","true","N/A","https://www.va.gov/find-locations/facility/vha_630GA","The VA New York Harbor Healthcare System serves veterans from the Manhattan, Brooklyn, Queens, Staten Island and the surrounding 5 boroughs of New York. In addition to our main medical center in Brooklyn, we offer a number of services to our patients in several community-based outpatient clinics. For mental health, call (212) 686-7500 x4656."
"101","Staten Island Community VA Clinic","Health/Wellness","Mon - Fri: 9:00 AM - 5:00 PM","(718) 761-2973","1150 South Avenue","Staten Island","NY","10314-3403","3rd Floor, Suite 301","Staten Island","true","N/A","https://www.va.gov/find-locations/facility/vha_630GB","The VA New York Harbor Healthcare System serves veterans from the Manhattan, Brooklyn, Queens, Staten Island and the surrounding 5 boroughs of New York. In addition to our main medical center in Brooklyn, we offer a number of services to our patients in several community-based outpatient clinics. For mental health, call (718) 836-660 x4165."
"102","U.S. Small Business Administration Veterans Business Outreach Center","Entrepreneurship","Call (518) 326-5522 for hours of operations","(518) 326-6328","44 Dalliba Avenue","Watervliet","NY","12189","#202","Outside of NYC","true","aamoroso@arsenalpartnership.com","https://www.sba.gov/tools/local-assistance/vboc","Federal Government"
"103","Bottomless Closets","Employment","Mon - Thurs: 9:00 AM - 5:30 PM","(212) 563-2499","16 East 52nd Street","New York","NY","10022","15th Floor","Manhattan","true","info@bottomlessclosetnyc.org","http://www.bottomlessclosetnyc.org/","Bottomless Closet works to reduce the barriers New York City women face in the search for employment as well as provide on-going support and education so they gain the tools to succeed in their professional lives."
"104","Institute for Career Development","Employment","Mon - Fri: 8:00 AM - 6:00 PM","(212) 585-6000","123 William Street","New York","NY","10038","5th Floor","Manhattan","true","N/A","http://www.icdnyc.org/veterans/","Disabled Veterans Only; ICD was founded to help wounded veterans of WWI reintegrate into their communities and return to work. Serving the needs of our nation's veterans has remained a consistent part of our history and mission."
"105","Workforce Opportunity Services","Employment","Mon - Fri: 9:00 AM - 5:00 PM","(212) 870-2260","475 Riverside Drive","New York","NY","10115","Suite 1350","Manhattan","true","N/A","http://www.wforce.org/","Post 9-11 Veterans Only; Workforce Opportunity Services (WOS) is a leading 501(c)(3) nonprofit committed to developing the skills of untapped talent from underserved and veteran communities through partnerships with organizations dedicated to diversifying their workforce."
"106","Bronx Vet Center","Health/Wellness","Mon and Thurs: 8:00 AM - 8:00 PM; Tues: 8:00 AM - 6:30 PM; Wed and Fri: 8:00 AM - 4:30 PM","(718) 367-3500","2471 Morris Avenue","Bronx","NY","10468","Suite 1A","Bronx","true","N/A","https://www.va.gov/directory/guide/facility.asp?ID=741&dnum=All&stateid=NY&v=1","Vet Centers are community-based counseling centers that provide a wide range of social and psychological services, including professional readjustment counseling to eligible Veterans, active duty service members, including National Guard and Reserve components, and their families."
"107","Brooklyn Vet Center","Health/Wellness","Mon: 8:30 AM - 6:30 PM; Tues, Wed and Fri: 8:30 AM - 5:00 PM; Thurs: 8:30 AM - 9:00 PM","(718) 630-2830","25 Chapel Street","Brooklyn","NY","11201","Suite 604","Brooklyn","true","N/A","https://www.va.gov/directory/guide/facility.asp?ID=742&dnum=All&stateid=NY&v=1","Vet Centers are community-based counseling centers that provide a wide range of social and psychological services, including professional readjustment counseling to eligible Veterans, active duty service members, including National Guard and Reserve components, and their families."
"108","Harlem Vet Center","Health/Wellness","Mon, Wed, Thurs: 8:00 AM - 8:00 PM; Tues and Fri: 8:00 AM - 4:00 PM ; Sat: 8:00 AM - 5:00 PM","(646) 273-8139","2279 3rd Avenue","New York","NY","10035","2nd Floor","Manhattan","true","N/A","https://www.va.gov/directory/guide/facility.asp?ID=5487&dnum=All&stateid=NY&v=1","Vet Centers are community-based counseling centers that provide a wide range of social and psychological services, including professional readjustment counseling to eligible Veterans, active duty service members, including National Guard and Reserve components, and their families."
"109","Manhattan Vet Center","Health/Wellness","Mon: 8:00 AM - 6:30 PM; Tues, Wed and Fri: 7:30 AM - 7:30 PM; Thurs: 8:00 AM - 7:30 PM; Sat: 9:00 AM - 5:30 PM","(212) 951-6866","32 Broadway","New York","NY","10004","2nd Floor - Suite 200","Manhattan","true","N/A","https://www.va.gov/directory/guide/facility.asp?ID=744&dnum=All&stateid=NY&v=1","Vet Centers are community-based counseling centers that provide a wide range of social and psychological services, including professional readjustment counseling to eligible Veterans, active duty service members, including National Guard and Reserve components, and their families."
"110","Queens Vet Center","Health/Wellness","Mon and Thurs: 8:30 AM - 7:30 PM; Tues, Wed and Fri: 8:30 AM - 5:00 PM","(718) 296-2871","75-10B 91 Avenue","Woodhaven","NY","11421",,"Queens","true","N/A","https://www.va.gov/directory/guide/facility.asp?ID=747&dnum=All&stateid=NY&v=1","Vet Centers are community-based counseling centers that provide a wide range of social and psychological services, including professional readjustment counseling to eligible Veterans, active duty service members, including National Guard and Reserve components, and their families."
"111","Staten Island Vet Center","Health/Wellness","Mon - Fri: 9:00 AM - 5:30 PM","(718) 816-4499","60 Bay Street","Staten Island","NY","10301",,"Staten Island","true","N/A","https://www.va.gov/directory/guide/facility.asp?ID=5440&dnum=All&stateid=NY&v=1","Vet Centers are community-based counseling centers that provide a wide range of social and psychological services, including professional readjustment counseling to eligible Veterans, active duty service members, including National Guard and Reserve components, and their families."
"112","City University of New York Veterans' Affairs (COVA)","Education","Mon - Fri: 9:00 AM - 5:00 PM","(646) 664-8835","555 West 57th Street","New York","NY","10019","#1401","Manhattan","true","veterans@cuny.edu","http://www2.cuny.edu/about/university-resources/veterans-affairs/",
"114","American Corporate Partners (ACP)","Health/Wellness","Please contact location for hours.","(212) 752-0700","140 E 45 Street","New York","NY","10017","Suite 19A","Manhattan","false","info@acp-usa.org","https://www.acp-usa.org/mentoring-program/program-overview","ACP�s free Mentoring Program connects post-9/11 veterans (Prot�g�s) with corporate professionals (Mentors) for�customized mentorships. ACP assists veterans on their path towards fulfilling, long-term careers, whether the veteran is job searching or newly employed."
"115","New York Regional Office Outbased at Manhattan VAMC, Office 1","Advocacy and Assistance","Mon and Thurs: 9:00 AM-5:30 PM","(212) 686-7500 ext. 3189","423 E 23 Street","New York","NY","10010","2nd Floor, Room 2207N","Manhattan","true","N/A","https://www.va.gov/find-locations/facility/vba_306h","This office can assist with applying for benefits, burial claim assistance, disability claim assistance, e-benefits registration assistance, family member claim assistance, and updated direct deposit information."
"116","New York Regional Office Outbased at Manhattan VAMC, Office 2","Advocacy and Assistance","Mon: 8:45AM - 4:45 PM","(212) 868-7500","423 E 23 Street","New York","NY","10010","Floor 15, Room 15108AS","Manhattan","true","N/A","https://www.va.gov/find-locations/facility/vba_306i","This office can assist with applying for benefits, burial claim assistance, disability claim assistance, e-benefits registration assistance, family member claim assistance, and updated direct deposit information."
"117","Edge4Vets","Employment","Please contact location for hours.","(360) 731-0603","140 W 62 Street","New York","NY","10023",,"Manhattan","false","tom@reclaimingthesky.com","http://edge4vets.com/","To succeed in business veterans need to translate their strengths from the military into tools for quality performance in the civilian workplace. The Edge4Vets program is here to guide you through the translation process with online training and workshop support. Get ready for a job that can lead to a career and the life you want."
"118","Veterans in Residence - BunkerLabs","Entrepreneurship","Please contact location for hours.","(646) 491-9060","142 W 57 Street","New York","NY","10019","Floor 11","Manhattan","false","N/A","https://bunkerlabs.org/our-locations/nyc/","WeWork Veterans in Residence powered by Bunker Labs is a national initiative providing space, services, business mentorship, and community to help veteran and military family member entrepreneurs find their tribe and create their life�s work. As part of our broader effort to connect transitioning service members and veterans to economic opportunity, WeWork�s Veterans Hiring Initiative is a commitment to hire 1500 veterans over the next five years."
"119","Homebase - ARCHNY I","Homelessness","Please contact location for hours.","(718) 414-1050","2155 Blackrock Ave","Bronx","NY","10472","1st fl","Bronx","true","N/A","https://www1.nyc.gov/site/hra/help/homebase.page","Will only be able to assist residents with the following zip codes of: 10462, 10472, 10473, 10474"
"120","Homebase - ARCHNY I","Homelessness","Please contact location for hours.","(929) 259-9430","890 Garrisson Avenue","Bronx","NY","10474","Lower level","Bronx","true","N/A","https://www1.nyc.gov/site/hra/help/homebase.page","Will only be able to assist residents with the following zip codes of: 10462, 10472, 10473, 10474"
"121","Homebase - ARCHNY II","Homelessness","Please contact location for hours.","(347) 947-3920","4377 Bronx Boulevard","Bronx","NY","10466","3rd Floor","Bronx","true","N/A","https://www1.nyc.gov/site/hra/help/homebase.page","Will only be able to assist residents with the following zip codes of: 10461, 10464, 10465, 10466, 10469, 10475"
"122","Homebase -ARCHNY II","Homelessness","Please contact location for hours.","(347) 913-4694","2901 White Plains Road","Bronx","NY","10467",,"Bronx","true","N/A","https://www1.nyc.gov/site/hra/help/homebase.page","Will only be able to assist residents with the following zip codes of: 10461, 10464, 10465, 10466, 10469, 10475"
"123","Homebase -Bronxworks","Homelessness","Please contact location for hours.","(718) 508-3100","1130 Grand Concourse","Bronx","NY","10456","3rd Floor","Bronx","true","N/A","https://www1.nyc.gov/site/hra/help/homebase.page","Will only be able to assist residents with the following zip codes of: 10456"
"124","Homebase -Bronxworks","Homelessness","Please contact location for hours.","(718) 993-2032","630 Jackson Avenue","Bronx","NY","10455","2nd Floor","Bronx","true","N/A","https://www1.nyc.gov/site/hra/help/homebase.page","Will only be able to assist residents with the following zip codes of: 10451, 10452, 10454, 10455"
"125","Homebase -HELP I","Homelessness","Please contact location for hours.","(718) 299-8473","1860 East Tremont Ave","Bronx","NY","10460","1st Floor","Bronx","true","N/A","https://www1.nyc.gov/site/hra/help/homebase.page","Will only be able to assist residents with the following zip codes of: 10459, 10460"
"126","Homebase -HELP III","Homelessness","Please contact location for hours.","(347) 226-4540","1780 Grand Concourse","Bronx","NY","10457","Level 1","Bronx","true","N/A","https://www1.nyc.gov/site/hra/help/homebase.page","Will only be able to assist residents with the following zip codes of: 10457, 10458"
"127","Homebase - HELP II","Homelessness","Please contact location for hours.","(646) 905-5289","815 Burke Avenue","Bronx","NY","10467","1st Floor","Bronx","true","N/A","https://www1.nyc.gov/site/hra/help/homebase.page","Will only be able to assist residents with the following zip codes of: 10467, 10470, 10453, 10463, 10468, 10471"
"128","Homebase - HELP II","Homelessness","Please contact location for hours.","(718) 215-6453","1981 Sedgwick Avenue","Bronx","NY","10453","1st Floor","Bronx","true","N/A","https://www1.nyc.gov/site/hra/help/homebase.page","Will only be able to assist residents with the following zip codes of: 10467, 10470, 10453, 10463, 10468, 10471"
"129","Homebase - CAMBA I","Homelessness","Please contact location for hours.","(718) 622-7323","1117 Eastern Parkway","Brooklyn","NY","11213","3rd Floor","Brooklyn","true","N/A","https://www1.nyc.gov/site/hra/help/homebase.page","Will only be able to assist residents with the following zip codes of: 11201, 11205, 11213, 11215, 11216, 11217,11225, 11231, 11233, 11238"
"130","Homebase - CAMBA I","Homelessness","Please contact location for hours.","(718) 408-5756 ext.37100","1958 Fulton Street","Brooklyn","NY","11233","2nd Floor","Brooklyn","true","N/A","https://www1.nyc.gov/site/hra/help/homebase.page","Will only be able to assist residents with the following zip codes of: 11201, 11205, 11213, 11215, 11216, 11217,11225, 11231, 11233, 11238"
"131","Homebase - CAMBA II","Homelessness","Please contact location for hours.","(718) 408-5766","2244 Church Avenue","Brooklyn","NY","11226","4th Floor","Brooklyn","true","N/A","https://www1.nyc.gov/site/hra/help/homebase.page","Will only be able to assist residents with the following zip codes of: 11204, 11209, 11210, 11214, 11218, 11219, 11220, 11223, 11224, 11226, 11228, 11229,11230,11232, 11235"
"133","Homebase - RiseBoro Community Partnership","Homelessness","Please contact location for hours.","(347) 295-3738","1475 Myrtle Avenue","Brooklyn","NY","11237","1st Floor","Brooklyn","true","N/A","https://www1.nyc.gov/site/hra/help/homebase.page","Will only be able to assist residents with the following zip codes of: 11206, 11211, 11221, 11222, 11237, 11249, 11251"
"134","Homebase - RiseBoro Community Partnership","Homelessness","Please contact location for hours.","(917) 819-3200","145 East 98 Street","Brooklyn","NY","11212","2nd Floor","Brooklyn","true","N/A","https://www1.nyc.gov/site/hra/help/homebase.page","Will only be able to assist residents with the following zip codes of: 11212"
"135","Homebase - RiseBoro Community Partnership","Homelessness","Please contact location for hours.","(917) 819-3200","1875 Broadway","Brooklyn","NY","11207","1st Floor","Brooklyn","true","N/A","https://www1.nyc.gov/site/hra/help/homebase.page","Will only be able to assist residents with the following zip codes of: 11212"
"136","Homebase - CCNS","Homelessness","Please contact location for hours.","(929) 234-3036","1900 Ralph Avenue","Brooklyn","NY","11234","1st Floor","Brooklyn","true","N/A","https://www1.nyc.gov/site/hra/help/homebase.page","Will only be able to assist residents with the following zip codes of: 11203, 11234, 11236"
"137","Homebase - CCNS","Homelessness","Please contact location for hours.","(929) 234-3036","3060 Fulton Street","Brooklyn","NY","11208","1st Floor","Brooklyn","true","N/A","https://www1.nyc.gov/site/hra/help/homebase.page","Will only be able to assist residents with the following zip codes of: 11207, 11208, 11239, 11203, 11234, 11236"
"138","Homebase - CCNS","Homelessness","Please contact location for hours.","(718) 408-7181","560 Livonia Avenue","Brooklyn","NY","11207","1st Floor","Brooklyn","true","N/A","https://www1.nyc.gov/site/hra/help/homebase.page","Will only be able to assist residents with the following zip codes of: 11207, 11208, 11239"
"139","Homebase - CCNS","Homelessness","Please contact location for hours.","(718) 674-1000","161-10  Jamaica Avenue","Jamaica","NY","11432","5th Floor","Queens","true","N/A","https://www1.nyc.gov/site/hra/help/homebase.page","Will only be able to assist residents with a zip code in Queens"
"140","Homebase - CCNS","Homelessness","Please contact location for hours.","(718) 647-1015","1847 Mott Ave","Far Rockaway","NY","11691",,"Queens","true","N/A","https://www1.nyc.gov/site/hra/help/homebase.page","Will only be able to assist residents with a zip code in Queens"
"141","Homebase - SUS","Homelessness","Please contact location for hours.","(917) 492-1019","516 West 181st Street","Manhattan","NY","10033","4th Floor","Manhattan","true","N/A","https://www1.nyc.gov/site/hra/help/homebase.page","Will only be able to assist residents with a zip code in Manhattan"
"142","Homebase - SUS","Homelessness","Please contact location for hours.","(917) 492-1019","2322 3rd Avenue","Manhattan","NY","10035","3rd Floor","Manhattan","true","N/A","https://www1.nyc.gov/site/hra/help/homebase.page","Will only be able to assist residents with a zip code in Manhattan"
"143","Homebase - CAMBA","Homelessness","Please contact location for hours.","(718) 226-0496","209 Bay Street","Staten Island","NY","10301","1st Floor","Staten Island","true","N/A","https://www1.nyc.gov/site/hra/help/homebase.page","Will only be able to assist residents with a zip code in Staten Island"
"144","Homebase - CAMBA","Homelessness","Please contact location for hours.","(718) 282-6473","120 Stuyvesant Place","Staten Island","NY","10301","4th Floor, Suite 413","Staten Island","true","N/A","https://www1.nyc.gov/site/hra/help/homebase.page","Will only be able to assist residents with a zip code in Staten Island"
"145","America Works - Headquarters Office","Employment","Please contact location for hours.","(212) 599-5627","228 East 45th Street","New York","NY","10017","16th Floor","Manhattan","false","info@americaworks.com","http://americaworks.com/nyc/","America Works is an employment agency working with clients of all backgrounds and experience. We have successfully matched candidates with ideal positions since 1984. Whether you are looking for employment, or looking for employees, America Works is here to make the connections that last."
"146","America Works - Bronx Office","Employment","Please contact location for hours.","(917) 801-4668","1231 Lafayette Avenue","Bronx","NY","10474","3rd and 4th Floor","Bronx","false","info@americaworks.com","http://americaworks.com/nyc/","America Works is an employment agency working with clients of all backgrounds and experience. We have successfully matched candidates with ideal positions since 1984. Whether you are looking for employment, or looking for employees, America Works is here to make the connections that last."
"147","America Works - Brooklyn Office","Employment","Please contact location for hours.","(718) 797-5627","44 Court Street","Brooklyn","NY","11201","7th Floor","Brooklyn","false","info@americaworks.com","http://americaworks.com/nyc/","America Works is an employment agency working with clients of all backgrounds and experience. We have successfully matched candidates with ideal positions since 1984. Whether you are looking for employment, or looking for employees, America Works is here to make the connections that last."
"148","America Works - Jamaica Office","Employment","Please contact location for hours.","(718) 206-9675","88-11  165 Street","Jamaica","NY","11432","9th Floor","Queens","false","info@americaworks.com","http://americaworks.com/nyc/","America Works is an employment agency working with clients of all backgrounds and experience. We have successfully matched candidates with ideal positions since 1984. Whether you are looking for employment, or looking for employees, America Works is here to make the connections that last."
"149","America Works - Far Rockaway Office","Employment","Please contact location for hours.","(718) 673-6700","1931 Mott Ave","Far Rockaway","NY","11691","2nd Floor","Queens","false","info@americaworks.com","http://americaworks.com/nyc/","America Works is an employment agency working with clients of all backgrounds and experience. We have successfully matched candidates with ideal positions since 1984. Whether you are looking for employment, or looking for employees, America Works is here to make the connections that last."
"150","America Works - Staten Island Office","Employment","Please contact location for hours.","(718) 447-5627","1 Edgewater Street","Staten Island","NY","10305","2nd Floor","Staten Island","false","info@americaworks.com","http://americaworks.com/nyc/","America Works is an employment agency working with clients of all backgrounds and experience. We have successfully matched candidates with ideal positions since 1984. Whether you are looking for employment, or looking for employees, America Works is here to make the connections that last."
"167","NYC Veterans Alliance","Advocacy and Assistance","Mon - Fri: 11:00 AM - 6:00 PM","(929) 427-2301","118 W 22nd Street","New York","NY","10011",,"Manhattan","true","kristen@nycveteransalliance.org","https://www.nycveteransalliance.org/","Advancing veterans and families as civic leaders in NYC and beyond."
"151","American Works - 5th Avenue Office","Employment","Please contact location for hours.","(212) 947-5627","286 5th Avenue","New York","NY","10001","2nd Floor","Manhattan","false","info@americaworks.com","http://americaworks.com/nyc/","America Works is an employment agency working with clients of all backgrounds and experience. We have successfully matched candidates with ideal positions since 1984. Whether you are looking for employment, or looking for employees, America Works is here to make the connections that last."
"152","Black Veterans of Social Justice, Inc. (BVSJ)","Advocacy and Assistance","Please contact location for hours.","(718) 852-6004","665 Willoughby Avenue","Brooklyn","NY","11206",,"Brooklyn","true","admin@bvsj.org","http://www.bvsj.org/index.php","We will provide program services to assist military personnel making a smooth transition from active duty to civilian life.� We are dedicated to servicing military personnel, veterans and their families in the areas of social readjustment, housing, employment, compensation, disability, substance abuse, medical treatment, Post Traumatic Stress Syndrome, family intervention, prison counseling and relocation into the community, legal advocacy, discharge up-grade and redress of grievances within and outside the military. We will provide counseling, benefits information and�""tender loving care and an listening ear""!"
"153","Veterans on Campus (VOC)","Education","Mon - Fri: 9:00 AM - 5:00 PM","(646) 891-8637","1 Centre Street","New York","NY","10007","22nd Floor, Room 2208","Manhattan","true","N/A","https://www1.nyc.gov/site/veterans/programs/veterans-on-campus.page","Veterans on Campus-NYC is a coalition of the City's colleges and universities, corporations, and the NYC Department of Veterans and Services. VOC prepared Veterans on Campus Welcome Packet to help veteran students become oriented to being a student veteran in NYC."
"154","Disabled American Veteran (DAV) Local NYC Office","Advocacy and Assistance","Please contact location for hours.","(212) 807-3157","245 W Houston Street","New York","NY","10014","Rm 204","Manhattan","false","N/A","https://www.dav.org/","Your Local DAV National Service Officer (NSO) will help you file a claim and stick with you all through the process, because no veteran should have to go at it alone."
"155","Disabled American Veterans Hospital Service Coordinator","Supportive Services","Mon and Thurs: 11:00 AM - 3:00 PM","(718) 584-9000 ext.3653","130 W Kingsbridge Rd","Bronx","NY","10468-3904","Room 4B-45","Bronx","false","N/A","https://www.dav.org/veterans/i-need-a-ride/","DAV operates a fleet of vehicles around the country to provide free transportation to VA medical facilities for injured and ill veterans. For NYC, please call the phone number listed to speak with Mr. Vincent P. Moccla who will coordinate a ride if eligible."
"156","Jericho Project Administration Office","Homelessness","Please contact location for hours.","(646) 624-2341","245 W 29 Street","New York","NY","10001","Suite 902","Manhattan","true","�info@jerichoproject.org","http://www.jerichoproject.org/","Jericho Project steadfastly works to advance its mission to end homelessness at its roots by creating a community that inspires individual change, fosters sustainable independence, and motivates men and women to reach their greatest potential."
"157","Jericho Project Veteran Program","Homelessness","Please contact location for hours.","(347) 468-8462","210 E 43 Street","New York","NY","10017","Suite 314","Manhattan","true","�info@jerichoproject.org","http://www.jerichoproject.org/","Jericho Project steadfastly works to advance its mission to end homelessness at its roots by creating a community that inspires individual change, fosters sustainable independence, and motivates men and women to reach their greatest potential."
"158","Jericho Project Veteran Resource Center - Queens","Homelessness","Please contact location for hours.","(347) 529-9805","135-45 Lefferts Boulevard","South Ozone Park","NY","11420",,"Queens","true","�info@jerichoproject.org","http://www.jerichoproject.org/","Jericho Project steadfastly works to advance its mission to end homelessness at its roots by creating a community that inspires individual change, fosters sustainable independence, and motivates men and women to reach their greatest potential."
"159","Jericho Project Family Programs","Homelessness","Please contact location for hours.","(718) 538-5494","1780 Grand Concourse","Bronx","NY","10457",,"Bronx","true","�info@jerichoproject.org","http://www.jerichoproject.org/","Jericho Project steadfastly works to advance its mission to end homelessness at its roots by creating a community that inspires individual change, fosters sustainable independence, and motivates men and women to reach their greatest potential."
"160","Jericho Project Young Adult Program","Homelessness","Please contact location for hours.","(212) 222-1400","2013 Adam Clayton Powell Jr. Blvd","New York","NY","10027",,"Manhattan","true","�info@jerichoproject.org","http://www.jerichoproject.org/","Jericho Project steadfastly works to advance its mission to end homelessness at its roots by creating a community that inspires individual change, fosters sustainable independence, and motivates men and women to reach their greatest potential."
"161","Legal Information for Families Today (LIFT) - Bronx Family Court","Advocacy and Assistance","Mon - Fri: 9:00 AM - 5:00 PM","(212) 343-1122","900 Sheridan Avenue","Bronx","NY","10451","Room LM-8","Bronx","true","N/A","https://www.liftonline.org/","Please call 212-343-1122 to schedule an appointment.�"
"162","Legal Information for Families Today (LIFT) - Brooklyn Family Court","Advocacy and Assistance","Mon - Fri: 9:00 AM - 5:00 PM","(212) 343-1122","330 Jay Street","Brooklyn","NY","11201","6th Floor","Brooklyn","true","N/A","https://www.liftonline.org/","Please call 212-343-1122 to schedule an appointment.�"
"163","Legal Information for Families Today (LIFT) - Manhattan Courthouse","Advocacy and Assistance","Mon - Fri: 9:00 AM - 5:00 PM","(212) 343-1122","60 Lafayette Street","New York","NY","10013","1st Floor","Manhattan","true","N/A","https://www.liftonline.org/","Please call 212-343-1122 to schedule an appointment.�"
"164","Legal Information for Families Today (LIFT) - Queens Family Court","Advocacy and Assistance","Mon - Fri: 9:00 AM - 5:00 PM","(212) 343-1122","151-20 Jamaica Avenue","Jamaica","NY","11432","1st Floor","Queens","true","N/A","https://www.liftonline.org/","Please call 212-343-1122 to schedule an appointment.�"
"165","Legal Information for Families Today (LIFT)- Staten Island Family Court","Advocacy and Assistance","Mon - Fri: 9:00 AM - 5:00 PM","(212) 343-1122","25 Hyatt Street","Staten Island","NY","10301","Room 437","Staten Island","true","N/A","https://www.liftonline.org/","Please call 212-343-1122 to schedule an appointment.�"
"166","United War Veterans Council (UWVC)","Advocacy and Assistance","Please contact location for hours.","(212) 693-1476","245 W Houston Street","New York","NY","10014","#208","Manhattan","true","N/A","https://uwvc.org/","We are dedicated to ensuring that the public always embraces its commitment to provide all veterans and their families with the care, recognition and opportunities they have rightfully earned."
"169","HRA SNAP Center - Concourse S45","Supportive Services","Mon - Fri: 8:30 AM - 6:00 PM","(929) 252-8998","1375 Jerome Avenue","Bronx","NY","10452","2nd Floor","Bronx","true","N/A","https://www1.nyc.gov/site/hra/help/snap-benefits-food-program.page","The Supplemental Nutrition Assistance Program (formerly known as ""food stamps"") provides food assistance for nearly 1.8 million low-income New Yorkers including families, the elderly and the disabled. The program helps families and individuals supplement the cost of their diet with nutritious foods."
"170","HRA SNAP Center - Crotona S46","Supportive Services","Mon - Fri: 8:30 AM - 5:00 PM","(929) 252-7436","1910 Monterey Avenue","Bronx","NY","10457","5th Floor","Bronx","true","N/A","https://www1.nyc.gov/site/hra/help/snap-benefits-food-program.page","The Supplemental Nutrition Assistance Program (formerly known as ""food stamps"") provides food assistance for nearly 1.8 million low-income New Yorkers including families, the elderly and the disabled. The program helps families and individuals supplement the cost of their diet with nutritious foods."
"171","HRA SNAP Center - Hunts Point S40","Supportive Services","Mon - Fri: 8:30 AM - 5:00 PM","(929) 252-4445","845 Barretto Street","Bronx","NY","10474","B-Level","Bronx","true","N/A","https://www1.nyc.gov/site/hra/help/snap-benefits-food-program.page","The Supplemental Nutrition Assistance Program (formerly known as ""food stamps"") provides food assistance for nearly 1.8 million low-income New Yorkers including families, the elderly and the disabled. The program helps families and individuals supplement the cost of their diet with nutritious foods."
"172","HRA SNAP Center - Coney Island S22","Supportive Services","Mon - Fri: 8:30 AM - 5:00 PM","(929) 221-3537","2857-2865 West 8th Street","Brooklyn","NY","11224","1st Floor","Brooklyn","true","N/A","https://www1.nyc.gov/site/hra/help/snap-benefits-food-program.page","The Supplemental Nutrition Assistance Program (formerly known as ""food stamps"") provides food assistance for nearly 1.8 million low-income New Yorkers including families, the elderly and the disabled. The program helps families and individuals supplement the cost of their diet with nutritious foods."
"173","HRA SNAP Center - East New York S28","Supportive Services","Mon - Fri: 8:30 AM - 6:00 PM","(929) 221-8327","404 Pine Street","Brooklyn","NY","11208","1st Floor","Brooklyn","true","N/A","https://www1.nyc.gov/site/hra/help/snap-benefits-food-program.page","The Supplemental Nutrition Assistance Program (formerly known as ""food stamps"") provides food assistance for nearly 1.8 million low-income New Yorkers including families, the elderly and the disabled. The program helps families and individuals supplement the cost of their diet with nutritious foods."
"174","HRA SNAP Center - Williamsburg S21","Supportive Services","Mon - Fri: 8:30 AM - 5:00 PM","(718) 963-5140","30 Thornton Street","Brooklyn","NY","11206","4th Floor","Brooklyn","true","N/A","https://www1.nyc.gov/site/hra/help/snap-benefits-food-program.page","The Supplemental Nutrition Assistance Program (formerly known as ""food stamps"") provides food assistance for nearly 1.8 million low-income New Yorkers including families, the elderly and the disabled. The program helps families and individuals supplement the cost of their diet with nutritious foods."
"175","HRA SNAP Center - East End S02","Supportive Services","Mon - Fri: 8:30 AM - 5:00 PM","(212) 860-5147","2322 Third Avenue","New York","NY","10035","3rd Floor","Manhattan","true","N/A","https://www1.nyc.gov/site/hra/help/snap-benefits-food-program.page","The Supplemental Nutrition Assistance Program (formerly known as ""food stamps"") provides food assistance for nearly 1.8 million low-income New Yorkers including families, the elderly and the disabled. The program helps families and individuals supplement the cost of their diet with nutritious foods."
"176","HRA SNAP Center - St. Nicholas S14","Supportive Services","Mon - Fri: 8:30 AM -5:00 PM","(212) 666-8788","132 West 125th Street","New York","NY","10027","3rd Floor","Manhattan","true","N/A","https://www1.nyc.gov/site/hra/help/snap-benefits-food-program.page","The Supplemental Nutrition Assistance Program (formerly known as ""food stamps"") provides food assistance for nearly 1.8 million low-income New Yorkers including families, the elderly and the disabled. The program helps families and individuals supplement the cost of their diet with nutritious foods."
"177","HRA SNAP Center - Washington Heights S13","Supportive Services","Mon - Fri: 8:30 AM -5:00 PM","(212) 569-9835","4055 10th Avenue","New York","NY","10034","Lower level","Manhattan","true","N/A","https://www1.nyc.gov/site/hra/help/snap-benefits-food-program.page","The Supplemental Nutrition Assistance Program (formerly known as ""food stamps"") provides food assistance for nearly 1.8 million low-income New Yorkers including families, the elderly and the disabled. The program helps families and individuals supplement the cost of their diet with nutritious foods."
"178","HRA SNAP Center - Waverly S19","Supportive Services","Mon - Fri: 8:30 AM - 6:00 PM","(212) 352-2524","12 West 14th Street","New York","NY","10011","4th Floor","Manhattan","true","N/A","https://www1.nyc.gov/site/hra/help/snap-benefits-food-program.page","The Supplemental Nutrition Assistance Program (formerly known as ""food stamps"") provides food assistance for nearly 1.8 million low-income New Yorkers including families, the elderly and the disabled. The program helps families and individuals supplement the cost of their diet with nutritious foods."
"179","HRA SNAP Center - Jamaica S54","Supportive Services","Mon - Fri: 8:30 AM - 6:00 PM","(718) 883-8344","165-08 88 Avenue","Jamaica","NY","11432","3rd Floor","Queens","true","N/A","https://www1.nyc.gov/site/hra/help/snap-benefits-food-program.page","The Supplemental Nutrition Assistance Program (formerly known as ""food stamps"") provides food assistance for nearly 1.8 million low-income New Yorkers including families, the elderly and the disabled. The program helps families and individuals supplement the cost of their diet with nutritious foods."
"180","HRA SNAP Center - Queens S53","Supportive Services","Mon - Fri: 8:30 AM -5:00 PM","(718) 784-6315","32-20 Northern Boulevard","Long Island City","NY","11101","2nd Floor","Queens","true","N/A","https://www1.nyc.gov/site/hra/help/snap-benefits-food-program.page","The Supplemental Nutrition Assistance Program (formerly known as ""food stamps"") provides food assistance for nearly 1.8 million low-income New Yorkers including families, the elderly and the disabled. The program helps families and individuals supplement the cost of their diet with nutritious foods."
"181","HRA SNAP Center - Rockaway S79","Supportive Services","Mon - Fri: 8:30 AM -5:00 PM","(718) 637-2750","219 Beach Street","Rockaway","NY","11692","1st Floor","Queens","true","N/A","https://www1.nyc.gov/site/hra/help/snap-benefits-food-program.page","The Supplemental Nutrition Assistance Program (formerly known as ""food stamps"") provides food assistance for nearly 1.8 million low-income New Yorkers including families, the elderly and the disabled. The program helps families and individuals supplement the cost of their diet with nutritious foods."
"182","HRA SNAP Center- Richmond S99","Supportive Services","Mon - Fri: 8:30 AM - 6:00 PM","(718) 390-6994","201 Bay Street","Staten Island","NY","10301","2nd Floor","Staten Island","true","N/A","https://www1.nyc.gov/site/hra/help/snap-benefits-food-program.page","The Supplemental Nutrition Assistance Program (formerly known as ""food stamps"") provides food assistance for nearly 1.8 million low-income New Yorkers including families, the elderly and the disabled. The program helps families and individuals supplement the cost of their diet with nutritious foods."
"183","HRA Job Center - Concourse #45","Supportive Services","Mon - Fri: 8:30 AM -5:00 PM","(929) 252-8991","1365 Jerome Avenue","Bronx","NY","10452",,"Bronx","true","N/A","https://www1.nyc.gov/site/hra/locations/job-locations.page","The New York City Human Resources Administration/Department of Social Services (HRA/DSS) is dedicated to fighting poverty and income inequality by providing New Yorkers in need with essential benefits such as Food Assistance and Emergency Rental Assistance."
"184","HRA Job Center - Crotona #46","Supportive Services","Mon - Fri: 8:30 AM -5:00 PM","(929) 252-7310 or (929) 252-7308","1910 Monterey Avenue","Bronx","NY","10457",,"Bronx","true","N/A","https://www1.nyc.gov/site/hra/locations/job-locations.page","The New York City Human Resources Administration/Department of Social Services (HRA/DSS) is dedicated to fighting poverty and income inequality by providing New Yorkers in need with essential benefits such as Food Assistance and Emergency Rental Assistance."
"185","HRA Job Center - Family Services Call Center, Bronx Satellite","Supportive Services","Mon - Fri: 8:30 AM -5:00 PM","(929) 252-4268 or (929) 252-4172","847 Barretto Street","Bronx","NY","10474",,"Bronx","true","N/A","https://www1.nyc.gov/site/hra/locations/job-locations.page","Primarily handles face to face recertification and emergency walk-in activities for the Family Call Center�s active child only cases"
"186","HRA Job Center - Fordham #44","Supportive Services","Mon - Fri: 8:30 AM -5:00 PM","(929) 252-3331 or (718)220-7012","2541-2549 Bainbridge Avenue","Bronx","NY","10458",,"Bronx","true","N/A","https://www1.nyc.gov/site/hra/locations/job-locations.page","The New York City Human Resources Administration/Department of Social Services (HRA/DSS) is dedicated to fighting poverty and income inequality by providing New Yorkers in need with essential benefits such as Food Assistance and Emergency Rental Assistance."
"187","HRA Job Center - Hunts Point #40","Supportive Services","Mon - Fri: 8:30 AM -5:00 PM","(929) 252-4350 or (929) 252-4349","847 Barretto Street","Bronx","NY","10474",,"Bronx","true","N/A","https://www1.nyc.gov/site/hra/locations/job-locations.page","The New York City Human Resources Administration/Department of Social Services (HRA/DSS) is dedicated to fighting poverty and income inequality by providing New Yorkers in need with essential benefits such as Food Assistance and Emergency Rental Assistance."
"188","HRA Job Center - Rider #38","Supportive Services","Mon - Fri: 8:30 AM -5:00 PM","(718)742-3811 or (718) 742-3924","300 Canal Place","Bronx","NY","10451",,"Bronx","true","N/A","https://www1.nyc.gov/site/hra/locations/job-locations.page","The New York City Human Resources Administration/Department of Social Services (HRA/DSS) is dedicated to fighting poverty and income inequality by providing New Yorkers in need with essential benefits such as Food Assistance and Emergency Rental Assistance."
"189","HRA Job Center - Bushwick #66","Supportive Services","Mon - Fri: 8:30 AM -5:00 PM","(212) 331-4289 or (212) 331-4280","30 Thornton Street","Brooklyn","NY","11206",,"Brooklyn","true","N/A","https://www1.nyc.gov/site/hra/locations/job-locations.page","The New York City Human Resources Administration/Department of Social Services (HRA/DSS) is dedicated to fighting poverty and income inequality by providing New Yorkers in need with essential benefits such as Food Assistance and Emergency Rental Assistance."
"190","HRA Job Center - Clinton Hill #67","Supportive Services","Mon - Fri: 8:30 AM -5:00 PM","(929) 221-1568 or (929) 221-2809","495 Clermont Avenue","Brooklyn","NY","11238",,"Brooklyn","true","N/A","https://www1.nyc.gov/site/hra/locations/job-locations.page","The New York City Human Resources Administration/Department of Social Services (HRA/DSS) is dedicated to fighting poverty and income inequality by providing New Yorkers in need with essential benefits such as Food Assistance and Emergency Rental Assistance."
"191","HRA Job Center - Coney Island #63","Supportive Services","Mon - Fri: 8:30 AM -5:00 PM","(929) 221-3856 or (929) 221-3867","3050 West 21st Street","Brooklyn","NY","11224",,"Brooklyn","true","N/A","https://www1.nyc.gov/site/hra/locations/job-locations.page","The New York City Human Resources Administration/Department of Social Services (HRA/DSS) is dedicated to fighting poverty and income inequality by providing New Yorkers in need with essential benefits such as Food Assistance and Emergency Rental Assistance."
"192","HRA Job Center - Dekalb #64","Supportive Services","Mon - Fri: 8:30 AM -5:00 PM","(718) 636-2495or (718) 883-8296","275 Bergen Street","Brooklyn","NY","11217",,"Brooklyn","true","N/A","https://www1.nyc.gov/site/hra/locations/job-locations.page","The New York City Human Resources Administration/Department of Social Services (HRA/DSS) is dedicated to fighting poverty and income inequality by providing New Yorkers in need with essential benefits such as Food Assistance and Emergency Rental Assistance."
"193","HRA Job Center - Family Services Call Center, Brooklyn Satellite","Supportive Services","Mon - Fri: 8:30 AM -5:00 PM","(929) 221-8265 or (929) 221-8270 or (718) 883-8296","404 Pine Street","Brooklyn","NY","11208","3rd Floor","Brooklyn","true","N/A","https://www1.nyc.gov/site/hra/locations/job-locations.page","The New York City Human Resources Administration/Department of Social Services (HRA/DSS) is dedicated to fighting poverty and income inequality by providing New Yorkers in need with essential benefits such as Food Assistance and Emergency Rental Assistance."
"194","HRA Job Center - Southern Brooklyn #70","Supportive Services","Mon - Fri: 8:30 AM -5:00 PM","(929) 252-3514 or (929)252-3512","35 Fourth Avenue","Brooklyn","NY","11217",,"Brooklyn","true","N/A","https://www1.nyc.gov/site/hra/locations/job-locations.page","Primarily handles face to face recertifications and emergency walk-in activities for the Family Call Center's active child only cases whose payees are not in receipt of cash assistance."
"195","HRA Job Center - Michael J. Handy Veterans' Service Center #62","Supportive Services","Mon - Fri: 8:30 AM -5:00 PM","(718)222-2431 or (718) 2222430","25 Chapel Street","Brooklyn","NY","11201","6th Floor; Room 606","Brooklyn","true","N/A","https://www1.nyc.gov/site/hra/locations/job-locations.page","Primarily services cash assistance recipient cases in which at least one household member is a Veteran."
"248","NYC Department of Transportation (DOT) -  Permits & Customer Service Unit","Advocacy and Assistance","Please contact this location for hours.","Please call 311 to contact this location.","30-30 Thomson Avenue","Long Island City","NY","11101-3045","2nd Floor","Queens","true","N/A","https://www1.nyc.gov/html/dot/html/motorist/pppdinfo.shtml","Apply for a New York State or New York City Parking Permit for People with Disabilities."
"196","HRA Job Center - HRA Express Center #50","Supportive Services","Mon - Fri: 8:30 AM -5:00 PM","(929) 221-8220","404 Pine Street","Brooklyn","NY","11208",,"Brooklyn","true","N/A","https://www1.nyc.gov/site/hra/locations/job-locations.page","The New York City Human Resources Administration/Department of Social Services (HRA/DSS) is dedicated to fighting poverty and income inequality by providing New Yorkers in need with essential benefits such as Food Assistance and Emergency Rental Assistance."
"197","HRA Job Center - Dyckman #35","Supportive Services","Mon - Fri: 8:30 AM -5:00 PM","(212) 569-9627 or (212) 569-9626","4055 10th Avenue","New York","NY","10034",,"Manhattan","true","N/A","https://www1.nyc.gov/site/hra/locations/job-locations.page","The New York City Human Resources Administration/Department of Social Services (HRA/DSS) is dedicated to fighting poverty and income inequality by providing New Yorkers in need with essential benefits such as Food Assistance and Emergency Rental Assistance."
"198","HRA Job Center - East End #23","Supportive Services","Mon - Fri: 8:30 AM -5:00 PM","(212) 860-2749 or (212) 860-6801","2322 Third Avenue","New York","NY","10035",,"Manhattan","true","N/A","https://www1.nyc.gov/site/hra/locations/job-locations.page","The New York City Human Resources Administration/Department of Social Services (HRA/DSS) is dedicated to fighting poverty and income inequality by providing New Yorkers in need with essential benefits such as Food Assistance and Emergency Rental Assistance."
"199","HRA Job Center - Family Services Call Center, Manhattan Satellite","Supportive Services","Mon - Fri: 8:30 AM -5:00 PM","(212) 666-7566 or (718) 883-8296","132 W 125th Street","New York","NY","10027",,"Manhattan","true","N/A","https://www1.nyc.gov/site/hra/locations/job-locations.page","Primarily handles face to face recertifications and emergency walk-in activities for the Family Call Center�s active child only cases whose payees are not in receipt of cash assistance."
"200","HRA Job Center - Centralized Rent Processing Unit (CRPU) #71","Supportive Services","Mon - Fri: 8:30 AM -5:00 PM","(212) 835-7682 or (212) 835-7682","109 E. 16th Street","New York","NY","10003",,"Manhattan","true","N/A","https://www1.nyc.gov/site/hra/locations/job-locations.page","The New York City Human Resources Administration/Department of Social Services (HRA/DSS) is dedicated to fighting poverty and income inequality by providing New Yorkers in need with essential benefits such as Food Assistance and Emergency Rental Assistance."
"201","HRA Job Center - Residential Treatment Service Center #52","Supportive Services","Mon - Fri: 8:30 AM -5:00 PM","(929) 252-5805 or (212) 835-7671","110 E. 16th Street","New York","NY","10003",,"Manhattan","true","N/A","https://www1.nyc.gov/site/hra/locations/job-locations.page","The New York City Human Resources Administration/Department of Social Services (HRA/DSS) is dedicated to fighting poverty and income inequality by providing New Yorkers in need with essential benefits such as Food Assistance and Emergency Rental Assistance."
"202","HRA Job Center - St. Nicholas #18","Supportive Services","Mon - Fri: 8:30 AM -5:00 PM","(212)666-5678 or (212)666-5576","132 W 125th Street","New York","NY","10027",,"Manhattan","true","N/A","https://www1.nyc.gov/site/hra/locations/job-locations.page","The New York City Human Resources Administration/Department of Social Services (HRA/DSS) is dedicated to fighting poverty and income inequality by providing New Yorkers in need with essential benefits such as Food Assistance and Emergency Rental Assistance."
"203","HRA Job Center - Union Square #39","Supportive Services","Mon - Fri: 8:30 AM -5:00 PM","(212) 835-8300 or (212) 835-7361","109 E. 16th Street","New York","NY","10003",,"Manhattan","true","N/A","https://www1.nyc.gov/site/hra/locations/job-locations.page","The New York City Human Resources Administration/Department of Social Services (HRA/DSS) is dedicated to fighting poverty and income inequality by providing New Yorkers in need with essential benefits such as Food Assistance and Emergency Rental Assistance."
"204","HRA Job Center - Waverly #13","Supportive Services","Mon - Fri: 8:30 AM -5:00 PM","(212) 620-9890 or (212) 620-9224","12 West 14th Street","New York","NY","10011",,"Manhattan","true","N/A","https://www1.nyc.gov/site/hra/locations/job-locations.page","The New York City Human Resources Administration/Department of Social Services (HRA/DSS) is dedicated to fighting poverty and income inequality by providing New Yorkers in need with essential benefits such as Food Assistance and Emergency Rental Assistance."
"205","HRA Job Center - Home Visit Needed/Reasonable Accommodation Request Operations #90","Supportive Services","Please contact location to schedule an appointment.","(929) 252-6704 or (718) 775-1387","109 E. 16th Street","New York","NY","10003",,"Manhattan","false","N/A","https://www1.nyc.gov/site/hra/locations/job-locations.page","Applicants and participants are not seen at this location."
"206","HRA Job Center - Family Services Call Center, Queens Satellite","Supportive Services","Mon - Fri: 8:30 AM -5:00 PM","(718) 752-3937 or (718) 883-8296","32-20 Northern Boulevard","Queens","NY","11101",,"Queens","true","N/A","https://www1.nyc.gov/site/hra/locations/job-locations.page","Primarily handles face to face recertifications and emergency walk-in activities for the Family Call Center's active child only cases whose payees are not in receipt of cash assistance."
"207","HRA Job Center - Family Service Call Center","Supportive Services","Mon - Fri: 8:30 AM -5:00 PM","(718)752-3937 or (718) 883-8296","165-08 88th Avenue","Queens","NY","11432","5th Floor","Queens","true","N/A","https://www1.nyc.gov/site/hra/locations/job-locations.page","The New York City Human Resources Administration/Department of Social Services (HRA/DSS) is dedicated to fighting poverty and income inequality by providing New Yorkers in need with essential benefits such as Food Assistance and Emergency Rental Assistance."
"208","HRA Job Center - Jamaica #54","Supportive Services","Mon - Fri: 8:30 AM -5:00 PM","(718) 523-2146 or (718) 883-8251","165-08 88th Avenue","Queens","NY","11432",,"Queens","true","N/A","https://www1.nyc.gov/site/hra/locations/job-locations.page","The New York City Human Resources Administration/Department of Social Services (HRA/DSS) is dedicated to fighting poverty and income inequality by providing New Yorkers in need with essential benefits such as Food Assistance and Emergency Rental Assistance."
"209","HRA Job Center - Queens #53","Supportive Services","Mon - Fri: 8:30 AM -5:00 PM","(718) 784-6043","32-20 Northern Boulevard","Queens","NY","11101",,"Queens","true","N/A","https://www1.nyc.gov/site/hra/locations/job-locations.page","The New York City Human Resources Administration/Department of Social Services (HRA/DSS) is dedicated to fighting poverty and income inequality by providing New Yorkers in need with essential benefits such as Food Assistance and Emergency Rental Assistance."
"210","HRA Job Center - Rockaway #79","Supportive Services","Mon - Fri: 8:30 AM -5:00 PM","(718) 637-2144 or (718) 637-2140","219 Beach 59th Street","Queens","NY","11692",,"Queens","true","N/A","https://www1.nyc.gov/site/hra/locations/job-locations.page","The New York City Human Resources Administration/Department of Social Services (HRA/DSS) is dedicated to fighting poverty and income inequality by providing New Yorkers in need with essential benefits such as Food Assistance and Emergency Rental Assistance."
"211","HRA Job Center - Refugee and Immigrant Service Center","Supportive Services","Mon - Fri: 8:30 AM -5:00 PM","(929) 221-0508","32-20 Northern Boulevard","Queens","NY","11101",,"Queens","true","N/A","https://www1.nyc.gov/site/hra/locations/job-locations.page","The New York City Human Resources Administration/Department of Social Services (HRA/DSS) is dedicated to fighting poverty and income inequality by providing New Yorkers in need with essential benefits such as Food Assistance and Emergency Rental Assistance."
"212","HRA Job Center - Richmond #99","Supportive Services","Mon - Fri: 8:30 AM -5:00 PM","(718) 556-7343 or (718) 390-5103","201 Bay Street","Staten Island","NY","10301",,"Staten Island","true","N/A","https://www1.nyc.gov/site/hra/locations/job-locations.page","The New York City Human Resources Administration/Department of Social Services (HRA/DSS) is dedicated to fighting poverty and income inequality by providing New Yorkers in need with essential benefits such as Food Assistance and Emergency Rental Assistance."
"213","HRA Medicaid Office - Lincoln Hospital","Health/Wellness","Mon - Fri: 9:00 AM - 5:00PM","(718) 585-7872","234 E. 149th Street","Bronx","NY","10451",,"Bronx","true","N/A","https://www1.nyc.gov/site/hra/locations/medicaid-locations.page","HRA�s�Medical Assistance Program�can help New Yorkers who qualify enroll in public health insurance programs like Medicaid.� HRA accepts applications from residents who are age 65 or over, persons of any age who are living with a disability or blindness, persons who are in receipt of Medicare and are not a parent or caretaker relative of minor children, and former foster young adults under age 26.� Call the HRA Medicaid�Helpline at 1-888-692-6116 for more information or�visit a Medicaid Office�to apply."
"214","HRA Medicaid Office - Morrisania","Health/Wellness","Mon - Fri: 9:00 AM - 5:00PM","(718) 960-2799","1225 Gerrad Avenue","Bronx","NY","10452","Basement","Bronx","true","N/A","https://www1.nyc.gov/site/hra/locations/medicaid-locations.page","HRA�s�Medical Assistance Program�can help New Yorkers who qualify enroll in public health insurance programs like Medicaid.� HRA accepts applications from residents who are age 65 or over, persons of any age who are living with a disability or blindness, persons who are in receipt of Medicare and are not a parent or caretaker relative of minor children, and former foster young adults under age 26.� Call the HRA Medicaid�Helpline at 1-888-692-6116 for more information or�visit a Medicaid Office�to apply."
"215","HRA Medicaid Office - North Central Bronx Hospital","Health/Wellness","Mon - Fri: 9:00 AM - 5:00PM","(718) 920-1070","3424 Kossuth Avenue","Bronx","NY","10467","1st Floor, 1A 05","Bronx","true","N/A","https://www1.nyc.gov/site/hra/locations/medicaid-locations.page","HRA�s�Medical Assistance Program�can help New Yorkers who qualify enroll in public health insurance programs like Medicaid.� HRA accepts applications from residents who are age 65 or over, persons of any age who are living with a disability or blindness, persons who are in receipt of Medicare and are not a parent or caretaker relative of minor children, and former foster young adults under age 26.� Call the HRA Medicaid�Helpline at 1-888-692-6116 for more information or�visit a Medicaid Office�to apply."
"216","HRA Medicaid Office - Coney Island","Health/Wellness","Mon - Fri: 9:00 AM - 5:00PM","(929) 221-3790","3050 W 21st Street","Brooklyn","NY","11224",,"Brooklyn","true","N/A","https://www1.nyc.gov/site/hra/locations/medicaid-locations.page","HRA�s�Medical Assistance Program�can help New Yorkers who qualify enroll in public health insurance programs like Medicaid.� HRA accepts applications from residents who are age 65 or over, persons of any age who are living with a disability or blindness, persons who are in receipt of Medicare and are not a parent or caretaker relative of minor children, and former foster young adults under age 26.� Call the HRA Medicaid�Helpline at 1-888-692-6116 for more information or�visit a Medicaid Office�to apply."
"217","HRA Medicaid Office - East New York","Health/Wellness","Mon - Fri: 9:00 AM - 5:00PM","(929) 221-8204","404 Pine Street","Brooklyn","NY","11208","2nd Floor","Brooklyn","true","N/A","https://www1.nyc.gov/site/hra/locations/medicaid-locations.page","HRA�s�Medical Assistance Program�can help New Yorkers who qualify enroll in public health insurance programs like Medicaid.� HRA accepts applications from residents who are age 65 or over, persons of any age who are living with a disability or blindness, persons who are in receipt of Medicare and are not a parent or caretaker relative of minor children, and former foster young adults under age 26.� Call the HRA Medicaid�Helpline at 1-888-692-6116 for more information or�visit a Medicaid Office�to apply."
"218","HRA Medicaid Office - Kings County Hospital","Health/Wellness","Mon - Fri: 9:00 AM - 5:00PM","(718) 221-2300","441 Clarkson Avenue","Brooklyn","NY","11203","""T"" Building. Nurses' Residence 1st Floor","Brooklyn","true","N/A","https://www1.nyc.gov/site/hra/locations/medicaid-locations.page","HRA�s�Medical Assistance Program�can help New Yorkers who qualify enroll in public health insurance programs like Medicaid.� HRA accepts applications from residents who are age 65 or over, persons of any age who are living with a disability or blindness, persons who are in receipt of Medicare and are not a parent or caretaker relative of minor children, and former foster young adults under age 26.� Call the HRA Medicaid�Helpline at 1-888-692-6116 for more information or�visit a Medicaid Office�to apply."
"219","HRA Medicaid Office - Brooklyn South","Health/Wellness","Mon - Fri: 9:00 AM - 5:00PM","Please call 311 to contact this location.","785 Atlantic Avenue","Brooklyn","NY","11238",,"Brooklyn","true","N/A","https://www1.nyc.gov/site/hra/locations/medicaid-locations.page","HRA�s�Medical Assistance Program�can help New Yorkers who qualify enroll in public health insurance programs like Medicaid.� HRA accepts applications from residents who are age 65 or over, persons of any age who are living with a disability or blindness, persons who are in receipt of Medicare and are not a parent or caretaker relative of minor children, and former foster young adults under age 26.� Call the HRA Medicaid�Helpline at 1-888-692-6116 for more information or�visit a Medicaid Office�to apply."
"231","HRA Disability Access - Reasonable Accommodation Request (RAR)","Supportive Services","Please contact location for hours.","(212) 331-4685","150 Greenwich Street","New York","NY","10007","35th Floor","Manhattan","false","constituentaffairs@hra.nyc.gov","https://www1.nyc.gov/site/hra/help/disability-access.page","If you have a disability, HRA can help by providing supports or accommodations to make it easier for you to get the services you need. This type of help is called a reasonable accommodation."
"220","HRA Medicaid Office - Chinatown","Health/Wellness","Mon - Fri: 9:00 AM - 5:00PM","(212) 334-6114","115 Chrystie Street","New York","NY","10002","5th Floor","Manhattan","true","N/A","https://www1.nyc.gov/site/hra/locations/medicaid-locations.page","HRA�s�Medical Assistance Program�can help New Yorkers who qualify enroll in public health insurance programs like Medicaid.� HRA accepts applications from residents who are age 65 or over, persons of any age who are living with a disability or blindness, persons who are in receipt of Medicare and are not a parent or caretaker relative of minor children, and former foster young adults under age 26.� Call the HRA Medicaid�Helpline at 1-888-692-6116 for more information or�visit a Medicaid Office�to apply."
"221","HRA Medicaid Office - Manhattanville Community","Health/Wellness","Mon - Fri: 9:00 AM - 5:00PM","(212) 939-0207","520-520 W 135th Street","New York","NY","10031","1st Floor","Manhattan","true","N/A","https://www1.nyc.gov/site/hra/locations/medicaid-locations.page","HRA�s�Medical Assistance Program�can help New Yorkers who qualify enroll in public health insurance programs like Medicaid.� HRA accepts applications from residents who are age 65 or over, persons of any age who are living with a disability or blindness, persons who are in receipt of Medicare and are not a parent or caretaker relative of minor children, and former foster young adults under age 26.� Call the HRA Medicaid�Helpline at 1-888-692-6116 for more information or�visit a Medicaid Office�to apply."
"222","HRA Medicaid Office - Metropolitan Hospital","Health/Wellness","Mon - Fri: 9:00 AM - 5:00PM","(212) 423-7006","1901 First Avenue","New York","NY","10029","1st Floor, Room 1D-27","Manhattan","true","N/A","https://www1.nyc.gov/site/hra/locations/medicaid-locations.page","HRA�s�Medical Assistance Program�can help New Yorkers who qualify enroll in public health insurance programs like Medicaid.� HRA accepts applications from residents who are age 65 or over, persons of any age who are living with a disability or blindness, persons who are in receipt of Medicare and are not a parent or caretaker relative of minor children, and former foster young adults under age 26.� Call the HRA Medicaid�Helpline at 1-888-692-6116 for more information or�visit a Medicaid Office�to apply."
"223","HRA Medicaid Office - Queens Community","Health/Wellness","Mon - Fri: 9:00 AM - 5:00PM","(718) 784-6729","32-20 Northern Boulevard","Queens","NY","11101","1st Floor","Queen","true","N/A","https://www1.nyc.gov/site/hra/locations/medicaid-locations.page","HRA�s�Medical Assistance Program�can help New Yorkers who qualify enroll in public health insurance programs like Medicaid.� HRA accepts applications from residents who are age 65 or over, persons of any age who are living with a disability or blindness, persons who are in receipt of Medicare and are not a parent or caretaker relative of minor children, and former foster young adults under age 26.� Call the HRA Medicaid�Helpline at 1-888-692-6116 for more information or�visit a Medicaid Office�to apply."
"224","HRA Medicaid Office - Staten Island","Health/Wellness","Mon - Fri: 9:00 AM - 5:00PM","(929) 221-8823 or (929) 221-8824","215 Bay Street","Staten Island","NY","10301",,"Staten Island","true","N/A","https://www1.nyc.gov/site/hra/locations/medicaid-locations.page","HRA�s�Medical Assistance Program�can help New Yorkers who qualify enroll in public health insurance programs like Medicaid.� HRA accepts applications from residents who are age 65 or over, persons of any age who are living with a disability or blindness, persons who are in receipt of Medicare and are not a parent or caretaker relative of minor children, and former foster young adults under age 26.� Call the HRA Medicaid�Helpline at 1-888-692-6116 for more information or�visit a Medicaid Office�to apply."
"225","NYC Department of Finance - SCRIE/DRIE Walk-In Center","Financial Assistance","Mon - Fri: 8:30 AM - 4:30 PM","(212) 639-9675","66 John Street","New York","NY","10038","3rd Floor","Manhattan","true","DRIE: https://www1.nyc.gov/site/finance/about/contact-by-email/contact-us-drie-ombudsman.page | SCRIE: https://www1.nyc.gov/site/finance/about/contact-by-email/contact-us-scrie-ombudsman.page","https://www1.nyc.gov/site/rentfreeze/index.page","The NYC Rent Freeze Program, which includes the Senior Citizen Rent Increase Exemption (SCRIE) Program and the Disability Rent Increase Exemption (DRIE) Program, helps those eligible stay in affordable housing by freezing their rent."
"226","NYC Department of Finance Manhattan Business Center - Veteran's Property Tax Exemption","Financial Assistance","Mon - Fri: 8:30 AM - 4:30 PM","Please call 311 to contact this location.","66 John Street","New York","NY","10038","2nd Floor","Manhattan","true","N/A","https://access.nyc.gov/programs/veterans-exemption/","Qualified Veterans, spouses or their un-remarried surviving spouses; parents of soldiers who died in the line of duty (Gold Star parent) can get a reduction to their property tax."
"227","NYC Department of Finance Bronx Business Center - Veteran's Property Tax Exemption","Financial Assistance","Mon - Fri: 8:30 AM - 4:30 PM","Please call 311 to contact this location.","303 Third Avenue","Bronx","NY","10455","2nd Floor","Bronx","true","N/A","https://access.nyc.gov/programs/veterans-exemption/","Qualified Veterans, spouses or their un-remarried surviving spouses; parents of soldiers who died in the line of duty (Gold Star parent) can get a reduction to their property tax."
"228","NYC Department of Finance Brooklyn Business Center - Veteran's Property Tax Exemption","Financial Assistance","Mon - Fri: 8:30 AM - 4:30 PM","Please call 311 to contact this location.","210 Joralemon Street","Brooklyn","NY","11201",,"Brooklyn","true","N/A","https://access.nyc.gov/programs/veterans-exemption/","Qualified Veterans, spouses or their un-remarried surviving spouses; parents of soldiers who died in the line of duty (Gold Star parent) can get a reduction to their property tax."
"229","NYC Department of Finance Queens Business Center - Veteran's Property Tax Exemption","Financial Assistance","Mon - Fri: 8:30 AM - 4:30 PM","Please call 311 to contact this location.","144-06 94th Avenue","Jamaica","NY","11435",,"Queens","true","N/A","https://access.nyc.gov/programs/veterans-exemption/","Qualified Veterans, spouses or their un-remarried surviving spouses; parents of soldiers who died in the line of duty (Gold Star parent) can get a reduction to their property tax."
"230","NYC Department of Finance Staten Island Business Center - Veteran's Property Tax Exemption","Financial Assistance","Mon - Fri: 8:30 AM - 4:30 PM","Please call 311 to contact this location.","350 St. Marks Place","Staten Island","NY","10301",,"Staten Island","true","N/A","https://access.nyc.gov/programs/veterans-exemption/","Qualified Veterans, spouses or their un-remarried surviving spouses; parents of soldiers who died in the line of duty (Gold Star parent) can get a reduction to their property tax."
"247","U.S. Citizenship and Immigration Services (USCIS)","Supportive Services","Please contact this location for hours.","(800) 375-5283","26 Federal Plaza","New York","NY","10278","Room 3-120","Manhattan","false","N/A","https://www.uscis.gov/","U.S. Citizenship and Immigration Services (USCIS) is the federal agency that oversees lawful immigration to the United States. We are a component of the Department of Homeland Security.�"
"232","NYC Department of Homeless (DHS) - Office of the Ombudsman","Homelessness","Mon - Fri: 9:00 AM - 4:00 PM","(800) 994-6494","33 Beaver Street","New York","NY","10004",,"Manhattan","true","N/A","https://www1.nyc.gov/site/dhs/prevention/office-of-ombudsman.page","The Office is an independent and impartial unit whose mission is to support New York City's homeless population, assist them on their path to fairer access to essential resources, improve their quality of life while in shelter, and advocate for a meaningful role in the decision-making processes that affect their lives."
"233","NYC Mayor�s Office for People with Disabilities (MOPD)","Advocacy and Assistance","Mon - Fri: 9:00 AM - 5:00 PM","Please call 311 to contact this location.","100 Gold Street","New York","NY","10038","2nd Floor","Manhattan","true","N/A","https://www1.nyc.gov/site/mopd/index.page","The Mayor's Office for People with Disabilities (MOPD) is the liaison between New York City government and the disability community."
"234","NYC Department for the Aging (DFTA)","Advocacy and Assistance","Mon - Fri: 9:00 AM - 5:00 PM","Please call 311 to contact this location.","2 Lafayette Street","New York","NY","10007",,"Manhattan","true","N/A","https://www1.nyc.gov/site/dfta/index.page","Our mission is to eliminate ageism and ensure the dignity and quality of life of diverse older adults. We also work to support caregivers through service, advocacy, and education."
"235","NYC Department of Buildings (DOB) - The Hub","Advocacy and Assistance","Mon - Fri: 8:30 AM - 4:00 PM","(212) 393-2850","80 Centre Street","New York","NY","10013","Third Floor","Manhattan","true","nycdevelopmenthub@buildings.nyc.gov | hubfullservice@buildings.nyc.gov | hubselfservice@building.nyc.gov","https://www1.nyc.gov/site/buildings/index.page","The Department of Buildings promotes the safety of all people that build, work, and live in New York City by regulating the lawful use of over one million buildings and construction sites."
"236","NYC Department of Buildings (DOB) - Bronx Borough Office","Advocacy and Assistance","Mon - Fri: 8:30 AM - 4:00 PM","(718) 960-4710","1932 Arthur Avenue","Bronx","NY","10457","5th Floor","Bronx","true","N/A","https://www1.nyc.gov/site/buildings/index.page","The Department of Buildings promotes the safety of all people that build, work, and live in New York City by regulating the lawful use of over one million buildings and construction sites."
"237","NYC Department of Buildings (DOB) - Brooklyn Borough Office","Advocacy and Assistance","Mon - Fri: 8:30 AM - 4:00 PM","(718) 802-3675","210 Joralemon Street","Brooklyn","NY","11201","8th Floor","Brooklyn","true","N/A","https://www1.nyc.gov/site/buildings/index.page","The Department of Buildings promotes the safety of all people that build, work, and live in New York City by regulating the lawful use of over one million buildings and construction sites."
"238","NYC Department of Buildings (DOB) - Manhattan Borough Office","Advocacy and Assistance","Mon - Fri: 8:30 AM - 4:00 PM","(212) 393-2615","280 Broadway","New York","NY","10007","3rd Floor","Manhattan","true","N/A","https://www1.nyc.gov/site/buildings/index.page","The Department of Buildings promotes the safety of all people that build, work, and live in New York City by regulating the lawful use of over one million buildings and construction sites."
"239","NYC Department of Buildings (DOB) - Queens Borough Office","Advocacy and Assistance","Mon - Fri: 8:30 AM - 4:00 PM","(718) 286-7670","120-55  Queens Boulevard","Kew Gardens","NY","11424",,"Queens","true","N/A","https://www1.nyc.gov/site/buildings/index.page","The Department of Buildings promotes the safety of all people that build, work, and live in New York City by regulating the lawful use of over one million buildings and construction sites."
"240","NYC Department of Buildings (DOB) - Staten Island Borough Office","Advocacy and Assistance","Mon - Fri: 8:30 AM - 4:00 PM","(718) 420-5414","10 Richmond Terrace","Staten Island","NY","10301","Borough Hall, 2nd Floor","Staten Island","true","N/A","https://www1.nyc.gov/site/buildings/index.page","The Department of Buildings promotes the safety of all people that build, work, and live in New York City by regulating the lawful use of over one million buildings and construction sites."
"241","NYC Family Justice Center (FJC)- Bronx","Advocacy and Assistance","Mon - Fri: 9:00 AM - 5:00 PM","(718) 508-1220","198 East 161 Street","Bronx","NY","10451","2nd Floor","Bronx","true","N/A","https://www1.nyc.gov/site/ocdv/index.page","As part of The Mayor's Office to End Domestic and Gender-Based Violence (ENDGBV), provide comprehensive safety planning, case management, counseling, criminal justice and civil legal advocacy, and supportive services for survivors of domestic violence, elder abuse and sex trafficking."
"242","NYC Family Justice Center (FJC)- Brooklyn","Advocacy and Assistance","Mon - Fri: 9:00 AM - 5:00 PM","(718) 250-5111","350 Jay Street","Brooklyn","NY","11201",,"Brooklyn","true","N/A","https://www1.nyc.gov/site/ocdv/index.page","As part of The Mayor's Office to End Domestic and Gender-Based Violence (ENDGBV), provide comprehensive safety planning, case management, counseling, criminal justice and civil legal advocacy, and supportive services for survivors of domestic violence, elder abuse and sex trafficking."
"243","NYC Family Justice Center (FJC)- Manhattan","Advocacy and Assistance","Mon - Fri: 9:00 AM - 5:00 PM","(212) 602-2800","80 Centre Street","New York","NY","10013","5th Floor","Manhattan","true","N/A","https://www1.nyc.gov/site/ocdv/index.page","As part of The Mayor's Office to End Domestic and Gender-Based Violence (ENDGBV), provide comprehensive safety planning, case management, counseling, criminal justice and civil legal advocacy, and supportive services for survivors of domestic violence, elder abuse and sex trafficking."
"244","NYC Family Justice Center (FJC)- Queens","Advocacy and Assistance","Mon - Fri: 9:00 AM - 5:00 PM","(718) 575-4545","126-02 82nd Avenue","Kew Gardens","NY","11415",,"Queens","true","N/A","https://www1.nyc.gov/site/ocdv/index.page","As part of The Mayor's Office to End Domestic and Gender-Based Violence (ENDGBV), provide comprehensive safety planning, case management, counseling, criminal justice and civil legal advocacy, and supportive services for survivors of domestic violence, elder abuse and sex trafficking."
"245","NYC Family Justice Center (FJC)-Staten Island","Advocacy and Assistance","Mon - Fri: 9:00 AM - 5:00 PM","(718) 697-4300","126 Stuyvesant Place","Staten Island","NY","10301",,"Staten Island","true","N/A","https://www1.nyc.gov/site/ocdv/index.page","As part of The Mayor's Office to End Domestic and Gender-Based Violence (ENDGBV), provide comprehensive safety planning, case management, counseling, criminal justice and civil legal advocacy, and supportive services for survivors of domestic violence, elder abuse and sex trafficking."
"246","NYC Commission on Human Rights","Advocacy and Assistance","Mon - Fri: 9:00 AM - 5:00 PM","(212) 306-7450","22 Reade Street","New York","NY","10007","1st Floor","Manhattan","true","N/A","https://www1.nyc.gov/site/cchr/index.page","The New York City Commission on Human Rights is charged with the enforcement of the�Human Rights Law, Title 8 of the Administrative Code of the City of New York, and with educating the public and encouraging positive community relations."
"249","NYC Employee Retirement Systems (NYCERS) - Customer Service Center","Financial Assistance","Mon and Wed: 8:00 AM-6:00 PM; Tues and Thurs: 8:00 AM -5:00 PM; Fri: 8:00 AM - 3:00 PM","(347) 643-3000","340 Jay Street","Brooklyn","NY","11201","Mezzanine Level","Brooklyn","true","N/A","https://www.nycers.org/","The prime function of the New York City Employees� Retirement System is to administer the statutory pension benefits of its members, retirees, and beneficiaries"
"250","NYC Housing Authority (NYCHA) - Customer Contact Center","Supportive Services","Mon - Fri: 8:00 AM - 5:00 PM","(718) 707-7771","478 East Fordham Road","Bronx","NY","10458","2nd Floor","Bronx","true","N/A","https://www1.nyc.gov/site/nycha/index.page","The Customer Contact Center is NYCHA's single point of contact for public housing residents, Section 8 voucher holders, and Section 8 landlords."
"251","NYC Housing Authority (NYCHA) - Customer Contact Center","Supportive Services","Mon - Fri: 8:00 AM - 5:00 PM","(718) 707-7771","887 Atlantic Avenue","Brooklyn","NY","11238","2nd Floor","Brooklyn","true","N/A","https://www1.nyc.gov/site/nycha/index.page","The Customer Contact Center is NYCHA's single point of contact for public housing residents, Section 8 voucher holders, and Section 8 landlords."
"252","Borden Avenue Veterans Residence (BAVR)","Homelessness","24/7","(718) 784-5690","21-10 Borden Avenue","Long Island City","NY","11101",,"Queens","true","N/A","https://www1.nyc.gov/site/dhs/shelter/singleadults/veterans-shelter.page","Homeless veterans in need of short-term housing continue from DHS intake/assessment shelters to the VSU, where they receive referrals to transitional housing at one of two veteran-specific facilities: the Borden Avenue Veterans Residence (BAVR), a 243-bed short-term housing facility for male and female veterans."
"253","Porter Avenue Shelter","Homelessness","24/7","(718) 417-2500","8911 Porter Avenue","Brooklyn","NY","11237",,"Brooklyn","true","N/A","https://www1.nyc.gov/site/dhs/shelter/singleadults/veterans-shelter.page","Homeless veterans in need of short-term housing continue from DHS intake/assessment shelters to the VSU, where they receive referrals to transitional housing at one of two veteran-specific facilities: the Porter Avenue site, an employment-focused facility offering services for 138 male veterans"
