"houseofworship","streetaddress","city","state","postcode","entrydate","permitnumber","dateissue","dateexpiry","permitstatus","permittype","borough","latitude","longitude","community_board","council_district","census_tract","bin","bbl","nta","geocoded_column"
"Agape Christian Center","59-02 SummerField Street","Ridgewood","NY","11385","2008-04-25T00:00:00.000","2021-6911","2021-07-02T00:00:00.000","2022-07-31T00:00:00.000","Active","Renew","4","40.699452","-73.897837","5","34","557","4086718","4035890001","Ridgewood","POINT (-73.897837 40.699452)"
"Agudath Israel Bais Binyomin","2913 Ave L","Brooklyn","NY","11230","2016-02-18T00:00:00.000","2022-7348","2022-04-01T00:00:00.000","2023-03-31T00:00:00.000","Active","Renew","3","40.62192","-73.946734","14","45","748","3208621","3076290001","Midwood","POINT (-73.946734 40.62192)"
"Agudath Israel of Long Island","1121 Sage Street","Far Rockaway","NY","11691","2010-06-07T00:00:00.000","2021-7030","2021-09-23T00:00:00.000","2022-09-30T00:00:00.000","Active","Renew","4","40.606509","-73.745013","14","31","103202","4298146","4155510158","Far Rockaway-Bayswater","POINT (-73.745013 40.606509)"
"Agudath Israel of Madison","2122 Avenue S","Brooklyn","NY","11229","2008-04-25T00:00:00.000","2021-7171","2021-12-08T00:00:00.000","2022-11-30T00:00:00.000","Active","Renew","3","40.604163","-73.950969","15","48","560","3254097","3073000008","Madison","POINT (-73.950969 40.604163)"
"Ahi Ezer Congregation","1885 Ocean Parkway","Brooklyn","NY","11223","2010-09-15T00:00:00.000","2021-7073","2021-10-18T00:00:00.000","2022-10-31T00:00:00.000","Active","Renew","3","40.603052","-73.966465","15","47","418","3178704","3066820060","Homecrest","POINT (-73.966465 40.603052)"
"Ahi Ezer Yeshiva Congregation","2433 Ocean Parkway","Brooklyn","NY","11235","2021-02-10T00:00:00.000","2022-7285","2022-03-02T00:00:00.000","2023-02-28T00:00:00.000","Active","Renew","3","40.590249","-73.965316","15","48","370","3195384","3072010001","Brighton Beach","POINT (-73.965316 40.590249)"
"Almarwa Center","24-30 Steinway Street","Astoria","NY","11103","2017-07-19T00:00:00.000","2021-6912","2021-07-02T00:00:00.000","2022-07-31T00:00:00.000","Active","Renew","4","40.768584","-73.911179","1","22","143","4010273","4006540056","Astoria","POINT (-73.911179 40.768584)"
"Alpha Omega Christian Church","1829 Bathgate Avenue","Bronx","NY","10457","2008-04-25T00:00:00.000","2021-6995","2021-09-01T00:00:00.000","2022-09-30T00:00:00.000","Active","Renew","2","40.844929","-73.898116","6","15","395","2009571","2029170037","Claremont-Bathgate","POINT (-73.898116 40.844929)"
"Ambassador Pentecostal Church In Christ","937 East 169th Street, PO Box 161","Bronx","NY","10459","2010-12-13T00:00:00.000","2021-6963","2021-08-03T00:00:00.000","2022-07-31T00:00:00.000","Active","Renew","2","40.827191","-73.893591","3","17","125","2005712","2027190074","Morrisania-Melrose","POINT (-73.893591 40.827191)"
"American Society of Buddhist Studies","214 Centre Street","New York","NY","10013","2008-04-25T00:00:00.000","2021-6985","2021-08-30T00:00:00.000","2022-09-30T00:00:00.000","Active","Renew","1","40.719323","-73.998889","2","1","41","1003061","1002350008","SoHo-TriBeCa-Civic Center-Little Italy","POINT (-73.998889 40.719323)"
"Annex Torah Center - Shaare Zion Congregation","2022 Ocean Park","Brooklyn","NY","11223","2008-04-25T00:00:00.000","2022-7355","2022-04-05T00:00:00.000","2023-04-30T00:00:00.000","Active","Renew",,,,,,,,,,
"Antioch Baptist Church","828 Greene Avenue","Brooklyn","NY","11221","2008-04-25T00:00:00.000","2022-7468","2022-06-10T00:00:00.000","2023-05-31T00:00:00.000","Active","Renew","3","40.690248","-73.935032","3","36","291","3044038","3016200025","Stuyvesant Heights","POINT (-73.935032 40.690248)"
"Antioch Baptist Church","107-14 Pinegrove Street","Jamaica","NY","11435","2011-03-03T00:00:00.000","2022-7309","2022-03-04T00:00:00.000","2023-03-31T00:00:00.000","Active","Renew","4","40.690143","-73.805374","12","28","198","4448845","4100720010","South Jamaica","POINT (-73.805374 40.690143)"
"Apostolic Faith Church Mission","265 Lafayette Avenue","Brooklyn","NY","11238","2010-10-02T00:00:00.000","2021-7036","2021-10-01T00:00:00.000","2022-10-31T00:00:00.000","Active","Renew","3","40.688236","-73.965669","2","35","197","3055341","3019320001","Clinton Hill","POINT (-73.965669 40.688236)"
"Apostolic Gospel Church of Christ Inc","99-105 Chester Street","Brooklyn","NY","11212","2010-01-20T00:00:00.000","2021-6860","2021-06-18T00:00:00.000","2022-06-30T00:00:00.000","Active","Renew","3","40.669032","-73.911521","16","41","924","3326591","3035210033","Brownsville","POINT (-73.911521 40.669032)"
"Assafa Islamic Center Inc .","172 Eldridge Street","New York","NY","10002","2016-10-02T00:00:00.000","2022-7187","2022-01-05T00:00:00.000","2023-01-31T00:00:00.000","Active","Renew","1","40.720211","-73.990902","3","1","18","1089458","1004150010","Chinatown","POINT (-73.990902 40.720211)"
"Ateret Torah Center","901 Quentin Road","Brooklyn","NY","11223","2008-04-25T00:00:00.000","2022-7239","2022-02-02T00:00:00.000","2023-02-28T00:00:00.000","Active","Renew","3","40.607654","-73.963755","15","44","420","3176271","3066410038","Homecrest","POINT (-73.963755 40.607654)"
"Battalion Pentecostal Assembly","454 Beach 67th Street","Arverne","NY","11692","2008-04-28T00:00:00.000","2021-6945","2021-07-30T00:00:00.000","2022-08-31T00:00:00.000","Active","Renew","4","40.593999","-73.796263","14","31","964","4438906","4160400024","Hammels-Arverne-Edgemere","POINT (-73.796263 40.593999)"
"Bay Ridge Spanish SDA Church","5318 4th Avenue","Brooklyn","NY","11220","2021-10-22T00:00:00.000","2022-7318","2022-03-09T00:00:00.000","2023-03-31T00:00:00.000","Active","Renew","3","40.644639","-74.014493","7","38","76","3014204","3008140043","Sunset Park West","POINT (-74.014493 40.644639)"
"Bedford Central Presbyterian Church","1200 Dean Street","Brooklyn","NY","11216","2008-04-28T00:00:00.000","2021-7135","2021-11-23T00:00:00.000","2022-11-30T00:00:00.000","Active","Renew","3","40.676836","-73.949271","8","36","315","3030357","3012130005","Crown Heights North","POINT (-73.949271 40.676836)"
"Bethany Baptist Church","460 Marcus Garvey Blvd.","Brooklyn","NY","11216","2018-09-25T00:00:00.000","2021-6998","2021-09-09T00:00:00.000","2022-08-31T00:00:00.000","Active","Renew","3","40.681137","-73.937687","3","36","273","3053589","3018560041","Stuyvesant Heights","POINT (-73.937687 40.681137)"
"Bethany French Baptist Church","471 Elmont Rd.","Elmont","NY","11003","2008-04-29T00:00:00.000","2021-6907","2021-07-02T00:00:00.000","2022-07-31T00:00:00.000","Active","Renew",,,,,,,,,,
"Beth Chana","712 Bedford Avenue","Brooklyn","NY","11206","2013-05-28T00:00:00.000","2022-7242","2022-02-03T00:00:00.000","2023-02-28T00:00:00.000","Active","Renew","3","40.699547","-73.957145","1","33","537","3392365","3022620024","Williamsburg","POINT (-73.957145 40.699547)"
"Bethel Assembly Of God","128 - 18  115th Avenue","S. Ozone Park","NY","11420","2008-04-30T00:00:00.000","2021-7148","2021-12-02T00:00:00.000","2022-11-30T00:00:00.000","Active","Renew","4","40.679292","-73.811549","10","28","176","4574874","4116720008","South Ozone Park","POINT (-73.811549 40.679292)"
"Bethel Assembly Of God","77 Eldridge Street","New York","NY","10002","2008-04-30T00:00:00.000","2022-7203","2022-01-06T00:00:00.000","2023-01-31T00:00:00.000","Active","Renew","1","40.716989","-73.992572","3","1","16","1003966","1003060030","Chinatown","POINT (-73.992572 40.716989)"
"Bethelite Community Baptist Church","38 West 123rd Street","New York","NY","10027","2013-06-24T00:00:00.000","2022-7456","2022-06-03T00:00:00.000","2023-06-30T00:00:00.000","Active","Renew","1","40.80603","-73.945434","10","9","200","1053413","1017210031","Central Harlem South","POINT (-73.945434 40.80603)"
"Bethel Tabernacle AME Church","90 Schenectady Ave.","Brooklyn","NY","11213","2018-09-20T00:00:00.000","2021-7103","2021-11-03T00:00:00.000","2022-09-30T00:00:00.000","Active","Renew","3","40.676221","-73.933214","8","36","309","3035672","3013410044","Crown Heights North","POINT (-73.933214 40.676221)"
"Bethenia Baptist Church","720 Hancock Street","Brooklyn","NY","11233","2008-05-01T00:00:00.000","2022-7198","2022-01-06T00:00:00.000","2023-01-31T00:00:00.000","Active","Renew","3","40.68522","-73.926596","3","36","383","3330960","3016620044","Stuyvesant Heights","POINT (-73.926596 40.68522)"
"Beth Gavriel Bukharian Congregation","66-35 108th Street","Forest Hills","NY","11375","2010-01-22T00:00:00.000","2022-7410","2022-05-10T00:00:00.000","2023-03-31T00:00:00.000","Active","Renew","4","40.729471","-73.847809","6","29","741","4051845","4021750001","Forest Hills","POINT (-73.847809 40.729471)"
"Beth Hamedrash Shaarei Yosher","4102 16th Ave","Brooklyn","NY","11204","2010-02-08T00:00:00.000","2022-7425","2022-05-24T00:00:00.000","2023-06-30T00:00:00.000","Active","Renew","3","40.635449","-73.98093","12","39","230","3125720","3053630042","Borough Park","POINT (-73.98093 40.635449)"
"Beth Hamedrosh Anshei Hrubishov","691 Crown Street","Brooklyn","NY","11213","2014-02-27T00:00:00.000","2021-7116","2021-11-12T00:00:00.000","2022-07-31T00:00:00.000","Active","Replace","3","40.665438","-73.93515","9","35","353","3038079","3014130055","Crown Heights North","POINT (-73.93515 40.665438)"
"Bethlehem Church Of God In Christ, Inc.","163-17 107th Avenue","Jamaica","NY","11433","2014-12-08T00:00:00.000","2022-7307","2022-03-03T00:00:00.000","2023-03-31T00:00:00.000","Active","Renew","4","40.69825","-73.792194","12","27","254","4216294","4101610037","South Jamaica","POINT (-73.792194 40.69825)"
"Bethlehem Missionary Church Inc","218-38 98 Avenue","Queens Village","NY","11429","2008-05-01T00:00:00.000","2022-7378","2022-04-14T00:00:00.000","2023-04-30T00:00:00.000","Active","Renew","4","40.71638","-73.736314","13","27","568","4230859","4107690024","Queens Village","POINT (-73.736314 40.71638)"
"Bhavaannee Maa Mandir, Inc.","239 Mckinley Avenue","Brooklyn","NY","11208","2010-04-23T00:00:00.000","2022-7270","2022-02-14T00:00:00.000","2023-02-28T00:00:00.000","Active","Renew","3","40.680492","-73.867127","5","37","1186","3000000","3041740001","Cypress Hills-City Line","POINT (-73.867127 40.680492)"
"Bibleway House Of Blessings","675 Franklin Avenue","Brooklyn","NY","11238","2016-03-18T00:00:00.000","2022-7316","2022-03-08T00:00:00.000","2023-03-31T00:00:00.000","Active","Renew","3","40.675464","-73.956223","8","35","221","3030860","3012240005","Crown Heights North","POINT (-73.956223 40.675464)"
"Bnei Aram Soba","1616 Ocean Parkway","Brooklyn","NY","11223","2011-04-01T00:00:00.000","2022-7370","2022-04-11T00:00:00.000","2023-04-30T00:00:00.000","Active","Renew","3","40.609151","-73.967647","15","44","422","3176091","3066370012","Homecrest","POINT (-73.967647 40.609151)"
"Bnei Binyamin","727 Avenue O","Brooklyn","NY","11230","2014-01-27T00:00:00.000","2022-7459","2022-06-07T00:00:00.000","2023-06-30T00:00:00.000","Active","Renew","3","40.612156","-73.966421","12","44","442","3173891","3065890050","Ocean Parkway South","POINT (-73.966421 40.612156)"
"Bnei Binyamin","1938 Coney Island Avenue","Brooklyn","NY","11230","2022-06-07T00:00:00.000","2022-7460","2022-06-07T00:00:00.000","2023-06-30T00:00:00.000","Active","New","3","40.610406","-73.962468","12","44","420","3175215","3066170045","Homecrest","POINT (-73.962468 40.610406)"
"Bodhisattva Wish Temple","131-29 31st ave 2fl","flushing","NY","11354","2021-10-08T00:00:00.000","2022-7230","2022-01-20T00:00:00.000","2022-11-30T00:00:00.000","Active","Renew","4","40.769218","-73.838115","7","19","907","4442073","4043610027","College Point","POINT (-73.838115 40.769218)"
"Bosansko Hercegovacki Islamic Center of NY","37-46 Crescent Street","Long Island Cit","NY","11101","2016-11-17T00:00:00.000","2022-7208","2022-01-06T00:00:00.000","2023-01-31T00:00:00.000","Active","Renew","4","40.756397","-73.935199","1","26","33","4004447","4003670042","Queensbridge-Ravenswood-Long Island City","POINT (-73.935199 40.756397)"
"Bronx Church Of God","987 Washington Avenue","Bronx","NY","10456","2016-03-31T00:00:00.000","2022-7383","2022-04-25T00:00:00.000","2023-04-30T00:00:00.000","Active","Renew","2","40.825951","-73.909874","3","17","185","2001553","2023860056","Morrisania-Melrose","POINT (-73.909874 40.825951)"
"Bronx Full Gospel Tabernacle Inc","4221 Park Avenue","Bronx","NY","10457","2010-11-01T00:00:00.000","2021-7122","2021-11-23T00:00:00.000","2022-11-30T00:00:00.000","Active","Renew","2","40.847984","-73.899156","6","15","379","2011095","2030270041","Mount Hope","POINT (-73.899156 40.847984)"
"Brooklyn Baptist Church","733 44th Street","Brooklyn","NY","11220","2013-03-19T00:00:00.000","2022-7361","2022-04-05T00:00:00.000","2023-04-30T00:00:00.000","Active","Renew","3","40.645258","-74.001485","7","38","92","3011043","3007320065","Sunset Park East","POINT (-74.001485 40.645258)"
"Brooklyn Chinese Baptist Church","5123 7th  Avenue","Brooklyn","NY","11220","2010-04-23T00:00:00.000","2021-7160","2021-12-03T00:00:00.000","2022-12-31T00:00:00.000","Active","Renew","3","40.641708","-74.006666","7","38","108","3013726","3008020001","Sunset Park East","POINT (-74.006666 40.641708)"
"Brooklyn Heights Synagogue","131 Remsen Street","Brooklyn","NY","11201","2014-01-08T00:00:00.000","2022-7274","2022-02-17T00:00:00.000","2023-02-28T00:00:00.000","Active","Replace","3","40.693769","-73.993307","2","33","502","3002069","3002490006","Brooklyn Heights-Cobble Hill","POINT (-73.993307 40.693769)"
"Brooklyn Miracle Temple","333 Rogers Avenue","Brooklyn","NY","11225","2008-05-05T00:00:00.000","2021-7012","2021-09-14T00:00:00.000","2022-09-30T00:00:00.000","Active","Renew","3","40.665112","-73.953717","9","35","321","3330690","3013050005","Crown Heights South","POINT (-73.953717 40.665112)"
"Butler Memorial United Methodist Church","3920 Paulding Ave","Bronx","NY","10469","2016-10-03T00:00:00.000","2021-6898","2021-07-01T00:00:00.000","2022-07-31T00:00:00.000","Active","Renew","2","40.883616","-73.852852","12","12","398","2064836","2048690031","Williamsbridge-Olinville","POINT (-73.852852 40.883616)"
"Calvary Assembly of God","102-07 Rockaway Boulevard","Ozone Park","NY","11417","2008-04-28T00:00:00.000","2021-7130","2021-11-23T00:00:00.000","2022-11-30T00:00:00.000","Active","Renew","4","40.679703","-73.837608","10","32","94","4438644","4095250040","South Ozone Park","POINT (-73.837608 40.679703)"
"Calvary Community Church Inc.","1496 St. Johns Place","Brooklyn","NY","11233","2011-08-22T00:00:00.000","2021-7007","2021-09-10T00:00:00.000","2022-08-31T00:00:00.000","Active","Renew","3","40.670455","-73.928764","8","41","349","3037117","3013850035","Crown Heights North","POINT (-73.928764 40.670455)"
"Calvary Pentecostal Church Inc","151 Woodruff Ave","Brooklyn","NY","11226","2016-05-12T00:00:00.000","2021-6955","2021-08-02T00:00:00.000","2022-08-31T00:00:00.000","Active","Renew","3","40.654328","-73.961131","14","40","50803","3115939","3050540062","Flatbush","POINT (-73.961131 40.654328)"
"Central Presbyterian Church","593 Park Avenue","New York","NY","10021","2008-04-28T00:00:00.000","2022-7221","2022-01-12T00:00:00.000","2022-11-30T00:00:00.000","Active","Renew","1","40.765795","-73.967683","8","4","120","1042124","1013980072","Upper East Side-Carnegie Hill","POINT (-73.967683 40.765795)"
"Central Synagogue","652 Lexington Avenue","New York","NY","10022","2010-04-23T00:00:00.000","2022-7339","2022-03-22T00:00:00.000","2023-02-28T00:00:00.000","Active","Renew","1","40.759485","-73.970195","5","4","100","1036488","1013090056","Turtle Bay-East Midtown","POINT (-73.970195 40.759485)"
"Centro Cristiano Familia De Fe Inc","97-18 148th Street","Jamaica","NY","11435","2021-09-15T00:00:00.000","2021-7082","2021-10-22T00:00:00.000","2022-10-31T00:00:00.000","Active","New","4","40.697716","-73.804082","12","28","208","4214615","4100320013","Jamaica","POINT (-73.804082 40.697716)"
"Chabad House Bowery","353 Bowery","New York","NY","10003","2020-09-27T00:00:00.000","2022-7406","2022-05-03T00:00:00.000","2022-12-31T00:00:00.000","Active","Renew","1","40.726686","-73.99168","3","2","38","1006566","1004597502","East Village","POINT (-73.99168 40.726686)"
"Charity Baptist Church of Christ","142 Watkins Street","Brooklyn","NY","11212","2019-09-18T00:00:00.000","2021-7076","2021-10-18T00:00:00.000","2022-10-31T00:00:00.000","Active","Renew","3","40.669443","-73.907811","16","41","906","3081108","3035240023","Brownsville","POINT (-73.907811 40.669443)"
"Chinese Christian Herald Crusades","156-03 Horace Harding Expy.","Flushing","NY","11367","2008-04-28T00:00:00.000","2021-7038","2021-10-01T00:00:00.000","2022-10-31T00:00:00.000","Active","Renew","4","40.738948","-73.812113","7","20","1215","4146290","4067340001","Queensboro Hill","POINT (-73.812113 40.738948)"
"Chinese Conservative Baptist Church","103 Madison Street","New York","NY","10002","2008-04-29T00:00:00.000","2022-7199","2022-01-06T00:00:00.000","2023-01-31T00:00:00.000","Active","Renew","1","40.712233","-73.995278","3","1","8","1003335","1002770015","Chinatown","POINT (-73.995278 40.712233)"
"Chinese Evangel Mission Church","31 Monroe Street, 1st Floor","New York","NY","10002","2021-11-24T00:00:00.000","2021-7141","2021-11-24T00:00:00.000","2022-11-30T00:00:00.000","Active","New","1","40.711538","-73.994968","3","1","8","1088682","1002767503","Chinatown","POINT (-73.994968 40.711538)"
"Chinese Evangel Mission Church","97 Madison Street","New York","NY","10002","2011-06-17T00:00:00.000","2021-7088","2021-10-27T00:00:00.000","2022-08-31T00:00:00.000","Active","Replace","1","40.712214","-73.995506","3","1","8","1003334","1002770012","Chinatown","POINT (-73.995506 40.712214)"
"Chinese Evangel Mission Church of Queens","203-10 Rocky Hill Road","Bayside","NY","11361","2009-11-20T00:00:00.000","2022-7416","2022-05-16T00:00:00.000","2023-05-31T00:00:00.000","Active","Renew","4","40.753282","-73.777145","11","20","145102","4157908","4073550076","Bayside-Bayside Hills","POINT (-73.777145 40.753282)"
"Chinese for Christ New York Church","142-21 Franklin Avenue","Flushing","NY","11355","2008-04-29T00:00:00.000","2021-7144","2021-11-26T00:00:00.000","2022-12-31T00:00:00.000","Active","Renew","4","40.756537","-73.823108","7","20","857","4441214","4051810056","Flushing","POINT (-73.823108 40.756537)"
"Chinese Missionary Baptist Church of New York Inc.","136 Henry Street","New York","NY","10002","2011-12-20T00:00:00.000","2022-7292","2022-03-03T00:00:00.000","2023-03-31T00:00:00.000","Active","Renew","1","40.713319","-73.990784","3","1","6","1003262","1002730031","Lower East Side","POINT (-73.990784 40.713319)"
"Chinese Promise Baptist Church","842 41st Street","Brooklyn","NY","11232","2014-07-10T00:00:00.000","2021-6908","2021-07-02T00:00:00.000","2022-07-31T00:00:00.000","Active","Renew","3","40.645554","-73.997481","12","38","92","3018229","3009230024","Sunset Park East","POINT (-73.997481 40.645554)"
"Chinese United Methodist Church","69 Madison Street","New York","NY","10002","2008-04-29T00:00:00.000","2022-7216","2022-01-10T00:00:00.000","2023-01-31T00:00:00.000","Active","Renew","1","40.712115","-73.996562","3","1","8","1079617","1002770056","Chinatown","POINT (-73.996562 40.712115)"
"Chosen Generation Ministry","220 Sullian Place","Brooklyn","NY","11225","2020-10-06T00:00:00.000","2021-7037","2021-10-01T00:00:00.000","2022-10-31T00:00:00.000","Active","Renew",,,,,,,,,,
"Christ Apostolic Church WOSEM","442 East 183rd Street","Bronx","NY","10458","2015-04-07T00:00:00.000","2022-7382","2022-04-25T00:00:00.000","2023-04-30T00:00:00.000","Active","Renew","2","40.85566","-73.894152","6","15","385","2011334","2030380016","Claremont-Bathgate","POINT (-73.894152 40.85566)"
"Christian Church John 3:16","102-07 43rd Avenue","Corona","NY","11368","2008-04-29T00:00:00.000","2021-7120","2021-11-22T00:00:00.000","2022-11-30T00:00:00.000","Active","Renew","4","40.747267","-73.862518","4","21","405","4048572","4019770004","North Corona","POINT (-73.862518 40.747267)"
"Christian Church John 3:16 of Brooklyn Inc.","127 Carlton Ave","Brooklyn","NY","11205","2021-11-24T00:00:00.000","2021-7142","2021-11-24T00:00:00.000","2022-11-30T00:00:00.000","Active","Renew","3","40.693952","-73.973062","2","35","18501","3058041","3020440006","Fort Greene","POINT (-73.973062 40.693952)"
"Christian Church Of Christ The King Is Coming","2414 Valentine Avenue","Bronx","NY","10458","2015-04-07T00:00:00.000","2022-7455","2022-06-02T00:00:00.000","2022-12-31T00:00:00.000","Active","Renew","2","40.859639","-73.896984","5","15","39902","2013455","2031470016","Bedford Park-Fordham North","POINT (-73.896984 40.859639)"
"Christian Ministry of Family Integration Inc.","1875 Amsterdam ave.","New York","NY","10031","2016-05-23T00:00:00.000","2021-6965","2021-08-26T00:00:00.000","2022-07-31T00:00:00.000","Active","Renew","1","40.830106","-73.94403","9","7","23501","1061642","1020670063","Hamilton Heights","POINT (-73.94403 40.830106)"
"Christian Testimony Church","87-11 Whitney Ave.","Elmhurst","NY","11373","2019-03-13T00:00:00.000","2022-7472","2022-06-13T00:00:00.000","2023-06-30T00:00:00.000","Active","Renew","4","40.742679","-73.878017","4","25","469","4038995","4015590028","Elmhurst","POINT (-73.878017 40.742679)"
"Christ & Saint Stephen's Church","122 West 69th Street","New York","NY","10023","2011-11-03T00:00:00.000","2021-7156","2021-12-03T00:00:00.000","2022-12-31T00:00:00.000","Active","Renew","1","40.77578","-73.980929","7","6","153","1028947","1011400041","Lincoln Square","POINT (-73.980929 40.77578)"
"Christ Temple Of The Apostolic Faith Inc.","13-17 West 128th Street","New York","NY","10027","2016-04-22T00:00:00.000","2021-6872","2021-06-18T00:00:00.000","2022-06-30T00:00:00.000","Active","Renew","1","40.808655","-73.941592","10","9","208","1076429","1017260044","Central Harlem North-Polo Grounds","POINT (-73.941592 40.808655)"
"Christ United Methodist Church","673 45th Street","Brooklyn","NY","11220","2012-03-05T00:00:00.000","2022-7288","2022-03-03T00:00:00.000","2023-03-31T00:00:00.000","Active","Renew","3","40.645699","-74.003733","7","38","96","3332045","3007400043","Sunset Park East","POINT (-74.003733 40.645699)"
"Church Of Abiding Presence","1672 East 172nd Street","Bronx","NY","10472","2014-07-22T00:00:00.000","2021-6934","2021-07-30T00:00:00.000","2022-07-31T00:00:00.000","Active","Renew","2","40.832099","-73.872606","9","18","64","2025420","2037800029","West Farms-Bronx River","POINT (-73.872606 40.832099)"
"Church Of Christ Hollis","214-11 Jamaica Avenue","Queens Village","NY","11428","2014-11-09T00:00:00.000","2021-6913","2021-07-06T00:00:00.000","2022-07-31T00:00:00.000","Active","Renew","4","40.716479","-73.743442","13","23","542","4226194","4106040030","Queens Village","POINT (-73.743442 40.716479)"
"Church of God Inc","3917 Church Avenue","Brooklyn","NY","11203","2014-12-22T00:00:00.000","2022-7222","2022-01-12T00:00:00.000","2023-01-31T00:00:00.000","Active","Renew","3","40.651251","-73.940714","17","41","814","3327748","3048760035","East Flatbush-Farragut","POINT (-73.940714 40.651251)"
"Church Of God In Christ Jesus ND, Inc.","476 Kosciuszko Street","Brooklyn","NY","11221","2010-04-23T00:00:00.000","2021-6971","2021-08-26T00:00:00.000","2022-08-31T00:00:00.000","Active","Renew","3","40.69248","-73.935163","3","36","289","3043404","3016060028","Stuyvesant Heights","POINT (-73.935163 40.69248)"
"Church of God Mission Board","636 East 6th Street","New York","NY","10009","2015-12-11T00:00:00.000","2022-7418","2022-05-16T00:00:00.000","2023-05-31T00:00:00.000","Active","New","1","40.723866","-73.980161","3","2","2601","1004654","1003870127","Lower East Side","POINT (-73.980161 40.723866)"
"Church of God of Prophecy","1243 Bushwick Avenue","Brooklyn","NY","11221","2008-05-01T00:00:00.000","2021-6996","2021-09-01T00:00:00.000","2022-09-30T00:00:00.000","Active","Renew","3","40.687578","-73.914749","4","37","399","3078191","3033950001","Bushwick South","POINT (-73.914749 40.687578)"
"Church of God of Prophecy All Nations","856 Clarkson Avenue","Brooklyn","NY","11203","2008-05-01T00:00:00.000","2021-6990","2021-09-01T00:00:00.000","2022-09-30T00:00:00.000","Active","Renew","3","40.656687","-73.929695","17","41","868","3100851","3046380002","Rugby-Remsen Village","POINT (-73.929695 40.656687)"
"Church of God of Woodycrest Avenue","923 Woodycrest Avenue","Bronx","NY","10452","2019-09-18T00:00:00.000","2021-7139","2021-11-23T00:00:00.000","2022-11-30T00:00:00.000","Active","Renew","2","40.830811","-73.929417","4","8","189","2003180","2025110040","Highbridge","POINT (-73.929417 40.830811)"
"Church of Grace to Fujianese","133-135 Allen Street","New York","NY","10002","2011-10-27T00:00:00.000","2021-7086","2021-10-27T00:00:00.000","2022-10-31T00:00:00.000","Active","Renew","1","40.720006","-73.989971","3","1","18","1005489","1004150027","Chinatown","POINT (-73.989971 40.720006)"
"Church of Grace to Fujianese","5212 6th Avenue","Brooklyn","NY","11220","2015-01-21T00:00:00.000","2022-7338","2022-03-22T00:00:00.000","2023-03-31T00:00:00.000","Active","Renew","3","40.642532","-74.009426","7","38","100","3391500","3008080040","Sunset Park East","POINT (-74.009426 40.642532)"
"Church of Notre Dame","405 West 114th Street","New York","NY","10025","2011-09-22T00:00:00.000","2021-7091","2021-10-28T00:00:00.000","2022-10-31T00:00:00.000","Active","Renew","1","40.804858","-73.960415","9","7","20101","1056038","1018670014","Morningside Heights","POINT (-73.960415 40.804858)"
"Church of Our Saviour","59 Park Avenue","New York","NY","10016","2017-11-02T00:00:00.000","2021-7185","2021-12-15T00:00:00.000","2022-12-31T00:00:00.000","Active","Renew","1","40.749346","-73.979681","6","4","80","1019119","1008930092","Murray Hill-Kips Bay","POINT (-73.979681 40.749346)"
"Church Of Promise In Christ Inc.","474 Kosciuszko Street","Brooklyn","NY","11221","2011-08-29T00:00:00.000","2021-7039","2021-10-01T00:00:00.000","2022-10-31T00:00:00.000","Active","Renew","3","40.692471","-73.935225","3","36","289","3043403","3016060026","Stuyvesant Heights","POINT (-73.935225 40.692471)"
"Church of Sacred Heart of Jesus","457 West 51st  Street","New York","NY","10019","2022-03-18T00:00:00.000","2022-7421","2022-05-20T00:00:00.000","2023-05-31T00:00:00.000","Active","Renew","1","40.764778","-73.990051","4","3","133","1026715","1010610007","Clinton","POINT (-73.990051 40.764778)"
"Church of Saint Peter","3245 Kingsbridge Avenue","Bronx","NY","10463","2008-05-23T00:00:00.000","2022-7220","2022-01-12T00:00:00.000","2022-12-31T00:00:00.000","Active","Renew","2","40.882125","-73.904337","8","11","287","2083579","2057560235","Spuyten Duyvil-Kingsbridge","POINT (-73.904337 40.882125)"
"Church of St. Frances of Rome","4307 Barnes Avenue","Bronx","NY","10466","2008-05-01T00:00:00.000","2021-7040","2021-10-01T00:00:00.000","2022-10-31T00:00:00.000","Active","Renew","2","40.895125","-73.853036","12","11","434","2097002","2050450085","Woodlawn-Wakefield","POINT (-73.853036 40.895125)"
"Church of the Blessed Sacrement","152 West 71st Street","New York","NY","10023","2019-10-30T00:00:00.000","2021-7107","2021-11-05T00:00:00.000","2022-11-30T00:00:00.000","Active","Renew","1","40.777348","-73.980744","7","6","157","1029777","1011420061","Lincoln Square","POINT (-73.980744 40.777348)"
"Church of the Covenant","310 East 42nd Street","New York","NY","10017","2008-05-02T00:00:00.000","2022-7322","2022-03-11T00:00:00.000","2023-03-31T00:00:00.000","Active","Renew","1","40.749627","-73.971755","6","4","88","1038657","1013340046","Turtle Bay-East Midtown","POINT (-73.971755 40.749627)"
"Church of the Good Shepherd","96 - 07 103rd Avenue","Ozone Park","NY","11416","2008-05-02T00:00:00.000","2021-7041","2021-10-01T00:00:00.000","2022-10-31T00:00:00.000","Active","Renew","4","40.682585","-73.843928","9","32","4001","4189351","4091030034","Woodhaven","POINT (-73.843928 40.682585)"
"Church of the Holy Apostles","296 Ninth Avenue","New York","NY","10001","2019-06-24T00:00:00.000","2021-6890","2021-07-01T00:00:00.000","2022-07-31T00:00:00.000","Active","Renew","1","40.74912","-73.999401","4","3","97","1013463","1007510076","Hudson Yards-Chelsea-Flatiron-Union Square","POINT (-73.999401 40.74912)"
"Church of The Holy Family","315 East 47th Street","New York","NY","10017","2008-05-02T00:00:00.000","2022-7388","2022-05-03T00:00:00.000","2023-05-31T00:00:00.000","Active","Renew","1","40.752766","-73.969335","6","4","90","1038907","1013400013","Turtle Bay-East Midtown","POINT (-73.969335 40.752766)"
"Church of the Open Doors Inc","1374 Bedford Avenue","Brooklyn","NY","11216","2008-05-02T00:00:00.000","2021-7175","2021-12-13T00:00:00.000","2022-12-31T00:00:00.000","Active","Renew","3","40.676124","-73.953126","8","35","221","3030595","3012170043","Crown Heights North","POINT (-73.953126 40.676124)"
"Church of the Pilgrim Holiness","24 Arlington Place","Brooklyn","NY","11216","2008-05-02T00:00:00.000","2022-7265","2022-02-10T00:00:00.000","2022-12-31T00:00:00.000","Active","Renew","3","40.68105","-73.951215","3","36","245","3052973","3018420043","Bedford","POINT (-73.951215 40.68105)"
"Church of the Transfiguration-St James-St Joseph","29 Mott Street","New York","NY","10013","2020-11-04T00:00:00.000","2021-7109","2021-11-08T00:00:00.000","2022-11-30T00:00:00.000","Active","Renew","1","40.714725","-73.998838","3","1","29","1079244","1001640037","Chinatown","POINT (-73.998838 40.714725)"
"Church of The Virgin Mary","216 8th Avenue","Brooklyn","NY","11215","2008-05-02T00:00:00.000","2021-7126","2021-11-23T00:00:00.000","2022-11-30T00:00:00.000","Active","Renew","3","40.670068","-73.975631","6","39","155","3025205","3010760046","Park Slope-Gowanus","POINT (-73.975631 40.670068)"
"City of Faith Church of God","3453 White Plains Road","Bronx","NY","10467","2016-12-20T00:00:00.000","2022-7206","2022-01-06T00:00:00.000","2023-01-31T00:00:00.000","Active","Renew","2","40.876244","-73.866999","12","12","374","2056964","2046280043","Williamsbridge-Olinville","POINT (-73.866999 40.876244)"
"Community Baptist Church","46-19 206th Street","Bayside","NY","11361","2019-10-17T00:00:00.000","2022-7279","2022-02-28T00:00:00.000","2023-02-28T00:00:00.000","Active","Renew","4","40.755645","-73.775744","11","19","1447","4156758","4073080001","Bayside-Bayside Hills","POINT (-73.775744 40.755645)"
"Community Church of Astoria","14 42 Broadway","Astoria","NY","11106","2008-05-02T00:00:00.000","2022-7321","2022-03-11T00:00:00.000","2023-02-28T00:00:00.000","Active","Renew","4","40.765689","-73.932547","1","22","45","4005790","4005300006","Astoria","POINT (-73.932547 40.765689)"
"Community Church Of Christ","755 Home Street","Bronx","NY","10456","2010-09-07T00:00:00.000","2021-7022","2021-09-21T00:00:00.000","2022-09-30T00:00:00.000","Active","Renew","2","40.828126","-73.901726","3","17","135","2004735","2026620044","Morrisania-Melrose","POINT (-73.901726 40.828126)"
"Community Church of New York Unitarian Universalis","40 East 35th Street","New York","NY","10016","2008-05-02T00:00:00.000","2022-7426","2022-05-24T00:00:00.000","2023-06-30T00:00:00.000","Active","Renew","1","40.748212","-73.981973","6","2","74","1017107","1008640047","Midtown-Midtown South","POINT (-73.981973 40.748212)"
"Community Protestant Church","1659 East Gun Hill Road","Bronx","NY","10469","2008-05-02T00:00:00.000","2022-7312","2022-03-07T00:00:00.000","2023-03-31T00:00:00.000","Active","Renew","2","40.866178","-73.837976","12","12","356","2121861","2048020009","Eastchester-Edenwald-Baychester","POINT (-73.837976 40.866178)"
"Community Torah Centers Synagogue","646 West End Avenue","New York","NY","10025","2011-02-17T00:00:00.000","2022-7243","2022-02-03T00:00:00.000","2023-02-28T00:00:00.000","Active","Renew","1","40.792347","-73.975316","7","6","179","1033581","1012390004","Upper West Side","POINT (-73.975316 40.792347)"
"Community United Methodist Church","81-10 35th Avenue","Jackson Heights","NY","11372","2010-04-23T00:00:00.000","2022-7480","2022-06-28T00:00:00.000","2023-06-30T00:00:00.000","Active","Renew","4","40.751703","-73.885406","3","25","283","4029684","4012810001","Jackson Heights","POINT (-73.885406 40.751703)"
"Concilio Estrellade Jacob Iglesia Cristiana Inc.","53 East 184th Street","Bronx","NY","10468","2014-02-25T00:00:00.000","2022-7342","2022-03-24T00:00:00.000","2023-03-31T00:00:00.000","Active","Renew","2","40.860167","-73.901318","5","14","239","2014017","2031840001","Fordham South","POINT (-73.901318 40.860167)"
"Cong. Chabad Lubavitch of Flatbush","1923 Ocean Ave","Brooklyn","NY","11230","2019-04-12T00:00:00.000","2022-7367","2022-04-11T00:00:00.000","2023-04-30T00:00:00.000","Active","Renew","3","40.614963","-73.95435","14","48","546","3210666","3076740025","Midwood","POINT (-73.95435 40.614963)"
"Congregation Adath Yeshurun","3416 Avenue N","Brooklyn","NY","11234","2012-07-08T00:00:00.000","2021-6981","2021-08-27T00:00:00.000","2022-08-31T00:00:00.000","Active","Renew","3","40.617543","-73.941993","18","45","646","3211708","3076960056","Georgetown-Marine Park-Bergen Beach-Mill Basin","POINT (-73.941993 40.617543)"
"Congregation Ahavas Yisroel","147-02 73rd Avenue","Kew Gardens","NY","11367","2008-05-05T00:00:00.000","2021-7042","2021-10-01T00:00:00.000","2022-10-31T00:00:00.000","Active","Renew","4","40.725358","-73.818411","8","24","77907","4144466","4066820001","Kew Gardens Hills","POINT (-73.818411 40.725358)"
"Congregation Ahavath Chesed","309 West 89th St.","New York","NY","10024","2016-03-09T00:00:00.000","2021-6973","2021-08-26T00:00:00.000","2022-08-31T00:00:00.000","Active","Renew","1","40.791016","-73.976905","7","6","175","1034044","1012500086","Upper West Side","POINT (-73.976905 40.791016)"
"Congregation And Yeshiva Heichal Moshe","303 West 91st Street","New York","NY","10024","2013-05-03T00:00:00.000","2021-6968","2021-08-26T00:00:00.000","2022-08-31T00:00:00.000","Active","Renew","1","40.792185","-73.975785","7","6","179","1034100","1012510053","Upper West Side","POINT (-73.975785 40.792185)"
"Congregation Anshei Breslov","204 Lee Avenue","Brooklyn","NY","11206","2008-05-05T00:00:00.000","2022-7477","2022-06-27T00:00:00.000","2023-06-30T00:00:00.000","Active","Renew","3","40.701723","-73.955488","1","33","531","3061122","3022310038","Bedford","POINT (-73.955488 40.701723)"
"Congregation Bais Medrash Avreichim","1114 Avenue O","Brooklyn","NY","11230","2008-05-05T00:00:00.000","2022-7415","2022-05-16T00:00:00.000","2023-05-31T00:00:00.000","Active","Renew","3","40.612569","-73.962607","14","48","542","3000000","3067580006","Midwood","POINT (-73.962607 40.612569)"
"Congregation Baith Israel Anshei Emes","236 Kane St.","Brooklyn","NY","11231","2021-07-29T00:00:00.000","2021-6962","2021-08-03T00:00:00.000","2022-08-31T00:00:00.000","Active","New","3","40.685617","-73.994934","6","39","67","3336006","3003260028","Carroll Gardens-Columbia Street-Red Hook","POINT (-73.994934 40.685617)"
"Congregation Beth El Of Flatbush","2181 East 3rd Street","Brooklyn","NY","11223","2013-06-28T00:00:00.000","2022-7232","2022-01-24T00:00:00.000","2023-01-31T00:00:00.000","Active","Renew","3","40.596764","-73.968557","15","47","396","3192914","3071300171","Homecrest","POINT (-73.968557 40.596764)"
"Congregation Beth Israel-West Side Jewish Center","347 West 34th Street","New York","NY","10001","2010-07-27T00:00:00.000","2021-7010","2021-09-14T00:00:00.000","2022-09-30T00:00:00.000","Active","Renew","1","40.75277","-73.994817","4","3","111","1013557","1007580014","Hudson Yards-Chelsea-Flatiron-Union Square","POINT (-73.994817 40.75277)"
"Congregation Beth Jacob Ohev Sholom","284 Rodney Street","Brooklyn","NY","11211","2013-07-08T00:00:00.000","2022-7283","2022-03-01T00:00:00.000","2023-02-28T00:00:00.000","Active","Renew","3","40.707625","-73.956963","1","33","529","3059755","3021520002","Williamsburg","POINT (-73.956963 40.707625)"
"Congregation Bet Shmuel","1914 East 8th Street","Brooklyn","NY","11223","2014-10-21T00:00:00.000","2022-7313","2022-03-07T00:00:00.000","2023-03-31T00:00:00.000","Active","Renew","3","40.60215","-73.963808","15","47","416","3190519","3070890014","Homecrest","POINT (-73.963808 40.60215)"
"Congregation Bnai Avraham","117 Remsen Street","Brooklyn","NY","11201","2008-05-05T00:00:00.000","2022-7454","2022-06-01T00:00:00.000","2023-05-31T00:00:00.000","Active","Renew","3","40.693878","-73.993707","2","33","502","3002073","3002490012","Brooklyn Heights-Cobble Hill","POINT (-73.993707 40.693878)"
"Congregation Bnai Jeshurun","257 West 88th Street","New York","NY","10024","2013-06-17T00:00:00.000","2022-7447","2022-05-31T00:00:00.000","2023-06-30T00:00:00.000","Active","Renew","1","40.789945","-73.976302","7","6","175","1033290","1012360005","Upper West Side","POINT (-73.976302 40.789945)"
"Congregation Bnai Yosef","1616 Ocean Parkway","Brooklyn","NY","11223","2017-06-05T00:00:00.000","2022-7428","2022-05-24T00:00:00.000","2023-06-30T00:00:00.000","Active","Renew","3","40.609151","-73.967647","15","44","422","3176091","3066370012","Homecrest","POINT (-73.967647 40.609151)"
"Congregation Bnei Shlomo","1610 52nd Street","Brooklyn","NY","11204","2016-05-22T00:00:00.000","2022-7427","2022-05-24T00:00:00.000","2023-06-30T00:00:00.000","Active","Renew","3","40.629021","-73.986721","12","44","472","3256723","3054727501","Borough Park","POINT (-73.986721 40.629021)"
"Congregation Edmond J Safra","11 East 63rd Street","New York","NY","10065","2008-05-05T00:00:00.000","2021-7117","2021-11-22T00:00:00.000","2022-08-31T00:00:00.000","Active","Replace","1","40.76646","-73.97043","8","4","122","1078325","1013780010","Upper East Side-Carnegie Hill","POINT (-73.97043 40.76646)"
"Congregation Erste Lutowiska Machzik Hadas","262 Delancey Street","New York","NY","10002","2017-10-26T00:00:00.000","2022-7386","2022-04-25T00:00:00.000","2022-12-31T00:00:00.000","Active","Renew","1","40.716288","-73.981065","3","2","2201","1004069","1003330010","Lower East Side","POINT (-73.981065 40.716288)"
"Congregation Givath Shoul","5102 11th Ave","Brooklyn","NY","11219","2020-01-14T00:00:00.000","2022-7275","2022-02-18T00:00:00.000","2023-02-28T00:00:00.000","Active","Renew","3","40.63648","-73.997791","12","44","220","3138281","3056530041","Borough Park","POINT (-73.997791 40.63648)"
"Congregation Gvul Yaabetz","1580 Coney Island Avenue","Brooklyn","NY","11230","2008-05-05T00:00:00.000","2022-7244","2022-02-03T00:00:00.000","2023-02-28T00:00:00.000","Active","Renew","3","40.619009","-73.964091","12","44","454","3171998","3065460021","Ocean Parkway South","POINT (-73.964091 40.619009)"
"Congregation Kehilath Jeshurum","117 East 85th Street","New York","NY","10028","2008-05-05T00:00:00.000","2022-7391","2022-05-03T00:00:00.000","2023-05-31T00:00:00.000","Active","Renew","1","40.779183","-73.956935","8","4","14801","1047929","1015140013","Upper East Side-Carnegie Hill","POINT (-73.956935 40.779183)"
"Congregation K'Hall Machzeka Hadass","1636 49th Street","Brooklyn","NY","11204","2008-05-05T00:00:00.000","2022-7190","2022-01-06T00:00:00.000","2023-01-31T00:00:00.000","Active","Renew","3","40.630429","-73.984516","12","44","474","3129176","3054540024","Borough Park","POINT (-73.984516 40.630429)"
"Congregation Kollel Bnei Yeshivas","2402 Ave P","Brooklyn","NY","11229","2011-12-22T00:00:00.000","2021-7168","2021-12-07T00:00:00.000","2022-12-31T00:00:00.000","Active","Renew","3","40.611381","-73.949627","15","48","548","3182688","3067870001","Madison","POINT (-73.949627 40.611381)"
"Congregation Lev Bais Yaakov","3574 Nostrand Avenue","Brooklyn","NY","11229","2014-02-28T00:00:00.000","2022-7371","2022-04-11T00:00:00.000","2023-04-30T00:00:00.000","Active","Renew","3","40.59691","-73.941219","15","48","59402","3201581","3073860131","Sheepshead Bay-Gerritsen Beach-Manhattan Beach","POINT (-73.941219 40.59691)"
"Congregation Machane Chodosh","67 - 29 108th St.","Forest Hills","NY","11375","2011-06-28T00:00:00.000","2021-6901","2021-07-02T00:00:00.000","2022-07-31T00:00:00.000","Active","Renew","4","40.72815","-73.84713","6","29","741","4051884","4021770006","Forest Hills","POINT (-73.84713 40.72815)"
"Congregation Nachlas Yisroel","1530 51st St","Brooklyn","NY","11219","2015-11-05T00:00:00.000","2021-7164","2021-12-03T00:00:00.000","2022-12-31T00:00:00.000","Active","Renew","3","40.630756","-73.988082","12","44","236","3129602","3054650020","Borough Park","POINT (-73.988082 40.630756)"
"Congregation Ohr Moshe","170-16 73rd Avenue","Fresh Meadows","NY","11366","2008-05-05T00:00:00.000","2021-7097","2021-11-03T00:00:00.000","2022-11-30T00:00:00.000","Active","Renew","4","40.728634","-73.799312","8","24","1241","4151025","4069780024","Pomonok-Flushing Heights-Hillcrest","POINT (-73.799312 40.728634)"
"Congregation Ohr Shraga D'veretzky","1102 Avenue L","Brooklyn","NY","11230","2016-06-08T00:00:00.000","2022-7423","2022-05-23T00:00:00.000","2022-08-31T00:00:00.000","Active","Renew","3","40.619994","-73.964101","14","44","768","3329237","3067310001","Midwood","POINT (-73.964101 40.619994)"
"Congregation Shaare Zion","2030 Ocean Parkway","Brooklyn","NY","11223","2008-05-06T00:00:00.000","2022-7464","2022-06-08T00:00:00.000","2023-05-31T00:00:00.000","Active","Renew","3","40.599264","-73.965762","15","47","394","3191944","3071080018","Homecrest","POINT (-73.965762 40.599264)"
"Congregation Shaari Tefilah of Kings Highway","1679 West 1 Street","Brooklyn","NY","11223","2014-09-18T00:00:00.000","2022-7375","2022-04-14T00:00:00.000","2022-11-30T00:00:00.000","Active","Renew","3","40.60708","-73.974693","11","44","424","3175854","3066310043","Bensonhurst East","POINT (-73.974693 40.60708)"
"Congregation Shomrei Emunah","5202 14th Avenue","Brooklyn","NY","11219","2010-01-22T00:00:00.000","2021-6899","2021-07-02T00:00:00.000","2022-07-31T00:00:00.000","Active","Renew","3","40.631929","-73.991768","12","44","238","3138738","3056630035","Borough Park","POINT (-73.991768 40.631929)"
"Congregation Sons Of Israel Of The Bronx","2521 Croger Ave.","Bronx","NY","10467","2011-10-26T00:00:00.000","2021-7080","2021-10-21T00:00:00.000","2022-10-31T00:00:00.000","Active","Renew",,,,,,,,,,
"Congregation Yeshuos Chaim","1167 East 13th Street","Brooklyn","NY","11230","2008-05-06T00:00:00.000","2022-7389","2022-05-03T00:00:00.000","2023-05-31T00:00:00.000","Active","Renew","3","40.6211","-73.962501","14","44","534","3180329","3067240060","Midwood","POINT (-73.962501 40.6211)"
"Congregation Yetev Lev D'Satmar","152-158 Rodney Street","Brooklyn","NY","11211","2008-05-06T00:00:00.000","2022-7188","2022-01-05T00:00:00.000","2022-12-31T00:00:00.000","Active","Renew","3","40.704722","-73.960431","1","33","535","3060123","3021930018","Williamsburg","POINT (-73.960431 40.704722)"
"Congregation Zemoch Zedek","241 East Broadway","New York","NY","10002","2014-10-28T00:00:00.000","2022-7213","2022-01-07T00:00:00.000","2022-12-31T00:00:00.000","Active","Renew","1","40.714362","-73.986458","3","1","201","1003729","1002860030","Lower East Side","POINT (-73.986458 40.714362)"
"Congregation Zichron Reb Shloma Fried","1915 Avenue Z","Brooklyn","NY","11235","2010-01-22T00:00:00.000","2022-7390","2022-05-03T00:00:00.000","2023-04-30T00:00:00.000","Active","Renew","3","40.588454","-73.949979","15","48","592","3204133","3074400049","Sheepshead Bay-Gerritsen Beach-Manhattan Beach","POINT (-73.949979 40.588454)"
"Coptic Orthodox Church Of Archangel Michael & Sain","4095 Amboy Road","Staten Island","NY","10308","2012-08-07T00:00:00.000","2021-7078","2021-10-20T00:00:00.000","2022-10-31T00:00:00.000","Active","Renew","5","40.549354","-74.152882","3","51","14604","5070222","5054320001","Great Kills","POINT (-74.152882 40.549354)"
"Coptic Orthodox Patriarchate - Diocese of NY & NE","237-241 E. 62nd St.","New York","NY","10065","2020-09-30T00:00:00.000","2021-7177","2021-12-13T00:00:00.000","2022-12-31T00:00:00.000","Active","Renew","1","40.763055","-73.964295","8","4","110","1043837","1014170016","Lenox Hill-Roosevelt Island","POINT (-73.964295 40.763055)"
"Corona- Queens Seventh -day Adventist Church","40- 34 102 Street","Corona","NY","11368","2018-11-16T00:00:00.000","2021-7128","2021-11-23T00:00:00.000","2022-11-30T00:00:00.000","Active","Renew","4","40.748883","-73.863756","4","21","407","4040329","4016100055","North Corona","POINT (-73.863756 40.748883)"
"Corona Seventh Day Adventist Church","35-30 103rd Street","Corona","NY","11368","2015-11-20T00:00:00.000","2022-7334","2022-03-21T00:00:00.000","2022-12-31T00:00:00.000","Active","Renew","4","40.754481","-73.86503","3","21","379","4043320","4017430020","North Corona","POINT (-73.86503 40.754481)"
"Corpus Christi Church","529 West 121st Street","New York","NY","10027","2008-05-06T00:00:00.000","2021-7154","2021-12-03T00:00:00.000","2022-12-31T00:00:00.000","Active","Renew","1","40.810419","-73.959678","9","7","203","1059650","1019760009","Morningside Heights","POINT (-73.959678 40.810419)"
"Cypress Hills Assembly of God","197-199 Highland Place","Brooklyn","NY","11208","2012-06-20T00:00:00.000","2021-6903","2021-07-02T00:00:00.000","2022-07-31T00:00:00.000","Active","Renew","3","40.680326","-73.880907","5","37","1174","3088177","3039590012","Cypress Hills-City Line","POINT (-73.880907 40.680326)"
"Danish Seamen's Church","102 Willow St","Brooklyn","NY","11201","2018-10-22T00:00:00.000","2021-7033","2021-09-24T00:00:00.000","2022-09-30T00:00:00.000","Active","New","3","40.697738","-73.995654","2","33","301","3001755","3002340045","Brooklyn Heights-Cobble Hill","POINT (-73.995654 40.697738)"
"Day Spring Baptist Church","1788 Amsterdam Avenue","New York","NY","10031","2017-05-02T00:00:00.000","2022-7429","2022-05-24T00:00:00.000","2023-06-30T00:00:00.000","Active","Renew","1","40.827469","-73.945984","9","7","233","1062035","1020800032","Hamilton Heights","POINT (-73.945984 40.827469)"
"Dewitt Reformed Church","280 Rivington Street","New York","NY","10002","2010-04-26T00:00:00.000","2021-6931","2021-07-30T00:00:00.000","2022-07-31T00:00:00.000","Active","Renew","1","40.717468","-73.979726","3","2","1002","1004060","1003230073","Lower East Side","POINT (-73.979726 40.717468)"
"Diocese of the Armenian Church","630 Second Avenue","New York","NY","10016","2018-10-29T00:00:00.000","2022-7281","2022-03-01T00:00:00.000","2023-02-28T00:00:00.000","Active","Renew","1","40.745082","-73.975647","6","2","78","1081682","1009400001","Murray Hill-Kips Bay","POINT (-73.975647 40.745082)"
"Door of Faith Church and Bible School","136-27 35th Avenue","Flushing","NY","11354","2021-09-09T00:00:00.000","2021-7090","2021-10-28T00:00:00.000","2022-10-31T00:00:00.000","Active","New","4","40.764783","-73.830418","7","20","88901","4112031","4049510077","Flushing","POINT (-73.830418 40.764783)"
"Durga Shiva Mandir Inc","1120 Beach Ave","Bronx","NY","10472","2014-06-17T00:00:00.000","2021-7110","2021-11-10T00:00:00.000","2022-10-31T00:00:00.000","Active","Replace","2","40.828427","-73.865552","9","18","70","2092826","2037540016","Soundview-Bruckner","POINT (-73.865552 40.828427)"
"East 55th Street Conservative Synagogue","308 East 55th Street","New York","NY","10022","2008-05-27T00:00:00.000","2021-7044","2021-10-01T00:00:00.000","2022-10-31T00:00:00.000","Active","Renew","1","40.757793","-73.965756","6","5","108","1071988","1013470047","Turtle Bay-East Midtown","POINT (-73.965756 40.757793)"
"East 7th Baptist Ministry- Graffiti Inc","205 East 7th Street","New York","NY","10009","2010-02-11T00:00:00.000","2022-7453","2022-06-01T00:00:00.000","2023-02-28T00:00:00.000","Active","Replace","1","40.724547","-73.979937","3","2","2602","1087567","1003900052","Lower East Side","POINT (-73.979937 40.724547)"
"East Midwood Jewish Center","1625 Ocean Avenue","Brooklyn","NY","11230","2008-05-06T00:00:00.000","2022-7481","2022-06-28T00:00:00.000","2023-05-31T00:00:00.000","Active","Renew","3","40.622341","-73.955743","14","45","760","3208316","3076200025","Midwood","POINT (-73.955743 40.622341)"
"East New York SDA Church","511 Elton Street","Brooklyn","NY","11208","2018-11-07T00:00:00.000","2021-7178","2021-12-13T00:00:00.000","2022-11-30T00:00:00.000","Active","Renew","3","40.670436","-73.882543","5","42","1164","3089787","3040500005","East New York","POINT (-73.882543 40.670436)"
"Ebenezer Gospel Tabernacle Christian Mission USA","223-25 Lenox Avenue","New York","NY","10027","2015-01-26T00:00:00.000","2021-6988","2021-09-01T00:00:00.000","2022-09-30T00:00:00.000","Active","Renew","1","40.805358","-73.947259","10","9","220","1057685","1019060029","Central Harlem South","POINT (-73.947259 40.805358)"
"Eben-Ezer Haitian Baptist Church","1058-60 President Street","Brooklyn","NY","11225","2016-11-18T00:00:00.000","2021-7182","2021-12-14T00:00:00.000","2022-12-31T00:00:00.000","Active","Renew","3","40.66847","-73.956505","9","35","325","3033459","3012800036","Crown Heights South","POINT (-73.956505 40.66847)"
"Eglise Baptiste De La Communion Fraternelle Inc.","2549 Church Avenue","Brooklyn","NY","11226","2008-05-06T00:00:00.000","2021-7031","2021-09-23T00:00:00.000","2022-09-30T00:00:00.000","Active","Renew","3","40.650647","-73.953313","17","40","822","3116923","3050900061","Prospect Lefferts Gardens-Wingate","POINT (-73.953313 40.650647)"
"Eglise Evangelique Du Reveil","580 Onderdonk Ave.","Ridgewood","NY","11385","2019-04-17T00:00:00.000","2022-7381","2022-04-25T00:00:00.000","2023-04-30T00:00:00.000","Active","Renew","4","40.705344","-73.909532","5","34","547","4082114","4034380029","Ridgewood","POINT (-73.909532 40.705344)"
"Eight Church Of Christ, Scientist","103 East 77TH Street","New York","NY","10021","2010-09-07T00:00:00.000","2021-7013","2021-09-14T00:00:00.000","2022-09-30T00:00:00.000","Active","Renew","1","40.774164","-73.961072","8","4","140","1043185","1014120005","Upper East Side-Carnegie Hill","POINT (-73.961072 40.774164)"
"Elmhurst Christian Gospel Church","90-41 Corona Avenue","Elmhurst","NY","11373","2008-04-29T00:00:00.000","2022-7392","2022-05-03T00:00:00.000","2023-05-31T00:00:00.000","Active","Renew","4","40.742109","-73.874189","4","25","471","4039583","4015860037","Elmhurst","POINT (-73.874189 40.742109)"
"Emmanuel Temple","51-53 Rogers Avenue","Brooklyn","NY","11216","2008-05-07T00:00:00.000","2021-7045","2021-10-01T00:00:00.000","2022-10-31T00:00:00.000","Active","Renew","3","40.675871","-73.952711","8","36","315","3030639","3012190002","Crown Heights North","POINT (-73.952711 40.675871)"
"Emmaus Bible Chapel Inc.","1250 East Gun Hill Road","Bronx","NY","10469","2011-08-16T00:00:00.000","2021-7027","2021-09-23T00:00:00.000","2022-09-30T00:00:00.000","Active","Renew","2","40.872343","-73.850657","11","12","348","2056810","2046190017","Allerton-Pelham Gardens","POINT (-73.850657 40.872343)"
"Eternal Love Baptist Church","54-07 99th Street","Corona","NY","11368","2011-03-23T00:00:00.000","2022-7258","2022-02-04T00:00:00.000","2023-01-31T00:00:00.000","Active","Renew","4","40.739448","-73.860618","4","21","44301","4047218","4019090032","Corona","POINT (-73.860618 40.739448)"
"Evangelical Church Mission And Seminary Internatio","41-42 College Point Boulevard, Unit 2B","Flushing","NY","11354","2019-09-19T00:00:00.000","2021-7152","2021-12-03T00:00:00.000","2022-12-31T00:00:00.000","Active","Renew","4","40.755301","-73.833334","7","20","849","4607290","4050637501","Flushing","POINT (-73.833334 40.755301)"
"Evangelical Church of God in New York Inc.","806 Jennings Street","Bronx","NY","10459","2011-04-18T00:00:00.000","2022-7299","2022-03-03T00:00:00.000","2023-02-28T00:00:00.000","Active","Renew","2","40.832076","-73.895512","3","16","153","2010430","2029720032","Crotona Park East","POINT (-73.895512 40.832076)"
"Evangelical Lutheran Church in America","1205 WoodyCrest Avenue","Bronx","NY","10452","2010-01-22T00:00:00.000","2021-6926","2021-07-30T00:00:00.000","2022-08-31T00:00:00.000","Active","Renew","2","40.837258","-73.924448","4","16","199","2003293","2025150049","Highbridge","POINT (-73.924448 40.837258)"
"Evangelical Lutheran Church Of Our Saviour","90-04 175th Street","Jamaica","NY","11432","2008-05-08T00:00:00.000","2022-7191","2022-01-06T00:00:00.000","2023-01-31T00:00:00.000","Active","Renew","4","40.709765","-73.786654","12","27","462","4209889","4098100001","Jamaica","POINT (-73.786654 40.709765)"
"Evangelical Lutheran Emmaus Congregation","60-10 67th Avenue","Ridgewood","NY","11385","2008-05-08T00:00:00.000","2022-7245","2022-02-03T00:00:00.000","2023-02-28T00:00:00.000","Active","Renew","4","40.704773","-73.899982","5","30","585","4549124","4035120008","Ridgewood","POINT (-73.899982 40.704773)"
"Evangel Temple Inc.","227-10 Merrick Blvd.","Laurelton","NY","11413","2016-06-06T00:00:00.000","2021-6944","2021-07-30T00:00:00.000","2022-08-31T00:00:00.000","Active","Renew","4","40.67692","-73.742887","13","31","632","4281526","4131080027","Laurelton","POINT (-73.742887 40.67692)"
"Faith Assembly","120-13 101st Avenue","Richmond Hill","NY","11419","2008-05-07T00:00:00.000","2022-7210","2022-01-06T00:00:00.000","2023-01-31T00:00:00.000","Active","Renew","4","40.690325","-73.824719","9","28","154","4199736","4094600028","Richmond Hill","POINT (-73.824719 40.690325)"
"Faith Assembly of God","2170 Bedford Avenue","Brooklyn","NY","11226","2008-05-07T00:00:00.000","2021-7026","2021-09-23T00:00:00.000","2022-09-30T00:00:00.000","Active","Renew","3","40.651107","-73.955893","14","40","79602","3116869","3050890041","Prospect Lefferts Gardens-Wingate","POINT (-73.955893 40.651107)"
"Faith Bible Inc","99-14 43rd Ave.","Corona","NY","11368","2008-05-07T00:00:00.000","2022-7302","2022-03-03T00:00:00.000","2023-03-31T00:00:00.000","Active","Renew","4","40.7466","-73.864707","4","21","409","4314511","4016280031","North Corona","POINT (-73.864707 40.7466)"
"Faith Life Ministries","285 Buffalo Avenue","Brooklyn","NY","11213","2008-05-07T00:00:00.000","2022-7284","2022-03-01T00:00:00.000","2022-08-31T00:00:00.000","Active","Renew","3","40.669157","-73.925511","8","41","359","3037415","3013930007","Crown Heights North","POINT (-73.925511 40.669157)"
"Faith Pentecostal Tabernacle Mission","94 Lexington Ave","Brooklyn","NY","11238","2012-06-18T00:00:00.000","2021-7127","2021-11-23T00:00:00.000","2022-11-30T00:00:00.000","Active","Renew","3","40.686833","-73.958202","3","35","229","3056420","3019700023","Clinton Hill","POINT (-73.958202 40.686833)"
"Father's Heart Church","543-545 East 11th Street","New York","NY","10009","2008-07-24T00:00:00.000","2021-6929","2021-07-30T00:00:00.000","2022-07-31T00:00:00.000","Active","Renew","1","40.728014","-73.980741","3","2","34","1005186","1004050041","East Village","POINT (-73.980741 40.728014)"
"Fellowship Baptist Church","1011 Faile Street","Bronx","NY","10459","2017-10-26T00:00:00.000","2022-7255","2022-02-03T00:00:00.000","2022-12-31T00:00:00.000","Active","Renew","2","40.823688","-73.889539","2","17","119","2006135","2027490056","Hunts Point","POINT (-73.889539 40.823688)"
"Fellowship Missionary Baptist Church","509 Van Siclen Ave.","Brooklyn","NY","11207","2011-10-28T00:00:00.000","2021-7129","2021-11-23T00:00:00.000","2022-11-30T00:00:00.000","Active","Renew","3","40.667354","-73.88894","5","42","1160","3090004","3040580041","East New York","POINT (-73.88894 40.667354)"
"Fellowship Moravian Church","1950 Bedford Avenue","Brooklyn","NY","11225","2019-04-22T00:00:00.000","2022-7407","2022-05-04T00:00:00.000","2023-05-31T00:00:00.000","Active","Renew","3","40.65734","-73.956559","9","40","79601","3115676","3050450051","Prospect Lefferts Gardens-Wingate","POINT (-73.956559 40.65734)"
"Fenimore Street United Methodist Church","276 Fenimore Street","Brooklyn","NY","11225","2011-10-25T00:00:00.000","2022-7431","2022-05-24T00:00:00.000","2023-06-30T00:00:00.000","Active","Renew","3","40.658475","-73.953808","9","40","802","3115569","3050430048","Prospect Lefferts Gardens-Wingate","POINT (-73.953808 40.658475)"
"First Baptist Church Of Crown Heights Inc.","450 Eastern Parkway","Brooklyn","NY","11225","2011-06-29T00:00:00.000","2021-6891","2021-07-01T00:00:00.000","2022-07-31T00:00:00.000","Active","Renew","3","40.670028","-73.953728","9","35","323","3032891","3012670027","Crown Heights South","POINT (-73.953728 40.670028)"
"First Baptist Church of Flushing","142-10 Sanford Avenue","Flushing","NY","11355","2008-05-07T00:00:00.000","2022-7297","2022-03-03T00:00:00.000","2023-03-31T00:00:00.000","Active","Renew","4","40.757761","-73.824737","7","20","857","4438161","4051810017","Flushing","POINT (-73.824737 40.757761)"
"First Central Baptist Church","117 Wright Street","Staten Island","NY","10304","2008-05-07T00:00:00.000","2022-7393","2022-05-03T00:00:00.000","2023-05-31T00:00:00.000","Active","Renew","5","40.62799","-74.079862","1","49","21","5013690","5005210079","Stapleton-Rosebank","POINT (-74.079862 40.62799)"
"First Church of Christ Holiness","1935 Madison Ave.","New york","NY","10035","2012-04-03T00:00:00.000","2021-7079","2021-10-20T00:00:00.000","2022-08-31T00:00:00.000","Active","Renew","1","40.805256","-73.941006","11","9","198","1054007","1017490022","East Harlem North","POINT (-73.941006 40.805256)"
"First Church of God","1425 Beach Channel Dr.","Far Rockaway","NY","11691","2022-03-22T00:00:00.000","2022-7387","2022-04-29T00:00:00.000","2023-04-30T00:00:00.000","Active","New","4","40.608769","-73.753951","14","31","103201","4299421","4156510054","Far Rockaway-Bayswater","POINT (-73.753951 40.608769)"
"First Church of Religious Science of NY","204 West 84th Street","New York","NY","10024","2021-07-06T00:00:00.000","2021-7074","2021-10-18T00:00:00.000","2022-10-31T00:00:00.000","Active","New","1","40.786506","-73.976322","7","6","171","1032787","1012310038","Upper West Side","POINT (-73.976322 40.786506)"
"First Church of the Nazarene","108-01 95th Avenue","Richmond Hill","NY","11419","2008-05-08T00:00:00.000","2022-7394","2022-05-03T00:00:00.000","2023-05-31T00:00:00.000","Active","Renew","4","40.690148","-73.836796","9","28","118","4197302","4093920024","Richmond Hill","POINT (-73.836796 40.690148)"
"First Jerusalem Baptist Church","1098 Fulton Street","Brooklyn","NY","11238","2008-05-08T00:00:00.000","2022-7192","2022-01-06T00:00:00.000","2023-01-31T00:00:00.000","Active","Renew","3","40.681368","-73.956832","3","36","227","3057710","3020160027","Clinton Hill","POINT (-73.956832 40.681368)"
"First Moravian Church","154 Lexington Avenue.","New York","NY","10016","2011-08-12T00:00:00.000","2021-6946","2021-07-30T00:00:00.000","2022-08-31T00:00:00.000","Active","Renew","1","40.743695","-73.981707","5","2","72","1018279","1008850071","Murray Hill-Kips Bay","POINT (-73.981707 40.743695)"
"First United Methodist Church of Corona","42-15 104th St.","Corona","NY","11368","2017-07-13T00:00:00.000","2021-7046","2021-10-01T00:00:00.000","2022-10-31T00:00:00.000","Active","Renew","4","40.748193","-73.860824","4","21","403","4437337","4019860078","North Corona","POINT (-73.860824 40.748193)"
"Forest Hills Jewish Center","106-06 Queens Boulevard","Forest Hills","NY","11375","2008-05-08T00:00:00.000","2022-7363","2022-04-06T00:00:00.000","2023-04-30T00:00:00.000","Active","Renew","4","40.72212","-73.847335","6","29","711","4077479","4032370040","Forest Hills","POINT (-73.847335 40.72212)"
"Fort George Presbyterian Church","1525 St Nicholas Avenue","New York","NY","10033","2008-05-08T00:00:00.000","2022-7395","2022-05-03T00:00:00.000","2023-05-31T00:00:00.000","Active","Renew","1","40.85263","-73.931324","12","10","271","1063981","1021660082","Washington Heights North","POINT (-73.931324 40.85263)"
"Fountain Spring Baptist Church","2011 Grand Concourse","Bronx","NY","10453","2010-05-14T00:00:00.000","2021-7011","2021-09-14T00:00:00.000","2022-09-30T00:00:00.000","Active","Renew","2","40.851442","-73.904414","5","14","23501","2007697","2028080094","Mount Hope","POINT (-73.904414 40.851442)"
"Franklin Avenue Baptist Church Inc","1281 Franklin Avenue","Bronx","NY","10456","2014-10-06T00:00:00.000","2021-7047","2021-10-01T00:00:00.000","2022-10-31T00:00:00.000","Active","Renew","2","40.831409","-73.902249","3","16","149","2004254","2026120043","Morrisania-Melrose","POINT (-73.902249 40.831409)"
"Freewill Church Of God In Christ","862 Jefferson Avenue","Brooklyn","NY","11221","2013-04-30T00:00:00.000","2022-7409","2022-05-05T00:00:00.000","2023-05-31T00:00:00.000","Active","Renew","3","40.686409","-73.922773","3","41","375","3039845","3014870011","Stuyvesant Heights","POINT (-73.922773 40.686409)"
"Full Gospel Assembly","836 Franklin Avenue","Brooklyn","NY","11225","2008-05-08T00:00:00.000","2021-7174","2021-12-13T00:00:00.000","2022-11-30T00:00:00.000","Active","Renew","3","40.669382","-73.958448","9","35","213","3029692","3011870053","Crown Heights South","POINT (-73.958448 40.669382)"
"Full Gospel NY Church","130-30 31st Ave","Flushing","NY","11354","2021-01-20T00:00:00.000","2022-7246","2022-02-03T00:00:00.000","2023-02-28T00:00:00.000","Active","Renew","4","40.769258","-73.839306","7","19","907","4100745","4043600001","College Point","POINT (-73.839306 40.769258)"
"Full Gospel Tabernacle Of Faith Church Inc.","1212 East New York Avenue","Brooklyn","NY","11212","2015-09-16T00:00:00.000","2022-7452","2022-06-01T00:00:00.000","2022-10-31T00:00:00.000","Active","Renew","3","40.667256","-73.922373","16","41","900","3080807","3035090034","Brownsville","POINT (-73.922373 40.667256)"
"Garden Of Prayer International Inc.","3911 Fort Hamilton Parkway","Brooklyn","NY","11218","2013-07-15T00:00:00.000","2021-6952","2021-07-30T00:00:00.000","2022-07-31T00:00:00.000","Active","Renew","3","40.643053","-73.990649","12","39","224","3135280","3055850006","Borough Park","POINT (-73.990649 40.643053)"
"German Evangelical Lutheran Church of St Paul's in","315 W 22nd Street","New York","NY","10011","2010-01-22T00:00:00.000","2021-7145","2021-11-26T00:00:00.000","2022-07-31T00:00:00.000","Active","Renew","1","40.744937","-73.999675","4","3","93","1013360","1007460028","Hudson Yards-Chelsea-Flatiron-Union Square","POINT (-73.999675 40.744937)"
"Gethsemane Baptist Church","771 Fairmount Place","Bronx","NY","10460","2019-10-16T00:00:00.000","2021-7140","2021-11-23T00:00:00.000","2022-11-30T00:00:00.000","Active","Renew","2","40.842956","-73.889532","6","17","36502","2115661","2029550001","East Tremont","POINT (-73.889532 40.842956)"
"Gethsemane Garden Baptist Church","223 E. 7th Street","New York","NY","10009","2019-03-12T00:00:00.000","2022-7448","2022-05-31T00:00:00.000","2023-05-31T00:00:00.000","Active","Renew","1","40.724316","-73.979389","3","2","2602","1088352","1003907502","Lower East Side","POINT (-73.979389 40.724316)"
"Gita Temple Ashram","34-63 56th Street","Woodside","NY","11377","2018-06-13T00:00:00.000","2022-7473","2022-06-13T00:00:00.000","2023-06-30T00:00:00.000","Active","Renew","4","40.752232","-73.905386","2","26","257","4027288","4011950007","Woodside","POINT (-73.905386 40.752232)"
"Gita Temple Ashram Inc.","92-09 Corona Ave","Elmhurst","NY","11373","2012-06-29T00:00:00.000","2022-7432","2022-05-24T00:00:00.000","2023-06-30T00:00:00.000","Active","Renew","4","40.742453","-73.872174","4","25","463","4039968","4016000099","Elmhurst","POINT (-73.872174 40.742453)"
"Glendale United Christian Church","71-24 72th Street","Glendale","NY","11375","2020-11-23T00:00:00.000","2021-6997","2021-09-09T00:00:00.000","2022-09-30T00:00:00.000","Active","Renew","4","40.704391","-73.879183","5","30","623","4089841","4036880020","Glendale","POINT (-73.879183 40.704391)"
"Glory Of Christ Church","2137 Ellis Avenue","Bronx","NY","10462","2008-05-09T00:00:00.000","2022-7204","2022-01-06T00:00:00.000","2023-01-31T00:00:00.000","Active","Renew","2","40.832411","-73.853023","9","18","92","2026584","2038130066","Westchester-Unionport","POINT (-73.853023 40.832411)"
"God's Battalion Of Prayer Church","661 Linden Boulevard","Brooklyn","NY","11203","2008-05-09T00:00:00.000","2021-6984","2021-08-30T00:00:00.000","2022-07-31T00:00:00.000","Active","Renew","3","40.653599","-73.93403","17","41","870","3108481","3048670025","East Flatbush-Farragut","POINT (-73.93403 40.653599)"
"Good Shepherd Roman Catholic Church","1950 Batchelder Street","Brooklyn","NY","11229","2010-04-26T00:00:00.000","2022-7336","2022-03-21T00:00:00.000","2023-03-31T00:00:00.000","Active","Renew","3","40.604174","-73.9397","15","46","566","3345246","3073110015","Madison","POINT (-73.9397 40.604174)"
"Gospel Temple Church","1556 Minford Place","Bronx","NY","10460","2014-03-09T00:00:00.000","2022-7247","2022-02-03T00:00:00.000","2023-02-28T00:00:00.000","Active","Renew","2","40.835523","-73.889953","3","17","155","2124436","2029770142","Crotona Park East","POINT (-73.889953 40.835523)"
"Grace Chinese Alliance Church Of C& M A","5623 7th Avenue","Brooklyn","NY","11220","2014-07-11T00:00:00.000","2021-7003","2021-09-09T00:00:00.000","2022-08-31T00:00:00.000","Active","Renew","3","40.638909","-74.009577","7","38","104","3015501","3008420001","Sunset Park East","POINT (-74.009577 40.638909)"
"Grace Church of God","35 Blake Avenue","Brooklyn","NY","11212","2009-04-14T00:00:00.000","2021-7070","2021-10-06T00:00:00.000","2022-10-31T00:00:00.000","Active","Renew","3","40.664108","-73.919983","16","41","900","3081206","3035330010","Brownsville","POINT (-73.919983 40.664108)"
"Grace Presbyterian Church","201-03 29th Avenue","Bayside","NY","11360","2010-10-02T00:00:00.000","2021-7048","2021-10-01T00:00:00.000","2022-10-31T00:00:00.000","Active","Renew","4","40.771321","-73.788962","11","19","1085","4443990","4059760037","Bayside-Bayside Hills","POINT (-73.788962 40.771321)"
"Grace United Methodist Church","200-08 Murdock Avenue","St. Albans","NY","11412","2014-08-15T00:00:00.000","2021-7025","2021-09-23T00:00:00.000","2022-08-31T00:00:00.000","Active","Renew","4","40.700045","-73.754501","12","27","520","4236681","4110170001","St. Albans","POINT (-73.754501 40.700045)"
"Grace United Methodist Church","33 7th Avenue","Brooklyn","NY","11217","2008-05-13T00:00:00.000","2022-7287","2022-03-03T00:00:00.000","2023-03-31T00:00:00.000","Active","Renew","3","40.676606","-73.973992","6","39","159","3024356","3010580001","Park Slope-Gowanus","POINT (-73.973992 40.676606)"
"Graffiti Fellowship Church","1614 Neptune Ave","Brooklyn","NY","11224","2019-04-30T00:00:00.000","2021-7049","2021-10-01T00:00:00.000","2022-10-31T00:00:00.000","Active","Renew","3","40.579016","-73.984412","13","47","326","3189059","3070210007","Seagate-Coney Island","POINT (-73.984412 40.579016)"
"Grand Concourse SDA Community Center of Infulence","130 E 169th Street","Bronx","NY","10452","2021-09-15T00:00:00.000","2022-7482","2022-06-28T00:00:00.000","2022-11-30T00:00:00.000","Active","Replace","2","40.836897","-73.917203","4","16","22102","2002861","2024660026","West Concourse","POINT (-73.917203 40.836897)"
"Greater Emmanuel Baptist Church","325 East 118th Street","New York","NY","10035","2010-01-22T00:00:00.000","2022-7306","2022-03-03T00:00:00.000","2023-03-31T00:00:00.000","Active","Renew","1","40.797994","-73.936057","11","8","188","1054709","1017950012","East Harlem North","POINT (-73.936057 40.797994)"
"Greater Jerusalem Baptist Church","2377 Pitkin Ave","Brooklyn","NY","11207","2020-10-06T00:00:00.000","2021-7119","2021-11-22T00:00:00.000","2022-11-30T00:00:00.000","Active","Renew","3","40.67357","-73.884625","5","37","1150","3088896","3040000032","East New York","POINT (-73.884625 40.67357)"
"Greater Refuge Temple","2081 Adam Clayton Powell Jr. Blvd.","New York","NY","10027","2012-12-17T00:00:00.000","2022-7340","2022-03-22T00:00:00.000","2023-02-28T00:00:00.000","Active","Renew","1","40.808394","-73.948737","10","9","222","1057817","1019090001","Central Harlem South","POINT (-73.948737 40.808394)"
"Greater Zion Hill Baptist Church","2365 Frederick Douglass Blvd","New York","NY","10027","2021-08-03T00:00:00.000","2021-7112","2021-11-12T00:00:00.000","2022-11-30T00:00:00.000","Active","New","1","40.811387","-73.950296","10","9","215","1059345","1019530035","Central Harlem North-Polo Grounds","POINT (-73.950296 40.811387)"
"Greenpoint Reformed Church","138 Milton Street","Brooklyn","NY","11222","2010-01-22T00:00:00.000","2022-7358","2022-04-05T00:00:00.000","2023-02-28T00:00:00.000","Active","Replace","3","40.729382","-73.955163","1","33","565","3064901","3025660032","Greenpoint","POINT (-73.955163 40.729382)"
"Guyana Caribbean Islamic Movement","104 -14 127th Street","S. Richmond Hil","NY","11419","2015-04-20T00:00:00.000","2022-7328","2022-03-18T00:00:00.000","2023-03-31T00:00:00.000","Active","Renew",,,,,,,,,,
"Haitian Evangelical Missionary  Church","107 West 128th Street","New York","NY","10027","2012-01-30T00:00:00.000","2022-7269","2022-02-14T00:00:00.000","2023-02-28T00:00:00.000","Active","Renew","1","40.809941","-73.944651","10","9","224","1057943","1019130027","Central Harlem North-Polo Grounds","POINT (-73.944651 40.809941)"
"Harvest Christian Fellowship","336 West 37th Street","New York","NY","10018","2008-05-12T00:00:00.000","2021-6993","2021-09-01T00:00:00.000","2022-09-30T00:00:00.000","Active","Renew","1","40.754573","-73.99324","4","3","111","1013604","1007600063","Hudson Yards-Chelsea-Flatiron-Union Square","POINT (-73.99324 40.754573)"
"Harvest Fields Community Church","2626 East Tremont Avenue","Bronx","NY","10461","2010-01-22T00:00:00.000","2022-7474","2022-06-13T00:00:00.000","2023-06-30T00:00:00.000","Active","Renew","2","40.842975","-73.846291","10","13","200","2042413","2040020051","Van Nest-Morris Park-Westchester Square","POINT (-73.846291 40.842975)"
"Havurat Yisrael","106-20 70th Avenue","Forest Hills","NY","11375","2019-06-06T00:00:00.000","2022-7335","2022-03-21T00:00:00.000","2022-10-31T00:00:00.000","Active","Replace","4","40.721224","-73.846785","6","29","711","4439623","4032387503","Forest Hills","POINT (-73.846785 40.721224)"
"Hebrew Tabernacle Congregation","551 Fort Washington Ave.","Manhattan","NY","10033","2019-12-06T00:00:00.000","2021-6964","2021-08-04T00:00:00.000","2022-08-31T00:00:00.000","Active","Renew","1","40.853811","-73.937309","12","10","273","1064361","1021790229","Washington Heights North","POINT (-73.937309 40.853811)"
"Hebron Baptist Church","450 Fountain Avenue","Brooklyn","NY","11208","2008-05-12T00:00:00.000","2021-6902","2021-07-02T00:00:00.000","2022-07-31T00:00:00.000","Active","Renew","3","40.668823","-73.873426","5","42","1118","3327469","3044580030","East New York","POINT (-73.873426 40.668823)"
"Hellenic Orth Community of Corona & Vicinity Trans","38-05 98th Street","Corona","NY","11368","2019-12-26T00:00:00.000","2022-7249","2022-02-03T00:00:00.000","2023-02-28T00:00:00.000","Active","Renew","4","40.750043","-73.86789","3","21","409","4044020","4017640001","North Corona","POINT (-73.86789 40.750043)"
"Hellenic Orthodox Community of St. Barbara Greek O","27 Forsyth St.","New York","NY","10002","2020-09-29T00:00:00.000","2022-7467","2022-06-10T00:00:00.000","2023-05-31T00:00:00.000","Active","Renew","1","40.715397","-73.994391","3","1","16","1003758","1002920008","Chinatown","POINT (-73.994391 40.715397)"
"Highbridge Community Church Inc","1272 Ogden Avenue","Bronx","NY","10452","2016-07-27T00:00:00.000","2021-6974","2021-08-27T00:00:00.000","2022-08-31T00:00:00.000","Active","Renew","2","40.839419","-73.925667","4","16","211","2092387","2025180014","Highbridge","POINT (-73.925667 40.839419)"
"Highland Church","160-20 Highland Avenue","Jamaica","NY","11432","2010-07-12T00:00:00.000","2021-7016","2021-09-17T00:00:00.000","2022-08-31T00:00:00.000","Active","Renew","4","40.709347","-73.801689","8","24","44602","4209075","4097700024","Jamaica","POINT (-73.801689 40.709347)"
"Hillcrest Jewish Center","183-02 Union Turnpike","Fresh Meadows","NY","11366","2016-02-22T00:00:00.000","2022-7433","2022-05-24T00:00:00.000","2023-06-30T00:00:00.000","Active","Renew","4","40.727782","-73.7855","8","24","1277","4155927","4072480015","Jamaica Estates-Holliswood","POINT (-73.7855 40.727782)"
"Hollis Hills Bayside Jewish Center","210-10 Union Turnpike","Flushing","NY","11364","2008-05-12T00:00:00.000","2021-7104","2021-11-03T00:00:00.000","2022-11-30T00:00:00.000","Active","Renew","4","40.733374","-73.760595","11","23","129102","4164607","4077840045","Oakland Gardens","POINT (-73.760595 40.733374)"
"Holy Archangels Michael & Gab Rom Orth Church","75-27 67th Drive","Middle Village","NY","11379","2008-05-12T00:00:00.000","2021-6943","2021-07-30T00:00:00.000","2022-08-31T00:00:00.000","Active","Renew","4","40.711464","-73.877042","5","30","619","4091478","4037740048","Middle Village","POINT (-73.877042 40.711464)"
"Holy Family Church","366 Watchogue Road","Staten Island","NY","10314","2008-05-12T00:00:00.000","2022-7434","2022-05-24T00:00:00.000","2023-06-30T00:00:00.000","Active","Renew","5","40.616507","-74.141546","1","50","18901","5095191","5004720164","Westerleigh","POINT (-74.141546 40.616507)"
"Holy Ghost Christian Church","108 East 103rd Street","New York","NY","10029","2012-01-09T00:00:00.000","2022-7234","2022-01-26T00:00:00.000","2023-01-31T00:00:00.000","Active","Renew","1","40.790762","-73.948769","11","8","166","1088166","1016300070","East Harlem South","POINT (-73.948769 40.790762)"
"Holy Ghost Pentecostal Faith Church","13-15 East 125th Street","New York","NY","10035","2010-04-27T00:00:00.000","2022-7277","2022-02-28T00:00:00.000","2023-01-31T00:00:00.000","Active","Renew","1","40.806184","-73.941692","11","9","198","1054027","1017500005","East Harlem North","POINT (-73.941692 40.806184)"
"Holy Name Church","245 Prospect Park West","Brooklyn","NY","11215","2022-04-25T00:00:00.000","2022-7466","2022-06-09T00:00:00.000","2023-06-30T00:00:00.000","Active","New","3","40.659329","-73.981261","7","39","169","3027226","3011140007","Windsor Terrace","POINT (-73.981261 40.659329)"
"Holy Trinity Church Inwood","20 Cumming Street","NewYork","NY","10034","2008-05-12T00:00:00.000","2021-7069","2021-10-06T00:00:00.000","2022-10-31T00:00:00.000","Active","Renew","1","40.866644","-73.926461","12","10","295","1064937","1022370018","Marble Hill-Inwood","POINT (-73.926461 40.866644)"
"Homecrest Presbyterian Church","1413 Avenue T","Brooklyn","NY","11229","2008-05-12T00:00:00.000","2021-6992","2021-09-01T00:00:00.000","2022-09-30T00:00:00.000","Active","Renew","3","40.60102","-73.957543","15","48","556","3196793","3072930043","Homecrest","POINT (-73.957543 40.60102)"
"House of Grace","31-55 92nd Street","East Elmhurst","NY","11369","2019-06-06T00:00:00.000","2022-7435","2022-05-24T00:00:00.000","2023-06-30T00:00:00.000","Active","Renew","4","40.759382","-73.876578","3","21","351","4034126","4014040045","Jackson Heights","POINT (-73.876578 40.759382)"
"Hungarian Baptist Church","225 East 80th Street","New York","NY","10075","2008-05-12T00:00:00.000","2022-7449","2022-05-31T00:00:00.000","2023-05-31T00:00:00.000","Active","Renew","1","40.77467","-73.956071","8","5","138","1048527","1015260012","Yorkville","POINT (-73.956071 40.77467)"
"Iglesia Bautista Central","260 Knickerbocker Ave","Brooklyn","NY","11237","2017-05-25T00:00:00.000","2021-7172","2021-12-09T00:00:00.000","2022-12-31T00:00:00.000","Active","Renew","3","40.7025","-73.924853","4","34","429","3072742","3031970034","Bushwick North","POINT (-73.924853 40.7025)"
"Iglesia Bautista International De Astoria","30-85 35th Street","Astoria","NY","11103","2008-05-13T00:00:00.000","2021-6999","2021-09-09T00:00:00.000","2022-09-30T00:00:00.000","Active","Renew","4","40.763257","-73.919918","1","22","63","4009898","4006500009","Astoria","POINT (-73.919918 40.763257)"
"Iglesia Carismatica Casa De Oracion, Inc","4609 8th Avenue","Brooklyn","NY","11220","2008-05-13T00:00:00.000","2022-7380","2022-04-25T00:00:00.000","2023-04-30T00:00:00.000","Active","Renew","3","40.643237","-74.001492","12","38","94","3012099","3007600005","Sunset Park East","POINT (-74.001492 40.643237)"
"Iglesia Congrigacional El Verbo","493 Herzl Street","Brooklyn","NY","11212","2017-10-30T00:00:00.000","2022-7424","2022-05-23T00:00:00.000","2023-03-31T00:00:00.000","Active","Renew","3","40.657741","-73.912538","16","42","896","3082476","3036100011","Brownsville","POINT (-73.912538 40.657741)"
"Iglesia Cristiana Manantial De Vida Inc","50 Bergen Street","Brooklyn","NY","11201","2011-03-02T00:00:00.000","2022-7347","2022-03-30T00:00:00.000","2023-03-31T00:00:00.000","Active","Renew","3","40.68709","-73.9914","2","33","69","3005736","3003840030","DUMBO-Vinegar Hill-Downtown Brooklyn-Boerum Hill","POINT (-73.9914 40.68709)"
"Iglesia Cristiana Monte Hermon","289 East 3rd Street","New York","NY","10009","2015-09-30T00:00:00.000","2021-7067","2021-10-05T00:00:00.000","2022-09-30T00:00:00.000","Active","Renew","1","40.721418","-73.979967","3","2","2601","1004403","1003730061","Lower East Side","POINT (-73.979967 40.721418)"
"Iglesia Cristian Lirio De Los Valles","214-46 42nd Avenue","Bayside","NY","11361","2015-07-21T00:00:00.000","2021-6987","2021-09-01T00:00:00.000","2022-09-30T00:00:00.000","Active","Renew","4","40.762935","-73.768915","11","19","1467","4138343","4062990021","Bayside-Bayside Hills","POINT (-73.768915 40.762935)"
"Iglesia de Cristo Inc","714 4th avenue","Brooklyn","NY","11232","2021-02-14T00:00:00.000","2022-7408","2022-05-04T00:00:00.000","2023-05-31T00:00:00.000","Active","Renew","3","40.661954","-73.996486","7","38","145","3009394","3006450036","Sunset Park West","POINT (-73.996486 40.661954)"
"Iglesia de Dios Mission Board, Inc.","195 East 7th Street","New York","NY","10009","2016-08-22T00:00:00.000","2022-7317","2022-03-09T00:00:00.000","2023-02-28T00:00:00.000","Active","Renew","1","40.724676","-73.980244","3","2","2602","1004727","1003900058","Lower East Side","POINT (-73.980244 40.724676)"
"Iglesia de Dios Pentecostal El Renuevo, Inc.","34-08 36th Avenue","Long Island Cit","NY","11106","2021-11-29T00:00:00.000","2022-7214","2022-01-07T00:00:00.000","2023-01-31T00:00:00.000","Active","New","4","40.755377","-73.927194","1","26","55","4009510","4006340134","Queensbridge-Ravenswood-Long Island City","POINT (-73.927194 40.755377)"
"Iglesia Evangelica Hispana-CMA, Attorney Street Ch","162 Attorney Street","New York","NY","10002","2020-08-14T00:00:00.000","2022-7469","2022-06-10T00:00:00.000","2023-06-30T00:00:00.000","Active","Renew","1","40.720628","-73.983297","3","2","2201","1004131","1003450006","Lower East Side","POINT (-73.983297 40.720628)"
"Iglesia Evangelica MenonIta Eben-Ezer Inc.","1126 Sherman Ave","Bronx","NY","10456","2012-09-04T00:00:00.000","2022-7226","2022-01-19T00:00:00.000","2023-01-31T00:00:00.000","Active","Renew","2","40.831906","-73.916985","4","16","18101","2002647","2024520010","East Concourse-Concourse Village","POINT (-73.916985 40.831906)"
"Iglesia Gethsemani Pentecostal Inc.","110-112 East 104th Street","New York","NY","10029","2011-10-27T00:00:00.000","2021-7051","2021-10-01T00:00:00.000","2022-10-31T00:00:00.000","Active","Renew","1","40.791377","-73.948285","11","8","166","1051947","1016310068","East Harlem South","POINT (-73.948285 40.791377)"
"Iglesia Mision Cristiana Discipulos de Cristo de C","102-19 37th Avenue","Corona","NY","11368","2016-01-05T00:00:00.000","2022-7262","2022-02-07T00:00:00.000","2023-01-31T00:00:00.000","Active","Renew","4","40.753089","-73.865137","3","21","379","4000000","4017430027","North Corona","POINT (-73.865137 40.753089)"
"Iglesia Pentecostal Cristo Restaura Inc","3409 Fulton Street","Brooklyn","NY","11208","2017-08-22T00:00:00.000","2021-7066","2021-10-05T00:00:00.000","2022-10-31T00:00:00.000","Active","Renew","3","40.684327","-73.869848","5","37","1184","3092436","3041330057","Cypress Hills-City Line","POINT (-73.869848 40.684327)"
"Iglesia Pentecostal Del Senor, Inc.","78-15 78th Street","Glendale","NY","11385","2016-10-12T00:00:00.000","2021-7077","2021-10-20T00:00:00.000","2022-10-31T00:00:00.000","Active","Renew","4","40.704144","-73.872233","5","30","63302","4437923","4038270074","Glendale","POINT (-73.872233 40.704144)"
"Iglesia Pentecostal Fuente Divina Inc.","4621 4th Avenue","Brooklyn","NY","11220","2015-07-17T00:00:00.000","2021-6896","2021-07-01T00:00:00.000","2022-07-31T00:00:00.000","Active","Renew","3","40.64854","-74.010407","7","38","80","3337215","3007560001","Sunset Park West","POINT (-74.010407 40.64854)"
"Iglesia Pentecostal Washington Heights","281 Audubon Avenue","New York","NY","10033","2012-03-27T00:00:00.000","2021-6936","2021-07-30T00:00:00.000","2022-07-31T00:00:00.000","Active","Renew","1","40.847559","-73.933187","12","10","261","1063594","1021520031","Washington Heights South","POINT (-73.933187 40.847559)"
"Iglesia Un Nuevo Comienzo En Cristo (A New Beginni","2506 East Tremont Ave.","New York","NY","10461","2021-10-22T00:00:00.000","2021-7083","2021-10-22T00:00:00.000","2022-10-31T00:00:00.000","Active","New","2","40.842818","-73.85022","10","13","200","2042366","2040010022","Van Nest-Morris Park-Westchester Square","POINT (-73.85022 40.842818)"
"Immaculate Conception Church","414 E 14th Street","New York","NY","10009","2013-08-13T00:00:00.000","2021-7032","2021-09-24T00:00:00.000","2022-08-31T00:00:00.000","Active","Renew","1","40.731049","-73.981819","3","2","34","1006013","1004410012","East Village","POINT (-73.981819 40.731049)"
"Immaculate Heart of Mary Roman Catholic Church","2805 Fort Hamilton Parkway","Brooklyn","NY","11218","2008-05-13T00:00:00.000","2021-6906","2021-07-02T00:00:00.000","2022-07-31T00:00:00.000","Active","Renew","3","40.649125","-73.976771","7","39","500","3122827","3052830061","Windsor Terrace","POINT (-73.976771 40.649125)"
"Infinity Bible Church","1326 Morrison Ave","Bronx","NY","10472","2021-11-09T00:00:00.000","2022-7314","2022-03-07T00:00:00.000","2023-03-31T00:00:00.000","Active","New","2","40.832519","-73.875308","9","18","62","2027536","2038680017","West Farms-Bronx River","POINT (-73.875308 40.832519)"
"International Christian Center NYC","1501 Richmond Ave","Staten Island","NY","10314","2020-10-13T00:00:00.000","2021-7052","2021-10-01T00:00:00.000","2022-10-31T00:00:00.000","Active","Renew","5","40.611548","-74.159601","2","50","29104","5107214","5015480050","New Springville-Bloomfield-Travis","POINT (-74.159601 40.611548)"
"International Christian Church the Savior","1696 Weeks Avenue","Bronx","NY","10457","2008-05-13T00:00:00.000","2022-7457","2022-06-06T00:00:00.000","2023-06-30T00:00:00.000","Active","Renew","2","40.84438","-73.907583","4","15","22902","2007367","2027920036","Mount Hope","POINT (-73.907583 40.84438)"
"International Revival Tabernacle","2260 Pacific Street","Brooklyn","NY","11233","2015-03-30T00:00:00.000","2022-7376","2022-04-14T00:00:00.000","2023-04-30T00:00:00.000","Active","Renew","3","40.675453","-73.909598","16","37","36501","3038744","3014420032","Ocean Hill","POINT (-73.909598 40.675453)"
"Islamic Center Of Brighton Beach","230 Neptune Avenue","Brooklyn","NY","11235","2014-07-28T00:00:00.000","2021-7183","2021-12-14T00:00:00.000","2022-12-31T00:00:00.000","Active","Renew","3","40.581567","-73.961749","13","48","364","3244501","3086670747","Brighton Beach","POINT (-73.961749 40.581567)"
"Islamic Center of Jackson Heights Inc.","7804 31st avenue","Jackson Heights","NY","11370","2019-11-14T00:00:00.000","2022-7278","2022-02-28T00:00:00.000","2023-02-28T00:00:00.000","Active","Renew","4","40.758849","-73.889585","3","25","30903","4025707","4011490001","Jackson Heights","POINT (-73.889585 40.758849)"
"Islamic Guidance Center","543 Atlantic Avenue","Brooklyn","NY","11217","2008-05-13T00:00:00.000","2022-7359","2022-04-05T00:00:00.000","2022-10-31T00:00:00.000","Active","Renew","3","40.684893","-73.97957","2","33","39","3000803","3001800050","DUMBO-Vinegar Hill-Downtown Brooklyn-Boerum Hill","POINT (-73.97957 40.684893)"
"Jamaica Muslim Center Inc.","85-37 168th Street","Jamaica","NY","11432","2010-01-22T00:00:00.000","2022-7291","2022-03-03T00:00:00.000","2023-03-31T00:00:00.000","Active","Renew","4","40.713247","-73.796339","8","24","454","4210720","4098510017","Briarwood-Jamaica Hills","POINT (-73.796339 40.713247)"
"Jehovah Jireh House of Prayer, Inc.","143 -06 107th Avenue","Jamaica","NY","11435","2019-01-18T00:00:00.000","2022-7193","2022-01-06T00:00:00.000","2023-01-31T00:00:00.000","Active","Renew",,,,,,,,,,
"Jesus Christ Family Church","915 Gates Avenue","Brooklyn","NY","11221","2008-05-02T00:00:00.000","2021-7150","2021-12-02T00:00:00.000","2022-12-31T00:00:00.000","Active","Renew","3","40.688697","-73.929102","3","36","387","3044566","3016320067","Stuyvesant Heights","POINT (-73.929102 40.688697)"
"Jesus Christ In Action Evangelical Assembly Intern","1069 Rogers Avenue","Brooklyn","NY","11226","2011-08-12T00:00:00.000","2021-6940","2021-07-30T00:00:00.000","2022-08-31T00:00:00.000","Active","Renew","3","40.643878","-73.951729","17","45","826","3119165","3051710060","Erasmus","POINT (-73.951729 40.643878)"
"Jesus' Witness Church","90-53 210th Street","Queens Village","NY","11428","2008-05-14T00:00:00.000","2021-7021","2021-09-21T00:00:00.000","2022-09-30T00:00:00.000","Active","Renew","4","40.718759","-73.753314","13","23","496","4225217","4105630001","Queens Village","POINT (-73.753314 40.718759)"
"Jewish Center Inc.","131 West 86th Street","New York","NY","10024","2008-05-14T00:00:00.000","2021-6905","2021-07-02T00:00:00.000","2022-07-31T00:00:00.000","Active","Renew","1","40.786931","-73.973202","7","6","173","1032193","1012170018","Upper West Side","POINT (-73.973202 40.786931)"
"Jewish Center Nachlath Zion","2201 East 23rd Street","Brooklyn","NY","11229","2008-05-14T00:00:00.000","2022-7450","2022-05-31T00:00:00.000","2023-04-30T00:00:00.000","Active","Renew","3","40.597223","-73.948043","15","48","59401","3336728","3073820001","Sheepshead Bay-Gerritsen Beach-Manhattan Beach","POINT (-73.948043 40.597223)"
"Jewish Center Of Kew Gardens Hills, Inc.","71-25 Main Street","Flushing","NY","11367","2010-05-14T00:00:00.000","2021-6932","2021-07-30T00:00:00.000","2022-07-31T00:00:00.000","Active","Renew","4","40.727194","-73.822075","8","24","77906","4144021","4066580003","Kew Gardens Hills","POINT (-73.822075 40.727194)"
"Jewish Center Of Kings Highway","1202 Avenue P","Brooklyn","NY","11229","2010-08-16T00:00:00.000","2021-6950","2021-07-30T00:00:00.000","2022-08-31T00:00:00.000","Active","Renew","3","40.610107","-73.961218","15","48","554","3182326","3067750001","Homecrest","POINT (-73.961218 40.610107)"
"Jewish Center Torath Emeth","78-15 Parsons Boulevard","Flushing","NY","11366","2011-04-01T00:00:00.000","2022-7436","2022-05-24T00:00:00.000","2023-06-30T00:00:00.000","Active","Renew","4","40.721959","-73.809697","8","24","1257","4147910","4068290001","Kew Gardens Hills","POINT (-73.809697 40.721959)"
"Jewish Community of Ozone Park","107-01 Cross Bay Boulevard","Ozone Park","NY","11417","2011-02-02T00:00:00.000","2022-7271","2022-02-15T00:00:00.000","2023-02-28T00:00:00.000","Active","Renew","4","40.678677","-73.844222","10","32","86","4191045","4091630076","Ozone Park","POINT (-73.844222 40.678677)"
"John Hus Moravian Church","153 Ocean Avenue","Brooklyn","NY","11225","2008-05-14T00:00:00.000","2021-7157","2021-12-03T00:00:00.000","2022-12-31T00:00:00.000","Active","Renew","3","40.659277","-73.962606","9","40","79802","3114587","3050260020","Prospect Lefferts Gardens-Wingate","POINT (-73.962606 40.659277)"
"JOL Church of New York","39-50 Douglaston Pkwy","Douglaston","NY","11363","2022-04-06T00:00:00.000","2022-7373","2022-04-11T00:00:00.000","2023-04-30T00:00:00.000","Active","New","4","40.770345","-73.749982","11","19","1483","4438356","4080820280","Douglas Manor-Douglaston-Little Neck","POINT (-73.749982 40.770345)"
"Jubilant Pentecostal Holiness Church","295 Gates Avenue","Brooklyn","NY","11216","2008-05-14T00:00:00.000","2022-7337","2022-03-22T00:00:00.000","2023-03-31T00:00:00.000","Active","Renew","3","40.685658","-73.955538","3","36","229","3056586","3019740046","Clinton Hill","POINT (-73.955538 40.685658)"
"Kings Church of Christ","1371 Rogers Ave.","Brooklyn","NY","11210","2018-08-13T00:00:00.000","2021-7111","2021-11-12T00:00:00.000","2022-11-30T00:00:00.000","Active","Renew","3","40.636689","-73.950966","14","45","788","3120928","3052290007","Flatbush","POINT (-73.950966 40.636689)"
"Kingsway Jewish Center","2810 Nostrand Avenue","Brooklyn","NY","11229","2008-05-15T00:00:00.000","2022-7478","2022-06-27T00:00:00.000","2023-06-30T00:00:00.000","Active","Renew","3","40.615724","-73.944776","15","45","642","3211291","3076900051","Madison","POINT (-73.944776 40.615724)"
"Knesseth Bais Yaakov","1720 Avenue J","Brooklyn","NY","11230","2008-05-15T00:00:00.000","2022-7346","2022-03-28T00:00:00.000","2023-03-31T00:00:00.000","Active","Replace","3","40.625411","-73.959217","14","44","532","3180104","3067190037","Midwood","POINT (-73.959217 40.625411)"
"Knickerbocker United Methodist Church","484 Knickerbocker Avenue","Brooklyn","NY","11237","2008-05-15T00:00:00.000","2021-6928","2021-07-30T00:00:00.000","2022-08-31T00:00:00.000","Active","Renew","3","40.698381","-73.917616","4","37","433","3075669","3033070034","Bushwick North","POINT (-73.917616 40.698381)"
"Korean Methodist Church and Institute","633 West 115th Street","New York","NY","10025","2012-08-10T00:00:00.000","2021-7005","2021-09-09T00:00:00.000","2022-09-30T00:00:00.000","Active","Renew","1","40.807695","-73.965225","9","7","205","1057375","1018960052","Morningside Heights","POINT (-73.965225 40.807695)"
"Korean Methodist Church Of Queens","95 - 01 32nd Avenue","East Elmhurst","NY","11369","2008-05-15T00:00:00.000","2022-7250","2022-02-03T00:00:00.000","2023-02-28T00:00:00.000","Active","Renew","4","40.758717","-73.873313","3","21","353","4034280","4014070040","East Elmhurst","POINT (-73.873313 40.758717)"
"Lafayette Ave. Presbyterian Church","85 South Oxford St.","Brooklyn","NY","11217","2017-10-24T00:00:00.000","2022-7282","2022-03-01T00:00:00.000","2023-03-31T00:00:00.000","Active","Renew","3","40.686918","-73.973563","2","35","181","3059350","3021180011","Fort Greene","POINT (-73.973563 40.686918)"
"La Pena de Horeb Inc. Iglesia Pentecostal Church","34 Morgan Avenue","Brooklyn","NY","11237","2014-06-23T00:00:00.000","2022-7333","2022-03-21T00:00:00.000","2023-02-28T00:00:00.000","Active","Renew","3","40.705065","-73.931526","1","34","453","3070687","3030080001","Bushwick North","POINT (-73.931526 40.705065)"
"Latin American Pentecostal Church of God Inc","115-125 East 125th Street","New York","NY","10035","2008-07-24T00:00:00.000","2022-7451","2022-06-01T00:00:00.000","2023-06-30T00:00:00.000","Active","Renew","1","40.80475","-73.938287","11","9","196","1054477","1017740009","East Harlem North","POINT (-73.938287 40.80475)"
"Latin American Pentl Cog Inc Arch Of Refuge","213 Manhattan Avenue 2nd Fl.","New York","NY","10025","2008-05-15T00:00:00.000","2021-7149","2021-12-02T00:00:00.000","2022-12-31T00:00:00.000","Active","Renew",,,,,,,,,,
"Leverich Memorial Church of Corona","102-19 32nd Ave.","East Elmhurst","NY","11369","2019-02-26T00:00:00.000","2022-7251","2022-02-03T00:00:00.000","2023-02-28T00:00:00.000","Active","Renew","4","40.759418","-73.866655","3","21","365","4041778","4016890038","East Elmhurst","POINT (-73.866655 40.759418)"
"Leviticus Church of God In Christ Inc","114-12 Van Wyck Expressway","Jamaica","NY","11420","2008-05-15T00:00:00.000","2022-7261","2022-02-07T00:00:00.000","2022-12-31T00:00:00.000","Active","Renew","4","40.682387","-73.806024","10","28","174","4251940","4116610011","South Ozone Park","POINT (-73.806024 40.682387)"
"Lincoln Square Synagogue","180 Amsterdam Avenue","New York","NY","10023","2008-05-15T00:00:00.000","2021-7137","2021-11-23T00:00:00.000","2022-11-30T00:00:00.000","Active","Renew","1","40.776146","-73.983438","7","6","155","1087453","1011580018","Lincoln Square","POINT (-73.983438 40.776146)"
"Ling Liang Worldwide Evangelistic Mission Inc","177 East Broadway","New York","NY","10002","2008-05-15T00:00:00.000","2021-6956","2021-08-03T00:00:00.000","2022-08-31T00:00:00.000","Active","Renew","1","40.714107","-73.989539","3","1","6","1003622","1002840022","Lower East Side","POINT (-73.989539 40.714107)"
"Little Mt. Bethel Baptist Church, Inc.","1538 Longfellow Avenue","New York","NY","10460","2016-06-14T00:00:00.000","2021-6947","2021-07-30T00:00:00.000","2022-08-31T00:00:00.000","Active","Renew","2","40.833252","-73.885992","3","17","157","2010925","2030090008","Crotona Park East","POINT (-73.885992 40.833252)"
"Little Mt. Zion Baptist Church Inc","324 Tompkins Avenue","Brooklyn","NY","11216","2008-05-15T00:00:00.000","2021-6959","2021-08-03T00:00:00.000","2022-08-31T00:00:00.000","Active","Renew","3","40.686622","-73.944576","3","36","265","3051173","3018140034","Bedford","POINT (-73.944576 40.686622)"
"Long Island City Gospel Church","12-11 40th avenue","Long Island Cit","NY","11101","2016-11-18T00:00:00.000","2022-7217","2022-01-10T00:00:00.000","2022-11-30T00:00:00.000","Active","Renew","4","40.755973","-73.942645","1","26","85","4005332","4004720624","Queensbridge-Ravenswood-Long Island City","POINT (-73.942645 40.755973)"
"Lutheran Church of the Atonement","30 61 87th Street","Jackson Heights","NY","11369","2008-05-15T00:00:00.000","2021-7163","2021-12-03T00:00:00.000","2022-12-31T00:00:00.000","Active","Renew","4","40.760556","-73.881529","3","22","339","4033380","4013850040","Jackson Heights","POINT (-73.881529 40.760556)"
"Madison Jewish Center","2989 Nostrand Avenue","Brooklyn","NY","11229","2008-05-16T00:00:00.000","2022-7413","2022-05-11T00:00:00.000","2023-03-31T00:00:00.000","Active","Renew","3","40.611538","-73.943951","15","46","644","3182809","3067930009","Georgetown-Marine Park-Bergen Beach-Mill Basin","POINT (-73.943951 40.611538)"
"Manhattan Bible Church","401 West 205 Street","New York","NY","10034","2010-11-12T00:00:00.000","2022-7420","2022-05-20T00:00:00.000","2023-05-31T00:00:00.000","Active","Renew","1","40.862519","-73.918288","12","10","299","1064504","1022020025","Marble Hill-Inwood","POINT (-73.918288 40.862519)"
"Manhattan S.D.A. Church","232 West 11th Street","New York","NY","10014","2008-05-20T00:00:00.000","2022-7458","2022-06-07T00:00:00.000","2023-06-30T00:00:00.000","Active","Renew","1","40.736302","-74.002638","2","3","73","1010915","1006130017","West Village","POINT (-74.002638 40.736302)"
"Marble Collegiate Church","1 West 29th Street","New York","NY","10001","2008-05-20T00:00:00.000","2021-7153","2021-12-03T00:00:00.000","2022-12-31T00:00:00.000","Active","Renew","1","40.745419","-73.987102","5","4","76","1015764","1008310033","Midtown-Midtown South","POINT (-73.987102 40.745419)"
"Mariners' Temple Baptist Church","3 Henry Street","New York","NY","10038","2012-01-30T00:00:00.000","2022-7300","2022-03-03T00:00:00.000","2023-02-28T00:00:00.000","Active","Renew","1","40.712757","-73.997735","3","1","27","1003388","1002790069","Chinatown","POINT (-73.997735 40.712757)"
"Masilas Bais Yaakov","420 19th Street","Brooklyn","NY","11215","2013-07-25T00:00:00.000","2022-7209","2022-01-06T00:00:00.000","2022-08-31T00:00:00.000","Active","Renew","3","40.658278","-73.985313","7","38","1502","3017296","3008880007","Windsor Terrace","POINT (-73.985313 40.658278)"
"Masjid Al Taufiq","41-02 Forley St","Elmhurst","NY","11373","2021-09-05T00:00:00.000","2021-7035","2021-09-30T00:00:00.000","2022-09-30T00:00:00.000","Active","Renew","4","40.746882","-73.879045","4","25","271","4037343","4015130006","Elmhurst","POINT (-73.879045 40.746882)"
"Masjid Manhattan, Inc.","30 Cliff Street","New York","NY","10038","2015-03-19T00:00:00.000","2022-7446","2022-05-31T00:00:00.000","2023-06-30T00:00:00.000","Active","Renew","1","40.70825","-74.00514","1","1","1502","1001169","1000757503","Battery Park City-Lower Manhattan","POINT (-74.00514 40.70825)"
"Masjid:""Omar Ben Abdel-Aziz""","88-29 161st Street","Jamaica","NY","11432","2008-05-20T00:00:00.000","2022-7438","2022-05-24T00:00:00.000","2023-06-30T00:00:00.000","Active","Renew","4","40.707567","-73.800677","12","24","44602","4209002","4097670019","Jamaica","POINT (-73.800677 40.707567)"
"Ma Yoga Shakti International Mission","114-41 Lefferts Blvd","South Ozone Par","NY","11420","2018-04-30T00:00:00.000","2022-7437","2022-05-24T00:00:00.000","2023-06-30T00:00:00.000","Active","Renew","4","40.677991","-73.820115","10","28","166","4251274","4116460041","South Ozone Park","POINT (-73.820115 40.677991)"
"Merkaz Hatefillah","1898 Bay Avenue","Brooklyn","NY","11230","2008-05-21T00:00:00.000","2022-7439","2022-05-24T00:00:00.000","2023-06-30T00:00:00.000","Active","Renew","3","40.617961","-73.956239","14","48","538","3329246","3067470015","Midwood","POINT (-73.956239 40.617961)"
"Merkos L'Inyonei Chinuch","784 Eastern Parkway","Brooklyn","NY","11213","2008-05-21T00:00:00.000","2021-7018","2021-09-17T00:00:00.000","2022-09-30T00:00:00.000","Active","Renew","3","40.669422","-73.942705","9","35","337","3033034","3012710035","Crown Heights North","POINT (-73.942705 40.669422)"
"Mesivta and Yeshiva Gedolah Of Manhattan Beach","59 West End Avenue","Brooklyn","NY","11235","2016-02-24T00:00:00.000","2022-7352","2022-04-05T00:00:00.000","2023-04-30T00:00:00.000","Active","Renew","3","40.580416","-73.953549","15","48","612","3245815","3087260062","Sheepshead Bay-Gerritsen Beach-Manhattan Beach","POINT (-73.953549 40.580416)"
"Mesivta Nachlas Yakov of Adas Yereim","185 Wilson Street","Brooklyn","NY","11211","2015-05-28T00:00:00.000","2021-7108","2021-11-05T00:00:00.000","2022-11-30T00:00:00.000","Active","Renew","3","40.70675","-73.960354","1","33","535","3059912","3021780006","Williamsburg","POINT (-73.960354 40.70675)"
"Mesivta Yeshiva Chaim Berlin","1585 Coney Island Avenue","Brooklyn","NY","11230","2013-10-07T00:00:00.000","2022-7235","2022-01-27T00:00:00.000","2022-12-31T00:00:00.000","Active","Renew","3","40.618888","-73.964048","14","44","768","3180580","3067310076","Midwood","POINT (-73.964048 40.618888)"
"Mesivtha Tifereth Jerusalem","145 East Broadway","New York","NY","10002","2008-05-21T00:00:00.000","2021-6960","2021-08-03T00:00:00.000","2022-07-31T00:00:00.000","Active","Renew","1","40.713959","-73.991206","3","1","6","1003571","1002830031","Lower East Side","POINT (-73.991206 40.713959)"
"Metropolitan African Methodist Episcopal Church","58 West 135th Street","New York","NY","10037","2012-02-10T00:00:00.000","2021-7170","2021-12-08T00:00:00.000","2023-02-28T00:00:00.000","Active","Renew","1","40.813707","-73.939933","10","9","212","1053896","1017300065","Central Harlem North-Polo Grounds","POINT (-73.939933 40.813707)"
"Midrash Shlomo Inc.","1244 East 7th Street","Brooklyn","NY","11230","2012-11-08T00:00:00.000","2021-7072","2021-10-08T00:00:00.000","2022-10-31T00:00:00.000","Active","Renew","3","40.620657","-73.968413","12","44","452","3171340","3065320031","Ocean Parkway South","POINT (-73.968413 40.620657)"
"Mikdash Eliyahu","400 Avenue U","Brooklyn","NY","11223","2017-07-19T00:00:00.000","2021-7071","2021-10-07T00:00:00.000","2022-08-31T00:00:00.000","Active","Replace","3","40.597404","-73.969313","15","47","396","3192819","3071297501","Homecrest","POINT (-73.969313 40.597404)"
"Millinery Center Synagogue","1025 Avenue of the Americas","New York","NY","10018","2015-03-18T00:00:00.000","2021-6939","2021-07-30T00:00:00.000","2022-08-31T00:00:00.000","Active","Renew","1","40.752508","-73.985815","5","4","113","1015270","1008140036","Midtown-Midtown South","POINT (-73.985815 40.752508)"
"Miracle Revival Temple","1555 Macombs Road","Bronx","NY","10452","2011-01-24T00:00:00.000","2022-7252","2022-02-03T00:00:00.000","2023-02-28T00:00:00.000","Active","Renew","2","40.844626","-73.917522","4","16","21302","2008720","2028720342","Highbridge","POINT (-73.917522 40.844626)"
"Mision Asamblea Pentecostal","118 Bushwick Avenue","Brooklyn","NY","11206","2008-05-13T00:00:00.000","2021-6942","2021-07-30T00:00:00.000","2022-08-31T00:00:00.000","Active","Renew","3","40.711331","-73.940451","1","34","495","3069643","3027900029","East Williamsburg","POINT (-73.940451 40.711331)"
"Missionary Church Of Christ, Inc.","937 Teller Avenue","Bronx","NY","10451","2015-08-24T00:00:00.000","2021-6991","2021-09-01T00:00:00.000","2022-09-30T00:00:00.000","Active","Renew","2","40.82612","-73.915561","4","17","173","2001966","2024220035","East Concourse-Concourse Village","POINT (-73.915561 40.82612)"
"Morning Star Full Gospel Assembly","464 East Tremont Avenue","Bronx","NY","10457","2010-04-23T00:00:00.000","2021-7181","2021-12-14T00:00:00.000","2022-12-31T00:00:00.000","Active","Renew","2","40.847084","-73.898377","6","15","395","2009536","2029090024","Claremont-Bathgate","POINT (-73.898377 40.847084)"
"Most Precious Blood RC Church","32-23 36th Street","Long Island Cit","NY","11106","2010-01-22T00:00:00.000","2022-7201","2022-01-06T00:00:00.000","2023-01-31T00:00:00.000","Active","Renew","4","40.759718","-73.921691","1","22","59","4009738","4006470028","Astoria","POINT (-73.921691 40.759718)"
"Mount Calvary Pentecostal Church","465 West 162 Street","New York","NY","10032","2015-03-03T00:00:00.000","2022-7228","2022-01-19T00:00:00.000","2023-01-31T00:00:00.000","Active","Renew","1","40.835502","-73.939183","12","10","24301","1062589","1021100001","Washington Heights South","POINT (-73.939183 40.835502)"
"Mount Lebanon Baptist Church","230 Decatur Street","Brooklyn","NY","11233","2016-01-14T00:00:00.000","2022-7253","2022-02-03T00:00:00.000","2023-02-28T00:00:00.000","Active","Renew","3","40.681376","-73.933948","3","36","297","3047407","3016800009","Crown Heights North","POINT (-73.933948 40.681376)"
"Mount Morris Ascension Presbyterian Church","15 Mt. Morris Park West","New York","NY","10027","2021-11-24T00:00:00.000","2021-7179","2021-12-14T00:00:00.000","2022-12-31T00:00:00.000","Active","New","1","40.80483","-73.945475","10","9","200","1053368","1017200058","Central Harlem South","POINT (-73.945475 40.80483)"
"Mt. Carmel Baptist Church","1376 Prospect Avenue","Bronx","NY","10459","2008-05-23T00:00:00.000","2021-7094","2021-11-03T00:00:00.000","2022-11-30T00:00:00.000","Active","Renew","2","40.83088","-73.896952","3","16","153","2010385","2029710008","Crotona Park East","POINT (-73.896952 40.83088)"
"Mt Hebron Baptist Church","732 East 233rd St., PO BOX 859","Bronx","NY","10466","2011-02-20T00:00:00.000","2022-7344","2022-03-28T00:00:00.000","2023-03-31T00:00:00.000","Active","Renew","2","40.893023","-73.856205","12","12","422","2063714","2048460059","Williamsbridge-Olinville","POINT (-73.856205 40.893023)"
"Mt. Horeb Baptist Church","109-20 34th Ave.","Corona","NY","11368","2019-03-28T00:00:00.000","2022-7293","2022-03-03T00:00:00.000","2023-03-31T00:00:00.000","Active","Renew","4","40.756414","-73.859449","3","21","381","4043646","4017530011","North Corona","POINT (-73.859449 40.756414)"
"Mt. Horeb Holiness Church Of God Inc.","2105 5th Avenue","New York","NY","10035","2008-05-23T00:00:00.000","2021-7000","2021-09-09T00:00:00.000","2022-09-30T00:00:00.000","Active","Renew","1","40.80923","-73.940194","11","9","206","1054219","1017540003","Central Harlem North-Polo Grounds","POINT (-73.940194 40.80923)"
"Mt. Zion AME","1765 Madison Avenue","New York","NY","10029","2008-05-23T00:00:00.000","2021-7180","2021-12-14T00:00:00.000","2022-11-30T00:00:00.000","Active","Renew","1","40.799876","-73.944915","11","8","184","1051651","1016210050","East Harlem North","POINT (-73.944915 40.799876)"
"Mt. Zion Congregation Church, Inc.,","984 Bedford Avenue","Brooklyn","NY","11205","2008-05-23T00:00:00.000","2022-7194","2022-01-06T00:00:00.000","2023-01-31T00:00:00.000","Active","Renew","3","40.691441","-73.955527","3","33","235","3055259","3019280066","Clinton Hill","POINT (-73.955527 40.691441)"
"Musjid Abu Hanifah","2743 Pitkin Avenue","Brooklyn","NY","11208","2013-03-26T00:00:00.000","2022-7323","2022-03-11T00:00:00.000","2023-03-31T00:00:00.000","Active","Renew","3","40.675573","-73.870799","5","42","1196","3094734","3042150045","East New York","POINT (-73.870799 40.675573)"
"Nazareth Christian Fellowship","576 Ralph Avenue","Brooklyn","NY","11233","2012-12-19T00:00:00.000","2021-7136","2021-11-23T00:00:00.000","2022-11-30T00:00:00.000","Active","Renew","3","40.669471","-73.922536","8","41","359","3037218","3013870050","Crown Heights North","POINT (-73.922536 40.669471)"
"Neighborhood Church of Greenwich Village","269 Bleecker Street","New York","NY","10014","2008-05-19T00:00:00.000","2021-6897","2021-07-01T00:00:00.000","2022-07-31T00:00:00.000","Active","Renew","1","40.731421","-74.003099","2","3","67","1010131","1005900007","West Village","POINT (-74.003099 40.731421)"
"Netivot Israel","1617 Ocean Parkway","Brooklyn","NY","11223","2008-05-19T00:00:00.000","2021-7100","2021-11-03T00:00:00.000","2022-11-30T00:00:00.000","Active","Renew","3","40.608983","-73.967593","15","44","420","3176157","3066380073","Homecrest","POINT (-73.967593 40.608983)"
"New Beginnings Christian Life Center, Inc.","658 Hancock Street","Brooklyn","NY","11233","2017-04-21T00:00:00.000","2022-7294","2022-03-03T00:00:00.000","2023-03-31T00:00:00.000","Active","Renew","3","40.684944","-73.929012","3","36","383","3046207","3016620011","Stuyvesant Heights","POINT (-73.929012 40.684944)"
"New Covenant Church Of God, Inc.","104 28 Astoria Blvd","East Elmhurst","NY","11369","2015-03-04T00:00:00.000","2022-7331","2022-03-18T00:00:00.000","2023-03-31T00:00:00.000","Active","Renew","4","40.761235","-73.86494","3","21","365","4547962","4016910008","East Elmhurst","POINT (-73.86494 40.761235)"
"New Covenant Faith and Miracle Arena, Inc","1175 Boston Road","Bronx","NY","10456","2011-06-22T00:00:00.000","2021-7095","2021-11-03T00:00:00.000","2022-11-30T00:00:00.000","Active","Renew","2","40.828887","-73.903066","3","16","185","2004287","2026140043","Morrisania-Melrose","POINT (-73.903066 40.828887)"
"New Frontier Baptist Church","2132 Dean Street","Brooklyn","NY","11233","2008-05-19T00:00:00.000","2022-7356","2022-04-05T00:00:00.000","2023-04-30T00:00:00.000","Active","Renew","3","40.675094","-73.917382","16","41","303","3330719","3014460034","Ocean Hill","POINT (-73.917382 40.675094)"
"New Haven Ministries","130-05 101st Avenue","South Richmond","NY","11419","2016-05-04T00:00:00.000","2022-7396","2022-05-03T00:00:00.000","2023-05-31T00:00:00.000","Active","Renew","4","40.692539","-73.816921","9","28","154","4200225","4094760029","Richmond Hill","POINT (-73.816921 40.692539)"
"New Jerusalem Worship Center AKA New Jerusalem Bap","122-05 Smith Street","Jamaica","NY","11434","2017-02-21T00:00:00.000","2022-7272","2022-02-15T00:00:00.000","2023-02-28T00:00:00.000","Active","Renew","4","40.680008","-73.778612","12","27","284","4533226","4123810010","Baisley Park","POINT (-73.778612 40.680008)"
"New Life Apostolic Church","97 - 45 - 92nd Street","Ozone Park","NY","11416","2013-02-22T00:00:00.000","2022-7295","2022-03-03T00:00:00.000","2023-03-31T00:00:00.000","Active","Renew","4","40.684961","-73.849227","9","32","38","4188551","4090660040","Woodhaven","POINT (-73.849227 40.684961)"
"New Song Community Church","2230 8th Avenue","New York","NY","10027","2012-06-27T00:00:00.000","2022-7345","2022-03-28T00:00:00.000","2022-07-31T00:00:00.000","Active","Renew","1","40.807117","-73.953387","10","9","220","1058460","1019260001","Central Harlem South","POINT (-73.953387 40.807117)"
"New York  Bethzatha Church of God","208 - 01  43rd Ave","Bayside","NY","11361","2015-09-01T00:00:00.000","2021-6880","2021-06-18T00:00:00.000","2022-06-30T00:00:00.000","Active","Renew","4","40.75987","-73.775975","11","19","1467","4138097","4062720037","Bayside-Bayside Hills","POINT (-73.775975 40.75987)"
"New Zion Pilgrim Baptist Church","1040 Washington Avenue","Bronx","NY","10456","2011-05-20T00:00:00.000","2022-7422","2022-05-23T00:00:00.000","2023-03-31T00:00:00.000","Active","Replace","2","40.827171","-73.909175","3","16","185","2001257","2023700001","Morrisania-Melrose","POINT (-73.909175 40.827171)"
"No Limit Beulah Sabbath Pentecostal Church","5417 Avenue N","Brooklyn","NY","11234","2018-10-30T00:00:00.000","2022-7218","2022-01-11T00:00:00.000","2022-10-31T00:00:00.000","Active","Renew","3","40.619217","-73.922764","18","46","690","3345797","3078790003","Flatlands","POINT (-73.922764 40.619217)"
"Nurudeen Islamic Charity Organization of NY","3391 3rd Avenue","Bronx","NY","10456","2009-10-09T00:00:00.000","2021-6900","2021-07-02T00:00:00.000","2022-07-31T00:00:00.000","Active","Renew","2","40.828054","-73.907132","3","16","185","2124689","2023710057","Morrisania-Melrose","POINT (-73.907132 40.828054)"
"NY Central Korean Church of the Nazarene","61- 11 220 Street","Bayside","NY","11364","2021-09-17T00:00:00.000","2021-7020","2021-09-17T00:00:00.000","2022-09-30T00:00:00.000","Active","New","4","40.748415","-73.757809","11","23","1367","4162221","4076100071","Oakland Gardens","POINT (-73.757809 40.748415)"
"/NYC_OD/OPEN_DATA/scripts/file_geocoder.sh: line 104: cd: /home/fmeserver: No such file or directory",,"2022-07-03T07:02:31",,,,,,,,,,,,,,,,,,
"Otzar Hatorah","2409 Avenue U","Brooklyn","NY","11229","2017-08-24T00:00:00.000","2021-6949","2021-07-30T00:00:00.000","2022-08-31T00:00:00.000","Active","Renew","3","40.599833","-73.947396","15","48","576","3198574","3073290052","Madison","POINT (-73.947396 40.599833)"
"Our Lady Of Good Counsel Church","10 Austin Place","Staten Island","NY","10304","2017-01-13T00:00:00.000","2022-7257","2022-02-04T00:00:00.000","2023-01-31T00:00:00.000","Active","Renew","5","40.631913","-74.086708","1","49","33","5106887","5005800034","Grymes Hill-Clifton-Fox Hills","POINT (-74.086708 40.631913)"
"Our Lady Of Lebanon Maronite Catholic Cathedral","113 Remsen Street","Brooklyn","NY","11201","2015-10-19T00:00:00.000","2022-7351","2022-04-05T00:00:00.000","2023-04-30T00:00:00.000","Active","Renew","3","40.693909","-73.993823","2","33","502","3002075","3002490015","Brooklyn Heights-Cobble Hill","POINT (-73.993823 40.693909)"
"Our Lady of Perpetual Help Church","111- 50 115th Street","South Ozone Par","NY","11420","2020-03-09T00:00:00.000","2021-7134","2021-11-23T00:00:00.000","2022-11-30T00:00:00.000","Active","Renew","4","40.679252","-73.824565","10","28","102","4250284","4116190031","South Ozone Park","POINT (-73.824565 40.679252)"
"Our Lady Star of the Sea Church","5371 Amboy Road","Staten Island","NY","10312","2022-05-10T00:00:00.000","2022-7411","2022-05-10T00:00:00.000","2023-05-31T00:00:00.000","Active","New","5","40.533329","-74.188734","3","51","17005","5114315","5063320006","Annadale-Huguenot-Prince's Bay-Eltingville","POINT (-74.188734 40.533329)"
"Oversea Chinese Mission","154 Hester Street","New York","NY","10013","2008-05-20T00:00:00.000","2021-7019","2021-09-17T00:00:00.000","2022-09-30T00:00:00.000","Active","Renew","1","40.717656","-73.996526","2","1","41","1002618","1002040016","SoHo-TriBeCa-Civic Center-Little Italy","POINT (-73.996526 40.717656)"
"Paradise Baptist Church","23 Fort Washington Avenue","New York","NY","10032","2008-05-21T00:00:00.000","2021-6888","2021-07-01T00:00:00.000","2022-07-31T00:00:00.000","Active","Renew","1","40.835936","-73.944683","12","7","247","1063317","1021360053","Washington Heights South","POINT (-73.944683 40.835936)"
"Parish of Trinity Church, New York","76 Trinity Place","NewYork","NY","10006","2021-02-10T00:00:00.000","2022-7311","2022-03-07T00:00:00.000","2023-02-28T00:00:00.000","Active","Renew","1","40.708395","-74.012559","1","1","13","1001036","1000510007","Battery Park City-Lower Manhattan","POINT (-74.012559 40.708395)"
"Park Slope Baptist Church","251 12th Street","Brooklyn","NY","11215","2017-10-30T00:00:00.000","2022-7412","2022-05-11T00:00:00.000","2023-05-31T00:00:00.000","Active","Renew","3","40.667965","-73.988998","6","39","139","3332168","3010220066","Park Slope-Gowanus","POINT (-73.988998 40.667965)"
"Pentecostal Church Christ Followers","3291 3rd Avenue","Bronx","NY","10454","2008-05-21T00:00:00.000","2021-7151","2021-12-03T00:00:00.000","2022-12-31T00:00:00.000","Active","Renew","2","40.825507","-73.908144","3","17","185","2001244","2023690040","Morrisania-Melrose","POINT (-73.908144 40.825507)"
"Pentecostal Church ""El Eden""","105 Montrose Ave","Brooklyn","NY","11206","2014-04-24T00:00:00.000","2021-6876","2021-06-18T00:00:00.000","2022-06-30T00:00:00.000","Active","Renew","3","40.70712","-73.945501","1","34","505","3071095","3030510025","East Williamsburg","POINT (-73.945501 40.70712)"
"Pentecostal Church of God, IM, Exodus, Inc.","1664 Amsterdam Ave.","New York","NY","10031","2012-04-20T00:00:00.000","2022-7357","2022-04-05T00:00:00.000","2023-04-30T00:00:00.000","Active","Renew","1","40.823548","-73.948852","9","7","229","1061860","1020740032","Hamilton Heights","POINT (-73.948852 40.823548)"
"Pentecostal Church Of Jesus Christ","175 5th Avenue","Brooklyn","NY","11217","2013-03-11T00:00:00.000","2022-7290","2022-03-03T00:00:00.000","2023-03-31T00:00:00.000","Active","Renew","3","40.67734","-73.979818","6","39","131","3019586","3009500005","Park Slope-Gowanus","POINT (-73.979818 40.67734)"
"Pentecostal Church Of Jesus Christ, Inc.","21 Marcus Garvey Boulevard","Brooklyn","NY","11206","2016-07-18T00:00:00.000","2021-7015","2021-09-14T00:00:00.000","2022-07-31T00:00:00.000","Active","Renew","3","40.699032","-73.941245","3","36","28501","3042825","3015790006","Bushwick South","POINT (-73.941245 40.699032)"
"Pentecostal Church of Jesus Christ of Queens","128-05 Liberty Avenue","Richmond Hill","NY","11419","2008-05-21T00:00:00.000","2022-7327","2022-03-18T00:00:00.000","2023-01-31T00:00:00.000","Active","Renew","4","40.689045","-73.816956","10","28","15802","4203991","4095650037","South Ozone Park","POINT (-73.816956 40.689045)"
"Pentecostal Church Of The Garden Of Eden","870 Fairmount Place","Bronx","NY","10460","2017-01-26T00:00:00.000","2022-7195","2022-01-06T00:00:00.000","2023-01-31T00:00:00.000","Active","Renew","2","40.841614","-73.886849","6","17","36502","2010148","2029590043","East Tremont","POINT (-73.886849 40.841614)"
"Pentecostal Church The Light Of World Inc.","185 South 9th Street","Brooklyn","NY","11211","2014-03-14T00:00:00.000","2022-7305","2022-03-03T00:00:00.000","2023-03-31T00:00:00.000","Active","Renew","3","40.708447","-73.961705","1","34","525","3059635","3021390037","North Side-South Side","POINT (-73.961705 40.708447)"
"Pentecostal Evangelist Church Inc","415 53rd Street","Brooklyn","NY","11220","2018-03-08T00:00:00.000","2022-7303","2022-03-03T00:00:00.000","2023-03-31T00:00:00.000","Active","Renew","3","40.644428","-74.013708","7","38","76","3013935","3008070074","Sunset Park West","POINT (-74.013708 40.644428)"
"Pentecostal Temple of the Living God","1921 Walton Avenue","Bronx","NY","10453","2008-05-21T00:00:00.000","2021-6930","2021-07-30T00:00:00.000","2022-07-31T00:00:00.000","Active","Renew","2","40.850468","-73.908991","5","14","23301","2008256","2028530041","Mount Hope","POINT (-73.908991 40.850468)"
"Persian Cong. of Flatbush","1434 Ocean Parkway","Brooklyn","NY","11230","2008-05-21T00:00:00.000","2022-7397","2022-05-03T00:00:00.000","2023-05-31T00:00:00.000","Active","Renew","3","40.613609","-73.968481","12","44","440","3173771","3065870024","Ocean Parkway South","POINT (-73.968481 40.613609)"
"Pilgrim Congregational Church","102 -35 89th Avenue","Richmond Hill","NY","11418","2014-03-06T00:00:00.000","2022-7332","2022-03-18T00:00:00.000","2023-03-31T00:00:00.000","Active","Renew",,,,,,,,,,
"Powerhouse Ministries Inc.","1161 Boston Road","Bronx","NY","10456","2016-03-28T00:00:00.000","2022-7445","2022-05-31T00:00:00.000","2023-05-31T00:00:00.000","Active","Renew","2","40.828701","-73.903283","3","16","185","2004290","2026140052","Morrisania-Melrose","POINT (-73.903283 40.828701)"
"Power of God Cathedral","171-38 107th Avenue","Jamaica","NY","11433","2014-04-15T00:00:00.000","2022-7398","2022-05-03T00:00:00.000","2023-05-31T00:00:00.000","Active","Renew","4","40.70044","-73.784524","12","27","414","4218371","4102470052","South Jamaica","POINT (-73.784524 40.70044)"
"Primera Iglesia Bautista De Habla Espanola De Nuev","216 East 116th Street","New York","NY","10029","2011-11-09T00:00:00.000","2021-7029","2021-09-23T00:00:00.000","2022-09-30T00:00:00.000","Active","Renew","1","40.797691","-73.939435","11","8","188","1052549","1016650045","East Harlem North","POINT (-73.939435 40.797691)"
"Primera Iglesia Getsemani","193 Graham Avenue","Brooklyn","NY","11206","2015-08-12T00:00:00.000","2021-6978","2021-08-27T00:00:00.000","2022-08-31T00:00:00.000","Active","Renew","3","40.708675","-73.943433","1","34","505","3070976","3030430019","East Williamsburg","POINT (-73.943433 40.708675)"
"Prince of Peace Universal Tabernacle Church Inc.","555-557 West 182nd Street","New York","NY","10033","2012-04-02T00:00:00.000","2022-7385","2022-04-25T00:00:00.000","2023-04-30T00:00:00.000","Active","Renew","1","40.849502","-73.932354","12","10","269","1063665","1021540058","Washington Heights North","POINT (-73.932354 40.849502)"
"Purpose Life Church","4021 Flatlands Ave","Brooklyn","NY","11234","2017-05-09T00:00:00.000","2021-7053","2021-10-01T00:00:00.000","2022-10-31T00:00:00.000","Active","Renew","3","40.622405","-73.933574","18","45","736","3217295","3078220001","Flatlands","POINT (-73.933574 40.622405)"
"Queens Chinese Presbyterian Church","9854 Horace Harding Expy, 2nd Floor","New York","NY","11374","2019-03-01T00:00:00.000","2021-7166","2021-12-03T00:00:00.000","2022-08-31T00:00:00.000","Active","Replace","4","40.735151","-73.85961","6","29","71702","4050486","4020930040","Rego Park","POINT (-73.85961 40.735151)"
"Queens Tabernacle","86 03 96th Street","Woodhaven","NY","11421","2014-04-22T00:00:00.000","2022-7484","2022-06-29T00:00:00.000","2023-05-31T00:00:00.000","Active","Renew","4","40.69574","-73.849393","9","32","22","4182675","4088920090","Woodhaven","POINT (-73.849393 40.69574)"
"Rabbi Israel Meyer Hacohen Rabbinical Seminary Of","76.01 147th Street","Flushing","NY","11367","2017-01-26T00:00:00.000","2022-7196","2022-01-06T00:00:00.000","2023-01-31T00:00:00.000","Active","Renew",,,,,,,,,,
"Rabbinical Academy Mesivta Chaim Berlin","1585 Coney Island Avenue","Brooklyn","NY","11230","2017-02-23T00:00:00.000","2022-7240","2022-02-02T00:00:00.000","2023-02-28T00:00:00.000","Active","Renew","3","40.618888","-73.964048","14","44","768","3180580","3067310076","Midwood","POINT (-73.964048 40.618888)"
"Rabbinical Center of Manhattan Beach","112 Amherst Street","New York","NY","11235","2022-02-10T00:00:00.000","2022-7266","2022-02-10T00:00:00.000","2023-02-28T00:00:00.000","Active","New","3","40.578821","-73.952276","15","48","620","3246004","3087320070","Sheepshead Bay-Gerritsen Beach-Manhattan Beach","POINT (-73.952276 40.578821)"
"RCCG International Chapel Queens","155-08 Tuskegee Airmen Way","Jamaica","NY","11433","2011-03-30T00:00:00.000","2021-6922","2021-07-29T00:00:00.000","2022-09-30T00:00:00.000","Active","Renew","4","40.69706","-73.798967","12","28","254","4215717","4101230003","South Jamaica","POINT (-73.798967 40.69706)"
"Redeemer Lincoln Square","2 W 64th Street","New York","NY","10023","2021-10-06T00:00:00.000","2022-7219","2022-01-12T00:00:00.000","2023-01-31T00:00:00.000","Active","New","1","40.771298","-73.980021","7","6","149","1084533","1011160029","Lincoln Square","POINT (-73.980021 40.771298)"
"Redemption Church Of Christ Inc.","1252-54 Bedford Avenue","Brooklyn","NY","11216","2008-05-27T00:00:00.000","2021-6989","2021-09-01T00:00:00.000","2022-09-30T00:00:00.000","Active","Renew","3","40.681122","-73.953476","3","36","227","3057462","3020000031","Clinton Hill","POINT (-73.953476 40.681122)"
"Refuge Church of Christ","254 Greene Ave","Brooklyn","NY","11238","2018-02-01T00:00:00.000","2022-7320","2022-03-10T00:00:00.000","2023-02-28T00:00:00.000","Active","Renew","3","40.687268","-73.960932","2","35","231","3056261","3019660026","Clinton Hill","POINT (-73.960932 40.687268)"
"Refuge Church of God Inc.","595 Quincy St","Brooklyn","NY","11224","2011-10-19T00:00:00.000","2022-7238","2022-02-02T00:00:00.000","2023-01-31T00:00:00.000","Active","Renew","3","40.68875","-73.935178","3","36","291","3044290","3016250073","Stuyvesant Heights","POINT (-73.935178 40.68875)"
"Rego Park Jewish Center","97-30 Queens Blvd.","Rego Park","NY","11374","2016-02-08T00:00:00.000","2022-7207","2022-01-06T00:00:00.000","2023-01-31T00:00:00.000","Active","Renew","4","40.728991","-73.859284","6","29","69701","4072142","4030840014","Rego Park","POINT (-73.859284 40.728991)"
"ReHoboth Cathedral International","55 Macdougal Street","Brooklyn","NY","11233","2011-09-21T00:00:00.000","2021-7054","2021-10-01T00:00:00.000","2022-10-31T00:00:00.000","Active","Renew","3","40.679238","-73.920117","3","41","379","3041441","3015240041","Stuyvesant Heights","POINT (-73.920117 40.679238)"
"Rehoboth Christian Church, Inc.","164 E 118 Street","New York","NY","10035","2019-08-24T00:00:00.000","2021-6986","2021-09-01T00:00:00.000","2022-09-30T00:00:00.000","Active","Renew","1","40.799549","-73.939772","11","8","182","1052356","1016450045","East Harlem North","POINT (-73.939772 40.799549)"
"Rehoboth Open Bible Church","5102 Avenue D","Brooklyn","NY","11203","2008-05-27T00:00:00.000","2022-7330","2022-03-18T00:00:00.000","2023-03-31T00:00:00.000","Active","Renew","3","40.642197","-73.928193","17","45","846","3222020","3079270040","Rugby-Remsen Village","POINT (-73.928193 40.642197)"
"Resurrection Power and Living Bread International","585 E 163rd Street","BRONX","NY","10456","2020-08-10T00:00:00.000","2021-7176","2021-12-13T00:00:00.000","2022-12-31T00:00:00.000","Active","Renew","2","40.823913","-73.908081","3","16","185","2095399","2026210010","Morrisania-Melrose","POINT (-73.908081 40.823913)"
"Resurrection Sheepshead Bay","3076 Emmons Avenue","Brooklyn","NY","11229","2021-06-28T00:00:00.000","2021-7034","2021-09-29T00:00:00.000","2022-09-30T00:00:00.000","Active","New","3","40.583973","-73.936367","15","48","622","3248032","3088150065","Sheepshead Bay-Gerritsen Beach-Manhattan Beach","POINT (-73.936367 40.583973)"
"Ridgewood Presbyterian Church","59-14 70 Avenue","Ridgewood","NY","11385","2011-11-22T00:00:00.000","2022-7353","2022-04-05T00:00:00.000","2023-04-30T00:00:00.000","Active","Renew","4","40.701191","-73.900024","5","30","583","4084122","4035080009","Ridgewood","POINT (-73.900024 40.701191)"
"Rising Star Baptist Church","109-25 164th Street","Jamaica","NY","11433","2015-12-04T00:00:00.000","2021-7159","2021-12-03T00:00:00.000","2022-12-31T00:00:00.000","Active","Renew","4","40.694819","-73.788887","12","27","258","4216719","4101820018","South Jamaica","POINT (-73.788887 40.694819)"
"Riverdale Temple","4545 Independence Ave","Riverdale","NY","10471","2012-02-10T00:00:00.000","2021-7132","2021-11-23T00:00:00.000","2022-11-30T00:00:00.000","Active","Renew","2","40.891762","-73.912208","8","11","309","2088698","2059200456","North Riverdale-Fieldston-Riverdale","POINT (-73.912208 40.891762)"
"Rock Of Holiness Deliverance Faith Ministry Inc","2096 Nostrand Avenue","Brooklyn","NY","11210","2008-05-27T00:00:00.000","2021-6918","2021-07-29T00:00:00.000","2022-07-31T00:00:00.000","Active","Renew","3","40.634585","-73.947848","14","45","786","3121744","3052520070","Flatbush","POINT (-73.947848 40.634585)"
"Rugby Deliverance Tabernacle","4901 Snyder Avenue","Brooklyn","NY","11203","2008-05-28T00:00:00.000","2022-7343","2022-03-24T00:00:00.000","2023-03-31T00:00:00.000","Active","Renew","3","40.650065","-73.93106","17","45","860","3102843","3046970039","East Flatbush-Farragut","POINT (-73.93106 40.650065)"
"Saint Angela Merici Church","917 Morris Avenue","Bronx","NY","10451","2016-02-24T00:00:00.000","2022-7286","2022-03-03T00:00:00.000","2023-03-31T00:00:00.000","Active","Renew","2","40.826827","-73.917779","4","16","18302","2002474","2024450046","East Concourse-Concourse Village","POINT (-73.917779 40.826827)"
"Saint Nicholas Romanian Orthodox Church","45-03 48th Avenue","Woodside","NY","11377","2016-09-16T00:00:00.000","2021-6994","2021-09-01T00:00:00.000","2022-09-30T00:00:00.000","Active","Renew","4","40.739408","-73.920239","2","26","18502","4002055","4001700061","Hunters Point-Sunnyside-West Maspeth","POINT (-73.920239 40.739408)"
"Saint Paul Tabernacle Inc","2239 Pitkin Ave","Brooklyn","NY","11207","2018-02-23T00:00:00.000","2022-7399","2022-05-03T00:00:00.000","2023-05-31T00:00:00.000","Active","Renew","3","40.672801","-73.889785","5","37","1152","3088790","3039940031","East New York","POINT (-73.889785 40.672801)"
"Saint Spyridon Greek Orthodox Church","124 Wadsworth Avenue","New York","NY","10033","2017-10-26T00:00:00.000","2022-7319","2022-03-10T00:00:00.000","2023-01-31T00:00:00.000","Active","Renew","1","40.848741","-73.935777","12","10","263","1081877","1021630041","Washington Heights South","POINT (-73.935777 40.848741)"
"Salem Missionary Baptist Church","305 East 21st Street","Brooklyn","NY","11226","2010-10-18T00:00:00.000","2021-7125","2021-11-23T00:00:00.000","2022-11-30T00:00:00.000","Active","Renew","3","40.646969","-73.959348","14","40","51001","3117630","3051250001","Flatbush","POINT (-73.959348 40.646969)"
"Salvation Tabernacle Inc.","138-19 101 Avenue","Jamaica","NY","11435","2011-03-24T00:00:00.000","2022-7350","2022-04-05T00:00:00.000","2023-04-30T00:00:00.000","Active","Renew","4","40.694422","-73.810295","12","28","206","4214196","4100100024","Jamaica","POINT (-73.810295 40.694422)"
"Samadhi Chan Monastery Happy Buddhist Association","88-17 Justice Ave","Elmhurst","NY","11373","2015-12-13T00:00:00.000","2022-7229","2022-01-19T00:00:00.000","2023-01-31T00:00:00.000","Active","Renew","4","40.736871","-73.874985","4","25","473","4045394","4018400047","Elmhurst","POINT (-73.874985 40.736871)"
"Sea Of Galilee Pentecostal Temple, Inc.","166 Eldridge Street","New York","NY","10002","2014-12-09T00:00:00.000","2021-7143","2021-11-24T00:00:00.000","2022-12-31T00:00:00.000","Active","Renew","1","40.720066","-73.990978","3","1","18","1005480","1004150007","Chinatown","POINT (-73.990978 40.720066)"
"Second Canaan Baptist Church","12 Lenox Ave","New York","NY","10026","2011-07-01T00:00:00.000","2022-7224","2022-01-14T00:00:00.000","2023-01-31T00:00:00.000","Active","Renew","1","40.798696","-73.952104","10","9","186","1051406","1015940069","Central Harlem South","POINT (-73.952104 40.798696)"
"Second Evangelical Free Church","5201 8th Avenue","Brooklyn","NY","11220","2008-05-22T00:00:00.000","2022-7440","2022-05-24T00:00:00.000","2023-06-30T00:00:00.000","Active","Renew","3","40.639908","-74.004954","12","38","106","3138446","3056580008","Sunset Park East","POINT (-74.004954 40.639908)"
"Second St. John Baptist Church","141 West 118th Street","New York","NY","10026","2008-05-22T00:00:00.000","2022-7401","2022-05-03T00:00:00.000","2023-05-31T00:00:00.000","Active","Renew","1","40.803858","-73.949962","10","9","220","1057476","1019030011","Central Harlem South","POINT (-73.949962 40.803858)"
"Second St Paul Church of Christ Disciples of Chris","1048 Sutter Ave","Brooklyn","NY","11208","2019-04-27T00:00:00.000","2022-7289","2022-03-03T00:00:00.000","2023-03-31T00:00:00.000","Active","Renew","3","40.671608","-73.880036","5","42","1164","3089852","3040530020","East New York","POINT (-73.880036 40.671608)"
"Sephardic Institute Synagogue","511 Avenue R","Brooklyn","NY","11223","2010-01-22T00:00:00.000","2022-7197","2022-01-06T00:00:00.000","2023-01-31T00:00:00.000","Active","Renew","3","40.604671","-73.967923","15","44","41402","3253638","3066810394","Homecrest","POINT (-73.967923 40.604671)"
"SHAARE RACHAMIM congregation INC","2592 Ocean Ave.","Brooklyn","NY","11229","2021-02-15T00:00:00.000","2022-7483","2022-06-29T00:00:00.000","2023-05-31T00:00:00.000","Active","Renew","3","40.598303","-73.951214","15","48","578","3199764","3073520027","Madison","POINT (-73.951214 40.598303)"
"Shaw African Methodist Episcopal Zion Church","100-05 34th Avenue","Corona","NY","11368","2012-12-31T00:00:00.000","2022-7349","2022-04-04T00:00:00.000","2023-01-31T00:00:00.000","Active","Renew","4","40.755532","-73.86797","3","21","377","4042528","4017150045","North Corona","POINT (-73.86797 40.755532)"
"Shiv Shakti Peeth Inc","264-12 Hillside Ave.","Glen Oaks","NY","11004","2008-10-10T00:00:00.000","2021-7158","2021-12-03T00:00:00.000","2022-12-31T00:00:00.000","Active","Renew","4","40.738162","-73.704422","13","23","157903","4179985","4087940022","Glen Oaks-Floral Park-New Hyde Park","POINT (-73.704422 40.738162)"
"Shore Park Jewish Center","2959 Avenue Y","Brooklyn","NY","11235","2008-05-22T00:00:00.000","2022-7212","2022-01-06T00:00:00.000","2022-11-30T00:00:00.000","Active","Renew","3","40.591847","-73.938808","15","48","596","3203616","3074230038","Sheepshead Bay-Gerritsen Beach-Manhattan Beach","POINT (-73.938808 40.591847)"
"Shower of Grace Faith Bible Church Inc","163-16 Pidgeon Meadow Road","Flushing","NY","11358","2021-10-13T00:00:00.000","2021-7147","2021-11-30T00:00:00.000","2022-11-30T00:00:00.000","Active","New","4","40.75112","-73.803485","7","20","1207","4124181","4054930039","East Flushing","POINT (-73.803485 40.75112)"
"Shree Sundar Gopal Mandir Inc.","97-53 104th Street","Ozone Park","NY","11416","2017-03-22T00:00:00.000","2022-7400","2022-05-03T00:00:00.000","2023-03-31T00:00:00.000","Active","Renew","4","40.687649","-73.839737","9","28","116","4197792","4094060137","Richmond Hill","POINT (-73.839737 40.687649)"
"Shri Radhe Govinda Mandir","184-01 Jamaica Avenue","Hollis","NY","11423","2013-02-25T00:00:00.000","2022-7308","2022-03-03T00:00:00.000","2023-03-31T00:00:00.000","Active","Renew","4","40.709166","-73.775875","12","27","470","4211977","4099050033","Jamaica","POINT (-73.775875 40.709166)"
"Sikh Cultural Society","9530 118th Street","Richmond Hill","NY","11419","2015-04-27T00:00:00.000","2022-7471","2022-06-10T00:00:00.000","2023-06-30T00:00:00.000","Active","Renew",,"40.691927","-73.827953","9","28","120",,,"Richmond Hill","POINT (-73.827953 40.691927)"
"Society for the Advancement of Judaism","15 West 86th Street","New York","NY","10024","2008-05-22T00:00:00.000","2022-7227","2022-01-19T00:00:00.000","2022-08-31T00:00:00.000","Active","Renew","1","40.785662","-73.97019","7","6","173","1031406","1012000023","Upper West Side","POINT (-73.97019 40.785662)"
"SOUTH BROOKLYN SDA CHURCH","42 PROSPECT PLACE","BROOKLYN","NY","11217","2011-07-11T00:00:00.000","2022-7414","2022-05-11T00:00:00.000","2023-03-31T00:00:00.000","Active","Renew","3","40.679754","-73.976421","6","39","12902","3018870","3009380026","Park Slope-Gowanus","POINT (-73.976421 40.679754)"
"Spirit of Brotherhood Church/Iglesia  Carismatica","167 South 1st Street","Brooklyn","NY","11211","2016-03-22T00:00:00.000","2021-7055","2021-10-01T00:00:00.000","2022-10-31T00:00:00.000","Active","Renew","3","40.71364","-73.960945","1","34","551","3330012","3023930019","North Side-South Side","POINT (-73.960945 40.71364)"
"St. Albans Gospel Assembly Inc","200-25/27 Linden Boulevard","St. Albans","NY","11412","2008-05-22T00:00:00.000","2021-6920","2021-07-29T00:00:00.000","2022-07-31T00:00:00.000","Active","Renew",,,,,,,,,,
"St. Ann's and St. Lucy Church","312 East 110th Street","New York","NY","10029","2013-01-24T00:00:00.000","2022-7259","2022-02-04T00:00:00.000","2023-02-28T00:00:00.000","Active","Renew","1","40.792946","-73.94001","11","8","180","1052848","1016810045","East Harlem North","POINT (-73.94001 40.792946)"
"St. Athanasius Church","2154 61st Street","Brooklyn","NY","11204","2020-01-10T00:00:00.000","2022-7202","2022-01-06T00:00:00.000","2023-01-31T00:00:00.000","Active","Renew","3","40.616743","-73.980099","11","47","246","3132668","3055290033","Borough Park","POINT (-73.980099 40.616743)"
"St. Barnabas Episcopal Church","417 Elton Street","Brooklyn","NY","11208","2008-05-23T00:00:00.000","2022-7324","2022-03-14T00:00:00.000","2023-12-31T00:00:00.000","Active","Renew","3","40.672937","-73.88318","5","37","1166","3089241","3040180033","East New York","POINT (-73.88318 40.672937)"
"St. Bartholomew's Church","1227 Pacific Street","Brooklyn","NY","11216","2008-05-23T00:00:00.000","2022-7402","2022-05-03T00:00:00.000","2023-05-31T00:00:00.000","Active","Renew","3","40.677803","-73.95205","8","36","315","3029757","3012000016","Crown Heights North","POINT (-73.95205 40.677803)"
"St. Boniface Church","190 Duffield Street","Brooklyn","NY","11201","2012-01-28T00:00:00.000","2022-7419","2022-05-20T00:00:00.000","2023-05-31T00:00:00.000","Active","New","3","40.692667","-73.984324","2","33","15","3340441","3020580038","DUMBO-Vinegar Hill-Downtown Brooklyn-Boerum Hill","POINT (-73.984324 40.692667)"
"St. Catherine of Genoa Church","506 West 153rd Street","New York","NY","10031","2008-05-23T00:00:00.000","2022-7233","2022-01-25T00:00:00.000","2023-01-31T00:00:00.000","Active","Renew","1","40.830485","-73.944457","9","7","237","1062236","1020840039","Hamilton Heights","POINT (-73.944457 40.830485)"
"St. Charles Borromeo Church","1 Aitken Place","Brooklyn","NY","11201","2008-05-23T00:00:00.000","2022-7200","2022-01-06T00:00:00.000","2023-01-31T00:00:00.000","Active","Renew","3","40.692402","-73.994306","2","33","7","3002531","3002640001","Brooklyn Heights-Cobble Hill","POINT (-73.994306 40.692402)"
"St. Columba's Catholic Church","343 West 25th Street","New York","NY","10001","2013-04-23T00:00:00.000","2022-7403","2022-05-03T00:00:00.000","2023-05-31T00:00:00.000","Active","Renew","1","40.747261","-73.999159","4","3","93","1068012","1007490015","Hudson Yards-Chelsea-Flatiron-Union Square","POINT (-73.999159 40.747261)"
"St. David's Episcopal Church","384 East 160th Street","Bronx","NY","10451","2016-04-13T00:00:00.000","2022-7364","2022-04-06T00:00:00.000","2023-04-30T00:00:00.000","Active","Renew","2","40.823731","-73.91469","3","17","141","2001778","2024060016","Morrisania-Melrose","POINT (-73.91469 40.823731)"
"St. Demetrios Cathedral","30-11 30th Drive","Astoria","NY","11102","2008-05-23T00:00:00.000","2021-6861","2021-06-18T00:00:00.000","2022-06-30T00:00:00.000","Active","Renew","4","40.765527","-73.923356","1","22","63","4441083","4005930001","Astoria","POINT (-73.923356 40.765527)"
"St. Demetrios Greek Orthodox Church","84-35 152nd Street","Jamaica","NY","11432","2008-05-23T00:00:00.000","2022-7366","2022-04-11T00:00:00.000","2023-04-30T00:00:00.000","Active","Renew","4","40.713072","-73.807973","8","24","230","4208741","4097490036","Briarwood-Jamaica Hills","POINT (-73.807973 40.713072)"
"St. Dumitru Romanian Orthodox Church","50 West 89th Street","New York","NY","10024","2008-05-23T00:00:00.000","2021-7056","2021-10-01T00:00:00.000","2022-10-31T00:00:00.000","Active","Renew","1","40.787943","-73.969662","7","6","173","1031527","1012020052","Upper West Side","POINT (-73.969662 40.787943)"
"St. Edmund's Episcopal Church","1905 Morris Avenue","Bronx","NY","10453","2011-03-15T00:00:00.000","2022-7360","2022-04-05T00:00:00.000","2023-04-30T00:00:00.000","Active","Renew","2","40.849902","-73.907951","5","14","23301","2109804","2028280037","Mount Hope","POINT (-73.907951 40.849902)"
"Steinway Reformed Church","41-01 Ditmars Ave","Astoria","NY","11105","2014-12-15T00:00:00.000","2022-7341","2022-03-22T00:00:00.000","2023-03-31T00:00:00.000","Active","Renew",,,,,,,,,,
"St. Eleftherios Greek Orthodox Church","359 W 24th Street","New York","NY","10011","2019-12-12T00:00:00.000","2022-7211","2022-01-06T00:00:00.000","2022-12-31T00:00:00.000","Active","Renew","1","40.74683","-74.000426","4","3","93","1013457","1007480005","Hudson Yards-Chelsea-Flatiron-Union Square","POINT (-74.000426 40.74683)"
"St. Ephrem Roman Catholic Church","929 Bay Ridge Parkway","Brooklyn","NY","11228","2014-08-26T00:00:00.000","2021-7106","2021-11-05T00:00:00.000","2022-10-31T00:00:00.000","Active","Renew","3","40.625283","-74.015652","10","43","206","3148497","3059340070","Dyker Heights","POINT (-74.015652 40.625283)"
"St. George's Church (Episcopal)","135-32 38th Avenue","Flushing","NY","11354","2008-05-27T00:00:00.000","2021-7008","2021-09-14T00:00:00.000","2022-07-31T00:00:00.000","Active","Renew","4","40.760399","-73.831899","7","20","871","4112307","4049750001","Flushing","POINT (-73.831899 40.760399)"
"St. Helen Roman Catholic Church","157-10 83rd Street","Howard Beach","NY","11414","2008-05-27T00:00:00.000","2021-6948","2021-07-30T00:00:00.000","2022-08-31T00:00:00.000","Active","Renew","4","40.660805","-73.849973","10","32","892","4438970","4139620060","Lindenwood-Howard Beach","POINT (-73.849973 40.660805)"
"St. James Episcopal Church","8407 Broadway","Elmhurst","NY","11373","2014-06-17T00:00:00.000","2021-6909","2021-07-02T00:00:00.000","2022-07-31T00:00:00.000","Active","Renew","4","40.739836","-73.878368","4","25","471","4039452","4015820001","Elmhurst","POINT (-73.878368 40.739836)"
"St. Jerome's Roman Catholic Church","1900 Nostrand Avenue","Brooklyn","NY","11226","2008-05-27T00:00:00.000","2021-7057","2021-10-01T00:00:00.000","2022-10-31T00:00:00.000","Active","Renew",,"40.639295","-73.948349","17","45","828",,,"Erasmus","POINT (-73.948349 40.639295)"
"St. John Baptist Church","74-05 Rockaway Beach Blvd.","Arverne","NY","11692","2018-08-03T00:00:00.000","2021-6951","2021-07-30T00:00:00.000","2022-08-31T00:00:00.000","Active","Renew","4","40.588816","-73.802155","14","32","94203","4303593","4161280050","Hammels-Arverne-Edgemere","POINT (-73.802155 40.588816)"
"St. John's Evangelical Lutheran Church","155 Milton Street, P O Box 72","Brooklyn","NY","11222","2015-09-16T00:00:00.000","2021-7058","2021-10-01T00:00:00.000","2022-10-31T00:00:00.000","Active","Renew",,,,,,,,,,
"St. John-St. Matthew-Emanuel Lutheran Church","283 Prospect Ave.","Brooklyn","NY","11215","2015-04-13T00:00:00.000","2022-7384","2022-04-25T00:00:00.000","2023-04-30T00:00:00.000","Active","Renew","3","40.663323","-73.989165","7","39","141","3337801","3010530073","Park Slope-Gowanus","POINT (-73.989165 40.663323)"
"St. Kevin RC Church","4521 194th Street","Flushing","NY","11358","2013-10-23T00:00:00.000","2021-7059","2021-10-01T00:00:00.000","2022-10-31T00:00:00.000","Active","Renew","4","40.755222","-73.787256","11","19","145101","4125018","4055360001","Auburndale","POINT (-73.787256 40.755222)"
"St. Luke Baptist Church","103-101 Morningside Avenue","New York","NY","10025","2022-01-21T00:00:00.000","2022-7236","2022-02-02T00:00:00.000","2023-02-28T00:00:00.000","Active","New","1","40.810209","-73.954848","9","9","20901","1084058","1019500001","Morningside Heights","POINT (-73.954848 40.810209)"
"St. Luke Christian Church","26 Rockaway Avenue","Brooklyn","NY","11233","2008-05-27T00:00:00.000","2021-7096","2021-11-03T00:00:00.000","2022-11-30T00:00:00.000","Active","Renew","3","40.682841","-73.911755","16","41","373","3040954","3015110036","Ocean Hill","POINT (-73.911755 40.682841)"
"St. Luke F. B. H. Church","19 Brooklyn Ave","Brooklyn","NY","11216","2017-09-21T00:00:00.000","2021-6904","2021-07-02T00:00:00.000","2022-07-31T00:00:00.000","Active","Renew","3","40.679449","-73.944027","3","36","271","3053788","3018630001","Crown Heights North","POINT (-73.944027 40.679449)"
"St. Lukes's Episcopal Church","777 East 222nd Street","Bronx","NY","10467","2019-12-19T00:00:00.000","2021-7155","2021-12-03T00:00:00.000","2022-12-31T00:00:00.000","Active","Renew","2","40.885043","-73.859564","12","12","396","2087706","2048360007","Williamsbridge-Olinville","POINT (-73.859564 40.885043)"
"St. Marks Holy Tabernacle","901 East Tremont Avenue","Bronx","NY","10460","2015-08-24T00:00:00.000","2021-7173","2021-12-09T00:00:00.000","2022-09-30T00:00:00.000","Active","Renew","2","40.84221","-73.884611","6","17","363","2113796","2031210033","East Tremont","POINT (-73.884611 40.84221)"
"St. Mark's United Methodist Church","2017 Beverly Road","Brooklyn","NY","11226","2016-08-24T00:00:00.000","2021-7060","2021-10-01T00:00:00.000","2022-10-31T00:00:00.000","Active","Renew","3","40.644891","-73.959742","14","40","51001","3117629","3051240057","Flatbush","POINT (-73.959742 40.644891)"
"St. Mary Magdalen Orthodox Church","70 West 107th Street","New York","NY","10025","2008-05-28T00:00:00.000","2021-6935","2021-07-30T00:00:00.000","2022-07-31T00:00:00.000","Active","Renew","1","40.799622","-73.961704","7","7","193","1087196","1018427503","Morningside Heights","POINT (-73.961704 40.799622)"
"St. Mary Protectress","97-06 87th Street","Ozone Park","NY","11416","2010-01-22T00:00:00.000","2022-7404","2022-05-03T00:00:00.000","2023-05-31T00:00:00.000","Active","Renew","4","40.683726","-73.85352","9","32","42","4188321","4090580005","Woodhaven","POINT (-73.85352 40.683726)"
"St. Mary's Orthodox Church","8005 Ridge Boulevard","Brooklyn","NY","11209","2008-05-28T00:00:00.000","2022-7189","2022-01-06T00:00:00.000","2023-01-31T00:00:00.000","Active","Renew","3","40.62834","-74.031998","10","43","64","3151231","3059870008","Bay Ridge","POINT (-74.031998 40.62834)"
"St. Matthew's Baptist Church","43 Macombs Place","New York","NY","10039","2013-10-21T00:00:00.000","2022-7479","2022-06-28T00:00:00.000","2023-06-30T00:00:00.000","Active","Renew","1","40.826406","-73.938332","10","9","236","1060605","1020370005","Central Harlem North-Polo Grounds","POINT (-73.938332 40.826406)"
"St Matthias RC Church","58-15 Catalpa Avenue","Ridgewood","NY","11385","2017-07-28T00:00:00.000","2021-6979","2021-08-27T00:00:00.000","2022-08-31T00:00:00.000","Active","Renew","4","40.701737","-73.902465","5","34","551","4445472","4034730061","Ridgewood","POINT (-73.902465 40.701737)"
"St. Michael's Roman Catholic Church","352 42nd Street","Brooklyn","NY","11232","2022-04-11T00:00:00.000","2022-7379","2022-04-14T00:00:00.000","2023-04-30T00:00:00.000","Active","New","3","40.651493","-74.008837","7","38","82","3010822","3007230028","Sunset Park West","POINT (-74.008837 40.651493)"
"St. Nicholas Antiochian Orthodox Cathedral","355 State Street","Brooklyn","NY","11217","2008-05-28T00:00:00.000","2022-7225","2022-01-19T00:00:00.000","2022-11-30T00:00:00.000","Active","Renew","3","40.68779","-73.984953","2","33","41","3000543","3001710039","DUMBO-Vinegar Hill-Downtown Brooklyn-Boerum Hill","POINT (-73.984953 40.68779)"
"St. Nicholas Cathedral","15 E 97th St.","New York","NY","10029","2018-04-20T00:00:00.000","2022-7374","2022-04-14T00:00:00.000","2023-04-30T00:00:00.000","Active","Renew","1","40.788187","-73.954322","11","4","16002","1081331","1016030011","East Harlem South","POINT (-73.954322 40.788187)"
"St. Paul's Church Of The Nazarene","304 Monroe Street","Brooklyn","NY","11216","2008-05-28T00:00:00.000","2021-6938","2021-07-30T00:00:00.000","2022-08-31T00:00:00.000","Active","Renew","3","40.685926","-73.946553","3","36","265","3051456","3018190012","Bedford","POINT (-73.946553 40.685926)"
"St. Paul's Episcopal /Angelican Church","489 St. Paul's Place","Bronx","NY","10456","2015-11-11T00:00:00.000","2022-7368","2022-04-11T00:00:00.000","2023-03-31T00:00:00.000","Active","Renew","2","40.836098","-73.903825","3","16","14702","2009542","2029110030","Claremont-Bathgate","POINT (-73.903825 40.836098)"
"St. Paul & St. Andrew United Methodist Church","263 W 86th St","New York","NY","10024","2018-07-11T00:00:00.000","2021-6975","2021-08-27T00:00:00.000","2022-08-31T00:00:00.000","Active","Renew","1","40.788672","-73.977332","7","6","175","1033195","1012347502","Upper West Side","POINT (-73.977332 40.788672)"
"St. Peter's Episcopal Church","346 W. 20th St.","New York","NY","10011","2019-11-24T00:00:00.000","2021-7161","2021-12-03T00:00:00.000","2022-12-31T00:00:00.000","Active","Renew","1","40.74399","-74.001213","4","3","89","1013234","1007430072","Hudson Yards-Chelsea-Flatiron-Union Square","POINT (-74.001213 40.74399)"
"St. Peter's Episcopal Church","137-28 244th Street","Rosedale","NY","11422","2018-10-25T00:00:00.000","2021-7133","2021-11-23T00:00:00.000","2022-11-30T00:00:00.000","Active","Renew","4","40.667955","-73.733041","13","31","638","4284509","4132410043","Rosedale","POINT (-73.733041 40.667955)"
"St. Stephen Church Inc","199 Edgecombe Avenue","New York","NY","10030","2008-05-29T00:00:00.000","2022-7405","2022-05-03T00:00:00.000","2023-05-31T00:00:00.000","Active","Renew","1","40.822681","-73.944315","9","9","227","1061069","1020510074","Hamilton Heights","POINT (-73.944315 40.822681)"
"St. Thomas Protestant Episcopal Church","1405 Bushwick Avenue","Brooklyn","NY","11207","2014-08-06T00:00:00.000","2021-7131","2021-11-23T00:00:00.000","2022-11-30T00:00:00.000","Active","Renew","3","40.684665","-73.909632","4","37","403","3326473","3034390003","Bushwick South","POINT (-73.909632 40.684665)"
"Sunnyside Congregation of Jehovah's Witnesses","48-18 69th Street","Woodside","NY","11377","2017-12-30T00:00:00.000","2022-7441","2022-05-24T00:00:00.000","2023-06-30T00:00:00.000","Active","Renew","4","40.738157","-73.89592","2","30","243","4056263","4024290054","Elmhurst-Maspeth","POINT (-73.89592 40.738157)"
"Sunset Park Community Church/Salem Gospel Tabernac","5324 4th Avenue","Brooklyn","NY","11220","2010-01-22T00:00:00.000","2021-7061","2021-10-01T00:00:00.000","2022-10-31T00:00:00.000","Active","Renew","3","40.644614","-74.014518","7","38","76","3014205","3008140045","Sunset Park West","POINT (-74.014518 40.644614)"
"Sutton Place Synagogue","225 East 51st Street","New York","NY","10022","2010-01-22T00:00:00.000","2022-7462","2022-06-08T00:00:00.000","2023-06-30T00:00:00.000","Active","Renew","1","40.756156","-73.969586","6","4","98","1038467","1013250015","Turtle Bay-East Midtown","POINT (-73.969586 40.756156)"
"Tabernaculo New York Revelation","38-01 58th Street","Flushing","NY","11377","2021-11-04T00:00:00.000","2022-7465","2022-06-08T00:00:00.000","2023-06-30T00:00:00.000","Active","New","4","40.74832","-73.905154","2","26","259","4027691","4012130012","Woodside","POINT (-73.905154 40.74832)"
"Templo De La Fe Viva. Inc.","4221 Park Avenue","Bronx","NY","10457","2016-03-21T00:00:00.000","2021-6910","2021-07-02T00:00:00.000","2022-07-31T00:00:00.000","Active","Renew","2","40.847984","-73.899156","6","15","379","2011095","2030270041","Mount Hope","POINT (-73.899156 40.847984)"
"Tenth Street Church Of Christ","257 East 10th Street","New York","NY","10009","2013-04-19T00:00:00.000","2022-7354","2022-04-05T00:00:00.000","2023-04-30T00:00:00.000","Active","Renew","1","40.72847","-73.983692","3","2","34","1005961","1004380049","East Village","POINT (-73.983692 40.72847)"
"The Bethelship Norwegian United Methodist Church","5523 4th Avenue","Brooklyn","NY","11220","2017-08-02T00:00:00.000","2021-7014","2021-09-14T00:00:00.000","2022-08-31T00:00:00.000","Active","Renew","3","40.643492","-74.01566","7","38","76","3014934","3008310001","Sunset Park West","POINT (-74.01566 40.643492)"
"The Brooklyn Tabernacle","17 Smith Street","Brooklyn","NY","11201","2014-06-04T00:00:00.000","2021-6977","2021-08-27T00:00:00.000","2022-08-31T00:00:00.000","Active","Renew","3","40.690979","-73.987599","2","33","37","3335898","3001550005","DUMBO-Vinegar Hill-Downtown Brooklyn-Boerum Hill","POINT (-73.987599 40.690979)"
"The Central Islamic Organization of New York, Inc.","130-08 Rockaway Blvd.","South Ozone Par","NY","11420","2016-03-03T00:00:00.000","2021-7017","2021-09-17T00:00:00.000","2022-08-31T00:00:00.000","Active","Renew","4","40.674969","-73.80831","10","28","818","4254932","4117540052","South Ozone Park","POINT (-73.80831 40.674969)"
"The Cham Presbyterian Church of New York","199-03 32nd Ave","Bayside","NY","11358","2019-11-15T00:00:00.000","2021-7098","2021-11-03T00:00:00.000","2022-11-30T00:00:00.000","Active","Renew","4","40.7695","-73.790044","11","19","1085","4134013","4060220022","Bayside-Bayside Hills","POINT (-73.790044 40.7695)"
"The Christian Community","309 West 74th Street","New York","NY","10023","2008-04-29T00:00:00.000","2021-7118","2021-11-22T00:00:00.000","2022-10-31T00:00:00.000","Active","Renew","1","40.781273","-73.983841","7","6","163","1031004","1011840071","Upper West Side","POINT (-73.983841 40.781273)"
"The Church of Gethsemane","1012 8th Avenue","Brooklyn","NY","11215","2016-06-07T00:00:00.000","2021-6894","2021-07-01T00:00:00.000","2022-07-31T00:00:00.000","Active","Renew","3","40.665018","-73.979847","6","39","151","3412951","3010940041","Park Slope-Gowanus","POINT (-73.979847 40.665018)"
"The Church of St. Edward the Martyr","14 East 109th Street","New York","NY","10029","2018-09-11T00:00:00.000","2022-7461","2022-06-08T00:00:00.000","2023-06-30T00:00:00.000","Active","Renew","1","40.795958","-73.949108","11","9","17401","1051593","1016140064","East Harlem South","POINT (-73.949108 40.795958)"
"The Church Of The Redeemer","30-14 Crescent Street","Astoria","NY","11102","2010-09-07T00:00:00.000","2022-7444","2022-05-25T00:00:00.000","2022-11-30T00:00:00.000","Active","Replace","4","40.768251","-73.925266","1","22","73","4006779","4005720044","Old Astoria","POINT (-73.925266 40.768251)"
"The Church Of The Village","201 West 13th Street","New York","NY","10011","2015-09-10T00:00:00.000","2021-7169","2021-12-07T00:00:00.000","2022-09-30T00:00:00.000","Active","Replace","1","40.738001","-74.000476","2","3","77","1011113","1006180040","West Village","POINT (-74.000476 40.738001)"
"The Evangelical Lutheran Church Of The Resurrectio","189-20 114th Road","St. Albans","NY","11412","2013-05-29T00:00:00.000","2021-6858","2021-06-18T00:00:00.000","2022-06-30T00:00:00.000","Active","Renew","4","40.697533","-73.763645","12","27","400","4221225","4103940007","St. Albans","POINT (-73.763645 40.697533)"
"The First Chinese Baptist Church","21 Pell Street","New York","NY","10013","2008-05-07T00:00:00.000","2022-7369","2022-04-11T00:00:00.000","2023-04-30T00:00:00.000","Active","Renew","1","40.714843","-73.998175","3","1","29","1001699","1001620024","Chinatown","POINT (-73.998175 40.714843)"
"The Full Gospel First Church of NY","41- 15 150 Street","Flushing","NY","11355","2019-08-28T00:00:00.000","2021-6953","2021-08-02T00:00:00.000","2022-08-31T00:00:00.000","Active","Renew","4","40.762284","-73.813765","7","20","1167","4114915","4050580013","Murray Hill","POINT (-73.813765 40.762284)"
"The Good Shepherd Spiritual Baptist Church Inc","2050 Nostrand Avenue","Brooklyn","NY","11210","2011-11-18T00:00:00.000","2021-7123","2021-11-23T00:00:00.000","2022-11-30T00:00:00.000","Active","Renew","3","40.635398","-73.947934","14","45","786","3121733","3052520050","Flatbush","POINT (-73.947934 40.635398)"
"The Islamic Center of Queens New York","57 -16  37th Avenue","Woodside","NY","11377","2014-06-18T00:00:00.000","2021-6875","2021-06-18T00:00:00.000","2022-06-30T00:00:00.000","Active","Renew",,,,,,,,,,
"The New Move of God Pentecostal Church","327 Bolton Avenue","Bronx","NY","10473","2018-04-11T00:00:00.000","2022-7442","2022-05-24T00:00:00.000","2023-06-30T00:00:00.000","Active","Renew","2","40.812152","-73.857005","9","18","2","2020480","2034730049","Soundview-Castle Hill-Clason Point-Harding Park","POINT (-73.857005 40.812152)"
"Theotokos Unexpected Joy Church At St. Markella Ca","2268 26th Street","Astoria","NY","11105","2015-12-10T00:00:00.000","2022-7215","2022-01-10T00:00:00.000","2023-01-31T00:00:00.000","Active","Renew","4","40.776901","-73.915468","1","22","101","4432126","4008660059","Steinway","POINT (-73.915468 40.776901)"
"The Park Avenue Christian Church","1010 Park Ave","New York","NY","10028","2020-06-16T00:00:00.000","2021-7062","2021-10-01T00:00:00.000","2022-10-31T00:00:00.000","Active","Renew","1","40.779304","-73.957852","8","4","15001","1046823","1014967502","Upper East Side-Carnegie Hill","POINT (-73.957852 40.779304)"
"The Redeemed Christian Church of God (Chapel of Ho","323/ 325 Rockaway Avenue","Brooklyn","NY","11233","2020-10-06T00:00:00.000","2022-7315","2022-03-08T00:00:00.000","2023-02-28T00:00:00.000","Active","Renew",,,,,,,,,,
"The Reform Temple of Forest HIlls","71-11 112th Street","Forest Hills","NY","11375","2011-02-17T00:00:00.000","2022-7256","2022-02-03T00:00:00.000","2023-02-28T00:00:00.000","Active","Renew","4","40.722669","-73.839152","6","29","75702","4052694","4022460031","Forest Hills","POINT (-73.839152 40.722669)"
"The Remnant Presbyterian Church","206 East 29TH Street","New York","NY","10016","2011-10-13T00:00:00.000","2021-7063","2021-10-01T00:00:00.000","2022-10-31T00:00:00.000","Active","Renew","1","40.742399","-73.979986","6","2","66","1019909","1009090050","Murray Hill-Kips Bay","POINT (-73.979986 40.742399)"
"The Seokwang Korean Presbyterian Church of New Yor","3705 54th Street","Woodside","NY","11377","2015-08-31T00:00:00.000","2022-7273","2022-02-17T00:00:00.000","2023-02-28T00:00:00.000","Active","Renew","4","40.750955","-73.907936","2","26","255","4027622","4012090001","Woodside","POINT (-73.907936 40.750955)"
"The United Methodist Church of Richmond Hill","112-14 107th Avenue","South Richmond","NY","11419","2017-03-01T00:00:00.000","2022-7298","2022-03-03T00:00:00.000","2023-03-31T00:00:00.000","Active","Renew","4","40.682778","-73.828882","10","28","100","4203386","4095500001","South Ozone Park","POINT (-73.828882 40.682778)"
"The Universal Church Inc.","612 West 180 St","New York","NY","10033","2017-10-18T00:00:00.000","2022-7186","2022-01-05T00:00:00.000","2022-12-31T00:00:00.000","Active","Renew","1","40.84882","-73.934718","12","10","263","1063897","1021620033","Washington Heights South","POINT (-73.934718 40.84882)"
"The Universal Church Inc.","47 4th Avenue","Brooklyn","NY","11217","2018-01-29T00:00:00.000","2022-7301","2022-03-03T00:00:00.000","2023-03-31T00:00:00.000","Active","Renew","3","40.682955","-73.97929","6","39","12901","3018411","3009300003","Park Slope-Gowanus","POINT (-73.97929 40.682955)"
"Three Angels Gospel Adventist Ministries, Inc","599 Hageman Avenue","Brooklyn","NY","11208","2013-06-03T00:00:00.000","2022-7476","2022-06-27T00:00:00.000","2023-06-30T00:00:00.000","Active","Renew",,,,,,,,,,
"Tian Fu United Methodist Church","4616 4th Ave","Brooklyn","NY","11220","2017-11-25T00:00:00.000","2021-7162","2021-12-03T00:00:00.000","2022-12-31T00:00:00.000","Active","Renew","3","40.648565","-74.010407","7","38","80","3011823","3007550045","Sunset Park West","POINT (-74.010407 40.648565)"
"Tomchei Torah of New York","1966 Ocean Ave","Brooklyn","NY","11230","2015-10-14T00:00:00.000","2021-7105","2021-11-03T00:00:00.000","2022-11-30T00:00:00.000","Active","Renew","3","40.61423","-73.954232","14","48","546","3181618","3067570045","Midwood","POINT (-73.954232 40.61423)"
"Trinity Baptist Church","179 New York Avenue","Brooklyn","NY","11216","2012-06-01T00:00:00.000","2022-7362","2022-04-05T00:00:00.000","2022-11-30T00:00:00.000","Active","Replace","3","40.673923","-73.947323","8","36","341","3031284","3012350007","Crown Heights North","POINT (-73.947323 40.673923)"
"Trinity Evangelical Lutheran Church","2125 Watson Avenue","Bronx","NY","10472","2018-05-11T00:00:00.000","2021-6941","2021-07-30T00:00:00.000","2022-08-31T00:00:00.000","Active","Renew","2","40.829501","-73.852614","9","18","78","2026420","2038090018","Westchester-Unionport","POINT (-73.852614 40.829501)"
"Trinity Tabernacle of Gravesend","121 Gravesend Neck Road","Brooklyn","NY","11223","2009-02-23T00:00:00.000","2022-7268","2022-02-14T00:00:00.000","2023-01-31T00:00:00.000","Active","Renew","3","40.595049","-73.971003","15","47","396","3342631","3071270028","Homecrest","POINT (-73.971003 40.595049)"
"Triumphant Full Gospel Assembly","892-900 Rutland Road","Brooklyn","NY","11203","2008-06-03T00:00:00.000","2022-7372","2022-04-11T00:00:00.000","2023-04-30T00:00:00.000","Active","Renew","3","40.660681","-73.929824","17","41","878","3099663","3046050006","Prospect Lefferts Gardens-Wingate","POINT (-73.929824 40.660681)"
"United Christian Baptist Church","713 East 222nd Street","Bronx","NY","10467","2019-10-31T00:00:00.000","2021-7099","2021-11-03T00:00:00.000","2022-11-30T00:00:00.000","Active","Renew","2","40.885448","-73.860844","12","12","396","2063318","2048360040","Williamsbridge-Olinville","POINT (-73.860844 40.885448)"
"United Church of Jesus Christ","3936 Bronxwood Avenue","Bronx","NY","10466","2022-04-21T00:00:00.000","2022-7463","2022-06-08T00:00:00.000","2023-06-30T00:00:00.000","Active","New","2","40.884983","-73.855254","12","12","398","2064328","2048590049","Williamsbridge-Olinville","POINT (-73.855254 40.884983)"
"United Community Baptist Church","545 Utica Avenue","Brooklyn","NY","11203","2008-04-30T00:00:00.000","2021-7101","2021-11-03T00:00:00.000","2022-11-30T00:00:00.000","Active","Renew","3","40.659971","-73.931252","17","41","878","3099656","3046040075","Prospect Lefferts Gardens-Wingate","POINT (-73.931252 40.659971)"
"United Lubavitch Yeshivoth","841-853 Ocean Parkway","Brooklyn","NY","11230","2008-04-30T00:00:00.000","2022-7241","2022-02-02T00:00:00.000","2023-02-28T00:00:00.000","Active","Renew","3","40.628017","-73.971183","12","45","458","3170485","3065090064","Midwood","POINT (-73.971183 40.628017)"
"United Methodist City Society- St. Paul NYC","14 -50 31st Road","Astoria","NY","11106","2017-10-06T00:00:00.000","2021-7065","2021-10-01T00:00:00.000","2022-10-31T00:00:00.000","Active","Renew",,,,,,,,,,
"United Nations Pentecostal Church","1494 Ocean Ave","Brooklyn","NY","11230","2018-05-17T00:00:00.000","2022-7470","2022-06-10T00:00:00.000","2023-06-30T00:00:00.000","Active","Renew","3","40.625372","-73.956335","14","45","762","3180181","3067217501","Midwood","POINT (-73.956335 40.625372)"
"United Temple of Park Slope","315 8th Street","Brooklyn","NY","11215","2016-07-18T00:00:00.000","2021-6976","2021-08-27T00:00:00.000","2022-08-31T00:00:00.000","Active","Renew","3","40.669243","-73.984658","6","39","137","3021923","3009990059","Park Slope-Gowanus","POINT (-73.984658 40.669243)"
"Unity Church Of New York","225 West 99th Street","New York","NY","10025","2014-11-18T00:00:00.000","2021-7121","2021-11-23T00:00:00.000","2022-11-30T00:00:00.000","Active","Renew","1","40.796259","-73.969564","7","7","187","1084035","1018710029","Upper West Side","POINT (-73.969564 40.796259)"
"Unity East Church Center","1901 Beverly Road","Brooklyn","NY","11226","2014-01-17T00:00:00.000","2022-7280","2022-03-01T00:00:00.000","2023-01-31T00:00:00.000","Active","Replace","3","40.644751","-73.961036","14","40","51001","3117615","3051230047","Flatbush","POINT (-73.961036 40.644751)"
"Universal Church Of God Inc","109-34 Guy R Brewer Blvd","Jamaica","NY","11433","2008-04-30T00:00:00.000","2022-7205","2022-01-06T00:00:00.000","2023-01-31T00:00:00.000","Active","Renew","4","40.694356","-73.789642","12","28","260","4263377","4121520053","South Jamaica","POINT (-73.789642 40.694356)"
"Universal Temple Church Of God  Inc","1403 Eastern Parkway","Brooklyn","NY","11233","2013-09-27T00:00:00.000","2022-7260","2022-02-07T00:00:00.000","2023-10-31T00:00:00.000","Active","Renew","3","40.668863","-73.921481","16","41","361","3039550","3014750015","Ocean Hill","POINT (-73.921481 40.668863)"
"Un Nuevo Tiempo Bajo Su Gloria","502 Woodward Avenue","Ridgewood","NY","11385","2021-01-26T00:00:00.000","2022-7326","2022-03-18T00:00:00.000","2023-02-28T00:00:00.000","Active","Replace","4","40.707386","-73.909937","5","34","591","4081359","4034050037","Ridgewood","POINT (-73.909937 40.707386)"
"Upper Room Baptist Church Inc","1373 College Avenue","Bronx","NY","10456","2008-04-30T00:00:00.000","2021-6866","2021-06-18T00:00:00.000","2022-06-30T00:00:00.000","Active","Renew","2","40.836711","-73.911074","4","16","17702","2007279","2027850046","East Concourse-Concourse Village","POINT (-73.911074 40.836711)"
"USA Pandit Parishad Inc.","197-07 Jamaica Avenue","Hollis","NY","11423","2017-12-05T00:00:00.000","2022-7223","2022-01-13T00:00:00.000","2023-01-31T00:00:00.000","Active","Renew","4","40.713396","-73.762626","12","23","484","4222519","4104660096","Hollis","POINT (-73.762626 40.713396)"
"Vanderveer Park United Methodist Church","3114 Glenwood Road","Brooklyn","NY","11210","2008-04-30T00:00:00.000","2021-7023","2021-09-23T00:00:00.000","2022-09-30T00:00:00.000","Active","Renew","3","40.634066","-73.946573","14","45","786","3336757","3075590039","Flatbush","POINT (-73.946573 40.634066)"
"Van Nest Assembly Of God","755 Rhinelander Ave","Bronx","NY","10462","2012-08-15T00:00:00.000","2021-7064","2021-10-01T00:00:00.000","2022-10-31T00:00:00.000","Active","Renew","2","40.847859","-73.86488","11","15","230","2047937","2042600001","Van Nest-Morris Park-Westchester Square","POINT (-73.86488 40.847859)"
"Victory In Christ Church Inc.","1444 Broadway","Brooklyn","NY","11221","2016-06-07T00:00:00.000","2021-7004","2021-09-09T00:00:00.000","2022-07-31T00:00:00.000","Active","Replace","3","40.688004","-73.919464","3","41","375","3039727","3014840020","Stuyvesant Heights","POINT (-73.919464 40.688004)"
"Vishnu Mandir","1216 Noble Avenue","Bronx","NY","10472","2017-05-31T00:00:00.000","2021-6916","2021-07-29T00:00:00.000","2022-07-31T00:00:00.000","Active","Renew","2","40.830049","-73.869816","9","18","68","2024577","2037600018","Soundview-Bruckner","POINT (-73.869816 40.830049)"
"Wake-Eden Community Baptist Church","2074 Strang Avenue","Bronx","NY","10466","2010-01-25T00:00:00.000","2021-6937","2021-07-30T00:00:00.000","2022-08-31T00:00:00.000","Active","Renew","2","40.890773","-73.839801","12","12","426","2066715","2049580032","Woodlawn-Wakefield","POINT (-73.839801 40.890773)"
"Wayside Baptist Church","1746-60 Broadway","Brooklyn","NY","11207","2012-06-25T00:00:00.000","2021-6895","2021-07-01T00:00:00.000","2022-07-31T00:00:00.000","Active","Renew","3","40.682939","-73.910522","16","37","369","3040992","3015120022","Ocean Hill","POINT (-73.910522 40.682939)"
"Williamsburgh Pentecostal Church","674 Metropolitan Avenue","Brooklyn","NY","11211","2018-03-20T00:00:00.000","2022-7296","2022-03-03T00:00:00.000","2023-03-31T00:00:00.000","Active","Renew","3","40.714309","-73.946653","1","34","503","3068844","3027630020","East Williamsburg","POINT (-73.946653 40.714309)"
"Williamsburg Spanish Seventh-dayAdventist Church","319 Grand Street","Brooklyn","NY","11211","2019-03-12T00:00:00.000","2022-7304","2022-03-03T00:00:00.000","2023-03-31T00:00:00.000","Active","Renew","3","40.712645","-73.956476","1","34","519","3062707","3023840038","North Side-South Side","POINT (-73.956476 40.712645)"
"Xi Fang Temple","5101 8th Ave","Brooklyn","NY","11220","2012-03-13T00:00:00.000","2022-7325","2022-03-15T00:00:00.000","2023-03-31T00:00:00.000","Active","Renew","3","40.640468","-74.004374","12","38","108","3138136","3056510010","Sunset Park East","POINT (-74.004374 40.640468)"
"Yeshe Nyingpo Inc","19 West 16th Street","NewYork","NY","10011","2008-05-30T00:00:00.000","2022-7254","2022-02-03T00:00:00.000","2023-02-28T00:00:00.000","Active","Renew","1","40.737715","-73.993544","5","3","54","1015387","1008180024","Hudson Yards-Chelsea-Flatiron-Union Square","POINT (-73.993544 40.737715)"
"Yeshivath Divrei Chaim","1214 43rd Street","Brooklyn","NY","11219","2010-01-25T00:00:00.000","2022-7417","2022-05-16T00:00:00.000","2023-01-31T00:00:00.000","Active","Replace","3","40.639378","-73.990279","12","39","224","3136137","3056040012","Borough Park","POINT (-73.990279 40.639378)"
"Yeshivat Hechal Shemuel, Inc.","1532 E 10th Street","Brooklyn","NY","11230","2016-07-05T00:00:00.000","2021-6927","2021-07-30T00:00:00.000","2022-07-31T00:00:00.000","Active","Renew","3","40.611502","-73.963688","12","44","420","3175145","3066160019","Homecrest","POINT (-73.963688 40.611502)"
"Yeshivat Or Hatorah","2119 Homecrest Avenue","Brooklyn","NY","11229","2008-05-30T00:00:00.000","2022-7443","2022-05-24T00:00:00.000","2023-06-30T00:00:00.000","Active","Renew","3","40.597936","-73.959061","15","48","582","3199477","3073450070","Homecrest","POINT (-73.959061 40.597936)"
"Yeshivat Shaare Torah","1680 Coney Island Avenue","Brooklyn","NY","11230","2008-05-30T00:00:00.000","2022-7310","2022-03-07T00:00:00.000","2023-02-28T00:00:00.000","Active","Renew","3","40.616484","-73.963617","12","44","454","3173152","3065730025","Ocean Parkway South","POINT (-73.963617 40.616484)"
"Yeshiva Zichron Meilech","510 Dahill Road","Brooklyn","NY","11218","2008-05-30T00:00:00.000","2021-7184","2021-12-15T00:00:00.000","2023-01-31T00:00:00.000","Active","Renew","3","40.635064","-73.979052","12","39","478","3328435","3053820024","Borough Park","POINT (-73.979052 40.635064)"
"Young Israel Beth-El of Borough Park","4802 15th Avenue","Brooklyn","NY","11219","2008-05-30T00:00:00.000","2021-7028","2021-09-23T00:00:00.000","2022-09-30T00:00:00.000","Active","Renew","3","40.632839","-73.987235","12","44","234","3137508","3056360036","Borough Park","POINT (-73.987235 40.632839)"
"Young Israel Of Bedford Bay","2114 Brown Street","Brooklyn","NY","11229","2013-03-25T00:00:00.000","2022-7377","2022-04-14T00:00:00.000","2023-04-30T00:00:00.000","Active","Renew","3","40.600126","-73.93988","15","46","570","3200302","3073640011","Sheepshead Bay-Gerritsen Beach-Manhattan Beach","POINT (-73.93988 40.600126)"
"Young Israel of the West Side","210 West 91st Street","New York","NY","10024","2021-08-30T00:00:00.000","2022-7475","2022-06-13T00:00:00.000","2023-06-30T00:00:00.000","Active","New","1","40.791078","-73.9732","7","6","179","1033559","1012387502","Upper West Side","POINT (-73.9732 40.791078)"
"Zion Gospel Tabernacle Inc.","457 Saratoga Avenue","Brooklyn","NY","11233","2015-04-07T00:00:00.000","2021-6970","2021-08-26T00:00:00.000","2022-08-31T00:00:00.000","Active","Renew","3","40.670191","-73.917063","16","41","361","3039478","3014720006","Ocean Hill","POINT (-73.917063 40.670191)"
