"bble","bbl","borough","building_name","street_address","certification_class","of_carriers","coax_cable_connections","fiber_connection","satellite_fixed_wireless_connection","fiber_distribution","isps_1","multiple_points_of_entry","designated_telecom_utility_space","additional_telecom_space","riser_space_for_current_providers","riser_space_for_additional_providers","diverse_riser_locations","signed_poes","agreements","new_service_providers","isps_2","latitude","longitude","community_board","community_council","census_tract","bin","postcode","nta"
"1008120049","1-812-49","Manhattan","1370 Broadway","1370 BROADWAY","Not certified","4","Yes","Yes","No","Partial Distribution (some floors)","4","Yes","Combination of open, shared, and dedicated  space","No","No","No","Does not have two or more diverse riser locations","Yes - for installed connections","Yes","Yes",,"40.752048","-73.987505","5","4","109","1015244","10018","Midtown-Midtown South                                                      "
"1008500001","1-850-1","Manhattan","149 Fifth Avenue","149 5 AVENUE","Not certified","5 or more","Yes","Yes","No","Full Distribution (all floors)","5 or more","No","Common (shared) room","Yes","Yes","Yes","Does not have two or more diverse riser locations","Yes - for installed connections","No","Yes",,"40.74035","-73.990441","5","2","56","1016239","10010","Hudson Yards-Chelsea-Flatiron-Union Square                                 "
"1008230037","1-823-37","Manhattan","162 Fifth Ave","162 5 AVENUE","Not certified","4","Yes","Yes","No","Full Distribution (all floors)","3","Yes","Dedicated room","No","Yes","Yes","Does not have two or more diverse riser locations","Yes - for installed connections","Yes","Yes","Verizon,Time Warner Cable,OCG","40.740358","-73.990459","5","3","58","1015534","10010","Hudson Yards-Chelsea-Flatiron-Union Square                                 "
"1008070039","1-807-39","Manhattan",,"875 AVENUE OF THE AMERIC","Not certified","2","Yes","Yes","No","Full Distribution (all floors)","2","Yes","Combination of open, shared, and dedicated  space","Yes","Yes","Yes","Yes","Yes - for installed connections","Yes","Yes",,,,,,,,,
"1012620001","1-1262-1","Manhattan",,"1180 AVENUE OF THE AMER","Not certified","3","Yes","Yes","No","Full Distribution (all floors)","4","Yes","Common (shared) room","No","Yes","No","Does not have two or more diverse riser locations","None available","No","Yes","Verizon,Time Warner Cable,Lightower,Cogent","40.757479","-73.982176","5","4","96","1034313","10036","Midtown-Midtown South                                                      "
"1008690061","1-869-61","Manhattan","280 Madison","280 MADISON AVENUE","Not certified","3","Yes","Yes","No","Full Distribution (all floors)","3","Yes","Hallway/Open Space","Yes","Yes","Yes","Does not have two or more diverse riser locations","Yes - for installed connections","No","Yes","Other,Verizon FIOS,Verizon,Time Warner Cable","40.751432","-73.980301","5","4","82","1017599","10016","Murray Hill-Kips Bay                                                       "
,"1-99999-9999","Manhattan","Testing This Building","771 10 AVENUE","Not certified","1","Yes","Yes","Yes","Full Distribution (all floors)","3","Yes","Dedicated room","Yes","Yes","No","Yes","Yes - for installed connections","Yes","Yes","Century Link","40.766032","-73.99082","4","3","135","1081740","10019","Clinton                                                                    "
"1013100063","1-1310-63","Manhattan","126 East 56th Street","126 EAST 56 STREET","Not certified","3","Yes","Yes","No","Full Distribution (all floors)","3","Yes","Dedicated room","Yes","Yes","Yes","Yes","Yes - for installed connections","Yes","Yes","Verizon,Time Warner Cable,Cogent","40.760465","-73.970151","5","4","100","1081163","10022","Turtle Bay-East Midtown                                                    "
"1000290001","1/29/2001","Manhattan","85 Broad St.","85 BROAD STREET","Not certified","3","Yes","Yes","No","Partial Distribution (some floors)","4","Yes","Dedicated room","Yes","Yes","Yes","Yes","Yes - for installed connections","Yes","Yes","Verizon,TW Telecom,Time Warner Cable,AT&T","40.704215","-74.011559","1","1","9","1066031","10004","Battery Park City-Lower Manhattan                                          "
"1012670041","1-1267-41","Manhattan","650 Fifth Ave","650 5 AVENUE","Not certified","3","Yes","Yes","No","Full Distribution (all floors)","5 or more","No","Dedicated room","Yes","Yes","Yes","Does not have two or more diverse riser locations","Yes - for installed connections","No","Yes","Other,Verizon,Time Warner Cable,AT&T","40.759789","-73.976544","5","4","104","1034517","10019","Midtown-Midtown South                                                      "
,"3-2444-11","Brooklyn","The Mr. Building","141 SOUTH 5 STREET","Not certified","3","No","Yes","No","Full Distribution (all floors)","2","Yes","Dedicated room","Yes","Yes","No","Yes","Yes - for installed connections","Yes","Yes","Cablevision,AT&T","40.711044","-73.96279","1","34","549","3396900","11211","North Side-South Side                                                      "
"1999999999","1-99999-9999","Manhattan","Perfect Test Building","771 10 AVENUE","Not certified","5 or more","Yes","Yes","No","Full Distribution (all floors)","5 or more","Yes","Dedicated room","Yes","Yes","Yes","Yes","Yes - for installed connections","Yes","Yes","AT&T","40.766032","-73.99082","4","3","135","1081740","10019","Clinton                                                                    "
"1012620024","1-1262-24","Manhattan","WorkHouse","21 WEST 46 STREET","Not certified","5 or more","Yes","Yes","No","Full Distribution (all floors)","5 or more","Yes","Combination of open, shared, and dedicated  space","Yes","Yes","Yes","Does not have two or more diverse riser locations","None available","Yes","Yes","Other,XO Communications,Verizon,TW Telecom","40.756435","-73.979967","5","4","96","1034326","10036","Midtown-Midtown South                                                      "
"1000430002","1-43-2","Manhattan","The Trump Building","40 WALL STREET","Not certified","5 or more","Yes","Yes","No","Partial Distribution (some floors)","5 or more","Yes","Dedicated room","Yes","Yes","Yes","Yes","Yes - for installed connections","No","Yes","Other,XO Communications,Verizon,Time Warner Cable,Cogent,AT&T","40.706625","-74.009875","1","1","7","1001018","10005","Battery Park City-Lower Manhattan                                          "
"1012681102","1-1268-1102","Manhattan","666 Fifth Avenue","666 5 AVENUE","Platinum","5 or more","Yes","Yes","Yes","Partial Distribution (some floors)","5 or more","Yes","Combination of open, shared, and dedicated  space","Yes","Yes","Yes","Yes","Yes - for installed connections","No","Yes","Zayo,Verizon FIOS,Verizon,Time Warner Cable,Rainbow Broadband,Lightpath,Lightower,Cogent","40.760549","-73.976421","5","4","104","1034520","10103","Midtown-Midtown South                                                      "
,"1-849-63","Manhattan","920 Broadway","912 BROADWAY","Not certified","2","No","No","Yes","Partial Distribution (some floors)","2","Yes","Combination of open, shared, and dedicated  space","Yes","Yes","No","Yes","None available","Yes","Yes","Verizon,Time Warner Cable","40.739548","-73.989658","5","2","52",,"10010","Hudson Yards-Chelsea-Flatiron-Union Square                                 "
"3000290016","3/29/2016","Brooklyn","GreenDesk","155 WATER STREET","Not certified","2","No","Yes","No","Partial Distribution (some floors)","2","Yes","Dedicated room","Yes","Yes","Yes","Does not have two or more diverse riser locations","None available","Yes","Yes","Verizon,Lightower","40.703147","-73.987864","2","33","21","3000026","11201","DUMBO-Vinegar Hill-Downtown Brooklyn-Boerum Hill                           "
"1007840064","1-784-64","Manhattan","240 W 35th ","240 WEST 35 STREET","Not certified","2","Yes","Yes","No","Full Distribution (all floors)","2","No","Common (shared) room","Yes","Yes","Yes","Does not have two or more diverse riser locations","Yes - for installed connections","No","Yes","Verizon,Time Warner Cable","40.752171","-73.991377","5","3","109","1014415","10001","Midtown-Midtown South                                                      "
"1000460003","1-46-3","Manhattan","100 Broadway ","100 BROADWAY","Not certified","3","Yes","Yes","Yes","Full Distribution (all floors)","3","Yes","Combination of open, shared, and dedicated  space","Yes","Yes","Yes","Does not have two or more diverse riser locations","Yes - for installed connections","Yes",,"Zayo,Verizon,TW Telecom,Time Warner Cable,Direct TV,AT&T","40.70814","-74.011373","1","1","7","1001024","10005","Battery Park City-Lower Manhattan                                          "
"1008380021","1-838-21","Manhattan",,"35 WEST 36 STREET","Not certified","2","Yes","Yes","No","Full Distribution (all floors)","3","Yes","Combination of open, shared, and dedicated  space","No","No","No","Does not have two or more diverse riser locations","Yes - for installed connections","Yes","Yes",,"40.750518","-73.985487","5","4","84","1015925","10018","Midtown-Midtown South                                                      "
"1013600001","1-1360-1","Manhattan","866 U N Plaza","866 United Nations Plaza","Not certified",,"No","No","No",,,,,,"No","No",,,,,,"40.752925","-73.966834","6","4","8603","1040072","10017","Turtle Bay-East Midtown                                                    "
"1008380012","1-838-12","Manhattan",,"53 WEST 36 STREET","Not certified","2","Yes","Yes","No","Full Distribution (all floors)","2","Yes","Combination of open, shared, and dedicated  space","No","No","No","Does not have two or more diverse riser locations","Yes - for installed connections","Yes","Yes","Verizon FIOS,Verizon,Time Warner Cable","40.750648","-73.985798","5","4","84","1015922","10018","Midtown-Midtown South                                                      "
"1000041010","1-4-1010","Manhattan","One New York Plaza","1 WATER STREET","Platinum","5 or more","Yes","Yes","No","Full Distribution (all floors)","5 or more","Yes","Combination of open, shared, and dedicated  space","Yes","Yes","Yes","Yes","Yes - for installed connections","Yes","Yes","Zayo,Verizon,Time Warner Cable,Lightpath,Lightower,Cogent,AT&T","40.702444","-74.012742","1","1","9","1000005","10004","Battery Park City-Lower Manhattan                                          "
"1000160150","1-16-150","Manhattan","250 Vesey Street","250 VESEY PLACE","Gold","5 or more","Yes","Yes","No","Full Distribution (all floors)","5 or more","No","Dedicated room","Yes","Yes","Yes","Yes","None available","Yes","Yes","Zayo,Verizon,Time Warner Cable,Lightower,AT&T",,,,,,,,
"1000160125","1-16-125","Manhattan","225 Liberty Street","225 LIBERTY STREET","Gold","5 or more","Yes","Yes","No","Full Distribution (all floors)","5 or more","Yes","Combination of open, shared, and dedicated  space","Yes","Yes","Yes","Yes","None available","Yes","Yes","Verizon,Time Warner Cable,Lightpath,Lightower,Cogent,AT&T,Abovenet","40.711537","-74.015673","1","1","31703","1000058","10280","Battery Park City-Lower Manhattan                                          "
"1000160120","1-16-120","Manhattan","200 Liberty Street","200 LIBERTY STREET","Platinum","5 or more","Yes","Yes","No","Full Distribution (all floors)","5 or more","Yes","Dedicated room","Yes","Yes","Yes","Yes","Yes - for installed connections","Yes","Yes","Zayo,Verizon,Time Warner Cable,Sidera,Level(3),Cogent,AT&T","40.711425","-74.015442","1","1","31704","1000057","10281","Battery Park City-Lower Manhattan                                          "
"1000627501","1-62-7501","Manhattan","One Liberty Plaza","1 LIBERTY PLAZA","Platinum","5 or more","Yes","Yes","No","Full Distribution (all floors)","5 or more","Yes","Combination of open, shared, and dedicated  space","Yes","Yes","Yes","Yes","Yes - for installed connections","Yes","Yes","Zayo,Verizon,Time Warner Cable,Lightower,Cogent,AT&T","40.70943","-74.011102","1","1","13","1001068","10006","Battery Park City-Lower Manhattan                                          "
,"1-1276-58","Manhattan","300 Madison Avenue","300 MADISON AVENUE","Gold","5 or more","Yes","Yes","No","Full Distribution (all floors)","5 or more","Yes","Dedicated room","Yes","Yes","Yes","Yes","Yes - for installed connections","Yes","Yes","Verizon,Time Warner Cable,Sprint,Lightpath,Lightower,AT&T","40.752236","-73.979712","5","4","82","1085972","10017","Murray Hill-Kips Bay                                                       "
,"1-1258-9","Manhattan","Grace Building","1114 AVENUE OF THE AMERIC","Platinum","5 or more","Yes","Yes","No","Full Distribution (all floors)","5 or more","Yes","Combination of open, shared, and dedicated  space","Yes","Yes","Yes","Yes","Yes - for installed connections","Yes","Yes","Verizon,Time Warner Cable,Lightpath,Lightower,Cogent,AT&T,Abovenet",,,,,,,,
,"1-1301-1","Manhattan","245 Park Avenue","245 PARK AVENUE","Platinum","5 or more","Yes","Yes","No","Full Distribution (all floors)","5 or more","Yes","Dedicated room","Yes","Yes","Yes","Yes","Yes - for installed connections","Yes","Yes","Verizon,Time Warner Cable,Lightpath,Level(3),Cogent,Abovenet","40.754826","-73.975683","5","4","92","1036205","10167","Turtle Bay-East Midtown                                                    "
"1010350017","1-1035-17","Manhattan","The Plant","321 WEST 44 STREET","Platinum","3","Yes","Yes","Yes","Full Distribution (all floors)","5 or more","Yes","Combination of open, shared, and dedicated  space","Yes","Yes","Yes","Yes","None available","Yes","Yes","Verizon FIOS,Verizon,Time Warner Cable,Broadview,AT&T","40.75889","-73.989669","4","3","121","1080878","10036","Clinton                                                                    "
"1012950058","1-1295-58","Manhattan","370 Lexington Avenue","370 LEXINGTON AVENUE","Platinum","5 or more","Yes","Yes","Yes","Full Distribution (all floors)","5 or more","Yes","Combination of open, shared, and dedicated  space","Yes","Yes","Yes","Does not have two or more diverse riser locations","Yes - for installed connections","No","Yes","Other,Verizon FIOS,Verizon,Time Warner Cable,Cogent,Broadview","40.750646","-73.976641","5","4","80","1036150","10017","Murray Hill-Kips Bay                                                       "
"1008150014","1-815-14","Manhattan","1412 Broadway","1412 BROADWAY","Not certified","2","Yes","Yes","Yes","Partial Distribution (some floors)","5 or more","Yes","Combination of open, shared, and dedicated  space","No","No","Yes","Yes","Yes - for installed connections","Yes","Yes",,"40.753711","-73.987046","5","4","113","1080611","10018","Midtown-Midtown South                                                      "
"1000430001","1-43-1","Manhattan","44 Wall Street","44 WALL STREET","Platinum","5 or more","Yes","Yes","No","Full Distribution (all floors)","5 or more","Yes","Common (shared) room","Yes","Yes","Yes","Yes","Yes - for installed connections","Yes","Yes","Verizon,Time Warner Cable,Lightpath,Cogent,Broadview,Abovenet","40.70654","-74.009738","1","1","7","1001017","10005","Battery Park City-Lower Manhattan                                          "
"1001137501","1-113-7501","Manhattan","Intergate.Manhattan","375 PEARL STREET","Not certified","5 or more","Yes","Yes","No","Full Distribution (all floors)","5 or more","Yes","Dedicated room","Yes","Yes","Yes","Yes","Yes - for installed connections","Yes","Yes","Other,Zayo,XO Communications,Windstream,Verizon,Sidera,OCG,Lightpath,Lightower,Level(3)","40.710207","-74.001125","1","1","29","1001389","10038","Chinatown                                                                  "
"1012900021","1-1290-21","Manhattan",,"535 MADISON AVENUE","Not certified","5 or more","Yes","Yes","Yes","Full Distribution (all floors)","5 or more","Yes","Dedicated room","Yes","Yes","Yes","Does not have two or more diverse riser locations","Yes - for installed connections","Yes","Yes","Other","40.760354","-73.973454","5","4","102","1035747","10022","Midtown-Midtown South                                                      "
"1000460001","1-46-1","Manhattan","2 Wall Street","2 WALL STREET","Platinum","5 or more","Yes","Yes","Yes","Full Distribution (all floors)","5 or more","Yes","Combination of open, shared, and dedicated  space","Yes","Yes","Yes","Does not have two or more diverse riser locations","Yes - for installed connections","Yes","Yes","Verizon FIOS,Verizon,Time Warner Cable,SignalPoint,RCN,Cogent,Broadview,AT&T","40.707725","-74.011632","1","1","7","1001023","10005","Battery Park City-Lower Manhattan                                          "
,"1-857-24","Manhattan","63 Madison Avenue","63 MADISON AVENUE","Platinum","5 or more","Yes","Yes","No","Full Distribution (all floors)","5 or more","Yes","Combination of open, shared, and dedicated  space","Yes","Yes","Yes","Yes","Yes - for installed connections","Yes","Yes","Verizon FIOS,Verizon,Time Warner Cable,Lightpath,Lexent,Broadview","40.743478","-73.98607","5","2","56","1016889","10016","Hudson Yards-Chelsea-Flatiron-Union Square                                 "
,"1-762-25","Manhattan","307 West 38th Street","307 WEST 38 STREET","Platinum","5 or more","Yes","Yes","Yes","Partial Distribution (some floors)","5 or more","Yes","Combination of open, shared, and dedicated  space","Yes","Yes","Yes","Does not have two or more diverse riser locations","Yes - for installed connections","Yes","Yes","Verizon,Time Warner Cable,Rainbow Broadband,MegaPath,Broadview","40.754946","-73.992175","4","3","115","1013643","10018","Clinton                                                                    "
"1010400029","1-1040-29","Manhattan","Worldwide Plaza","825 8 AVENUE","Platinum","5 or more","Yes","Yes","Yes","Full Distribution (all floors)","5 or more","Yes","Combination of open, shared, and dedicated  space","Yes","Yes","Yes","Yes","Yes - for installed connections","Yes","Yes","Verizon FIOS,Verizon,TW Telecom,Time Warner Cable,Sidera,Rainbow Broadband,Lightpath,Covad,Cogent,Broadview,AT&T,Abovenet","40.762074","-73.986275","4","3","127","1076203","10019","Clinton                                                                    "
"1007850001","1-785-1","Manhattan","242 West 36th Street","500 8 AVENUE","Not certified","4","Yes","Yes","No","Full Distribution (all floors)","4","No","Hallway/Open Space","No","Yes","Yes","Does not have two or more diverse riser locations","Yes - for installed connections","Yes","Yes","Verizon,TW Telecom,Time Warner Cable,Broadview","40.752943","-73.992904","5","3","109","1014421","10018","Midtown-Midtown South                                                      "
"1002330026","1-233-26","Manhattan","148 Lafayette Street","12 HOWARD STREET","Not certified","2","Yes","No","No","Full Distribution (all floors)","2","Yes","Combination of open, shared, and dedicated  space","No","Yes","Yes","Does not have two or more diverse riser locations","Yes - for installed connections","No","Yes","Verizon,Time Warner Cable","40.719281","-74.000014","2","1","45","1003051","10013","SoHo-TriBeCa-Civic Center-Little Italy                                     "
"1008820003","1-882-3","Manhattan","373 Park Avenue South","369 PARK AVENUE SOUTH","Platinum","5 or more","Yes","Yes","Yes","Full Distribution (all floors)","5 or more","Yes","Hallway/Open Space","Yes","Yes","Yes","Yes","Yes - for installed connections","Yes","Yes","Verizon,Time Warner Cable,Rainbow Broadband,OCG,Cogent","40.742295","-73.984814","5","2","68","1018123","10016","Gramercy                                                                   "
"1008820085","1-882-85","Manhattan","381 Park Avenue South","381 PARK AVENUE SOUTH","Gold","4","Yes","Yes","No","Full Distribution (all floors)","4","Yes","Hallway/Open Space","Yes","Yes","Yes","Yes","None available","Yes","Yes","Verizon,Time Warner Cable,OCG,Cogent","40.742534","-73.984641","5","2","68","1018159","10016","Gramercy                                                                   "
"1012810069","1-1281-69","Manhattan","555 5th Avenue","553 5 AVENUE","Platinum","5 or more","Yes","Yes","No","Full Distribution (all floors)","5 or more","Yes","Combination of open, shared, and dedicated  space","Yes","Yes","Yes","Yes","Yes - for installed connections","Yes","Yes","Verizon,Time Warner Cable,SignalPoint,Lightower,Cogent","40.755842","-73.979152","5","4","94","1035401","10017","Midtown-Midtown South                                                      "
"1008490070","1-849-70","Manhattan","915 Broadway","915 BROADWAY","Platinum","5 or more","Yes","Yes","Yes","Full Distribution (all floors)","5 or more","Yes","Combination of open, shared, and dedicated  space","Yes","Yes","Yes","Yes","Yes - for installed connections","Yes","Yes","Verizon FIOS,Verizon,TW Telecom,Towerstream,Time Warner Cable,Abovenet","40.739644","-73.989654","5","2","52","1016226","10010","Hudson Yards-Chelsea-Flatiron-Union Square                                 "
"1008620029","1-862-29","Manhattan","2 Park Avenue ","2 PARK AVENUE","Gold","5 or more","Yes","Yes","No","Full Distribution (all floors)","5 or more","Yes","Hallway/Open Space","Yes","Yes","Yes","Yes","None available","No","Yes","XO Communications,Windstream,Verizon,TW Telecom,Time Warner Cable,Cogent,AT&T","40.746077","-73.982092","5","2","74","1017019","10016","Midtown-Midtown South                                                      "
"1012950040","1-1295-40","Manhattan","630 3rd Avenue","630 3 AVENUE","Gold","4","Yes","Yes","No","Full Distribution (all floors)","5 or more","Yes","Combination of open, shared, and dedicated  space","Yes","Yes","Yes","Yes","None available","Yes","Yes","Verizon,Time Warner Cable,SignalPoint,Cogent,Broadview","40.749798","-73.975165","6","4","80","1036149","10017","Murray Hill-Kips Bay                                                       "
"1012590001","1-1259-1","Manhattan","Hippodrome","1120 AVENUE OF THE AMERIC","Not certified","5 or more","Yes","Yes","No","Partial Distribution (some floors)","4","Yes","Combination of open, shared, and dedicated  space","Yes","Yes","Yes","Yes","None available","No","Yes","Zayo,Verizon,Time Warner Cable,AT&T",,,,,,,,
"1013000001","1-1300-1","Manhattan","230 Park Avenue","230 PARK AVENUE","Not certified","1","Yes","Yes","No","Full Distribution (all floors)","1","Yes","Dedicated room","Yes","Yes","Yes","Yes","Yes - for installed connections","Yes","Yes","Verizon","40.754508","-73.975951","5","4","92","1036185","10169","Turtle Bay-East Midtown                                                    "
"1008177502","1-817-7502","Manhattan","100-104 Fifth Avenue","100 5 AVENUE","Platinum","5 or more","Yes","Yes","No","Full Distribution (all floors)","5 or more","Yes","Dedicated room","Yes","Yes","Yes","Yes","Yes - for installed connections","Yes","Yes","Windstream,Verizon,TW Telecom,Time Warner Cable,Level(3),Broadview,Abovenet","40.736881","-73.992992","5","3","54","1080621","10011","Hudson Yards-Chelsea-Flatiron-Union Square                                 "
,"1-993-11","Manhattan","1440 Broadway","1440 BROADWAY","Not certified","5 or more","No","Yes","Yes","Partial Distribution (some floors)","5 or more","Yes","Combination of open, shared, and dedicated  space","Yes","Yes","Yes","Yes","Yes - for installed connections","Yes","Yes","Other,Verizon,Time Warner Cable,Sprint,Lightpath,Lightower,Level(3),Eureka,Direct TV,Cogent,Broadview,AT&T,Abovenet","40.754611","-73.986761","5","4","113","1022563","10018","Midtown-Midtown South                                                      "
"1000200016","1/20/2016","Manhattan","55 Broadway","55 BROADWAY","Not certified","4","Yes","Yes","No","Partial Distribution (some floors)","4","none",,,"No","No",,,,,"none","40.706638","-74.012631","1","1","13","1000807","10006","Battery Park City-Lower Manhattan                                          "
"3017200001","3-1720-1","Brooklyn","Pfizer Building","630 Flushing Avenue","Not certified","3","Yes","Yes","Yes","Full Distribution (all floors)","4","Yes","Combination of open, shared, and dedicated  space","Yes","No","Yes","Yes","None available","Yes","Yes","Other,Verizon,Towerstream","40.699963","-73.948449","3","36","257","3329628","11206","Bedford                                                                    "
"1008360026","1-836-26","Manhattan","7 West 34th Street","7 WEST 34 STREET","Not certified","2","Yes","No","No","No Distribution","2","Yes","Combination of open, shared, and dedicated  space","No","Yes","Yes","Yes","None available","Yes","Yes","Verizon,Time Warner Cable","40.74869","-73.985138","5","4","76","1082920","10001","Midtown-Midtown South                                                      "
"1008070001","1-807-1","Manhattan","11 Penn Plaza","399 7 AVENUE","Not certified","5 or more","Yes","Yes","No","Full Distribution (all floors)","5 or more","Yes","Combination of open, shared, and dedicated  space","No","Yes","Yes","Yes","Yes - for installed connections","Yes","Yes","Verizon,Time Warner Cable,Everest Broadband,Cogent","40.749611","-73.99162","5","3","101","1015175","10001","Midtown-Midtown South                                                      "
"1012900001","1-1290-1","Manhattan","689 Fifth Avenue","689 5 AVENUE","Not certified","2","Yes","Yes","Yes","Full Distribution (all floors)","2","Yes","Combination of open, shared, and dedicated  space","Yes","Yes","Yes","Yes","Yes - for installed connections","Yes","Yes","Verizon,Time Warner Cable,Direct TV","40.761131","-73.975295","5","4","102","1035741","10022","Midtown-Midtown South                                                      "
"1012930026","1-1293-26","Manhattan","595 Madison Avenue","597 MADISON AVENUE","Not certified","3","Yes","Yes","Yes","Full Distribution (all floors)","3","Yes","Combination of open, shared, and dedicated  space","Yes","Yes","Yes","Yes","Yes - for installed connections","Yes","Yes","Verizon,RCN,Everest Broadband,Direct TV","40.762445","-73.972237","5","4","11202","1036061","10022","Midtown-Midtown South                                                      "
"1012670034","1-1267-34","Manhattan","640 Fifth Avenue","640 5 AVENUE","Not certified","5 or more","Yes","Yes","Yes","Full Distribution (all floors)","3","Yes","Combination of open, shared, and dedicated  space","Yes","Yes","Yes","Yes","Yes - for installed connections","Yes","Yes","Verizon,TW Telecom,Time Warner Cable,Sidera,Level(3),Direct TV","40.759432","-73.977122","5","4","104","1034516","10019","Midtown-Midtown South                                                      "
"1008080040","1-808-40","Manhattan","Manhattan Mall","100 West 33rd Street","Not certified","5 or more","Yes","Yes","Yes","Partial Distribution (some floors)","5 or more","Yes","Common (shared) room","Yes","Yes","Yes","Yes","Yes - for installed connections","Yes","Yes","Verizon,TW Telecom,Time Warner Cable,Lightpath,Lightower","40.7493","-73.988675","5","3","101","1015190","10001","Midtown-Midtown South                                                      "
"1012870033","1-1287-33","Manhattan","350 Park Avenue","350 PARK AVENUE","Not certified","4","Yes","Yes","Yes","Full Distribution (all floors)","4","Yes","Combination of open, shared, and dedicated  space","Yes","Yes","Yes","Yes","Yes - for installed connections","Yes","Yes","Verizon,Time Warner Cable,Lightpath,Direct TV,Cogent","40.758224","-73.973231","5","4","102","1035473","10022","Midtown-Midtown South                                                      "
"1007570054","1-757-54","Manhattan","330 West 34th Street","330 WEST 34 STREET","Not certified","4","Yes","Yes","Yes","Full Distribution (all floors)","4","Yes","Combination of open, shared, and dedicated  space","Yes","Yes","Yes","Yes","Yes - for installed connections","Yes","Yes","Verizon,Time Warner Cable,Direct TV,AT&T","40.752619","-73.994503","4","3","103","1013553","10001","Hudson Yards-Chelsea-Flatiron-Union Square                                 "
"1000750021","1-75-21","Manhattan","40 Fulton Street","40 FULTON STREET","Not certified","5 or more","Yes","Yes","Yes","Full Distribution (all floors)","4","Yes","Dedicated room","Yes","Yes","Yes","Yes","Yes - for installed connections","Yes","Yes","Verizon,Time Warner Cable,Direct TV,Cogent","40.707904","-74.004411","1","1","1502","1075618","10038","Battery Park City-Lower Manhattan                                          "
"1007819002","1-781-9002","Manhattan","Two Penn Plaza","2 PENN PLAZA","Not certified","5 or more","Yes","Yes","Yes","Full Distribution (all floors)","5 or more","Yes","Combination of open, shared, and dedicated  space","Yes","Yes","Yes","Yes","Yes - for installed connections","Yes","Yes","Verizon,TW Telecom,Time Warner Cable,Sidera,Lightpath,Level(3),Direct TV,Cogent,AT&T","40.750017","-73.991345","5","3","101","1083026","10121","Midtown-Midtown South                                                      "
"1007830070","1-783-70","Manhattan","One Penn Plaza","206 WEST 34 STREET","Not certified","5 or more","Yes","Yes","Yes","Full Distribution (all floors)","5 or more","Yes","Combination of open, shared, and dedicated  space","Yes","Yes","Yes","Yes","Yes - for installed connections","Yes","Yes","Verizon,TW Telecom,Time Warner Cable,Sidera,Lightpath,Level(3),Cogent,AT&T","40.751148","-73.991013","5","3","101","1014387","10001","Midtown-Midtown South                                                      "
"1010270020","1-1027-20","Manhattan","1740 Broadway","1730 BROADWAY","Not certified","5 or more","Yes","Yes","Yes","Full Distribution (all floors)","5 or more","Yes","Combination of open, shared, and dedicated  space","Yes","Yes","Yes","Yes","Yes - for installed connections","Yes","Yes","Verizon,TW Telecom,Time Warner Cable,Level(3),Direct TV,Cogent,AT&T","40.764843","-73.982174","5","4","137","1024877","10019","Midtown-Midtown South                                                      "
"1012670001","1-1267-1","Manhattan","1290 Avenue of the Americas","1280 AVENUE OF THE AMERIC","Not certified","5 or more","Yes","Yes","Yes","Full Distribution (all floors)","5 or more","Yes","Combination of open, shared, and dedicated  space","Yes","Yes","Yes","Yes","Yes - for installed connections","Yes","Yes","Zayo,Verizon,TW Telecom,Time Warner Cable,Lightpath,Lightower,Level(3),Direct TV,Cogent,AT&T",,,,,,,,
"1013280001","1-1328-1","Manhattan","909 Third Avenue","909 3 AVENUE","Not certified","5 or more","Yes","Yes","Yes","Full Distribution (all floors)","5 or more","Yes","Combination of open, shared, and dedicated  space","Yes","Yes","Yes","Yes","Yes - for installed connections","Yes","Yes","Verizon,Time Warner Cable,RCN,Lightpath,Lightower,Direct TV,Cogent,AT&T","40.758744","-73.968618","6","4","108","1038570","10022","Turtle Bay-East Midtown                                                    "
"1010280029","1-1028-29","Manhattan","888 Seventh Avenue","888 7 AVENUE","Not certified","5 or more","Yes","Yes","Yes","Full Distribution (all floors)","5 or more","Yes","Combination of open, shared, and dedicated  space","Yes","Yes","Yes","Yes","Yes - for installed connections","Yes","Yes","Zayo,Verizon,TW Telecom,Time Warner Cable,Direct TV,Cogent,AT&T","40.765015","-73.980416","5","4","137","1024895","10106","Midtown-Midtown South                                                      "
"1005540001","1-554-1","Manhattan","770 Broadway","756 BROADWAY","Not certified","5 or more","Yes","Yes","Yes","Full Distribution (all floors)","5 or more","Yes","Combination of open, shared, and dedicated  space","Yes","Yes","Yes","Yes","Yes - for installed connections","Yes","Yes","Verizon,TW Telecom,Time Warner Cable,RCN,Lightower,Direct TV,AT&T","40.730675","-73.992326","2","2","57",,"10003","West Village                                                               "
"1012770014","1-1277-14","Manhattan","330 Madison Avenue","330 MADISON AVENUE","Not certified","5 or more","Yes","Yes","Yes","Full Distribution (all floors)","5 or more","Yes","Combination of open, shared, and dedicated  space","Yes","Yes","Yes","Yes","Yes - for installed connections","Yes","Yes","Verizon,TW Telecom,Time Warner Cable,Lightpath,Level(3),Direct TV,Cogent","40.753383","-73.978871","5","4","94","1035348","10017","Midtown-Midtown South                                                      "
"1012840033","1-1284-33","Manhattan","280 Park Avenue","280 PARK AVENUE","Not certified","5 or more","Yes","Yes","Yes","Full Distribution (all floors)","5 or more","Yes","Combination of open, shared, and dedicated  space","Yes","Yes","Yes","Yes","Yes - for installed connections","Yes","Yes","Zayo,Verizon,TW Telecom,Time Warner Cable,Lightpath,Direct TV,Cogent","40.756023","-73.974831","5","4","94","1035441","10017","Midtown-Midtown South                                                      "
"1013120041","1-1312-41","Manhattan","150 East 58th Street","964 3 AVENUE","Not certified","5 or more","Yes","Yes","Yes","Full Distribution (all floors)","5 or more","Yes","Combination of open, shared, and dedicated  space","Yes","Yes","Yes","Yes","Yes - for installed connections","Yes","Yes","Verizon,Time Warner Cable,Lightpath,Direct TV,Cogent","40.76072","-73.967133","6","4","11203","1036915","10155","Turtle Bay-East Midtown                                                    "
"1008690034","1-869-34","Manhattan","90 Park Avenue","90 PARK AVENUE","Not certified","5 or more","Yes","Yes","Yes","Full Distribution (all floors)","5 or more","Yes","Dedicated room","Yes","Yes","Yes","Yes","Yes - for installed connections","Yes","Yes","Verizon,Time Warner Cable,Reliance,RCN,Lightpath,Level(3),Direct TV","40.750504","-73.978865","6","4","82","1017595","10016","Murray Hill-Kips Bay                                                       "
"1000230050","1/23/1950","Manhattan","20 Broad Street","20 BROAD STREET","Not certified","5 or more","Yes","Yes","Yes","Full Distribution (all floors)","5 or more","Yes","Dedicated room","Yes","Yes","Yes","Yes","Yes - for installed connections","Yes","Yes","Verizon,Time Warner Cable,RCN,Direct TV,Cogent,AT&T","40.706553","-74.011033","1","1","7","1000816","10005","Battery Park City-Lower Manhattan                                          "
"3001470004","3-147-4","Brooklyn","1 MetroTech Center","351 JAY STREET","Platinum","5 or more","Yes","Yes","Yes","Full Distribution (all floors)","5 or more","Yes","Combination of open, shared, and dedicated  space","Yes","Yes","Yes","Yes","Yes - for installed connections","Yes","Yes","Verizon,Time Warner Cable,Lightpath,Lightower,Cogent,AT&T","40.692882","-73.987256","2","33","11","3319418","11201","DUMBO-Vinegar Hill-Downtown Brooklyn-Boerum Hill                           "
,"1-1264-5","Manhattan","Rockefeller Center (1230 Ave of the Americas)","1230 Avenue of the Americ","Silver","3","Yes","Yes","No","Partial Distribution (some floors)","3","Yes","Dedicated room","Yes","Yes","No","Yes","Yes - for installed connections","Yes","Yes","RGTS,Time Warner Cable,Verizon",,,,,,,,
"1012640005","1-1264-5","Manhattan","Rockefeller Center (10 Rock)","10 Rockefeller Plaza","Silver","3","Yes","Yes","No","Partial Distribution (some floors)","3","Yes","Dedicated room","Yes","Yes","No","Yes","Yes - for installed connections","Yes","Yes","RGTS,Time Warner Cable,Verizon","40.758104","-73.979165","5","4","96","1077284","10020","Midtown-Midtown South                                                      "
,"1-1266-1","Manhattan","Rockefeller Center (1270 Ave of the Americas)","1270 AVENUE OF THE AMERIC","Gold","5 or more","Yes","Yes","No","Partial Distribution (some floors)","5 or more","Yes","Dedicated room","Yes","Yes","No","Yes","Yes - for installed connections","Yes","Yes","RGTS,Time Warner Cable,Verizon,Cogent,Abovenet",,,,,,,,
,"1-1266-1","Manhattan","Rockefeller Center (45 Rock)","45 Rockefeller Plaza","Gold","5 or more","Yes","Yes","No","Partial Distribution (some floors)","5 or more","Yes","Dedicated room","Yes","Yes","No","Yes","Yes - for installed connections","Yes","Yes","RGTS,Time Warner Cable,Verizon,Cogent,Abovenet","40.759204","-73.978335","5","4","104","1083860","10111","Midtown-Midtown South                                                      "
"1012660001","1-1266-1","Manhattan","Rockefeller Center (50 Rock)","50 Rockefeller  Plaza","Silver","3","Yes","Yes","No","Partial Distribution (some floors)","3","Yes","Dedicated room","Yes","Yes","No","Yes","Yes - for installed connections","Yes","Yes","RGTS,Time Warner Cable,Verizon","40.75938","-73.97823","5","4","104","1083859","10020","Midtown-Midtown South                                                      "
"1012640030","1-1264-30","Manhattan","Rockefeller Center (600 5th)","600 5 AVENUE","Silver","4","Yes","Yes","No","Partial Distribution (some floors)","4","No","Dedicated room","No","Yes","No","Does not have two or more diverse riser locations","Yes - for installed connections","Yes","Yes","Abovenet,RGTS,Time Warner Cable,Verizon","40.75753","-73.977946","5","4","96","1034506","10020","Midtown-Midtown South                                                      "
"1012657501","1-1265-7501","Manhattan","Rockefeller Center (30 Rock)","30 Rockefeller Plaza","Gold","5 or more","Yes","Yes","No","Partial Distribution (some floors)","5 or more","Yes","Combination of open, shared, and dedicated  space","Yes","Yes","No","Yes","Yes - for installed connections","Yes","Yes","RGTS,Time Warner Cable,Verizon,Cogent,Abovenet","40.758754","-73.978692","5","4","104","1076262","10112","Midtown-Midtown South                                                      "
"1001351001","1-135-1001","Manhattan","City Hall","260 BROADWAY","Connected","2","Yes","Yes","No","Full Distribution (all floors)","2","No","Combination of open, shared, and dedicated  space","No","Yes","Yes","Does not have two or more diverse riser locations","None available","No","Yes",,"40.713696","-74.00672","1","1","21","1001473","10007","SoHo-TriBeCa-Civic Center-Little Italy                                     "
"2024540001","2-2454-1","Bronx","900 Sheridan Avenue","217 EAST 161 STREET","Connected","2","Yes","Yes","No","Partial Distribution (some floors)","2","No","Combination of open, shared, and dedicated  space","No","Yes","Yes","Does not have two or more diverse riser locations","None available","No","Yes",,"40.826216","-73.920461","4","16","18302","2002704","10451","East Concourse-Concourse Village                                           "
"4096800001","4-9680-1","Queens","89-19 Sutphin Boulevard","89-19 SUTPHIN BOULEVARD","Connected","2","Yes","Yes","No","Full Distribution (all floors)","2","No","Combination of open, shared, and dedicated  space","No","Yes","Yes","Does not have two or more diverse riser locations","None available","No","Yes",,"40.703603","-73.808682","12","24","240","4448759","11435","Jamaica                                                                    "
"5001590065","5-159-65","Staten Island","883 Castleton Avenue","883 CASTLETON AVENUE","Not certified","1","Yes","No","No","No Distribution","1","No","Combination of open, shared, and dedicated  space","No","Yes","Yes","Does not have two or more diverse riser locations","None available","No","Yes",,"40.634751","-74.111712","1","49","105","5004530","10310","New Brighton-Silver Lake                                                   "
"4096910001","4-9691-1","Queens","88-11 Sutphin Boulevard","88-11 SUTPHIN BOULEVARD","Connected","2","Yes","Yes","Yes","Full Distribution (all floors)","2","No","Combination of open, shared, and dedicated  space","No","Yes","Yes","Does not have two or more diverse riser locations","None available","No","Yes",,"40.704623","-73.809151","12","24","238","4207071","11435","Jamaica                                                                    "
"2024680001","2-2468-1","Bronx","851 Grand Concourse","851 GRAND CONCOURSE","Connected","2","Yes","Yes","No","Full Distribution (all floors)","2","Yes","Combination of open, shared, and dedicated  space","No","Yes","Yes","Does not have two or more diverse riser locations","None available","No","Yes",,"40.825999","-73.923131","4","8","63","2002869","10451","West Concourse                                                             "
"1001660027","1-166-27","Manhattan","80 Centre Street","80 CENTRE STREET","Connected","2","Yes","Yes","No","Full Distribution (all floors)","2","No","Combination of open, shared, and dedicated  space","No","Yes","Yes","Does not have two or more diverse riser locations","None available","No","Yes",,"40.715447","-74.00189","1","1","29","1001830","10013","Chinatown                                                                  "
"5005420009","5-542-9","Staten Island","67 Targee Street","67 TARGEE STREET","Connected","1","Yes","Yes","No","Full Distribution (all floors)","1","No","Dedicated room","Yes","Yes","Yes","Does not have two or more diverse riser locations","None available","No","Yes",,"40.625509","-74.083403","1","49","21","5014078","10304","Stapleton-Rosebank                                                         "
"1001710031","1-171-31","Manhattan","60 Lafayette Street","109 LEONARD STREET","Connected","3","Yes","Yes","No","Full Distribution (all floors)","3","No","Combination of open, shared, and dedicated  space","No","Yes","Yes","Does not have two or more diverse riser locations","None available","No","Yes",,"40.716473","-74.003189","1","1","31","1001842","10013","SoHo-TriBeCa-Civic Center-Little Italy                                     "
"1001600021","1-160-21","Manhattan","60 Centre Street","474 PEARL STREET","Connected","2","Yes","Yes","No","Full Distribution (all floors)","2","No","Combination of open, shared, and dedicated  space","No","Yes","Yes","Does not have two or more diverse riser locations","None available","No","Yes",,"40.713353","-74.001035","1","1","29",,"10007","Chinatown                                                                  "
"1001530001","1-153-1","Manhattan","49-51 Chambers Street","43 CHAMBERS STREET","Connected","2","Yes","Yes","No","Full Distribution (all floors)","2","No","Combination of open, shared, and dedicated  space","No","Yes","Yes","Does not have two or more diverse riser locations","None available","No","Yes",,"40.713676","-74.005234","1","1","31",,"10007","SoHo-TriBeCa-Civic Center-Little Italy                                     "
"3002370001","3-237-1","Brooklyn","45 Monroe Place","45 MONROE PLACE","Not certified","1","Yes","No","No","No Distribution","1","No","Combination of open, shared, and dedicated  space","No","Yes","Yes","Does not have two or more diverse riser locations","None available","No","Yes",,"40.695822","-73.992802","2","33","502","3001881","11201","Brooklyn Heights-Cobble Hill                                               "
"2048320009","2-4832-9","Bronx","4101 White Plains Road","4101 WHITE PLAINS ROAD","Not certified","2","Yes","No","No","No Distribution","2","No","Combination of open, shared, and dedicated  space","No","Yes","Yes","Does not have two or more diverse riser locations","None available","No","Yes",,"40.89074","-73.858862","12","12","420","2063174","10466","Williamsbridge-Olinville                                                   "
"3024670001","3-2467-1","Brooklyn","390 Kent Ave","390 KENT AVENUE","Not certified","1","Yes","Yes","No","Partial Distribution (some floors)","1","No","Combination of open, shared, and dedicated  space","No","No","No","Does not have two or more diverse riser locations","None available","No","Yes",,"40.711246","-73.968348","1","33","549","3063635","11249","North Side-South Side                                                      "
"3001390020","3-139-20","Brooklyn","360 Adams Street","360 ADAMS STREET","Silver","2","Yes","Yes","No","Full Distribution (all floors)","2","Yes","Dedicated room","Yes","Yes","Yes","Does not have two or more diverse riser locations","None available","No","Yes",,"40.694122","-73.988904","2","33","11","3000257","11201","DUMBO-Vinegar Hill-Downtown Brooklyn-Boerum Hill                           "
"1001700006","1-170-6","Manhattan","346 Broadway","346 BROADWAY","Connected","3","Yes","Yes","No","Full Distribution (all floors)","3","No","Combination of open, shared, and dedicated  space","No","Yes","Yes","Does not have two or more diverse riser locations","None available","No","Yes",,"40.716696","-74.004163","1","1","31","1001835","10013","SoHo-TriBeCa-Civic Center-Little Italy                                     "
"3001401202","3-140-1202","Brooklyn","345 Adams Street","345 ADAMS STREET","Connected","2","Yes","Yes","No","Full Distribution (all floors)","2","Yes","Combination of open, shared, and dedicated  space","No","Yes","Yes","Does not have two or more diverse riser locations","None available","No","Yes",,"40.6934","-73.988915","2","33","11","3392969","11201","DUMBO-Vinegar Hill-Downtown Brooklyn-Boerum Hill                           "
"3001401001","3-140-1001","Brooklyn","300 Jay Street","330 JAY STREET","Connected","2","Yes","Yes","No","Full Distribution (all floors)","2","Yes","Combination of open, shared, and dedicated  space","No","Yes","Yes","Does not have two or more diverse riser locations","None available","No","Yes",,"40.694495","-73.987198","2","33","11","3347736","11201","DUMBO-Vinegar Hill-Downtown Brooklyn-Boerum Hill                           "
"1010440022","1-1044-22","Manhattan","314-16 West 54th Street","314 WEST 54 STREET","Not certified","1","Yes","No","No","No Distribution","2","Yes","Dedicated room","Yes","Yes","Yes","Does not have two or more diverse riser locations","None available","No","Yes",,"40.765082","-73.984997","4","3","133","1025397","10019","Clinton                                                                    "
"1001530024","1-153-24","Manhattan","31 Chambers Street","23 CHAMBERS STREET","Connected","2","Yes","Yes","No","Full Distribution (all floors)","2","No","Combination of open, shared, and dedicated  space","No","Yes","Yes","Does not have two or more diverse riser locations","None available","No","Yes",,"40.713347","-74.004509","1","1","31","1001670","10007","SoHo-TriBeCa-Civic Center-Little Italy                                     "
"1001531001","1-153-1001","Manhattan","280 Broadway","280 BROADWAY","Connected","2","Yes","Yes","No","Full Distribution (all floors)","2","No","Combination of open, shared, and dedicated  space","No","Yes","Yes","Does not have two or more diverse riser locations","None available","No","Yes",,"40.714417","-74.006089","1","1","31","1079215","10007","SoHo-TriBeCa-Civic Center-Little Italy                                     "
"1008550001","1-855-1","Manhattan","27 Madison Avenue","27 MADISON AVENUE","Connected","1","Yes","Yes","No","Full Distribution (all floors)","1","Yes","Combination of open, shared, and dedicated  space","No","Yes","Yes","Does not have two or more diverse riser locations","None available","No","Yes",,"40.742232","-73.986821","5","2","56","1016743","10010","Hudson Yards-Chelsea-Flatiron-Union Square                                 "
"1001341001","1-134-1001","Manhattan","253 Broadway","253 BROADWAY","Connected","2","Yes","Yes","No","Full Distribution (all floors)","2","No","Combination of open, shared, and dedicated  space","No","Yes","Yes","Does not have two or more diverse riser locations","None available","No","Yes",,"40.713265","-74.007063","1","1","21","1082757","10007","SoHo-TriBeCa-Civic Center-Little Italy                                     "
"4000830001","4-83-1","Queens","25-10 Court Square","25-10 COURT SQUARE","Not certified","1","Yes","No","No","No Distribution","2","No","Combination of open, shared, and dedicated  space","No","Yes","Yes","Does not have two or more diverse riser locations","None available","No","Yes",,"40.746059","-73.943466","2","26","19","4000698","11101","Hunters Point-Sunnyside-West Maspeth                                       "
"2024440001","2-2444-1","Bronx","231 East 161st Street","231 EAST 161 STREET","Not certified","1","Yes","Yes","No","Partial Distribution (some floors)","1","No","Combination of open, shared, and dedicated  space","No","Yes","Yes","Does not have two or more diverse riser locations","None available","No","Yes",,"40.826076","-73.919984","4","16","18302",,"10451","East Concourse-Concourse Village                                           "
"1001540023","1-154-23","Manhattan","22 Reade Street","14 READE STREET","Connected","2","Yes","Yes","No","Full Distribution (all floors)","2","No","Combination of open, shared, and dedicated  space","No","Yes","Yes","Does not have two or more diverse riser locations","None available","No","Yes",,"40.714127","-74.004675","1","1","31","1078613","10007","SoHo-TriBeCa-Civic Center-Little Italy                                     "
"3002661001","3-266-1001","Brooklyn","210 Joralemon Street","210 JORALEMON STREET","Connected","3","Yes","Yes","No","Partial Distribution (some floors)","3","No","Combination of open, shared, and dedicated  space","No","Yes","Yes","Does not have two or more diverse riser locations","None available","No","Yes",,"40.692459","-73.990491","2","33","9","3002558","11201","Brooklyn Heights-Cobble Hill                                               "
"3001390001","3-139-1","Brooklyn","209 Joralemon Street","225 JORALEMON STREET","Not certified","1","Yes","No","No","No Distribution","1","No","Combination of open, shared, and dedicated  space","No","Yes","Yes","Does not have two or more diverse riser locations","None available","No","Yes",,"40.692432","-73.990228","2","33","11","3000256","11201","DUMBO-Vinegar Hill-Downtown Brooklyn-Boerum Hill                           "
"1001550001","1-155-1","Manhattan","2 Lafayette Street","2 LAFAYETTE STREET","Connected","4","Yes","Yes","No","Full Distribution (all floors)","4","No","Combination of open, shared, and dedicated  space","No","Yes","Yes","Does not have two or more diverse riser locations","None available","No","Yes",,"40.713723","-74.003586","1","1","31","1001672","10007","SoHo-TriBeCa-Civic Center-Little Italy                                     "
"2024430094","2-2443-94","Bronx","198 East 161st Street","198 EAST 161 STREET","Connected","4","Yes","Yes","No","Full Distribution (all floors)","4","No","Combination of open, shared, and dedicated  space","No","Yes","Yes","Does not have two or more diverse riser locations","None available","No","Yes",,"40.826354","-73.921024","4","16","61","2099027","10451","East Concourse-Concourse Village                                           "
"2029470018","2-2947-18","Bronx","1932 Arthur Avenue","1932 ARTHUR AVENUE","Connected","4","Yes","Yes","No","Full Distribution (all floors)","4","No","Combination of open, shared, and dedicated  space","No","Yes","Yes","Does not have two or more diverse riser locations","None available","Yes",,,"40.845685","-73.893294","6","17","36901","2009911","10457","East Tremont                                                               "
"5000070012","5/7/2012","Staten Island","18 Schuyler Street","18 RICHMOND TERRACE","Not certified","1","Yes","No","No","No Distribution","1","Combination of open"," shared"," and dedicated  space","No","Current Providers","No","Yes","Does not have two or more diverse riser locations","None available","No","40.643004","-74.075772","1","49","3","5000064","10301","West New Brighton-New Brighton-St. George                                  "
"1017690045","1-1769-45","Manhattan","170-174 East 121st Street","142 EAST 121 STREET","Connected","2","Yes","Yes","No","Full Distribution (all floors)","2","No","Combination of open, shared, and dedicated  space","No","Yes","Yes","Does not have two or more diverse riser locations","None available","No","Yes",,"40.801904","-73.939518","11","9","196",,"10035","East Harlem North                                                          "
"3000850006","3-85-6","Brooklyn","165 Cadman Plaza East","160 ADAMS STREET","Connected","3","Yes","Yes","No","Full Distribution (all floors)","3","No","Combination of open, shared, and dedicated  space","No","Yes","Yes","Does not have two or more diverse riser locations","None available","No","Yes",,"40.699033","-73.988615","2","33","13","3000172","11201","DUMBO-Vinegar Hill-Downtown Brooklyn-Boerum Hill                           "
"4100930001","4-10093-1","Queens","15102-04 Jamaica Avenue","151-02 JAMAICA AVENUE","Not certified","1","Yes","Yes","No","Partial Distribution (some floors)","1","No","Combination of open, shared, and dedicated  space","No","Yes","Yes","Does not have two or more diverse riser locations","None available","No","Yes",,"40.702455","-73.803261","12","27","240","4448847","11432","Jamaica                                                                    "
"1001970017","1-197-17","Manhattan","137 Centre Street","133 CENTRE STREET","Connected","2","Yes","Yes","No","Full Distribution (all floors)","2","No","Combination of open, shared, and dedicated  space","No","Yes","Yes","Does not have two or more diverse riser locations","None available","No","Yes",,"40.717036","-74.000747","1","1","31","1002358","10013","SoHo-TriBeCa-Civic Center-Little Italy                                     "
"5000080070","5/8/1970","Staten Island","130 Stuyvesant Place","130 STUYVESANT PLACE","Connected","2","Yes","Yes","No","Full Distribution (all floors)","2","No","Combination of open, shared, and dedicated  space","No","Yes","Yes","Does not have two or more diverse riser locations","None available","No","Yes",,"40.642891","-74.076874","1","49","3","5000085","10301","West New Brighton-New Brighton-St. George                                  "
"4096530001","4-9653-1","Queens","125-01 Queens Boulevard","125-01 QUEENS BOULEVARD","Connected","2","Yes","Yes","No","Full Distribution (all floors)","2","No","Combination of open, shared, and dedicated  space","No","Yes","Yes","Does not have two or more diverse riser locations","None available","No","Yes",,"40.712357","-73.826292","9","29","216","4206522","11415","Kew Gardens                                                                "
"1001680032","1-168-32","Manhattan","125 Worth Street","75 CENTRE STREET","Connected","3","Yes","Yes","No","Full Distribution (all floors)","3","No","Combination of open, shared, and dedicated  space","No","Yes","Yes","Does not have two or more diverse riser locations","None available","No","Yes",,"40.715249","-74.00206","1","1","31","1001831","10013","SoHo-TriBeCa-Civic Center-Little Italy                                     "
"4022740002","4-2274-2","Queens","120-55 Queens Boulevard","120-55 QUEENS BOULEVARD","Connected","3","Yes","Yes","No","Full Distribution (all floors)","3","Combination of open"," shared"," and dedicated  space","No","Current Providers","No","Yes","Does not have two or more diverse riser locations","None available","No","40.713329","-73.828601","9","29","216","4052812","11415","Kew Gardens                                                                "
"3001690017","3-169-17","Brooklyn","120 Schermerhorn Street","120 SCHERMERHORN STREET","Not certified","1","Yes","No","No","No Distribution","2","Yes","Combination of open, shared, and dedicated  space","No","Yes","Yes","Does not have two or more diverse riser locations","None available","No","Yes",,"40.690074","-73.988923","2","33","43","3000534","11201","DUMBO-Vinegar Hill-Downtown Brooklyn-Boerum Hill                           "
"1004230022","1-423-22","Manhattan","115 Chrystie Street","117 CHRYSTIE STREET","Not certified","1","Yes","No","No","No Distribution","1","No","Combination of open, shared, and dedicated  space","No","No","No","Does not have two or more diverse riser locations","None available","No","Yes",,"40.718719","-73.993546","3","1","18","1005645","10002","Chinatown                                                                  "
"2024620039","2-2462-39","Bronx","1120 Grand Concourse","1120 GRAND CONCOURSE","Not certified","1","Yes","No","No","No Distribution","2","Yes","Dedicated room","Yes","Yes","Yes","Does not have two or more diverse riser locations","None available","No","Yes",,"40.832249","-73.919644","4","16","18102","2101266","10456","East Concourse-Concourse Village                                           "
"1001690010","1-169-10","Manhattan","111-31 Centre Street","111 CENTRE STREET","Not certified","1","Yes","Yes","No","Full Distribution (all floors)","1","No","Combination of open, shared, and dedicated  space","No","Yes","Yes","Does not have two or more diverse riser locations","None available","No","Yes",,"40.716317","-74.001277","1","1","31","1001833","10013","SoHo-TriBeCa-Civic Center-Little Italy                                     "
"5005230001","5-523-1","Staten Island","111 Canal Street","WATER STREET","Not certified","1","Yes","No","No","No Distribution","1","No","Combination of open, shared, and dedicated  space","No","Yes","Yes","Does not have two or more diverse riser locations","None available","No","Yes",,,,,,,,,
"5000090022","5/9/2022","Staten Island","100 Richmond Terrace","100 RICHMOND TERRACE","Not certified","1","Yes","No","No","No Distribution","1","No","Combination of open, shared, and dedicated  space","No","Yes","Yes","Does not have two or more diverse riser locations","None available","No","Yes",,"40.644935","-74.07723","1","49","7","5000090","10301","West New Brighton-New Brighton-St. George                                  "
"1000940025","1-94-25","Manhattan","100 Gold Street","100 GOLD STREET","Connected","3","Yes","Yes","No","Full Distribution (all floors)","3","No","Combination of open, shared, and dedicated  space","No","Yes","Yes","Does not have two or more diverse riser locations","None available","No","Yes",,"40.710353","-74.004007","1","1","1501","1001289","10038","Battery Park City-Lower Manhattan                                          "
"1001670001","1-167-1","Manhattan","100 Centre Street","100 CENTRE STREET","Connected","2","Yes","Yes","No","Full Distribution (all floors)","2","No","Combination of open, shared, and dedicated  space","No","Yes","Yes","Does not have two or more diverse riser locations","None available","No","Yes",,"40.716084","-74.001425","1","1","29","1079000","10013","Chinatown                                                                  "
"5000070001","5/7/2001","Staten Island","10 Richmond Terrace","10 RICHMOND TERRACE","Connected","2","Yes","Yes","No","Partial Distribution (some floors)","2","No","Combination of open, shared, and dedicated  space","No","Yes","Yes","Does not have two or more diverse riser locations","None available","No","Yes",,"40.642197","-74.075201","1","49","3","5000063","10301","West New Brighton-New Brighton-St. George                                  "
"1001210001","1-121-1","Manhattan","1 Centre Street","1 CENTRE STREET","Connected","3","Yes","Yes","No","Full Distribution (all floors)","3","No","Combination of open, shared, and dedicated  space","No","Yes","Yes","Does not have two or more diverse riser locations","None available","No","Yes",,"40.713001","-74.004181","1","1","29","1001394","10007","Chinatown                                                                  "
"1013070014","1-1307-14","Manhattan","600 Lexington Avenue","600 LEXINGTON AVENUE","Gold","5 or more","Yes","Yes","No","Partial Distribution (some floors)","5 or more","Yes","Combination of open, shared, and dedicated  space","Yes","Yes","Yes","Yes","Yes - for installed connections","No","Yes","Lightower,Cogent,Time Warner Cable,Verizon","40.757943","-73.971322","5","4","100","1036466","10022","Turtle Bay-East Midtown                                                    "
,"1-565-15","Manhattan","853 Broadway","853 BROADWAY","Not certified","5 or more","Yes","Yes","No","No Distribution","5 or more","Yes","Dedicated room","Yes","Yes","Yes","Does not have two or more diverse riser locations","Yes - for installed connections","No","Yes","Wave 2 Wave,Verizon,Time Warner Cable,Cogent,AT&T","40.734646","-73.99081","2","2","61","1080133","10003","West Village                                                               "
"1008090053","1-809-53","Manhattan","112 West 34th Street","112 West 34th Street","Platinum","5 or more","Yes","Yes","Yes","Full Distribution (all floors)","4","Yes","Combination of open, shared, and dedicated  space","Yes","Yes","Yes","Yes","Yes - for installed connections","Yes","Yes","none,none,none,none,none","40.750063","-73.988454","5","3","101","1015201","10120","Midtown-Midtown South                                                      "
"1000370023","1-37-23","Manhattan","180 Maiden Lane","180 MAIDEN LANE","Silver","5 or more","Yes","Yes","No","Partial Distribution (some floors)","3","Yes","Combination of open, shared, and dedicated  space","Yes","Yes","Yes","Does not have two or more diverse riser locations","None available","No","Yes","AT&T,Other,Time Warner Cable,Verizon","40.705308","-74.004873","1","1","7","1000874","10005","Battery Park City-Lower Manhattan                                          "
"1012880007","1-1288-7","Manhattan","10 East 53rd Street","5 EAST 52 STREET","Gold","5 or more","Yes","Yes","No","Partial Distribution (some floors)","3","Yes","Common (shared) room","Yes","Yes","Yes","Yes","Yes - for installed connections","No","Yes","Verizon,Time Warner Cable,Cablevision,AT&T","40.75964","-73.975916","5","4","102","1035709","10022","Midtown-Midtown South                                                      "
"1010860001","1-1086-1","Manhattan","555 West 57th Street","555 WEST 57 STREET","Silver","4","Yes","Yes","No","Partial Distribution (some floors)","3","Yes","Combination of open, shared, and dedicated  space","No","Yes","Yes","Yes","None available","No","Yes","Lightower,Time Warner Cable,Verizon","40.770125","-73.990927","4","6","135","1027072","10019","Clinton                                                                    "
"1012800060","1-1280-60","Manhattan","420 Lexington Avenue","420 LEXINGTON AVENUE","Silver","5 or more","Yes","Yes","No","Partial Distribution (some floors)","5 or more","No","Common (shared) room","Yes","Yes","No","Does not have two or more diverse riser locations","Yes - for installed connections","Yes","Yes","Cogent,Cablevision,Other,Time Warner Cable,Verizon","40.752262","-73.975464","5","4","92","1035385","10170","Turtle Bay-East Midtown                                                    "
"1012870014","1-1287-14","Manhattan","488 Madison Avenue","488 MADISON AVENUE","Not certified","3","Yes","Yes","No","Partial Distribution (some floors)","5 or more","Yes","Hallway/Open Space","Yes","Yes","No","Yes","Yes - for installed connections","No","Yes","Broadview,XO Communications,Signal Point,Towerstream,Time Warner Cable,Verizon,Covad","40.758888","-73.974855","5","4","102","1035470","10022","Midtown-Midtown South                                                      "
"1013150024","1-1315-24","Manhattan","220 East 42nd Street","220 EAST 42 STREET","Silver","5 or more","Yes","Yes","No","Full Distribution (all floors)","5 or more","Yes","Common (shared) room","No","Yes","No","Does not have two or more diverse riser locations","Yes - for installed connections","No","No capability available","Other,Verizon,Time Warner Cable,Cogent,AT&T,Abovenet","40.750256","-73.973256","6","4","88","1037546","10017","Turtle Bay-East Midtown                                                    "
"1008200001","1-820-1","Manhattan","620 Avenue of the Americas","620 AVENUE OF THE AMERIC","Not certified","3","Yes","Yes","Yes","Partial Distribution (some floors)","3","Yes","Dedicated room","Yes","Yes","No","Yes","Yes - for installed connections","Yes","Yes","Other,Verizon",,,,,,,,
"1009970041","1-997-41","Manhattan","120 West 45th Street","120 WEST 45 STREET","Silver","5 or more","Yes","Yes","No","Partial Distribution (some floors)","5 or more","Yes","Common (shared) room","Yes","Yes","Yes","Does not have two or more diverse riser locations","Yes - for installed connections","No","No capability available","Verizon,TW Telecom,Time Warner Cable,Cogent,Broadview,AT&T","40.757117","-73.983544","5","4","119","1069581","10036","Midtown-Midtown South                                                      "
"1012961001","1-1296-1001","Manhattan","110 East 42nd Street","110 EAST 42 STREET","Gold","4","Yes","Yes","No","Full Distribution (all floors)","4","No","Combination of open, shared, and dedicated  space","Yes","Yes","Yes","Yes","Yes - for installed connections","Yes","No capability available","Verizon,Time Warner Cable,Cogent,AT&T","40.751807","-73.976944","5","4","80","1083181","10017","Murray Hill-Kips Bay                                                       "
"1008510041","1-851-41","Manhattan","304 Park Avenue South","304 PARK AVENUE SOUTH","Silver","4","Yes","Yes","No","Full Distribution (all floors)","3","No","Hallway/Open Space","No","Yes","Yes","Yes","None available","Yes","Yes","XO Communications,Verizon,Time Warner Cable","40.740006","-73.986507","5","2","56","1016287","10010","Hudson Yards-Chelsea-Flatiron-Union Square                                 "
"1012940046","1-1294-46","Manhattan","625 Madison Avenue","613 MADISON AVENUE","Silver","5 or more","Yes","Yes","No","Partial Distribution (some floors)","3","Yes","Combination of open, shared, and dedicated  space","Yes","Yes","Yes","Does not have two or more diverse riser locations","None available","No","Yes","Cablevision,AT&T,Time Warner Cable,Verizon","40.763054","-73.971789","5","4","11202","1036085","10022","Midtown-Midtown South                                                      "
"1008730067","1-873-67","Manhattan","215 Park Avenue South","215 PARK AVENUE SOUTH","Gold","5 or more","Yes","Yes","Yes","Full Distribution (all floors)","4","Yes","Combination of open, shared, and dedicated  space","No","Yes","No","Yes","Yes - for installed connections","No","No capability available","Verizon,Time Warner Cable,Lightower,Broadview","40.736963","-73.988713","5","2","50","1017860","10003","Gramercy                                                                   "
"1012960001","1-1296-1","Manhattan","125 Park Avenue","100 EAST 42 STREET","Gold","5 or more","Yes","Yes","No","Partial Distribution (some floors)","5 or more","No","Combination of open, shared, and dedicated  space","Yes","Yes","Yes","Yes","Yes - for installed connections","Yes","Yes","Verizon,Time Warner Cable,Cogent,Cablevision,AT&T","40.751862","-73.977074","5","4","80","1036151","10017","Murray Hill-Kips Bay                                                       "
"1013290001","1-1329-1","Manhattan","919 3rd Avenue","919 3 AVENUE","Gold","5 or more","Yes","Yes","Yes","Partial Distribution (some floors)","5 or more","Yes","Combination of open, shared, and dedicated  space","Yes","Yes","Yes","Does not have two or more diverse riser locations","None available","No","Yes","Verizon,Time Warner Cable,Cogent,Broadview","40.759136","-73.968333","6","4","108","1038577","10022","Turtle Bay-East Midtown                                                    "
"1013010033","1-1301-33","Manhattan","750 3rd Avenue","750 3 AVENUE","Gold","5 or more","Yes","Yes","No","Full Distribution (all floors)","5 or more","Yes","Combination of open, shared, and dedicated  space","Yes","Yes","Yes","Does not have two or more diverse riser locations","Yes - for installed connections","No","Yes","Cogent,Other,Cablevision,Time Warner Cable,Verizon","40.753722","-73.972309","6","4","92","1036207","10017","Turtle Bay-East Midtown                                                    "
"1010240038","1-1024-38","Manhattan","810 7th Avenue","1680 BROADWAY","Platinum","5 or more","Yes","Yes","Yes","Partial Distribution (some floors)","5 or more","Yes","Common (shared) room","Yes","Yes","Yes","Yes","Yes - for installed connections","Yes","Yes","Verizon,Time Warner Cable,Earthlink,Covad,Cogent,Broadview,AT&T","40.763034","-73.983005","5","4","131","1024828","10019","Midtown-Midtown South                                                      "
"1001250020","1-125-20","Manhattan","100 Church Street","100 CHURCH STREET","Gold","5 or more","Yes","Yes","No","Partial Distribution (some floors)","4","Yes","Combination of open, shared, and dedicated  space","Yes","Yes","Yes","Yes","Yes - for installed connections","Yes","Yes","RCN,Time Warner Cable,Lightower,AT&T,Verizon","40.712968","-74.00949","1","1","21","1001409","10007","SoHo-TriBeCa-Civic Center-Little Italy                                     "
"1013010023","1-1301-23","Manhattan","485 Lexington Avenue","485 LEXINGTON AVENUE","Gold","5 or more","Yes","Yes","No","Full Distribution (all floors)","5 or more","Yes","Combination of open, shared, and dedicated  space","Yes","Yes","Yes","Yes","Yes - for installed connections","No","Yes","Verizon,Time Warner Cable,Lightower,Cogent,AT&T,Abovenet","40.754244","-73.973994","6","4","92","1036206","10017","Turtle Bay-East Midtown                                                    "
"1010160036","1-1016-36","Manhattan","1515 Broadway","1515 BROADWAY","Gold","5 or more","Yes","Yes","Yes","Partial Distribution (some floors)","5 or more","Yes","Common (shared) room","Yes","Yes","Yes","Yes","None available","No","Yes","Other,Verizon,Time Warner Cable,Lightpath,Cablevision,AT&T","40.757636","-73.985804","5","3","119","1024714","10036","Midtown-Midtown South                                                      "
"1012700071","1-1270-71","Manhattan","1350 Avenue of the Americas","1350 AVENUE OF THE AMERIC","Gold","5 or more","Yes","Yes","No","Partial Distribution (some floors)","5 or more","Yes","Combination of open, shared, and dedicated  space","Yes","Yes","Yes","Yes","Yes - for installed connections","No","Yes","Broadview,Zayo,Time Warner Cable,Verizon,Cogent,AT&T",,,,,,,,
"1009990029","1-999-29","Manhattan","1185 Avenue of the Americas","1185 AVENUE OF THE AMERIC","Platinum","5 or more","Yes","Yes","Yes","Partial Distribution (some floors)","5 or more","Yes","Dedicated room","Yes","Yes","Yes","Yes","Yes - for installed connections","Yes","Yes","Other,Lightower,Level(3),Time Warner Cable,Verizon,Cogent,AT&T",,,,,,,,
"1012810001","1-1281-1","Manhattan","Fred F. French Building","551 5 AVENUE","Not certified","2","Yes","No","No","No Distribution","2","No","Common (shared) room","Yes","Yes","Yes","Does not have two or more diverse riser locations","None available","No","Yes","Time Warner Cable,Verizon","40.755617","-73.979318","5","4","94","1035389","10176","Midtown-Midtown South                                                      "
"1007800036","1-780-36","Manhattan","Seven Penn Plaza","370 7 AVENUE","Not certified","2","Yes","Yes","No","Full Distribution (all floors)","4","Yes","Combination of open, shared, and dedicated  space","Yes","Yes","No","Yes","Yes - for installed connections","No","Yes","TW Telecom,AT&T,Time Warner Cable,Verizon","40.74879","-73.992244","5","3","101","1014343","10001","Midtown-Midtown South                                                      "
"1010280033","1-1028-33","Manhattan","200 West 57th Street","894 7 AVENUE","Not certified","2","Yes","No","No","No Distribution","2","Yes","Hallway/Open Space","No","Yes","No","Does not have two or more diverse riser locations","None available","No","No capability available","Time Warner Cable,Verizon","40.765219","-73.980268","5","4","137","1024896","10106","Midtown-Midtown South                                                      "
"1010090050","1-1009-50","Manhattan","140 West 57th Street","140 WEST 57 STREET","Not certified","4","Yes","No","No","No Distribution","3","Yes","Hallway/Open Space","No","Yes","No","Does not have two or more diverse riser locations","Yes - for installed connections","No","No capability available","Eureka,Time Warner Cable,Verizon","40.764952","-73.978719","5","4","137","1023462","10019","Midtown-Midtown South                                                      "
"1005650015","1-565-15","Manhattan","841 Broadway","841 BROADWAY","Not certified","3","Yes","Yes","No","No Distribution","3","No","Combination of open, shared, and dedicated  space","Yes","Yes","No","Does not have two or more diverse riser locations","Yes - for installed connections","No","Yes","Wave 2 Wave,Verizon,Cogent","40.734243","-73.990896","2","2","61","1080132","10003","West Village                                                               "
"1013050060","1-1305-60","Manhattan","570 Lexington Avenue","566 LEXINGTON AVENUE","Not certified","2","Yes","Yes","No","Full Distribution (all floors)","4","Yes","Dedicated room","Yes","Yes","Yes","Does not have two or more diverse riser locations","Yes - for installed connections","Yes","Yes","Everest Broadband,Time Warner Cable,Verizon,Cogent","40.756815","-73.972145","5","4","100","1036459","10022","Turtle Bay-East Midtown                                                    "
"1008580078","1-858-78","Manhattan","261 5th Avenue","259 5 AVENUE","Not certified","4","Yes","Yes","No","No Distribution","3","Yes","Combination of open, shared, and dedicated  space","Yes","Yes","No","Does not have two or more diverse riser locations","Yes - for installed connections","No","Yes","Verizon FIOS,Verizon,Time Warner Cable,Lightower","40.745059","-73.987008","5","4","74","1016921","10016","Midtown-Midtown South                                                      "
"1008760006","1-876-6","Manhattan","257 Park Avenue South","257 PARK AVENUE SOUTH","Not certified","3","Yes","Yes","No","Full Distribution (all floors)","3","No","Dedicated room","Yes","Yes","Yes","Yes","Yes - for installed connections","No","Yes","Verizon FIOS,Verizon,Time Warner Cable,Eureka","40.738574","-73.987536","5","2","50","1017947","10010","Gramercy                                                                   "
"1008480043","1-848-43","Manhattan","250 Park Ave South","250 Park Ave South","Not certified","5 or more","Yes","Yes","No","No Distribution","3","No","Hallway/Open Space","No","Yes","Yes","Does not have two or more diverse riser locations","Yes - for installed connections","No","Yes","Verizon FIOS,Verizon,Time Warner Cable,Lightpath","40.738231","-73.987818","5","2","52","1016176","10003","Hudson Yards-Chelsea-Flatiron-Union Square                                 "
"1005107502","1-510-7502","Manhattan","Puck Building","295 Lafayette Street","Silver","3","Yes","Yes","Yes","No Distribution","4","Yes","Common (shared) room","Yes","Yes","Yes","Yes","None available","No","Yes","Towerstream,Verizon,Cogent","40.724537","-73.995761","2","1","43","1007941","10012","SoHo-TriBeCa-Civic Center-Little Italy                                     "
"1012800090","1-1280-90","Manhattan","450 Lexington Avenue","100 EAST 45 STREET","Not certified","4","Yes","Yes","No","Partial Distribution (some floors)","4","Yes","Common (shared) room","Yes","Yes","Yes","Does not have two or more diverse riser locations","Yes - for installed connections","Yes","Yes","Cogent,TW Telecom,Verizon,Other","40.753739","-73.97555","5","4","92",,"10017","Turtle Bay-East Midtown                                                    "
"1012690001","1-1269-1","Manhattan","1330 Avenue of the Americas","1330 6 Avenue","Not certified","4","Yes","Yes","No","Partial Distribution (some floors)","4","No","Dedicated room","Yes","Yes","Yes","Yes","Yes - for installed connections","Yes","Yes","XO Communications,Time Warner Cable,Verizon,AT&T,Zayo","40.762103","-73.978803","5","4","104","1034522","10019","Midtown-Midtown South                                                      "
"1012890014","1-1289-14","Manhattan","520 Madison Avenue","512 MADISON AVENUE","Platinum","5 or more","No","No","No","5","Yes","Dedicated room","No","Yes","No","No","Yes","Yes",,,"none","40.759838","-73.974165","5","4","102",,"10022","Midtown-Midtown South                                                      "
"1010087503","1-1008-7503","Manhattan","CitySpire","150 West 56 Street","Gold","5 or more","No","No","No","5","Yes","Dedicated room","Yes","Does not have two or more diverse riser locations","No","No","No","Yes",,,"Abovenet,RCN,Teleport Communications,Verizon,Eureka","40.764505","-73.979734","5","4","137","1076177","10019","Midtown-Midtown South                                                      "
"1006720001","1-672-1","Manhattan","Starrett-Lehigh","601 WEST 26 STREET","Not certified","4","Yes","Yes","No","Full Distribution (all floors)","5 or more","Yes","Combination of open, shared, and dedicated  space","Yes","Yes","Yes","Yes","None available","Yes","Yes",,"40.750934","-74.005955","4","3","99","1012268","10001","Hudson Yards-Chelsea-Flatiron-Union Square                                 "
"1012850036","1-1285-36","Manhattan","300 Park Avenue","300 PARK AVENUE","Platinum","4","Yes","Yes","Yes","Full Distribution (all floors)","5 or more","Yes","Combination of open, shared, and dedicated  space","No","Yes","Yes","Yes","Yes - for installed connections","Yes","Yes","Lightyear,Abovenet,Level(3),Windstream,Internap,Zayo,AT&T,Time Warner Cable,Verizon,Cogent","40.756802","-73.974271","5","4","102","1081146","10022","Midtown-Midtown South                                                      "
"1012580021","1-1258-21","Manhattan","11 West 42nd Street","11 WEST 42 STREET","Silver","4","Yes","Yes","No","Partial Distribution (some floors)","4","No","Combination of open, shared, and dedicated  space","No","Yes","No","Does not have two or more diverse riser locations","Yes - for installed connections","Yes","Yes","Cogent,TW Telecom,Cablevision,Verizon","40.75379","-73.981599","5","4","96","1034198","10036","Midtown-Midtown South                                                      "
"1010150029","1-1015-29","Manhattan","Paramount Building","1501 BROADWAY","Gold","4","Yes","Yes","No","Full Distribution (all floors)","3","Yes","Combination of open, shared, and dedicated  space","Yes","Yes","Yes","Does not have two or more diverse riser locations","Yes - for installed connections","Yes","Yes","Verizon,Time Warner Cable,MegaPath","40.757103","-73.986193","5","3","119","1024706","10036","Midtown-Midtown South                                                      "
"1012877501","1-1287-7501","Manhattan","Olympic Tower","645 5th Avenue","Silver","3","Yes","Yes","No","Partial Distribution (some floors)","3","Yes","Dedicated room","No","Yes","Yes","Yes","Yes - for installed connections","Yes","Yes","Time Warner Cable,Verizon,Zayo","40.759133","-73.976407","5","4","102","1035481","10022","Midtown-Midtown South                                                      "
"1012970033","1-1297-33","Manhattan","Chrysler Center","666 3 AVENUE","Silver","3","Yes","Yes","No","Partial Distribution (some floors)","5 or more","Yes","Combination of open, shared, and dedicated  space","Yes","Yes","No","Does not have two or more diverse riser locations","Yes - for installed connections","Yes","Yes",,"40.751049","-73.974252","6","4","92","1036161","10017","Turtle Bay-East Midtown                                                    "
"1012970023","1-1297-23","Manhattan","Chrysler Center","395 LEXINGTON AVENUE","Silver","3","Yes","Yes","No","Partial Distribution (some floors)","5 or more","Yes","Combination of open, shared, and dedicated  space","Yes","Yes","No","Does not have two or more diverse riser locations","Yes - for installed connections","Yes","Yes","Lightower,Cogent,AT&T,zColo,Time Warner Cable,Verizon","40.751587","-73.97593","6","4","92","1036156","10174","Turtle Bay-East Midtown                                                    "
"1005990064","1-599-64","Manhattan","375 Hudson Street","363 HUDSON STREET","Gold","4","Yes","Yes","No","Full Distribution (all floors)","2","Yes","Dedicated room","Yes","Yes","Yes","Yes","Yes - for installed connections","Yes","Yes","Verizon,Cogent,Fibernet","40.72816","-74.007194","2","3","37","1010379","10014","SoHo-TriBeCa-Civic Center-Little Italy                                     "
"1012809010","1-1280-9010","Manhattan","The Met Life Building","200 PARK AVENUE","Platinum","5 or more","Yes","Yes","Yes","Partial Distribution (some floors)","5 or more","Yes","Dedicated room","Yes","Yes","Yes","Yes","Yes - for installed connections","Yes","Yes","Lightower,AT&T,Time Warner Cable,Cogent,Verizon","40.754162","-73.976557","5","4","92","1085735","10017","Turtle Bay-East Midtown                                                    "
"1012910028","1-1291-28","Manhattan","Park Avenue Tower","65 EAST 55 STREET","Platinum","5 or more","Yes","Yes","Yes","Full Distribution (all floors)","5 or more","Yes","Dedicated room","Yes","Yes","Yes","Does not have two or more diverse riser locations","Yes - for installed connections","Yes","Yes",,"40.760718","-73.972642","5","4","102","1035771","10022","Midtown-Midtown South                                                      "
"1013060033","1-1306-33","Manhattan","850 3rd avenue","850 3 AVENUE","Silver","2","Yes","Yes","Yes","Partial Distribution (some floors)","3","Yes","Combination of open, shared, and dedicated  space","No","Yes","Yes","Yes","None available","No","No capability available","Other,Verizon","40.756924","-73.969976","6","4","100","1036462","10022","Turtle Bay-East Midtown                                                    "
"1008330011","1-833-11","Manhattan","1250 Broadway","1240 BROADWAY","Not certified","5 or more","Yes","Yes","No","Full Distribution (all floors)","5 or more","Yes","Common (shared) room","Yes","Yes","Yes","Does not have two or more diverse riser locations","Yes - for installed connections","Yes","Yes","Verizon,Time Warner Cable,Lightpath,Lightower,Cogent,AT&T","40.747648","-73.988278","5","4","76","1015805","10001","Midtown-Midtown South                                                      "
"1008060009","1-806-9","Manhattan","145 West 30th Street","145 WEST 30 STREET","Not certified","2","Yes","No","No","No Distribution","2","No","Hallway/Open Space","No","Yes","No","Does not have two or more diverse riser locations","Yes - for installed connections","Yes","Yes","Verizon","40.747837","-73.990934","5","3","101","1015158","10001","Midtown-Midtown South                                                      "
"1007540068","1-754-68","Manhattan","Twenty One Penn Plaza","350 WEST 31 STREET","Not certified","3","Yes","Yes","No","Full Distribution (all floors)","3","Yes","Combination of open, shared, and dedicated  space","No","Yes","No","Yes","Yes - for installed connections","Yes","Yes",,"40.750893","-73.996286","4","3","103","1013539","10001","Hudson Yards-Chelsea-Flatiron-Union Square                                 "
"4002810001","4-281-1","Queens","The Falchi Building","3100 47 AVENUE","Not certified","3","Yes","Yes","No","Partial Distribution (some floors)","4","Yes","Hallway/Open Space","Yes","Yes","Yes","Does not have two or more diverse riser locations","Yes - for installed connections","Yes","Yes","Verizon,Time Warner Cable,Eureka,AT&T","40.74306","-73.935652","2","26","199","4003539","11101","Hunters Point-Sunnyside-West Maspeth                                       "
"1012780014","1-1278-14","Manhattan","340 Madison Avenue","340 MADISON AVENUE","Not certified","5 or more","Yes","Yes","Yes","Full Distribution (all floors)","5 or more","Yes","Dedicated room","Yes","Yes","Yes","Yes","Yes - for installed connections","Yes","Yes",,"40.753869","-73.978513","5","4","94","1035357","10173","Midtown-Midtown South                                                      "
"1012600034","1-1260-34","Manhattan","530 5th Avenue","530 5 AVENUE","Not certified","4","Yes","Yes","No","Partial Distribution (some floors)","3","Yes","Combination of open, shared, and dedicated  space","Yes","Yes","Yes","Does not have two or more diverse riser locations","Yes - for installed connections","Yes","Yes","Verizon,Time Warner Cable,Lightpath","40.754879","-73.979877","5","4","96","1034227","10036","Midtown-Midtown South                                                      "
"1007130001","1-713-1","Manhattan","Chelsea Market","75 9th Ave","Not certified","4","Yes","Yes","Yes","Partial Distribution (some floors)","3","Yes","Dedicated room","Yes","Yes","Yes","Yes","Yes - for installed connections","Yes","Yes","Other,Verizon","40.741876","-74.004713","4","3","83","1012541","10011","Hudson Yards-Chelsea-Flatiron-Union Square                                 "
"1005970062","1-597-62","Manhattan","325 HUDSON STREET","323 HUDSON STREET","Not certified","5 or more","Yes","Yes","Yes","Full Distribution (all floors)","5 or more","Yes","Combination of open, shared, and dedicated  space","Yes","Yes","Yes","Yes","Yes - for installed connections","Yes","Yes",,"40.726711","-74.007425","2","3","37","1010375","10013","SoHo-TriBeCa-Civic Center-Little Italy                                     "
"1013000014","1-1300-14","Manhattan","237 Park Avenue","460 LEXINGTON AVENUE","Not certified","5 or more","Yes","Yes","No","Partial Distribution (some floors)","5 or more","Yes","Combination of open, shared, and dedicated  space","Yes","Yes","Yes","Yes","Yes - for installed connections","Yes","Yes",,"40.753467","-73.97459","5","4","92",,"10017","Turtle Bay-East Midtown                                                    "
"1001920001","1-192-1","Manhattan","32 Avenue of the Americas","16 WALKER STREET","Platinum","5 or more","Yes","Yes","Yes","Full Distribution (all floors)","5 or more","Yes","Dedicated room","Yes","Yes","Yes","Yes","Yes - for installed connections","Yes","Yes","Other,Zayo,XO Communications,Verizon,TW Telecom,Towerstream,Time Warner Cable,Sprint,Reliance,RCN,Rainbow Broadband,OCG,Lightpath,Lightower,Level(3),Cogent,Century Link,AT&T,Abovenet","40.719753","-74.004978","1","1","33","1002192","10013","SoHo-TriBeCa-Civic Center-Little Italy                                     "
"1000100023","1/10/2023","Manhattan","One Whitehall Street","1 WHITEHALL STREET","Gold","4","Yes","Yes","No","Partial Distribution (some floors)","4","Yes","Dedicated room","Yes","Yes","Yes","Does not have two or more diverse riser locations","Yes - for installed connections","Yes","Yes","AT&T,Verizon,Time Warner Cable,Cogent","40.703973","-74.013164","1","1","9","1000027","10004","Battery Park City-Lower Manhattan                                          "
"1013050013","1-1305-13","Manhattan","560 Lexington Avenue","560 LEXINGTON AVENUE","Platinum","4","Yes","Yes","Yes","Partial Distribution (some floors)","4","Yes","Common (shared) room","Yes","No","Yes","Yes","Yes - for installed connections","Yes","Yes","Other,Verizon,Reliance,Cogent","40.756651","-73.972264","5","4","100","1036451","10022","Turtle Bay-East Midtown                                                    "
"1010240015","1-1024-15","Manhattan","1675 Broadway","1675 BROADWAY","Platinum","5 or more","Yes","Yes","Yes","Full Distribution (all floors)","5 or more","Yes","Combination of open, shared, and dedicated  space","Yes","Yes","Yes","Does not have two or more diverse riser locations","Yes - for installed connections","No","Yes","Other,Zayo,Verizon,Time Warner Cable,Reliance,Cogent,AT&T,Abovenet","40.762963","-73.983073","5","3","131","1076199","10019","Midtown-Midtown South                                                      "
"1013060001","1-1306-1","Manhattan","345 Park Avenue","345 PARK AVENUE","Gold","5 or more","Yes","Yes","No","Partial Distribution (some floors)","5 or more","Yes","Combination of open, shared, and dedicated  space","Yes","Yes","Yes","Yes","Yes - for installed connections","Yes","Yes","Sprint,Zayo,AT&T,Reliance Globalcom,Verizon,Time Warner Cable,Cogent","40.758171","-73.973246","5","4","100","1036460","10154","Turtle Bay-East Midtown                                                    "
"1012840021","1-1284-21","Manhattan","415 Madison Avenue","413 MADISON AVENUE","Gold","3","Yes","Yes","No","Full Distribution (all floors)","3","Yes","Dedicated room","Yes","Yes","Yes","Yes","Yes - for installed connections","Yes","Yes","Verizon,Time Warner Cable,Cogent","40.756753","-73.976383","5","4","94","1035439","10017","Midtown-Midtown South                                                      "
"1012870028","1-1287-28","Manhattan","40 East 52nd Street","41 EAST 51 STREET","Gold","5 or more","Yes","Yes","No","Full Distribution (all floors)","5 or more","Yes","Hallway/Open Space","Yes","Yes","Yes","Does not have two or more diverse riser locations","Yes - for installed connections","Yes","Yes","Other,Zayo,Verizon,Time Warner Cable,Reliance,Lightower,Cogent,AT&T","40.758323","-73.974722","5","4","102","1076267","10022","Midtown-Midtown South                                                      "
"1000090029","1/9/2029","Manhattan","One Battery Park Plaza","24 WHITEHALL STREET","Platinum","3","No","Yes","Yes","Full Distribution (all floors)","5 or more","Yes","Dedicated room","Yes","Yes","Yes","Yes","Yes - for installed connections","Yes","Yes","Other,Zayo,XO Communications,Verizon,Time Warner Cable,Sidera,Reliance,Lightower,Cogent,AT&T","40.703446","-74.013092","1","1","9","1000021","10004","Battery Park City-Lower Manhattan                                          "
"1012950023","1-1295-23","Manhattan","355 Lexington Avenue","355 LEXINGTON AVENUE","Platinum","4","Yes","Yes","Yes","Full Distribution (all floors)","3","Yes","Dedicated room","Yes","Yes","No","Yes","Yes - for installed connections","Yes","Yes","Verizon,Time Warner Cable,Cogent","40.750245","-73.976909","6","4","80","1036147","10017","Murray Hill-Kips Bay                                                       "
"1000250001","1/25/2001","Manhattan","55 Broad Street","55 BROAD STREET","Platinum","5 or more","Yes","Yes","Yes","Full Distribution (all floors)","5 or more","Yes","Dedicated room","Yes","Yes","Yes","Does not have two or more diverse riser locations","Yes - for installed connections","Yes","Yes","XO Communications,Verizon,Time Warner Cable,Lightpath,Lightower,Level(3),Zayo,Reliance Globalcom,Cogent,AT&T,Verizon Business,Sprint,CDS","40.705189","-74.011505","1","1","9","1000821","10004","Battery Park City-Lower Manhattan                                          "
"1013250001","1-1325-1","Manhattan","845 3rd Avenue","845 3 AVENUE","Gold","3","Yes","Yes","Yes","Partial Distribution (some floors)","3","Yes","Dedicated room","No","Yes","Yes","Yes","Yes - for installed connections","Yes","Yes","Verizon,Time Warner Cable,Cogent","40.756688","-73.970128","6","4","98","1038464","10022","Turtle Bay-East Midtown                                                    "
"1013090023","1-1309-23","Manhattan","641 Lexington Avenue","641 LEXINGTON AVENUE","Platinum","4","Yes","Yes","Yes","Partial Distribution (some floors)","5 or more","Yes","Dedicated room","Yes","Yes","No","Yes","Yes - for installed connections","Yes","Yes","Other,Verizon,Time Warner Cable,Reliance,Lightower","40.75903","-73.970321","6","4","100","1036482","10022","Turtle Bay-East Midtown                                                    "
"1000390012","1-39-12","Manhattan","80 Pine Street","110 MAIDEN LANE","Platinum","5 or more","No","Yes","Yes","Full Distribution (all floors)","5 or more","Yes","Dedicated room","Yes","Yes","Yes","Yes","Yes - for installed connections","Yes","Yes","Verizon,Time Warner Cable,Lightower,FIbertower,Zayo,Reliance Globalcom,AT&T","40.7066","-74.006633","1","1","7","1000880","10005","Battery Park City-Lower Manhattan                                          "
"1008550037","1-855-37","Manhattan","41 Madison Avenue","35 MADISON AVENUE","Platinum","5 or more","Yes","Yes","Yes","Partial Distribution (some floors)","5 or more","No","Common (shared) room","Yes","Yes","Yes","Yes","Yes - for installed connections","Yes","Yes","Other,Verizon,Towerstream,Time Warner Cable,Reliance,Lightower,Cogent","40.742452","-73.986817","5","2","56","1016749","10010","Hudson Yards-Chelsea-Flatiron-Union Square                                 "
"1010140033","1-1014-33","Manhattan","3 Times Square","3 TIMES SQUARE","Platinum","5 or more","Yes","Yes","Yes","Full Distribution (all floors)","5 or more","Yes","Dedicated room","Yes","Yes","Yes","Yes","Yes - for installed connections","Yes","Yes","Verizon,TW Telecom,Time Warner Cable,Lightpath,Lightower,Level(3),Cogent,AT&T,Abovenet","40.756376","-73.986713","5","3","119","1024686","10036","Midtown-Midtown South                                                      "
