"providertype","dfta_id","programname","sponsorname","programaddress","programcity","programstate","programzipcode","borough","programphone","dfta_funded","monhouropen","monhourclose","tuehouropen","tuehourclose","wedhouropen","wedhourclose","thuhouropen","thuhourclose","frihouropen","frihourclose","sathouropen","sathourclose","sunhouropen","sunhourclose","latitude","longitude","communityboard","councildist","censustract","bin","bbl","nta","location1"
"SENIOR CENTER CONTRACTS","25W01","SCHEUER HOUSE OF CI NEIGHBORHOOD SR CTR","THE JEWISH ASSOCIATION FOR SERVICES FOR THE AGED","3601 SURF AVENUE","BROOKLYN","NY","11224","BROOKLYN","718-373-3954","Y",,,,,,,,,,,,,,,"40.573144","-74.001587","313","47","342","3321762","3070450031","Seagate-Coney Island","POINT (-74.001587 40.573144)"
"HOMECARE SERVICES CONTRACTS","5H601","RICHMOND HOME NEEDS","RICHMOND HOME NEED SERVICES INC","3155 AMBOY ROAD","STATEN ISLAND","NY","10306","STATEN ISLAND","718-313-1381","Y",,,,,,,,,,,,,,,"40.564389","-74.131879","503","51","14606","5107641","5044720001","Great Kills","POINT (-74.131879 40.564389)"
"HOMECARE SERVICES CONTRACTS","2HB01","PERSONAL TOUCH-BROOKLYN","PERSONAL-TOUCH HOME CARE OF N.Y. INC.","186-18 HILLSIDE AVENUE","JAMAICA","NY","11432","QUEENS","718-468-2500","Y",,,,,,,,,,,,,,,"40.714611","-73.775629","412","27","480","4212835","4099340026","Jamaica","POINT (-73.775629 40.714611)"
"HOMECARE SERVICES CONTRACTS","3HD01","NEW YORK FOUNDATION-MANHATTAN","NEW YORK FOUNDATION FOR SENIOR CITIZENS HOME ATTENDANT SERVI","11 PARK PLACE","NEW YORK","NY","10007","MANHATTAN","212-962-7559","Y",,,,,,,,,,,,,,,"40.712828","-74.008296","101","01","21","1001399","1001240004","SoHo-TriBeCa-Civic Center-Little Italy","POINT (-74.008296 40.712828)"
"HOMECARE SERVICES CONTRACTS","4H701","PEOPLE CARE-QUEENS","PEOPLE CARE INCORPORATED","116 WEST 32ND STREET","NEW YORK","NY","10001","MANHATTAN","212-600-9424","Y",,,,,,,,,,,,,,,"40.74882","-73.989472","105","03","101","1015181","1008070028","Midtown-Midtown South","POINT (-73.989472 40.74882)"
"CASE MANAGEMENT SERVICES CONTRACTS","2MG01","JASA CASE MANAGEMENT BK-4","THE JEWISH ASSOCIATION FOR SERVICES FOR THE AGED","2211 CHURCH AVENUE","BROOKLYN","NY","11226","BROOKLYN","718-934-4294","Y",,,,,,,,,,,,,,,"40.630999","-73.966444","314","40","460","3170238","3064980024","Flatbush","POINT (-73.966444 40.630999)"
"SENIOR CENTER CONTRACTS","31702","Carter Burden Roosevelt Island Neighborhood Senior Center","CARTER BURDEN NETWORK INC.","546 Main Street","NEW YORK","NY","10021","MANHATTAN","212-980-1888","Y",,,,,,,,,,,,,,,"40.761781","-73.949762","108","05","23801","1083202","1013730030","Lenox Hill-Roosevelt Island","POINT (-73.949762 40.761781)"
"SENIOR CENTER CONTRACTS","10W01","JAMES MONROE NEIGHBORHOOD SENIOR CENT","INSTITUTE FOR THE PUERTO RICAN HISPANIC ELDERLY INC","1776 STORY AVENUE","BRONX","NY","10472","BRONX","718-893-3484","Y",,,,,,,,,,,,,,,"40.82324","-73.86596","209","18","42","2092748","2036370001","Soundview-Castle Hill-Clason Point-Harding Park","POINT (-73.86596 40.82324)"
"SENIOR CENTER CONTRACTS","31701","Carter Burden Luncheon Club Neighborhood Senior Center","CARTER BURDEN NETWORK INC.","351 EAST 74TH STREET","NEW YORK","NY","10021","MANHATTAN","212-535-5235","Y",,,,,,,,,,,,,,,"40.76962","-73.956197","108","05","134","1044930","1014490020","Lenox Hill-Roosevelt Island","POINT (-73.956197 40.76962)"
"SENIOR CENTER CONTRACTS","43Q02","JASA CLUB 76 SENIOR CENTER","THE JEWISH ASSOCIATION FOR SERVICES FOR THE AGED","86-25 FRANCIS LEWIS BOULEVARD","JAMAICA","NY","11427","QUEENS","718-776-8500","Y",,,,,,,,,,,,,,,"40.724948","-73.765107","408","23","492","4226088","4106000019","Jamaica Estates-Holliswood","POINT (-73.765107 40.724948)"
"SENIOR CENTER CONTRACTS","27Z01","Prospect Hill Neighborhood Senior Center","ST JOHN ST MATTHEW EMANUEL LUTHERAN CHURCH","283 PROSPECT AVENUE","BROOKLYN","NY","11215","BROOKLYN","718-499-9574","Y",,,,,,,,,,,,,,,"40.663323","-73.989165","307","39","141","3337801","3010530073","Park Slope-Gowanus","POINT (-73.989165 40.663323)"
"SENIOR CENTER CONTRACTS","42001","JSPOA THEODORA JACKSON NSC","JAMAICA SERVICE PROGRAM FOR OLDER ADULTS INC","92-47 165TH STREET","JAMAICA","NY","11433","QUEENS","7186576618","Y",,,"08:30","04:30","08:30","04:30","08:30","04:30","08:30","04:30","00:00","00:00","00:00","00:00","40.704457","-73.794108","412","27","444","4216225","4101550029","Jamaica","POINT (-73.794108 40.704457)"
"SENIOR CENTER CONTRACTS","32Y01","THE CENTER AT THE RED OAK NEIGHBR SR CTR","WEST SIDE FEDERATION FOR SENIOR AND SUPPORTIVE HOUSING INC","135 WEST 106TH STREET","NEW YORK","NY","10025","MANHATTAN","212-749-7015","Y",,,,,,,,,,,,,,,"40.799919","-73.964459","107","07","193","1055957","1018610010","Morningside Heights","POINT (-73.964459 40.799919)"
"SENIOR CENTER CONTRACTS","40U01","HANAC RAVENSWOOD NSC","HANAC INC.","34-35A 12TH STREET","LONG ISLAND CITY","NY","11106","QUEENS","718-786-1550","Y",,,,,,,,,,,,,,,"40.76323","-73.937607","401","26","43","4430802","4005230002","Queensbridge-Ravenswood-Long Island City","POINT (-73.937607 40.76323)"
"SENIOR CENTER CONTRACTS","43501","JSPOA Friendship Neighborhood Senior Center","JAMAICA SERVICE PROGRAM FOR OLDER ADULTS INC","92-33 170TH STREET","JAMAICA","NY","11433","QUEENS","718-657-6540","Y",,,,,,,,,,,,,,,"40.706193","-73.789136","412","27","444","4457492","4102120033","Jamaica","POINT (-73.789136 40.706193)"
"SENIOR CENTER CONTRACTS","3AP01","SAGE HARLEM","SERVICES AND ADVOCACY FOR GAYLESBIANBISEXUAL AND TRANSGEND","220 WEST 143RD STREET","NEW YORK","NY","10030","MANHATTAN","646-660-8951","Y",,,,,,,,,,,,,,,"40.8208","-73.94113","110","09","232","1086084","1020280016","Central Harlem North-Polo Grounds","POINT (-73.94113 40.8208)"
"SENIOR CENTER CONTRACTS","28701","CYPRESS HILLS FULTON ST NBH SR CTZ CTR","CYPRESS HILLS-FULTON STREET SENIOR CITIZENS CENTER INC","3208 FULTON STREET","BROOKLYN","NY","11208","BROOKLYN","7182350064","Y",,,,,,,,,,,,,,,"40.682337","-73.876771","305","37","1178","3092631","3041400013","Cypress Hills-City Line","POINT (-73.876771 40.682337)"
"ELDER ABUSE SERVICES CONTRACTS","3E201","CARTER BURDEN ELDER ABUSE","CARTER BURDEN NETWORK INC.","1484 FIRST AVENUE","NEW YORK","NY","10021","MANHATTAN","212-879-7400","Y",,,,,,,,,,,,,,,,,"108","05",,"1081248","1014720003",,
"SENIOR CENTER CONTRACTS","15G01","BronxWorks Innovative Senior Center","BRONXWORKS INC","80 EAST 181ST STREET","BRONX","NY","10453","BRONX","718-933-5300","Y",,,,,,,,,,,,,,,"40.855076","-73.904199","205","14","241","2013953","2031780032","Mount Hope","POINT (-73.904199 40.855076)"
"CAREGIVER SERVICES CONTRACTS","2K401","HEIGHTS AND HILL CAREGIVER PROGRAM","HEIGHTS AND HILLS INC.","81 WILLOUGHBY STREET","BROOKLYN","NY","11201","BROOKLYN","718-596-8789","Y",,,,,,,,,,,,,,,,,"302","33",,"3000350","3001480046",,
"SENIOR CENTER CONTRACTS","32B01","UNIVERSITY SETTLEMENT NSC","UNIVERSITY SETTLEMENT SOCIETY OF NEW YORK","189 ALLEN STREET","NEW YORK","NY","10002","MANHATTAN","212-473-8217","Y",,,,,,,,,,,,,,,"40.722133","-73.988964","103","01","3601","1005537","1004170001","Chinatown","POINT (-73.988964 40.722133)"
"SENIOR CENTER CONTRACTS","43U01","SAMUEL FIELD NEIGHBORHOOD SENIOR CENTER","SAMUEL FIELD YM & YWHA INC","58-20 LITTLE NECK PARKWAY","FLUSHING","NY","11362","QUEENS","718-225-6750","Y",,,,,,,,,,,,,,,"40.761577","-73.723122","411","23","152902","4173029","4083520051","Douglas Manor-Douglaston-Little Neck","POINT (-73.723122 40.761577)"
"CASE MANAGEMENT SERVICES CONTRACTS","4ME01","SELFHELP PROJECT QUEENS","SELFHELP COMMUNITY SERVICES INC","45-25 KISSENA BOULEVARD","FLUSHING","NY","11355","QUEENS","718-321-8194","Y",,,,,,,,,,,,,,,"40.751765","-73.820331","407","20","1205","4117390","4052000052","East Flushing","POINT (-73.820331 40.751765)"
"SENIOR CENTER CONTRACTS","10M02","SUE GINSBURG SENIOR CENTER","THE JEWISH ASSOCIATION FOR SERVICES FOR THE AGED","975 WARING AVENUE","BRONX","NY","10469","BRONX","718-881-1758","Y",,,,,,,,,,,,,,,"40.861211","-73.859709","211","13","324","2093415","2044440001","Bronxdale","POINT (-73.859709 40.861211)"
"SENIOR CENTER CONTRACTS","44U01","BROOKVILLE NSC","SERVICES NOW FOR ADULT PERSONS INC","133-33 BROOKVILLE BOULEVARD","JAMAICA","NY","11422","QUEENS","718-525-8899","Y",,,,,,,,,,,,,,,"40.674396","-73.732749","413","31","61602","4279577","4129800001","Rosedale","POINT (-73.732749 40.674396)"
"SENIOR CENTER CONTRACTS","30A03","Ralph J. Rangel Social Club","COTHOA LUNCHEON CLUB INC","159-36 HARLEM RIVER DRIVE","NEW YORK","NY","10039","MANHATTAN","646-918-7570","Y",,,,,,,,,,,,,,,"40.833365","-73.935456","110","09","24302","1084184","1021060320","Central Harlem North-Polo Grounds","POINT (-73.935456 40.833365)"
"SENIOR CENTER CONTRACTS","64901","SAGE Innovative Senior Center","SERVICES AND ADVOCACY FOR GAYLESBIANBISEXUAL AND TRANSGEND","305 SEVENTH AVENUE","NEW YORK","NY","10001","MANHATTAN","212-741-2247","Y",,,,,,,,,,,,,,,"40.746817","-73.993655","105","03","95","1015060","1008037502","Midtown-Midtown South","POINT (-73.993655 40.746817)"
"SENIOR CENTER CONTRACTS","28G01","Ridgewood Bushwick Innovative Senior Center","RISEBORO COMMUNITY PARTNERSHIP INC","9 NOLL STREET","BROOKLYN","NY","11206","BROOKLYN","718-782-3601","Y",,,,,,,,,,,,,,,"40.700163","-73.935675","304","34","391","3387594","3031450100","Bushwick South","POINT (-73.935675 40.700163)"
"SENIOR CENTER CONTRACTS","32Y02","DOUGLAS SOCIAL CLUB","WEST SIDE FEDERATION FOR SENIOR AND SUPPORTIVE HOUSING INC","868 AMSTERDAM AVENUE","NEW YORK","NY","10025","MANHATTAN","646-214-2560","Y",,,,,,,,,,,,,,,"40.798169","-73.967371","107","07","191","1079429","1018740029","Upper West Side","POINT (-73.967371 40.798169)"
"SENIOR CENTER CONTRACTS","20203","SETH LOW SOCIAL CLUB","FORT GREENE COUNCIL","137 BELMONT AVENUE","BROOKLYN","NY","11212","BROOKLYN","718-485-4991","Y",,,,,,,,,,,,,,,"40.669205","-73.905172","316","41","908","3327015","3037270001","Brownsville","POINT (-73.905172 40.669205)"
"SENIOR CENTER CONTRACTS","44001","BROOKDALE NSC","THE JEWISH ASSOCIATION FOR SERVICES FOR THE AGED","131 BEACH 19TH STREET","FAR ROCKAWAY","NY","11691","QUEENS","718-471-3200","Y",,,,,,,,,,,,,,,"40.593761","-73.753207","414","31","99802","4301622","4158100055","Far Rockaway-Bayswater","POINT (-73.753207 40.593761)"
"SENIOR CENTER CONTRACTS","20Q01","INDEPENDENCE NEIGHBORHOOD SENIOR CENTER","BERGEN BASIN COMMUNITY DEVELOPMENT CORPORATION DBA MILLENNIU","114 TAYLOR STREET","BROOKLYN","NY","11211","BROOKLYN","718-388-9242","Y",,,,,,,,,,,,,,,"40.705508","-73.963702","301","33","545","3059905","3021760001","Williamsburg","POINT (-73.963702 40.705508)"
"HOME DELIVERED MEAL SERVICE CONTRACTS","29H01","RIDGEWOOD BUSHWICK HOME DELIVERED MEALS","RISEBORO COMMUNITY PARTNERSHIP INC","565 Bushwick Avenue","BROOKLYN","NY","11206","BROOKLYN","718-782-6334","Y",,,,,,,,,,,,,,,"40.704366","-73.943775","301","34","491","3071447","3030960030","East Williamsburg","POINT (-73.943775 40.704366)"
"SENIOR CENTER CONTRACTS","43101","SELFHELP CLEARVIEW NSC","SELFHELP COMMUNITY SERVICES INC","208-11 26TH AVENUE","FLUSHING","NY","11360","QUEENS","718-224-7888","Y",,,,,,,,,,,,,,,"40.776381","-73.783798","407","19","99704","4130866","4058630250","Ft. Totten-Bay Terrace-Clearview","POINT (-73.783798 40.776381)"
"SENIOR CENTER CONTRACTS","23L01","CCNS ST CHARLES NEIGHBORHOOD SENIOR CENT","CATHOLIC CHARITIES NEIGHBORHOOD SERVICES INC","55 PIERREPONT STREET","BROOKLYN","NY","11201","BROOKLYN","718-855-0326","Y",,,,,,,,,,,,,,,"40.695783","-73.995117","302","33","501","3001825","3002367502","Brooklyn Heights-Cobble Hill","POINT (-73.995117 40.695783)"
"SENIOR CENTERS HOME DELIVERED MEAL SERVICE CONTRACTS","32T04","PSS HARLEM NEIGHBORHOOD SENIOR CENTER","PRESBYTERIAN SENIOR SERVICES","18 MT. MORRIS PARK WEST","NEW YORK","NY","10027","MANHATTAN","212-222-3132","Y",,,,,,,,,,,,,,,"40.804822","-73.945457","111","09","198","1083967","1017190001","East Harlem North","POINT (-73.945457 40.804822)"
"SENIOR CENTER CONTRACTS","32P01","LENOX HILL NEIGHBORHOOD SENIOR CENTER","LENOX HILL NEIGHBORHOOD HOUSE INC","619 LEXINGTON AVENUE","NEW YORK","NY","10022","MANHATTAN","212-308-1959","Y",,,,,,,,,,,,,,,"40.758698","-73.970744","106","04","100","1036474","1013087501","Turtle Bay-East Midtown","POINT (-73.970744 40.758698)"
"SENIOR CENTER CONTRACTS","12E01","MOSHOLU MONTEFIORE NEIGHBORHOOD SR CT","CHILD DEVELOPMENT CENTER OF THE MOSHOLU-MONTEFIORE COMMMUNIT","3450 DEKALB AVENUE","BRONX","NY","10467","BRONX","718-798-6601","Y",,,,,,,,,,,,,,,"40.881486","-73.881226","207","11","421","2096396","2033270001","Norwood","POINT (-73.881226 40.881486)"
"SENIOR CENTER CONTRACTS","21F01","RED HOOK NEIGHBORHOOD SENIOR CENTER","SPANISH SPEAKING ELDERLY COUNCIL RAICES INC.","120 West 9th Street","BROOKLYN","NY","11231","BROOKLYN","718-269-0519","Y",,,,,,,,,,,,,,,"40.675925","-74.001961","306","38","85","3339412","3005380001","Carroll Gardens-Columbia Street-Red Hook","POINT (-74.001961 40.675925)"
"SENIOR CENTER CONTRACTS","22T01","JAY-HARAMA NEIGHBORHOOD SENIOR CENTER","JEWISH COMMUNITY COUNCIL OF GREATER CONEY ISLAND INC","2600 OCEAN AVENUE","BROOKLYN","NY","11229","BROOKLYN","718-891-1110","Y",,,,,,,,,,,,,,,"40.598158","-73.951186","315","48","578","3199766","3073520032","Madison","POINT (-73.951186 40.598158)"
"SENIOR CENTER CONTRACTS","12M01","RAIN MT CARMEL NEIGHBORHOOD SENIOR CTR","REGIONAL AID FOR INTERIM NEEDS INC","2405 SOUTHERN BLVD","BRONX","NY","10458","BRONX","718-733-8852","Y",,,,,,,,,,,,,,,"40.853773","-73.881558","206","15","393","2013061","2031150005","Belmont","POINT (-73.881558 40.853773)"
"HOME DELIVERED MEAL SERVICE CONTRACTS","46J01","SNAP HOME DELIVERED MEALS","SERVICES NOW FOR ADULT PERSONS INC","80-45 WINCHESTER BOULEVARD","JAMAICA","NY","11427","QUEENS","718-454-2385","Y",,,,,,,,,,,,,,,"40.737685","-73.734021","413","23","1567","4537294","4078800400","Bellerose","POINT (-73.734021 40.737685)"
"CASE MANAGEMENT SERVICES CONTRACTS","4MH01","JASA CASE MANAGEMENT-QN 7","THE JEWISH ASSOCIATION FOR SERVICES FOR THE AGED","131 BEACH 19TH STREET","FAR ROCKAWAY","NY","11691","QUEENS","718-713-3413","Y",,,,,,,,,,,,,,,"40.593761","-73.753207","414","31","99802","4301622","4158100055","Far Rockaway-Bayswater","POINT (-73.753207 40.593761)"
"SENIOR CENTER CONTRACTS","20601","KRAKUS LUNCHEON CLUB NEIGHBORHOOD SC","POLISH & SLAVIC CENTER INC","176 JAVA STREET","BROOKLYN","NY","11222","BROOKLYN","718-383-3324","Y",,,,,,,,,,,,,,,"40.731692","-73.953577","301","33","575","3064615","3025510014","Greenpoint","POINT (-73.953577 40.731692)"
"LEGAL SERVICES CONTRACTS","40A01","JASA LEGAL SERVICES","THE JEWISH ASSOCIATION FOR SERVICES FOR THE AGED","97-77 QUEENS BOULEVARD","FLUSHING","NY","11374","QUEENS","718-286-1500","Y",,,,,,,,,,,,,,,"40.728721","-73.858501","406","29","71701","4050482","4020920001","Rego Park","POINT (-73.858501 40.728721)"
"SENIOR CENTER CONTRACTS","11M01","RAIN BOSTON EAST NEIGHBORHOOD SENIOR CT","REGIONAL AID FOR INTERIM NEEDS INC","3450 BOSTON ROAD","BRONX","NY","10469","BRONX","718-654-9200","Y",,,,,,,,,,,,,,,"40.876304","-73.848594","212","12","364","2060739","2047370105","Eastchester-Edenwald-Baychester","POINT (-73.848594 40.876304)"
"HOME DELIVERED MEAL SERVICE CONTRACTS","29F01","BAYRIDGE HOME DELIVERED MEALS","BAY RIDGE CENTER INC d/b/a BAY RIDGE CENTER","411 OVINGTON AVENUE","BROOKLYN","NY","11209","BROOKLYN","718-748-0650","Y",,,,,,,,,,,,,,,"40.633477","-74.023321","310","43","130","3145772","3058730089","Bay Ridge","POINT (-74.023321 40.633477)"
"SENIOR CENTER CONTRACTS","30A01","COTHOA LUNCHEON CLUB NEIGHBORHOOD SC","COTHOA LUNCHEON CLUB INC","2005 AMSTERDAM AVENUE","NEW YORK","NY","10032","MANHATTAN","212-781-6580","Y",,,,,,,,,,,,,,,"40.834326","-73.940952","112","10","245","1062531","1021090003","Washington Heights South","POINT (-73.940952 40.834326)"
"SENIOR CENTER CONTRACTS","40901","FOREST HILLS NEIGHBORHOOD SENIOR CENTER","QUEENS COMMUNITY HOUSE INC.","108-25 62ND DRIVE","FLUSHING","NY","11375","QUEENS","718-699-1010","Y",,,,,,,,,,,,,,,"40.73591","-73.850212","406","29","745","4432108","4021590002","Forest Hills","POINT (-73.850212 40.73591)"
"SENIOR CENTER CONTRACTS","20B01","SHALOM NEIGHBORHOOD SENIOR CENTER","CROWN HEIGHTS PRESERVATION CORP","483 ALBANY AVENUE","BROOKLYN","NY","11203","BROOKLYN","718-774-9213","Y",,,,,,,,,,,,,,,"40.663388","-73.939975","309","41","331","3038418","3014267501","Crown Heights South","POINT (-73.939975 40.663388)"
"LEGAL SERVICES CONTRACTS","20I01","SOUTH BROOKLYN LEGAL SERVICES INC","BROOKLYN LEGAL SERVICES INC","105 Court Street","BROOKLYN","NY","11201","BROOKLYN","646-442-3563","Y",,,,,,,,,,,,,,,"40.690793","-73.991825","302","33","9","3002702","3002710023","Brooklyn Heights-Cobble Hill","POINT (-73.991825 40.690793)"
"SENIOR CENTER CONTRACTS","32301","EAST HARLEM NEIGHBORHOOD SENIOR CENTER","EAST HARLEM COUNCIL FOR HUMAN SERVICES INC","150 EAST 121ST STREET","NEW YORK","NY","10035","MANHATTAN","212-722-2205","Y",,,,,,,,,,,,,,,"40.801704","-73.939037","111","08","196","1054378","1017690021","East Harlem North","POINT (-73.939037 40.801704)"
"SENIOR CENTER CONTRACTS","23F01","TOMPKINS PARK NEIGHBORHOOD SENIOR CENTER","WAYSIDE OUT-REACH DEVELOPMENT INC","550 GREENE AVENUE","BROOKLYN","NY","11216","BROOKLYN","718-638-3000","Y",,,,,,,,,,,,,,,"40.688666","-73.948775","303","36","251","3050417","3017980040","Bedford","POINT (-73.948775 40.688666)"
"SENIOR CENTER CONTRACTS","10I01","PSS DAVIDSON NEIGHBORHOOD SENIOR CENTE","PRESBYTERIAN SENIOR SERVICES","950 UNION AVENUE","BRONX","NY","10459","BRONX","718-328-2811","Y",,,,,,,,,,,,,,,"40.822812","-73.901821","203","17","12901","2005015","2026780001","Longwood","POINT (-73.901821 40.822812)"
"SENIOR CENTER CONTRACTS","53701","NEW LANE NEIGHBORHOOD SENIOR CENTER","COMMUNITY AGENCY FOR SENIOR CITIZENS INC","70 NEW LANE","STATEN ISLAND","NY","10305","STATEN ISLAND","718-448-5936","Y",,,,,,,,,,,,,,,"40.612811","-74.062256","501","49","6","5042254","5028320068","Stapleton-Rosebank","POINT (-74.062256 40.612811)"
"SENIOR CENTER CONTRACTS","34103","Beatrice Lewis","CENTRAL HARLEM SENIOR CITIZENS CENTERS INC.","34 WEST 134TH STREET","NEW YORK","NY","10037","MANHATTAN","212-289-9155","Y",,,,,,,,,,,,,,,"40.812702","-73.939645","110","09","212","1083984","1017300016","Central Harlem North-Polo Grounds","POINT (-73.939645 40.812702)"
"SENIOR CENTER CONTRACTS","21N01","HUGH GILROY NEIGHBORHOOD SENIOR CENTER","FORT GREENE COUNCIL","447 Kingsborough 4th Walk","BROOKLYN","NY","11233","BROOKLYN","718-756-8400","Y",,,,,,,,,,,,,,,"40.675242","-73.924931","308","41","307","3035751","3013440175","Crown Heights North","POINT (-73.924931 40.675242)"
"SENIOR CENTER CONTRACTS","17801","HOPE OF ISRAEL NEIGHBORHOOD SENIOR CTR","HOPE OF ISRAEL SENIOR CITIZENS CENTER INC","1068 GERARD AVENUE","BRONX","NY","10452","BRONX","718-665-8400","Y",,,,,,,,,,,,,,,"40.832289","-73.922123","204","16","195","2002944","2024780007","West Concourse","POINT (-73.922123 40.832289)"
"SENIOR CENTER CONTRACTS","25901","PENN WORTMAN NEIGHBORHOOD SENIOR CENTER","BERGEN BASIN COMMUNITY DEVELOPMENT CORPORATION DBA MILLENNIU","895 PENNSYLVANIA AVENUE","BROOKLYN","NY","11207","BROOKLYN","347-318-3770","Y",,,,,,,,,,,,,,,"40.655966","-73.888652","305","42","1104","3324011","3043690001","East New York","POINT (-73.888652 40.655966)"
"SENIOR CENTER CONTRACTS","33703","UJC Extended Services","UNITED JEWISH COUNCIL OF THE EAST SIDE INC","465 Grand Street","NEW YORK","NY","10002","MANHATTAN","212-233-6037","Y",,,,,,,,,,,,,,,"40.715133","-73.984031","103","01","1401","1004056","1003150070","Lower East Side","POINT (-73.984031 40.715133)"
"SENIOR CENTER CONTRACTS","33701","UJC ADULT LUNCHEON CLUB NSC","UNITED JEWISH COUNCIL OF THE EAST SIDE INC","15 BIALYSTOKER PLACE","NEW YORK","NY","10002","MANHATTAN","212-673-9328","Y",,,,,,,,,,,,,,,"40.71566","-73.982977","103","01","12","1088884","1003360005","Lower East Side","POINT (-73.982977 40.71566)"
"HOME DELIVERED MEAL SERVICE CONTRACTS","46R01","QUEENS COMM HOUSE HOME DELIVERED MEALS","QUEENS COMMUNITY HOUSE INC.","108-25 62nd DRIVE","FLUSHING","NY","11375","QUEENS","718-592-5757","Y",,,,,,,,,,,,,,,"40.73591","-73.850212","406","29","745","4432108","4021590002","Forest Hills","POINT (-73.850212 40.73591)"
"SENIOR CENTER CONTRACTS","1A601","PSS HIGHBRIDGE NEIGHBORHOOD SENIOR CENTE","PRESBYTERIAN SENIOR SERVICES","1181 NELSON AVENUE","BRONX","NY","10452","BRONX","718-588-3004","Y",,,,,,,,,,,,,,,"40.837232","-73.925706","204","16","199","2003301","2025160051","Highbridge","POINT (-73.925706 40.837232)"
"SENIOR CENTER CONTRACTS","26401","SHOREFRONT NEIGHBORHOOD SENIOR CENTER","THE JEWISH ASSOCIATION FOR SERVICES FOR THE AGED","3300 CONEY ISLAND AVENUE","BROOKLYN","NY","11235","BROOKLYN","718-646-1444","Y",,,,,,,,,,,,,,,"40.575607","-73.959463","313","48","36002","3326880","3086930001","Brighton Beach","POINT (-73.959463 40.575607)"
"SENIOR CENTER CONTRACTS","22B01","SUNSET PARK NEIGHBORHOOD SENIOR CENTER","SUNSET PARK HEALTH COUNCIL INC d/b/a FAMILY HEALTH CENTERS A","4520 4TH AVENUE","BROOKLYN","NY","11220","BROOKLYN","718-210-1050","Y",,,,,,,,,,,,,,,"40.649111","-74.009845","307","38","80","3324373","3007460039","Sunset Park West","POINT (-74.009845 40.649111)"
"SENIOR CENTER CONTRACTS","31J01","JEFFERSON HOUSES NSC","UNION SETTLEMENT ASSOCIATION","2205 FIRST AVENUE","NEW YORK","NY","10029","MANHATTAN","212-828-6104","Y",,,,,,,,,,,,,,,"40.794319","-73.93665","111","08","180","1081091","1016840001","East Harlem North","POINT (-73.93665 40.794319)"
"SENIOR CENTER CONTRACTS","43Q01","HOLLISWOOD NSC","THE JEWISH ASSOCIATION FOR SERVICES FOR THE AGED","86-25 FRANCIS LEWIS BOULEVARD","JAMAICA","NY","11427","QUEENS","718-454-6157","Y",,,,,,,,,,,,,,,"40.724948","-73.765107","408","23","492","4226088","4106000019","Jamaica Estates-Holliswood","POINT (-73.765107 40.724948)"
"SENIOR CENTER CONTRACTS","21401","CCNS NORTHSIDE NEIGHBORHOOD SENIOR CTR","CATHOLIC CHARITIES NEIGHBORHOOD SERVICES INC","179 NORTH 6TH STREET","BROOKLYN","NY","11211","BROOKLYN","718-387-2316","Y",,,,,,,,,,,,,,,"40.716685","-73.957339","301","33","553","3062100","3023280025","North Side-South Side","POINT (-73.957339 40.716685)"
"SENIOR CENTER CONTRACTS","41601","THE YOUNG ISRAEL OF FOREST HILLS NSC","YOUNG ISRAEL PROGRAMS INC","68-07 BURNS STREET","FLUSHING","NY","11375","QUEENS","718-520-2305","Y",,,,,,,,,,,,,,,"40.721357","-73.851655","406","29","711","4077448","4032340089","Forest Hills","POINT (-73.851655 40.721357)"
"SENIOR CENTER CONTRACTS","32N01","JOHN PAUL II FRIENDSHIP NEIGHBORHOOD SC","POLISH & SLAVIC CENTER INC","103 EAST 7TH STREET","NEW YORK","NY","10009","MANHATTAN","212-673-7704","Y",,,,,,,,,,,,,,,"40.726683","-73.985016","103","02","32","1005851","1004350049","East Village","POINT (-73.985016 40.726683)"
"SENIOR CENTER CONTRACTS","44301","ROCKAWAY PARK NSC","THE JEWISH ASSOCIATION FOR SERVICES FOR THE AGED","106-20 Shore Front Parkway","FAR ROCKAWAY","NY","11694","QUEENS","718-634-3044","Y",,,,,,,,,,,,,,,"40.580723","-73.826713","414","32","938","4303818","4161770035","Breezy Point-Belle Harbor-Rockaway Park-Broad Channel","POINT (-73.826713 40.580723)"
"SENIOR CENTER CONTRACTS","24A01","ROUNDTABLE NEIGHBORHOOD SENIOR CENTER","RISEBORO COMMUNITY PARTNERSHIP INC","1175 GATES AVENUE","BROOKLYN","NY","11221","BROOKLYN","718-443-1903","Y",,,,,,,,,,,,,,,"40.691707","-73.919907","304","34","399","3076253","3033310025","Bushwick South","POINT (-73.919907 40.691707)"
"SENIOR CENTER CONTRACTS","29101","COUNCIL CENTER FOR SENIOR CITIZENS NSC","BROOKLYN SECTION NATIONAL COUNCIL OF JEWISH WOMEN INC.","1001 QUENTIN ROAD","BROOKLYN","NY","11223","BROOKLYN","718-627-7680","Y",,,,,,,,,,,,,,,"40.607755","-73.962822","315","44","420","3176314","3066420045","Homecrest","POINT (-73.962822 40.607755)"
"SENIOR CENTER CONTRACTS","30L01","WASHINGTON HEIGHTS NEIGHBORHOOD SR CTR","WASHINGTON HEIGHTS COMMUNITY SERVICE INC","650 WEST 187TH STREET","NEW YORK","NY","10033","MANHATTAN","212-781-8331","Y",,,,,,,,,,,,,,,"40.853679","-73.932494","112","10","271","1075520","1021670056","Washington Heights North","POINT (-73.932494 40.853679)"
"ELDER ABUSE SERVICES CONTRACTS","5E101","CASC ELDER ABUSE","COMMUNITY AGENCY FOR SENIOR CITIZENS INC","56 BAY STREET","STATEN ISLAND","NY","10301","STATEN ISLAND","718-981-6226","Y",,,,,,,,,,,,,,,"40.640624","-74.075704","501","49","3","5000035","5000050103","West New Brighton-New Brighton-St. George","POINT (-74.075704 40.640624)"
"SENIOR CENTER CONTRACTS","20U01","MARINE PARK ACTIVE ADULTS NEIGHBORHOOD","BERGEN BEACH YOUTH ORGANIZATION INC","3000 FILLMORE AVENUE","BROOKLYN","NY","11234","BROOKLYN","718-336-0275","Y",,,,,,,,,,,,,,,"40.608592","-73.937467","318","46","666","3000000","3084960001","park-cemetery-etc-Brooklyn","POINT (-73.937467 40.608592)"
"CASE MANAGEMENT SERVICES CONTRACTS","4MB01","SUNNYSIDE CASE MANAGEMENT","SUNNYSIDE COMMUNITY SERVICES INC","43-31 39TH STREET","LONG ISLAND CITY","NY","11104","QUEENS","718-784-6173","Y",,,,,,,,,,,,,,,"40.74519","-73.925909","402","26","179","4436677","4001910005","Hunters Point-Sunnyside-West Maspeth","POINT (-73.925909 40.74519)"
"SENIOR CENTER CONTRACTS","22A01","BENSONHURST NEIGHBORHOOD SENIOR CENTER","EDITH AND CARL MARKS JEWISH COMMUNITY HOUSE OF BENSONHURST","7802 BAY PARKWAY","BROOKLYN","NY","11214","BROOKLYN","718-331-6800","Y",,,,,,,,,,,,,,,"40.606369","-73.989235","311","44","270","3162352","3062640030","Bensonhurst West","POINT (-73.989235 40.606369)"
"SENIOR CENTER CONTRACTS","35F01","FIND Aid Innovative Senior Center","FIND AID FOR THE AGED","141 WEST 73RD STREET","NEW YORK","NY","10023","MANHATTAN","212-787-7710","Y",,,,,,,,,,,,,,,"40.778624","-73.979527","107","06","157","1030011","1011450012","Lincoln Square","POINT (-73.979527 40.778624)"
"SENIOR CENTER CONTRACTS","30J01","STEIN NEIGHBORHOOD SENIOR CENTER","STEIN SENIOR CENTER INC","204 EAST 23RD STREET","NEW YORK","NY","10010","MANHATTAN","646-395-8083","Y",,,,,,,,,,,,,,,"40.738655","-73.982755","106","02","64","1019664","1009030056","Gramercy","POINT (-73.982755 40.738655)"
"HOME DELIVERED MEAL SERVICE CONTRACTS","46P01","PETER CARDELLA HOME DELIVERED MEALS","PETER CARDELLA SENIOR CITIZEN CENTER INC","68-52 FRESH POND ROAD","FLUSHING","NY","11385","QUEENS","718-497-2908","Y",,,,,,,,,,,,,,,"40.703894","-73.895681","405","30","583","4085200","4035350024","Ridgewood","POINT (-73.895681 40.703894)"
"SENIOR CENTER CONTRACTS","27X01","BAY RIDGE NEIGHBORHOOD SENIOR CENTER","BAY RIDGE CENTER INC d/b/a BAY RIDGE CENTER","411 OVINGTON AVENUE","BROOKLYN","NY","11209","BROOKLYN","718-748-0650","Y",,,,,,,,,,,,,,,"40.633477","-74.023321","310","43","130","3145772","3058730089","Bay Ridge","POINT (-74.023321 40.633477)"
"SENIOR CENTER CONTRACTS","41401","ALPHA PHI ALPHA NEIGHBORHOOD SENIOR CTR","ALPHA PHI ALPHA SENIOR CITIZENS CENTER INC","220-01 LINDEN BOULEVARD","JAMAICA","NY","11411","QUEENS","718-528-8238","Y",,,,,,,,,,,,,,,"40.695105","-73.740004","413","27","596","4244354","4113210006","Cambria Heights","POINT (-73.740004 40.695105)"
"SENIOR CENTER CONTRACTS","40Z01","QUEENS VALLEY NSC","YOUNG ISRAEL PROGRAMS INC","141-55 77TH AVENUE","FLUSHING","NY","11367","QUEENS","718-263-6995","Y",,,,,,,,,,,,,,,"40.721128","-73.819822","408","24","77903","4143547","4066280084","Kew Gardens Hills","POINT (-73.819822 40.721128)"
"SENIOR CENTER CONTRACTS","40501","BROOKS MEMORIAL NSC","BROOKS SENIOR CENTER","143-22 109TH AVENUE","JAMAICA","NY","11435","QUEENS","718-291-3955","Y",,,,,,,,,,,,,,,"40.688564","-73.803554","412","28","196","4257866","4119330001","South Jamaica","POINT (-73.803554 40.688564)"
"CASE MANAGEMENT SERVICES CONTRACTS","1MB01","JASA CASE MANAGEMENT BX-03","THE JEWISH ASSOCIATION FOR SERVICES FOR THE AGED","1351 WHITE PLAINS ROAD","BRONX","NY","10462","BRONX","347-547-7140","Y",,,,,,,,,,,,,,,"40.834586","-73.862999","209","18","21601","2028016","2038840001","West Farms-Bronx River","POINT (-73.862999 40.834586)"
"SENIOR CENTER CONTRACTS","31801","GAYLORD WHITE NEIGHBORHOOD SENIOR CENTER","UNION SETTLEMENT ASSOCIATION","2029 SECOND AVENUE","NEW YORK","NY","10029","MANHATTAN","212-828-6055","Y",,,,,,,,,,,,,,,"40.789473","-73.943288","111","08","170","1080669","1016540011","East Harlem South","POINT (-73.943288 40.789473)"
"SENIOR CENTER CONTRACTS","35E01","Sirovich Innovative Senior Center","THE EDUCATIONAL ALLIANCE INC","331 EAST 12TH STREET","NEW YORK","NY","10003","MANHATTAN","646-395-4523","Y",,,,,,,,,,,,,,,"40.730657","-73.985041","103","02","40","1006502","1004540052","East Village","POINT (-73.985041 40.730657)"
"CASE MANAGEMENT SERVICES CONTRACTS","2MH01","BENSON RIDGE CASE MANAGEMENT BK-5","CATHOLIC CHARITIES NEIGHBORHOOD SERVICES INC","6823 FIFTH AVENUE","BROOKLYN","NY","11220","BROOKLYN","718-680-3530","Y",,,,,,,,,,,,,,,"40.633953","-74.020799","310","43","130","3145313","3058650001","Bay Ridge","POINT (-74.020799 40.633953)"
"SENIOR CENTER CONTRACTS","29701","SR CITIZENS LEAGUE OF FLATBUSH NBH SR CT","SENIOR CITIZENS LEAGUE OF FLATBUSH INC","870 OCEAN PARKWAY","BROOKLYN","NY","11230","BROOKLYN","718-438-7771","Y",,,,,,,,,,,,,,,"40.627218","-73.971057","312","44","46201","3170453","3065080006","Flatbush","POINT (-73.971057 40.627218)"
"HOME DELIVERED MEAL SERVICE CONTRACTS","36F01","HENRY ST HOME DELIVERED MEALS","HENRY STREET SETTLEMENT","265 HENRY STREET","NEW YORK","NY","10002","MANHATTAN","212-473-1474","Y",,,,,,,,,,,,,,,"40.713857","-73.984532","103","01","202","1079627","1002880078","Lower East Side","POINT (-73.984532 40.713857)"
"SENIOR CENTER CONTRACTS","21P01","WILLOUGHBY NEIGHBORHOOD SENIOR CTR","FORT GREENE COUNCIL","105 North Portland Avenue","BROOKLYN","NY","11205","BROOKLYN","718-875-1011","Y",,,,,,,,,,,,,,,"40.694782","-73.976116","302","35","18501","3335258","3020410001","Fort Greene","POINT (-73.976116 40.694782)"
"SENIOR CENTER CONTRACTS","40201","ROBERT COUCHE NEIGHBORHOOD SENIOR CEN","MERRILL PARK CIVIC ASSOCIATION OF SPRINGFIELD GARDENS INC","137-57 FARMERS BOULEVARD","JAMAICA","NY","11434","QUEENS","718-978-8352","Y",,,,,,,,,,,,,,,"40.67251","-73.764138","412","31","330","4280089","4130200013","Springfield Gardens North","POINT (-73.764138 40.67251)"
"SENIOR CENTER CONTRACTS","22801","CCNS NARROWS NEIGHBORHOOD SR CTR","CATHOLIC CHARITIES NEIGHBORHOOD SERVICES INC","933 54TH STREET","BROOKLYN","NY","11219","BROOKLYN","718-232-2311","Y",,,,,,,,,,,,,,,"40.636979","-74.002882","312","38","116","3343065","3056660012","Borough Park","POINT (-74.002882 40.636979)"
"GERIATRIC MENTAL HEALTH SERVICES CONTRACTS","5G301","WEILL CORNELL MENTAL HEALTH","WEILL MEDICAL COLLEGE OF CORNELL UNIVERSITY","1300 YORK AVENUE","NEW YORK","NY","10065","MANHATTAN","914-997-4333","Y",,,,,,,,,,,,,,,"40.671232","-73.976579","306","39","155","3025180","3010760019","Park Slope-Gowanus","POINT (-73.976579 40.671232)"
"SENIOR CENTER CONTRACTS","13201","THROGS NECK NEIGHBORHOOD SENIOR CENTER","THE JEWISH ASSOCIATION FOR SERVICES FOR THE AGED","2705 SCHLEY AVENUE","BRONX","NY","10465","BRONX","718-823-1771","Y",,,,,,,,,,,,,,,"40.821662","-73.827061","210","13","144","2080423","2055680050","Schuylerville-Throgs Neck-Edgewater Park","POINT (-73.827061 40.821662)"
"SENIOR CENTER CONTRACTS","21601","RAICES TIMES PLAZA NEIGHBORHOOD SC","SPANISH SPEAKING ELDERLY COUNCIL RAICES INC.","460 ATLANTIC AVENUE","BROOKLYN","NY","11217","BROOKLYN","718-694-0895","Y",,,,,,,,,,,,,,,"40.686296","-73.983223","302","33","41","3000937","3001840025","DUMBO-Vinegar Hill-Downtown Brooklyn-Boerum Hill","POINT (-73.983223 40.686296)"
"NATURALLY OCCURING RETIREMENT COMMUNITY CONTRACTS","N3E01","ISABELLA GERIATRIC FT GEORGE VISTAS NORC","ISABELLA GERIATRIC CENTER INC","17 FT. GEORGE HILL","NEW YORK","NY","10040","MANHATTAN","212-304-1064","Y",,,,,,,,,,,,,,,"40.857983","-73.927237","112","10","283","1064067","1021700131","Washington Heights North","POINT (-73.927237 40.857983)"
"SENIOR CENTER CONTRACTS","28301","HES NEIGHBORHOOD SENIOR CENTER","THE JEWISH ASSOCIATION FOR SERVICES FOR THE AGED","9502 SEAVIEW AVENUE","BROOKLYN","NY","11236","BROOKLYN","212-273-5270","Y",,,,,,,,,,,,,,,"40.632808","-73.89122","318","46","1028","3235056","3083180008","Canarsie","POINT (-73.89122 40.632808)"
"SENIOR CENTER CONTRACTS","27401","SR CITIZENS LEAGUE OF MIDWOOD NBH SR. CT","SENIOR CITIZENS LEAGUE OF FLATBUSH INC","1625 OCEAN AVENUE","BROOKLYN","NY","11230","BROOKLYN","718-253-0508","Y",,,,,,,,,,,,,,,"40.622341","-73.955743","314","45","760","3208316","3076200025","Midwood","POINT (-73.955743 40.622341)"
"SENIOR CENTER CONTRACTS","1YH01","BRONX HOUSE WEINBERG NSC","BRONX HOUSE INC","990 PELHAM PARKWAY SOUTH","BRONX","NY","10461","BRONX","718-792-1800","Y",,,,,,,,,,,,,,,"40.856804","-73.860354","211","13","248","2088568","2043287501","Pelham Parkway","POINT (-73.860354 40.856804)"
"SENIOR CENTER CONTRACTS","12D01","RAIN BOSTON ROAD NEIGHBORHOOD SENIOR C","REGIONAL AID FOR INTERIM NEEDS INC","2424 BOSTON ROAD","BRONX","NY","10467","BRONX","718-547-8827","Y",,,,,,,,,,,,,,,"40.861733","-73.866616","211","13","330","2093401","2044310001","Bronxdale","POINT (-73.866616 40.861733)"
"HOME DELIVERED MEAL SERVICE CONTRACTS","55601","MEALS ON WHEELS OF S.I.","MEALS ON WHEELS OF STATEN ISLAND INC","304 PORT RICHMOND AVENUE","STATEN ISLAND","NY","10302","STATEN ISLAND","718-727-4435","Y",,,,,,,,,,,,,,,"40.634061","-74.13606","501","49","213","5025678","5010890036","Port Richmond","POINT (-74.13606 40.634061)"
"SENIOR CENTER CONTRACTS","13D01","DREISER NEIGHBORHOOD SENIOR CENTER","THE JEWISH ASSOCIATION FOR SERVICES FOR THE AGED","177 DREISER LOOP","BRONX","NY","10475","BRONX","718-320-1345","Y",,,,,,,,,,,,,,,"40.877935","-73.82953","210","12","46201","2097469","2051410500","Co-op City","POINT (-73.82953 40.877935)"
"HOME DELIVERED MEAL SERVICE CONTRACTS","36G01","ENCORE HOME DELIVERED MEALS","ENCORE COMMUNITY SERVICES","239 WEST 49TH STREET","NEW YORK","NY","10019","MANHATTAN","212-581-2910","Y",,,,,,,,,,,,,,,"40.761143","-73.985312","105","03","125","1024789","1010210009","Midtown-Midtown South","POINT (-73.985312 40.761143)"
"SENIOR CENTER CONTRACTS","32801","CANAAN NEIGHBORHOOD SENIOR CENTER","CANAAN BAPTIST CHURCH OF CHRIST","1428 FIFTH AVENUE","NEW YORK","NY","10035","MANHATTAN","212-876-2638","Y",,,,,,,,,,,,,,,"40.80115","-73.946121","110","09","190","1051430","1016000021","Central Harlem South","POINT (-73.946121 40.80115)"
"CASE MANAGEMENT SERVICES CONTRACTS","4MG01","SNAP CASE MANAGEMENT QNS-06","SERVICES NOW FOR ADULT PERSONS INC","80-45 WINCHESTER BOULEVARD","JAMAICA","NY","11427","QUEENS","718-527-5380","Y",,,,,,,,,,,,,,,"40.737685","-73.734021","413","23","1567","4537294","4078800400","Bellerose","POINT (-73.734021 40.737685)"
"SENIOR CENTER CONTRACTS","20A02","House of Jacob Neighborhood Senior Center","SEPHARDIC MULTI SERVICES SENIOR CITIZEN CENTER INC","6222 23RD AVENUE","BROOKLYN","NY","11204","BROOKLYN","718-259-0100","Y",,,,,,,,,,,,,,,"40.61405","-73.977597","311","44","436","3172161","3065510045","Bensonhurst East","POINT (-73.977597 40.61405)"
"SENIOR CENTER CONTRACTS","34001","GOOD COMPANIONS NEIGHBORHOOD SENIOR CENT","HENRY STREET SETTLEMENT","334 MADISON STREET","NEW YORK","NY","10002","MANHATTAN","212-349-2770","Y",,,,,,,,,,,,,,,"40.713266","-73.983237","103","02","202","1077526","1002600001","Lower East Side","POINT (-73.983237 40.713266)"
"SENIOR CENTER CONTRACTS","40B01","CCNS HOWARD BEACH NEIGHBORHOOD SC","CATHOLIC CHARITIES NEIGHBORHOOD SERVICES INC","155-55 CROSSBAY BOULEVARD","JAMAICA","NY","11414","QUEENS","718-738-8100","Y",,,,,,,,,,,,,,,"40.664372","-73.841152","410","32","884","4442269","4115880075","Lindenwood-Howard Beach","POINT (-73.841152 40.664372)"
"SENIOR CENTER CONTRACTS","24H01","RIDGEWOOD BUSHWICK NEIGHBORHOOD SC","RISEBORO COMMUNITY PARTNERSHIP INC","319 STANHOPE STREET","BROOKLYN","NY","11237","BROOKLYN","718-366-3038","Y",,,,,,,,,,,,,,,"40.70285","-73.918336","304","37","443","3074237","3032590023","Bushwick North","POINT (-73.918336 40.70285)"
"SENIOR CENTER CONTRACTS","28L01","JCCGCI Innovative Senior Center","JEWISH COMMUNITY COUNCIL OF GREATER CONEY ISLAND INC","3001 WEST 37TH STREET","BROOKLYN","NY","11224","BROOKLYN","718-449-5000","Y",,,,,,,,,,,,,,,"40.573177","-74.002509","313","47","340","3189617","3070650001","Seagate-Coney Island","POINT (-74.002509 40.573177)"
"SENIOR CENTER CONTRACTS","12N01","KIPS BAY CASTLE HILL NEIGHBORHOOD SR CTR","KIPS BAY BOYS AND GIRLS CLUB","625 CASTLE HILL AVENUE","BRONX","NY","10473","BRONX","718-319-9156","Y",,,,,,,,,,,,,,,"40.819754","-73.848209","209","18","86","2092673","2035700001","Soundview-Castle Hill-Clason Point-Harding Park","POINT (-73.848209 40.819754)"
"SENIOR CENTER CONTRACTS","41001","WAVECREST AND BAYSWATER NSC","YOUNG ISRAEL PROGRAMS INC","2716 HEALY AVENUE","FAR ROCKAWAY","NY","11691","QUEENS","718-327-0297","Y",,,,,,,,,,,,,,,"40.604149","-73.765737","414","31","100802","4300494","4157220041","Far Rockaway-Bayswater","POINT (-73.765737 40.604149)"
"SENIOR CENTER CONTRACTS","42Z01","ELMCOR LEFRAK NSC","ELMCOR YOUTH & ADULT ACTIVITIES INC","95-18 NORTHERN BOULEVARD","FLUSHING","NY","11372","QUEENS","718-271-1222","Y",,,,,,,,,,,,,,,"40.756866","-73.872861","403","21","375","4042344","4017100010","North Corona","POINT (-73.872861 40.756866)"
"CASE MANAGEMENT SERVICES CONTRACTS","2MJ01","JASA CASE MANAGEMENT BK-6","THE JEWISH ASSOCIATION FOR SERVICES FOR THE AGED","3161 BRIGHTON 6TH STREET","BROOKLYN","NY","11235","BROOKLYN","718-943-1615","Y",,,,,,,,,,,,,,,"40.575657","-73.961105","313","48","36002","3245130","3086930012","Brighton Beach","POINT (-73.961105 40.575657)"
"SENIOR CENTER CONTRACTS","32601","WEST 65TH STREET CENTER","GODDARD-RIVERSIDE COMMUNITY CENTER","250 WEST 65th STREET","NEW YORK","NY","10023","MANHATTAN","212-874-0860","Y",,,,,,,,,,,,,,,"40.77501","-73.98689","107","06","151","1030340","1011560020","Lincoln Square","POINT (-73.98689 40.77501)"
"SENIOR CENTER CONTRACTS","11J01","RAIN MIDDLETOWN NEIGHBORHOOD SENIOR CT","REGIONAL AID FOR INTERIM NEEDS INC","3035 MIDDLETOWN ROAD","BRONX","NY","10461","BRONX","718-822-0486","Y",,,,,,,,,,,,,,,"40.844355","-73.828806","210","13","26602","2046141","2041710024","Pelham Bay-Country Club-City Island","POINT (-73.828806 40.844355)"
"SENIOR CENTER CONTRACTS","23R01","REMSEN NEIGHBORHOOD SENIOR CENTER","FORT GREENE COUNCIL","3304 CLARENDON ROAD","BROOKLYN","NY","11203","BROOKLYN","718-282-1259","Y",,,,,,,,,,,,,,,"40.643428","-73.945697","317","45","830","3111409","3049500001","East Flatbush-Farragut","POINT (-73.945697 40.643428)"
"SENIOR CENTER CONTRACTS","30W01","JUDITH C WHITE NEIGHBORHOOD SENIOR CTR","GREENWICH HOUSE INC.","27 BARROW STREET","NEW YORK","NY","10014","MANHATTAN","212-242-4140","Y",,,,,,,,,,,,,,,"40.732503","-74.003078","102","03","67","1010159","1005900056","West Village","POINT (-74.003078 40.732503)"
"SENIOR CENTER CONTRACTS","24L01","BORINQUEN PLAZ NUTRITION NEIGHBORHOOD SC","RISEBORO COMMUNITY PARTNERSHIP INC","80 SEIGEL STREET","BROOKLYN","NY","11206","BROOKLYN","718-732-6334","Y",,,,,,,,,,,,,,,"40.704366","-73.943775","301","34","491","3071447","3030960030","East Williamsburg","POINT (-73.943775 40.704366)"
"SENIOR CENTER CONTRACTS","21603","RAICES GOWANUS SENIOR CENTER","SPANISH SPEAKING ELDERLY COUNCIL RAICES INC.","420 BALTIC STREET","BROOKLYN","NY","11201","BROOKLYN","718-797-2472","Y",,,,,,,,,,,,,,,"40.683646","-73.988783","306","33","71","3336072","3004040001","DUMBO-Vinegar Hill-Downtown Brooklyn-Boerum Hill","POINT (-73.988783 40.683646)"
"SENIOR CENTER CONTRACTS","22401","OCEAN PARKWAY NEIGHBORHOOD SENIOR CENTER","JEWISH COMMUNITY COUNCIL OF GREATER CONEY ISLAND INC","1960 EAST 7TH STREET","BROOKLYN","NY","11223","BROOKLYN","718-449-5000","Y",,,,,,,,,,,,,,,"40.603084","-73.965083","315","47","418","3178703","3066820045","Homecrest","POINT (-73.965083 40.603084)"
"HOME DELIVERED MEAL SERVICE CONTRACTS","29D01","WAYSIDE HOME DELIVERED MEALS","WAYSIDE OUT-REACH DEVELOPMENT INC","460 DUMONT AVENUE","BROOKLYN","NY","11212","BROOKLYN","929-234-6333","Y",,,,,,,,,,,,,,,"40.66514","-73.902222","316","42","910","3328133","3037970001","Brownsville","POINT (-73.902222 40.66514)"
"SENIOR CENTER CONTRACTS","12T01","COOP CITY NEIGHBORHOOD SENIOR CENTE","THE JEWISH ASSOCIATION FOR SERVICES FOR THE AGED","2049 BARTOW AVENUE","BRONX","NY","10475","BRONX","718-320-2066","Y",,,,,,,,,,,,,,,"40.869472","-73.828582","210","12","46201","2097466","2051410100","Co-op City","POINT (-73.828582 40.869472)"
"SENIOR CENTER CONTRACTS","64902","SAGE Center at Ingersoll Senior Residences","SERVICES AND ADVOCACY FOR GAYLESBIANBISEXUAL AND TRANSGEND","112 Saint Edwards Street","BROOKLYN","NY","11205","BROOKLYN","212-741-2247","Y",,,,,,,,,,,,,,,"40.693835","-73.977916","302","35","2901",,,"Fort Greene","POINT (-73.977916 40.693835)"
"CASE MANAGEMENT SERVICES CONTRACTS","4MD01","QUEENS COMM. HOUSE CASE MANAGEMENT QNS-3","QUEENS COMMUNITY HOUSE INC.","107-20 71ST ROAD","FLUSHING","NY","11375","QUEENS","718-896-8511","Y",,,,,,,,,,,,,,,"40.720067","-73.843469","406","29","737","4533735","4032577501","Forest Hills","POINT (-73.843469 40.720067)"
"SENIOR CENTER CONTRACTS","23K01","CCNS PETE MCGUINNESS NEIGHBORHOOD SR CTR","CATHOLIC CHARITIES NEIGHBORHOOD SERVICES INC","715 LEONARD STREET","BROOKLYN","NY","11222","BROOKLYN","718-383-1940","Y",,,,,,,,,,,,,,,"40.729007","-73.95276","301","33","575","3333076","3025740053","Greenpoint","POINT (-73.95276 40.729007)"
"SENIOR CENTER CONTRACTS","41A01","KCS FLUSHING NSC","KOREAN COMMUNITY SERVICES OF METROPOLITAN NEW YORK INC","42-15 166TH STREET","FLUSHING","NY","11358","QUEENS","718-886-8203","Y",,,,,,,,,,,,,,,"40.75939","-73.800335","407","19","1185","4439629","4053970006","East Flushing","POINT (-73.800335 40.75939)"
"SENIOR CENTER CONTRACTS","20201","GRACE AGARD HAREWOOD NEIGHBORHOOD SENIOR","FORT GREENE COUNCIL","966 FULTON STREET","BROOKLYN","NY","11238","BROOKLYN","718-638-6910","Y",,,,,,,,,,,,,,,"40.682487","-73.962178","302","35","201","3057638","3020140026","Clinton Hill","POINT (-73.962178 40.682487)"
"SENIOR CENTER CONTRACTS","42801","PETER CARDELLA NSC","PETER CARDELLA SENIOR CITIZEN CENTER INC","68-52 FRESH POND ROAD","FLUSHING","NY","11385","QUEENS","718-497-2908","Y",,,,,,,,,,,,,,,"40.703894","-73.895681","405","30","583","4085200","4035350024","Ridgewood","POINT (-73.895681 40.703894)"
"SENIOR CENTER CONTRACTS","32W01","CARVER NEIGHBORHOOD SENIOR CENTER","INSTITUTE FOR THE PUERTO RICAN HISPANIC ELDERLY INC","55 EAST 102ND STREET","NEW YORK","NY","10029","MANHATTAN","212-289-2708","Y",,,,,,,,,,,,,,,"40.79084","-73.950853","111","08","168","1082659","1016080023","East Harlem South","POINT (-73.950853 40.79084)"
"SENIOR CENTER CONTRACTS","1A602","NYCHA SITE HIGHBRIDGE GARDENS","PRESBYTERIAN SENIOR SERVICES","1181 NELSON AVENUE","BRONX","NY","10452","BRONX","718-588-3004","Y",,,,,,,,,,,,,,,"40.837232","-73.925706","204","16","199","2003301","2025160051","Highbridge","POINT (-73.925706 40.837232)"
"ELDER ABUSE SERVICES CONTRACTS","1E101","SHOPP ELDER ABUSE BX 1-8","THE NEIGHBORHOOD SELF-HELP BY OLDER PERSONS PROJECT INC","953 SOUTHERN BOULEVARD","BRONX","NY","10459","BRONX","718-542-0006","Y",,,,,,,,,,,,,,,"40.82148","-73.891688","202","17","159","2005787","2027240186","Hunts Point","POINT (-73.891688 40.82148)"
"SENIOR CENTER CONTRACTS","50B01","MOUNT LORETTO NEIGHBORHOOD SENIOR CEN","STATEN ISLAND COMMUNITY SERVICES FRIENDSHIP CLUBS INC","6581 HYLAN BOULEVARD","STATEN ISLAND","NY","10309","STATEN ISLAND","718-984-8589","Y",,,,,,,,,,,,,,,"40.508809","-74.222403","503","51","198","5123970","5076640001","Annadale-Huguenot-Prince's Bay-Eltingville","POINT (-74.222403 40.508809)"
"SENIOR CENTER CONTRACTS","21K01","BLENMAN NEIGHBORHOOD SENIOR CENTER","FORT GREENE COUNCIL","720 EAST NEW YORK AVENUE","BROOKLYN","NY","11203","BROOKLYN","718-773-7400","Y",,,,,,,,,,,,,,,"40.662289","-73.938916","309","41","87401","3106612","3047950016","Prospect Lefferts Gardens-Wingate","POINT (-73.938916 40.662289)"
"CAREGIVER SERVICES CONTRACTS","2K201","JASA BROOKLYN CAREGIVER RESPITE PROGRAM","THE JEWISH ASSOCIATION FOR SERVICES FOR THE AGED","161 CORBIN PLACE","BROOKLYN","NY","11235","BROOKLYN","718-934-4180","Y",,,,,,,,,,,,,,,,,"315","48",,"3245719","3087190073",,
"SENIOR CENTER CONTRACTS","10C01","N SHOPP LEON NEIGHBORHOOD SENIOR CENTE","THE NEIGHBORHOOD SELF-HELP BY OLDER PERSONS PROJECT INC","735 EAST 152ND STREET","BRONX","NY","10455","BRONX","718-708-6897","Y",,,,,,,,,,,,,,,"40.815994","-73.907843","201","17","79","2091979","2026540002","Melrose South-Mott Haven North","POINT (-73.907843 40.815994)"
"SENIOR CENTER CONTRACTS","12T02","JASA EINSTEIN SENIOR CENTER","THE JEWISH ASSOCIATION FOR SERVICES FOR THE AGED","135 EINSTEIN LOOP","BRONX","NY","10475","BRONX","718-379-2702","Y",,,,,,,,,,,,,,,"40.864255","-73.82203","210","12","302","2095160","2051350210","Co-op City","POINT (-73.82203 40.864255)"
"SENIOR CENTER CONTRACTS","15601","RAIN PARKCHESTER NEIGHBORHOOD SENIOR C","REGIONAL AID FOR INTERIM NEEDS INC","1380 METROPOLITAN AVENUE","BRONX","NY","10462","BRONX","718-597-9220","Y",,,,,,,,,,,,,,,"40.835141","-73.861061","209","18","212","2096674","2039387501","Parkchester","POINT (-73.861061 40.835141)"
"SENIOR CENTER CONTRACTS","18901","SEBCO NEIGHBORHOOD SENIOR CENTER","SEBCO DEVELOPMENT INC","887 SOUTHERN BLVD.","BRONX","NY","10459","BRONX","718-617-3465","Y",,,,,,,,,,,,,,,"40.818913","-73.89355","202","17","89","2005752","2027220040","Hunts Point","POINT (-73.89355 40.818913)"
"SENIOR CENTER CONTRACTS","22R01","ABE STARK NEIGHBORHOOD SENIOR CENTER","BERGEN BASIN COMMUNITY DEVELOPMENT CORPORATION DBA MILLENNIU","10315 FARRAGUT ROAD","BROOKLYN","NY","11236","BROOKLYN","718-272-9515","Y",,,,,,,,,,,,,,,"40.649668","-73.89929","318","42","1098","3229152","3081520201","East New York","POINT (-73.89929 40.649668)"
"SENIOR CENTER CONTRACTS","18201","MELROSE MOTT HAVEN NEIGHBORHOOD SR CTR","EAST SIDE HOUSE INC","372 EAST 152 STREET","BRONX","NY","10455","BRONX","718-665-2280","Y",,,,,,,,,,,,,,,"40.818516","-73.91793","201","17","67","2090413","2023980014","Melrose South-Mott Haven North","POINT (-73.91793 40.818516)"
"LEGAL SERVICES CONTRACTS","32V01","MOBILIZATION FOR JUSTICE INC","MOBILIZATION FOR JUSTICE INC","100 WILLIAM STREET","NEW YORK","NY","10038","MANHATTAN","212-417-3700","Y",,,,,,,,,,,,,,,"40.708497","-74.007477","101","01","1502","1001116","1000680036","Battery Park City-Lower Manhattan","POINT (-74.007477 40.708497)"
"CASE MANAGEMENT SERVICES CONTRACTS","3M901","SELFHELP PROJECT CASE MANAGEMENT MN-2","SELFHELP COMMUNITY SERVICES INC","520 EIGHTH AVENUE","NEW YORK","NY","10018","MANHATTAN","212-787-8106","Y",,,,,,,,,,,,,,,"40.753612","-73.992417","105","03","109","1083624","1007860001","Midtown-Midtown South","POINT (-73.992417 40.753612)"
"NATURALLY OCCURING RETIREMENT COMMUNITY CONTRACTS","N3401","STANLEY M ISAACS NORC","STANLEY M ISAACS NEIGHBORHOOD CENTER INC","415 EAST 93RD STREET","NEW YORK","NY","10128","MANHATTAN","212-360-7620","Y",,,,,,,,,,,,,,,"40.780904","-73.945112","108","05","152","1082367","1015730001","Yorkville","POINT (-73.945112 40.780904)"
"SENIOR CENTER CONTRACTS","32T02","KING TOWERS SOCIAL CLUB","PRESBYTERIAN SENIOR SERVICES","50 LENOX AVENUE","NEW YORK","NY","10028","MANHATTAN","646-861-2077","Y",,,,,,,,,,,,,,,"40.799593","-73.951421","110","09","186","1083312","1015960001","Central Harlem South","POINT (-73.951421 40.799593)"
"SENIOR CENTER CONTRACTS","37901","FIND CLINTON NEIGHBORHOOD SENIOR CENTER","FIND AID FOR THE AGED","530 West 55th Street","NEW YORK","NY","10023","MANHATTAN","212-757-2026","Y",,,,,,,,,,,,,,,"40.768258","-73.990588","104","06","135","1027059","1010830015","Clinton","POINT (-73.990588 40.768258)"
"SENIOR CENTER CONTRACTS","21A01","HABER HOUSE NEIGHBORHOOD SENIOR CENTER","JEWISH COMMUNITY COUNCIL OF GREATER CONEY ISLAND INC","3024 WEST 24TH STREET","BROOKLYN","NY","11224","BROOKLYN","718-372-5775","Y",,,,,,,,,,,,,,,"40.573171","-73.990645","313","47","352","3322050","3070700001","Seagate-Coney Island","POINT (-73.990645 40.573171)"
"CASE MANAGEMENT SERVICES CONTRACTS","3MA01","LENOX HILL CASE MANAGEMENT MN-3","LENOX HILL NEIGHBORHOOD HOUSE INC","331 EAST 70TH STREET","NEW YORK","NY","10021","MANHATTAN","212-218-0506","Y",,,,,,,,,,,,,,,"40.766925","-73.95795","108","05","126","1044838","1014450014","Lenox Hill-Roosevelt Island","POINT (-73.95795 40.766925)"
"SENIOR CENTER CONTRACTS","40M01","SELFHELP MASPETH NSC","SELFHELP COMMUNITY SERVICES INC","69-61 GRAND AVENUE","FLUSHING","NY","11378","QUEENS","718-429-3636","Y",,,,,,,,,,,,,,,"40.727019","-73.893556","405","30","49302","4058561","4025010032","Maspeth","POINT (-73.893556 40.727019)"
"SENIOR CENTER CONTRACTS","12H03","BAILEY SENIOR CENTER","REGIONAL AID FOR INTERIM NEEDS INC","2660 BAILEY AVENUE","BRONX","NY","10463","BRONX","718-796-2559","Y",,,,,,,,,,,,,,,"40.870747","-73.906859","207","14","269","2000000","2032390025","Kingsbridge Heights","POINT (-73.906859 40.870747)"
"SENIOR CENTER CONTRACTS","20F01","WILLIAMSBURG SATMAR NEIGHBORHOOD SR CTR","CONGREGATION YETEV LEV DSATMAR","125 HEYWARD  STREET","BROOKLYN","NY","11206","BROOKLYN","718-625-1608","Y",,,,,,,,,,,,,,,"40.701627","-73.956235","301","33","533","3060997","3022250042","Williamsburg","POINT (-73.956235 40.701627)"
"SENIOR CENTER CONTRACTS","22501","MIDWOOD NEIGHBORHOOD SENIOR CENTER","BERGEN BASIN COMMUNITY DEVELOPMENT CORPORATION DBA MILLENNIU","2164 RALPH AVENUE","BROOKLYN","NY","11234","BROOKLYN","718-253-5557","Y",,,,,,,,,,,,,,,"40.625065","-73.917858","318","46","692","3218178","3078390001","Flatlands","POINT (-73.917858 40.625065)"
"SENIOR CENTER CONTRACTS","36001","ABSW NEIGHBORHOOD SENIOR CENTER","ASSOCIATION OF BLACK SOCIAL WORKERS INC","221 WEST 107TH STREET","NEW YORK","NY","10025","MANHATTAN","212-749-8400","Y",,,,,,,,,,,,,,,"40.801503","-73.96612","107","07","195","1075379","1018790017","Morningside Heights","POINT (-73.96612 40.801503)"
"SENIOR CENTER CONTRACTS","21B01","MARIA LAWTON NEIGHBORHOOD SENIOR CENTER","FORT GREENE COUNCIL","400 HART STREET","BROOKLYN","NY","11206","BROOKLYN","718-452-7474","Y",,,,,,,,,,,,,,,"40.694725","-73.93519","303","36","287","3341752","3015950024","Stuyvesant Heights","POINT (-73.93519 40.694725)"
"SENIOR CENTER CONTRACTS","23Y01","TERESA MOORE NEIGHBORHOOD SENIOR CENTER","FORT GREENE COUNCIL","2702 LINDEN BLVD","BROOKLYN","NY","11208","BROOKLYN","347-663-7770","Y",,,,,,,,,,,,,,,"40.669208","-73.864514","305","42","1214","3326995","3044880001","East New York","POINT (-73.864514 40.669208)"
"ELDER ABUSE SERVICES CONTRACTS","62001","ELDER ABUSE MULTIDISCIPLINARY TEAMS SERV","WEILL MEDICAL COLLEGE OF CORNELL UNIVERSITY","425 EAST 61 STREET","NEW YORK","NY","10010","MANHATTAN","646-845-8202","Y",,,,,,,,,,,,,,,"40.760561","-73.960336","108","05","10602","1045290","1014567501","Lenox Hill-Roosevelt Island","POINT (-73.960336 40.760561)"
"SENIOR CENTER CONTRACTS","24A05","Palmetto Gardens Social Club","RISEBORO COMMUNITY PARTNERSHIP INC","85 PALMETTO STREET","BROOKLYN","NY","11221","BROOKLYN","718-676-0876","Y",,,,,,,,,,,,,,,"40.691599","-73.91884","304","34","399","3076429","3033400020","Bushwick South","POINT (-73.91884 40.691599)"
"SENIOR CENTER CONTRACTS","17602","Sedgwick Houses Social Club","BRONXWORKS INC","1553 UNIVERSITY AVENUE","BRONX","NY","10453","BRONX","646-393-4000","Y",,,,,,,,,,,,,,,"40.846111","-73.921662","205","16","20501","2092105","2028770001","University Heights-Morris Heights","POINT (-73.921662 40.846111)"
"SENIOR CENTER CONTRACTS","41Z01","CCNS DELLAMONICA-STEINWAY NSC","CATHOLIC CHARITIES NEIGHBORHOOD SERVICES INC","23-56 BROADWAY","LONG ISLAND CITY","NY","11106","QUEENS","718-626-1500","Y",,,,,,,,,,,,,,,"40.764285","-73.930011","401","22","53","4006560","4005660050","Astoria","POINT (-73.930011 40.764285)"
"SENIOR CENTER CONTRACTS","21J01","TILDEN NEIGHBORHOOD SENIOR CENTER","WAYSIDE OUT-REACH DEVELOPMENT INC","630 MOTHER GASTON BLVD","BROOKLYN","NY","11212","BROOKLYN","718-498-2990","Y",,,,,,,,,,,,,,,"40.663471","-73.905278","316","41","912","3326549","3035760001","Brownsville","POINT (-73.905278 40.663471)"
"SENIOR CENTER CONTRACTS","22L01","SENIOR ALLIANCE NEIGHBORHOOD SENIOR CTR","THE JEWISH ASSOCIATION FOR SERVICES FOR THE AGED","161 CORBIN PLACE","BROOKLYN","NY","11235","BROOKLYN","718-646-4100","Y",,,,,,,,,,,,,,,"40.578026","-73.954127","315","48","61004","3245719","3087190073","Brighton Beach","POINT (-73.954127 40.578026)"
"SENIOR CENTER CONTRACTS","21602","FARRAGUT SENIOR CENTER","SPANISH SPEAKING ELDERLY COUNCIL RAICES INC.","228 YORK STREET","BROOKLYN","NY","11201","BROOKLYN","718-422-1069","Y",,,,,,,,,,,,,,,"40.701304","-73.981762","302","35","23","3325909","3000710001","DUMBO-Vinegar Hill-Downtown Brooklyn-Boerum Hill","POINT (-73.981762 40.701304)"
"GERIATRIC MENTAL HEALTH SERVICES CONTRACTS","4G801","SAMUEL FIELD MENTAL HEALTH","SAMUEL FIELD YM & YWHA INC","58-20 Little Neck Parkway","FLUSHING","NY","11362","QUEENS","718-225-6750","Y",,,,,,,,,,,,,,,"40.761577","-73.723122","411","23","152902","4173029","4083520051","Douglas Manor-Douglaston-Little Neck","POINT (-73.723122 40.761577)"
"CAREGIVER SERVICES CONTRACTS","1K101","PSS CAREGIVER SUPPORT PROGRAM","PRESBYTERIAN SENIOR SERVICES","325 EAST 156TH STREET","BRONX","NY","10451","BRONX","212-222-3132","Y",,,,,,,,,,,,,,,,,"201","17",,"2091224","2024160001",,
"SENIOR CENTER CONTRACTS","21H02","GLENMORE SOCIAL CLUB","WAYSIDE OUT-REACH DEVELOPMENT INC","1777 PITKIN AVENUE","BROOKLYN","NY","11212","BROOKLYN","718-000-0000","Y",,,,,,,,,,,,,,,"40.670168","-73.907561","316","37","906","3080766","3035070001","Brownsville","POINT (-73.907561 40.670168)"
"SENIOR CENTER CONTRACTS","22P01","VANDALIA NEIGHBORHOOD SENIOR CENTER","BERGEN BASIN COMMUNITY DEVELOPMENT CORPORATION DBA MILLENNIU","47 VANDALIA AVENUE","BROOKLYN","NY","11239","BROOKLYN","718-272-3949","Y",,,,,,,,,,,,,,,"40.649799","-73.88676","305","42","105804","3348859","3044310100","Starrett City","POINT (-73.88676 40.649799)"
"NATURALLY OCCURING RETIREMENT COMMUNITY CONTRACTS","N4801","SELFHELP FRESH MEADOWS NORC","SELFHELP COMMUNITY SERVICES INC","67-00 192  STREET","FLUSHING","NY","11365","QUEENS","718-454-6288","Y",,,,,,,,,,,,,,,"40.737813","-73.781534","408","23","1347","4444040","4071170003","Fresh Meadows-Utopia","POINT (-73.781534 40.737813)"
"LEGAL SERVICES CONTRACTS","32V02","NORTHERN MANHATTAN IMPROVEMENT CO","MOBILIZATION FOR JUSTICE INC","76 WADSWORTH AVENUE","NEW YORK","NY","10033","MANHATTAN","212-822-8300","Y",,,,,,,,,,,,,,,,,"112","10",,"1063574","1021450051",,
"SENIOR CENTER CONTRACTS","49601","FLORENCE E. SMITH NSC","CORONA CONGREGATIONAL CHURCH","102-19 34TH AVENUE","FLUSHING","NY","11368","QUEENS","718-899-0553","Y",,,,,,,,,,,,,,,"40.755742","-73.865988","403","21","379","4042602","4017170033","North Corona","POINT (-73.865988 40.755742)"
"SENIOR CENTER CONTRACTS","10101","YM YWHA RIVERDALE Y SENIOR CENTER","YM YWHA OF THE BRONX dba RIVERDALE YM YWHA","5625 ARLINGTON AVENUE","BRONX","NY","10471","BRONX","718-548-8200","Y",,,,,,,,,,,,,,,"40.905009","-73.907133","208","11","323","2086312","2059520374","North Riverdale-Fieldston-Riverdale","POINT (-73.907133 40.905009)"
"SENIOR CENTER CONTRACTS","31U01","FIND AID COFFEEHOUSE NSC","FIND AID FOR THE AGED","331 WEST 42ND STREET","NEW YORK","NY","10036","MANHATTAN","646-545-4621","Y",,,,,,,,,,,,,,,"40.757677","-73.990821","104","03","121","1083731","1010330049","Clinton","POINT (-73.990821 40.757677)"
"CASE MANAGEMENT SERVICES CONTRACTS","2ME01","HEIGHTS AND HILLS CASE MANAGEMENT BK-02","HEIGHTS AND HILLS INC.","57 WILLOUGHBY STREET","BROOKLYN","NY","11201","BROOKLYN","718-596-8789","Y",,,,,,,,,,,,,,,"40.692217","-73.986665","302","33","11","3000338","3001470036","DUMBO-Vinegar Hill-Downtown Brooklyn-Boerum Hill","POINT (-73.986665 40.692217)"
"SENIOR CENTER CONTRACTS","32M01","ENCORE NEIGHBORHOOD SENIOR CENTER","ENCORE COMMUNITY SERVICES","239 WEST 49TH STREET","NEW YORK","NY","10019","MANHATTAN","212-581-2910","Y",,,,,,,,,,,,,,,"40.761143","-73.985312","105","03","125","1024789","1010210009","Midtown-Midtown South","POINT (-73.985312 40.761143)"
"SENIOR CENTER CONTRACTS","35A01","Hamilton Grange Neighborhood Senior Center","CONVENT AVENUE BAPTIST CHURCH","420 WEST 145TH STREET","NEW YORK","NY","10031","MANHATTAN","212-862-4181","Y",,,,,,,,,,,,,,,"40.824436","-73.945733","109","07","227","1060948","1020500042","Hamilton Heights","POINT (-73.945733 40.824436)"
"HOME DELIVERED MEAL SERVICE CONTRACTS","46N01","CCNS HOME DELIVERED MEALS","CATHOLIC CHARITIES NEIGHBORHOOD SERVICES INC","191 Joralemon St","BROOKLYN","NY","11201","BROOKLYN","718-806-1080","Y",,,,,,,,,,,,,,,"40.763727","-73.87957","403","22","329","4032388","4013630011","Jackson Heights","POINT (-73.87957 40.763727)"
"SENIOR CENTER CONTRACTS","40601","JSPOA FRIENDSHIP NSC","JAMAICA SERVICE PROGRAM FOR OLDER ADULTS INC","92-47 165th STREET","JAMAICA","NY","11433","QUEENS","718-657-6695","Y",,,,,,,,,,,,,,,"40.706193","-73.789136","412","27","444","4457492","4102120033","Jamaica","POINT (-73.789136 40.706193)"
"SENIOR CENTER CONTRACTS","10H01","E. ROBERT MOORE NEIGHBORHOOD SENIOR CENT","BRONXWORKS INC","515 JACKSON AVENUE","BRONX","NY","10455","BRONX","718-665-5559","Y",,,,,,,,,,,,,,,"40.812353","-73.909401","201","08","35","2091284","2025570083","Mott Haven-Port Morris","POINT (-73.909401 40.812353)"
"SENIOR CENTER CONTRACTS","53601","ANDERSON NEIGHBORHOOD SENIOR CENTER","CATHOLIC CHARITIES OF STATEN ISLAND INC.","120 ANDERSON AVENUE","STATEN ISLAND","NY","10302","STATEN ISLAND","718-448-5757","Y",,,,,,,,,,,,,,,"40.634927","-74.134422","501","49","213","5024253","5010360019","Port Richmond","POINT (-74.134422 40.634927)"
"SENIOR CENTER CONTRACTS","22M01","GRANT SQUARE NEIGHBORHOOD SENIOR CENTER","FORT GREENE COUNCIL","19 Rogers Avenue","BROOKLYN","NY","11216","BROOKLYN","718-363-3133","Y",,,,,,,,,,,,,,,"40.676909","-73.952667","308","36","315","3030302","3012120006","Crown Heights North","POINT (-73.952667 40.676909)"
"SENIOR CENTER CONTRACTS","21801","BORO PARK Y NEIGHBORHOOD SENIOR CENTER","YOUNG MENS AND YOUNG WOMENS HEBREW ASSOCIATION OF BORO PARK","4912 14TH AVENUE","BROOKLYN","NY","11219","BROOKLYN","718-435-3804","Y",,,,,,,,,,,,,,,"40.63357","-73.99006","312","44","236","3328617","3056420042","Borough Park","POINT (-73.99006 40.63357)"
"SENIOR CENTER CONTRACTS","27801","LOS SURES DAVID SANTIAGO NEIGHBORHOOD SC","SOUTHSIDE UNITED HOUSING DEVELOPMENT FUND CORP","201 SOUTH  4TH STREET","BROOKLYN","NY","11211","BROOKLYN","718-384-2314","Y",,,,,,,,,,,,,,,"40.710881","-73.96016","301","34","523","3321304","3024320025","North Side-South Side","POINT (-73.96016 40.710881)"
"HOME DELIVERED MEAL SERVICE CONTRACTS","46E01","CCNS SWQ HOME DELIVERED MEALS PROGRAM","CATHOLIC CHARITIES NEIGHBORHOOD SERVICES INC","191 Joralemon St","BROOKLYN","NY","11201","BROOKLYN","718-806-1080","Y",,,,,,,,,,,,,,,"40.686027","-73.839777","409","28","112","4198392","4094210001","Richmond Hill","POINT (-73.839777 40.686027)"
"SENIOR CENTER CONTRACTS","22502","MILL BASIN NEIGHBORHOOD SENIOR CENTER","BERGEN BASIN COMMUNITY DEVELOPMENT CORPORATION DBA MILLENNIU","2075 EAST 68TH STREET","BROOKLYN","NY","11234","BROOKLYN","718-444-3850","Y",,,,,,,,,,,,,,,"40.618864","-73.910226","318","46","69602","3237201","3084090001","Georgetown-Marine Park-Bergen Beach-Mill Basin","POINT (-73.910226 40.618864)"
"SENIOR CENTER CONTRACTS","36B01","The Center at the Red Oak Neighborhood Senior Center","WEST SIDE FEDERATION FOR SENIOR AND SUPPORTIVE HOUSING INC","135 WEST 106TH STREET","NEW YORK","NY","10025","MANHATTAN","646-214-2560","Y",,,,,,,,,,,,,,,"40.799919","-73.964459","107","07","193","1055957","1018610010","Morningside Heights","POINT (-73.964459 40.799919)"
"ELDER ABUSE SERVICES CONTRACTS","3E201","CARTER BURDEN ELDER ABUSE","CARTER BURDEN NETWORK INC.","1484 FIRST AVENUE","NEW YORK","NY","10021","MANHATTAN","212-879-7400","Y",,,,,,,,,,,,,,,"40.771244","-73.953478","108","05","132","1081248","1014720003","Lenox Hill-Roosevelt Island","POINT (-73.953478 40.771244)"
"SENIOR CENTER CONTRACTS","64801","VISIONS Innovative Senior Center","VISIONS/SERVICES FOR THE BLIND AND VISUALLY IMPAIRED","135 WEST 23RD STREET","NEW YORK","NY","10011","MANHATTAN","646-486-4444","Y",,,,,,,,,,,,,,,"40.743386","-73.993916","104","03","91","1014949","1007990021","Hudson Yards-Chelsea-Flatiron-Union Square","POINT (-73.993916 40.743386)"
"SENIOR CENTER CONTRACTS","34101","CENTRAL HARLEM KENNEDY SR CTR","CENTRAL HARLEM SENIOR CITIZENS CENTERS INC.","2322 Third Avenue","NEW YORK","NY","10037","MANHATTAN","212-926-4465","Y",,,,,,,,,,,,,,,"40.804468","-73.935267","111","09","242","1054497","1017750033","East Harlem North","POINT (-73.935267 40.804468)"
"CITY MEALS ADMINISTRATIVE SERVICES CONTRACTS","CM601","CITYMEALS EMERGENCY MEALS AND FRIENDLY V","CITYMEALS-ON-WHEELS","355 LEXINGTON AVENUE","NEW YORK","NY","10017","MANHATTAN","212-687-1234","Y",,,,,,,,,,,,,,,"40.750245","-73.976909","106","04","80","1036147","1012950023","Murray Hill-Kips Bay","POINT (-73.976909 40.750245)"
"CASE MANAGEMENT SERVICES CONTRACTS","5M401","CASC CSMG","COMMUNITY AGENCY FOR SENIOR CITIZENS INC","56 BAY STREET","STATEN ISLAND","NY","10301","STATEN ISLAND","718-981-6226","Y",,,,,,,,,,,,,,,"40.640624","-74.075704","501","49","3","5000035","5000050103","West New Brighton-New Brighton-St. George","POINT (-74.075704 40.640624)"
"LEGAL SERVICES CONTRACTS","1AA01","LSNY BRONX","LSNY-BRONX CORPORATION","349 EAST 149TH STREET","BRONX","NY","10451","BRONX","917-661-4500","Y",,,,,,,,,,,,,,,"40.81667","-73.919959","201","17","65","2000933","2023317501","Melrose South-Mott Haven North","POINT (-73.919959 40.81667)"
"SENIOR CENTER CONTRACTS","20D01","UNITED NEIGHBORHOOD SENIOR CITIZENS CTR","UNITED SENIOR CITIZENS OF SUNSET PARK INC","475 EAST 53RD STREET","BROOKLYN","NY","11220","BROOKLYN","718-439-8647","Y",,,,,,,,,,,,,,,"40.647897","-73.92703","317","45","848",,,"Rugby-Remsen Village","POINT (-73.92703 40.647897)"
"SENIOR CENTER CONTRACTS","4A201","POMONOK NEIGHBORHOOD SENIOR CENTER","QUEENS COMMUNITY HOUSE INC.","67-09 KISSENA BOULEVARD","FLUSHING","NY","11367","QUEENS","718-591-3377","Y",,,,,,,,,,,,,,,"40.735033","-73.814726","408","24","122702","4455430","4067920030","Pomonok-Flushing Heights-Hillcrest","POINT (-73.814726 40.735033)"
"SENIOR CENTER CONTRACTS","45V01","SNAP Innovative Senior Center","SERVICES NOW FOR ADULT PERSONS INC","80-45 WINCHESTER  BOULEVARD","JAMAICA","NY","11427","QUEENS","718-454-2100","Y",,,,,,,,,,,,,,,"40.737685","-73.734021","413","23","1567","4537294","4078800400","Bellerose","POINT (-73.734021 40.737685)"
"SENIOR CENTER CONTRACTS","15E03","SOUNDVIEW HOUSE SOCIAL CLUB","THE NEIGHBORHOOD SELF-HELP BY OLDER PERSONS PROJECT INC","1674 SEWARD AVENUE","BRONX","NY","10473","BRONX","718-542-0006","Y",,,,,,,,,,,,,,,"40.818255","-73.869832","209","18","20","2092638","2035510001","Soundview-Castle Hill-Clason Point-Harding Park","POINT (-73.869832 40.818255)"
"SENIOR CENTER CONTRACTS","32701","JACKIE ROBINSON NEIGHBORHOOD SENIOR CTR","CHARLES A WALBURG MULTI SERVICE ORGANIZATION INC","1301 AMSTERDAM AVENUE","NEW YORK","NY","10027","MANHATTAN","212-666-4910","Y",,,,,,,,,,,,,,,"40.811994","-73.957264","109","07","20901","1084095","1019640001","Morningside Heights","POINT (-73.957264 40.811994)"
"SENIOR CENTER CONTRACTS","41U01","ROY REUTHER NSC","THE JEWISH ASSOCIATION FOR SERVICES FOR THE AGED","711C SEAGIRT AVENUE","FAR ROCKAWAY","NY","11691","QUEENS","718-471-3110","Y",,,,,,,,,,,,,,,"40.595996","-73.742187","414","31","101002","4298968","4156100001","Far Rockaway-Bayswater","POINT (-73.742187 40.595996)"
"SENIOR CENTER CONTRACTS","42701","CCNS CATHERINE SHERIDAN NSC","CATHOLIC CHARITIES NEIGHBORHOOD SERVICES INC","35-24 83RD STREET","FLUSHING","NY","11372","QUEENS","718-458-4600","Y",,,,,,,,,,,,,,,"40.751548","-73.883703","403","25","283","4437136","4014560001","Jackson Heights","POINT (-73.883703 40.751548)"
"SENIOR CENTER CONTRACTS","30A02","Polo Grounds","COTHOA LUNCHEON CLUB INC","2965 EIGHTH AVENUE","NEW YORK","NY","10039","MANHATTAN","212-283-5475","Y",,,,,,,,,,,,,,,"40.830242","-73.9365","110","09","24302","1084520","1021060003","Central Harlem North-Polo Grounds","POINT (-73.9365 40.830242)"
"SENIOR CENTER CONTRACTS","35301","FIND WOODSTOCK NEIGHBORHOOD SENIOR CENTE","FIND AID FOR THE AGED","127 WEST 43RD STREET","NEW YORK","NY","10036","MANHATTAN","212-874-0300","Y",,,,,,,,,,,,,,,"40.755873","-73.984454","105","04","119","1022613","1009960014","Midtown-Midtown South","POINT (-73.984454 40.755873)"
"SENIOR CENTER CONTRACTS","23201","MANHATTAN BEACH NEIGHBORHOOD SENIOR CTR","THE JEWISH ASSOCIATION FOR SERVICES FOR THE AGED","60 WEST END AVENUE","BROOKLYN","NY","11235","BROOKLYN","718-646-1118","Y",,,,,,,,,,,,,,,"40.580394","-73.953567","315","48","61004","3326901","3087130077","Brighton Beach","POINT (-73.953567 40.580394)"
"HOME DELIVERED MEAL SERVICE CONTRACTS","15Y01","RAIN HOME DELIVERED MEALS","REGIONAL AID FOR INTERIM NEEDS INC","811 Morris Park Avenue","BRONX","NY","10462","BRONX","718-231-7246","Y",,,,,,,,,,,,,,,"40.876304","-73.848594","212","12","364","2060739","2047370105","Eastchester-Edenwald-Baychester","POINT (-73.848594 40.876304)"
"SENIOR CENTER CONTRACTS","40301","RIDGEWOOD OLDER ADULT NEIGHBORHOOD SC","RIDGEWOOD OLDER ADULT CENTER AND SERVICES INC","59-14 70TH AVENUE","FLUSHING","NY","11385","QUEENS","718-456-2000","Y",,,,,,,,,,,,,,,"40.701191","-73.900024","405","30","583","4084122","4035080009","Ridgewood","POINT (-73.900024 40.701191)"
"SENIOR CENTER CONTRACTS","42U01","CCNS SEASIDE NSC","CATHOLIC CHARITIES NEIGHBORHOOD SERVICES INC","320 BEACH 94TH STREET","FAR ROCKAWAY","NY","11693","QUEENS","347-926-4119","Y",,,,,,,,,,,,,,,"40.5877","-73.817309","414","32","94202","4303571","4161260004","Hammels-Arverne-Edgemere","POINT (-73.817309 40.5877)"
"SENIOR CENTER CONTRACTS","32R01","MOTT STREET NEIGHBORHOOD SENIOR CENTER","NEW YORK FOUNDATION FOR SENIOR CITIZENS INC","180 MOTT STREET","NEW YORK","NY","10012","MANHATTAN","212-966-5480","Y",,,,,,,,,,,,,,,"40.7205","-73.995895","102","01","41","1007156","1004790001","SoHo-TriBeCa-Civic Center-Little Italy","POINT (-73.995895 40.7205)"
"HOME DELIVERED MEAL SERVICE CONTRACTS","29E01","JASA HOME DELIVERED MEALS","THE JEWISH ASSOCIATION FOR SERVICES FOR THE AGED","247 West 37th Street","NEW YORK","NY","10018","MANHATTAN","718-769-7455","Y",,,,,,,,,,,,,,,"40.651173","-73.885082","305","42","105801","3336175","3044350001","Starrett City","POINT (-73.885082 40.651173)"
"SENIOR CENTER CONTRACTS","35M01","YM YWHA INNOVATIVE SENIOR CENTER","YM YWHA OF WASHINGTON HEIGHTS AND INWOOD INC","54 NAGLE AVENUE","NEW YORK","NY","10040","MANHATTAN","212-569-6200","Y",,,,,,,,,,,,,,,"40.859993","-73.929129","112","10","285","1064146","1021720064","Washington Heights North","POINT (-73.929129 40.859993)"
"SENIOR CENTER CONTRACTS","32C01","RIVERSTONE SENIOR LIFE NSC","RIVERSTONE SENIOR LIFE SERVICES INC.","99 FORT WASHINGTON AVENUE","NEW YORK","NY","10032","MANHATTAN","212-927-5600","Y",,,,,,,,,,,,,,,"40.83851","-73.943738","112","07","247","1063346","1021360235","Washington Heights South","POINT (-73.943738 40.83851)"
"SENIOR CENTER CONTRACTS","34901","HUDSON GUILD NEIGHBORHOOD CENTER","HUDSON GUILD","441 West 26th Street","NEW YORK","NY","10011","MANHATTAN","212-760-9805","Y",,,,,,,,,,,,,,,"40.749196","-74.001815","104","03","97","1012827","1007240010","Hudson Yards-Chelsea-Flatiron-Union Square","POINT (-74.001815 40.749196)"
"SENIOR CENTER CONTRACTS","31D01","STANLEY ISAACS NEIGHBORHOOD SENIOR CTR","STANLEY M ISAACS NEIGHBORHOOD CENTER INC","415 EAST 93RD STREET","NEW YORK","NY","10128","MANHATTAN","212-666-4910","Y",,,,,,,,,,,,,,,"40.780904","-73.945112","108","05","152","1082367","1015730001","Yorkville","POINT (-73.945112 40.780904)"
"SENIOR CENTER CONTRACTS","10K01","THOMAS GUESS NEIGHBORHOOD SENIOR CENT","THE NEIGHBORHOOD SELF-HELP BY OLDER PERSONS PROJECT INC","2070 CLINTON AVENUE","BRONX","NY","10457","BRONX","718-584-2357","Y",,,,,,,,,,,,,,,"40.847236","-73.888101","206","15","371","2012652","2030940014","East Tremont","POINT (-73.888101 40.847236)"
"SENIOR CENTER CONTRACTS","41T01","KCS CORONA NEIGHBORHOOD SENIOR CENTER","KOREAN COMMUNITY SERVICES OF METROPOLITAN NEW YORK INC","37-06 111TH STREET","FLUSHING","NY","11368","QUEENS","718-651-9220","Y",,,,,,,,,,,,,,,"40.753941","-73.857264","403","21","401","4430244","4017780027","North Corona","POINT (-73.857264 40.753941)"
"SENIOR CENTER CONTRACTS","41Y01","CCNS OZONE PARK NSC","CATHOLIC CHARITIES NEIGHBORHOOD SERVICES INC","103-02 101ST AVENUE","JAMAICA","NY","11416","QUEENS","718-847-2100","Y",,,,,,,,,,,,,,,"40.686027","-73.839777","409","28","112","4198392","4094210001","Richmond Hill","POINT (-73.839777 40.686027)"
"SENIOR CENTER CONTRACTS","30A04","Bethune Neighborhood Senior Center","COTHOA LUNCHEON CLUB INC","1970 AMSTERDAM AVENUE","NEW YORK","NY","10032","MANHATTAN","646-918-7710","Y",,,,,,,,,,,,,,,"40.83328","-73.94174","112","07","241","1076742","1021160033","Washington Heights South","POINT (-73.94174 40.83328)"
"SENIOR CENTER CONTRACTS","50701","JCC SOUTH SHORE NEIGHBORHOOD SENIOR CT","JEWISH COMMUNITY CENTER OF STATEN ISLAND INC","1297 ARTHUR KILL ROAD","STATEN ISLAND","NY","10312","STATEN ISLAND","718-475-5283","Y",,,,,,,,,,,,,,,"40.565262","-74.183882","503","51","228","5077603","5059000105","New Springville-Bloomfield-Travis","POINT (-74.183882 40.565262)"
"SENIOR CENTER CONTRACTS","22K01","CCNS ST LOUIS NEIGHBORHOOD SENIOR CENTER","CATHOLIC CHARITIES NEIGHBORHOOD SERVICES INC","230 KINGSTON AVENUE","BROOKLYN","NY","11213","BROOKLYN","718-771-7945","Y",,,,,,,,,,,,,,,"40.671821","-73.941982","308","35","339","3032045","3012500025","Crown Heights North","POINT (-73.941982 40.671821)"
"HOMECARE SERVICES CONTRACTS","1H501","PERSONAL TOUCH -BRONX","PERSONAL-TOUCH HOME CARE OF N.Y. INC.","186-18 HILLSIDE AVENUE","JAMAICA","NY","11432","QUEENS","718-468-2500","Y",,,,,,,,,,,,,,,"40.714611","-73.775629","412","27","480","4212835","4099340026","Jamaica","POINT (-73.775629 40.714611)"
"SENIOR CENTER CONTRACTS","24A04","STUYVESSANT GARDENS SOCIAL CLUB","RISEBORO COMMUNITY PARTNERSHIP INC","150 MALCOLM X BOULEVARD","BROOKLYN","NY","11221","BROOKLYN","347-318-3313","Y",,,,,,,,,,,,,,,"40.688335","-73.930144","303","36","293","3044658","3016360024","Stuyvesant Heights","POINT (-73.930144 40.688335)"
"SENIOR CENTER CONTRACTS","17601","HEIGHTS NEIGHBORHOOD SENIOR CENTER","BRONXWORKS INC","200 WEST TREMONT AVENUE","BRONX","NY","10453","BRONX","718-299-0300","Y",,,,,,,,,,,,,,,"40.851984","-73.916804","205","14","20502","2008966","2028770522","University Heights-Morris Heights","POINT (-73.916804 40.851984)"
"SENIOR CENTER CONTRACTS","21H01","ROSETTA GASTON NEIGHBORHOOD SENIOR CTR","WAYSIDE OUT-REACH DEVELOPMENT INC","460 DUMONT AVENUE","BROOKLYN","NY","11212","BROOKLYN","718-345-5665","Y",,,,,,,,,,,,,,,"40.66514","-73.902222","316","42","910","3328133","3037970001","Brownsville","POINT (-73.902222 40.66514)"
"SENIOR CENTER CONTRACTS","31V01","FOOD BANK NEIGHBORHOOD SENIOR CENTER","FOOD BANK FOR NEW YORK CITY","252 WEST 116TH STREET","NEW YORK","NY","10026","MANHATTAN","212-566-7855","Y",,,,,,,,,,,,,,,"40.80386","-73.954062","110","09","218","1055248","1018310060","Central Harlem South","POINT (-73.954062 40.80386)"
"SENIOR CENTER CONTRACTS","18801","RIVERDALE NEIGHBORHOOD SENIOR CENTER","RIVERDALE SENIOR SERVICES INC","2600 NETHERLAND AVENUE","BRONX","NY","10463","BRONX","718-884-5900","Y",,,,,,,,,,,,,,,"40.878744","-73.915679","208","11","29302","2083247","2057220475","Spuyten Duyvil-Kingsbridge","POINT (-73.915679 40.878744)"
"ELDER ABUSE SERVICES CONTRACTS","64701","Weill Cornell PROTECT","WEILL MEDICAL COLLEGE OF CORNELL UNIVERSITY","478 FIRST AVENUE","NEW YORK","NY","10016","MANHATTAN","914-997-4333","Y",,,,,,,,,,,,,,,"40.739821","-73.976389","106","04","62","1086515","1009620100","Murray Hill-Kips Bay","POINT (-73.976389 40.739821)"
"SENIOR CENTER CONTRACTS","21C01","MARLBORO NEIGHBORHOOD SENIOR CENTER","JEWISH COMMUNITY COUNCIL OF GREATER CONEY ISLAND INC","2298 West 8th Street","BROOKLYN","NY","11223","BROOKLYN","718-373-6161","Y",,,,,,,,,,,,,,,"40.592081","-73.978468","313","47","382","3322179","3071400016","Gravesend","POINT (-73.978468 40.592081)"
"SENIOR CENTER CONTRACTS","33201","CPC PROJECT OPEN DOOR NEIGHBORHOOD SC","CHINESE AMERICAN PLANNING COUNCIL INC","168 GRAND STREET","NEW YORK","NY","10013","MANHATTAN","212-431-9026","Y",,,,,,,,,,,,,,,"40.71969","-73.998286","102","01","41","1075959","1004727501","SoHo-TriBeCa-Civic Center-Little Italy","POINT (-73.998286 40.71969)"
"SENIOR CENTER CONTRACTS","28801","DORCHESTER NEIGHBORHOOD SR CITIZENS CTR","DORCHESTER SENIOR CITIZENS CENTER INC","1419 DORCHESTER ROAD","BROOKLYN","NY","11226","BROOKLYN","718-941-6700","Y",,,,,,,,,,,,,,,"40.638972","-73.964689","314","40","520","3118688","3051570035","Flatbush","POINT (-73.964689 40.638972)"
"SENIOR CENTER CONTRACTS","30U01","DYCKMAN NEIGHBORHOOD SENIOR CENTER","NEW YORK FOUNDATION FOR SENIOR CITIZENS INC","3754 10TH AVENUE","NEW YORK","NY","10034","MANHATTAN","212-569-7790","Y",,,,,,,,,,,,,,,"40.860844","-73.921587","112","10","299","1080032","1022160001","Marble Hill-Inwood","POINT (-73.921587 40.860844)"
"SENIOR CENTER CONTRACTS","30X01","CITY HALL NEIGHBORHOOD SENIOR CENTER","HAMILTON MADISON HOUSE INC","100 GOLD STREET","NEW YORK","NY","10038","MANHATTAN","212-788-5580","Y",,,,,,,,,,,,,,,"40.710353","-74.004007","101","01","1501","1001289","1000940025","Battery Park City-Lower Manhattan","POINT (-74.004007 40.710353)"
"GERIATRIC MENTAL HEALTH SERVICES CONTRACTS","1G701","JASA MENTAL HEALTH","THE JEWISH ASSOCIATION FOR SERVICES FOR THE AGED","247 West 37th Street","NEW YORK","NY","10018","MANHATTAN","718-365-4044","Y",,,,,,,,,,,,,,,"40.860739","-73.889585","206","15","387","2088325","2030330053","Belmont","POINT (-73.889585 40.860739)"
"SENIOR CENTER CONTRACTS","33W01","RAIN INWOOD NEIGHBORHOOD SENIOR CENTER","REGIONAL AID FOR INTERIM NEEDS INC","84 VERMILYEA AVENUE","NEW YORK","NY","10034","MANHATTAN","212-567-3200","Y",,,,,,,,,,,,,,,"40.865838","-73.923128","112","10","291","1064905","1022340029","Marble Hill-Inwood","POINT (-73.923128 40.865838)"
"SENIOR CENTER CONTRACTS","34102","Saint Nicholas Social Club","CENTRAL HARLEM SENIOR CITIZENS CENTERS INC.","210 WEST 131ST STREET","NEW YORK","NY","10001","MANHATTAN","646-678-4451","Y",,,,,,,,,,,,,,,"40.812977","-73.94614","110","09","224","1081515","1019330050","Central Harlem North-Polo Grounds","POINT (-73.94614 40.812977)"
"SENIOR CENTER CONTRACTS","26601","JASA STARRETT CITY NEIGHBORHOOD SR CTR","THE JEWISH ASSOCIATION FOR SERVICES FOR THE AGED","1540 VAN SICLEN AVENUE","BROOKLYN","NY","11239","BROOKLYN","718-642-1010","Y",,,,,,,,,,,,,,,"40.648214","-73.877613","305","42","105801","3343608","3044520200","Starrett City","POINT (-73.877613 40.648214)"
"GERIATRIC MENTAL HEALTH SERVICES CONTRACTS","3G101","SPOP MENTAL HEALTH","SERVICE PROGRAM FOR OLDER PEOPLE INC","302 WEST 91ST STREET","NEW YORK","NY","10024","MANHATTAN","212-787-7120","Y",,,,,,,,,,,,,,,"40.792171","-73.975796","107","06","179","1034085","1012510022","Upper West Side","POINT (-73.975796 40.792171)"
"SENIOR CENTER CONTRACTS","35D01","Carter Burden Innovative Senior Center","CARTER BURDEN NETWORK INC.","312 EAST 109 STREET","NEW YORK","NY","10029","MANHATTAN","212-423-9665","Y",,,,,,,,,,,,,,,"40.792306","-73.94048","111","08","170","1074278","1016800045","East Harlem South","POINT (-73.94048 40.792306)"
"SENIOR CENTER CONTRACTS","22E01","YOUNG ISRAEL SR SERVICES NBH SR CTR","YOUNG ISRAEL PROGRAMS INC","1694 OCEAN AVENUE","BROOKLYN","NY","11230","BROOKLYN","718-253-7800","Y",,,,,,,,,,,,,,,"40.620447","-73.955405","314","48","538","3180733","3067390044","Midwood","POINT (-73.955405 40.620447)"
"SENIOR CENTER CONTRACTS","21Q01","WYCKOFF GARDENS NEIGHBORHOOD SENIOR CTR","SPANISH SPEAKING ELDERLY COUNCIL RAICES INC.","280 WYCKOFF STREET","BROOKLYN","NY","11217","BROOKLYN","718-237-1802","Y",,,,,,,,,,,,,,,"40.683365","-73.983941","306","33","127","3336056","3003940001","DUMBO-Vinegar Hill-Downtown Brooklyn-Boerum Hill","POINT (-73.983941 40.683365)"
"SENIOR CENTER CONTRACTS","41H02","RAICES CORONA NEIGHBORHOOD SENIOR CENT","SPANISH SPEAKING ELDERLY COUNCIL RAICES INC.","40-15 COLLEGE POINT BLVD","FLUSHING","NY","11354","QUEENS","718-961-7670","Y",,,,,,,,,,,,,,,"40.757803","-73.83414","407","20","871","4443443","4050370008","Flushing","POINT (-73.83414 40.757803)"
"SENIOR CENTER CONTRACTS","28901","PARK SLOPE CENTER FOR SUCCESSFUL AGING","HEIGHTS AND HILLS INC.","463A 7TH STREET","BROOKLYN","NY","11215","BROOKLYN","718-832-3726","Y",,,,,,,,,,,,,,,"40.668419","-73.981201","306","39","153","3021748","3009950051","Park Slope-Gowanus","POINT (-73.981201 40.668419)"
"SENIOR CENTER CONTRACTS","43701","REGO PARK NSC","QUEENS COMMUNITY HOUSE INC.","93-29 QUEENS BOULEVARD","FLUSHING","NY","11374","QUEENS","718-896-8511","Y",,,,,,,,,,,,,,,"40.73147","-73.866044","406","29","71702","4050408","4020770050","Rego Park","POINT (-73.866044 40.73147)"
"SENIOR CENTER CONTRACTS","54001","STAPLETON NEIGHBORHOOD SENIOR CENTER","JEWISH COMMUNITY CENTER OF STATEN ISLAND INC","189 GORDON STREET","STATEN ISLAND","NY","10304","STATEN ISLAND","718-981-8828","Y",,,,,,,,,,,,,,,"40.623124","-74.082838","501","49","29","5108860","5005450100","Stapleton-Rosebank","POINT (-74.082838 40.623124)"
"SENIOR CENTER CONTRACTS","12G01","RAIN NEREID NEIGHBORHOOD SENIOR CENTER","REGIONAL AID FOR INTERIM NEEDS INC","720 NEREID AVENUE","BRONX","NY","10466","BRONX","718-994-0132","Y",,,,,,,,,,,,,,,"40.898158","-73.853568","212","11","434","2069882","2050460033","Woodlawn-Wakefield","POINT (-73.853568 40.898158)"
"SENIOR CENTER CONTRACTS","40P01","ELMHURST JACKSON HEIGHTS NSC","INSTITUTE FOR THE PUERTO RICAN HISPANIC ELDERLY INC","75-01 BROADWAY","FLUSHING","NY","11373","QUEENS","718-478-7171","Y",,,,,,,,,,,,,,,"40.746172","-73.890208","404","25","267","4036730","4014860013","Elmhurst","POINT (-73.890208 40.746172)"
"SENIOR CENTER CONTRACTS","10G01","CONCOURSE PLAZA WELLNESS NC","MID BRONX SENIOR CITIZENS COUNCIL INC","900 GRAND CONCOURSE","BRONX","NY","10451","BRONX","718-588-8200","Y",,,,,,,,,,,,,,,"40.827412","-73.922277","204","16","18301","2002802","2024600001","East Concourse-Concourse Village","POINT (-73.922277 40.827412)"
"SENIOR CENTER CONTRACTS","18401","NORTHEAST BRONX NEIGHBORHOOD SENIOR CT","NORTHEAST BRONX SENIOR CITIZENS INC","2968 BRUCKNER BLVD.","BRONX","NY","10465","BRONX","718-892-6090","Y",,,,,,,,,,,,,,,"40.833889","-73.826264","210","13","164","2097558","2054200002","Schuylerville-Throgs Neck-Edgewater Park","POINT (-73.826264 40.833889)"
"SENIOR CENTER CONTRACTS","45N01","HANAC Harmony JVL Innovative Senior Center","HANAC INC.","27-40 HOYT AVENUE SOUTH","LONG ISLAND CITY","NY","11102","QUEENS","718-396-5002","Y",,,,,,,,,,,,,,,"40.771857","-73.9198","401","22","69","4537921","4008390001","Old Astoria","POINT (-73.9198 40.771857)"
"SENIOR CENTER CONTRACTS","26W01","WILLIAMSBURG NEIGHBORHOOD SENIOR CENTER","THE JEWISH ASSOCIATION FOR SERVICES FOR THE AGED","202 GRAHAM AVENUE","BROOKLYN","NY","11206","BROOKLYN","718-388-6865","Y",,,,,,,,,,,,,,,"40.708879","-73.943443","301","34","493","3344974","3030260001","Bushwick South","POINT (-73.943443 40.708879)"
"SENIOR CENTER CONTRACTS","43D01","SELFHELP LATIMER NST","SELFHELP COMMUNITY SERVICES INC","34-30 137TH STREET","FLUSHING","NY","11354","QUEENS","718-961-3660","Y",,,,,,,,,,,,,,,"40.766044","-73.829935","407","20","88901","4443410","4049510008","Flushing","POINT (-73.829935 40.766044)"
"SENIOR CENTER CONTRACTS","30B01","GRAND COALITION OF SENIORS NSC","GRAND STREET SETTLEMENT INC","80 PITT STREET","NEW YORK","NY","10002","MANHATTAN","646-201-4251","Y",,,,,,,,,,,,,,,"40.718328","-73.98245","103","02","2201","1084357","1003380001","Lower East Side","POINT (-73.98245 40.718328)"
"SENIOR CENTER CONTRACTS","15D01","PSS City Island Neighborhood Senior Center","PRESBYTERIAN SENIOR SERVICES","116 CITY ISLAND AVENUE","BRONX","NY","10464","BRONX","718-885-0727","Y",,,,,,,,,,,,,,,"40.841097","-73.784187","210","13","516","2082432","2056400010","Pelham Bay-Country Club-City Island","POINT (-73.784187 40.841097)"
"CASE MANAGEMENT SERVICES CONTRACTS","2ME01","HEIGHTS AND HILLS CASE MANAGEMENT BK-02","HEIGHTS AND HILLS INC.","57 WILLOUGHBY STREET","BROOKLYN","NY","11201","BROOKLYN","718-596-8789","Y",,,,,,,,,,,,,,,,,"302","33",,"3000338","3001470036",,
"SENIOR CENTER CONTRACTS","20J01","BROOKDALE NEIGHBORHOOD SENIOR CENTER","AGUDATH ISRAEL OF AMERICA COMMUNITY SERVICES INC","817 AVENUE H","BROOKLYN","NY","11230","BROOKLYN","718-854-7430","Y",,,,,,,,,,,,,,,"40.629268","-73.968686","314","40","460","3170160","3064960039","Flatbush","POINT (-73.968686 40.629268)"
"TRANSPORTATION SERVICES CONTRACTS","53801","CASC TRANSPORTATION","COMMUNITY AGENCY FOR SENIOR CITIZENS INC","56 BAY STREET","STATEN ISLAND","NY","10301","STATEN ISLAND","718-981-6226","Y",,,,,,,,,,,,,,,"40.640624","-74.075704","501","49","3","5000035","5000050103","West New Brighton-New Brighton-St. George","POINT (-74.075704 40.640624)"
"CAREGIVER SERVICES CONTRACTS","3K401","HMH CAREGIVER SERVICES MANHATTAN","HAMILTON MADISON HOUSE INC","100 GOLD STREET","NEW YORK","NY","10038","MANHATTAN","212-788-5580","Y",,,,,,,,,,,,,,,"40.710353","-74.004007","101","01","1501","1001289","1000940025","Battery Park City-Lower Manhattan","POINT (-74.004007 40.710353)"
"SENIOR CENTER CONTRACTS","35B02","AP Randolph Senior Center","ARC XVI FORT WASHINGTON INC","108 West 146th Street","NEW YORK","NY","10030","MANHATTAN","917-639-3054","Y",,,,,,,,,,,,,,,"40.821341","-73.936317","110","09","232","1060189","1020140036","Central Harlem North-Polo Grounds","POINT (-73.936317 40.821341)"
"SENIOR CENTER CONTRACTS","10M01","BAY EDEN NEIGHBORHOOD SENIOR CENTER","THE JEWISH ASSOCIATION FOR SERVICES FOR THE AGED","1220 EAST 229TH STREET","BRONX","NY","10468","BRONX","718-882-3815","Y",,,,,,,,,,,,,,,"40.884011","-73.842204","212","12","460","2093741","2049050360","Eastchester-Edenwald-Baychester","POINT (-73.842204 40.884011)"
"SENIOR CENTER CONTRACTS","44L01","SELFHELP AUSTIN STREET NSC","SELFHELP COMMUNITY SERVICES INC","106-06 QUEENS BOULEVARD","FLUSHING","NY","11375","QUEENS","718-520-8197","Y",,,,,,,,,,,,,,,"40.72212","-73.847335","406","29","711","4077479","4032370040","Forest Hills","POINT (-73.847335 40.72212)"
"SENIOR CENTER CONTRACTS","23801","AMICO 59TH ST NEIGHBORHOOD SR CITIZENS C","AMERICAN ITALIAN COALITION OF ORGANIZATIONS INC AMICO","5901 13TH AVENUE","BROOKLYN","NY","11219","BROOKLYN","718-972-1558","Y",,,,,,,,,,,,,,,"40.629332","-73.998022","312","44","192","3141065","3057120001","Borough Park","POINT (-73.998022 40.629332)"
"SENIOR CENTER CONTRACTS","31Y01","CENTER ON THE SQUARE NSC","GREENWICH HOUSE INC.","20 WASHINGTON SQUARE NORTH","NEW YORK","NY","10011","MANHATTAN","212-777-3555","Y",,,,,,,,,,,,,,,"40.731781","-73.997705","102","01","63","1008851","1005510008","West Village","POINT (-73.997705 40.731781)"
"SENIOR CENTER CONTRACTS","24A02","SARATOGA SQUARE SENIOR CENTER","RISEBORO COMMUNITY PARTNERSHIP INC","930 HALSEY STREET","BROOKLYN","NY","11233","BROOKLYN","347-425-0676","Y",,,,,,,,,,,,,,,"40.685579","-73.916976","316","41","373","3339097","3014950013","Ocean Hill","POINT (-73.916976 40.685579)"
"SENIOR CENTER CONTRACTS","32T03","PSS MANHATTANVILLE SENIOR CENTER","PRESBYTERIAN SENIOR SERVICES","530 WEST 133RD STREET","NEW YORK","NY","10027","MANHATTAN","212-862-5562","Y",,,,,,,,,,,,,,,"40.818127","-73.954478","109","07","219","1084130","1019840001","Manhattanville","POINT (-73.954478 40.818127)"
"ELDER ABUSE SERVICES CONTRACTS","2E101","JASA ELDER ABUSE","THE JEWISH ASSOCIATION FOR SERVICES FOR THE AGED","44 COURT STREET","BROOKLYN","NY","11201","BROOKLYN","718-943-7752","Y",,,,,,,,,,,,,,,"40.692591","-73.990963","302","33","9","3002242","3002550001","Brooklyn Heights-Cobble Hill","POINT (-73.990963 40.692591)"
"SENIOR CENTER CONTRACTS","10S01","PSS ANDREW JACKSON NEIGHBORHOOD SR CT","PRESBYTERIAN SENIOR SERVICES","325 EAST 156TH STREET","BRONX","NY","10451","BRONX","718-885-1640","Y",,,,,,,,,,,,,,,"40.821439","-73.917995","201","17","69","2091224","2024160001","Melrose South-Mott Haven North","POINT (-73.917995 40.821439)"
"SENIOR CENTER CONTRACTS","10J01","RAIN GUNHILL NEIGHBORHOOD SENIOR CENTER","REGIONAL AID FOR INTERIM NEEDS INC","3377 WHITE PLAINS ROAD","BRONX","NY","10467","BRONX","718-881-5589","Y",,,,,,,,,,,,,,,"40.874872","-73.86706","212","12","374","2087299","2046240037","Williamsbridge-Olinville","POINT (-73.86706 40.874872)"
"SENIOR CENTER CONTRACTS","50601","GREAT KILLS NEIGHBORHOOD SENIOR CENTER","STATEN ISLAND COMMUNITY SERVICES FRIENDSHIP CLUBS INC","11 SAMPSON AVENUE","STATEN ISLAND","NY","10308","STATEN ISLAND","718-356-5050","Y",,,,,,,,,,,,,,,"40.552603","-74.149795","503","51","14605","5062569","5046240500","Great Kills","POINT (-74.149795 40.552603)"
"SENIOR CENTER CONTRACTS","31201","CARTER BURDEN LUNCHEON CLUB NSC","CARTER BURDEN NETWORK INC.","451 EAST 74TH STREET","NEW YORK","NY","10021","MANHATTAN","212-535-5235","Y",,,,,,,,,,,,,,,"40.768645","-73.953891","108","05","132",,,"Lenox Hill-Roosevelt Island","POINT (-73.953891 40.768645)"
"SENIOR CENTER CONTRACTS","43S02","ASTORIA NYCHA SITE 9","SPANISH SPEAKING ELDERLY COUNCIL RAICES INC.","21-21 30TH DRIVE","LONG ISLAND CITY","NY","11102","QUEENS","718-726-9642","Y",,,,,,,,,,,,,,,"40.768135","-73.928916","401","22","79","4006319","4005500007","Old Astoria","POINT (-73.928916 40.768135)"
"SENIOR CENTER CONTRACTS","28K01","CCNS Riverway Innovative Senior Center","CATHOLIC CHARITIES NEIGHBORHOOD SERVICES INC","230 RIVERDALE AVENUE","BROOKLYN","NY","11212","BROOKLYN","718-942-5345","Y",,,,,,,,,,,,,,,"40.661083","-73.908024","316","42","916","3413856","3036030025","Brownsville","POINT (-73.908024 40.661083)"
"SENIOR CENTER CONTRACTS","10D01","VAN CORTLANDT NEIGHBORHOOD SENIOR CENT","THE JEWISH ASSOCIATION FOR SERVICES FOR THE AGED","3880 SEDGWICK AVENUE","BRONX","NY","10463","BRONX","718-549-4700","Y",,,,,,,,,,,,,,,"40.882997","-73.894008","208","11","409","2086830","2032460076","Van Cortlandt Village","POINT (-73.894008 40.882997)"
"SENIOR CENTER CONTRACTS","40C01","SUNNYSIDE COMMUNITY NSC","SUNNYSIDE COMMUNITY SERVICES INC","43-31 39TH STREET","LONG ISLAND CITY","NY","11104","QUEENS","929-335-7915","Y",,,,,,,,,,,,,,,"40.74519","-73.925909","402","26","179","4436677","4001910005","Hunters Point-Sunnyside-West Maspeth","POINT (-73.925909 40.74519)"
"NATURALLY OCCURING RETIREMENT COMMUNITY CONTRACTS","N3E03","ISABELLA GERIATRIC RIVER TERRACE NORC","ISABELLA GERIATRIC CENTER INC","156-20 Riverside Drive West","NEW YORK","NY","10032","MANHATTAN","646-230-8530","Y",,,,,,,,,,,,,,,"40.835595","-73.948742","112","07","241","1063278","1021340206","Washington Heights South","POINT (-73.948742 40.835595)"
"SENIOR CENTER CONTRACTS","32B02","MELTZER TOWER SOCIAL CLUB","UNIVERSITY SETTLEMENT SOCIETY OF NEW YORK","94 EAST 1ST STREET","NEW YORK","NY","10009","MANHATTAN","212-253-5624","Y",,,,,,,,,,,,,,,"40.722827","-73.987402","103","02","3002","1005743","1004290021","East Village","POINT (-73.987402 40.722827)"
"SENIOR CENTER CONTRACTS","43301","BAYSIDE NEIGHBORHOOD SENIOR CENTER","CATHOLIC CHARITIES NEIGHBORHOOD SERVICES INC","221-15 HORACE HARDING EXPRESSWAY","FLUSHING","NY","11364","QUEENS","718-225-1144","Y",,,,,,,,,,,,,,,"40.749688","-73.756559","411","23","138501","4161696","4075270065","Oakland Gardens","POINT (-73.756559 40.749688)"
"HOME DELIVERED MEAL SERVICE CONTRACTS","15Z01","RAIN HOME DELIVERED MEALS","REGIONAL AID FOR INTERIM NEEDS INC","811 Morris Park Avenue","BRONX","NY","10462","BRONX","718-231-7246","Y",,,,,,,,,,,,,,,"40.876304","-73.848594","212","12","364","2060739","2047370105","Eastchester-Edenwald-Baychester","POINT (-73.848594 40.876304)"
"SENIOR CENTER CONTRACTS","24A03","BREVOORT SOCIAL CLUB","RISEBORO COMMUNITY PARTNERSHIP INC","280 RALPH AVENUE","BROOKLYN","NY","11233","BROOKLYN","347-318-3383","Y",,,,,,,,,,,,,,,"40.679794","-73.922153","303","41","381","3325173","3016880001","Crown Heights North","POINT (-73.922153 40.679794)"
"SENIOR CENTER CONTRACTS","32T01","PSS HARLEM NEIGHBORHOOD SENIOR CENTER","PRESBYTERIAN SENIOR SERVICES","18 MT. MORRIS PARK WEST","NEW YORK","NY","10027","MANHATTAN","212-222-3132","Y",,,,,,,,,,,,,,,"40.804822","-73.945457","111","09","198","1083967","1017190001","East Harlem North","POINT (-73.945457 40.804822)"
"SENIOR CENTER CONTRACTS","34104","Lincoln Social Club","CENTRAL HARLEM SENIOR CITIZENS CENTERS INC.","60 EAST 135TH STREET","NEW YORK","NY","10037","MANHATTAN","212-926-4465","Y",,,,,,,,,,,,,,,"40.81161","-73.934935","111","09","210","1081120","1017570020","East Harlem North","POINT (-73.934935 40.81161)"
"SENIOR CENTER CONTRACTS","43S01","RAICES ASTORIA NEIGHBORHOOD SENIOR CTR","SPANISH SPEAKING ELDERLY COUNCIL RAICES INC.","21-21 30TH DRIVE","LONG ISLAND CITY","NY","11102","QUEENS","718-726-9642","Y",,,,,,,,,,,,,,,"40.768135","-73.928916","401","22","79","4006319","4005500007","Old Astoria","POINT (-73.928916 40.768135)"
"CAREGIVER SERVICES CONTRACTS","4K301","CAREGIVER PROGRAM OF SNAP","SERVICES NOW FOR ADULT PERSONS INC","80-45 WINCHESTER BOULEVARD","JAMAICA","NY","11427","QUEENS","718-527-5380","Y",,,,,,,,,,,,,,,"40.674396","-73.732749","413","31","61602","4279577","4129800001","Rosedale","POINT (-73.732749 40.674396)"
"SENIOR CENTER CONTRACTS","21T01","VAN DYKE NEIGHBORHOOD SENIOR CENTER","WAYSIDE OUT-REACH DEVELOPMENT INC","430 DUMONT AVENUE","BROOKLYN","NY","11212","BROOKLYN","718-385-1110","Y",,,,,,,,,,,,,,,"40.664982","-73.903308","316","41","910","3328126","3037940001","Brownsville","POINT (-73.903308 40.664982)"
"CAREGIVER SERVICES CONTRACTS","4K101","WQCN AT SUNNYSIDE COMMUNITY SERVICES","SUNNYSIDE COMMUNITY SERVICES INC","43-31 39TH STREET","LONG ISLAND CITY","NY","11104","QUEENS","718-392-6945","Y",,,,,,,,,,,,,,,,,"402","26",,"4436677","4001910005",,
"SENIOR CENTER CONTRACTS","10F01","RAIN BOSTON SECOR NEIGHBORHOOD SR CTR","REGIONAL AID FOR INTERIM NEEDS INC","3450 BIVONA STREET","BRONX","NY","10475","BRONX","718-671-8550","Y",,,,,,,,,,,,,,,"40.882167","-73.832658","212","12","46202",,,"Co-op City","POINT (-73.832658 40.882167)"
"SENIOR CENTER CONTRACTS","30H01","NY CHINATOWN NEIGHBORHOOD SENIOR CENTER","CHINESE AMERICAN PLANNING COUNCIL INC","70 MULBERRY STREET","NEW YORK","NY","10013","MANHATTAN","212-233-8930","Y",,,,,,,,,,,,,,,"40.716092","-73.999203","103","01","29","1066494","1002000001","Chinatown","POINT (-73.999203 40.716092)"
"SENIOR CENTER CONTRACTS","23F02","ARMSTRONG SOCIAL CLUB","WAYSIDE OUT-REACH DEVELOPMENT INC","360 NOSTRAND AVENUE","BROOKLYN","NY","11216","BROOKLYN","718-638-3000","Y",,,,,,,,,,,,,,,"40.687303","-73.950965","303","36","243","3350437","3018020051","Bedford","POINT (-73.950965 40.687303)"
"HOME DELIVERED MEAL SERVICE CONTRACTS","46H01","CCNS HOME DELIVERED MEALS","CATHOLIC CHARITIES NEIGHBORHOOD SERVICES INC","191 Joralemon St","BROOKLYN","NY","11201","BROOKLYN","718-357-4903","Y",,,,,,,,,,,,,,,"40.710318","-73.794757","408","24","454","4210504","4098400001","Briarwood-Jamaica Hills","POINT (-73.794757 40.710318)"
"ELDER ABUSE SERVICES CONTRACTS","4E101","JASA ELDER ABUSE","THE JEWISH ASSOCIATION FOR SERVICES FOR THE AGED","97-77 QUEENS BOULEVARD","FLUSHING","NY","11374","QUEENS","718-286-1524","Y",,,,,,,,,,,,,,,"40.728721","-73.858501","406","29","71701","4050482","4020920001","Rego Park","POINT (-73.858501 40.728721)"
"SENIOR CENTER CONTRACTS","31202","Carter Burden Roosevelt Island Neighborhood Senior Center","CARTER BURDEN NETWORK INC.","546 MAIN STREET","NEW YORK","NY","10044","MANHATTAN","212-980-1888","Y",,,,,,,,,,,,,,,"40.761781","-73.949762","108","05","23801","1083202","1013730030","Lenox Hill-Roosevelt Island","POINT (-73.949762 40.761781)"
"SENIOR CENTER CONTRACTS","41201","HANAC ANGELO PETROMELIS NSC","HANAC INC.","13-28 123RD STREET","FLUSHING","NY","11356","QUEENS","718-961-0344","Y",,,,,,,,,,,,,,,"40.786179","-73.844772","407","19","947","4096960","4039970035","College Point","POINT (-73.844772 40.786179)"
"SENIOR CENTER CONTRACTS","24P01","HOPE GARDENS MULTI SERVICE NSC","RISEBORO COMMUNITY PARTNERSHIP INC","195 LINDEN STREET","BROOKLYN","NY","11221","BROOKLYN","718-455-1100","Y",,,,,,,,,,,,,,,"40.69537","-73.917486","304","37","417","3076116","3033240019","Bushwick South","POINT (-73.917486 40.69537)"
"HOME DELIVERED MEAL SERVICE CONTRACTS","36J01","CHARLES WALBURG HOME DELIVERED MEALS","CHARLES A WALBURG MULTI SERVICE ORGANIZATION INC","163 WEST 125TH STREET","NEW YORK","NY","10027","MANHATTAN","212-222-2552","Y",,,,,,,,,,,,,,,"40.808644","-73.947524","110","09","222","1081602","1019100001","Central Harlem South","POINT (-73.947524 40.808644)"
"HOME DELIVERED MEAL SERVICE CONTRACTS","46G01","JASA HOME DELIVERED MEALS","THE JEWISH ASSOCIATION FOR SERVICES FOR THE AGED","247 West 37th Street","NEW YORK","NY","10018","MANHATTAN","718-327-6023","Y",,,,,,,,,,,,,,,"40.593761","-73.753207","414","31","99802","4301622","4158100055","Far Rockaway-Bayswater","POINT (-73.753207 40.593761)"
"SENIOR CENTER CONTRACTS","10N01","WILLIAM HODSON NEIGHBORHOOD SENIOR CTR","WILLIAM HODSON COMMUNITY CENTER INC","1320 WEBSTER AVENUE","BRONX","NY","10456","BRONX","718-538-1515","Y",,,,,,,,,,,,,,,"40.834189","-73.90854","203","16","14701","2092074","2028940001","Claremont-Bathgate","POINT (-73.90854 40.834189)"
"SENIOR CENTER CONTRACTS","15E01","Neighborhood SHOPP Innovative Senior Center","THE NEIGHBORHOOD SELF-HELP BY OLDER PERSONS PROJECT INC","910 EAST 172ND STREET","BRONX","NY","10460","BRONX","718-542-0222","Y",,,,,,,,,,,,,,,"40.834198","-73.890157","203","17","155","2010507","2029770103","Crotona Park East","POINT (-73.890157 40.834198)"
"NATURALLY OCCURING RETIREMENT COMMUNITY CONTRACTS","N3E02","EL CORAZON NNORC","ISABELLA GERIATRIC CENTER INC","4026 BROADWAY","NEW YORK","NY","10032","MANHATTAN","212-342-9617","Y",,,,,,,,,,,,,,,"40.841933","-73.939047","112","10","253","1063014","1021260001","Washington Heights South","POINT (-73.939047 40.841933)"
"SENIOR CENTER CONTRACTS","40T01","QUEENSBRIDGE-RIIS NSC","JACOB A RIIS NEIGHBORHOOD SETTLEMENT","10-25 41ST AVENUE","LONG ISLAND CITY","NY","11101","QUEENS","718-784-7447","Y",,,,,,,,,,,,,,,"40.755488","-73.945328","401","26","25","4433386","4004700100","Queensbridge-Ravenswood-Long Island City","POINT (-73.945328 40.755488)"
"SENIOR CENTER CONTRACTS","12R01","BRONX RIVER NEIGHBORHOOD SENIOR CENTER","INSTITUTE FOR THE PUERTO RICAN HISPANIC ELDERLY INC","1619 EAST 174TH ST","BRONX","NY","10472","BRONX","718-617-6334","Y",,,,,,,,,,,,,,,"40.83395","-73.876147","209","18","62","2092909","2038860002","West Farms-Bronx River","POINT (-73.876147 40.83395)"
"SENIOR CENTER CONTRACTS","35B01","ARC Central Harlem Senior Center","ARC XVI FORT WASHINGTON INC","120 WEST 140TH STREET","NEW YORK","NY","10039","MANHATTAN","212-781-5700","Y",,,,,,,,,,,,,,,"40.817579","-73.939272","110","09","230","1060054","1020080013","Central Harlem North-Polo Grounds","POINT (-73.939272 40.817579)"
"HOME DELIVERED MEAL SERVICE CONTRACTS","29G01","JASA HOME DELIVERED MEALS","THE JEWISH ASSOCIATION FOR SERVICES FOR THE AGED","247 West 37th Street","NEW YORK","NY","10018","MANHATTAN","718-337-1989","Y",,,,,,,,,,,,,,,"40.651173","-73.885082","305","42","105801","3336175","3044350001","Starrett City","POINT (-73.885082 40.651173)"
"SENIOR CENTER CONTRACTS","12A01","ARTURO SCHOMBURG NEIGHBORHOOD SENIOR","INSTITUTE FOR THE PUERTO RICAN HISPANIC ELDERLY INC","1315 FRANKLIN AVENUE","BRONX","NY","10456","BRONX","718-842-6880","Y",,,,,,,,,,,,,,,"40.832062","-73.901641","203","16","149","2009713","2029310086","Morrisania-Melrose","POINT (-73.901641 40.832062)"
"SENIOR CENTER CONTRACTS","23E01","LUNA PARK NEIGHBORHOOD SENIOR CENTER","THE JEWISH ASSOCIATION FOR SERVICES FOR THE AGED","2880 WEST 12TH STREET","BROOKLYN","NY","11224","BROOKLYN","718-996-6666","Y",,,,,,,,,,,,,,,"40.577347","-73.979625","313","47","350","3196559","3072660060","West Brighton","POINT (-73.979625 40.577347)"
"SENIOR CENTER CONTRACTS","26301","BORO PARK NEIGHBORHOOD SENIOR CENTER","AGUDATH ISRAEL OF AMERICA COMMUNITY SERVICES INC","5602 11TH AVENUE","BROOKLYN","NY","11219","BROOKLYN","718-854-7430","Y",,,,,,,,,,,,,,,"40.63368","-74.000703","312","44","216","3139989","3056880036","Borough Park","POINT (-74.000703 40.63368)"
"CASE MANAGEMENT SERVICES CONTRACTS","3M801","NEW YORK FOUNDATION CASE MANAGEMENT MN-1","NEW YORK FOUNDATION FOR SENIOR CITIZENS INC","11 PARK PLACE","NEW YORK","NY","10007","MANHATTAN","212-962-7817","Y",,,,,,,,,,,,,,,"40.712828","-74.008296","101","01","21","1001399","1001240004","SoHo-TriBeCa-Civic Center-Little Italy","POINT (-74.008296 40.712828)"
"SENIOR CENTER CONTRACTS","57401","JCC of Staten Island Innovative Senior Center","JEWISH COMMUNITY CENTER OF STATEN ISLAND INC","1466 MANOR ROAD","STATEN ISLAND","NY","10314","STATEN ISLAND","718-475-5200","Y",,,,,,,,,,,,,,,"40.594454","-74.125677","502","50","181","5141743","5009550100","Todt Hill-Emerson Hill-Heartland Village-Lighthouse Hill","POINT (-74.125677 40.594454)"
"CASE MANAGEMENT SERVICES CONTRACTS","4MF01","SOUTHWEST QUEENS CASE MANAGEMENT-QN 5","CATHOLIC CHARITIES NEIGHBORHOOD SERVICES INC","183-16 JAMAICA AVENUE","JAMAICA","NY","11423","QUEENS","718-217-0126","Y",,,,,,,,,,,,,,,"40.708932","-73.776983","412","27","444","4438800","4103520058","Jamaica","POINT (-73.776983 40.708932)"
"SENIOR CENTER CONTRACTS","54101","WEST BRIGHTON NEIGHBORHOOD SENIOR CENT","CATHOLIC CHARITIES OF STATEN ISLAND INC.","230 BROADWAY","STATEN ISLAND","NY","10310","STATEN ISLAND","718-727-9763","Y",,,,,,,,,,,,,,,"40.636486","-74.117523","501","49","13301","5095818","5001960001","West New Brighton-New Brighton-St. George","POINT (-74.117523 40.636486)"
"CASE MANAGEMENT SERVICES CONTRACTS","1MA01","RAIN CASE MANAGEMENT BX-2","REGIONAL AID FOR INTERIM NEEDS INC","3377A WHITE PLAINS ROAD","BRONX","NY","10467","BRONX","347-346-9676","Y",,,,,,,,,,,,,,,"40.874872","-73.86706","212","12","374","2087299","2046240037","Williamsbridge-Olinville","POINT (-73.86706 40.874872)"
"SENIOR CENTER CONTRACTS","41G01","CCNS HILLCREST NEIGHBORHOOD SENIOR CTR","CATHOLIC CHARITIES NEIGHBORHOOD SERVICES INC","168-01 HILLSIDE AVENUE","JAMAICA","NY","11432","QUEENS","718-287-7171","Y",,,,,,,,,,,,,,,"40.710071","-73.79461","408","24","454","4210504","4098400001","Briarwood-Jamaica Hills","POINT (-73.79461 40.710071)"
"SENIOR CENTER CONTRACTS","41301","ALLEN COMMUNITY NEIGHBORHOOD SENIOR CT","ALLEN AME CHURCH dba ALLEN COMMUNITY SENIOR CITIZENS CENTER","166-01 LINDEN BOULEVARD","JAMAICA","NY","11433","QUEENS","718-658-0980","Y",,,,,,,,,,,,,,,"40.690054","-73.783147","412","27","266","4435290","4123220001","South Jamaica","POINT (-73.783147 40.690054)"
"CASE MANAGEMENT SERVICES CONTRACTS","2MP01","RIDGEWOOD BUSHWICK CASE MANAGEMENT BK-01","RISEBORO COMMUNITY PARTNERSHIP INC","1175 Gates Avenue","BROOKLYN","NY","11221","BROOKLYN","929-251-6626","Y",,,,,,,,,,,,,,,"40.691707","-73.919907","304","34","399","3076253","3033310025","Bushwick South","POINT (-73.919907 40.691707)"
"SENIOR CENTER CONTRACTS","50201","ARROCHAR NEIGHBORHOOD SENIOR CENTER","STATEN ISLAND COMMUNITY SERVICES FRIENDSHIP CLUBS INC","85 JEROME AVENUE","STATEN ISLAND","NY","10305","STATEN ISLAND","718-720-6110","Y",,,,,,,,,,,,,,,"40.59635","-74.076172","502","50","64","5133958","5032700025","Grasmere-Arrochar-Ft. Wadsworth","POINT (-74.076172 40.59635)"
"SENIOR CENTER CONTRACTS","28D01","AMICO Eileen Dugan Neighborhood Senior Center","AMERICAN ITALIAN COALITION OF ORGANIZATIONS INC\AMICO","378 COURT STREET","BROOKLYN","NY","11231","BROOKLYN","718-596-1956","Y",,,,,,,,,,,,,,,"40.681371","-73.996391","306","39","65","3004823","3003510031","Carroll Gardens-Columbia Street-Red Hook","POINT (-73.996391 40.681371)"
"SENIOR CENTER CONTRACTS","44D01","ROCHDALE NEIGHBORHOOD SENIOR CENTER","ROCHDALE VILLAGE SOCIAL SERVICES INC","169-65 137TH AVENUE","JAMAICA","NY","11434","QUEENS","718-525-2800","Y",,,,,,,,,,,,,,,"40.672622","-73.770641","412","28","33402","4436348","4124950002","Springfield Gardens North","POINT (-73.770641 40.672622)"
"SENIOR CENTER CONTRACTS","30V01","GODDARD RIVERSIDE NEIGHBORHOOD SC","GODDARD-RIVERSIDE COMMUNITY CENTER","593 COLUMBUS AVENUE","NEW YORK","NY","10024","MANHATTAN","212-873-6600","Y",,,,,,,,,,,,,,,"40.788212","-73.970904","107","06","173","1079511","1012020001","Upper West Side","POINT (-73.970904 40.788212)"
"SENIOR CENTER CONTRACTS","41Q01","WOODSIDE NEIGHBORHOOD SENIOR CENTER","SAMARITAN DAYTOP VILLAGE INC","50-37 NEWTOWN ROAD","FLUSHING","NY","11377","QUEENS","718-932-6916","Y",,,,,,,,,,,,,,,"40.753724","-73.911047","401","26","163","4430993","4007360002","Astoria","POINT (-73.911047 40.753724)"
"SENIOR CENTER CONTRACTS","12H01","RAIN EASTCHESTER NEIGHBORHOOD SENIOR C","REGIONAL AID FOR INTERIM NEEDS INC","1246 BURKE AVENUE","BRONX","NY","10469","BRONX","718-882-8513","Y",,,,,,,,,,,,,,,"40.871144","-73.851046","211","12","348","2093500","2045810001","Allerton-Pelham Gardens","POINT (-73.851046 40.871144)"
"SENIOR CENTER CONTRACTS","41H01","RAICES CORONA NEIGHBORHOOD SENIOR CENT","SPANISH SPEAKING ELDERLY COUNCIL RAICES INC.","107-24 CORONA AVENUE","FLUSHING","NY","11368","QUEENS","718-458-7259","Y",,,,,,,,,,,,,,,"40.743551","-73.855705","404","21","439","4431694","4019420053","Corona","POINT (-73.855705 40.743551)"
"SENIOR CENTER CONTRACTS","23C01","CCNS THE BAY NEIGHBORHOOD SENIOR CENTER","CATHOLIC CHARITIES NEIGHBORHOOD SERVICES INC","3643 NOSTRAND AVENUE","BROOKLYN","NY","11229","BROOKLYN","718-648-2053","Y",,,,,,,,,,,,,,,"40.594966","-73.940825","315","46","572","3344554","3074051001","Sheepshead Bay-Gerritsen Beach-Manhattan Beach","POINT (-73.940825 40.594966)"
"CAREGIVER SERVICES CONTRACTS","5K101","JCC OF SI CAREGIVER SERVICES","JEWISH COMMUNITY CENTER OF STATEN ISLAND INC","1297 ARTHUR KILL ROAD","STATEN ISLAND","NY","10312","STATEN ISLAND","718-475-5287","Y",,,,,,,,,,,,,,,,,"503","51",,"5077603","5059000105",,
"SENIOR CENTER CONTRACTS","31J02","WASHINGTON LEXINGTON SENIOR CENTER","UNION SETTLEMENT ASSOCIATION","1775 THIRD AVENUE","NEW YORK","NY","10029","MANHATTAN","212-828-6104","Y",,,,,,,,,,,,,,,"40.786574","-73.948303","111","08","15602","1079203","1016470001","East Harlem South","POINT (-73.948303 40.786574)"
"SENIOR CENTER CONTRACTS","50R02","CASC ASSISTANCE","COMMUNITY AGENCY FOR SENIOR CITIZENS INC","56 BAY STREET","STATEN ISLAND","NY","10301","STATEN ISLAND","718-273-6808","Y",,,,,,,,,,,,,,,"40.640624","-74.075704","501","49","3","5000035","5000050103","West New Brighton-New Brighton-St. George","POINT (-74.075704 40.640624)"
"HOME DELIVERED MEAL SERVICE CONTRACTS","15X01","MID BRONX HOME DELIVERED MEALS","MID BRONX SENIOR CITIZENS COUNCIL INC","900 GRAND CONCOURSE","BRONX","NY","10451","BRONX","718-992-2057","Y",,,,,,,,,,,,,,,"40.827412","-73.922277","204","16","18301","2002802","2024600001","East Concourse-Concourse Village","POINT (-73.922277 40.827412)"
"SENIOR CENTERS HOME DELIVERED MEAL SERVICE CONTRACTS","21H03","Brownsville Social Club","WAYSIDE OUT-REACH DEVELOPMENT INC","528 MOTHER GASTON BLVD","BROOKLYN","NY","11212","BROOKLYN","718-345-5665","Y",,,,,,,,,,,,,,,"40.859254","-73.8551","211","13","326","2050222","2043650017","Allerton-Pelham Gardens","POINT (-73.8551 40.859254)"
"SENIOR CENTER CONTRACTS","35D01","Carter Burden Innovative Senior Center","CARTER BURDEN NETWORK INC.","312 EAST 109 STREET","NEW YORK","NY","10029","MANHATTAN","212-423-9665","Y",,,,,,,,,,,,,,,,,"111","08",,"1074278","1016800045",,
"CAREGIVER SERVICES CONTRACTS","6K501","VISIONS CAREGIVER PROGRAM","VISIONS/SERVICES FOR THE BLIND AND VISUALLY IMPAIRED","500 GREENWICH STREET","NEW YORK","NY","10013","MANHATTAN","212-625-1616","Y",,,,,,,,,,,,,,,,,"102","03",,"1076084","1005957501",,
"SENIOR CENTER CONTRACTS","41701","MIDDLE VILLAGE NEIGHBORHOOD SENIOR CT","RABBI ISRAEL MEYER HACOHEN RABBINICAL SEMINARY OF AMERICA","69-10 75th STREET","FLUSHING","NY","11379","QUEENS","718-894-3441","Y",,,,,,,,,,,,,,,"40.709285","-73.876664","405","30","619","4091868","4037860020","Middle Village","POINT (-73.876664 40.709285)"
"SENIOR CENTER CONTRACTS","20Y01","BCA NEIGHBORHOOD SENIOR CENTER","BROOKLYN CHINESE-AMERICAN ASSOCIATION INC","545 60TH STREET","BROOKLYN","NY","11220","BROOKLYN","718-567-9311","Y",,,,,,,,,,,,,,,"40.638869","-74.015137","307","38","102","3337343","3008640001","Sunset Park East","POINT (-74.015137 40.638869)"
"SENIOR CENTER CONTRACTS","50R01","CASSIDY COLES NEIGHBORHOOD SENIOR CENT","COMMUNITY AGENCY FOR SENIOR CITIZENS INC","125 CASSIDY PLACE","STATEN ISLAND","NY","10301","STATEN ISLAND","718-273-6808","Y",,,,,,,,,,,,,,,"40.641888","-74.096489","501","49","81","5001762","5000710011","West New Brighton-New Brighton-St. George","POINT (-74.096489 40.641888)"
"SENIOR CENTER CONTRACTS","11T01","BETANCES NEIGHBORHOOD SENIOR CENTER","INSTITUTE FOR THE PUERTO RICAN HISPANIC ELDERLY INC","607 CONCORD AVE","BRONX","NY","10455","BRONX","718-292-4922","Y",,,,,,,,,,,,,,,"40.814544","-73.907628","201","08","73","2114666","2026420022","Melrose South-Mott Haven North","POINT (-73.907628 40.814544)"
"SENIOR CENTER CONTRACTS","23H01","HAZEL BROOKS NEIGHBORHOOD SENIOR CENTER","FORT GREENE COUNCIL","961 OCEAN AVENUE","BROOKLYN","NY","11226","BROOKLYN","347-435-3287","Y",,,,,,,,,,,,,,,"40.638891","-73.958877","314","40","51601","3120264","3052060062","Flatbush","POINT (-73.958877 40.638891)"
"CASE MANAGEMENT SERVICES CONTRACTS","2MF01","SPECIAL SVCS. FOR SR. CASE MANG. BK-3","RECREATION ROOMS AND SETTLEMENT INC","1304 EAST 57TH STREET","BROOKLYN","NY","11234","BROOKLYN","718-257-1600","Y",,,,,,,,,,,,,,,,,"318","46",,"3345504","3078810033",,
"SENIOR CENTER CONTRACTS","30Y01","LAGUARDIA NEIGHBORHOOD SENIOR CENTER","NEW YORK FOUNDATION FOR SENIOR CITIZENS INC","280 CHERRY STREET","NEW YORK","NY","10002","MANHATTAN","212-732-3656","Y",,,,,,,,,,,,,,,"40.711376","-73.988461","103","01","6","1003211","1002560014","Lower East Side","POINT (-73.988461 40.711376)"
"SENIOR CENTER CONTRACTS","32101","INDEPENDENCE PLAZA NEIGHBORHOOD SR CTR","GREENWICH HOUSE INC.","310 GREENWICH STREET","NEW YORK","NY","10013","MANHATTAN","212-267-0499","Y",,,,,,,,,,,,,,,"40.717604","-74.010667","101","01","39","1083243","1001420025","SoHo-TriBeCa-Civic Center-Little Italy","POINT (-74.010667 40.717604)"
"SENIOR CENTER CONTRACTS","50A01","TODT HILL NEIGHBORHOOD SENIOR CENTER","STATEN ISLAND COMMUNITY SERVICES FRIENDSHIP CLUBS INC","184 SCHMIDTS LANE","STATEN ISLAND","NY","10314","STATEN ISLAND","718-720-6110","Y",,,,,,,,,,,,,,,"40.609058","-74.119053","502","49","173","5108960","5007060001","New Springville-Bloomfield-Travis","POINT (-74.119053 40.609058)"
"SENIOR CENTER CONTRACTS","45T01","Selfhelp Innovative Senior Center","SELFHELP COMMUNITY SERVICES INC","45-25 KISSENA BOULEVARD","FLUSHING","NY","11355","QUEENS","718-886-5777","Y",,,,,,,,,,,,,,,"40.751765","-73.820331","407","20","1205","4117390","4052000052","East Flushing","POINT (-73.820331 40.751765)"
"CASE MANAGEMENT SERVICES CONTRACTS","2MK01","JASA CASE MANAGEMENT BK-7","THE JEWISH ASSOCIATION FOR SERVICES FOR THE AGED","161 CORBIN PLACE","BROOKLYN","NY","11235","BROOKLYN","718-934-4295","Y",,,,,,,,,,,,,,,"40.578026","-73.954127","315","48","61004","3245719","3087190073","Brighton Beach","POINT (-73.954127 40.578026)"
"SENIOR CENTER CONTRACTS","32Z01","OUR LADY OF POMPEII NSC","GREENWICH HOUSE INC.","25 CARMINE STREET","NEW YORK","NY","10014","MANHATTAN","212-989-3620","Y",,,,,,,,,,,,,,,"40.730178","-74.002955","102","03","67","1009904","1005860020","West Village","POINT (-74.002955 40.730178)"
"SENIOR CENTER CONTRACTS","10401","MARBLE HILL NEIGHBORHOOD SENIOR CENTER","CHILD DEVELOPMENT CENTER OF THE MOSHOLU-MONTEFIORE COMMMUNIT","5365 BROADWAY","BRONX","NY","10463","BRONX","718-562-8551","Y",,,,,,,,,,,,,,,"40.876062","-73.907886","208","10","309","1082782","1022150623","Marble Hill-Inwood","POINT (-73.907886 40.876062)"
"SENIOR CENTER CONTRACTS","11N01","PSS PARKSIDE NEIGHBORHOOD SENIOR CENTE","PRESBYTERIAN SENIOR SERVICES","644 ADEE AVENUE","BRONX","NY","10467","BRONX","718-881-7780","Y",,,,,,,,,,,,,,,"40.86967","-73.869106","211","15","336","2101742","2045420100","Bronxdale","POINT (-73.869106 40.86967)"
"SENIOR CENTER CONTRACTS","22N01","HOMECREST BENSONHURST NEIGHBORHOOD SR CT","HOMECREST COMMUNITY SERVICES INC","7907 NEW UTRECHT AVENUE","BROOKLYN","NY","11214","BROOKLYN","718-621-7960","Y",,,,,,,,,,,,,,,"40.612279","-74.000933","311","43","276","3162717","3062720007","Bensonhurst West","POINT (-74.000933 40.612279)"
"SENIOR CENTER CONTRACTS","39901","CORSI HOUSE NEIGHBORHOOD SENIOR CENTER","UNION SETTLEMENT ASSOCIATION","307 East 116th Street","NEW YORK","NY","10029","MANHATTAN","212-828-6756","Y",,,,,,,,,,,,,,,"40.796935","-73.93759","111","08","188","1079357","1016880045","East Harlem North","POINT (-73.93759 40.796935)"
"SENIOR CENTER CONTRACTS","44701","ELMCOR NSC","ELMCOR YOUTH & ADULT ACTIVITIES INC","98-19 ASTORIA BOULEVARD","FLUSHING","NY","11369","QUEENS","718-457-9757","Y",,,,,,,,,,,,,,,"40.762296","-73.871089","403","21","367","4032768","4013720045","East Elmhurst","POINT (-73.871089 40.762296)"
"CASE MANAGEMENT SERVICES CONTRACTS","1M901","NEIGHBORHOOD SHOPP CASE MANAGEMENT BX-1","THE NEIGHBORHOOD SELF-HELP BY OLDER PERSONS PROJECT INC","910 EAST 172ND STREET","BRONX","NY","10460","BRONX","718-542-0006","Y",,,,,,,,,,,,,,,"40.834198","-73.890157","203","17","155","2010507","2029770103","Crotona Park East","POINT (-73.890157 40.834198)"
"SENIOR CENTER CONTRACTS","10A01","MITCHELL NEIGHBORHOOD SENIOR CENTER","EAST SIDE HOUSE INC","188 LINCOLN AVENUE","BRONX","NY","10454","BRONX","718-665-2168","Y",,,,,,,,,,,,,,,"40.809874","-73.927933","201","08","23","2091142","2023110001","Mott Haven-Port Morris","POINT (-73.927933 40.809874)"
"SENIOR CENTER CONTRACTS","43601","CCNS WOODHAVEN NSC","CATHOLIC CHARITIES NEIGHBORHOOD SERVICES INC","89-02 91ST STREET","JAMAICA","NY","11421","QUEENS","718-847-9200","Y",,,,,,,,,,,,,,,"40.690455","-73.852946","409","32","18","4185709","4089720004","Woodhaven","POINT (-73.852946 40.690455)"
"HOME DELIVERED MEAL SERVICE CONTRACTS","29R01","RIDGEWOOD BUSHWICK HOME DELIVERED MEALS","RISEBORO COMMUNITY PARTNERSHIP INC","565 Bushwick Avenue","BROOKLYN","NY","11206","BROOKLYN","718-782-6334","Y",,,,,,,,,,,,,,,"40.70285","-73.918336","304","37","443","3074237","3032590023","Bushwick North","POINT (-73.918336 40.70285)"
"HOME DELIVERED MEAL SERVICE CONTRACTS","36H01","STANLEY ISAACS HOME DELIVERED MEALS","STANLEY M ISAACS NEIGHBORHOOD CENTER INC","415 EAST 93RD STREET","NEW YORK","NY","10128","MANHATTAN","212-360-7620","Y",,,,,,,,,,,,,,,"40.780904","-73.945112","108","05","152","1082367","1015730001","Yorkville","POINT (-73.945112 40.780904)"
"SENIOR CENTER CONTRACTS","40X01","ROCKAWAY BLVD NSC","JAMAICA SERVICE PROGRAM FOR OLDER ADULTS INC","123-10 143rd STREET","JAMAICA","NY","11433","QUEENS","718-657-6752","Y",,,,,,,,,,,,,,,"40.674522","-73.795725","412","28","182","4261337","4120390044","Baisley Park","POINT (-73.795725 40.674522)"
"SENIOR CENTER CONTRACTS","31G01","MORIAH OLDER ADULT LUNCHEON NSC","AGUDATH ISRAEL OF AMERICA COMMUNITY SERVICES INC","90 BENNETT AVENUE","NEW YORK","NY","10033","MANHATTAN","212-923-5715","Y",,,,,,,,,,,,,,,"40.853017","-73.935383","112","10","271","1064436","1021800172","Washington Heights North","POINT (-73.935383 40.853017)"
"SENIOR CENTER CONTRACTS","33702","UJC Lillian Wald Houses Senior Center","UNITED JEWISH COUNCIL OF THE EAST SIDE INC","12 AVENUE D","NEW YORK","NY","10009","MANHATTAN","212-260-2731","Y",,,,,,,,,,,,,,,"40.720462","-73.978369","103","02","20","1078045","1003560001","Lower East Side","POINT (-73.978369 40.720462)"
"SENIOR CENTER CONTRACTS","40902","FOREST HILLS NEIGHBORHOOD SENIOR CENTER","QUEENS COMMUNITY HOUSE INC.","80-02 KEW GARDENS ROAD","JAMAICA","NY","11415","QUEENS","718-699-1010","Y",,,,,,,,,,,,,,,"40.713686","-73.830505","409","29","773","4312089","4033480037","Kew Gardens","POINT (-73.830505 40.713686)"
"SENIOR CENTER CONTRACTS","20202","Marcus Garvey Social Club","FORT GREENE COUNCIL","1440 E NEW YORK AVENUE","BROOKLYN","NY","11212","BROOKLYN","718-346-7167","Y",,,,,,,,,,,,,,,"40.670654","-73.914575","316","41","902","3080727","3034960013","Brownsville","POINT (-73.914575 40.670654)"
"SENIOR CENTER CONTRACTS","21301","CCNS THE LODGE NEIGHBORHOOD SR CTR","CATHOLIC CHARITIES NEIGHBORHOOD SERVICES INC","7711 18TH AVENUE","BROOKLYN","NY","11214","BROOKLYN","718-621-1081","Y",,,,,,,,,,,,,,,"40.612087","-73.997288","311","47","274","3161485","3062490006","Bensonhurst West","POINT (-73.997288 40.612087)"
"SENIOR CENTER CONTRACTS","11P01","EAST CONCOURSE NSC","BRONXWORKS INC","236 EAST TREMONT AVENUE","BRONX","NY","10457","BRONX","718-731-6300","Y",,,,,,,,,,,,,,,"40.848936","-73.904562","205","15","23302","2007599","2028040021","Mount Hope","POINT (-73.904562 40.848936)"
"CASE MANAGEMENT SERVICES CONTRACTS","2MF01","SPECIAL SVCS. FOR SR. CASE MANG. BK-3","RECREATION ROOMS AND SETTLEMENT INC","1304 EAST 57TH STREET","BROOKLYN","NY","11234","BROOKLYN","718-257-1600","Y",,,,,,,,,,,,,,,"40.621348","-73.920355","318","46","690","3345504","3078810033","Flatlands","POINT (-73.920355 40.621348)"
"SENIOR CENTER CONTRACTS","35001","BRC NEIGHBORHOOD SENIOR CENTER","BOWERY RESIDENTS COMMITTEE INC","30 DELANCEY STREET","NEW YORK","NY","10002","MANHATTAN","212-533-2020","Y",,,,,,,,,,,,,,,"40.719792","-73.992269","103","01","18","1079081","1004200001","Chinatown","POINT (-73.992269 40.719792)"
"SENIOR CENTER CONTRACTS","30501","ARC XVI FT WASHINGTON NSC","ARC XVI FORT WASHINGTON INC","4111 BROADWAY","NEW YORK","NY","10033","MANHATTAN","212-781-5700","Y",,,,,,,,,,,,,,,"40.845128","-73.938763","112","10","263","1063501","1021420133","Washington Heights South","POINT (-73.938763 40.845128)"
"SENIOR CENTER CONTRACTS","21J02","Langston Hughes Social Club","WAYSIDE OUT-REACH DEVELOPMENT INC","301 SUTTER AVENUE","BROOKLYN","NY","11212","BROOKLYN","718-498-2990","Y",,,,,,,,,,,,,,,"40.667312","-73.909072","316","41","906","3348344","3035260021","Brownsville","POINT (-73.909072 40.667312)"
"SENIOR CENTER CONTRACTS","45701","NEWTOWN ITALIAN NSC","ITALIAN SENIOR CITIZENS CENTER INC.","83-20 QUEENS BOULEVARD","FLUSHING","NY","11373","QUEENS","718-335-7272","Y",,,,,,,,,,,,,,,"40.737205","-73.879686","404","25","475","4057291","4024760017","Elmhurst","POINT (-73.879686 40.737205)"
"SENIOR CENTER CONTRACTS","23G01","ALBANY NEIGHBORHOOD SENIOR CENTER","FORT GREENE COUNCIL","196 ALBANY AVENUE","BROOKLYN","NY","11213","BROOKLYN","718-773-2600","Y",,,,,,,,,,,,,,,"40.67388","-73.938974","308","36","343","3031082","3012300044","Crown Heights North","POINT (-73.938974 40.67388)"
"SENIOR CENTER CONTRACTS","47601","CPC NAN SHAN NSC","CHINESE AMERICAN PLANNING COUNCIL INC","133-14 41st Avenue","FLUSHING","NY","11355","QUEENS","718-358-3030","Y",,,,,,,,,,,,,,,"40.757805","-73.830321","407","20","849","4114228","4050410005","Flushing","POINT (-73.830321 40.757805)"
"SENIOR CENTER CONTRACTS","28702","Cypress Hills Social Club","CYPRESS HILLS-FULTON STREET SENIOR CITIZENS CENTER INC","3208 FULTON STREET","BROOKLYN","NY","11208","BROOKLYN","718-235-0064","Y",,,,,,,,,,,,,,,"40.682337","-73.876771","305","37","1178","3092631","3041400013","Cypress Hills-City Line","POINT (-73.876771 40.682337)"
"SENIOR CENTER CONTRACTS","12801","SISTER ANNUNCIATA BETHEL NSC","BEDFORD PARK MULTI-SERVICE CENTER FOR SENIOR CITIZENS INC","243 EAST 204TH STREET","BRONX","NY","10458","BRONX","718-365-3725","Y",,,,,,,,,,,,,,,"40.874205","-73.884457","207","11","413","2017363","2033110146","Bedford Park-Fordham North","POINT (-73.884457 40.874205)"
"SENIOR CENTER CONTRACTS","12H02","TOLENTINE ZEISER COMMUNITY LIFE CENTER","REGIONAL AID FOR INTERIM NEEDS INC","2345 UNIVERSITY AVENUE","BRONX","NY","10468","BRONX","718-933-3305","Y",,,,,,,,,,,,,,,"40.861503","-73.906077","207","14","255","2118380","2032180035","Kingsbridge Heights","POINT (-73.906077 40.861503)"
"SENIOR CENTER CONTRACTS","18202","Patterson Houses Senior Center","EAST SIDE HOUSE INC","308 EAST 145TH STREET","BRONX","NY","10451","BRONX","718-993-5146","Y",,,,,,,,,,,,,,,"40.815197","-73.922179","201","08","51","2091115","2023240001","Mott Haven-Port Morris","POINT (-73.922179 40.815197)"
"SENIOR CENTER CONTRACTS","21U01","STUYVESANT HEIGHTS NEIGHBORHOOD SC","FORT GREENE COUNCIL","562-574 MADISON STREET","BROOKLYN","NY","11221","BROOKLYN","718-230-0824","Y",,,,,,,,,,,,,,,"40.686471","-73.935295","303","36","293","3045125","3016450001","Stuyvesant Heights","POINT (-73.935295 40.686471)"
"SENIOR CENTER CONTRACTS","10S02","MORRISANIA AIR RIGHTS SOCIAL CLUB","PRESBYTERIAN SENIOR SERVICES","3135 PARK AVENUE","BRONX","NY","10451","BRONX","718-992-2528","Y",,,,,,,,,,,,,,,"40.82415","-73.917164","204","16","173","2100990","2024209078","East Concourse-Concourse Village","POINT (-73.917164 40.82415)"
"SENIOR CENTER CONTRACTS","23B01","CCNS GLENWOOD NEIGHBORHOOD SENIOR CENTER","CATHOLIC CHARITIES NEIGHBORHOOD SERVICES INC","5701 AVENUE H","BROOKLYN","NY","11234","BROOKLYN","718-241-7711","Y",,,,,,,,,,,,,,,"40.633288","-73.921555","318","45","94402","3331006","3079780001","Flatlands","POINT (-73.921555 40.633288)"
"SENIOR CENTER CONTRACTS","31K01","WEINBERG CENTER FOR BALANCED LIVING","THE EDUCATIONAL ALLIANCE INC","197 EAST BROADWAY","NEW YORK","NY","10002","MANHATTAN","646-395-4270","Y",,,,,,,,,,,,,,,"40.714219","-73.988219","103","01","6","1003704","1002850029","Lower East Side","POINT (-73.988219 40.714219)"
"HOME DELIVERED MEAL SERVICE CONTRACTS","27Y01","JCCGCI HOME DELIVERED MEALS","JEWISH COMMUNITY COUNCIL OF GREATER CONEY ISLAND INC","3001 WEST 37TH  STREET","BROOKLYN","NY","11224","BROOKLYN","718-627-2500","Y",,,,,,,,,,,,,,,"40.603084","-73.965083","315","47","418","3178703","3066820045","Homecrest","POINT (-73.965083 40.603084)"
"SENIOR CENTER CONTRACTS","22Y01","SAINT GABRIELS NEIGHBORHOOD SENIOR CTR","ST GABRIELS EPISCOPAL CHURCH","331 HAWTHORNE STREET","BROOKLYN","NY","11225","BROOKLYN","718-773-4049","Y",,,,,,,,,,,,,,,"40.657919","-73.949217","309","40","804","3000000","3048140071","Prospect Lefferts Gardens-Wingate","POINT (-73.949217 40.657919)"
"SENIOR CENTER CONTRACTS","35K01","Lenox Hill Innovative Senior Center","LENOX HILL NEIGHBORHOOD HOUSE INC","343 EAST 70TH STREET","NEW YORK","NY","10021","MANHATTAN","212-218-0316","Y",,,,,,,,,,,,,,,"40.766686","-73.95739","108","05","126","1044841","1014450023","Lenox Hill-Roosevelt Island","POINT (-73.95739 40.766686)"
"SENIOR CENTER CONTRACTS","27802","SWINGING 60S SENIOR CENTER","SOUTHSIDE UNITED HOUSING DEVELOPMENT FUND CORP","211 Ainslie Street","BROOKLYN","NY","11211","BROOKLYN","718-963-3793","Y",,,,,,,,,,,,,,,"40.712972","-73.945453","301","34","495","3069039","3027700001","East Williamsburg","POINT (-73.945453 40.712972)"
"SENIOR CENTER CONTRACTS","27W01","SHORE HILL NEIGHBORHOOD SENIOR CENTER","SUNSET PARK HEALTH COUNCIL INC d/b/a FAMILY HEALTH CENTERS A","9000 SHORE ROAD","BROOKLYN","NY","11209","BROOKLYN","718-680-7689","Y",,,,,,,,,,,,,,,"40.622093","-74.040244","310","43","5201","3322532","3060780010","Bay Ridge","POINT (-74.040244 40.622093)"
"CAREGIVER SERVICES CONTRACTS","6K101","HMH CAREGIVER SERVICES CITYWIDE","HAMILTON MADISON HOUSE INC","100 GOLD STREET","NEW YORK","NY","10038","MANHATTAN","212-788-5580","Y",,,,,,,,,,,,,,,,,"101","01",,"1001289","1000940025",,
"HOME DELIVERED MEAL SERVICE CONTRACTS","46S01","FLORENCE E. SMITH HOME DELIVERED MEALS","CORONA CONGREGATIONAL CHURCH","102-18 34TH AVENUE","FLUSHING","NY","11368","QUEENS","718-899-0553","Y",,,,,,,,,,,,,,,"40.755742","-73.865988","403","21","379","4042602","4017170033","North Corona","POINT (-73.865988 40.755742)"
