"provider","host_organization","building","street","city","borough","zip_code","site_location_address","days_open","hours","language_s","telephone","community_board","council_district","bbl","nta","x_coordinates","y_coordinates","latitude","longitude","census_tract","bin","location"
"Neighborhood Trust Financial Partners","Neighborhood Trust Financial Partners","530","West 166th Street","Manhattan","Manhattan","10032","530 West 166th Street, 4th Floor","Monday - Saturday","M, Tues, Th & F 9am-6pm, W 11am-8pm, Sat 10am-2pm","English and Spanish","311","10","112","1021240001","MN36","1001035","245073","40.839328031382756","-73.93933892202685","251","1062988","(40.839328031383, -73.939338922027)"
"Bedford Stuyvesant Restoration Corporation","Brooklyn Cooperative Federal Credit Union","834","Dekalb Avenue","Brooklyn","Brooklyn","11237","834 Dekalb Avenue","Tuesday, Friday & Saturday","Tues 9am-4pm, Fri 9am-4pm, Sat 9am-2pm","English","311","36","303","3017810040","BK75","1000011","191508","40.692307919526726","-73.94316526337892","261","3413813","(40.692307919527, -73.943165263379)"
"Neighborhood Trust Financial Partners","Northern Manhattan Improvement Corporation","45","Wadsworth Avenue","Manhattan","Manhattan","10033","45 Wadsworth Avenue","Monday-Friday","M, W-F 9am-6pm, Tuesday 11am-8pm","English and Spanish","311","10","112","1021440003","MN36","1001508","247572","40.846186142125525","-73.93762306696817","263","1089928","(40.846186142126, -73.937623066968)"
"The Financial Clinic","Make the Road New York","92-10","Roosevelt Avenue","Queens","Queens","11372","92-10 Roosevelt Avenue","Monday, Wednesday, Friday","9am-6pm","English and Spanish","311","21","404","4015500020","QN29","1019027","212045","40.748622680031175","-73.87448683475661","469","4038783","(40.748622680031, -73.874486834757)"
"Neighborhood Trust Financial Partners","Manhattan Legal Services","1","West 125th Street","Manhattan","Manhattan","10027","1 West 125th Street","Monday - Thursday","9am-6pm","English and Spanish","311","9","110","1017230033","MN11","1000170","233120","40.8065220414661","-73.94249339477317","200","1053504","(40.806522041466, -73.942493394773)"
"Bedford Stuyvesant Restoration Corporation","Bedford Stuyvesant Restoration Corporation","1368","Fulton Street","Brooklyn","Brooklyn","11216","1368 Fulton Street","Monday-Friday","M-W & F 9am-6pm, Th 9am -8pm","English, Mandarin, and Yoruba","311","36","303","3018620014","BK61","999306","187087","40.680174516304774","-73.9457173974154","247","3053786","(40.680174516305, -73.945717397415)"
"Neighborhood Trust Financial Partners","University Settlement - Ingersoll Center","177","Myrtle Avenue","Brooklyn","Brooklyn","11201","177 Myrtle Avenue","Wednesday - Friday","Wed & Thurs 9am - 6pm, Friday 9am - 12 pm","English and Spanish","311","35","302","3020500001","BK38","989157","191979","40.69361337930781","-73.9823048350059","15","3257034","(40.693613379308, -73.982304835006)"
"Neighborhood Trust Financial Partners","Lower East Side People's Federal Credit Union","237","East 104th Street","Manhattan","Manhattan","10027","237 East 104th Street","Monday, Tuesday","Mon 9am - 4 pm, Tues 9am - 6pm","English and Spanish","311","8","111","1016540011","MN33","999683","226986","40.789686748900095","-73.94426664488815","170","1080671","(40.7896867489, -73.944266644888)"
"Neighborhood Trust Financial Partners","Midtown Community Court","314","West 54th Street","Manhattan","Manhattan","10019","314 West 54th Street, 6th Floor","Tuesdays and Wednesdays","9 am -6 pm","English and Spanish","311","3","104","1010440022","MN15","988406","218017","40.765081705358476","-73.98499693915308","133","1025397","(40.765081705358, -73.984996939153)"
"Neighborhood Trust Financial Partners","CAMBA","885","Flatbush Ave","Brooklyn","Brooklyn","11226","885 Flatbush Ave, 2nd Floor","Monday-Thursday","9am-6pm","English and Spanish","311","40","314","3051030028","BK95","995722","176175","40.65022887206683","-73.95865764521642","794","3117223","(40.650228872067, -73.958657645216)"
"The Financial Clinic","Catholic Charities Homebase (Queens)","161-10","Jamaica Avenue","Jamaica","Queens","11432","161-10 Jamaica Avenue, 5thÂ Floor","Monday-Wednesday, Friday","9am-5pm","English and Spanish","311","27","412","4101010015","QN61","1040143","195839","40.70403301399336","-73.79841220477124","44601","4440641","(40.704033013993, -73.798412204771)"
"The Financial Clinic","Dept. of Consumer Affairs Licensing Center","42","Broadway","Manhattan","Manhattan","10004","42 Broadway, 1st Floor","Monday and Thursday","9am-5pm","English","311","1","101","1000220020","MN25","980671","196590","40.706270133456805","-74.01290870587448","9","1000812","(40.706270133457, -74.012908705874)"
"Phipps Neighborhoods","Phipps Neighborhoods Opportunity Center at West Farms","1030","East 178th Street","Bronx","Bronx","10460","1030 East 178th Street","Monday, Tuesday, Wednesday, and Friday","9am-5pm","English and Spanish","311","15","206","2031300100","BX17","1017491","245755","40.84115331040014","-73.87986352757528","361","2013245","(40.8411533104, -73.879863527575)"
"Neighborhood Trust Financial Partners","Neighborhood Housing Services of Northern Queens","60-20","Woodside Avenue","Queens","Queens","11377","60-20 Woodside Avenue, 2nd FloorÂ ","Monday and Wednesday","9am-6pm","English and Spanish","311","26","402","4013350036","QN63","1010890","210697","40.74495101809574","-73.90385927554588","249","4031424","(40.744951018096, -73.903859275546)"
"Phipps Neighborhoods","Catholic Charities Homebase (Bronx)","2155","Blackrock Avenue","Bronx","Bronx","10472","2155 Blackrock Avenue","Wednesday","9am-5pm","English and Spanish","311","18","209","2038080038","BX59","1025266","241291","40.82886824726105","-73.8517912044293","78","2119153","(40.828868247261, -73.851791204429)"
"Bedford Stuyvesant Restoration Corporation","Brooklyn Central Library","10","Grand Army Plaza","Brooklyn","Brooklyn","11238","10 Grand Army Plaza","Tuesday, Thursday and Saturday","Tues & Thurs 10am-4pm, Saturday 10am-4pm","English and Mandarin","311","35","355","3011830002","BK99","992830","184409","40.67283265706228","-73.96906924545588","177","3029665","(40.672832657062, -73.969069245456)"
"Bedford Stuyvesant Restoration Corporation","The Gregory Jackson Center for Brownsville","519","Rockaway Avenue","Brooklyn","Brooklyn","11212","519 Rockaway Avenue","Tuesday and Thursday","Tues 9am-4pm, Th 10-6pm","English and Yoruba","311","41","316","3035260002","BK81","1009174","182461","40.66745490782121","-73.91015663288158","906","3000000","(40.667454907821, -73.910156632882)"
"Urban Upbound","Urban Upbound","10-38","41st Avenue","Queens","Queens","11101","10-38 41st Avenue","Monday-Friday","M-W & F 9am-6pm, Th 11am -7pm","English and Spanish","311","26","401","4004650100","QN68","999463","214475","40.75534771300752","-73.94508945487739","25","4595567","(40.755347713008, -73.945089454877)"
"Phipps Neighborhoods","Phipps Neighborhoods Opportunity Center at Melrose","3125","Third Avenue","Bronx","Bronx","10451","3125 Third Avenue","Monday-Friday","Mon, Thurs, Fri 9am - 6pm; Tues & Wed 9am - 5pm","English and Spanish","311","17","201","2023800051","BX34","1008640","238751","40.82195823377828","-73.91187741258507","69","2000000","(40.821958233778, -73.911877412585)"
"Neighborhood Trust Financial Partners","Neighborhood Housing Services of New York City (Midtown)","307","West 36th Street","Manhattan","Manhattan","10018","307 West 36th Street, 12th Floor (at 8th Ave)","Monday - Friday","Mon - Thurs 9am-6pm, Fri 9-1","English and Spanish","311","3","104","1007600032","MN13","986170","213876","40.75371648913745","-73.99307002838846","111","1013596","(40.753716489137, -73.993070028388)"
"Neighborhood Trust Financial Partners","Lower East Side People's Federal Credit Union","37","Avenue B","Manhattan","Manhattan","10009","37 Avenue B","Thursday, Friday","9am-6pm","English and Spanish","311","2","103","1003860001","MN28","988993","202598","40.72276011056438","-73.98288875626703","2601","1004610","(40.722760110564, -73.982888756267)"
"Neighborhood Trust Financial Partners","University Neighborhood Housing Program","2715","Bainbridge Ave","Bronx","Bronx","10458","2715 Bainbridge Avenue","Monday, Tuesday, and Wednesday","9am-6pm","English and Spanish","311","15","207","2032940037","BX05","1014446","254859","40.86615199840451","-73.89082745927985","40501","2120805","(40.866151998405, -73.89082745928)"
"Neighborhood Trust Financial Partners","New York City Financial Empowerment Center at LES People’s North Shore Branch","2","Saint Pauls Ave","Staten Island","Staten Island","10301","2 Saint Pauls Ave","Monday and Tuesday","9am-4pm","English and Spanish","311","501","49","5005690053","SI37","962605","171617","40.637699126694315","-74.07798878403433","17","5014530","(40.637699126694, -74.077988784034)"
