"bbl","required_to_report_automated","borocode","block","lot","number_of_buildings","tax_class","building_class","street_number2","street_name","postcode","borough","dof_square_footage","latitude","longitude","community_board","council_district","census_tract","bin","nta"
"1000020002","No","1","2","2","1","4","Y7","10","SOUTH STREET","10004","Manhattan","158,197","40.701695","-74.011631","101","1","9","1000003","Battery Park City-Lower Manhattan"
"1000047501","No","1","4","7501","1","2","R0","1","WATER STREET","10038","Manhattan","2,542,563","40.702444","-74.012742","101","1","9","1000005","Battery Park City-Lower Manhattan"
"1000050010","No","1","5","10","1","4","O4","115","BROAD STREET","10004","Manhattan","1,016,406","40.702486","-74.011357","101","1","9","1000007","Battery Park City-Lower Manhattan"
"1000057501","No","1","5","7501","1","2","R0","125","BROAD STREET","10004","Manhattan","1,354,691","40.702112","-74.011249","101","1","9","1000006","Battery Park City-Lower Manhattan"
"1000080039","Yes","1","8","39","1","4","H3","32","PEARL STREET","10004","Manhattan","46,724","40.703235","-74.012421","101","1","9","1078968","Battery Park City-Lower Manhattan"
"1000080051","Yes","1","8","51","1","4","H2","6","WATER STREET","10004","Manhattan","102,407","40.702744","-74.012201","101","1","9","1090472","Battery Park City-Lower Manhattan"
"1000087501","Yes","1","8","7501","1","2","R0","2","WATER STREET","0","Manhattan","169,061","40.702458","-74.012753","101","1","9","1087700","Battery Park City-Lower Manhattan"
"1000090001","No","1","9","1","1","4","O4","34","WHITEHALL STREET","10004","Manhattan","692,431","40.703034","-74.012991","101","1","9","1000018","Battery Park City-Lower Manhattan"
"1000090014","No","1","9","14","1","4","O4","17","STATE STREET","10004","Manhattan","544,015","40.702798","-74.014246","101","1","9","1000020","Battery Park City-Lower Manhattan"
"1000090029","No","1","9","29","1","4","O4","24","STATE STREET","10004","Manhattan","896,956","40.703534","-74.014387","101","1","9","1000021","Battery Park City-Lower Manhattan"
"1000100001","No","1","10","1","1","4","K4","100","BROAD STREET","10004","Manhattan","26,013","40.703512","-74.011606","101","1","9","1000022","Battery Park City-Lower Manhattan"
"1000100014","No","1","10","14","1","4","O4","33","WHITEHALL STREET","10004","Manhattan","365,792","40.703312","-74.013038","101","1","9","1000023","Battery Park City-Lower Manhattan"
"1000100016","No","1","10","16","1","4","O4","90","BROAD STREET","10004","Manhattan","336,025","40.703954","-74.011592","101","1","9","1000025","Battery Park City-Lower Manhattan"
"1000100033","Yes","1","10","33","1","4","H2","8","STONE STREET","10004","Manhattan","143,731","40.704025","-74.012638","101","1","9","1087618","Battery Park City-Lower Manhattan"
"1000110014","Yes","1","11","14","1","2","D4","26","BEAVER STREET","10004","Manhattan","51,387","40.704959","-74.011902","101","1","9","1085816","Battery Park City-Lower Manhattan"
"1000110021","No","1","11","21","1","4","O4","80","BROAD STREET","10004","Manhattan","361,710","40.704322","-74.011581","101","1","9","1000038","Battery Park City-Lower Manhattan"
"1000110029","No","1","11","29","1","4","H2","11","STONE STREET","10004","Manhattan","59,410","40.704039","-74.012317","101","1","9","1000041","Battery Park City-Lower Manhattan"
"1000130001","Yes","1","13","1","1","4","O6","1","BROADWAY","10004","Manhattan","180,646","40.704785","-74.014099","101","1","13","1000043","Battery Park City-Lower Manhattan"
"1000130005","No","1","13","5","1","4","O4","11","BROADWAY","10004","Manhattan","434,220","40.705354","-74.013731","101","1","13","1000044","Battery Park City-Lower Manhattan"
"1000130027","No","1","13","27","1","4","O4","25","BROADWAY","10004","Manhattan","809,401","40.705752","-74.013374","101","1","13","1000045","Battery Park City-Lower Manhattan"
"1000150022","Yes","1","15","22","1","2","D8","21","WEST STREET","10004","Manhattan","335,746","40.706451","-74.016119","101","1","13","1000047","Battery Park City-Lower Manhattan"
"1000157501","Yes","1","15","7501","1","2","R0","17","BATTERY PLACE","10004","Manhattan","1,402,831","40.704884","-74.015927","101","1","13","1082634","Battery Park City-Lower Manhattan"
"1000157502","No","1","15","7502","1","2","R0","20","WEST STREET","10004","Manhattan","259,076","40.706358","-74.016151","101","1","13","1087243","Battery Park City-Lower Manhattan"
"1000160010","No","1","16","10","1","4","P7","18","1 PLACE","10280","Manhattan","114,100",,,,,,"1084594",
"1000160015","Yes","1","16","15","1","2","D8","50","BATTERY PLACE","10280","Manhattan","239,165","40.706284","-74.017904","101","1","31704","1085938","Battery Park City-Lower Manhattan"
"1000160020","Yes","1","16","20","1","2","D8","70","BATTERY PLACE","10280","Manhattan","230,765","40.707047","-74.017439","101","1","31704","1085778","Battery Park City-Lower Manhattan"
"1000160100","Yes","1","16","100","6","2","D6","345","SOUTH END AVENUE","10280","Manhattan","127,720","40.710733","-74.016131","101","1","31704","1083378","Battery Park City-Lower Manhattan"
"1000160120","Yes","1","16","120","1","4","O4","200","LIBERTY STREET","10281","Manhattan","1,501,878","40.711425","-74.015442","101","1","31704","1000057","Battery Park City-Lower Manhattan"
"1000160125","Yes","1","16","125","1","4","O4","225","LIBERTY STREET","10280","Manhattan","2,267,925","40.711537","-74.015673","101","1","31703","1000058","Battery Park City-Lower Manhattan"
"1000160140","Yes","1","16","140","1","4","O4","200","VESEY STREET","10281","Manhattan","2,233,692","40.714447","-74.015493","101","1","31703","1000059","Battery Park City-Lower Manhattan"
"1000160150","No","1","16","150","1","4","O4","250","VESEY STREET","10281","Manhattan","2,084,079","40.714529","-74.015677","101","1","31703","1000060","Battery Park City-Lower Manhattan"
"1000160180","Yes","1","16","180","1","2","D8","20","RIVER TERRACE","10007","Manhattan","356,786","40.716942","-74.016298","101","1","31703","1086174","Battery Park City-Lower Manhattan"
"1000160185","Yes","1","16","185","1","2","D8","211","NORTH END AVENUE","10282","Manhattan","283,905","40.71622","-74.015075","101","1","31703","1086547","Battery Park City-Lower Manhattan"
"1000160205","Yes","1","16","205","1","2","D8","455","NORTH END AVENUE","10282","Manhattan","239,185","40.717384","-74.014166","101","1","31703","1085815","Battery Park City-Lower Manhattan"
"1000160210","Yes","1","16","210","1","2","D8","399","CHAMBERS STREET","10282","Manhattan","357,000","40.718073","-74.014855","101","1","31703","1085486","Battery Park City-Lower Manhattan"
"1000160220","Yes","1","16","220","1","4","W1","201","WARREN STREET","10282","Manhattan","105,177","40.716668","-74.013542","101","1","31703","1085568","Battery Park City-Lower Manhattan"
"1000160221","No","1","16","221","1","2","D8","450","NORTH END AVENUE","10282","Manhattan","244,617","40.717356","-74.014163","101","1","31703","1085459","Battery Park City-Lower Manhattan"
"1000160225","No","1","16","225","1","4","O6","1","NORTH END AVENUE","10281","Manhattan","502,000","40.714082","-74.01673","101","1","31703","1085502","Battery Park City-Lower Manhattan"
"1000160260","No","1","16","260","1","4","O4","200","WEST STREET","10282","Manhattan","2,157,862","40.713846","-74.013812","101","1","31703","1087239","Battery Park City-Lower Manhattan"
"1000167501","No","1","16","7501","1","2","R0","377","RECTOR PLACE","0","Manhattan","220,821","40.709506","-74.018002","101","1","31704","1000061","Battery Park City-Lower Manhattan"
"1000167502","Yes","1","16","7502","1","2","R0","320","ALBANY STREET","0","Manhattan","150,855","40.710165","-74.016751","101","1","31704","1000301","Battery Park City-Lower Manhattan"
"1000167503","Yes","1","16","7503","1","2","R0","250","SOUTH END AVENUE","10280","Manhattan","106,052","40.709709","-74.01656","101","1","31704","1065089","Battery Park City-Lower Manhattan"
"1000167504","Yes","1","16","7504","1","2","R0","300","ALBANY STREET","0","Manhattan","91,774","40.710118","-74.016574","101","1","31704","1000436","Battery Park City-Lower Manhattan"
"1000167505","Yes","1","16","7505","1","2","R0","380","RECTOR PLACE","0","Manhattan","257,092","40.709311","-74.017764","101","1","31704","1000544","Battery Park City-Lower Manhattan"
"1000167506","No","1","16","7506","1","2","R0","280","RECTOR PLACE","0","Manhattan","106,631","40.708921","-74.016505","101","1","31704","1065199","Battery Park City-Lower Manhattan"
"1000167507","Yes","1","16","7507","1","2","R0","300","RECTOR PLACE","0","Manhattan","129,176","40.709097","-74.017104","101","1","31704","1065321","Battery Park City-Lower Manhattan"
"1000167508","Yes","1","16","7508","1","2","R0","200","RECTOR PLACE","10280","Manhattan","590,974","40.708809","-74.016116","101","1","31704","1065475","Battery Park City-Lower Manhattan"
"1000167509","Yes","1","16","7509","1","2","R0","21","SOUTH END AVENUE","0","Manhattan","237,270","40.708114","-74.01763","101","1","31704","1075698","Battery Park City-Lower Manhattan"
"1000167510","Yes","1","16","7510","1","2","R0","99","BATTERY PLACE","10280","Manhattan","305,973","40.707977","-74.016729","101","1","31704","1080815","Battery Park City-Lower Manhattan"
"1000167511","Yes","1","16","7511","1","2","R0","2","SOUTH END AVENUE","0","Manhattan","189,273","40.708037","-74.017656","101","1","31704","1082813","Battery Park City-Lower Manhattan"
"1000167512","Yes","1","16","7512","1","2","R0","102","NORTH END AVENUE","0","Manhattan","641,681","40.714812","-74.016153","101","1","31703","1085867","Battery Park City-Lower Manhattan"
"1000167513","Yes","1","16","7513","1","2","R0","25","BATTERY PLACE","10280","Manhattan","562,340","40.705581","-74.017958","101","1","31704","1085789","Battery Park City-Lower Manhattan"
"1000167514","No","1","16","7514","1","2","R0","30","WEST STREET","0","Manhattan","422,304","40.706146","-74.016873","101","1","31704","1087238","Battery Park City-Lower Manhattan"
"1000167515","Yes","1","16","7515","1","2","R0","225","RECTOR PLACE","0","Manhattan","287,819","40.70927","-74.016487","101","1","31704","1000053","Battery Park City-Lower Manhattan"
"1000167516","Yes","1","16","7516","1","2","R0","1","RIVER TERRACE","10007","Manhattan","531,665",,,,,,,
"1000167517","Yes","1","16","7517","1","2","R0","71","BATTERY PLACE","0","Manhattan","508,458","40.707093","-74.017381","101","1","31704","1087842","Battery Park City-Lower Manhattan"
"1000167518","No","1","16","7518","1","2","R0","333","RECTOR PLACE","10280","Manhattan","262,021","40.709448","-74.017252","101","1","31704","1000055","Battery Park City-Lower Manhattan"
"1000167519","No","1","16","7519","1","2","R0","300","NORTH END AVENUE","10282","Manhattan","273,018","40.716525","-74.014815","101","1","31703","1087848","Battery Park City-Lower Manhattan"
"1000167520","Yes","1","16","7520","1","2","R0","200","NORTH END AVENUE","10282","Manhattan","425,407","40.71619","-74.015071","101","1","31703","1087847","Battery Park City-Lower Manhattan"
"1000167521","No","1","16","7521","1","2","R0","212","WARREN STREET","10282","Manhattan","335,784","40.717524","-74.015469","101","1","31703","1085929","Battery Park City-Lower Manhattan"
"1000167522","No","1","16","7522","2","2","R0","400","CHAMBERS STREET","10282","Manhattan","360,656","40.717774","-74.014206","101","1","31703","1085774","Battery Park City-Lower Manhattan"
"1000167523","No","1","16","7523","1","2","R0","325","NORTH END AVENUE","10282","Manhattan","302,526","40.716637","-74.014754","101","1","31703","1086507","Battery Park City-Lower Manhattan"
"1000170029","No","1","17","29","1","2","D5","90","WASHINGTON STREET","10006","Manhattan","335,114","40.708082","-74.014446","101","1","13","1000793","Battery Park City-Lower Manhattan"
"1000177501","Yes","1","17","7501","1","2","R0","50","WEST STREET","10006","Manhattan","427,177","40.708005","-74.015531","101","1","13","1090192","Battery Park City-Lower Manhattan"
"1000177502","No","1","17","7502","1","2","R0","33","RECTOR STREET","0","Manhattan","33,195","40.708354","-74.014868","101","1","13","1000792","Battery Park City-Lower Manhattan"
"1000187501","Yes","1","18","7501","1","2","R0","13","RECTOR STREET","0","Manhattan","366,993","40.707997","-74.013713","101","1","13","1000794","Battery Park City-Lower Manhattan"
"1000200001","No","1","20","1","1","4","O4","29","BROADWAY","10006","Manhattan","316,150","40.70601","-74.01315","101","1","13","1000802","Battery Park City-Lower Manhattan"
"1000200004","No","1","20","4","1","4","O4","39","BROADWAY","10006","Manhattan","447,452","40.706251","-74.012952","101","1","13","1000803","Battery Park City-Lower Manhattan"
"1000200009","No","1","20","9","1","4","O4","45","BROADWAY","10006","Manhattan","368,315","40.706397","-74.012829","101","1","13","1000804","Battery Park City-Lower Manhattan"
"1000200012","No","1","20","12","1","4","K4","47","BROADWAY","10006","Manhattan","27,640","40.706443","-74.01279","101","1","13","1000805","Battery Park City-Lower Manhattan"
"1000200016","No","1","20","16","1","4","O4","55","BROADWAY","10006","Manhattan","309,381","40.706638","-74.012631","101","1","13","1000807","Battery Park City-Lower Manhattan"
"1000210001","No","1","21","1","1","4","O4","61","BROADWAY","10006","Manhattan","650,740","40.706995","-74.012335","101","1","13","1000808","Battery Park City-Lower Manhattan"
"1000210004","No","1","21","4","1","4","O4","65","BROADWAY","10006","Manhattan","335,184","40.707113","-74.012234","101","1","13","1000809","Battery Park City-Lower Manhattan"
"1000210006","Yes","1","21","6","1","2","D5","71","BROADWAY","10006","Manhattan","303,086","40.707294","-74.01209","101","1","13","1000810","Battery Park City-Lower Manhattan"
"1000220017","No","1","22","17","1","4","O6","32","BROADWAY","10004","Manhattan","143,000","40.706045","-74.013096","101","1","9","1078979","Battery Park City-Lower Manhattan"
"1000220020","No","1","22","20","1","4","O4","42","BROADWAY","10004","Manhattan","389,927","40.70627","-74.012909","101","1","9","1000812","Battery Park City-Lower Manhattan"
"1000220024","No","1","22","24","1","4","O4","50","BROADWAY","10004","Manhattan","300,676","40.706449","-74.012761","101","1","9","1000813","Battery Park City-Lower Manhattan"
"1000220028","No","1","22","28","1","4","O6","52","BROADWAY","10004","Manhattan","345,540","40.706493","-74.012725","101","1","9","1000814","Battery Park City-Lower Manhattan"
"1000230019","No","1","23","19","1","4","O4","11","WALL STREET","10004","Manhattan","240,279","40.707399","-74.011105","101","1","7","1078982","Battery Park City-Lower Manhattan"
"1000230050","No","1","23","50","1","2","D9","20","BROAD STREET","10004","Manhattan","466,820","40.706553","-74.011033","101","1","7","1000816","Battery Park City-Lower Manhattan"
"1000237501","No","1","23","7501","1","2","R0","1","WALL STREET","10005","Manhattan","1,161,292","40.707712","-74.011643","101","1","7","1000815","Battery Park City-Lower Manhattan"
"1000240001","No","1","24","1","1","4","O4","60","BROAD STREET","10004","Manhattan","974,958","40.705351","-74.011502","101","1","9","1000817","Battery Park City-Lower Manhattan"
"1000240029","No","1","24","29","1","4","O4","30","BROAD STREET","10004","Manhattan","370,000","40.70618","-74.01125","101","1","9","1000819","Battery Park City-Lower Manhattan"
"1000240036","No","1","24","36","1","4","O4","50","BROAD STREET","10004","Manhattan","205,940","40.705689","-74.011455","101","1","9","1000820","Battery Park City-Lower Manhattan"
"1000247501","No","1","24","7501","1","2","R0","40","BROAD STREET","0","Manhattan","319,910","40.706021","-74.011332","101","1","9","1078985","Battery Park City-Lower Manhattan"
"1000250001","No","1","25","1","1","4","O4","55","BROAD STREET","10004","Manhattan","406,025","40.705189","-74.011505","101","1","9","1000821","Battery Park City-Lower Manhattan"
"1000250010","No","1","25","10","1","4","W8","41","BROAD STREET","10004","Manhattan","91,553","40.705576","-74.011448","101","1","9","1000823","Battery Park City-Lower Manhattan"
"1000250027","Yes","1","25","27","1","4","O4","40","EXCHANGE PLACE","10004","Manhattan","239,071","40.705939","-74.010283","101","1","9","1000825","Battery Park City-Lower Manhattan"
"1000257501","No","1","25","7501","1","2","R0","15","WILLIAM STREET","0","Manhattan","530,168","40.705209","-74.009998","101","1","9","1087954","Battery Park City-Lower Manhattan"
"1000260014","Yes","1","26","14","1","2","D5","37","WALL STREET","10005","Manhattan","377,214","40.70674","-74.010095","101","1","7","1078992","Battery Park City-Lower Manhattan"
"1000260021","No","1","26","21","1","2","D9","45","WALL STREET","10005","Manhattan","493,187","40.706595","-74.009861","101","1","7","1000826","Battery Park City-Lower Manhattan"
"1000267501","No","1","26","7501","1","2","R0","15","BROAD STREET","0","Manhattan","944,252","40.706531","-74.011022","101","1","7","1078988","Battery Park City-Lower Manhattan"
"1000270009","No","1","27","9","1","2","D5","63","WALL STREET","10005","Manhattan","400,531","40.705843","-74.008516","101","1","7","1000828","Battery Park City-Lower Manhattan"
"1000270017","No","1","27","17","1","2","D5","67","WALL STREET","10005","Manhattan","305,271","40.705749","-74.008342","101","1","7","1000829","Battery Park City-Lower Manhattan"
"1000277501","No","1","27","7501","1","2","R0","55","WALL STREET","0","Manhattan","274,516","40.706191","-74.009165","101","1","7","1000827","Battery Park City-Lower Manhattan"
"1000277502","No","1","27","7502","1","2","R0","20","EXCHANGE PLACE","10005","Manhattan","786,942","40.705634","-74.009378","101","1","7","1000830","Battery Park City-Lower Manhattan"
"1000280001","Yes","1","28","1","1","2","D0","3","HANOVER SQUARE","10004","Manhattan","239,121","40.704808","-74.009623","101","1","7","1000831","Battery Park City-Lower Manhattan"
"1000280005","No","1","28","5","1","4","O4","5","HANOVER SQUARE","10004","Manhattan","292,466","40.704923","-74.009046","101","1","7","1000832","Battery Park City-Lower Manhattan"
"1000280012","No","1","28","12","1","4","O4","76","BEAVER STREET","10005","Manhattan","95,325","40.705324","-74.008873","101","1","7","1000833","Battery Park City-Lower Manhattan"
"1000287501","No","1","28","7501","1","2","R0","82","BEAVER STREET","0","Manhattan","108,373","40.70536","-74.008602","101","1","7","1000835","Battery Park City-Lower Manhattan"
"1000290001","Yes","1","29","1","1","4","O4","85","BROAD STREET","10004","Manhattan","1,007,569","40.704215","-74.011559","101","1","9","1066031","Battery Park City-Lower Manhattan"
"1000290036","Yes","1","29","36","1","4","O3","1","WILLIAM STREET","10004","Manhattan","105,000","40.704827","-74.009792","101","1","9","1078995","Battery Park City-Lower Manhattan"
"1000290070","No","1","29","70","1","4","O4","75","BROAD STREET","10004","Manhattan","661,283","40.704541","-74.011552","101","1","9","1000849","Battery Park City-Lower Manhattan"
"1000290086","Yes","1","29","86","1","4","G1","14","SOUTH WILLIAM STREET","10004","Manhattan","87,775","40.704624","-74.010568","101","1","9","1000851","Battery Park City-Lower Manhattan"
"1000297501","No","1","29","7501","1","2","R0","48","BEAVER STREET","0","Manhattan","65,396","40.70509","-74.010607","101","1","9","1078997","Battery Park City-Lower Manhattan"
"1000297502","Yes","1","29","7502","1","2","R0","1","HANOVER SQUARE","0","Manhattan","35,560","40.704646","-74.009608","101","1","9","1000841","Battery Park City-Lower Manhattan"
"1000297503","No","1","29","7503","1","2","R0","21","SOUTH WILLIAM STREET","0","Manhattan","25,483","40.704514","-74.010741","101","1","9","1087244","Battery Park City-Lower Manhattan"
"1000300005","No","1","30","5","1","4","K4","80","PEARL STREET","10004","Manhattan","85,472","40.703971","-74.010239","101","1","9","1000854","Battery Park City-Lower Manhattan"
"1000310001","No","1","31","1","1","2","D6","10","HANOVER SQUARE","10005","Manhattan","487,404","40.704328","-74.00923","101","1","7","1000859","Battery Park City-Lower Manhattan"
"1000317501","No","1","31","7501","1","2","R0","75","WALL STREET","0","Manhattan","683,289","40.705486","-74.007874","101","1","7","1085950","Battery Park City-Lower Manhattan"
"1000327501","No","1","32","7501","1","2","R0","43","WATER STREET","0","Manhattan","3,678,000","40.703383","-74.010138","101","1","9","1083346","Battery Park City-Lower Manhattan"
"1000330001","No","1","33","1","1","4","O4","77","WATER STREET","10005","Manhattan","541,568","40.704275","-74.008681","101","1","7","1000863","Battery Park City-Lower Manhattan"
"1000330011","No","1","33","11","1","2","D5","95","WALL STREET","10005","Manhattan","473,460","40.704932","-74.007488","101","1","7","1000864","Battery Park City-Lower Manhattan"
"1000337501","No","1","33","7501","1","2","R0","101","WALL STREET","10005","Manhattan","106,598","40.704937","-74.007069","101","1","7","1000865","Battery Park City-Lower Manhattan"
"1000350001","No","1","35","1","1","4","O4","77","FRONT STREET","10005","Manhattan","973,587","40.70388","-74.00822","101","1","7","1000867","Battery Park City-Lower Manhattan"
"1000350010","No","1","35","10","1","4","O4","111","WALL STREET","10005","Manhattan","990,250","40.704553","-74.006636","101","1","7","1000868","Battery Park City-Lower Manhattan"
"1000370008","No","1","37","8","1","4","H9","110","WALL STREET","10005","Manhattan","267,570","40.704638","-74.006694","101","1","7","1000872","Battery Park City-Lower Manhattan"
"1000370013","No","1","37","13","1","4","H3","129","FRONT STREET","10005","Manhattan","34,613","40.705187","-74.006369","101","1","7","1000873","Battery Park City-Lower Manhattan"
"1000370023","No","1","37","23","1","4","O4","180","MAIDEN LANE","10005","Manhattan","1,079,361","40.705308","-74.004873","101","1","7","1000874","Battery Park City-Lower Manhattan"
"1000380001","No","1","38","1","1","4","O4","100","WALL STREET","10005","Manhattan","463,664","40.70497","-74.007084","101","1","7","1000875","Battery Park City-Lower Manhattan"
"1000380017","No","1","38","17","1","4","O4","88","PINE STREET","10005","Manhattan","664,990","40.70536","-74.00629","101","1","7","1000876","Battery Park City-Lower Manhattan"
"1000390001","No","1","39","1","1","4","O6","82","WALL STREET","10005","Manhattan","103,297","40.705415","-74.007729","101","1","7","1000877","Battery Park City-Lower Manhattan"
"1000390012","No","1","39","12","1","4","O4","110","MAIDEN LANE","10005","Manhattan","1,104,184","40.7066","-74.006633","101","1","7","1000880","Battery Park City-Lower Manhattan"
"1000390038","Yes","1","39","38","1","4","H3","126","WATER STREET","10005","Manhattan","42,568","40.705431","-74.007055","101","1","7","1000881","Battery Park City-Lower Manhattan"
"1000390041","No","1","39","41","1","4","HB","120","WATER STREET","10005","Manhattan","54,432","40.705299","-74.007242","101","1","7","1000000","Battery Park City-Lower Manhattan"
"1000397501","Yes","1","39","7501","1","2","R0","164","PEARL STREET","0","Manhattan","117,641","40.70587","-74.007617","101","1","7","1000884","Battery Park City-Lower Manhattan"
"1000400003","No","1","40","3","1","4","O4","60","WALL STREET","10005","Manhattan","1,617,206","40.705914","-74.008609","101","1","7","1001004","Battery Park City-Lower Manhattan"
"1000400014","No","1","40","14","1","4","O4","48","WALL STREET","10005","Manhattan","281,755","40.706331","-74.009396","101","1","7","1001005","Battery Park City-Lower Manhattan"
"1000400016","No","1","40","16","1","4","H3","52","WILLIAM STREET","10005","Manhattan","119,467","40.706773","-74.009143","101","1","7","1001006","Battery Park City-Lower Manhattan"
"1000407501","Yes","1","40","7501","1","2","R0","73","PINE STREET","10005","Manhattan","306,787","40.706222","-74.007769","101","1","7","1001003","Battery Park City-Lower Manhattan"
"1000410015","No","1","41","15","1","4","H5","60","PINE STREET","10005","Manhattan","49,197","40.706523","-74.00826","101","1","7","1001008","Battery Park City-Lower Manhattan"
"1000410024","No","1","41","24","1","4","O6","62","WILLIAM STREET","10005","Manhattan","42,000","40.707166","-74.008793","101","1","7","1001013","Battery Park City-Lower Manhattan"
"1000417501","No","1","41","7501","1","2","R0","50","PINE STREET","0","Manhattan","45,352","40.706732","-74.00862","101","1","7","1001011","Battery Park City-Lower Manhattan"
"1000417503","No","1","41","7503","1","2","R0","56","PINE STREET","0","Manhattan","81,412","40.706606","-74.008404","101","1","7","1001009","Battery Park City-Lower Manhattan"
"1000417504","Yes","1","41","7504","1","2","R0","66","PINE STREET","10005","Manhattan","975,719","40.7064","-74.008043","101","1","7","1001007","Battery Park City-Lower Manhattan"
"1000420001","No","1","42","1","1","2","D6","100","MAIDEN LANE","10038","Manhattan","290,116","40.706867","-74.00699","101","1","7","1001014","Battery Park City-Lower Manhattan"
"1000420022","Yes","1","42","22","1","2","D8","10","LIBERTY STREET","10005","Manhattan","431,000","40.707641","-74.008155","101","1","7","1086256","Battery Park City-Lower Manhattan"
"1000420031","No","1","42","31","1","4","O4","80","MAIDEN LANE","10038","Manhattan","527,605","40.707116","-74.007329","101","1","7","1001015","Battery Park City-Lower Manhattan"
"1000420036","Yes","1","42","36","1","4","O5","90","MAIDEN LANE","10038","Manhattan","33,529","40.70699","-74.00716","101","1","7","1001016","Battery Park City-Lower Manhattan"
"1000430001","No","1","43","1","1","4","O4","44","WALL STREET","10005","Manhattan","289,049","40.70654","-74.009738","101","1","7","1001017","Battery Park City-Lower Manhattan"
"1000430002","No","1","43","2","1","4","O4","40","WALL STREET","10005","Manhattan","1,061,286","40.706625","-74.009875","101","1","7","1001018","Battery Park City-Lower Manhattan"
"1000430005","No","1","43","5","1","4","O3","30","WALL STREET","10005","Manhattan","108,663","40.706839","-74.010218","101","1","7","1001019","Battery Park City-Lower Manhattan"
"1000447501","No","1","44","7501","1","2","R0","18","PINE STREET","0","Manhattan","583,639","40.707665","-74.010135","101","1","7","1001022","Battery Park City-Lower Manhattan"
"1000460001","No","1","46","1","1","4","O4","2","WALL STREET","10005","Manhattan","173,159","40.707725","-74.011632","101","1","7","1001023","Battery Park City-Lower Manhattan"
"1000460003","No","1","46","3","1","4","O4","100","BROADWAY","10005","Manhattan","364,390","40.70814","-74.011373","101","1","7","1001024","Battery Park City-Lower Manhattan"
"1000460009","No","1","46","9","1","4","O4","14","WALL STREET","10005","Manhattan","839,749","40.707347","-74.010997","101","1","7","1001025","Battery Park City-Lower Manhattan"
"1000477501","No","1","47","7501","1","2","R0","120","BROADWAY","10271","Manhattan","1,736,513","40.708546","-74.011041","101","1","7","1001026","Battery Park City-Lower Manhattan"
"1000480001","No","1","48","1","1","4","O4","140","BROADWAY","10005","Manhattan","1,141,276","40.709043","-74.010626","101","1","7","1001027","Battery Park City-Lower Manhattan"
"1000490002","No","1","49","2","1","4","O4","111","BROADWAY","10006","Manhattan","432,093","40.708486","-74.011113","101","1","13","1001029","Battery Park City-Lower Manhattan"
"1000500001","No","1","50","1","1","4","O4","115","BROADWAY","10006","Manhattan","396,607","40.708631","-74.010997","101","1","13","1001030","Battery Park City-Lower Manhattan"
"1000510001","No","1","51","1","1","4","O4","101","GREENWICH STREET","10006","Manhattan","400,294","40.708345","-74.013418","101","1","13","1001031","Battery Park City-Lower Manhattan"
"1000510007","No","1","51","7","1","4","O4","68","TRINITY PLACE","10006","Manhattan","281,121","40.708258","-74.012649","101","1","13","1090830","Battery Park City-Lower Manhattan"
"1000510013","No","1","51","13","1","4","O3","86","TRINITY PLACE","10006","Manhattan","181,725","40.708645","-74.01239","101","1","13","1001033","Battery Park City-Lower Manhattan"
"1000510014","No","1","51","14","1","2","D8","22","THAMES STREET","10006","Manhattan","455,815","40.709295","-74.012873","101","1","13","1090832","Battery Park City-Lower Manhattan"
"1000510015","No","1","51","15","1","4","W1","90","TRINITY PLACE","10006","Manhattan","83,362","40.70873","-74.012332","101","1","13","1001035","Battery Park City-Lower Manhattan"
"1000520001","No","1","52","1","1","4","W1","96","TRINITY PLACE","10006","Manhattan","102,591","40.70904","-74.012127","101","1","13","1001037","Battery Park City-Lower Manhattan"
"1000520008","No","1","52","8","1","4","H2","133","GREENWICH STREET","10006","Manhattan","130,054","40.709468","-74.012931","101","1","13","1089248","Battery Park City-Lower Manhattan"
"1000520021","Yes","1","52","21","1","2","D7","120","LIBERTY STREET","10006","Manhattan","57,945","40.71002","-74.012408","101","1","13","1001040","Battery Park City-Lower Manhattan"
"1000527501","No","1","52","7501","1","2","R0","110","LIBERTY STREET","10006","Manhattan","35,085","40.709885","-74.012116","101","1","13","1001042","Battery Park City-Lower Manhattan"
"1000527502","Yes","1","52","7502","1","2","R0","114","LIBERTY STREET","0","Manhattan","74,409","40.709938","-74.012235","101","1","13","1001041","Battery Park City-Lower Manhattan"
"1000530002","Yes","1","53","2","1","4","H2","99","WASHINGTON STREET","10006","Manhattan","142,236","40.708351","-74.014323","101","1","13","1088967","Battery Park City-Lower Manhattan"
"1000530033","No","1","53","33","1","2","D8","110","GREENWICH STREET","10006","Manhattan","57,941","40.70856","-74.013349","101","1","13","1001051","Battery Park City-Lower Manhattan"
"1000530038","No","1","53","38","1","4","H2","100","GREENWICH STREET","10006","Manhattan","70,918","40.708263","-74.013475","101","1","13","1090417","Battery Park City-Lower Manhattan"
"1000537501","Yes","1","53","7501","1","2","R0","120","GREENWICH STREET","0","Manhattan","66,872","40.709089","-74.013118","101","1","13","1001050","Battery Park City-Lower Manhattan"
"1000537502","No","1","53","7502","1","2","R0","123","WASHINGTON STREET","10006","Manhattan","396,477","40.709139","-74.01402","101","1","13","1088442","Battery Park City-Lower Manhattan"
"1000550014","Yes","1","55","14","1","2","D8","71","WEST STREET","10006","Manhattan","258,071","40.70904","-74.015117","101","1","13","1001060","Battery Park City-Lower Manhattan"
"1000550016","No","1","55","16","1","4","H2","80","WEST STREET","10006","Manhattan","420,322","40.709493","-74.014976","101","1","13","1001061","Battery Park City-Lower Manhattan"
"1000557501","No","1","55","7501","1","2","R0","40","RECTOR STREET","10006","Manhattan","449,355","40.708356","-74.014814","101","1","13","1088750","Battery Park City-Lower Manhattan"
"1000560001","No","1","56","1","1","4","H2","140","WASHINGTON STREET","10006","Manhattan","181,297","40.709729","-74.013818","101","1","13","1001063","Battery Park City-Lower Manhattan"
"1000560004","Yes","1","56","4","1","2","D5","90","WEST STREET","10006","Manhattan","357,001","40.710105","-74.014789","101","1","13","1001064","Battery Park City-Lower Manhattan"
"1000627501","No","1","62","7501","1","2","R0","1","LIBERTY PLAZA","10006","Manhattan","2,139,035","40.70943","-74.011102","101","1","13","1001068","Battery Park City-Lower Manhattan"
"1000630003","No","1","63","3","1","4","O4","22","CORTLANDT STREET","10007","Manhattan","647,875","40.710223","-74.010897","101","1","13","1001069","Battery Park City-Lower Manhattan"
"1000630006","No","1","63","6","1","4","K3","21","DEY STREET","10007","Manhattan","49,109","40.71092","-74.010608","101","1","13","1001070","Battery Park City-Lower Manhattan"
"1000630012","No","1","63","12","1","2","D7","5","DEY STREET","10007","Manhattan","121,679","40.71058","-74.009862","101","1","13","1000000","Battery Park City-Lower Manhattan"
"1000630015","No","1","63","15","1","2","D7","187","BROADWAY","10007","Manhattan","64,666","40.71021","-74.009656","101","1","13","1000000","Battery Park City-Lower Manhattan"
"1000630016","No","1","63","16","1","2","D7","183","BROADWAY","10007","Manhattan","50,032","40.710119","-74.009735","101","1","13","1000000","Battery Park City-Lower Manhattan"
"1000640001","Yes","1","64","1","1","4","H2","51","NASSAU STREET","10005","Manhattan","42,012","40.708931","-74.009035","101","1","1502","1079032","Battery Park City-Lower Manhattan"
"1000640008","No","1","64","8","1","2","D4","53","LIBERTY STREET","10005","Manhattan","167,448","40.708642","-74.009407","101","1","1502","1001084","Battery Park City-Lower Manhattan"
"1000640009","No","1","64","9","1","4","O2","59","LIBERTY STREET","10005","Manhattan","30,681","40.708823","-74.009786","101","1","1502","1001085","Battery Park City-Lower Manhattan"
"1000640012","No","1","64","12","1","4","O4","150","BROADWAY","10038","Manhattan","279,669","40.70932","-74.010392","101","1","1502","1001087","Battery Park City-Lower Manhattan"
"1000640015","No","1","64","15","1","4","O6","160","BROADWAY","10038","Manhattan","125,640","40.709493","-74.01024","101","1","1502","1079040","Battery Park City-Lower Manhattan"
"1000647502","Yes","1","64","7502","1","2","R0","170","BROADWAY","10038","Manhattan","167,280","40.709669","-74.010092","101","1","1502","1001088","Battery Park City-Lower Manhattan"
"1000650006","No","1","65","6","1","2","D6","21","MAIDEN LANE","10038","Manhattan","37,800","40.70926","-74.009082","101","1","1502","1001096","Battery Park City-Lower Manhattan"
"1000650007","No","1","65","7","1","4","O4","15","MAIDEN LANE","10038","Manhattan","124,910","40.709482","-74.009356","101","1","1502","1001097","Battery Park City-Lower Manhattan"
"1000650010","Yes","1","65","10","1","2","D5","9","MAIDEN LANE","10038","Manhattan","58,354","40.709606","-74.009555","101","1","1502","1001098","Battery Park City-Lower Manhattan"
"1000650017","No","1","65","17","1","2","D4","176","BROADWAY","10038","Manhattan","168,176","40.709932","-74.009869","101","1","1502","1001100","Battery Park City-Lower Manhattan"
"1000650020","No","1","65","20","1","2","D6","12","JOHN STREET","10038","Manhattan","31,118","40.710004","-74.0091","101","1","1502","1001103","Battery Park City-Lower Manhattan"
"1000650024","No","1","65","24","1","4","H1","24","JOHN STREET","10038","Manhattan","50,616","40.709765","-74.008765","101","1","1502","1001105","Battery Park City-Lower Manhattan"
"1000657501","Yes","1","65","7501","1","2","R0","65","NASSAU STREET","0","Manhattan","32,342","40.70935","-74.00861","101","1","1502","1001106","Battery Park City-Lower Manhattan"
"1000657502","Yes","1","65","7502","1","2","R0","180","BROADWAY","10038","Manhattan","149,223","40.710037","-74.009779","101","1","1502","1001102","Battery Park City-Lower Manhattan"
"1000660001","No","1","66","1","1","4","O3","19","LIBERTY STREET","10005","Manhattan","640,000","40.707899","-74.008473","101","1","1502","1001108","Battery Park City-Lower Manhattan"
"1000670001","No","1","67","1","1","4","O4","59","MAIDEN LANE","10038","Manhattan","1,073,000","40.708266","-74.008231","101","1","1502","1079043","Battery Park City-Lower Manhattan"
"1000670023","No","1","67","23","1","4","O4","56","NASSAU STREET","10038","Manhattan","558,327","40.709114","-74.008812","101","1","1502","1001109","Battery Park City-Lower Manhattan"
"1000680007","No","1","68","7","1","4","O6","83","MAIDEN LANE","10038","Manhattan","155,450","40.707443","-74.007607","101","1","1502","1001111","Battery Park City-Lower Manhattan"
"1000680011","No","1","68","11","1","4","O6","75","MAIDEN LANE","10038","Manhattan","155,026","40.707657","-74.007758","101","1","1502","1001112","Battery Park City-Lower Manhattan"
"1000680016","No","1","68","16","1","4","HS","84","WILLIAM STREET","10038","Manhattan","122,959","40.708028","-74.007939","101","1","1502","1001113","Battery Park City-Lower Manhattan"
"1000680028","Yes","1","68","28","1","4","HB","15","GOLD STREET","10038","Manhattan","71,539","40.707753","-74.006918","101","1","1502","1085948","Battery Park City-Lower Manhattan"
"1000680036","No","1","68","36","1","4","O4","100","WILLIAM STREET","10038","Manhattan","377,120","40.708497","-74.007477","101","1","1502","1001116","Battery Park City-Lower Manhattan"
"1000687501","No","1","68","7501","1","2","R0","80","JOHN STREET","0","Manhattan","200,610","40.708445","-74.006886","101","1","1502","1001115","Battery Park City-Lower Manhattan"
"1000687502","No","1","68","7502","1","2","R0","90","WILLIAM STREET","0","Manhattan","126,430","40.708184","-74.007787","101","1","1502","1087755","Battery Park City-Lower Manhattan"
"1000690001","No","1","69","1","1","4","H2","215","PEARL STREET","10038","Manhattan","148,868","40.707086","-74.006243","101","1","1502","1000000","Battery Park City-Lower Manhattan"
"1000690006","No","1","69","6","1","2","D8","211","PEARL STREET","10038","Manhattan","222,001","40.707023","-74.006388","101","1","1502","1087832","Battery Park City-Lower Manhattan"
"1000690018","Yes","1","69","18","1","2","D8","2","GOLD STREET","10038","Manhattan","627,330","40.707295","-74.007336","101","1","1502","1087146","Battery Park City-Lower Manhattan"
"1000690030","Yes","1","69","30","1","4","H3","4","PLATT STREET","10038","Manhattan","114,226","40.707704","-74.006644","101","1","1502","1089243","Battery Park City-Lower Manhattan"
"1000690032","No","1","69","32","1","2","D7","116","JOHN STREET","10038","Manhattan","338,463","40.707605","-74.00572","101","1","1502","1001126","Battery Park City-Lower Manhattan"
"1000690053","No","1","69","53","1","4","O5","110","JOHN STREET","10038","Manhattan","68,983","40.707712","-74.005836","101","1","1502","1001129","Battery Park City-Lower Manhattan"
"1000697502","No","1","69","7502","1","2","R0","90","JOHN STREET","10038","Manhattan","372,364","40.708173","-74.006464","101","1","1502","1001127","Battery Park City-Lower Manhattan"
"1000700032","No","1","70","32","1","2","D6","180","WATER STREET","10038","Manhattan","487,950","40.706787","-74.005114","101","1","1502","1001134","Battery Park City-Lower Manhattan"
"1000700043","No","1","70","43","1","4","O4","160","WATER STREET","10038","Manhattan","481,858","40.706452","-74.005594","101","1","1502","1001135","Battery Park City-Lower Manhattan"
"1000707501","No","1","70","7501","1","2","R0","125","MAIDEN LANE","0","Manhattan","343,902","40.706397","-74.006341","101","1","1502","1087484","Battery Park City-Lower Manhattan"
"1000710001","Yes","1","71","1","1","2","D7","156","FRONT STREET","10038","Manhattan","52,969","40.705829","-74.005482","101","1","1502","1001136","Battery Park City-Lower Manhattan"
"1000717501","No","1","71","7501","1","2","R0","175","WATER STREET","0","Manhattan","580,000","40.706699","-74.005208","101","1","1502","1001137","Battery Park City-Lower Manhattan"
"1000720007","Yes","1","72","7","1","4","H2","151","MAIDEN LANE","10038","Manhattan","139,891","40.705714","-74.005399","101","1","1502","1082759","Battery Park City-Lower Manhattan"
"1000720012","Yes","1","72","12","1","4","H2","161","FRONT STREET","0","Manhattan","70,044","40.706051","-74.0051","101","1","1502","1089746","Battery Park City-Lower Manhattan"
"1000720013","Yes","1","72","13","1","4","E9","163","FRONT STREET","10038","Manhattan","58,500","40.706084","-74.005049","101","1","1502","1001139","Battery Park City-Lower Manhattan"
"1000720027","Yes","1","72","27","1","2","D2","85","SOUTH STREET","10038","Manhattan","52,005","40.705618","-74.004162","101","1","1502","1001142","Battery Park City-Lower Manhattan"
"1000720031","Yes","1","72","31","1","4","O2","80","SOUTH STREET","10038","Manhattan","43,818","40.705552","-74.004263","101","1","1502","1079058","Battery Park City-Lower Manhattan"
"1000727501","Yes","1","72","7501","1","2","R0","170","JOHN STREET","0","Manhattan","28,662","40.706076","-74.004202","101","1","1502","1001143","Battery Park City-Lower Manhattan"
"1000727502","No","1","72","7502","1","2","R0","161","MAIDEN LANE","10038","Manhattan","191,505","40.705632","-74.005288","101","1","1502","1090257","Battery Park City-Lower Manhattan"
"1000747501","No","1","74","7501","1","2","R0","199","WATER STREET","10038","Manhattan","995,083","40.70727","-74.004314","101","1","1502","1001162","Battery Park City-Lower Manhattan"
"1000750001","Yes","1","75","1","1","2","D8","127","JOHN STREET","10038","Manhattan","541,000","40.707218","-74.005316","101","1","1502","1001163","Battery Park City-Lower Manhattan"
"1000750021","Yes","1","75","21","1","4","O4","40","FULTON STREET","10038","Manhattan","234,553","40.707904","-74.004411","101","1","1502","1075618","Battery Park City-Lower Manhattan"
"1000750030","No","1","75","30","1","4","O4","111","JOHN STREET","10038","Manhattan","296,076","40.707671","-74.005764","101","1","1502","1001167","Battery Park City-Lower Manhattan"
"1000760001","Yes","1","76","1","1","4","O6","64","FULTON STREET","10038","Manhattan","40,564","40.708769","-74.005136","101","1","1502","1001176","Battery Park City-Lower Manhattan"
"1000760006","No","1","76","6","1","2","D7","56","FULTON STREET","10038","Manhattan","101,542","40.7085","-74.004916","101","1","1502","1090416","Battery Park City-Lower Manhattan"
"1000760024","Yes","1","76","24","1","2","D6","40","GOLD STREET","10038","Manhattan","53,445","40.708774","-74.005872","101","1","1502","1088484","Battery Park City-Lower Manhattan"
"1000767501","No","1","76","7501","1","2","R0","15","CLIFF STREET","0","Manhattan","158,477","40.708143","-74.00545","101","1","1502","1085931","Battery Park City-Lower Manhattan"
"1000767502","Yes","1","76","7502","1","2","R0","99","JOHN STREET","0","Manhattan","472,059","40.708006","-74.006164","101","1","1502","1087867","Battery Park City-Lower Manhattan"
"1000770001","No","1","77","1","1","2","D7","85","JOHN STREET","10038","Manhattan","160,000","40.708368","-74.00673","101","1","1502","1001185","Battery Park City-Lower Manhattan"
"1000770008","No","1","77","8","1","4","O4","110","WILLIAM STREET","10038","Manhattan","788,241","40.708782","-74.007196","101","1","1502","1001186","Battery Park City-Lower Manhattan"
"1000770020","No","1","77","20","1","4","W6","138","WILLIAM STREET","10038","Manhattan","44,506","40.70937","-74.006608","101","1","1502","1001189","Battery Park City-Lower Manhattan"
"1000770024","No","1","77","24","1","2","D7","82","FULTON STREET","10038","Manhattan","159,000","40.709191","-74.005728","101","1","1502","1077403","Battery Park City-Lower Manhattan"
"1000780001","Yes","1","78","1","1","2","D7","135","WILLIAM STREET","10038","Manhattan","76,988","40.709359","-74.006648","101","1","1502","1001192","Battery Park City-Lower Manhattan"
"1000780004","No","1","78","4","1","4","O4","123","WILLIAM STREET","10038","Manhattan","493,039","40.709112","-74.006893","101","1","1502","1079063","Battery Park City-Lower Manhattan"
"1000780047","No","1","78","47","1","2","D8","114","FULTON STREET","10038","Manhattan","440,553","40.709957","-74.007243","101","1","1502","1090115","Battery Park City-Lower Manhattan"
"1000787503","No","1","78","7503","1","2","R0","80","NASSAU STREET","0","Manhattan","38,610","40.709823","-74.008119","101","1","1502","1001201","Battery Park City-Lower Manhattan"
"1000787504","Yes","1","78","7504","1","2","R0","9","DUTCH STREET","0","Manhattan","40,856","40.709455","-74.00747","101","1","1502","1001197","Battery Park City-Lower Manhattan"
"1000787505","No","1","78","7505","1","2","R0","72","NASSAU STREET","10038","Manhattan","32,107","40.70963","-74.00831","101","1","1502","1001200","Battery Park City-Lower Manhattan"
"1000787506","Yes","1","78","7506","1","2","R0","102","FULTON STREET","0","Manhattan","26,923","40.709642","-74.006619","101","1","1502","1001196","Battery Park City-Lower Manhattan"
"1000787507","No","1","78","7507","1","2","R0","111","WILLIAM STREET","0","Manhattan","97,798","40.708876","-74.007127","101","1","1502","1001193","Battery Park City-Lower Manhattan"
"1000787508","Yes","1","78","7508","1","2","R0","45","JOHN STREET","0","Manhattan","81,199","40.709241","-74.008","101","1","1502","1001199","Battery Park City-Lower Manhattan"
"1000787510","Yes","1","78","7510","1","2","R0","110","FULTON STREET","10038","Manhattan","25,997","40.709817","-74.006965","101","1","1502","1088478","Battery Park City-Lower Manhattan"
"1000790010","No","1","79","10","1","4","HS","17","JOHN STREET","10038","Manhattan","111,423","40.709916","-74.008949","101","1","1502","1001216","Battery Park City-Lower Manhattan"
"1000790014","Yes","1","79","14","1","4","O6","15","JOHN STREET","10038","Manhattan","33,634","40.709954","-74.008999","101","1","1502","1001217","Battery Park City-Lower Manhattan"
"1000797502","Yes","1","79","7502","1","2","R0","130","FULTON STREET","10038","Manhattan","71,246","40.710372","-74.008062","101","1","1502","1087245","Battery Park City-Lower Manhattan"
"1000797503","No","1","79","7503","1","2","R0","71","NASSAU STREET","0","Manhattan","73,121","40.709639","-74.008325","101","1","1502","1001215","Battery Park City-Lower Manhattan"
"1000800004","No","1","80","4","1","4","H1","55","CHURCH STREET","10007","Manhattan","383,166","40.711453","-74.010504","101","1","13","1075702","Battery Park City-Lower Manhattan"
"1000847501","No","1","84","7501","1","2","R0","140","WEST STREET","10007","Manhattan","967,206","40.713843","-74.01379","101","1","21","1001228","SoHo-TriBeCa-Civic Center-Little Italy"
"1000880001","No","1","88","1","1","4","O6","217","BROADWAY","10007","Manhattan","133,198","40.71156","-74.008469","101","1","21","1001232","SoHo-TriBeCa-Civic Center-Little Italy"
"1000880002","Yes","1","88","2","1","4","O7","14","VESEY STREET","10007","Manhattan","30,000","40.71176","-74.009386","101","1","21","1001233","SoHo-TriBeCa-Civic Center-Little Italy"
"1000880005","Yes","1","88","5","1","4","O6","20","VESEY STREET","10007","Manhattan","80,298","40.711843","-74.009562","101","1","21","1001235","SoHo-TriBeCa-Civic Center-Little Italy"
"1000880010","No","1","88","10","1","4","O6","30","VESEY STREET","10007","Manhattan","71,959","40.711977","-74.009865","101","1","21","1001237","SoHo-TriBeCa-Civic Center-Little Italy"
"1000880014","Yes","1","88","14","1","2","D8","10","BARCLAY STREET","10007","Manhattan","531,000","40.7122","-74.008563","101","1","21","1087947","SoHo-TriBeCa-Civic Center-Little Italy"
"1000880018","No","1","88","18","1","4","O4","225","BROADWAY","10007","Manhattan","480,831","40.71187","-74.008217","101","1","21","1001241","SoHo-TriBeCa-Civic Center-Little Italy"
"1000890001","Yes","1","89","1","1","4","O6","99","NASSAU STREET","10038","Manhattan","100,000","40.710531","-74.007441","101","1","1501","1001242","Battery Park City-Lower Manhattan"
"1000890003","No","1","89","3","1","4","H2","26","ANN STREET","10038","Manhattan","119,889","40.710764","-74.007708","101","1","1501","1001244","Battery Park City-Lower Manhattan"
"1000890012","No","1","89","12","1","4","O4","222","BROADWAY","10038","Manhattan","756,138","40.711313","-74.008661","101","1","1501","1001245","Battery Park City-Lower Manhattan"
"1000900013","No","1","90","13","1","2","D6","34","PARK ROW","10038","Manhattan","83,552","40.711717","-74.007045","101","1","1501","1090476","Battery Park City-Lower Manhattan"
"1000900017","Yes","1","90","17","1","2","D7","113","NASSAU STREET","10038","Manhattan","182,499","40.710836","-74.007041","101","1","1501","1089790","Battery Park City-Lower Manhattan"
"1000907501","No","1","90","7501","1","2","R0","15","PARK ROW","10038","Manhattan","420,470","40.711508","-74.007679","101","1","1501","1001249","Battery Park City-Lower Manhattan"
"1000907503","Yes","1","90","7503","1","2","R0","5","BEEKMAN STREET","10038","Manhattan","313,980","40.711393","-74.006666","101","1","1501","1079072","Battery Park City-Lower Manhattan"
"1000910013","No","1","91","13","1","4","O5","129","FULTON STREET","10038","Manhattan","38,320","40.710105","-74.007495","101","1","1501","1001267","Battery Park City-Lower Manhattan"
"1000917501","Yes","1","91","7501","1","2","R0","119","FULTON STREET","10038","Manhattan","31,965","40.709932","-74.007149","101","1","1501","1001264","Battery Park City-Lower Manhattan"
"1000917502","No","1","91","7502","1","2","R0","111","FULTON STREET","0","Manhattan","221,213","40.709749","-74.006792","101","1","1501","1001263","Battery Park City-Lower Manhattan"
"1000917503","No","1","91","7503","1","2","R0","42","ANN STREET","10038","Manhattan","28,729","40.710385","-74.007019","101","1","1501","1001266","Battery Park City-Lower Manhattan"
"1000920003","Yes","1","92","3","1","2","D5","167","WILLIAM STREET","10038","Manhattan","31,073","40.710243","-74.005768","101","1","1501","1001268","Battery Park City-Lower Manhattan"
"1000920010","Yes","1","92","10","1","4","G1","57","ANN STREET","10038","Manhattan","32,475","40.710201","-74.006626","101","1","1501","1001270","Battery Park City-Lower Manhattan"
"1000920014","Yes","1","92","14","1","4","H2","49","ANN STREET","10038","Manhattan","56,790","40.710306","-74.006828","101","1","1501","1089326","Battery Park City-Lower Manhattan"
"1000920024","No","1","92","24","1","4","O3","116","NASSAU STREET","10038","Manhattan","109,173","40.710844","-74.006998","101","1","1501","1079094","Battery Park City-Lower Manhattan"
"1000920032","Yes","1","92","32","1","4","O5","19","BEEKMAN STREET","10038","Manhattan","25,039","40.710959","-74.006204","101","1","1501","1001278","Battery Park City-Lower Manhattan"
"1000920034","Yes","1","92","34","1","4","G1","25","BEEKMAN STREET","10038","Manhattan","36,246","40.710825","-74.00606","101","1","1501","1001279","Battery Park City-Lower Manhattan"
"1000927501","Yes","1","92","7501","1","2","R0","33","BEEKMAN STREET","10038","Manhattan","167,396","40.71055","-74.005771","101","1","1501","1089833","Battery Park City-Lower Manhattan"
"1000927502","No","1","92","7502","1","2","R0","161","WILLIAM","0","Manhattan","177,433",,,,,,,
"1000930001","No","1","93","1","1","4","O4","81","FULTON STREET","10038","Manhattan","463,679","40.709202","-74.00571","101","1","1501","1001280","Battery Park City-Lower Manhattan"
"1000930034","Yes","1","93","34","1","2","D9","57","BEEKMAN STREET","10038","Manhattan","79,079","40.709858","-74.00505","101","1","1501","1001288","Battery Park City-Lower Manhattan"
"1000937501","No","1","93","7501","1","2","R0","156","WILLIAM STREET","10038","Manhattan","225,368","40.709944","-74.006045","101","1","1501","1001281","Battery Park City-Lower Manhattan"
"1000940001","No","1","94","1","10","2","D4","80","GOLD STREET","10038","Manhattan","174,160","40.709938","-74.004498","101","1","1501","1083354","Battery Park City-Lower Manhattan"
"1000950027","No","1","95","27","1","2","D3","49","FULTON STREET","10038","Manhattan","208,576","40.708179","-74.00462","101","1","1501","1001290","Battery Park City-Lower Manhattan"
"1000957501","No","1","95","7501","1","2","R0","117","BEEKMAN STREET","0","Manhattan","43,070","40.707811","-74.003221","101","1","1501","1001292","Battery Park City-Lower Manhattan"
"1000970010","No","1","97","10","1","2","D7","156","BEEKMAN STREET","10038","Manhattan","27,698",,,,,,,
"1000970018","Yes","1","97","18","1","2","D7","213","FRONT STREET","10038","Manhattan","40,000","40.70732","-74.002521","101","1","1501","1087524","Battery Park City-Lower Manhattan"
"1000977503","No","1","97","7503","1","2","R0","220","FRONT STREET","10038","Manhattan","33,145","40.707427","-74.002352","101","1","1501","1086561","Battery Park City-Lower Manhattan"
"1000977505","No","1","97","7505","1","2","R0","241","WATER STREET","10038","Manhattan","31,844","40.707981","-74.002471","101","1","1501","1078980","Battery Park City-Lower Manhattan"
"1001000001","No","1","100","1","1","4","I1","52","BEEKMAN STREET","10038","Manhattan","301,941","40.709982","-74.005151","101","1","1501","1001352","Battery Park City-Lower Manhattan"
"1001000026","No","1","100","26","1","2","D4","138","NASSAU STREET","10038","Manhattan","79,422","40.711266","-74.00641","101","1","1501","1001354","Battery Park City-Lower Manhattan"
"1001007501","Yes","1","100","7501","1","2","R0","150","NASSAU STREET","0","Manhattan","194,294","40.711541","-74.006027","101","1","1501","1087756","Battery Park City-Lower Manhattan"
"1001007502","Yes","1","100","7502","1","2","R0","8","SPRUCE STREET","10038","Manhattan","1,040,589","40.711245","-74.005396","101","1","1501","1087485","Battery Park City-Lower Manhattan"
"1001010001","No","1","101","1","1","2","D4","36","PARK ROW","10038","Manhattan","111,685","40.711763","-74.006857","101","1","1501","1001355","Battery Park City-Lower Manhattan"
"1001010002","No","1","101","2","1","4","W6","39","PARK ROW","10038","Manhattan","125,840","40.711835","-74.006558","101","1","1501","1001356","Battery Park City-Lower Manhattan"
"1001020001","No","1","102","1","1","4","W6","154","NASSAU STREET","10038","Manhattan","526,781","40.711593","-74.005955","101","1","1501","1001357","Battery Park City-Lower Manhattan"
"1001060017","Yes","1","106","17","1","4","H3","320","PEARL STREET","10038","Manhattan","27,356","40.709021","-74.002272","101","1","1501","1087430","Battery Park City-Lower Manhattan"
"1001067502","Yes","1","106","7502","1","2","R0","324","PEARL STREET","0","Manhattan","37,646","40.709074","-74.002207","101","1","1501","1001364","Battery Park City-Lower Manhattan"
"1001067504","No","1","106","7504","1","2","R0","264","WATER STREET","10038","Manhattan","40,203","40.708505","-74.001454","101","1","1501","1001362","Battery Park City-Lower Manhattan"
"1001070028","Yes","1","107","28","1","2","D6","254","FRONT STREET","10038","Manhattan","31,715","40.70822","-74.000772","101","1","1501","1088490","Battery Park City-Lower Manhattan"
"1001070038","Yes","1","107","38","1","4","HB","29","PECK SLIP","10038","Manhattan","39,747","40.707962","-74.001706","101","1","1501","1082022","Battery Park City-Lower Manhattan"
"1001110100","No","1","111","100","12","2","D6","20","MADISON STREET","10038","Manhattan","1,264,820","40.711774","-73.999683","103","1","25","1077417","Chinatown"
"1001137501","No","1","113","7501","1","2","R0","375","PEARL STREET","0","Manhattan","822,318","40.710207","-74.001125","101","1","29","1001389","Chinatown"
"1001170001","No","1","117","1","3","2","D4","185","PARK ROW","10038","Manhattan","473,200","40.713141","-74.000115","103","1","27","1077407","Chinatown"
"1001237501","No","1","123","7501","1","2","R0","233","BROADWAY","10279","Manhattan","1,008,544","40.712265","-74.007892","101","1","21","1087167","SoHo-TriBeCa-Civic Center-Little Italy"
"1001237502","No","1","123","7502","2","2","R0","30","PARK PLACE","10007","Manhattan","715,320","40.712987","-74.008686","101","1","21","1089428","SoHo-TriBeCa-Civic Center-Little Italy"
"1001240004","Yes","1","124","4","1","4","O6","11","PARK PLACE","10007","Manhattan","205,000","40.712828","-74.008296","101","1","21","1001399","SoHo-TriBeCa-Civic Center-Little Italy"
"1001240008","No","1","124","8","1","2","D6","19","PARK PLACE","10007","Manhattan","46,000","40.712974","-74.008614","101","1","21","1089956","SoHo-TriBeCa-Civic Center-Little Italy"
"1001240011","No","1","124","11","1","4","O5","25","PARK PLACE","10007","Manhattan","26,705","40.713081","-74.008852","101","1","21","1001404","SoHo-TriBeCa-Civic Center-Little Italy"
"1001240012","No","1","124","12","1","4","O5","111","CHURCH STREET","10007","Manhattan","34,456","40.713459","-74.009083","101","1","21","1001405","SoHo-TriBeCa-Civic Center-Little Italy"
"1001240024","No","1","124","24","1","4","O4","250","BROADWAY","10007","Manhattan","541,195","40.712982","-74.007301","101","1","21","1001408","SoHo-TriBeCa-Civic Center-Little Italy"
"1001250020","No","1","125","20","1","4","O4","50","PARK PLACE","10007","Manhattan","932,587","40.713671","-74.010194","101","1","21","1001409","SoHo-TriBeCa-Civic Center-Little Italy"
"1001260008","No","1","126","8","1","2","D8","43","PARK PLACE","10007","Manhattan","163,340","40.71355","-74.009884","101","1","21","1090827","SoHo-TriBeCa-Civic Center-Little Italy"
"1001260013","No","1","126","13","1","2","D5","53","PARK PLACE","10007","Manhattan","138,600","40.713764","-74.010356","101","1","21","1001412","SoHo-TriBeCa-Civic Center-Little Italy"
"1001260027","Yes","1","126","27","1","2","D5","120","CHURCH STREET","10007","Manhattan","620,552","40.71361","-74.008989","101","1","21","1001410","SoHo-TriBeCa-Civic Center-Little Italy"
"1001270018","No","1","127","18","1","4","O6","255","GREENWICH STREET","10007","Manhattan","550,000","40.71445","-74.011475","101","1","21","1001415","SoHo-TriBeCa-Civic Center-Little Italy"
"1001280002","No","1","128","2","1","4","O4","101","BARCLAY STREET","10007","Manhattan","1,133,549","40.713767","-74.011925","101","1","21","1001416","SoHo-TriBeCa-Civic Center-Little Italy"
"1001280026","Yes","1","128","26","1","4","O6","125","BARCLAY STREET","10007","Manhattan","258,000","40.714181","-74.012845","101","1","21","1001417","SoHo-TriBeCa-Civic Center-Little Italy"
"1001327501","Yes","1","132","7501","2","2","R0","275","GREENWICH STREET","0","Manhattan","274,175","40.715221","-74.01124","101","1","21","1081076","SoHo-TriBeCa-Civic Center-Little Italy"
"1001327503","No","1","132","7503","1","2","R0","71","MURRAY STREET","0","Manhattan","60,415","40.714582","-74.010569","101","1","21","1001421","SoHo-TriBeCa-Civic Center-Little Italy"
"1001337504","No","1","133","7504","1","2","R0","37","MURRAY STREET","0","Manhattan","26,620","40.713948","-74.009141","101","1","21","1001434","SoHo-TriBeCa-Civic Center-Little Italy"
"1001337510","No","1","133","7510","1","2","R0","55","WARREN STREET","10007","Manhattan","35,377","40.71473","-74.00922","101","1","21","1001440","SoHo-TriBeCa-Civic Center-Little Italy"
"1001337511","No","1","133","7511","1","2","R0","37","WARREN STREET","10007","Manhattan","49,858","40.714445","-74.008589","101","1","21","1001444","SoHo-TriBeCa-Civic Center-Little Italy"
"1001340011","No","1","134","11","1","2","D6","33","WARREN STREET","10007","Manhattan","30,999","40.714212","-74.008084","101","1","21","1001453","SoHo-TriBeCa-Civic Center-Little Italy"
"1001340025","Yes","1","134","25","1","2","D4","258","BROADWAY","10007","Manhattan","88,320","40.713764","-74.006648","101","1","31","1077426","SoHo-TriBeCa-Civic Center-Little Italy"
"1001347501","No","1","134","7501","1","2","R0","253","BROADWAY","0","Manhattan","270,269","40.713265","-74.007063","101","1","21","1082757","SoHo-TriBeCa-Civic Center-Little Italy"
"1001347503","Yes","1","134","7503","1","2","R0","9","MURRAY STREET","0","Manhattan","112,994","40.713314","-74.007759","101","1","21","1001446","SoHo-TriBeCa-Civic Center-Little Italy"
"1001347504","No","1","134","7504","1","2","R0","19","WARREN STREET","0","Manhattan","30,586","40.713995","-74.007622","101","1","21","1001456","SoHo-TriBeCa-Civic Center-Little Italy"
"1001347505","No","1","134","7505","1","2","R0","25","MURRAY STREET","0","Manhattan","144,330","40.713588","-74.008361","101","1","21","1001451","SoHo-TriBeCa-Civic Center-Little Italy"
"1001350031","No","1","135","31","1","4","O5","265","BROADWAY","10007","Manhattan","29,000","40.713852","-74.006587","101","1","21","1001472","SoHo-TriBeCa-Civic Center-Little Italy"
"1001357501","No","1","135","7501","1","2","R0","261","BROADWAY","10007","Manhattan","122,000","40.713696","-74.00672","101","1","21","1001473","SoHo-TriBeCa-Civic Center-Little Italy"
"1001357503","Yes","1","135","7503","1","2","R0","8","WARREN STREET","0","Manhattan","37,765","40.713827","-74.007229","101","1","21","1079154","SoHo-TriBeCa-Civic Center-Little Italy"
"1001357504","No","1","135","7504","1","2","R0","270","BROADWAY","0","Manhattan","313,716","40.714022","-74.006442","101","1","21","1079153","SoHo-TriBeCa-Civic Center-Little Italy"
"1001357508","Yes","1","135","7508","1","2","R0","16","WARREN STREET","0","Manhattan","25,367","40.713959","-74.007507","101","1","21","1087868","SoHo-TriBeCa-Civic Center-Little Italy"
"1001357509","No","1","135","7509","1","2","R0","12","WARREN STREET","10007","Manhattan","50,964","40.713893","-74.007366","101","1","21","1090148","SoHo-TriBeCa-Civic Center-Little Italy"
"1001367502","No","1","136","7502","1","2","R0","38","WARREN STREET","0","Manhattan","65,635","40.714489","-74.008643","101","1","21","1079156","SoHo-TriBeCa-Civic Center-Little Italy"
"1001367503","No","1","136","7503","1","2","R0","60","WARREN STREET","0","Manhattan","32,483","40.714813","-74.009357","101","1","21","1001480","SoHo-TriBeCa-Civic Center-Little Italy"
"1001367505","No","1","136","7505","1","2","R0","85","WEST BROADWAY","0","Manhattan","71,407","40.715205","-74.009476","101","1","21","1088224","SoHo-TriBeCa-Civic Center-Little Italy"
"1001370005","Yes","1","137","5","1","2","D4","80","WARREN STREET","10007","Manhattan","70,000","40.715243","-74.010313","101","1","21","1001488","SoHo-TriBeCa-Civic Center-Little Italy"
"1001370035","Yes","1","137","35","1","2","D4","90","WEST BROADWAY","10007","Manhattan","48,079","40.715282","-74.00944","101","1","21","1001499","SoHo-TriBeCa-Civic Center-Little Italy"
"1001377503","Yes","1","137","7503","1","2","R0","92","WARREN STREET","10007","Manhattan","30,062","40.715446","-74.010768","101","1","21","1079162","SoHo-TriBeCa-Civic Center-Little Italy"
"1001400001","No","1","140","1","1","2","D4","139","CHAMBERS STREET","10007","Manhattan","25,473","40.71568","-74.009567","101","1","21","1001500","SoHo-TriBeCa-Civic Center-Little Italy"
"1001400005","Yes","1","140","5","1","2","D6","121","READE STREET","10007","Manhattan","144,568","40.716292","-74.009455","101","1","21","1085521","SoHo-TriBeCa-Civic Center-Little Italy"
"1001407501","No","1","140","7501","3","2","R0","165","CHAMBERS STREET","0","Manhattan","107,190","40.716124","-74.010551","101","1","21","1066317","SoHo-TriBeCa-Civic Center-Little Italy"
"1001407502","No","1","140","7502","1","2","R0","311","GREENWICH STREET","0","Manhattan","82,151","40.716745","-74.010862","101","1","21","1075706","SoHo-TriBeCa-Civic Center-Little Italy"
"1001407503","Yes","1","140","7503","1","2","R0","143","READE STREET","0","Manhattan","36,608","40.716437","-74.009776","101","1","21","1084396","SoHo-TriBeCa-Civic Center-Little Italy"
"1001407505","Yes","1","140","7505","1","2","R0","157","CHAMBERS STREET","0","Manhattan","92,418","40.715987","-74.010248","101","1","21","1001505","SoHo-TriBeCa-Civic Center-Little Italy"
"1001417504","Yes","1","141","7504","1","2","R0","166","DUANE STREET","0","Manhattan","109,200","40.717036","-74.009354","101","1","39","1001531","SoHo-TriBeCa-Civic Center-Little Italy"
"1001427501","Yes","1","142","7501","1","2","R0","99","WARREN STREET","0","Manhattan","928,915","40.715715","-74.011403","101","1","21","1087170","SoHo-TriBeCa-Civic Center-Little Italy"
"1001427502","Yes","1","142","7502","1","2","R0","200","CHAMBERS STREET","0","Manhattan","403,019","40.716863","-74.012207","101","1","21","1087716","SoHo-TriBeCa-Civic Center-Little Italy"
"1001427503","No","1","142","7503","1","2","R0","111","MURRAY STREET","10007","Manhattan","479,813","40.715111","-74.012528","101","1","21","1089698","SoHo-TriBeCa-Civic Center-Little Italy"
"1001430001","Yes","1","143","1","1","2","D4","47","HUDSON STREET","10013","Manhattan","77,630","40.717316","-74.009062","101","1","39","1001543","SoHo-TriBeCa-Civic Center-Little Italy"
"1001430004","Yes","1","143","4","1","2","D4","55","HUDSON STREET","10013","Manhattan","103,750","40.717648","-74.009004","101","1","39","1001544","SoHo-TriBeCa-Civic Center-Little Italy"
"1001430021","Yes","1","143","21","1","2","D4","335","GREENWICH STREET","10013","Manhattan","55,800","40.717939","-74.010559","101","1","39","1001553","SoHo-TriBeCa-Civic Center-Little Italy"
"1001437503","Yes","1","143","7503","1","2","R0","16","JAY STREET","10013","Manhattan","25,415","40.718049","-74.010011","101","1","39","1079179","SoHo-TriBeCa-Civic Center-Little Italy"
"1001440040","No","1","144","40","1","4","O4","56","HUDSON STREET","10013","Manhattan","802,000","40.717722","-74.008968","101","1","33","1001572","SoHo-TriBeCa-Civic Center-Little Italy"
"1001447502","Yes","1","144","7502","1","2","R0","36","HUDSON STREET","0","Manhattan","34,526","40.717052","-74.009083","101","1","33","1001562","SoHo-TriBeCa-Civic Center-Little Italy"
"1001450012","Yes","1","145","12","1","4","H2","125","CHAMBERS STREET","10007","Manhattan","53,039","40.715309","-74.008755","101","1","21","1001584","SoHo-TriBeCa-Civic Center-Little Italy"
"1001457501","No","1","145","7501","1","2","R0","105","CHAMBERS STREET","0","Manhattan","55,404","40.715049","-74.008185","101","1","21","1001591","SoHo-TriBeCa-Civic Center-Little Italy"
"1001457504","Yes","1","145","7504","1","2","R0","97","READE STREET","0","Manhattan","36,546","40.715642","-74.008019","101","1","21","1001589","SoHo-TriBeCa-Civic Center-Little Italy"
"1001460017","No","1","146","17","1","2A","S3","144","DUANE STREET","10013","Manhattan","26,500","40.716355","-74.007893","101","1","33","1001601","SoHo-TriBeCa-Civic Center-Little Italy"
"1001460018","Yes","1","146","18","1","2C","D0","142","DUANE STREET","10013","Manhattan","29,000","40.716319","-74.007817","101","1","33","1001602","SoHo-TriBeCa-Civic Center-Little Italy"
"1001460021","No","1","146","21","1","2","D0","134","DUANE STREET","10013","Manhattan","38,700","40.716182","-74.007518","101","1","33","1075669","SoHo-TriBeCa-Civic Center-Little Italy"
"1001467501","No","1","146","7501","1","2","R0","96","READE STREET","10013","Manhattan","44,152","40.715683","-74.008073","101","1","33","1083078","SoHo-TriBeCa-Civic Center-Little Italy"
"1001467502","No","1","146","7502","1","2","R0","150","DUANE STREET","0","Manhattan","26,644","40.716457","-74.008117","101","1","33","1001599","SoHo-TriBeCa-Civic Center-Little Italy"
"1001477508","Yes","1","147","7508","1","2","R0","52","THOMAS STREET","0","Manhattan","47,441","40.716704","-74.007063","101","1","33","1001619","SoHo-TriBeCa-Civic Center-Little Italy"
"1001477509","No","1","147","7509","1","2","R0","137","DUANE STREET","0","Manhattan","74,927","40.716281","-74.007691","101","1","33","1001607","SoHo-TriBeCa-Civic Center-Little Italy"
"1001480010","No","1","148","10","1","4","O6","71","THOMAS STREET","10013","Manhattan","100,750","40.716965","-74.00759","101","1","33","1001621","SoHo-TriBeCa-Civic Center-Little Italy"
"1001480015","Yes","1","148","15","1","4","O6","40","WORTH STREET","10013","Manhattan","702,815","40.717363","-74.006897","101","1","33","1001622","SoHo-TriBeCa-Civic Center-Little Italy"
"1001490012","No","1","149","12","1","2","D7","97","CHAMBERS STREET","10007","Manhattan","43,338","40.71475","-74.007536","101","1","21","1001630","SoHo-TriBeCa-Civic Center-Little Italy"
"1001490033","Yes","1","149","33","1","4","O6","277","BROADWAY","10007","Manhattan","93,615","40.714349","-74.006172","101","1","21","1001635","SoHo-TriBeCa-Civic Center-Little Italy"
"1001497501","No","1","149","7501","1","2","R0","77","READE STREET","10007","Manhattan","87,136","40.715189","-74.007027","101","1","21","1001629","SoHo-TriBeCa-Civic Center-Little Italy"
"1001497502","No","1","149","7502","1","2","R0","281","BROADWAY","10007","Manhattan","146,093","40.71445","-74.006085","101","1","21","1087951","SoHo-TriBeCa-Civic Center-Little Italy"
"1001497503","Yes","1","149","7503","1","2","R0","71","READE STREET","10007","Manhattan","44,347","40.715095","-74.006821","101","1","21","1089713","SoHo-TriBeCa-Civic Center-Little Italy"
"1001500015","Yes","1","150","15","1","2","D5","122","DUANE STREET","10007","Manhattan","29,165","40.715894","-74.006883","101","1","33","1001642","SoHo-TriBeCa-Civic Center-Little Italy"
"1001500017","Yes","1","150","17","1","2B","C7","118","DUANE STREET","10007","Manhattan","27,853","40.715828","-74.006742","101","1","33","1001643","SoHo-TriBeCa-Civic Center-Little Italy"
"1001500031","Yes","1","150","31","1","4","O6","299","BROADWAY","10007","Manhattan","253,033","40.715046","-74.005591","101","1","33","1001648","SoHo-TriBeCa-Civic Center-Little Italy"
"1001500038","No","1","150","38","1","4","O6","291","BROADWAY","10007","Manhattan","128,940","40.714824","-74.005779","101","1","33","1001649","SoHo-TriBeCa-Civic Center-Little Italy"
"1001507501","No","1","150","7501","1","2","R0","70","READE STREET","0","Manhattan","56,968","40.715095","-74.006782","101","1","33","1001640","SoHo-TriBeCa-Civic Center-Little Italy"
"1001507504","No","1","150","7504","1","2","R0","108","DUANE STREET","10007","Manhattan","34,012","40.715587","-74.006212","101","1","33","1001645","SoHo-TriBeCa-Civic Center-Little Italy"
"1001510001","No","1","151","1","1","2","D6","105","DUANE STREET","10007","Manhattan","434,418","40.71554","-74.006064","101","1","33","1001650","SoHo-TriBeCa-Civic Center-Little Italy"
"1001510032","No","1","151","32","1","4","O6","305","BROADWAY","10007","Manhattan","132,600","40.715318","-74.00536","101","1","33","1001659","SoHo-TriBeCa-Civic Center-Little Italy"
"1001520025","No","1","152","25","1","4","O5","325","BROADWAY","10007","Manhattan","50,000","40.715999","-74.004787","101","1","33","1079211","SoHo-TriBeCa-Civic Center-Little Italy"
"1001527501","Yes","1","152","7501","1","2","R0","321","BROADWAY","0","Manhattan","31,720","40.715894","-74.004873","101","1","33","1001662","SoHo-TriBeCa-Civic Center-Little Italy"
"1001537501","No","1","153","7501","1","2","R0","49","CHAMBERS STREET","10007","Manhattan","237,307","40.713767","-74.005429","101","1","31","1079216","SoHo-TriBeCa-Civic Center-Little Italy"
"1001550003","No","1","155","3","1","4","O6","52","DUANE STREET","10007","Manhattan","103,158","40.714387","-74.003773","101","1","31","1001673","SoHo-TriBeCa-Civic Center-Little Italy"
"1001580001","No","1","158","1","1","4","M1","27","DUANE STREET","10007","Manhattan","70,590","40.713122","-74.002936","101","1","29","1001675","Chinatown"
"1001610001","No","1","161","1","1","2","D4","196","PARK ROW","10038","Manhattan","306,862","40.713273","-73.99947","103","1","29","1077438","Chinatown"
"1001620038","No","1","162","38","1","4","O8","9","CHATHAM SQUARE","10038","Manhattan","27,375","40.713753","-73.997951","103","1","29","1001707","Chinatown"
"1001627501","Yes","1","162","7501","1","2","R0","7","CHATHAM SQUARE","0","Manhattan","47,122","40.713737","-73.997991","103","1","29","1001726","Chinatown"
"1001630006","No","1","163","6","1","4","K4","20","PELL STREET","10013","Manhattan","26,719","40.714857","-73.998157","103","1","29","1001780","Chinatown"
"1001640026","No","1","164","26","1","2","C7","47","MOTT STREET","10013","Manhattan","25,480","40.715348","-73.998673","103","1","29","1001815","Chinatown"
"1001700001","Yes","1","170","1","1","2","D6","336","BROADWAY","10013","Manhattan","139,697","40.716336","-74.004477","101","1","31","1085786","SoHo-TriBeCa-Civic Center-Little Italy"
"1001700020","Yes","1","170","20","1","2","D6","111","WORTH STREET","10013","Manhattan","419,639","40.715828","-74.003539","101","1","31","1086161","SoHo-TriBeCa-Civic Center-Little Italy"
"1001707501","No","1","170","7501","1","2","R0","108","LEONARD STREET","10013","Manhattan","414,363","40.71646","-74.0032","101","1","31","1001835","SoHo-TriBeCa-Civic Center-Little Italy"
"1001710005","No","1","171","5","1","2","C7","358","BROADWAY","10013","Manhattan","48,180","40.717223","-74.003716","101","1","31","1001840","SoHo-TriBeCa-Civic Center-Little Italy"
"1001710007","No","1","171","7","1","2B","D7","360","BROADWAY","10013","Manhattan","31,500","40.717289","-74.003658","101","1","31","1001841","SoHo-TriBeCa-Civic Center-Little Italy"
"1001717501","Yes","1","171","7501","1","2","R0","356","BROADWAY","0","Manhattan","41,955","40.717154","-74.003773","101","1","31","1001843","SoHo-TriBeCa-Civic Center-Little Italy"
"1001717502","No","1","171","7502","1","2","R0","354","BROADWAY","0","Manhattan","45,787","40.717088","-74.003827","101","1","31","1001839","SoHo-TriBeCa-Civic Center-Little Italy"
"1001717503","Yes","1","171","7503","1","2","R0","101","LEONARD STREET","10013","Manhattan","141,014","40.716825","-74.00391","101","1","31","1001838","SoHo-TriBeCa-Civic Center-Little Italy"
"1001720001","No","1","172","1","1","2","D0","364","BROADWAY","10013","Manhattan","93,378","40.71747","-74.003503","101","1","31","1001862","SoHo-TriBeCa-Civic Center-Little Italy"
"1001720020","Yes","1","172","20","1","4","H8","76","LAFAYETTE STREET","10013","Manhattan","317,464","40.716968","-74.001883","101","1","31","1001870","SoHo-TriBeCa-Civic Center-Little Italy"
"1001720030","No","1","172","30","1","2","D5","54","FRANKLIN STREET","10013","Manhattan","29,575","40.717014","-74.002626","101","1","31","1001872","SoHo-TriBeCa-Civic Center-Little Italy"
"1001727501","Yes","1","172","7501","1","2","R0","374","BROADWAY","0","Manhattan","137,500","40.717849","-74.003182","101","1","31","1001866","SoHo-TriBeCa-Civic Center-Little Italy"
"1001727502","Yes","1","172","7502","1","2","R0","81","WHITE STREET","0","Manhattan","28,500","40.717566","-74.002139","101","1","31","1087055","SoHo-TriBeCa-Civic Center-Little Italy"
"1001727504","Yes","1","172","7504","1","2","R0","50","FRANKLIN STREET","10013","Manhattan","94,147","40.716951","-74.0025","101","1","31","1088222","SoHo-TriBeCa-Civic Center-Little Italy"
"1001727505","No","1","172","7505","1","2","R0","372","BROADWAY","10013","Manhattan","26,186","40.717791","-74.003232","101","1","31","1001865","SoHo-TriBeCa-Civic Center-Little Italy"
"1001730027","Yes","1","173","27","1","2","D6","343","BROADWAY","10013","Manhattan","396,000","40.716619","-74.004257","101","1","33","1087082","SoHo-TriBeCa-Civic Center-Little Italy"
"1001737501","No","1","173","7501","1","2","R0","66","LEONARD STREET","0","Manhattan","152,495","40.717549","-74.005523","101","1","33","1001877","SoHo-TriBeCa-Civic Center-Little Italy"
"1001737502","Yes","1","173","7502","1","2","R0","65","WORTH STREET","0","Manhattan","99,735","40.716926","-74.005905","101","1","33","1079275","SoHo-TriBeCa-Civic Center-Little Italy"
"1001737504","No","1","173","7504","1","2","R0","93","WORTH STREET","10013","Manhattan","166,215","40.716407","-74.004783","101","1","33","1001883","SoHo-TriBeCa-Civic Center-Little Italy"
"1001740005","No","1","174","5","1","2B","S9","79","LEONARD STREET","10013","Manhattan","34,932","40.717332","-74.005007","101","1","33","1001886","SoHo-TriBeCa-Civic Center-Little Italy"
"1001740023","Yes","1","174","23","1","2","D7","81","FRANKLIN STREET","10013","Manhattan","25,738","40.717956","-74.004646","101","1","33","1001900","SoHo-TriBeCa-Civic Center-Little Italy"
"1001740037","No","1","174","37","1","4","O6","349","BROADWAY","10013","Manhattan","42,000","40.716962","-74.003961","101","1","33","1001910","SoHo-TriBeCa-Civic Center-Little Italy"
"1001747502","Yes","1","174","7502","1","2","R0","95","FRANKLIN STREET","0","Manhattan","25,724","40.718156","-74.00509","101","1","33","1001895","SoHo-TriBeCa-Civic Center-Little Italy"
"1001747504","No","1","174","7504","1","2","R0","87","LEONARD STREET","10013","Manhattan","42,640","40.717201","-74.004718","101","1","33","1001884","SoHo-TriBeCa-Civic Center-Little Italy"
"1001747505","No","1","174","7505","1","2","R0","67","FRANKLIN STREET","10013","Manhattan","80,572","40.717483","-74.003633","101","1","33","1001905","SoHo-TriBeCa-Civic Center-Little Italy"
"1001747506","No","1","174","7506","1","2","R0","91","LEONARD STREET","10013","Manhattan","209,024","40.717132","-74.004574","101","1","33","1090477","SoHo-TriBeCa-Civic Center-Little Italy"
"1001750020","Yes","1","175","20","1","2","D5","43","WHITE STREET","10013","Manhattan","33,500","40.718631","-74.004379","101","1","33","1001932","SoHo-TriBeCa-Civic Center-Little Italy"
"1001750024","No","1","175","24","1","2B","D7","51","WHITE STREET","10013","Manhattan","29,412","40.718494","-74.00408","101","1","33","1001934","SoHo-TriBeCa-Civic Center-Little Italy"
"1001750029","No","1","175","29","1","4","O5","373","BROADWAY","10013","Manhattan","45,006","40.717799","-74.00325","101","1","33","1001936","SoHo-TriBeCa-Civic Center-Little Italy"
"1001750033","Yes","1","175","33","1","2","D7","365","BROADWAY","10013","Manhattan","63,600","40.717478","-74.003521","101","1","33","1001939","SoHo-TriBeCa-Civic Center-Little Italy"
"1001757501","Yes","1","175","7501","1","2","R0","377","BROADWAY","0","Manhattan","100,650","40.717914","-74.003153","101","1","33","1001940","SoHo-TriBeCa-Civic Center-Little Italy"
"1001757503","No","1","175","7503","1","2","R0","55","WHITE STREET","0","Manhattan","37,196","40.718425","-74.003932","101","1","33","1001935","SoHo-TriBeCa-Civic Center-Little Italy"
"1001757504","No","1","175","7504","1","2","R0","90","FRANKLIN STREET","0","Manhattan","107,222","40.718137","-74.005004","101","1","33","1001924","SoHo-TriBeCa-Civic Center-Little Italy"
"1001757505","No","1","175","7505","1","2","R0","88","FRANKLIN STREET","10013","Manhattan","34,491","40.718106","-74.004935","101","1","33","1084762","SoHo-TriBeCa-Civic Center-Little Italy"
"1001757506","Yes","1","175","7506","1","2","R0","5","FRANKLIN PLACE","10013","Manhattan","131,817","40.718024","-74.003903","101","1","33","1001937","SoHo-TriBeCa-Civic Center-Little Italy"
"1001760001","No","1","176","1","1","4","W6","57","WORTH STREET","10013","Manhattan","60,610","40.717231","-74.006565","101","1","33","1001957","SoHo-TriBeCa-Civic Center-Little Italy"
"1001760004","Yes","1","176","4","1","4","W6","53","WORTH STREET","10013","Manhattan","49,000","40.717288","-74.006692","101","1","33","1001958","SoHo-TriBeCa-Civic Center-Little Italy"
"1001760018","No","1","176","18","1","4","W8","40","LEONARD STREET","10013","Manhattan","235,000","40.718172","-74.006869","101","1","33","1001967","SoHo-TriBeCa-Civic Center-Little Italy"
"1001767501","No","1","176","7501","1","2","R0","56","LEONARD STREET","10013","Manhattan","487,508","40.717898","-74.006273","101","1","33","1088646","SoHo-TriBeCa-Civic Center-Little Italy"
"1001770002","Yes","1","177","2","1","4","O3","59","LEONARD STREET","10013","Manhattan","202,000","40.717832","-74.006089","101","1","33","1001971","SoHo-TriBeCa-Civic Center-Little Italy"
"1001770024","No","1","177","24","1","4","W6","111","FRANKLIN STREET","10013","Manhattan","33,464","40.718532","-74.005902","101","1","33","1001976","SoHo-TriBeCa-Civic Center-Little Italy"
"1001770027","Yes","1","177","27","1","2A","S4","105","FRANKLIN STREET","10013","Manhattan","25,947","40.718444","-74.005711","101","1","33","1001977","SoHo-TriBeCa-Civic Center-Little Italy"
"1001777501","Yes","1","177","7501","1","2","R0","51","LEONARD STREET","10013","Manhattan","33,094","40.71795","-74.006345","101","1","33","1001974","SoHo-TriBeCa-Civic Center-Little Italy"
"1001780016","Yes","1","178","16","1","2B","D6","217","WEST BROADWAY","10013","Manhattan","26,981","40.719133","-74.006378","101","1","33","1079284","SoHo-TriBeCa-Civic Center-Little Italy"
"1001780022","Yes","1","178","22","1","2","D7","3","WHITE STREET","10013","Manhattan","32,803","40.719347","-74.005942","101","1","33","1001988","SoHo-TriBeCa-Civic Center-Little Italy"
"1001787502","No","1","178","7502","1","2","R0","211","WEST BROADWAY","0","Manhattan","29,982","40.718941","-74.006522","101","1","33","1079278","SoHo-TriBeCa-Civic Center-Little Italy"
"1001790017","Yes","1","179","17","1","2","D0","84","HUDSON STREET","10013","Manhattan","51,748","40.718584","-74.00882","101","1","33","1001994","SoHo-TriBeCa-Civic Center-Little Italy"
"1001790021","Yes","1","179","21","1","2","D0","10","LEONARD STREET","10013","Manhattan","29,610","40.718798","-74.008254","101","1","33","1001995","SoHo-TriBeCa-Civic Center-Little Italy"
"1001790032","Yes","1","179","32","1","2","D6","176","WEST BROADWAY","10013","Manhattan","52,930","40.717887","-74.00737","101","1","33","1002002","SoHo-TriBeCa-Civic Center-Little Italy"
"1001790043","Yes","1","179","43","1","4","K4","29-31","LEONARD STREET","10013","Manhattan","29,400","40.718477","-74.007493","101","1","33","1002004","SoHo-TriBeCa-Civic Center-Little Italy"
"1001790056","Yes","1","179","56","1","2","D4","100","HUDSON STREET","10013","Manhattan","73,954","40.71919","-74.008705","101","1","33","1002012","SoHo-TriBeCa-Civic Center-Little Italy"
"1001790063","No","1","179","63","1","4","K4","143","FRANKLIN STREET","10013","Manhattan","33,800","40.719191","-74.007684","101","1","33","1002016","SoHo-TriBeCa-Civic Center-Little Italy"
"1001790066","Yes","1","179","66","1","4","E1","139","FRANKLIN STREET","10013","Manhattan","56,384","40.719177","-74.007547","101","1","33","1002017","SoHo-TriBeCa-Civic Center-Little Italy"
"1001797503","No","1","179","7503","1","2","R0","155","FRANKLIN STREET","10013","Manhattan","42,498","40.719232","-74.008095","101","1","33","1002013","SoHo-TriBeCa-Civic Center-Little Italy"
"1001797506","Yes","1","179","7506","1","2","R0","14","LEONARD STREET","0","Manhattan","81,650","40.71874","-74.008124","101","1","33","1001998","SoHo-TriBeCa-Civic Center-Little Italy"
"1001797507","No","1","179","7507","1","2","R0","15","LEONARD STREET","10013","Manhattan","30,285","40.718702","-74.007994","101","1","33","1089431","SoHo-TriBeCa-Civic Center-Little Italy"
"1001797508","No","1","179","7508","1","2","R0","24","LEONARD ST","10013","Manhattan","48,957","40.718598","-74.007807","101","1","33","1085460","SoHo-TriBeCa-Civic Center-Little Italy"
"1001807502","Yes","1","180","7502","1","2","R0","69","HUDSON STREET","0","Manhattan","25,500","40.718101","-74.008921","101","1","39","1002045","SoHo-TriBeCa-Civic Center-Little Italy"
"1001807507","Yes","1","180","7507","1","2","R0","345","GREENWICH STREET","0","Manhattan","29,031","40.718422","-74.010458","101","1","39","1002030","SoHo-TriBeCa-Civic Center-Little Italy"
"1001807508","Yes","1","180","7508","1","2","R0","339","GREENWICH STREET","0","Manhattan","42,860","40.718216","-74.010498","101","1","39","1002029","SoHo-TriBeCa-Civic Center-Little Italy"
"1001810016","Yes","1","181","16","1","4","O5","181","FRANKLIN STREET","10013","Manhattan","26,000","40.719361","-74.009426","101","1","39","1002075","SoHo-TriBeCa-Civic Center-Little Italy"
"1001817503","Yes","1","181","7503","1","2","R0","6","HARRISON STREET","0","Manhattan","53,685","40.718691","-74.009253","101","1","39","1066447","SoHo-TriBeCa-Civic Center-Little Italy"
"1001817504","Yes","1","181","7504","1","2","R0","93","HUDSON STREET","0","Manhattan","142,848","40.718856","-74.008791","101","1","39","1075728","SoHo-TriBeCa-Civic Center-Little Italy"
"1001870016","Yes","1","187","16","1","4","H1","377","GREENWICH STREET","10013","Manhattan","75,533","40.719783","-74.010227","101","1","39","1087575","SoHo-TriBeCa-Civic Center-Little Italy"
"1001870021","Yes","1","187","21","1","4","G1","56","NORTH MOORE STREET","10013","Manhattan","41,067","40.72","-74.009127","101","1","39","1002117","SoHo-TriBeCa-Civic Center-Little Italy"
"1001870025","No","1","187","25","1","2B","D7","117","HUDSON STREET","10013","Manhattan","35,600","40.719792","-74.008622","101","1","39","1002118","SoHo-TriBeCa-Civic Center-Little Italy"
"1001870030","Yes","1","187","30","1","2","D0","105","HUDSON STREET","10013","Manhattan","89,724","40.719396","-74.00869","101","1","39","1083366","SoHo-TriBeCa-Civic Center-Little Italy"
"1001877501","Yes","1","187","7501","1","2","R0","375","GREENWICH STREET","0","Manhattan","63,450","40.719704","-74.010242","101","1","39","1002114","SoHo-TriBeCa-Civic Center-Little Italy"
"1001877503","Yes","1","187","7503","1","2","R0","111","HUDSON STREET","0","Manhattan","32,223","40.719594","-74.008658","101","1","39","1002119","SoHo-TriBeCa-Civic Center-Little Italy"
"1001887502","Yes","1","188","7502","1","2","R0","387","GREENWICH STREET","0","Manhattan","94,723","40.720285","-74.010144","101","1","39","1002124","SoHo-TriBeCa-Civic Center-Little Italy"
"1001887503","Yes","1","188","7503","1","2","R0","53","NORTH MOORE STREET","0","Manhattan","96,504","40.720006","-74.009008","101","1","39","1002127","SoHo-TriBeCa-Civic Center-Little Italy"
"1001887504","No","1","188","7504","1","2","R0","61","NORTH MOORE STREET","0","Manhattan","29,500","40.720041","-74.00938","101","1","39","1002121","SoHo-TriBeCa-Civic Center-Little Italy"
"1001887505","Yes","1","188","7505","1","2","R0","48","BEACH STREET","0","Manhattan","94,532","40.720634","-74.008831","101","1","39","1002125","SoHo-TriBeCa-Civic Center-Little Italy"
"1001890025","Yes","1","189","25","1","2","D0","34","NORTH MOORE STREET","10013","Manhattan","28,500","40.719866","-74.007774","101","1","33","1002143","SoHo-TriBeCa-Civic Center-Little Italy"
"1001890030","No","1","189","30","1","2","D4","20","NORTH MOORE STREET","10013","Manhattan","60,600","40.719811","-74.007229","101","1","33","1002147","SoHo-TriBeCa-Civic Center-Little Italy"
"1001897501","Yes","1","189","7501","1","2","R0","220","WEST BROADWAY","0","Manhattan","63,996","40.719246","-74.006313","101","1","33","1002154","SoHo-TriBeCa-Civic Center-Little Italy"
"1001897502","Yes","1","189","7502","1","2","R0","104","HUDSON STREET","0","Manhattan","46,870","40.719394","-74.008669","101","1","33",,"SoHo-TriBeCa-Civic Center-Little Italy"
"1001897506","Yes","1","189","7506","1","2","R0","152","FRANKLIN STREET","0","Manhattan","28,525","40.719232","-74.007926","101","1","33","1002131","SoHo-TriBeCa-Civic Center-Little Italy"
"1001897507","Yes","1","189","7507","1","2","R0","140","FRANKLIN STREET","10013","Manhattan","70,023","40.719191","-74.007493","101","1","33","1002128","SoHo-TriBeCa-Civic Center-Little Italy"
"1001897508","Yes","1","189","7508","1","2","R0","38","NORTH MOORE STREET","0","Manhattan","25,015","40.719879","-74.007929","101","1","33","1002142","SoHo-TriBeCa-Civic Center-Little Italy"
"1001900041","Yes","1","190","41","1","4","K4","248","WEST BROADWAY","10013","Manhattan","35,057","40.719882","-74.005805","101","1","33","1002172","SoHo-TriBeCa-Civic Center-Little Italy"
"1001907501","Yes","1","190","7501","1","2","R0","39","NORTH MOORE STREET","0","Manhattan","28,431","40.719901","-74.007983","101","1","33","1002163","SoHo-TriBeCa-Civic Center-Little Italy"
"1001907503","Yes","1","190","7503","1","2","R0","31","NORTH MOORE STREET","0","Manhattan","108,300","40.719868","-74.007652","101","1","33","1002161","SoHo-TriBeCa-Civic Center-Little Italy"
"1001907504","Yes","1","190","7504","1","2","R0","27","NORTH MOORE STREET","0","Manhattan","174,625","40.719855","-74.007486","101","1","33","1002167","SoHo-TriBeCa-Civic Center-Little Italy"
"1001907505","Yes","1","190","7505","1","2","R0","25","NORTH MOORE STREET","0","Manhattan","130,094","40.719847","-74.007403","101","1","33","1002160","SoHo-TriBeCa-Civic Center-Little Italy"
"1001907506","Yes","1","190","7506","1","2","R0","124","HUDSON STREET","0","Manhattan","81,306","40.720143","-74.008539","101","1","33","1002166","SoHo-TriBeCa-Civic Center-Little Italy"
"1001907508","No","1","190","7508","1","2","R0","240","WEST BROADWAY","10013","Manhattan","28,440","40.719753","-74.005906","101","1","33","1088918","SoHo-TriBeCa-Civic Center-Little Italy"
"1001907509","No","1","190","7509","1","2","R0","11","NORTH MOORE STREET","10013","Manhattan","71,413","40.719756","-74.006501","101","1","33","1002169","SoHo-TriBeCa-Civic Center-Little Italy"
"1001910001","No","1","191","1","1","4","HB","2","AVENUE OF THE AMERICAS","10013","Manhattan","133,895","40.719128","-74.005166","101","1","33","1088221","SoHo-TriBeCa-Civic Center-Little Italy"
"1001920001","No","1","192","1","1","4","O4","16","WALKER STREET","10013","Manhattan","1,092,665","40.719753","-74.004978","101","1","33","1002192","SoHo-TriBeCa-Civic Center-Little Italy"
"1001937501","No","1","193","7501","1","2","R0","395","BROADWAY","0","Manhattan","130,088","40.71845","-74.002702","101","1","33","1002221","SoHo-TriBeCa-Civic Center-Little Italy"
"1001937508","Yes","1","193","7508","1","2","R0","43","WALKER STREET","10013","Manhattan","36,990","40.71913","-74.003654","101","1","33","1002213","SoHo-TriBeCa-Civic Center-Little Italy"
"1001937509","Yes","1","193","7509","1","2","R0","51","WALKER STREET","0","Manhattan","34,587","40.719012","-74.003398","101","1","33","1087528","SoHo-TriBeCa-Civic Center-Little Italy"
"1001937511","No","1","193","7511","1","2","R0","60","WHITE STREET","10013","Manhattan","31,962","40.718282","-74.003575","101","1","33","1002193","SoHo-TriBeCa-Civic Center-Little Italy"
"1001937512","Yes","1","193","7512","1","2","R0","66","WHITE STREET","10013","Manhattan","32,602","40.718129","-74.003243","101","1","33","1079363","SoHo-TriBeCa-Civic Center-Little Italy"
"1001940032","Yes","1","194","32","1","2B","D6","60","LISPENARD STREET","10013","Manhattan","29,158","40.719534","-74.002893","101","1","33","1002307","SoHo-TriBeCa-Civic Center-Little Italy"
"1001940042","Yes","1","194","42","1","4","O4","60","WALKER STREET","10013","Manhattan","230,139","40.718859","-74.003023","101","1","33","1002310","SoHo-TriBeCa-Civic Center-Little Italy"
"1001947501","Yes","1","194","7501","1","2","R0","48","WALKER STREET","0","Manhattan","30,953","40.719056","-74.003449","101","1","33","1002311","SoHo-TriBeCa-Civic Center-Little Italy"
"1001947507","Yes","1","194","7507","1","2","R0","46","LISPENARD STREET","10013","Manhattan","28,348","40.719731","-74.003301","101","1","33","1082443","SoHo-TriBeCa-Civic Center-Little Italy"
"1001947508","Yes","1","194","7508","1","2","R0","52","LISPENARD STREET","10013","Manhattan","29,124","40.719646","-74.003128","101","1","33","1002303","SoHo-TriBeCa-Civic Center-Little Italy"
"1001950001","Yes","1","195","1","1","4","K4","380","BROADWAY","10013","Manhattan","27,265","40.718112","-74.002958","101","1","31","1002317","SoHo-TriBeCa-Civic Center-Little Italy"
"1001950002","Yes","1","195","2","1","4","O5","384","BROADWAY","10013","Manhattan","43,300","40.718205","-74.002882","101","1","31","1002318","SoHo-TriBeCa-Civic Center-Little Italy"
"1001950006","Yes","1","195","6","1","4","O5","394","BROADWAY","10013","Manhattan","25,340","40.718441","-74.002684","101","1","31","1002322","SoHo-TriBeCa-Civic Center-Little Italy"
"1001950007","Yes","1","195","7","1","4","H2","396","BROADWAY","10013","Manhattan","61,219","40.718488","-74.002644","101","1","31","1002323","SoHo-TriBeCa-Civic Center-Little Italy"
"1001950017","Yes","1","195","17","1","4","O6","91","WALKER STREET","10013","Manhattan","55,400","40.718046","-74.00127","101","1","31","1002329","SoHo-TriBeCa-Civic Center-Little Italy"
"1001950027","Yes","1","195","27","1","2","D1","84","WHITE STREET","10013","Manhattan","46,900","40.717566","-74.0021","101","1","31","1089955","SoHo-TriBeCa-Civic Center-Little Italy"
"1001950030","No","1","195","30","1","4","K4","80","WHITE STREET","10013","Manhattan","38,890","40.717634","-74.002233","101","1","31","1002333","SoHo-TriBeCa-Civic Center-Little Italy"
"1001960005","Yes","1","196","5","1","4","O5","408","BROADWAY","10013","Manhattan","56,210","40.718946","-74.002255","101","1","31","1002338","SoHo-TriBeCa-Civic Center-Little Italy"
"1001960009","Yes","1","196","9","1","4","H3","416","BROADWAY","10013","Manhattan","31,214","40.719358","-74.001905","101","1","31","1002341","SoHo-TriBeCa-Civic Center-Little Italy"
"1001960013","Yes","1","196","13","1","4","O2","268","CANAL STREET","10013","Manhattan","26,000","40.718834","-74.001111","101","1","31","1002344","SoHo-TriBeCa-Civic Center-Little Italy"
"1001960021","No","1","196","21","1","4","O5","254","CANAL STREET","10013","Manhattan","42,500","40.718546","-74.000707","101","1","31","1002347","SoHo-TriBeCa-Civic Center-Little Italy"
"1001960022","No","1","196","22","1","4","O6","92","WALKER STREET","10013","Manhattan","36,894","40.71803","-74.001183","101","1","31","1002348","SoHo-TriBeCa-Civic Center-Little Italy"
"1001960024","No","1","196","24","1","4","HR","88","WALKER STREET","10013","Manhattan","27,888","40.718096","-74.001331","101","1","31","1000000","SoHo-TriBeCa-Civic Center-Little Italy"
"1001970007","No","1","197","7","1","4","O6","101","LAFAYETTE STREET","10013","Manhattan","56,700","40.717783","-74.001111","101","1","31","1002356","SoHo-TriBeCa-Civic Center-Little Italy"
"1001977502","Yes","1","197","7502","1","2","R0","139","CENTRE STREET","0","Manhattan","127,879","40.717217","-74.000602","101","1","31","1002357","SoHo-TriBeCa-Civic Center-Little Italy"
"1001980030","Yes","1","198","30","1","4","O6","224","CANAL STREET","10013","Manhattan","28,222","40.717613","-73.999416","101","1","29","1002366","Chinatown"
"1001997501","No","1","199","7501","1","2","R0","210","CANAL STREET","10013","Manhattan","43,326","40.717247","-73.99917","103","1","29","1085449","Chinatown"
"1002007501","Yes","1","200","7501","1","2","R0","198","CANAL STREET","10013","Manhattan","32,567","40.716989","-73.998297","103","1","29","1080816","Chinatown"
"1002007502","No","1","200","7502","1","2","R0","202","CANAL STREET","10013","Manhattan","50,089","40.717031","-73.998413","103","1","29","1082488","Chinatown"
"1002010004","Yes","1","201","4","1","4","P5","60","MOTT STREET","10013","Manhattan","49,638","40.716001","-73.998254","103","1","29","1002403","Chinatown"
"1002010018","Yes","1","201","18","1","4","O5","164","CANAL STREET","10013","Manhattan","39,224","40.716575","-73.997107","103","1","29","1002414","Chinatown"
"1002020023","No","1","202","23","2","4","H9","50","BOWERY","10013","Manhattan","141,052","40.715763","-73.996378","103","1","29","1002429","Chinatown"
"1002020025","Yes","1","202","25","1","4","K4","46","BOWERY","10013","Manhattan","47,500","40.715697","-73.996414","103","1","29","1002430","Chinatown"
"1002027501","No","1","202","7501","1","2","R0","50","BAYARD STREET","0","Manhattan","235,963","40.715258","-73.997414","103","1","29","1002434","Chinatown"
"1002030002","No","1","203","2","1","4","O5","38","ELIZABETH STREET","10013","Manhattan","30,000","40.716751","-73.996844","102","1","41","1002602","SoHo-TriBeCa-Civic Center-Little Italy"
"1002030005","No","1","203","5","1","4","G1","44","ELIZABETH STREET","10013","Manhattan","28,875","40.716907","-73.996746","102","1","41","1002604","SoHo-TriBeCa-Civic Center-Little Italy"
"1002030017","No","1","203","17","1","4","HR","140","HESTER STREET","10013","Manhattan","31,000","40.717322","-73.99557","102","1","41","1002606","SoHo-TriBeCa-Civic Center-Little Italy"
"1002030021","Yes","1","203","21","1","4","O5","80","BOWERY","10013","Manhattan","28,866","40.716935","-73.995646","102","1","41","1002609","SoHo-TriBeCa-Civic Center-Little Italy"
"1002030026","Yes","1","203","26","1","4","O5","70","BOWERY","10013","Manhattan","28,500","40.716528","-73.995891","102","1","41","1002613","SoHo-TriBeCa-Civic Center-Little Italy"
"1002030031","Yes","1","203","31","1","4","K4","64","BOWERY","10013","Manhattan","27,109","40.716355","-73.995996","102","1","41","1002614","SoHo-TriBeCa-Civic Center-Little Italy"
"1002040001","Yes","1","204","1","1","4","O5","94","MOTT STREET","10013","Manhattan","42,000","40.717138","-73.997551","102","1","41","1002615","SoHo-TriBeCa-Civic Center-Little Italy"
"1002040022","Yes","1","204","22","1","4","K4","49","ELIZABETH STREET","10013","Manhattan","25,200","40.717009","-73.996706","102","1","41","1002620","SoHo-TriBeCa-Civic Center-Little Italy"
"1002040024","Yes","1","204","24","1","4","O6","41","ELIZABETH STREET","10013","Manhattan","45,700","40.716833","-73.996815","102","1","41","1002621","SoHo-TriBeCa-Civic Center-Little Italy"
"1002047501","No","1","204","7501","1","2","R0","158","HESTER STREET","0","Manhattan","99,025","40.717711","-73.996681","102","1","41","1087278","SoHo-TriBeCa-Civic Center-Little Italy"
"1002047502","Yes","1","204","7502","1","2","R0","53","ELIZABETH STREET","10013","Manhattan","28,505","40.717094","-73.996652","102","1","41","1002619","SoHo-TriBeCa-Civic Center-Little Italy"
"1002050008","No","1","205","8","1","2","D7","114","MULBERRY STREET","10013","Manhattan","28,474","40.717626","-73.99825","102","1","41","1090225","SoHo-TriBeCa-Civic Center-Little Italy"
"1002050030","No","1","205","30","1","4","O2","185","CANAL STREET","10013","Manhattan","33,000","40.716863","-73.997882","102","1","41","1002645","SoHo-TriBeCa-Civic Center-Little Italy"
"1002057501","Yes","1","205","7501","1","2","R0","103","MOTT STREET","0","Manhattan","33,015","40.717319","-73.99746","102","1","41","1082936","SoHo-TriBeCa-Civic Center-Little Italy"
"1002060024","No","1","206","24","1","2","D7","109","MULBERRY STREET","10013","Manhattan","26,697","40.717527","-73.998337","102","1","41","1002657","SoHo-TriBeCa-Civic Center-Little Italy"
"1002067501","Yes","1","206","7501","1","2","R0","123","BAXTER STREET","10013","Manhattan","62,567","40.718161","-73.998918","102","1","41","1086548","SoHo-TriBeCa-Civic Center-Little Italy"
"1002070001","Yes","1","207","1","1","4","O5","235","CANAL STREET","10013","Manhattan","43,942","40.717912","-73.999794","102","1","41","1002663","SoHo-TriBeCa-Civic Center-Little Italy"
"1002070017","Yes","1","207","17","1","4","O6","118","BAXTER STREET","10013","Manhattan","40,500","40.717914","-73.999095","102","1","41","1002669","SoHo-TriBeCa-Civic Center-Little Italy"
"1002070020","Yes","1","207","20","1","4","O5","114","BAXTER STREET","10013","Manhattan","33,000","40.717802","-73.999167","102","1","41","1002670","SoHo-TriBeCa-Civic Center-Little Italy"
"1002080019","No","1","208","19","1","4","O5","239","CANAL STREET","10013","Manhattan","42,544","40.718087","-74.000036","102","1","45","1002675","SoHo-TriBeCa-Civic Center-Little Italy"
"1002087501","Yes","1","208","7501","1","2","R0","129","LAFAYETTE STREET","0","Manhattan","75,528","40.718897","-74.000094","102","1","45","1002673","SoHo-TriBeCa-Civic Center-Little Italy"
"1002090001","Yes","1","209","1","1","4","K4","277","CANAL STREET","10013","Manhattan","29,343","40.719141","-74.001508","102","1","45","1002678","SoHo-TriBeCa-Civic Center-Little Italy"
"1002090005","No","1","209","5","1","4","O5","428","BROADWAY","10013","Manhattan","42,000","40.719753","-74.001569","102","1","45","1002680","SoHo-TriBeCa-Civic Center-Little Italy"
"1002090019","Yes","1","209","19","1","4","HB","138","LAFAYETTE STREET","10013","Manhattan","112,900","40.719084","-73.999953","102","1","45","1002687","SoHo-TriBeCa-Civic Center-Little Italy"
"1002090028","Yes","1","209","28","1","4","O5","261","CANAL STREET","10013","Manhattan","103,047","40.718721","-74.000924","102","1","45","1002692","SoHo-TriBeCa-Civic Center-Little Italy"
"1002090034","Yes","1","209","34","1","4","O5","273","CANAL STREET","10013","Manhattan","29,956","40.719048","-74.001374","102","1","45","1002695","SoHo-TriBeCa-Civic Center-Little Italy"
"1002097501","Yes","1","209","7501","1","2","R0","42426","BROADWAY","0","Manhattan","26,000",,,,,,,
"1002100026","No","1","210","26","1","2","D4","45","LISPENARD STREET","10013","Manhattan","37,400","40.719718","-74.003232","101","1","33","1002719","SoHo-TriBeCa-Civic Center-Little Italy"
"1002107501","No","1","210","7501","1","2","R0","332","CANAL STREET","10013","Manhattan","37,099","40.720245","-74.003092","101","1","33","1002709","SoHo-TriBeCa-Civic Center-Little Italy"
"1002110018","No","1","211","18","1","4","O5","285","WEST BROADWAY","10013","Manhattan","29,706","40.721054","-74.004859","101","1","33","1002728","SoHo-TriBeCa-Civic Center-Little Italy"
"1002110029","Yes","1","211","29","1","4","H1","370","CANAL STREET","10013","Manhattan","160,545","40.721","-74.004152","101","1","33","1088921","SoHo-TriBeCa-Civic Center-Little Italy"
"1002120018","No","1","212","18","1","4","O6","52","VARICK STREET","10013","Manhattan","117,291","40.721222","-74.006548","101","1","33","1002735","SoHo-TriBeCa-Civic Center-Little Italy"
"1002120045","No","1","212","45","1","4","H3","2","YORK STREET","10013","Manhattan","65,283","40.721068","-74.005758","101","1","33","1002738","SoHo-TriBeCa-Civic Center-Little Italy"
"1002127501","Yes","1","212","7501","1","2","R0","260","WEST BROADWAY","10013","Manhattan","142,000","40.720404","-74.00544","101","1","33","1002740","SoHo-TriBeCa-Civic Center-Little Italy"
"1002127503","No","1","212","7503","1","2","R0","1","YORK STREET","10013","Manhattan","90,918","40.721085","-74.005754","101","1","33","1002736","SoHo-TriBeCa-Civic Center-Little Italy"
"1002127504","No","1","212","7504","1","2","R0","50","VARICK STREET","10013","Manhattan","278,746","40.72117","-74.006559","101","1","33","1002734","SoHo-TriBeCa-Civic Center-Little Italy"
"1002127505","No","1","212","7505","1","2","R0","11","BEACH STREET","10013","Manhattan","113,714","40.720382","-74.006039","101","1","33","1002733","SoHo-TriBeCa-Civic Center-Little Italy"
"1002140001","No","1","214","1","1","4","W1","53","BEACH STREET","10013","Manhattan","30,000","40.720706","-74.009419","101","1","39","1002795","SoHo-TriBeCa-Civic Center-Little Italy"
"1002147502","Yes","1","214","7502","1","2","R0","145","HUDSON STREET","10013","Manhattan","136,472","40.721073","-74.008398","101","1","39","1002803","SoHo-TriBeCa-Civic Center-Little Italy"
"1002147503","Yes","1","214","7503","1","2","R0","7","HUBERT STREET","10013","Manhattan","109,382","40.721367","-74.008911","101","1","39","1086551","SoHo-TriBeCa-Civic Center-Little Italy"
"1002147504","No","1","214","7504","1","2","R0","407","GREENWICH STREET","10013","Manhattan","50,770","40.721142","-74.009975","101","1","39","1002799","SoHo-TriBeCa-Civic Center-Little Italy"
"1002157501","Yes","1","215","7501","1","2","R0","153","HUDSON STREET","0","Manhattan","29,453","40.721496","-74.008326","101","1","39","1002810","SoHo-TriBeCa-Civic Center-Little Italy"
"1002157502","Yes","1","215","7502","1","2","R0","161","HUDSON STREET","10013","Manhattan","58,015","40.721798","-74.008272","101","1","39","1086556","SoHo-TriBeCa-Civic Center-Little Italy"
"1002157504","Yes","1","215","7504","1","2","R0","415","GREENWICH STREET","0","Manhattan","177,414","40.721562","-74.009885","101","1","39","1002807","SoHo-TriBeCa-Civic Center-Little Italy"
"1002157505","Yes","1","215","7505","1","2","R0","157","HUDSON STREET","0","Manhattan","64,471","40.721647","-74.008298","101","1","39","1088445","SoHo-TriBeCa-Civic Center-Little Italy"
"1002160001","No","1","216","1","1","4","O9","388","GREENWICH STREET","10013","Manhattan","1,594,289","40.720659","-74.010098","101","1","39","1082816","SoHo-TriBeCa-Civic Center-Little Italy"
"1002177501","Yes","1","217","7501","1","2","R0","79","LAIGHT STREET","10013","Manhattan","100,984","40.72221","-74.010722","101","1","39","1002815","SoHo-TriBeCa-Civic Center-Little Italy"
"1002177502","Yes","1","217","7502","1","2","R0","408","GREENWICH STREET","0","Manhattan","37,672","40.721565","-74.009907","101","1","39","1087757","SoHo-TriBeCa-Civic Center-Little Italy"
"1002177503","No","1","217","7503","1","2","R0","250","WEST STREET","10013","Manhattan","313,991","40.721704","-74.011317","101","1","39","1002814","SoHo-TriBeCa-Civic Center-Little Italy"
"1002177504","Yes","1","217","7504","1","2","R0","71","LAIGHT STREET","10013","Manhattan","114,622","40.722155","-74.010166","101","1","39","1090481","SoHo-TriBeCa-Civic Center-Little Italy"
"1002180002","Yes","1","218","2","1","2C","D4","74","LAIGHT STREET","10013","Manhattan","28,016","40.722188","-74.010329","101","1","39","1002822","SoHo-TriBeCa-Civic Center-Little Italy"
"1002180008","Yes","1","218","8","1","2C","D4","434","GREENWICH STREET","10013","Manhattan","27,743","40.72261","-74.009697","101","1","39","1082621","SoHo-TriBeCa-Civic Center-Little Italy"
"1002180024","Yes","1","218","24","1","2","D5","260","WEST STREET","10013","Manhattan","61,250","40.722728","-74.011646","101","1","39","1002831","SoHo-TriBeCa-Civic Center-Little Italy"
"1002187501","No","1","218","7501","1","2","R0","92","LAIGHT STREET","0","Manhattan","194,486","40.722275","-74.011195","101","1","39","1002832","SoHo-TriBeCa-Civic Center-Little Italy"
"1002187504","No","1","218","7504","1","2","R0","415","WASHINGTON STREET","10013","Manhattan","55,649","40.722377","-74.01052","101","1","39","1088611","SoHo-TriBeCa-Civic Center-Little Italy"
"1002190004","Yes","1","219","4","1","4","O2","54","LAIGHT STREET","10013","Manhattan","29,500","40.722053","-74.008933","101","1","39","1002834","SoHo-TriBeCa-Civic Center-Little Italy"
"1002190026","Yes","1","219","26","1","2","D0","165","HUDSON STREET","10013","Manhattan","30,000","40.72207","-74.008225","101","1","39","1002845","SoHo-TriBeCa-Civic Center-Little Italy"
"1002197501","Yes","1","219","7501","1","2","R0","429","GREENWICH STREET","0","Manhattan","103,279","40.722221","-74.009741","101","1","39","1002836","SoHo-TriBeCa-Civic Center-Little Italy"
"1002197504","Yes","1","219","7504","1","2","R0","169","HUDSON STREET","0","Manhattan","67,144","40.722201","-74.008204","101","1","39","1002844","SoHo-TriBeCa-Civic Center-Little Italy"
"1002197505","No","1","219","7505","1","2","R0","31","VESTRY STREET","10013","Manhattan","34,665","40.722665","-74.008565","101","1","39","1088677","SoHo-TriBeCa-Civic Center-Little Italy"
"1002200026","Yes","1","220","26","1","2C","D0","34","LAIGHT STREET","10013","Manhattan","25,300","40.7219","-74.007461","101","1","33","1002846","SoHo-TriBeCa-Civic Center-Little Italy"
"1002200027","No","1","220","27","1","2","D1","36","LAIGHT STREET","10013","Manhattan","26,712","40.721908","-74.007547","101","1","33","1002847","SoHo-TriBeCa-Civic Center-Little Italy"
"1002200031","Yes","1","220","31","1","4","O5","174","HUDSON STREET","10013","Manhattan","51,750","40.722374","-74.00815","101","1","33","1002850","SoHo-TriBeCa-Civic Center-Little Italy"
"1002207502","Yes","1","220","7502","4","2","R0","28","LAIGHT STREET","0","Manhattan","101,560","40.721858","-74.007082","101","1","33","1066500","SoHo-TriBeCa-Civic Center-Little Italy"
"1002207503","Yes","1","220","7503","1","2","R0","38","LAIGHT STREET","10013","Manhattan","61,717","40.721916","-74.007634","101","1","33","1086557","SoHo-TriBeCa-Civic Center-Little Italy"
"1002227501","Yes","1","222","7501","1","2","R0","28","VESTRY STREET","0","Manhattan","61,433","40.72266","-74.008348","101","1","39","1002859","SoHo-TriBeCa-Civic Center-Little Italy"
"1002227502","Yes","1","222","7502","1","2","R0","195","HUDSON STREET","0","Manhattan","88,496","40.723083","-74.008034","101","1","39","1002857","SoHo-TriBeCa-Civic Center-Little Italy"
"1002227503","Yes","1","222","7503","1","2","R0","443","GREENWICH STREET","10013","Manhattan","261,896","40.722882","-74.009625","101","1","39","1002856","SoHo-TriBeCa-Civic Center-Little Italy"
"1002230013","No","1","223","13","1","2","D7","440","WASHINGTON STREET","10013","Manhattan","51,979","40.723417","-74.010369","101","1","39","1090674","SoHo-TriBeCa-Civic Center-Little Italy"
"1002230021","Yes","1","223","21","1","2C","D0","427","WASHINGTON STREET","10013","Manhattan","44,400","40.722945","-74.010296","101","1","39","1002902","SoHo-TriBeCa-Civic Center-Little Italy"
"1002237502","No","1","223","7502","1","2","R0","70","VESTRY STREET","10013","Manhattan","225,029","40.722931","-74.011043","101","1","39","1090656","SoHo-TriBeCa-Civic Center-Little Italy"
"1002240024","No","1","224","24","1","2C","D0","451","WASHINGTON STREET","10013","Manhattan","29,600","40.723917","-74.01026","101","1","39","1002921","SoHo-TriBeCa-Civic Center-Little Italy"
"1002257501","Yes","1","225","7501","1","2","R0","455","GREENWICH STREET","10013","Manhattan","82,548","40.723486","-74.009514","101","1","39","1002929","SoHo-TriBeCa-Civic Center-Little Italy"
"1002257502","No","1","225","7502","1","2","R0","16","DESBROSSES STREET","0","Manhattan","27,798","40.723387","-74.008972","101","1","39","1088434","SoHo-TriBeCa-Civic Center-Little Italy"
"1002270028","No","1","227","28","1","4","HB","306","WEST BROADWAY","10013","Manhattan","189,986","40.721634","-74.004412","102","1","47","1087764","SoHo-TriBeCa-Civic Center-Little Italy"
"1002270052","Yes","1","227","52","1","4","HB","27","GRAND STREET","10013","Manhattan","55,479","40.722827","-74.004726","102","1","47","1088405","SoHo-TriBeCa-Civic Center-Little Italy"
"1002287502","Yes","1","228","7502","2","2","R0","311","WEST BROADWAY","0","Manhattan","170,548","40.72173","-74.004308","102","1","47","1087488","SoHo-TriBeCa-Civic Center-Little Italy"
"1002287503","No","1","228","7503","1","2","R0","27","WOOSTER STREET","10013","Manhattan","47,904","40.722045","-74.003312","102","1","47","1089842","SoHo-TriBeCa-Civic Center-Little Italy"
"1002290001","No","1","229","1","1","2","D7","335","CANAL STREET","10013","Manhattan","78,292","40.720409","-74.00329","102","1","47","1090692","SoHo-TriBeCa-Civic Center-Little Italy"
"1002290005","Yes","1","229","5","1","4","G1","349","CANAL STREET","10013","Manhattan","38,308","40.720692","-74.003683","102","1","47","1002969","SoHo-TriBeCa-Civic Center-Little Italy"
"1002290013","Yes","1","229","13","1","2C","D0","14","WOOSTER STREET","10013","Manhattan","27,359","40.721362","-74.003489","102","1","47","1002972","SoHo-TriBeCa-Civic Center-Little Italy"
"1002290020","Yes","1","229","20","1","2","D4","71","GRAND STREET","10013","Manhattan","42,240","40.721933","-74.002864","102","1","47","1077454","SoHo-TriBeCa-Civic Center-Little Italy"
"1002300009","Yes","1","230","9","1","2","D5","329","CANAL STREET","10013","Manhattan","33,374","40.720245","-74.003063","102","1","47","1002986","SoHo-TriBeCa-Civic Center-Little Italy"
"1002300020","Yes","1","230","20","1","4","K4","28","GREENE STREET","10013","Manhattan","25,750","40.721225","-74.002533","102","1","47","1002991","SoHo-TriBeCa-Civic Center-Little Italy"
"1002300031","Yes","1","230","31","1","2","D4","31","MERCER STREET","10013","Manhattan","30,000","40.720991","-74.001681","102","1","47","1002998","SoHo-TriBeCa-Civic Center-Little Italy"
"1002300042","No","1","230","42","1","2B","C7","5","MERCER STREET","10013","Manhattan","25,460","40.72028","-74.002287","102","1","47","1003003","SoHo-TriBeCa-Civic Center-Little Italy"
"1002307503","Yes","1","230","7503","1","2","R0","20","GREENE STREET","0","Manhattan","41,871","40.721019","-74.002706","102","1","47","1002990","SoHo-TriBeCa-Civic Center-Little Italy"
"1002307507","Yes","1","230","7507","1","2","R0","32","GREENE STREET","10013","Manhattan","28,408","40.721326","-74.002446","102","1","47","1088479","SoHo-TriBeCa-Civic Center-Little Italy"
"1002310014","Yes","1","231","14","1","4","O3","433","BROADWAY","10013","Manhattan","46,217","40.720077","-74.00132","102","1","47","1090587","SoHo-TriBeCa-Civic Center-Little Italy"
"1002310026","Yes","1","231","26","1","4","O6","107","GRAND STREET","10013","Manhattan","66,532","40.721183","-74.001335","102","1","47","1003017","SoHo-TriBeCa-Civic Center-Little Italy"
"1002440019","No","1","244","19","1","2","D4","605","WATER STREET","10002","Manhattan","124,600","40.711249","-73.98445","103","1","202","1003141","Lower East Side"
"1002310030","No","1","231","30","1","4","O5","459","BROADWAY","10013","Manhattan","29,415","40.720665","-74.000823","102","1","47","1003018","SoHo-TriBeCa-Civic Center-Little Italy"
"1002310032","Yes","1","231","32","1","4","O5","455","BROADWAY","10013","Manhattan","27,336","40.720574","-74.000898","102","1","47","1003019","SoHo-TriBeCa-Civic Center-Little Italy"
"1002310035","No","1","231","35","1","4","O5","451","BROADWAY","10013","Manhattan","60,000","40.720484","-74.000974","102","1","47","1003020","SoHo-TriBeCa-Civic Center-Little Italy"
"1002310036","Yes","1","231","36","1","4","O5","449","BROADWAY","10013","Manhattan","29,000","40.720437","-74.001014","102","1","47","1003021","SoHo-TriBeCa-Civic Center-Little Italy"
"1002317501","No","1","231","7501","1","2","R0","443","BROADWAY","0","Manhattan","61,544","40.720302","-74.001129","102","1","47","1003023","SoHo-TriBeCa-Civic Center-Little Italy"
"1002320001","Yes","1","232","1","1","4","O6","434","BROADWAY","10013","Manhattan","52,065","40.720069","-74.001302","102","1","45","1003025","SoHo-TriBeCa-Civic Center-Little Italy"
"1002320005","Yes","1","232","5","1","4","O5","444","BROADWAY","10013","Manhattan","34,000","40.720311","-74.001097","102","1","45","1003028","SoHo-TriBeCa-Civic Center-Little Italy"
"1002320006","Yes","1","232","6","1","4","O5","446","BROADWAY","10013","Manhattan","27,000","40.72036","-74.001053","102","1","45","1003029","SoHo-TriBeCa-Civic Center-Little Italy"
"1002320009","Yes","1","232","9","1","2","D4","452","BROADWAY","10013","Manhattan","42,111","40.720506","-74.000931","102","1","45","1003031","SoHo-TriBeCa-Civic Center-Little Italy"
"1002320012","No","1","232","12","1","2C","D0","458","BROADWAY","10013","Manhattan","29,370","40.720651","-74.000808","102","1","45","1003034","SoHo-TriBeCa-Civic Center-Little Italy"
"1002320021","No","1","232","21","1","4","O5","32","HOWARD STREET","10013","Manhattan","30,034","40.719663","-74.00083","102","1","45","1003038","SoHo-TriBeCa-Civic Center-Little Italy"
"1002330002","No","1","233","2","1","4","H1","9","CROSBY STREET","10013","Manhattan","121,165","40.719904","-74.000307","102","1","45","1088790","SoHo-TriBeCa-Civic Center-Little Italy"
"1002330004","Yes","1","233","4","1","4","O5","13","CROSBY STREET","10013","Manhattan","38,000","40.720017","-74.000209","102","1","45","1003041","SoHo-TriBeCa-Civic Center-Little Italy"
"1002330017","No","1","233","17","1","4","O5","151","GRAND STREET","10013","Manhattan","26,388","40.720094","-73.999188","102","1","45","1003049","SoHo-TriBeCa-Civic Center-Little Italy"
"1002330026","Yes","1","233","26","1","4","O6","148","LAFAYETTE STREET","10013","Manhattan","129,135","40.719526","-73.999553","102","1","45","1003051","SoHo-TriBeCa-Civic Center-Little Italy"
"1002330030","No","1","233","30","1","4","O5","22","HOWARD STREET","10013","Manhattan","53,200","40.719421","-74.000317","102","1","45","1003052","SoHo-TriBeCa-Civic Center-Little Italy"
"1002340017","No","1","234","17","1","4","O5","211","CENTRE STREET","10013","Manhattan","46,700","40.71927","-73.998957","102","1","45","1003058","SoHo-TriBeCa-Civic Center-Little Italy"
"1002347501","Yes","1","234","7501","1","2","R0","161","GRAND STREET","10013","Manhattan","49,719","40.719852","-73.998683","102","1","45","1003056","SoHo-TriBeCa-Civic Center-Little Italy"
"1002350001","Yes","1","235","1","1","4","O5","202","CENTRE STREET","10013","Manhattan","39,000","40.71904","-73.99912","102","1","41","1003059","SoHo-TriBeCa-Civic Center-Little Italy"
"1002350013","Yes","1","235","13","1","4","O5","165","GRAND STREET","10013","Manhattan","44,034","40.719748","-73.99846","102","1","41","1003065","SoHo-TriBeCa-Civic Center-Little Italy"
"1002357501","Yes","1","235","7501","1","2","R0","136","BAXTER STREET","0","Manhattan","33,496","40.718606","-73.998658","102","1","41","1087870","SoHo-TriBeCa-Civic Center-Little Italy"
"1002367501","Yes","1","236","7501","1","2","R0","173","GRAND STREET","0","Manhattan","40,413","40.719534","-73.997947","102","1","41","1003071","SoHo-TriBeCa-Civic Center-Little Italy"
"1002367502","No","1","236","7502","1","2","R0","145","MULBERRY STREET","10013","Manhattan","33,671","40.718831","-73.997551","102","1","41","1003078","SoHo-TriBeCa-Civic Center-Little Italy"
"1002367503","No","1","236","7503","1","2","R0","133","MULBERRY STREET","10013","Manhattan","49,633","40.718455","-73.99776","102","1","41","1003081","SoHo-TriBeCa-Civic Center-Little Italy"
"1002370014","Yes","1","237","14","1","4","O6","197","GRAND STREET","10013","Manhattan","39,500","40.71918","-73.996894","102","1","41","1003090","SoHo-TriBeCa-Civic Center-Little Italy"
"1002370017","Yes","1","237","17","1","2","C7","203","GRAND STREET","10013","Manhattan","25,500","40.719081","-73.996605","102","1","41","1003091","SoHo-TriBeCa-Civic Center-Little Italy"
"1002377501","Yes","1","237","7501","1","2","R0","132","MULBERRY STREET","0","Manhattan","60,508","40.718392","-73.997774","102","1","41","1066508","SoHo-TriBeCa-Civic Center-Little Italy"
"1002380003","Yes","1","238","3","1","4","O5","122","MOTT STREET","10013","Manhattan","34,500","40.718197","-73.996887","102","1","41","1003099","SoHo-TriBeCa-Civic Center-Little Italy"
"1002387501","No","1","238","7501","1","2","R0","128","MOTT STREET","0","Manhattan","92,559","40.718362","-73.996793","102","1","41","1087662","SoHo-TriBeCa-Civic Center-Little Italy"
"1002387502","Yes","1","238","7502","1","2","R0","217","GRAND STREET","0","Manhattan","47,551","40.718856","-73.995956","102","1","41","1087663","SoHo-TriBeCa-Civic Center-Little Italy"
"1002390012","No","1","239","12","1","2","C7","92","ELIZABETH STREET","10013","Manhattan","39,100","40.718296","-73.995906","102","1","41","1003120","SoHo-TriBeCa-Civic Center-Little Italy"
"1002390020","Yes","1","239","20","1","4","H9","116","BOWERY","10013","Manhattan","48,911","40.718128","-73.994993","102","1","41","1003125","SoHo-TriBeCa-Civic Center-Little Italy"
"1002390038","Yes","1","239","38","1","4","K4","90","BOWERY","10013","Manhattan","33,890","40.717459","-73.995346","102","1","41","1003136","SoHo-TriBeCa-Civic Center-Little Italy"
"1002397501","Yes","1","239","7501","1","2","R0","80","ELIZABETH STREET","0","Manhattan","113,956","40.718046","-73.996035","102","1","41","1003115","SoHo-TriBeCa-Civic Center-Little Italy"
"1002430050","Yes","1","243","50","1","4","I1","322","FDR DRIVE","10002","Manhattan","42,121","40.710771","-73.98397","103","1","202","1003139","Lower East Side"
"1002430056","No","1","243","56","2","2","D4","645","WATER STREET","10002","Manhattan","251,500","40.711383","-73.98265","103","1","202","1077586","Lower East Side"
"1002430080","No","1","243","80","1","4","I1","71","JACKSON STREET","10002","Manhattan","44,095","40.711397","-73.980623","103","1","202","1003140","Lower East Side"
"1002440040","No","1","244","40","1","4","I9","621","WATER STREET","10002","Manhattan","60,417","40.711307","-73.983761","103","1","202","1078940","Lower East Side"
"1002450001","No","1","245","1","1","2","D6","286","SOUTH STREET","10002","Manhattan","277,260","40.710478","-73.986571","103","1","201","1003142","Lower East Side"
"1002460001","Yes","1","246","1","1","2","D6","275","SOUTH STREET","10002","Manhattan","262,875","40.710357","-73.98761","103","1","6","1003144","Lower East Side"
"1002470001","Yes","1","247","1","2","2","D6","265","CHERRY STREET","10002","Manhattan","327,796","40.711302","-73.989049","103","1","6","1077589","Lower East Side"
"1002480015","Yes","1","248","15","2","2","D9","82","RUTGERS SLIP","10002","Manhattan","260,000","40.710591","-73.989864","103","1","6","1085945","Lower East Side"
"1002480070","Yes","1","248","70","1","2","D9","80","RUTGERS SLIP","10002","Manhattan","83,904","40.710632","-73.989871","103","1","6","1084418","Lower East Side"
"1002487501","No","1","248","7501","2","2","R0","225","CHERRY STREET","10002","Manhattan","1,451,246","40.711055","-73.990939","103","1","6","1089772","Lower East Side"
"1002500001","No","1","250","1","1","4","E7","220","SOUTH STREET","10002","Manhattan","274,752","40.709452","-73.99433","103","1","8","1003205","Chinatown"
"1002530001","No","1","253","1","1","2","D6","100","CHERRY STREET","10002","Manhattan","1,396,625","40.710251","-73.996166","103","1","8","1077585","Chinatown"
"1002550001","No","1","255","1","5","2","D6","45","PIKE STREET","10002","Manhattan","644,053","40.712301","-73.992371","103","1","6","1077508","Lower East Side"
"1002560001","Yes","1","256","1","5","2","D6","300","CHERRY STREET","10002","Manhattan","527,043","40.711458","-73.987639","103","1","6","1077517","Lower East Side"
"1002560014","No","1","256","14","1","2","D9","272","CHERRY STREET","10002","Manhattan","101,786","40.711357","-73.988674","103","1","6",,"Lower East Side"
"1002580001","No","1","258","1","1","2","D3","318","CHERRY STREET","10002","Manhattan","431,685","40.711565","-73.986546","103","1","201",,"Lower East Side"
"1002590001","No","1","259","1","1","2","D4","604","WATER STREET","10002","Manhattan","126,150","40.71126","-73.984533","103","1","202","1003212","Lower East Side"
"1002590071","Yes","1","259","71","1","2","D4","35","MONTGOMERY STREET","10002","Manhattan","287,175","40.713053","-73.985045","103","1","202","1003215","Lower East Side"
"1002600001","No","1","260","1","10","2","D9","636","WATER STREET","10002","Manhattan","513,000","40.711397","-73.98265","103","2","202","1077528","Lower East Side"
"1002600075","Yes","1","260","75","1","2","D3","668","WATER STREET","10002","Manhattan","382,500","40.711477","-73.98155","103","2","202","1083388","Lower East Side"
"1002630001","Yes","1","263","1","4","2","D3","14","JACKSON STREET","10002","Manhattan","158,000","40.713516","-73.980839","103","2","202","1083396","Lower East Side"
"1002630008","Yes","1","263","8","1","2","D4","453","FDR DRIVE","10002","Manhattan","923,000","40.712862","-73.977798","103","2","202","1083400","Lower East Side"
"1002660065","Yes","1","266","65","1","4","K4","549","GRAND STREET","10002","Manhattan","41,733","40.714155","-73.980593","103","2","202","1003219","Lower East Side"
"1002670001","No","1","267","1","1","2","D4","305","MADISON STREET","10002","Manhattan","136,070","40.713129","-73.984637","103","1","202","1083402","Lower East Side"
"1002670010","Yes","1","267","10","1","4","K1","280","HENRY STREET","10002","Manhattan","25,127","40.71395","-73.983537","103","2","202","1003220","Lower East Side"
"1002670037","Yes","1","267","37","1","2","D9","371","MADISON STREET","10002","Manhattan","101,579","40.713414","-73.982126","103","2","202","1003221","Lower East Side"
"1002710057","No","1","271","57","1","4","M1","152","HENRY STREET","10002","Manhattan","37,565","40.713413","-73.989683","103","1","6","1079602","Lower East Side"
"1002747501","Yes","1","274","7501","1","2","R0","48","MARKET STREET","0","Manhattan","32,802","40.711988","-73.994308","103","1","8","1003275","Chinatown"
"1002747502","No","1","274","7502","1","2","R0","148","MADISON STREET","0","Manhattan","74,881","40.712411","-73.992991","103","1","8","1084603","Chinatown"
"1002760059","No","1","276","59","1","4","M1","53","CATHERINE STREET","10038","Manhattan","38,000","40.711601","-73.996826","103","1","8","1003327","Chinatown"
"1002767503","Yes","1","276","7503","1","2","R0","31","MONROE STREET","10002","Manhattan","57,151","40.711538","-73.994968","103","1","8","1088682","Chinatown"
"1002777501","No","1","277","7501","1","2","R0","25","MARKET STREET","0","Manhattan","61,451","40.71285","-73.994449","103","1","8","1077812","Chinatown"
"1002777502","Yes","1","277","7502","1","2","R0","45","HENRY STREET","0","Manhattan","34,098","40.712944","-73.99548","103","1","8","1077209","Chinatown"
"1002797502","No","1","279","7502","1","2","R0","11","EAST BROADWAY","0","Manhattan","58,293","40.713435","-73.997533","103","1","27","1003379","Chinatown"
"1002800052","Yes","1","280","52","1","2","C7","17","CATHERINE STREET","10038","Manhattan","25,701","40.713136","-73.997197","103","1","8","1003429","Chinatown"
"1002807501","Yes","1","280","7501","1","2","R0","17","EAST BROADWAY","10002","Manhattan","30,254","40.713493","-73.996894","103","1","8","1003432","Chinatown"
"1002810001","Yes","1","281","1","1","4","O6","2","EAST BROADWAY","10038","Manhattan","33,234","40.71344","-73.997623","103","1","27","1003481","Chinatown"
"1002810006","Yes","1","281","6","1","4","K4","16","EAST BROADWAY","10002","Manhattan","28,055","40.71352","-73.996775","103","1","8","1003483","Chinatown"
"1002820003","Yes","1","282","3","1","4","K2","75","EAST BROADWAY","10002","Manhattan","35,358","40.713707","-73.99434","103","1","8","1081960","Chinatown"
"1002820023","Yes","1","282","23","1","4","H3","95","HENRY STREET","10002","Manhattan","44,491","40.713149","-73.992984","103","1","8","1088290","Chinatown"
"1002820031","Yes","1","282","31","1","4","H3","91","EAST BROADWAY","10002","Manhattan","38,961","40.713761","-73.993666","103","1","8","1003541","Chinatown"
"1002820058","No","1","282","58","1","4","O6","2","PIKE STREET","10002","Manhattan","92,338","40.714286","-73.992818","103","1","8","1003549","Chinatown"
"1002830018","No","1","283","18","1","4","M1","143","HENRY STREET","10002","Manhattan","81,953","40.71335","-73.990611","103","1","6","1003567","Lower East Side"
"1002830024","Yes","1","283","24","1","2","D7","10","RUTGERS STREET","10002","Manhattan","74,453","40.713797","-73.990174","103","1","6","1086071","Lower East Side"
"1002837502","Yes","1","283","7502","1","2","R0","135","DIVISION STREET","0","Manhattan","25,366","40.714489","-73.991155","103","1","6","1075753","Lower East Side"
"1002837503","Yes","1","283","7503","1","2","R0","136","EAST BROADWAY","10002","Manhattan","35,708","40.713937","-73.991653","103","1","6","1089025","Lower East Side"
"1002840011","Yes","1","284","11","1","2","D7","173","HENRY STREET","10002","Manhattan","33,601","40.713487","-73.988984","103","1","6","1003614","Lower East Side"
"1002847501","Yes","1","284","7501","1","2","R0","155","HENRY STREET","0","Manhattan","25,974","40.713429","-73.989669","103","1","6","1003628","Lower East Side"
"1002847503","Yes","1","284","7503","1","2","R0","173","EAST BROADWAY","0","Manhattan","50,673","40.714099","-73.989611","103","1","6","1003623","Lower East Side"
"1002847504","No","1","284","7504","1","2","R0","183","EAST BROADWAY","10002","Manhattan","34,618","40.714143","-73.989128","103","1","6","1083411","Lower East Side"
"1002850029","Yes","1","285","29","1","4","P5","193","EAST BROADWAY","10002","Manhattan","48,517","40.714192","-73.988551","103","1","6","1003704","Lower East Side"
"1002857501","Yes","1","285","7501","1","2","R0","179","HENRY STREET","10002","Manhattan","81,560","40.713539","-73.98837","103","1","6","1003686","Lower East Side"
"1002927502","Yes","1","292","7502","1","2","R0","86","CANAL STREET","10002","Manhattan","58,291","40.715389","-73.993536","103","1","16","1088640","Chinatown"
"1002940007","No","1","294","7","1","4","HB","60","CANAL STREET","10002","Manhattan","71,380","40.715018","-73.992313","103","1","16","1090784","Chinatown"
"1002947502","Yes","1","294","7502","1","2","R0","2","ALLEN STREET","10002","Manhattan","38,887","40.714406","-73.992793","103","1","16","1088837","Chinatown"
"1002970001","Yes","1","297","1","1","4","J3","8","LUDLOW STREET","10002","Manhattan","40,716","40.715005","-73.990949","103","1","16","1003806","Chinatown"
"1002977503","Yes","1","297","7503","1","2","R0","7","ESSEX STREET","0","Manhattan","31,406","40.714955","-73.990066","103","1","16","1090482","Chinatown"
"1003000008","Yes","1","300","8","1","4","K4","50","ELDRIDGE STREET","10002","Manhattan","32,000","40.716012","-73.993052","103","1","16","1003881","Chinatown"
"1003030015","Yes","1","303","15","1","4","H2","91","BOWERY","10002","Manhattan","48,642","40.717132","-73.995505","103","1","16","1082490","Chinatown"
"1003030025","Yes","1","303","25","1","4","H3","61","CHRYSTIE STREET","10002","Manhattan","40,529","40.716525","-73.994647","103","1","16","1084615","Chinatown"
"1003030027","No","1","303","27","1","4","O5","55","CHRYSTIE STREET","10002","Manhattan","41,872","40.716358","-73.994726","103","1","16","1003915","Chinatown"
"1003037502","No","1","303","7502","1","2","R0","77","BOWERY","10002","Manhattan","44,673","40.716786","-73.995711","103","1","16","1003905","Chinatown"
"1003040021","No","1","304","21","1","2","D7","249","GRAND STREET","10002","Manhattan","26,565","40.718238","-73.994152","103","1","16","1003935","Chinatown"
"1003040035","No","1","304","35","1","2","C7","75","CHRYSTIE STREET","10002","Manhattan","26,965","40.717201","-73.994318","103","1","16","1003945","Chinatown"
"1003070001","Yes","1","307","1","1","2","D3","45","ALLEN STREET","10002","Manhattan","109,269","40.716605","-73.991714","103","1","16","1075792","Chinatown"
"1003070024","Yes","1","307","24","1","4","G9","59","ALLEN STREET","10002","Manhattan","57,807","40.717104","-73.991458","103","1","16","1082491","Chinatown"
"1003080016","Yes","1","308","16","1","4","O5","59","ORCHARD STREET","10002","Manhattan","34,465","40.716822","-73.990909","103","1","16","1003988","Chinatown"
"1003090006","Yes","1","309","6","1","2","D7","54","ORCHARD STREET","10002","Manhattan","33,860","40.716679","-73.99096","103","1","16","1004000","Chinatown"
"1003090022","Yes","1","309","22","1","2","D3","51","LUDLOW STREET","10002","Manhattan","26,300","40.71658","-73.990163","103","1","16","1004016","Chinatown"
"1003097501","Yes","1","309","7501","1","2","R0","48","ORCHARD STREET","0","Manhattan","35,589","40.71647","-73.991068","103","1","16","1003999","Chinatown"
"1003100027","No","1","310","27","1","2","D5","35","ESSEX STREET","10002","Manhattan","26,306","40.716001","-73.989535","103","1","16","1004041","Chinatown"
"1003107503","No","1","310","7503","1","2","R0","55","HESTER STREET","0","Manhattan","27,576","40.715699","-73.99021","103","1","16","1004049","Chinatown"
"1003110013","No","1","311","13","4","2","D4","357","GRAND STREET","10002","Manhattan","1,025,341","40.716662","-73.989041","103","1","1401","1077604","Lower East Side"
"1003150001","No","1","315","1","1","2","D4","409","GRAND STREET","10002","Manhattan","1,054,290","40.716001","-73.986905","103","1","1401","1077606","Lower East Side"
"1003150045","Yes","1","315","45","1","4","N2","228","EAST BROADWAY","10002","Manhattan","44,122","40.714359","-73.986707","103","1","1401","1004054","Lower East Side"
"1003210001","Yes","1","321","1","3","2","D4","570","GRAND STREET","10002","Manhattan","1,231,250","40.713724","-73.979136","103","1","1001","1083419","Lower East Side"
"1003230001","No","1","323","1","17","2","D3","288","DELANCEY STREET","10002","Manhattan","2,948,300","40.715917","-73.97985","103","2","1002","1078038","Lower East Side"
"1003250001","No","1","325","1","1","2","C4","140","BARUCH PLACE","10002","Manhattan","77,910","40.71856","-73.976638","103","2","1002","1077594","Lower East Side"
"1003310001","Yes","1","331","1","1","2","D4","504","GRAND STREET","10002","Manhattan","216,200","40.714672","-73.982328","103","1","12","1004064","Lower East Side"
"1003310065","Yes","1","331","65","1","2","D4","500","GRAND STREET","10002","Manhattan","299,510","40.714746","-73.982606","103","1","12","1004065","Lower East Side"
"1003310120","Yes","1","331","120","2","2","D4","530","GRAND STREET","10002","Manhattan","532,006","40.714413","-73.981437","103","1","12","1076783","Lower East Side"
"1003310200","Yes","1","331","200","1","4","G1","275","DELANCEY STREET","10002","Manhattan","98,862","40.716118","-73.980553","103","1","12","1004067","Lower East Side"
"1003330001","No","1","333","1","4","2","D4","87","DELANCEY STREET","10002","Manhattan","257,218","40.718957","-73.989571","103","1","18","1005288","Chinatown"
"1003360005","No","1","336","5","1","2","D3","15","BIALYSTOKER PLACE","10002","Manhattan","98,052","40.71566","-73.982977","103","1","12","1088884","Lower East Side"
"1003360028","No","1","336","28","1","4","J9","466","GRAND STREET","10002","Manhattan","38,000","40.715155","-73.984045","103","1","12","1004072","Lower East Side"
"1003360029","Yes","1","336","29","1","4","I6","25","BIALYSTOKER PLACE","10002","Manhattan","26,400","40.716063","-73.982768","103","1","12","1004073","Lower East Side"
"1003380001","No","1","338","1","3","2","D6","60","PITT STREET","10002","Manhattan","478,858","40.717872","-73.982702","103","2","2201","1082687","Lower East Side"
"1003410001","No","1","341","1","1","2","D6","460","GRAND STREET","10002","Manhattan","265,181","40.715267","-73.98442","103","1","12","1004075","Lower East Side"
"1003410058","No","1","341","58","3","2","D6","410","GRAND STREET","10002","Manhattan","225,000","40.715916","-73.98657","103","1","1402","1083423","Lower East Side"
"1003410070","Yes","1","341","70","2","2","D4","131","BROOME STREET","10002","Manhattan","231,417","40.71622","-73.983991","103","1","12","1077598","Lower East Side"
"1003410075","Yes","1","341","75","1","2","C7","157","BROOME STREET","10002","Manhattan","27,350","40.716607","-73.985271","103","1","1402","1004077","Lower East Side"
"1003420065","Yes","1","342","65","1","4","W2","142","BROOME STREET","10002","Manhattan","36,694","40.716291","-73.984164","103","1","12","1004079","Lower East Side"
"1003430043","Yes","1","343","43","1","4","I6","80","RIDGE STREET","10002","Manhattan","121,800","40.717771","-73.983795","103","1","12","1086094","Lower East Side"
"1003430050","Yes","1","343","50","1","2","D5","203","RIVINGTON STREET","10002","Manhattan","99,911","40.718465","-73.983077","103","1","12","1004081","Lower East Side"
"1003437501","Yes","1","343","7501","1","2","R0","78","RIDGE STREET","0","Manhattan","56,354","40.717707","-73.983828","103","1","12","1075794","Lower East Side"
"1003440013","Yes","1","344","13","1","2","D1","195","STANTON STREET","10002","Manhattan","47,910","40.719818","-73.983146","103","1","2201","1004094","Lower East Side"
"1003440017","Yes","1","344","17","1","2","D4","129","RIDGE STREET","10002","Manhattan","27,299","40.719401","-73.98298","103","1","2201","1004095","Lower East Side"
"1003447501","No","1","344","7501","1","2","R0","50","CLINTON STREET","10002","Manhattan","44,089","40.71972","-73.984733","103","1","2201","1090182","Lower East Side"
"1003450017","Yes","1","345","17","1","2","D1","331","EAST HOUSTON STREET","10002","Manhattan","57,128","40.721042","-73.982442","103","2","2201","1089961","Lower East Side"
"1003450020","Yes","1","345","20","1","2","D1","155","RIDGE STREET","10002","Manhattan","35,045","40.720334","-73.9825","103","2","2201","1004141","Lower East Side"
"1003450048","No","1","345","48","1","2","D3","115","PITT STREET","10002","Manhattan","170,100","40.719697","-73.981822","103","2","2201","1004151","Lower East Side"
"1003450058","Yes","1","345","58","1","2","D9","133","PITT STREET","10002","Manhattan","98,000","40.720227","-73.981562","103","2","2201","1088482","Lower East Side"
"1003457501","Yes","1","345","7501","1","2","R0","154","ATTORNEY STREET","10002","Manhattan","39,643","40.720392","-73.98342","103","2","2201","1087572","Lower East Side"
"1003457502","No","1","345","7502","1","2","R0","196","STANTON STREET","10002","Manhattan","68,396","40.719807","-73.983048","103","2","2201","1088333","Lower East Side"
"1003460001","No","1","346","1","1","2","D1","50","NORFOLK STREET","10002","Manhattan","137,909","40.717025","-73.988063","103","1","1402","1004154","Lower East Side"
"1003460095","Yes","1","346","95","1","2","C7","384","GRAND STREET","10002","Manhattan","26,377","40.716292","-73.987822","103","1","1402","1004156","Lower East Side"
"1003460175","No","1","346","175","1","2","D7","180","BROOME STREET","10002","Manhattan","378,028","40.716868","-73.986065","103","1","1402","1000000","Lower East Side"
"1003467501","Yes","1","346","7501","1","2","R0","145","CLINTON STREET","10002","Manhattan","280,261","40.71661","-73.986375","103","1","1402","1089660","Lower East Side"
"1003470080","Yes","1","347","80","1","2","D3","150","BROOME STREET","10002","Manhattan","180,090","40.716415","-73.984575","103","1","1402","1004158","Lower East Side"
"1003477501","Yes","1","347","7501","1","2","R0","175","DELANCEY STREET","10002","Manhattan","198,524","40.717466","-73.985004","103","1","1402","1089451","Lower East Side"
"1003480036","Yes","1","348","36","1","4","H3","150","DELANCEY STREET","10002","Manhattan","48,002","40.717969","-73.986458","103","1","1402","1004191","Lower East Side"
"1003480040","No","1","348","40","1","2","D6","90","CLINTON STREET","10002","Manhattan","38,498","40.718528","-73.985343","103","1","1402","1004195","Lower East Side"
"1003480046","Yes","1","348","46","1","4","K4","80","CLINTON STREET","10002","Manhattan","31,314","40.718764","-73.98522","103","1","1402","1004199","Lower East Side"
"1003497503","No","1","349","7503","1","2","R0","150","RIVINGTON STREET","10002","Manhattan","58,031","40.719283","-73.9857","103","1","3001","1090811","Chinatown"
"1003500008","Yes","1","350","8","1","4","I5","180","SUFFOLK STREET","10002","Manhattan","56,500","40.721067","-73.98501","103","2","3001","1004240","Chinatown"
"1003500026","Yes","1","350","26","1","2","D7","19","CLINTON STREET","10002","Manhattan","36,000","40.720738","-73.984224","103","2","3001","1088336","Chinatown"
"1003500069","No","1","350","69","1","2","D1","155","ATTORNEY STREET","10002","Manhattan","31,455","40.720436","-73.98342","103","2","2201","1090484","Lower East Side"
"1003507501","Yes","1","350","7501","1","2","R0","20","CLINTON STREET","0","Manhattan","38,670","40.720732","-73.984202","103","2","2201","1004261","Lower East Side"
"1003507503","No","1","350","7503","1","2","R0","287","EAST HOUSTON STREET","10002","Manhattan","35,966","40.72155","-73.984105","103","2","3001","1004245","Chinatown"
"1003510001","No","1","351","1","2","2","D4","62","ESSEX STREET","10002","Manhattan","188,220","40.717093","-73.988943","103","1","18",,"Chinatown"
"1003527501","No","1","352","7501","1","2","R0","125","DELANCEY STREET","10002","Manhattan","441,570","40.718383","-73.987681","103","1","18","1090554","Chinatown"
"1003530052","Yes","1","353","52","1","2","D6","108","NORFOLK STREET","10002","Manhattan","35,000","40.718954","-73.987056","103","1","1402","1075815","Lower East Side"
"1003530057","No","1","353","57","1","2","C7","131","RIVINGTON STREET","10002","Manhattan","25,650","40.719547","-73.986627","103","1","1402","1004302","Lower East Side"
"1003530069","Yes","1","353","69","1","2","D6","99","SUFFOLK STREET","10002","Manhattan","26,600","40.718729","-73.986227","103","1","1402","1086285","Lower East Side"
"1003537501","Yes","1","353","7501","1","2","R0","103","NORFOLK STREET","0","Manhattan","50,563","40.718822","-73.987147","103","1","18","1087502","Chinatown"
"1003537503","No","1","353","7503","1","2","R0","115","NORFOLK STREET","10002","Manhattan","34,261","40.719143","-73.986984","103","1","18","1088708","Chinatown"
"1003537504","No","1","353","7504","1","2","R0","100","NORFOLK STREET","10002","Manhattan","55,157","40.718776","-73.987147","103","1","1402","1090469","Lower East Side"
"1003540001","No","1","354","1","1","2","D6","140","ESSEX STREET","10002","Manhattan","55,723","40.720291","-73.987298","103","1","3001","1000000","Chinatown"
"1003550054","No","1","355","54","1","2","D6","255","EAST HOUSTON STREET","10002","Manhattan","92,697","40.72186","-73.985126","103","2","3001","1090485","Chinatown"
"1003560001","No","1","356","1","16","2","D3","10","AVENUE D","10009","Manhattan","1,658,649","40.720364","-73.978438","103","2","20","1078045","Lower East Side"
"1003620001","Yes","1","362","1","7","2","D6","134","AVENUE D","10009","Manhattan","458,591","40.724447","-73.975464","103","2","24","1077504","Lower East Side"
"1003620010","No","1","362","10","5","2","D3","132","AVENUE D","10009","Manhattan","380,833","40.72437","-73.975518","103","2","24","1077504","Lower East Side"
"1003670001","Yes","1","367","1","8","2","D3","152","AVENUE D","10009","Manhattan","610,785","40.725076","-73.975009","103","2","24","1077543","Lower East Side"
"1003720016","No","1","372","16","1","2","D1","286","EAST 3 STREET","10009","Manhattan","29,940","40.721415","-73.980003","103","2","2202","1084623","Lower East Side"
"1003720018","Yes","1","372","18","1","2","D1","290","EAST 3 STREET","10009","Manhattan","37,767","40.721393","-73.979953","103","2","2202","1004358","Lower East Side"
"1003720026","Yes","1","372","26","1","2","D3","306","EAST 3 STREET","10009","Manhattan","46,162","40.721308","-73.979751","103","2","2202","1084626","Lower East Side"
"1003720031","Yes","1","372","31","1","2","D9","316","EAST 3 STREET","10009","Manhattan","27,496","40.721253","-73.979624","103","2","2202","1089954","Lower East Side"
"1003720041","Yes","1","372","41","1","2","D7","310","2ND STREET","10009","Manhattan","131,660",,,,,,,
"1003720060","Yes","1","372","60","1","2","D7","280","EAST 2 STREET","10009","Manhattan","80,500","40.720685","-73.980288","103","2","2202","1086167","Lower East Side"
"1003730023","Yes","1","373","23","1","2","D9","340","EAST 4 STREET","10009","Manhattan","27,042","40.721629","-73.978646","103","2","2601","1004389","Lower East Side"
"1003730038","Yes","1","373","38","1","4","N2","25","AVENUE D","10009","Manhattan","38,721","40.720797","-73.978153","103","2","2601","1084874","Lower East Side"
"1003730051","No","1","373","51","1","2","D3","299","EAST 3 STREET","10009","Manhattan","41,244","40.721366","-73.979841","103","2","2601","1087317","Lower East Side"
"1003730064","No","1","373","64","1","4","I5","279","EAST 3 STREET","10009","Manhattan","26,793","40.72147","-73.980093","103","2","2601","1004406","Lower East Side"
"1003740025","Yes","1","374","25","1","2","D1","734","EAST 5 STREET","10009","Manhattan","49,792","40.722288","-73.978318","103","2","2601","1087350","Lower East Side"
"1003740043","Yes","1","374","43","1","2","D1","353","EAST 4 STREET","10009","Manhattan","27,226","40.721481","-73.978246","103","2","2601","1004420","Lower East Side"
"1003750001","Yes","1","375","1","1","2","C9","72","AVENUE C","10009","Manhattan","73,392","40.722947","-73.979674","103","2","2601","1075623","Lower East Side"
"1003750045","Yes","1","375","45","1","2","C9","721","EAST 5 STREET","10009","Manhattan","39,260","40.722713","-73.979281","103","2","2601","1075621","Lower East Side"
"1003757501","Yes","1","375","7501","1","2","R0","71","AVENUE D","0","Manhattan","34,607","40.722298","-73.977052","103","2","2601","1004444","Lower East Side"
"1003760058","Yes","1","376","58","1","2","D3","711","EAST 6 STREET","10009","Manhattan","65,526","40.723369","-73.978931","103","2","2602","1075828","Lower East Side"
"1003767501","No","1","376","7501","1","2","R0","79","AVENUE D","10009","Manhattan","121,049","40.722707","-73.976756","103","2","2602","1090645","Lower East Side"
"1003770026","Yes","1","377","26","1","2","D4","390","EAST 8 STREET","10009","Manhattan","30,018","40.723945","-73.976658","103","2","2602","1004507","Lower East Side"
"1003770030","Yes","1","377","30","1","2","D3","394","EAST 8 STREET","10009","Manhattan","28,906","40.723896","-73.976546","103","2","2602","1084628","Lower East Side"
"1003777502","Yes","1","377","7502","1","2","R0","259","EAST 7 STREET","0","Manhattan","25,115","40.723649","-73.977812","103","2","2602","1087666","Lower East Side"
"1003777503","Yes","1","377","7503","1","2","R0","101","AVENUE D","10009","Manhattan","107,740","40.723308","-73.976323","103","2","2602","1089381","Lower East Side"
"1003780001","No","1","378","1","1","4","Y2","126","AVENUE C","10009","Manhattan","120,040","40.724783","-73.978335","103","2","2602","1075834","Lower East Side"
"1003780010","Yes","1","378","10","1","2","D6","710","EAST 9 STREET","10009","Manhattan","34,728","40.725093","-73.977534","103","2","2602","1004530","Lower East Side"
"1003780017","No","1","378","17","1","2","C1","720","EAST 9 STREET","10009","Manhattan","64,907","40.724958","-73.977217","103","2","2602","1084876","Lower East Side"
"1003787501","Yes","1","378","7501","1","2","R0","399","EAST 8 STREET","10009","Manhattan","25,615","40.723852","-73.976391","103","2","2602","1089859","Lower East Side"
"1003790027","Yes","1","379","27","1","4","E7","436","EAST 10 STREET","10009","Manhattan","92,470","40.725147","-73.975813","103","2","28","1004551","Lower East Side"
"1003790045","Yes","1","379","45","1","2","D0","735","EAST 9 STREET","10009","Manhattan","31,500","40.724708","-73.976582","103","2","28","1004550","Lower East Side"
"1003790053","Yes","1","379","53","1","2","D1","717","EAST 9 STREET","10009","Manhattan","44,876","40.725027","-73.977332","103","2","28","1088945","Lower East Side"
"1003820001","No","1","382","1","2","2","D9","188","AVENUE C","10009","Manhattan","453,600","40.726797","-73.976837","103","2","28","1083146","Lower East Side"
"1003820100","No","1","382","100","6","2","D4","162","AVENUE C","10009","Manhattan","553,660","40.725963","-73.977458","103","2","28","1078025","Lower East Side"
"1003840033","No","1","384","33","1","2","D6","11","AVENUE C","10009","Manhattan","49,974","40.720993","-73.981121","103","2","2202","1000000","Lower East Side"
"1003847503","Yes","1","384","7503","1","2","R0","310","EAST HOUSTON STREET","0","Manhattan","42,752","40.721333","-73.983336","103","2","2202","1087568","Lower East Side"
"1003850005","Yes","1","385","5","1","2","D5","27","AVENUE B","10009","Manhattan","32,225","40.722365","-73.983177","103","2","2202","1004589","Lower East Side"
"1003850014","Yes","1","385","14","1","2","D1","222","EAST 3 STREET","10009","Manhattan","49,923","40.722406","-73.982359","103","2","2202","1004590","Lower East Side"
"1003850019","Yes","1","385","19","1","2","D7","228","EAST 3 STREET","10009","Manhattan","31,025","40.722351","-73.982225","103","2","2202","1087318","Lower East Side"
"1003850049","Yes","1","385","49","1","2","D7","242","EAST 2 STREET","10009","Manhattan","34,821","40.721404","-73.981962","103","2","2202","1087353","Lower East Side"
"1003850063","Yes","1","385","63","1","4","P6","214","EAST 2 STREET","10009","Manhattan","38,876","40.721794","-73.982889","103","2","2202","1004609","Lower East Side"
"1003857501","Yes","1","385","7501","1","2","R0","254","EAST 2 STREET","0","Manhattan","51,716","40.721237","-73.981569","103","2","2202","1079679","Lower East Side"
"1003860015","Yes","1","386","15","1","2","D3","258","EAST 4 STREET","10009","Manhattan","43,902","40.723035","-73.981972","103","2","2601","1082842","Lower East Side"
"1003860033","Yes","1","386","33","1","2","D9","274","EAST 4 STREET","10009","Manhattan","132,308","40.722862","-73.981561","103","2","2601","1004617","Lower East Side"
"1003870020","Yes","1","387","20","1","2","C9","620","EAST 5 STREET","10009","Manhattan","32,946","40.723485","-73.981114","103","2","2601","1075625","Lower East Side"
"1003870157","Yes","1","387","157","1","2","C1","619","EAST 5 STREET","10009","Manhattan","25,200","40.723529","-73.981171","103","2","2601","1004667","Lower East Side"
"1003900005","Yes","1","390","5","1","4","M1","121","AVENUE B","10009","Manhattan","28,564","40.725464","-73.980907","103","2","2602","1082499","Lower East Side"
"1003900011","Yes","1","390","11","1","4","I7","308","EAST 8 STREET","10009","Manhattan","97,000","40.725178","-73.979583","103","2","2602","1085478","Lower East Side"
"1003900024","Yes","1","390","24","1","2","D1","334","EAST 8 STREET","10009","Manhattan","29,232","40.724903","-73.978927","103","2","2602","1004713","Lower East Side"
"1003907502","Yes","1","390","7502","1","2","R0","342","EAST 8 STREET","10009","Manhattan","73,359","40.724818","-73.978725","103","2","2602","1004715","Lower East Side"
"1003920010","Yes","1","392","10","1","4","W1","350","EAST 10 STREET","10009","Manhattan","93,420","40.726605","-73.979302","103","2","28","1079685","Lower East Side"
"1003920027","Yes","1","392","27","1","2","C4","384","EAST 10 STREET","10009","Manhattan","49,799","40.726152","-73.978216","103","2","28","1004772","Lower East Side"
"1003920048","Yes","1","392","48","1","2","C1","627","EAST 9 STREET","10009","Manhattan","43,871","40.725867","-73.979327","103","2","28","1004783","Lower East Side"
"1003927501","Yes","1","392","7501","1","2","R0","143","AVENUE B","0","Manhattan","89,531","40.726468","-73.980185","103","2","28","1004784","Lower East Side"
"1003930001","Yes","1","393","1","1","2","D5","159","AVENUE B","10009","Manhattan","31,267","40.726954","-73.979832","103","2","28","1004871","Lower East Side"
"1003930014","Yes","1","393","14","1","2","D5","610","EAST 11 STREET","10009","Manhattan","30,750","40.727231","-73.97893","103","2","28","1078017","Lower East Side"
"1003930056","Yes","1","393","56","1","2","D1","355","EAST 10 STREET","10009","Manhattan","38,520","40.726619","-73.979291","103","2","28","1078014","Lower East Side"
"1003937501","Yes","1","393","7501","1","2","R0","648","EAST 11 STREET","0","Manhattan","38,020","40.726704","-73.977682","103","2","28","1088368","Lower East Side"
"1003947506","Yes","1","394","7506","1","2","R0","189","AVENUE C","10009","Manhattan","32,113","40.726835","-73.976834","103","2","28","1004910","Lower East Side"
"1003947507","No","1","394","7507","1","2","R0","183","AVENUE B","10009","Manhattan","49,728","40.727758","-73.979243","103","2","28","1004906","Lower East Side"
"1003950001","Yes","1","395","1","1","2","C7","195","AVENUE B","10009","Manhattan","27,000","40.7282","-73.978919","103","2","28","1004926","Lower East Side"
"1003950009","No","1","395","9","1","2","D9","606","EAST 13 STREET","10009","Manhattan","127,950","40.728636","-73.978294","103","2","28",,"Lower East Side"
"1003950012","Yes","1","395","12","1","2","D4","620","EAST 13 STREET","10009","Manhattan","100,860","40.728458","-73.977865","103","2","28","1004927","Lower East Side"
"1003960010","Yes","1","396","10","4","2","D6","604","EAST 14 STREET","10009","Manhattan","416,708","40.729292","-73.977713","103","2","28","1077502","Lower East Side"
"1003960029","No","1","396","29","1","2","D6","223","AVENUE C","10009","Manhattan","66,043","40.728043","-73.975982","103","2","28","1004945","Lower East Side"
"1003970012","No","1","397","12","1","2","D4","157","EAST 2 STREET","10009","Manhattan","27,500","40.722753","-73.985172","103","2","3002","1004947","East Village"
"1003970029","No","1","397","29","1","2","D1","195","EAST 2 STREET","10009","Manhattan","33,336","40.722264","-73.984036","103","2","3002","1004953","East Village"
"1003977503","No","1","397","7503","1","2","R0","250","EAST HOUSTON STREET","10002","Manhattan","169,482","40.721937","-73.985321","103","2","3002","1004960","East Village"
"1003980002","No","1","398","2","1","4","K2","28","AVENUE A","10009","Manhattan","25,760","40.723225","-73.985584","103","2","3002","1004962","East Village"
"1003980008","Yes","1","398","8","1","2","D4","160","EAST 3 STREET","10009","Manhattan","55,947","40.723365","-73.984628","103","2","3002","1004966","East Village"
"1003980018","Yes","1","398","18","1","2","D7","176","EAST 3 STREET","10009","Manhattan","43,520","40.723153","-73.98413","103","2","3002","1004967","East Village"
"1003980035","Yes","1","398","35","1","2","D6","24","AVENUE B","10009","Manhattan","77,000","40.722272","-73.983271","103","2","3002","1004976","East Village"
"1003990001","Yes","1","399","1","1","2","D6","42","AVENUE A","10009","Manhattan","28,633","40.723738","-73.985208","103","2","32","1084788","East Village"
"1003990011","Yes","1","399","11","1","4","M9","206","EAST 4 STREET","10009","Manhattan","39,246","40.7239","-73.984003","103","2","32","1004990","East Village"
"1003990044","Yes","1","399","44","1","2","D1","185","EAST 3 STREET","10009","Manhattan","35,550","40.723079","-73.983906","103","2","32","1005004","East Village"
"1004000001","Yes","1","400","1","1","2","D6","58","AVENUE A","10009","Manhattan","79,956","40.724344","-73.984768","103","2","32","1005010","East Village"
"1004000031","Yes","1","400","31","1","2","D6","542","EAST 5 STREET","10009","Manhattan","71,334","40.724416","-73.983365","103","2","32","1005026","East Village"
"1004010046","Yes","1","401","46","1","2","D6","535","EAST 5 STREET","10009","Manhattan","36,330","40.724484","-73.983487","103","2","32","1087322","East Village"
"1004020011","Yes","1","402","11","1","2","D9","140","EAST 7 STREET","10009","Manhattan","41,600","40.725791","-73.982931","103","2","32","1005083","East Village"
"1004020015","Yes","1","402","15","1","2","D9","144","EAST 7 STREET","10009","Manhattan","36,705","40.725736","-73.982801","103","2","32","1005084","East Village"
"1004027503","No","1","402","7503","1","2","R0","100","AVENUE A","10009","Manhattan","51,063","40.725678","-73.983797","103","2","32","1090420","East Village"
"1004050001","Yes","1","405","1","1","2","D1","174","AVENUE A","10009","Manhattan","40,376","40.728538","-73.981711","103","2","34","1086128","East Village"
"1004057504","No","1","405","7504","1","2","R0","525","EAST 11 STREET","0","Manhattan","34,454","40.72814","-73.98104","103","2","34","1087059","East Village"
"1004060048","Yes","1","406","48","1","2","D9","531","EAST 12 STREET","10009","Manhattan","29,960","40.728738","-73.980473","103","2","34","1088213","East Village"
"1004070047","Yes","1","407","47","1","2","D3","527","EAST 13 STREET","10009","Manhattan","30,893","40.729306","-73.979838","103","2","34","1087434","East Village"
"1004077502","Yes","1","407","7502","1","2","R0","503","EAST 13 STREET","0","Manhattan","26,084","40.729534","-73.980379","103","2","34","1086159","East Village"
"1004077503","No","1","407","7503","1","2","R0","500","EAST 14 STREET","10009","Manhattan","185,068","40.730366","-73.980184","103","2","34","1090249","East Village"
"1004077504","Yes","1","407","7504","1","2","R0","524","EAST 14 STREET","10009","Manhattan","66,823","40.729891","-73.979088","103","2","34","1090264","East Village"
"1004090005","Yes","1","409","5","1","4","O5","85","DELANCEY STREET","10002","Manhattan","26,856","40.718984","-73.989661","103","1","18","1005288","Chinatown"
"1004097502","No","1","409","7502","2","2","R0","242","BROOME STREET","10002","Manhattan","176,960","40.717845","-73.989279","103","1","18","1090581","Chinatown"
"1004100004","Yes","1","410","4","1","4","K4","130","ORCHARD STREET","10002","Manhattan","33,546","40.719769","-73.989376","103","1","18","1005304","Chinatown"
"1004100048","Yes","1","410","48","1","4","H1","107","RIVINGTON STREET","10002","Manhattan","59,000","40.719967","-73.988023","103","1","18","1075676","Chinatown"
"1004100071","Yes","1","410","71","1","2","D7","100","DELANCEY STREET","10002","Manhattan","30,812","40.718768","-73.988885","103","1","18","1075628","Chinatown"
"1004107501","No","1","410","7501","1","2","R0","101","LUDLOW STREET","0","Manhattan","114,394","40.719111","-73.988864","103","1","18","1005320","Chinatown"
"1004110045","Yes","1","411","45","1","2","D1","144","LUDLOW STREET","10002","Manhattan","34,904","40.720595","-73.988081","103","1","3001","1077106","Chinatown"
"1004110058","Yes","1","411","58","1","2","D5","149","ESSEX STREET","10002","Manhattan","30,870","40.720565","-73.987179","103","1","3001","1079703","Chinatown"
"1004117504","Yes","1","411","7504","1","2","R0","153","ESSEX STREET","10002","Manhattan","26,214","40.720689","-73.987114","103","1","3001","1083465","Chinatown"
"1004120048","Yes","1","412","48","1","4","H2","180","LUDLOW STREET","10002","Manhattan","82,411","40.721811","-73.987467","103","1","3001","1087953","Chinatown"
"1004120053","Yes","1","412","53","1","2","D8","207","EAST HOUSTON STREET","10002","Manhattan","209,499","40.722401","-73.986904","103","1","3001","1087955","Chinatown"
"1004127501","Yes","1","412","7501","1","2","R0","180","ORCHARD STREET","10002","Manhattan","199,408","40.721853","-73.988304","103","1","3001","1090121","Chinatown"
"1004127503","No","1","412","7503","1","2","R0","196","ORCHARD STREET","10002","Manhattan","161,916","40.722286","-73.988073","103","1","3001","1090375","Chinatown"
"1004130043","Yes","1","413","43","1","2","D7","261","BROOME STREET","10002","Manhattan","27,349","40.718175","-73.990422","103","1","18","1005447","Chinatown"
"1004130051","Yes","1","413","51","1","4","K4","314","GRAND STREET","10002","Manhattan","29,465","40.717288","-73.990971","103","1","18","1005451","Chinatown"
"1004150018","Yes","1","415","18","1","4","I5","182","ELDRIDGE STREET","10002","Manhattan","29,898","40.720596","-73.990703","103","1","18","1005483","Chinatown"
"1004150078","No","1","415","78","1","2","C7","80","DELANCEY STREET","10002","Manhattan","25,071","40.719122","-73.990058","103","1","18","1005508","Chinatown"
"1004170001","Yes","1","417","1","1","2","D1","224","ELDRIDGE STREET","10002","Manhattan","136,000","40.722092","-73.989938","103","1","3601","1005537","Chinatown"
"1004177501","Yes","1","417","7501","1","2","R0","190","ALLEN STREET","0","Manhattan","111,051","40.722248","-73.988899","103","1","3001","1087667","Chinatown"
"1004200040","No","1","420","40","1","4","O5","40","DELANCEY STREET","10002","Manhattan","62,100","40.719649","-73.9918","103","1","18","1087549","Chinatown"
"1004200062","Yes","1","420","62","1","2","D3","175","ELDRIDGE STREET","10002","Manhattan","61,380","40.720412","-73.990822","103","1","18","1005602","Chinatown"
"1004200068","Yes","1","420","68","1","2","D6","167","ELDRIDGE STREET","10002","Manhattan","32,700","40.720121","-73.99097","103","1","18","1075907","Chinatown"
"1004207501","No","1","420","7501","1","2","R0","40","DELANCEY STREET","10002","Manhattan","58,364","40.719649","-73.9918","103","1","18","1087549","Chinatown"
"1004210044","Yes","1","421","44","1","2","D3","174","FORSYTH STREET","10002","Manhattan","38,880","40.721375","-73.991313","103","1","3601","1084640","Chinatown"
"1004217502","Yes","1","421","7502","1","2","R0","36","RIVINGTON STREET","0","Manhattan","30,023","40.720944","-73.991201","103","1","3601","1075911","Chinatown"
"1004227503","Yes","1","422","7503","1","2","R0","204","FORSYTH STREET","10002","Manhattan","25,576","40.72277","-73.990602","103","1","3601","1090468","Chinatown"
"1004250004","No","1","425","4","1","4","H2","189","BOWERY","10002","Manhattan","79,408","40.720741","-73.993864","103","1","18","1090576","Chinatown"
"1004250014","Yes","1","425","14","1","4","E1","209","BOWERY","10002","Manhattan","36,206","40.721419","-73.9936","103","1","18","1005682","Chinatown"
"1004250023","Yes","1","425","23","1","4","H3","11","RIVINGTON STREET","10002","Manhattan","26,283","40.721337","-73.992561","103","1","18","1005687","Chinatown"
"1004250028","No","1","425","28","1","2","D7","173","CHRYSTIE STREET","10002","Manhattan","31,986","40.720958","-73.992399","103","1","18","1000000","Chinatown"
"1004257501","Yes","1","425","7501","1","2","R0","195","BOWERY","0","Manhattan","44,203","40.721041","-73.993744","103","1","18","1079085","Chinatown"
"1004257502","Yes","1","425","7502","1","2","R0","199","BOWERY","0","Manhattan","65,869","40.72115","-73.993701","103","1","18","1087253","Chinatown"
"1004260010","Yes","1","426","10","1","4","P7","231","BOWERY","10002","Manhattan","47,067","40.722246","-73.99329","103","1","3601","1005708","Chinatown"
"1004260012","No","1","426","12","1","4","P7","235","BOWERY","10002","Manhattan","56,344","40.722424","-73.993225","103","1","3601","1005709","Chinatown"
"1004260029","Yes","1","426","29","1","4","O6","195","CHRYSTIE STREET","10002","Manhattan","81,900","40.721922","-73.991904","103","1","3601","1005719","Chinatown"
"1004260031","Yes","1","426","31","1","2B","C7","191","CHRYSTIE STREET","10002","Manhattan","37,500","40.721798","-73.991969","103","1","3601","1005720","Chinatown"
"1004270002","Yes","1","427","2","1","2","D3","10","STANTON STREET","10002","Manhattan","167,453","40.722654","-73.992492","103","1","3601","1078062","Chinatown"
"1004277504","Yes","1","427","7504","1","2","R0","273","BOWERY","10002","Manhattan","514,093","40.723629","-73.992781","103","1","3601","1087241","Chinatown"
"1004277507","Yes","1","427","7507","1","2","R0","215","CHRYSTIE STREET","10002","Manhattan","277,464","40.722786","-73.991464","103","1","3601","1090397","Chinatown"
"1004290021","No","1","429","21","1","2","D6","117","EAST 2 STREET","10009","Manhattan","138,202","40.723466","-73.986893","103","2","3002","1005743","East Village"
"1004290029","Yes","1","429","29","1","4","P5","137","EAST 2 STREET","10009","Manhattan","37,280","40.723247","-73.986359","103","2","3002","1005745","East Village"
"1004300001","No","1","430","1","1","2","D4","40","1 AVENUE","10009","Manhattan","147,730","40.724315","-73.987669","103","2","3002","1005758","East Village"
"1004300010","Yes","1","430","10","11","2","D6","112","EAST 3 STREET","10009","Manhattan","101,908","40.724334","-73.98694","103","2","3002",,"East Village"
"1004310001","No","1","431","1","1","2","D4","60","1 AVENUE","10009","Manhattan","194,800","40.724905","-73.987243","103","2","32","1005759","East Village"
"1004310025","Yes","1","431","25","1","2","D4","51","AVENUE A","10009","Manhattan","121,406","40.723988","-73.985053","103","2","32","1005761","East Village"
"1004310031","Yes","1","431","31","1","2","D4","43","AVENUE A","10009","Manhattan","120,605","40.723746","-73.985226","103","2","32","1005762","East Village"
"1004320001","Yes","1","432","1","5","2","D4","66","1 AVENUE","10009","Manhattan","780,062","40.725047","-73.987138","103","2","32",,"East Village"
"1004327501","Yes","1","432","7501","1","2","R0","85","AVENUE A","0","Manhattan","34,605","40.725173","-73.984191","103","2","32","1005764","East Village"
"1004327502","Yes","1","432","7502","1","2","R0","89","AVENUE A","0","Manhattan","25,586","40.725278","-73.984115","103","2","32","1005763","East Village"
"1004350045","Yes","1","435","45","1","2","D9","111","EAST 7 STREET","10009","Manhattan","32,698","40.726576","-73.98476","103","2","32","1005849","East Village"
"1004360044","Yes","1","436","44","1","2","D3","107","ST MARKS PLACE","10009","Manhattan","25,610","40.727336","-73.984659","103","2","32","1005888","East Village"
"1004397501","Yes","1","439","7501","1","2","R0","438","EAST 12 STREET","10009","Manhattan","152,142","40.729493","-73.982328","103","2","34","1090470","East Village"
"1004407502","Yes","1","440","7502","1","2","R0","407","EAST 12 STREET","10009","Manhattan","30,462","40.72979","-73.982988","103","2","34","1086103","East Village"
"1004417502","No","1","441","7502","1","2","R0","404","EAST 14 STREET","0","Manhattan","30,692","40.731225","-73.982259","103","2","34","1006012","East Village"
"1004417503","Yes","1","441","7503","1","2","R0","421","EAST 13 STREET","0","Manhattan","94,773","40.730388","-73.982418","103","2","34","1087654","East Village"
"1004417504","Yes","1","441","7504","1","2","R0","433","EAST 13 STREET","10009","Manhattan","138,170","40.730308","-73.982227","103","2","34","1000000","East Village"
"1004430005","Yes","1","443","5","1","4","E7","28","2 AVENUE","10003","Manhattan","52,497","40.7246","-73.990569","103","2","3602","1006080","East Village"
"1004430016","No","1","443","16","1","4","M1","59","EAST 2 STREET","10003","Manhattan","26,282","40.724515","-73.989433","103","2","3602","1082819","East Village"
"1004430020","Yes","1","443","20","1","2","C4","67","EAST 2 STREET","10003","Manhattan","26,328","40.724425","-73.989224","103","2","3602","1006084","East Village"
"1004437505","No","1","443","7505","1","2","R0","24","2 AVENUE","10003","Manhattan","53,702","40.724485","-73.990652","103","2","3602","1090700","East Village"
"1004440001","No","1","444","1","1","4","W3","38","2 AVENUE","10003","Manhattan","41,236","40.724965","-73.990306","103","2","3602","1006113","East Village"
"1004440059","Yes","1","444","59","1","4","W3","44","EAST 2 STREET","10003","Manhattan","50,000","40.724836","-73.990111","103","2","3602","1066659","East Village"
"1004450014","Yes","1","445","14","1","2","D7","88","EAST 4 STREET","10003","Manhattan","114,700","40.726082","-73.989202","103","2","38","1085556","East Village"
"1004450045","Yes","1","445","45","1","2","D1","81","EAST 3 STREET","10003","Manhattan","36,047","40.724938","-73.988325","103","2","38","1006188","East Village"
"1004467502","Yes","1","446","7502","1","2","R0","99","EAST 4 STREET","0","Manhattan","75,782","40.7258","-73.98848","103","2","38","1006221","East Village"
"1004480001","Yes","1","448","1","1","2","D9","104","2 AVENUE","10003","Manhattan","35,819","40.727485","-73.988465","103","2","38","1006262","East Village"
"1004500003","No","1","450","3","1","4","O9","136","2 AVENUE","10003","Manhattan","31,940","40.728819","-73.987498","103","2","38","1079104","East Village"
"1004510006","Yes","1","451","6","1","2","D9","156","2 AVENUE","10003","Manhattan","39,395","40.729617","-73.986917","103","2","40","1006404","East Village"
"1004517502","Yes","1","451","7502","1","2","R0","240","EAST 10 STREET","0","Manhattan","88,208","40.728967","-73.984922","103","2","40","1085794","East Village"
"1004520002","Yes","1","452","2","1","2","D9","162","2 AVENUE","10003","Manhattan","121,503","40.729933","-73.986683","103","2","40","1006434","East Village"
"1004520006","Yes","1","452","6","1","2","D4","170","2 AVENUE","10003","Manhattan","97,896","40.730216","-73.986484","103","2","40","1006435","East Village"
"1004520054","Yes","1","452","54","1","2","D4","205","EAST 10 STREET","10003","Manhattan","25,818","40.729565","-73.986289","103","2","40","1006469","East Village"
"1004530011","Yes","1","453","11","2","2","D1","304","EAST 12 STREET","10003","Manhattan","101,800","40.730833","-73.985492","103","2","40","1082513","East Village"
"1004537501","Yes","1","453","7501","1","2","R0","311","EAST 11 STREET","0","Manhattan","46,707","40.72999","-73.985438","103","2","40","1088706","East Village"
"1004550001","No","1","455","1","1","4","I1","222","2 AVENUE","10003","Manhattan","56,756","40.732","-73.985185","103","2","40","1006510","East Village"
"1004550005","Yes","1","455","5","1","4","I2","224","2 AVENUE","10003","Manhattan","102,314","40.732082","-73.985127","103","2","40","1006511","East Village"
"1004560007","Yes","1","456","7","1","2","D9","285","BOWERY","10003","Manhattan","234,610","40.724307","-73.992532","103","2","3602","1087255","East Village"
"1004567501","No","1","456","7501","1","2","R0","21","2 AVENUE","10003","Manhattan","69,969","40.724427","-73.990721","103","2","3602","1087698","East Village"
"1004570001","Yes","1","457","1","1","2","D6","3","EXTRA PLACE","10003","Manhattan","42,563","40.724768","-73.991565","103","2","3602","1087207","East Village"
"1004570005","Yes","1","457","5","1","4","N9","313","BOWERY","10003","Manhattan","32,358","40.72518","-73.992222","103","2","3602","1006536","East Village"
"1004570009","Yes","1","457","9","1","4","H8","1","EAST 2 STREET","10003","Manhattan","156,365","40.725465","-73.991879","103","2","3602","1086133","East Village"
"1004570020","Yes","1","457","20","1","2","C1","21","EAST 2 STREET","10003","Manhattan","27,600","40.725267","-73.991175","103","2","3602","1006540","East Village"
"1004570028","Yes","1","457","28","1","2","D6","21","2 AVENUE","10003","Manhattan","115,187","40.724427","-73.990721","103","2","3602","1087698","East Village"
"1004570029","Yes","1","457","29","1","2","D6","31","2 AVENUE","10003","Manhattan","26,832","40.724683","-73.990533","103","2","3602","1089206","East Village"
"1004570128","Yes","1","457","128","1","2","D6","29","EAST 2 STREET","10003","Manhattan","35,598","40.725171","-73.990944","103","2","3602","1087254","East Village"
"1004580006","Yes","1","458","6","1","4","H2","335","BOWERY","10003","Manhattan","90,411","40.726047","-73.991908","103","2","3602","1006545","East Village"
"1004590019","No","1","459","19","1","4","P5","66","EAST 4 STREET","10003","Manhattan","38,000","40.726634","-73.990497","103","2","38","1082672","East Village"
"1004590029","Yes","1","459","29","1","2","D9","63","2 AVENUE","10003","Manhattan","45,426","40.725981","-73.989591","103","2","38","1006574","East Village"
"1004590032","Yes","1","459","32","1","2","D9","57","2 AVENUE","10003","Manhattan","36,720","40.7258","-73.989725","103","2","38","1006576","East Village"
"1004597502","Yes","1","459","7502","1","2","R0","52","EAST 4 STREET","0","Manhattan","39,145","40.726881","-73.991074","103","2","38","1006566","East Village"
"1004597503","No","1","459","7503","1","2","R0","347","BOWERY","10003","Manhattan","26,187","40.726535","-73.991734","103","2","38","1090232","East Village"
"1004600056","Yes","1","460","56","1","4","P5","59","EAST 4 STREET","10003","Manhattan","32,000","40.726785","-73.990807","103","2","38","1082642","East Village"
"1004610006","Yes","1","461","6","1","4","H8","35","COOPER SQUARE","10003","Manhattan","45,082","40.728171","-73.990897","103","2","38","1090311","East Village"
"1004610035","Yes","1","461","35","1","2","C7","87","2 AVENUE","10003","Manhattan","26,460","40.726876","-73.988927","103","2","38","1006629","East Village"
"1004620004","Yes","1","462","4","1","4","W2","3","TARAS SHEVCHENKO PLACE","10003","Manhattan","59,732","40.728328","-73.990049","103","2","38",,"East Village"
"1004620007","No","1","462","7","1","4","M1","6","TARAS SHEVCHENKO PLACE","10003","Manhattan","51,300","40.728602","-73.989847","103","2","38","1006644","East Village"
"1004620025","Yes","1","462","25","1","4","W6","107","2 AVENUE","10003","Manhattan","43,214","40.727608","-73.9884","103","2","38","1006653","East Village"
"1004620035","Yes","1","462","35","1","2","D1","223","EAST 6 STREET","10003","Manhattan","91,680","40.727759","-73.989378","103","2","38","1084755","East Village"
"1004627501","No","1","462","7501","1","2","R0","24","EAST 7 STREET","10003","Manhattan","54,745","40.728446","-73.989234","103","2","38","1084906","East Village"
"1004630035","No","1","463","35","1","2","D6","119","2 AVENUE","10003","Manhattan","28,540","40.728072","-73.988061","103","2","38","1000000","East Village"
"1004637501","No","1","463","7501","1","2","R0","63","COOPER SQUARE","0","Manhattan","32,163","40.729104","-73.990208","103","2","38","1006698","East Village"
"1004648048","Yes","1","464","8048","1","2","D4","19","ST MARKS PLACE","10003","Manhattan","25,068","40.729082","-73.988783","103","2","38","1006754","East Village"
"1004649006","No","1","464","9006","1","4","H8","29","3 AVENUE","10003","Manhattan","59,815","40.729793","-73.989703","103","2","38","1006737","East Village"
"1004650001","No","1","465","1","1","4","H8","31","3 AVENUE","10003","Manhattan","146,583","40.729807","-73.989692","103","2","38","1006764","East Village"
"1004650037","Yes","1","465","37","1","4","W4","28","STUYVESANT STREET","10003","Manhattan","25,800","40.729944","-73.988212","103","2","40","1088854","East Village"
"1004650055","No","1","465","55","1","2","D9","145","2 AVENUE","10003","Manhattan","25,340","40.72928","-73.987191","103","2","40","1006800","East Village"
"1004667501","No","1","466","7501","1","2","R0","47","3 AVENUE","0","Manhattan","41,323","40.730809","-73.988977","103","2","40","1087710","East Village"
"1004667502","Yes","1","466","7502","1","2","R0","55","3 AVENUE","10003","Manhattan","67,227","40.730995","-73.98884","103","2","40","1006807","East Village"
"1004670001","No","1","467","1","1","4","H8","67","3 AVENUE","10003","Manhattan","337,600","40.731415","-73.988533","103","2","40","1006826","East Village"
"1004670022","Yes","1","467","22","1","2","D4","226","EAST 12 STREET","10003","Manhattan","56,845","40.731484","-73.987032","103","2","40","1006834","East Village"
"1004670025","Yes","1","467","25","1","2","D6","232","EAST 12 STREET","10003","Manhattan","65,602","40.731454","-73.986957","103","2","40","1006835","East Village"
"1004670031","Yes","1","467","31","1","4","J9","181","2 AVENUE","10003","Manhattan","59,225","40.730647","-73.986192","103","2","40","1006836","East Village"
"1004670035","No","1","467","35","1","2","D6","175","2 AVENUE","10003","Manhattan","49,227","40.730479","-73.986314","103","2","40","1006837","East Village"
"1004677501","Yes","1","467","7501","1","2","R0","235","EAST 11 STREET","0","Manhattan","39,182","40.730806","-73.987364","103","2","40","1006849","East Village"
"1004680001","Yes","1","468","1","1","2","D7","87","3 AVENUE","10003","Manhattan","92,304","40.732055","-73.988075","103","2","40","1006851","East Village"
"1004680046","Yes","1","468","46","1","2","D9","229","EAST 12 STREET","10003","Manhattan","27,215","40.731481","-73.986978","103","2","40","1006875","East Village"
"1004690030","Yes","1","469","30","1","2","D6","223","2 AVENUE","10003","Manhattan","63,158","40.732129","-73.98512","103","2","40","1006906","East Village"
"1004690033","Yes","1","469","33","1","2A","S3","221","2 AVENUE","10003","Manhattan","27,341","40.732068","-73.985163","103","2","40","1006907","East Village"
"1004690049","Yes","1","469","49","1","2","D3","229","EAST 13 STREET","10003","Manhattan","30,400","40.73228","-73.986891","103","2","40","1088211","East Village"
"1004697502","No","1","469","7502","1","2","R0","111","3 AVENUE","10003","Manhattan","125,097","40.732823","-73.987508","103","2","40","1066718","East Village"
"1004697505","Yes","1","469","7505","1","2","R0","123","3 AVENUE","10003","Manhattan","65,155","40.732977","-73.986841","103","2","40","1088500","East Village"
"1004697506","Yes","1","469","7506","3","2","R0","208","EAST 14 STREET","10003","Manhattan","112,516","40.733089","-73.986722","103","2","40","1089710","East Village"
"1004700050","Yes","1","470","50","1","4","H3","146","BOWERY","10013","Manhattan","36,515","40.719251","-73.994495","102","1","41","1006944","SoHo-TriBeCa-Civic Center-Little Italy"
"1004700061","No","1","470","61","1","4","K2","130","BOWERY","10013","Manhattan","32,700","40.718784","-73.994686","102","1","41","1006952","SoHo-TriBeCa-Civic Center-Little Italy"
"1004700064","Yes","1","470","64","1","4","O5","124","BOWERY","10013","Manhattan","29,940","40.718609","-73.994758","102","1","41","1006953","SoHo-TriBeCa-Civic Center-Little Italy"
"1004710055","Yes","1","471","55","1","4","H3","196","GRAND STREET","10013","Manhattan","26,594","40.719193","-73.996883","102","1","41","1089632","SoHo-TriBeCa-Civic Center-Little Italy"
"1004720004","No","1","472","4","1","4","O6","179","LAFAYETTE STREET","10013","Manhattan","30,718","40.720549","-73.998618","102","1","45","1006999","SoHo-TriBeCa-Civic Center-Little Italy"
"1004720011","Yes","1","472","11","1","4","O6","407","BROOME STREET","10013","Manhattan","30,392","40.720942","-73.997929","102","1","45","1007002","SoHo-TriBeCa-Civic Center-Little Italy"
"1004720012","No","1","472","12","1","4","O6","403","BROOME STREET","10013","Manhattan","25,515","40.720862","-73.997742","102","1","45","1007003","SoHo-TriBeCa-Civic Center-Little Italy"
"1004720019","No","1","472","19","1","4","O6","241","CENTRE STREET","10013","Manhattan","26,065","40.720234","-73.998167","102","1","45","1007005","SoHo-TriBeCa-Civic Center-Little Italy"
"1004720028","Yes","1","472","28","1","4","O5","154","GRAND STREET","10013","Manhattan","35,287","40.719976","-73.9989","102","1","45","1007009","SoHo-TriBeCa-Civic Center-Little Italy"
"1004727501","No","1","472","7501","1","2","R0","240","CENTRE STREET","0","Manhattan","138,120","40.720154","-73.998207","102","1","41","1075959","SoHo-TriBeCa-Civic Center-Little Italy"
"1004730001","Yes","1","473","1","1","4","O5","462","BROADWAY","10013","Manhattan","141,050","40.720978","-74.00053","102","1","45","1079877","SoHo-TriBeCa-Civic Center-Little Italy"
"1004730010","Yes","1","473","10","1","4","K4","478","BROADWAY","10013","Manhattan","55,015","40.721422","-74.000152","102","1","45","1079887","SoHo-TriBeCa-Civic Center-Little Italy"
"1004730051","No","1","473","51","1","2","D0","134","GRAND STREET","10013","Manhattan","71,413","40.720382","-73.99974","102","1","45","1084588","SoHo-TriBeCa-Civic Center-Little Italy"
"1004737501","Yes","1","473","7501","1","2","R0","476","BROADWAY","10013","Manhattan","70,632","40.721367","-74.000198","102","1","45","1007013","SoHo-TriBeCa-Civic Center-Little Italy"
"1004737502","Yes","1","473","7502","1","2","R0","30","CROSBY STREET","10013","Manhattan","78,982","40.720785","-73.999582","102","1","45","1079134","SoHo-TriBeCa-Civic Center-Little Italy"
"1004737503","Yes","1","473","7503","1","2","R0","425","BROOME STREET","0","Manhattan","34,580","40.721323","-73.998828","102","1","45","1007020","SoHo-TriBeCa-Civic Center-Little Italy"
"1004737505","Yes","1","473","7505","1","2","R0","419","BROOME STREET","10013","Manhattan","44,234","40.721216","-73.998579","102","1","45","1079136","SoHo-TriBeCa-Civic Center-Little Italy"
"1004740001","No","1","474","1","1","4","O5","42","GREENE STREET","10013","Manhattan","47,621","40.721922","-74.001937","102","1","47","1007031","SoHo-TriBeCa-Civic Center-Little Italy"
"1004740012","No","1","474","12","1","4","K4","453","BROOME STREET","10013","Manhattan","32,604","40.722232","-74.000776","102","1","47","1007037","SoHo-TriBeCa-Civic Center-Little Italy"
"1004740026","Yes","1","474","26","1","4","O5","90","GRAND STREET","10013","Manhattan","37,500","40.721573","-74.002089","102","1","47","1007046","SoHo-TriBeCa-Civic Center-Little Italy"
"1004740029","Yes","1","474","29","1","2","D0","487","BROADWAY","10013","Manhattan","70,759","40.721656","-73.999982","102","1","47","1007047","SoHo-TriBeCa-Civic Center-Little Italy"
"1004740030","No","1","474","30","1","4","O5","483","BROADWAY","10013","Manhattan","51,790","40.721543","-74.000076","102","1","47","1007048","SoHo-TriBeCa-Civic Center-Little Italy"
"1004740033","Yes","1","474","33","1","4","K4","479","BROADWAY","10013","Manhattan","63,150","40.721433","-74.00017","102","1","47","1007050","SoHo-TriBeCa-Civic Center-Little Italy"
"1004747503","Yes","1","474","7503","1","2","R0","47","MERCER STREET","10013","Manhattan","31,000","40.721634","-74.001136","102","1","47","1007041","SoHo-TriBeCa-Civic Center-Little Italy"
"1004747504","Yes","1","474","7504","1","2","R0","473","BROADWAY","0","Manhattan","32,157","40.721266","-74.000314","102","1","47","1007052","SoHo-TriBeCa-Civic Center-Little Italy"
"1004747505","Yes","1","474","7505","1","2","R0","475","BROADWAY","0","Manhattan","32,613","40.721321","-74.000267","102","1","47","1007051","SoHo-TriBeCa-Civic Center-Little Italy"
