"company_name","address","address2","city","category_name","url","hiring","jobs_url","why_nyc","postcode","borough","latitude","longitude","community_board","council_district","census_tract","bin","bbl","nta"
"""Document Prep-Program""'","' - '","' - '","' - '",,,,,,,,,,,,,,,
"""More than just Figleaves'","' - '","' - '","' - '",,,,,,,,,,,,,,,
"#Fit4ME'","' - '","' - '","' - '",,,,,,,,,,,,,,,
"'brellaBox'","' - '","' - '","' - '",,,,,,,,,,,,,,,
"'wichcraft'","' - '","' - '","' - '",,,,,,,,,,,,,,,
"(GFree)dom'","' - '","' - '","' - '",,,,,,,,,,,,,,,
"0s&1s Novels'","' - '","' - '","' - '",,,,,,,,,,,,,,,
"1 Knickerbocker'","' - '","' - '","' - '",,,,,,,,,,,,,,,
"1 Main Street Capital'","' - '","' - '","' - '",,,,,,,,,,,,,,,
"10 Speed Labs'","'1239 Broadway'","'Penthouse'","'New York'",,,,,,"10001","MANHATTAN","40.747135","-73.988397","5","3","76","1082273","1008320001","Midtown-Midtown South                                                      "
"1000|MUSEUMS, Inc'","' - '","' - '","' - '",,,,,,,,,,,,,,,
"107 Models'","' - '","' - '","' - '",,,,,,,,,,,,,,,
"10Lines'","' - '","' - '","' - '",,,,,,,,,,,,,,,
"10gen'","' - '","' - '","' - '",,,,,,,,,,,,,,,
"11 Picas'","' - '","' - '","' - '",,,,,,,,,,,,,,,
"144 Investments'","' - '","' - '","' - '",,,,,,,,,,,,,,,
"1754 & Company, LLC'","' - '","' - '","' - '",,,,,,,,,,,,,,,
"1800Postcards.com'","'121 Varick Street'","'4th Floor'","'New York'",,,,,,"10013","MANHATTAN","40.724861","-74.005946","2","3","37","1009728","1005780067","SoHo-TriBeCa-Civic Center-Little Italy                                     "
"1800TAXISTA.COM INC'","' - '","' - '","' - '",,,,,,,,,,,,,,,
"18faubourg by Scharly Designer Studio'","' - '","' - '","' - '",,,,,,,,,,,,,,,
"1938 News'","'1 Astor Pl'","' - '","'New York'",,,,,,"10003","MANHATTAN","40.730054","-73.992629","2","2","57","1008806","1005450059","West Village                                                               "
"1DocWay'","'483 Broadway, Floor 2, New York, NY 10013'","'483 Broadway, Floor 2'","'New York'",,,,,,"10013","MANHATTAN","40.721543","-74.000076","2","1","47","1007048","1004740030","SoHo-TriBeCa-Civic Center-Little Italy                                     "
"1NEEDS1 LLC'","' - '","' - '","' - '",,,,,,,,,,,,,,,
"1Stop Energies'","' - '","' - '","' - '",,,,,,,,,,,,,,,
"1World New York'","' - '","' - '","' - '",,,,,,,,,,,,,,,
"1er Nivel S.A.'","' - '","' - '","' - '",,,,,,,,,,,,,,,
"1stTheBest Inc'","' - '","' - '","' - '",,,,,,,,,,,,,,,
"1stdibs.com'","'51 Astor Place'","'Third Floor'","'New York'",,,,,,"10003","MANHATTAN","40.730183","-73.99046","3","2","42","1089443","1005540035","East Village                                                               "
"20x200'","'6 Spring Street'","' - '","'New York'",,,,,,"10012","MANHATTAN","40.721104","-73.994224","2","1","41","1007140","1004780021","SoHo-TriBeCa-Civic Center-Little Italy                                     "
"24eight, LLC'","' - '","' - '","' - '",,,,,,,,,,,,,,,
"24symbols'","'42 West 24th Street '","' - '","'New York'",,,,,,"10010","MANHATTAN","40.74276","-73.990437","5","3","58","1015587","1008250071","Hudson Yards-Chelsea-Flatiron-Union Square                                 "
"27 Perry'","' - '","' - '","' - '",,,,,,,,,,,,,,,
"29th Street Publishing'","' - '","' - '","' - '",,,,,,,,,,,,,,,
"2Cred'","' - '","' - '","' - '",,,,,,,,,,,,,,,
"2J2L'","' - '","' - '","' - '",,,,,,,,,,,,,,,
"2U (aka 2tor)'","'60 Chelsea Piers, Suite 6020'","' - '","'New York'",,,,,,"10011","MANHATTAN","40.747999","-74.008496","4","3","99","1012256","1006620011","Hudson Yards-Chelsea-Flatiron-Union Square                                 "
"2findLocal'","'2637 E 27th St'","' - '","'New York'",,,,,,,,,,,,,,,
"2nd Nature Toys'","' - '","' - '","' - '",,,,,,,,,,,,,,,
"303 Network, Inc.'","' - '","' - '","'New York'",,,,,,,,,,,,,,,
"33across'","'229 West 28th Street, 12th Fl'","' - '","'New York'",,,,,,"10001","MANHATTAN","40.747665","-73.994348","5","3","95","1014255","1007780020","Midtown-Midtown South                                                      "
"345 Design'","'49 Greenwich Ave, Suite 2'","' - '","'New York'",,,,,,"10014","MANHATTAN","40.735668","-74.000581","2","3","71","1010893","1006120060","West Village                                                               "
"A.R.T.S.Y Magazine'","' - '","' - '","' - '",,,,,,,,,,,,,,,
"360VIDY'","'50 Greene Avenue'","' - '","'Brooklyn'",,,,,,"11238","BROOKLYN ","40.686143","-73.970678","2","35","179","3055849","3019570030","Fort Greene                                                                "
"360i'","'32 Avenue of the Americas'","'6th Floor'","'New York'",,,,,,"10013","MANHATTAN","40.72008","-74.005184","1","1","33","1002192","1001920001","SoHo-TriBeCa-Civic Center-Little Italy                                     "
"3FLOZ, LLC'","' - '","' - '","' - '",,,,,,,,,,,,,,,
"3Floz.com'","'100 John St Suite 1601'","' - '","'New York'",,,,,,"10038","MANHATTAN","40.707984","-74.006164","1","1","1502","1001127","1000697502","Battery Park City-Lower Manhattan                                          "
"3P Partners, Inc'","' - '","' - '","' - '",,,,,,,,,,,,,,,
"3S Pharmacy'","' - '","' - '","' - '",,,,,,,,,,,,,,,
"3Top'","'55 Broad St.'","'15th Floor'","'New York'",,,,,,"10004","MANHATTAN","40.705189","-74.011505","1","1","9","1000821","1000250001","Battery Park City-Lower Manhattan                                          "
"3doo Inc'","' - '","' - '","' - '",,,,,,,,,,,,,,,
"4 Play'","' - '","' - '","' - '",,,,,,,,,,,,,,,
"420 Spirits Inc.'","' - '","' - '","' - '",,,,,,,,,,,,,,,
"42stats'","' - '","' - '","' - '",,,,,,,,,,,,,,,
"AJM Inc.'","' - '","' - '","' - '",,,,,,,,,,,,,,,
"AJR Business Solutions Inc'","' - '","' - '","' - '",,,,,,,,,,,,,,,
"4C Insight (The Echo System)'","'1133 Broadway'","'Suite 1420'","'New York'",,,,,,"10010","MANHATTAN","40.743523","-73.989073","5","3","58","1015625","1008270049","Hudson Yards-Chelsea-Flatiron-Union Square                                 "
"4Front Partners Inc.'","' - '","' - '","' - '",,,,,,,,,,,,,,,
"4GQR Ventures LLC dba PhotoQR.com'","' - '","' - '","' - '",,,,,,,,,,,,,,,
"4URSPACE'","' - '","' - '","' - '",,,,,,,,,,,,,,,
"4f tech, LLC'","' - '","' - '","' - '",,,,,,,,,,,,,,,
"5 O'clock Records'","' - '","' - '","' - '",,,,,,,,,,,,,,,
"5ivepoints'","' - '","' - '","' - '",,,,,,,,,,,,,,,
"6-ocean'","' - '","' - '","' - '",,,,,,,,,,,,,,,
"675 Beech, LLC'","' - '","' - '","' - '",,,,,,,,,,,,,,,
"680 Partners LLC'","'680 5th Avenue, 10th Floor'","' - '","'New York'",,,,,,"10019","MANHATTAN","40.760703","-73.975634","5","4","104","1034532","1012690041","Midtown-Midtown South                                                      "
"72Lux'","' - '","' - '","' - '",,,,,,,,,,,,,,,
"72looks'","' - '","' - '","' - '",,,,,,,,,,,,,,,
"789 Group'","' - '","' - '","' - '",,,,,,,,,,,,,,,
"8 Path Solutions LLC'","'""226 W 78TH ST #2A",,,,,,,,,,,,,,,,,
"New York, NY 10024""'","'226 W 78TH ST #2A'","'New York'","'http://www.8pathsolutions.com/",,,,,,,,,,,,,,,
"86shifts.com'","' - '","' - '","' - '",,,,,,,,,,,,,,,
"87AM'","'61 Broadway'","' - '","'New York'",,,,,,"10006","MANHATTAN","40.706995","-74.012335","1","1","13","1000808","1000210001","Battery Park City-Lower Manhattan                                          "
"89 Second Productions'","'1727 2nd Ave Apt 4FN'","' - '","'New York'",,,,,,"10128","MANHATTAN","40.780056","-73.950171","8","5","154","1048892","1015350022","Yorkville                                                                  "
"8coupons'","'116 W. 23rd St.'","'5th floor'","'New York'",,,,,,"10011","MANHATTAN","40.743218","-73.993562","4","3","91","1014802","1007980041","Hudson Yards-Chelsea-Flatiron-Union Square                                 "
"911 Cancer Fund'","' - '","' - '","' - '",,,,,,,,,,,,,,,
"9branding'","'419 lafayette street, 2nd floor'","' - '","'New York'",,,,,,"10003","MANHATTAN","40.728789","-73.992344","2","2","57","1008773","1005440013","West Village                                                               "
"9mmedia'","'627 Broadway'","' - '","'New York'",,,,,,"10012","MANHATTAN","40.726058","-73.996255","2","1","5501","1008237","1005230044","West Village                                                               "
"@60"" - The Height of Art'","' - '","' - '","' - '",,,,,,,,,,,,,,,
"@Gallery'","' - '","' - '","' - '",,,,,,,,,,,,,,,
"A New Life In'","' - '","' - '","' - '",,,,,,,,,,,,,,,
"A Perfume Organic'","' - '","' - '","' - '",,,,,,,,,,,,,,,
"A Tribe Called Love'","' - '","' - '","' - '",,,,,,,,,,,,,,,
"A V Therapeutics, inc.'","' - '","' - '","' - '",,,,,,,,,,,,,,,
"A&B American Style'","' - '","' - '","' - '",,,,,,,,,,,,,,,
"A.H. COLLECTIBLES'","' - '","' - '","' - '",,,,,,,,,,,,,,,
"A022 Digital'","'181 York St 5B'","' - '","'Brooklyn'",,,,,,"11201","BROOKLYN ","40.701406","-73.983767","2","33","21","3398669","3000550045","DUMBO-Vinegar Hill-Downtown Brooklyn-Boerum Hill                           "
"ABACEO, Inc.'","' - '","' - '","' - '",,,,,,,,,,,,,,,
"ABLE Social'","'305 W 87th st'","' - '","'New York'",,,,,,"10024","MANHATTAN","40.789753","-73.977801","7","6","175","1033999","1012490127","Upper West Side                                                            "
"AC Lion'","'253 West 35th Street'","'15th Floor'","'New York'",,,,,,"10001","MANHATTAN","40.752289","-73.991612","5","3","109","1014423","1007850011","Midtown-Midtown South                                                      "
"AC Rattling'","' - '","' - '","' - '",,,,,,,,,,,,,,,
"ACCOMPANY'","' - '","' - '","' - '",,,,,,,,,,,,,,,
"ACE Group'","'711 Third Avenue'","'16th Floor'","'New York'",,,,,,"10017","MANHATTAN","40.752374","-73.973266","6","4","90","1037568","1013180001","Turtle Bay-East Midtown                                                    "
"ACE Innovative Networks'","'277 Broadway'","'807'","'New York'",,,,,,"10007","MANHATTAN","40.714349","-74.006172","1","1","21","1001635","1001490033","SoHo-TriBeCa-Civic Center-Little Italy                                     "
"ACE Portal Group'","'711 Third Avenue'","' - '","'New York'",,,,,,"10017","MANHATTAN","40.752374","-73.973266","6","4","90","1037568","1013180001","Turtle Bay-East Midtown                                                    "
"ACTIVITO'","' - '","' - '","' - '",,,,,,,,,,,,,,,
"AD60'","'68 Jay Street '","'Unit 616'","'Brooklyn'",,,,,,"11201","BROOKLYN ","40.702763","-73.986681","2","33","21","3000090","3000400001","DUMBO-Vinegar Hill-Downtown Brooklyn-Boerum Hill                           "
"ADANSALON'","' - '","' - '","' - '",,,,,,,,,,,,,,,
"ADORNIA'","' - '","' - '","' - '",,,,,,,,,,,,,,,
"ADRailUSA'","' - '","' - '","' - '",,,,,,,,,,,,,,,
"ADstruc'","'241 Centre Street'","'7th Floor'","'New York'",,,,,,"10013","MANHATTAN","40.720234","-73.998167","2","1","45","1007005","1004720019","SoHo-TriBeCa-Civic Center-Little Italy                                     "
"AF Productions'","' - '","' - '","' - '",,,,,,,,,,,,,,,
"AG Resume Revisions'","' - '","' - '","' - '",,,,,,,,,,,,,,,
"AGORIQUE'","' - '","' - '","' - '",,,,,,,,,,,,,,,
"AHALife'","'45 Bond St.'","' - '","'New York'",,,,,,"10012","MANHATTAN","40.726058","-73.992947","2","1","5502","1008433","1005290031","West Village                                                               "
"AIDS Ride South Africa'","' - '","' - '","' - '",,,,,,,,,,,,,,,
"AIQ, Inc.'","' - '","' - '","' - '",,,,,,,,,,,,,,,
"AIR-BRAIN'","' - '","' - '","' - '",,,,,,,,,,,,,,,
"Fituoso'","' - '","' - '","' - '",,,,,,,,,,,,,,,
"AKQA'","'175 Varick St.'","'10th Floor'","'New York'",,,,,,"10014","MANHATTAN","40.727392","-74.005517","2","3","37","1009754","1005800065","SoHo-TriBeCa-Civic Center-Little Italy                                     "
"ALFY, Inc.'","'589 Eighth Avenue'","'20th Floor'","'New York'",,,,,,"10018","MANHATTAN","40.755155","-73.991319","4","3","115","1013646","1007620042","Clinton                                                                    "
"ALTANOVA Energy+Sustainability'","'11-05 44th Dr'","' - '","'Long Island City'",,,,,,"11101","QUEENS   ","40.748483","-73.949285","2","26","19","4005233","4004470021","Hunters Point-Sunnyside-West Maspeth                                       "
"AMA Animal Rescue'","' - '","' - '","' - '",,,,,,,,,,,,,,,
"AOL'","'770 Broadway, New York, NY 10003'","' - '","' - '",,,,,,,,,,,,,,,
"APDS'","' - '","' - '","' - '",,,,,,,,,,,,,,,
"API Fortress'","' - '","' - '","' - '",,,,,,,,,,,,,,,
"APP âˆšâ€  GOGO'","' - '","' - '","' - '",,,,,,,,,,,,,,,
"ARI DEIN LLC'","' - '","' - '","' - '",,,,,,,,,,,,,,,
"ARTSTRAK'","' - '","' - '","' - '",,,,,,,,,,,,,,,
"ARTstor'","'151 East 61st Street'","' - '","'New York'",,,,,,"10065","MANHATTAN","40.763305","-73.966836","8","4","11402","1041980","1013960025","Upper East Side-Carnegie Hill                                              "
"ASAP Property Management'","' - '","' - '","' - '",,,,,,,,,,,,,,,
"ASM Global Ventures'","' - '","' - '","' - '",,,,,,,,,,,,,,,
"ASPECD Apparel'","' - '","' - '","' - '",,,,,,,,,,,,,,,
"ASTORIA FILMS'","' - '","' - '","' - '",,,,,,,,,,,,,,,
"ATMG (All Things Marvin Gaye)'","' - '","' - '","' - '",,,,,,,,,,,,,,,
"AUDUBON'","'3960 Broadway'","' - '","'New York'",,,,,,"10032","MANHATTAN","40.83976","-73.940705","12","10","251","1062993","1021240043","Washington Heights South                                                   "
"AW Healthcare Management, Inc.'","' - '","' - '","' - '",,,,,,,,,,,,,,,
"AaronDFashionGroup Inc'","' - '","' - '","' - '",,,,,,,,,,,,,,,
"Abacus'","'39 E 20th St'","'Fl 4'","'New York'",,,,,,"10003","MANHATTAN","40.738895","-73.989081","5","2","52","1016228","1008497501","Hudson Yards-Chelsea-Flatiron-Union Square                                 "
"AbbeyPost'","' - '","' - '","' - '",,,,,,,,,,,,,,,
"Abilitycapitalcredit'","' - '","' - '","' - '",,,,,,,,,,,,,,,
"Able Made'","' - '","' - '","' - '",,,,,,,,,,,,,,,
"Able Markets'","' - '","' - '","' - '",,,,,,,,,,,,,,,
"About.com'","'1500 Broadway, 6th Floor, New York, NY 10016'","' - '","' - '",,,,,,,,,,,,,,,
"AbridgeME'","'457 W 17th St'","'11'","'New York'",,,,,,"10011","MANHATTAN","40.743742","-74.006027","4","3","83","1012545","1007150001","Hudson Yards-Chelsea-Flatiron-Union Square                                 "
"Absent Cam'","' - '","' - '","' - '",,,,,,,,,,,,,,,
"Abwop.com'","' - '","' - '","' - '",,,,,,,,,,,,,,,
"Acadaca'","'636 Broadway #516'","' - '","'New York'",,,,,,"10012","MANHATTAN","40.726247","-73.996067","2","1","5502","1008213","1005220012","West Village                                                               "
"AcceleWeb, Inc.'","' - '","' - '","' - '",,,,,,,,,,,,,,,
"Acceleron Digital'","'131 Varick St #917'","' - '","'New York'",,,,,,"10013","MANHATTAN","40.725397","-74.005841","2","3","37","1009740","1005790030","SoHo-TriBeCa-Civic Center-Little Italy                                     "
"Accent Internet Group'","' - '","' - '","' - '",,,,,,,,,,,,,,,
"Accenture'","'1345 Avenue of the Americas, New York, NY 10105'","' - '","'New York'",,,,,,"10105","MANHATTAN","40.762605","-73.97846","5","4","137","1083719","1010070029","Midtown-Midtown South                                                      "
"Accern'","' - '","' - '","' - '",,,,,,,,,,,,,,,
"Accomplsh'","' - '","' - '","' - '",,,,,,,,,,,,,,,
"Accretive technologies'","' - '","' - '","' - '",,,,,,,,,,,,,,,
"Acme Railways'","' - '","' - '","' - '",,,,,,,,,,,,,,,
"Acorn'","' - '","' - '","' - '",,,,,,,,,,,,,,,
"Acquaintable'","' - '","' - '","'New York'",,,,,,,,,,,,,,,
"Acquity Group (acquired by Accenture)'","'636 6th Ave Suite 300'","' - '","'New York'",,,,,,"10011","MANHATTAN","40.740567","-73.99449","5","3","54","1015460","1008217506","Hudson Yards-Chelsea-Flatiron-Union Square                                 "
"Action Enable Networks'","' - '","' - '","' - '",,,,,,,,,,,,,,,
"Activation, Inc.'","' - '","' - '","' - '",,,,,,,,,,,,,,,
"Activore'","' - '","' - '","' - '",,,,,,,,,,,,,,,
"ActorPerks'","' - '","' - '","' - '",,,,,,,,,,,,,,,
"ActvContent'","' - '","' - '","' - '",,,,,,,,,,,,,,,
"Ad Nibble'","' - '","' - '","' - '",,,,,,,,,,,,,,,
"AdColony'","'175 Varick'","' - '","'New York'",,,,,,,,,,,,,,,
"AdRadar'","'252 West 37th Street'","' - '","'New York'",,,,,,"10018","MANHATTAN","40.753514","-73.990728","5","3","109","1014452","1007860076","Midtown-Midtown South                                                      "
"AdStack [acquired by TellApart]'","'""155 Water Street /257 Myrtle Road",,,,,,,,,,,,,,,,,
"Burlingame, CA 94010""'","'2'","'Brooklyn'","'http://adstack.com/ http://www.tellapart.com/company/",,,,,,,,,,,,,,,
"AdTheorent'","'155 Avenue of the Americas'","'2nd Floor'","'New York'",,,,,,"10013","MANHATTAN","40.725248","-74.004412","2","3","37","1007385","1004910046","SoHo-TriBeCa-Civic Center-Little Italy                                     "
"Adafruit'","'150 Varick St, New York, NY, 10013'","' - '","' - '",,,,,,,,,,,,,,,
"Adam & Luna'","' - '","' - '","' - '",,,,,,,,,,,,,,,
"Aviary'","'243 W 30th'","'St #11'","'New York'",,,,,,,,,,,,,,,
"Adaptly'","'22 West 19th Street'","'3rd Floor'","'New York'",,,,,,"10011","MANHATTAN","40.73948","-73.992332","5","3","54","1015446","1008200026","Hudson Yards-Chelsea-Flatiron-Union Square                                 "
"Adcade'","' - '","' - '","' - '",,,,,,,,,,,,,,,
"Adcomm Mobile'","' - '","' - '","' - '",,,,,,,,,,,,,,,
"AddMee'","' - '","' - '","' - '",,,,,,,,,,,,,,,
"Adhara'","' - '","' - '","' - '",,,,,,,,,,,,,,,
"Adkeeper'","'381 Park Avenue South'","' - '","'New York'",,,,,,"10016","MANHATTAN","40.742534","-73.984641","5","2","68","1018159","1008820085","Gramercy                                                                   "
"Adkins Capital Management, LLC'","' - '","' - '","' - '",,,,,,,,,,,,,,,
"Admeld'","'One Madison Ave'","'4th Floor'","'New York'",,,,,,,,,,,,,,,
"Admission Advantage'","' - '","' - '","' - '",,,,,,,,,,,,,,,
"AdmitSee'","' - '","' - '","' - '",,,,,,,,,,,,,,,
"Admittedly'","' - '","' - '","' - '",,,,,,,,,,,,,,,
"Adore Me'","'485 7th Ave #505'","' - '","'New York'",,,,,,"10018","MANHATTAN","40.752465","-73.989544","5","3","109","1015235","1008127501","Midtown-Midtown South                                                      "
"AdoreMe'","' - '","' - '","' - '",,,,,,,,,,,,,,,
"Adprime Media'","' - '","' - '","' - '",,,,,,,,,,,,,,,
"Adtivity by Appssavvy'","'594 Broadway'","'Suite 207'","'New York'",,,,,,"10012","MANHATTAN","40.72496","-73.997157","2","1","43","1007944","1005110012","SoHo-TriBeCa-Civic Center-Little Italy                                     "
"Adventr'","' - '","' - '","' - '",,,,,,,,,,,,,,,
"Advicedrop'","' - '","' - '","' - '",,,,,,,,,,,,,,,
"Advise.me'","' - '","' - '","' - '",,,,,,,,,,,,,,,
"Advus'","' - '","' - '","' - '",,,,,,,,,,,,,,,
"Advyzr'","'119 west 31st street'","'4th Floor'","'New York'",,,,,,"10001","MANHATTAN","40.748238","-73.989952","5","3","101","1015181","1008070028","Midtown-Midtown South                                                      "
"Advyzr'","' - '","' - '","' - '",,,,,,,,,,,,,,,
"Adweek'","'770 Broadway'","'7th floor'","'New York'",,,,,,"10003","MANHATTAN","40.730842","-73.991402","2","2","57","1008952","1005540001","West Village                                                               "
"Adz Anywhere'","' - '","' - '","' - '",,,,,,,,,,,,,,,
"Aereo, Inc.'","'37-18 Northern Boulevard'","' - '","'Long Island City'",,,,,,"11101","QUEENS   ","40.752096","-73.925887","1","26","171","4003103","4002140040","Hunters Point-Sunnyside-West Maspeth                                       "
"AetherWorks'","'501 Fifth Avenue'","' - '","'New York'",,,,,,"10017","MANHATTAN","40.753315","-73.980993","5","4","82","1035342","1012760069","Murray Hill-Kips Bay                                                       "
"Aethertech'","' - '","' - '","' - '",,,,,,,,,,,,,,,
"Affinity'","' - '","' - '","' - '",,,,,,,,,,,,,,,
"Africa Plateforme'","' - '","' - '","' - '",,,,,,,,,,,,,,,
"Afromedia News Corps'","' - '","' - '","' - '",,,,,,,,,,,,,,,
"AfterSteps_ny'","' - '","' - '","' - '",,,,,,,,,,,,,,,
"AfterYes'","' - '","' - '","' - '",,,,,,,,,,,,,,,
"AgFunder'","' - '","' - '","' - '",,,,,,,,,,,,,,,
"Agape Academy'","' - '","' - '","' - '",,,,,,,,,,,,,,,
"Agent Link'","' - '","' - '","' - '",,,,,,,,,,,,,,,
"Aggregift'","' - '","' - '","' - '",,,,,,,,,,,,,,,
"Agilitus'","'350 Manhattan Avenue'","' - '","'Brooklyn'",,,,,,"11211","BROOKLYN ","40.71595","-73.94632","1","34","497","3068433","3027490001","East Williamsburg                                                          "
"Aging2.0'","' - '","' - '","'New York'",,,,,,,,,,,,,,,
"Agolo'","' - '","' - '","' - '",,,,,,,,,,,,,,,
"Agon Creative'","'538 Grand St'","'2nd Floor'","'Brooklyn'",,,,,,"11211","BROOKLYN ","40.711055","-73.949981","1","34","513","3069501","3027850018","North Side-South Side                                                      "
"AgooBiz, Inc [AgooBiz.com]'","' - '","' - '","' - '",,,,,,,,,,,,,,,
"Agronomic Technology Corp.'","' - '","' - '","' - '",,,,,,,,,,,,,,,
"Agyx'","'110 Wall Street'","'11 Floor'","'New York'",,,,,,"10005","MANHATTAN","40.704638","-74.006694","1","1","7","1000872","1000370008","Battery Park City-Lower Manhattan                                          "
"Ahhdio'","' - '","' - '","' - '",,,,,,,,,,,,,,,
"Ahii: Another story about a girl...'","' - '","' - '","' - '",,,,,,,,,,,,,,,
"Applied Science & Technology Research Organization'","' - '","' - '","' - '",,,,,,,,,,,,,,,
"Ai Media Group'","'483 10th Avenue'","'4th Floor'","'New York'",,,,,,"10018","MANHATTAN","40.756401","-73.997834","4","3","99","1012494","1007080037","Hudson Yards-Chelsea-Flatiron-Union Square                                 "
"Aidin'","' - '","' - '","' - '",,,,,,,,,,,,,,,
"AirBnB'","' - '","' - '","' - '",,,,,,,,,,,,,,,
"AirKast'","'610 Fifth Avenue'","'Suite 610'","'New York'",,,,,,"10020","MANHATTAN","40.75801","-73.977595","5","4","104","1082656","1012650050","Midtown-Midtown South                                                      "
"Airto'","' - '","' - '","' - '",,,,,,,,,,,,,,,
"Airto Inc'","' - '","' - '","' - '",,,,,,,,,,,,,,,
"Aisle in Style'","' - '","' - '","' - '",,,,,,,,,,,,,,,
"Ajungo.com'","' - '","' - '","' - '",,,,,,,,,,,,,,,
"Akamai Technologies'","'352 Park Avenue South'","'8th Floor'","'New York'",,,,,,"10010","MANHATTAN","40.74176","-73.98523","5","2","56","1016745","1008550016","Hudson Yards-Chelsea-Flatiron-Union Square                                 "
"Akilah'","' - '","' - '","' - '",,,,,,,,,,,,,,,
"Akimbo'","' - '","' - '","' - '",,,,,,,,,,,,,,,
"Aksel Group, Inc'","'52 Walker Street 3rd Floor'","' - '","'New York'",,,,,,"10013","MANHATTAN","40.71899","-74.003308","1","1","33","1002287","1001940005","SoHo-TriBeCa-Civic Center-Little Italy                                     "
"Akyumen'","' - '","' - '","' - '",,,,,,,,,,,,,,,
"Alacra Inc'","'100 Broadway'","'#1101'","'New York'",,,,,,"10005","MANHATTAN","40.70814","-74.011373","1","1","7","1001024","1000460003","Battery Park City-Lower Manhattan                                          "
"Albatross Digital, LLC'","'155 Water Street'","' - '","'Brooklyn'",,,,,,"11201","BROOKLYN ","40.703147","-73.987864","2","33","21","3000026","3000290016","DUMBO-Vinegar Hill-Downtown Brooklyn-Boerum Hill                           "
"Albert Herrera'","' - '","' - '","' - '",,,,,,,,,,,,,,,
"Alchematter'","' - '","' - '","' - '",,,,,,,,,,,,,,,
"Alchemy50'","'20 Jay Street'","'Suite 934'","'Brooklyn'",,,,,,"11201","BROOKLYN ","40.704313","-73.986587","2","33","21","3000010","3000190001","DUMBO-Vinegar Hill-Downtown Brooklyn-Boerum Hill                           "
"Alcohoot'","' - '","' - '","' - '",,,,,,,,,,,,,,,
"Alcohoot LLC'","' - '","' - '","' - '",,,,,,,,,,,,,,,
"Alexander Berardi'","' - '","' - '","' - '",,,,,,,,,,,,,,,
"AlgoPrice'","' - '","' - '","' - '",,,,,,,,,,,,,,,
"Align Communications, Inc.'","'55 Broad Street'","'6th Floor'","'New York'",,,,,,"10004","MANHATTAN","40.705189","-74.011505","1","1","9","1000821","1000250001","Battery Park City-Lower Manhattan                                          "
"All Veggiez!'","' - '","' - '","' - '",,,,,,,,,,,,,,,
"All You Need Staffing Registry'","' - '","' - '","' - '",,,,,,,,,,,,,,,
"AllOut.org'","' - '","' - '","'New York'",,,,,,,,,,,,,,,
"AllStar Deals, Inc.'","' - '","' - '","' - '",,,,,,,,,,,,,,,
"AllTheRooms'","' - '","' - '","' - '",,,,,,,,,,,,,,,
"Alla Simoneau's Company'","' - '","' - '","' - '",,,,,,,,,,,,,,,
"AllazoHealth'","' - '","' - '","' - '",,,,,,,,,,,,,,,
"Alley Interactive'","'1133 Broadway'","'Suite 630'","'New York'",,,,,,"10010","MANHATTAN","40.743523","-73.989073","5","3","58","1015625","1008270049","Hudson Yards-Chelsea-Flatiron-Union Square                                 "
"Alley Technology'","' - '","' - '","' - '",,,,,,,,,,,,,,,
"AlleyWatch'","' - '","' - '","' - '",,,,,,,,,,,,,,,
"AlleyWire'","' - '","' - '","' - '",,,,,,,,,,,,,,,
"Allmenus'","'39 West 19th Street'","'7th Floor'","'New York'",,,,,,"10011","MANHATTAN","40.739666","-73.992725","5","3","54","1015465","1008210014","Hudson Yards-Chelsea-Flatiron-Union Square                                 "
"Allovate, LLC'","' - '","' - '","' - '",,,,,,,,,,,,,,,
"Alloy Digital'","'151 West 26th Street'","' - '","'New York'",,,,,,"10001","MANHATTAN","40.745428","-73.992872","5","3","95","1015034","1008020008","Midtown-Midtown South                                                      "
"Alluring Logic'","' - '","' - '","' - '",,,,,,,,,,,,,,,
"Allyson Ivy'","' - '","' - '","' - '",,,,,,,,,,,,,,,
"Alpha Airlines'","' - '","' - '","' - '",,,,,,,,,,,,,,,
"Alpha Hat'","' - '","' - '","' - '",,,,,,,,,,,,,,,
"AlphaBoost (AdVerify)'","'122 West 26th Street'","'5th Floor'","'New York'",,,,,,"10001","MANHATTAN","40.745164","-73.992295","4","3","91","1015021","1008010055","Hudson Yards-Chelsea-Flatiron-Union Square                                 "
"AlphaIntelX'","' - '","' - '","' - '",,,,,,,,,,,,,,,
"AlphaSights'","' - '","' - '","' - '",,,,,,,,,,,,,,,
"Alquimi Innovations, LLC'","' - '","' - '","' - '",,,,,,,,,,,,,,,
"Alset'","' - '","' - '","' - '",,,,,,,,,,,,,,,
"Altah'","'1412 Broadway, 22nd Fl'","' - '","'New York'",,,,,,"10018","MANHATTAN","40.753711","-73.987046","5","4","113","1080611","1008150014","Midtown-Midtown South                                                      "
"Alton Lane'","' - '","' - '","' - '",,,,,,,,,,,,,,,
"Altruik'","'341 West 38th Street'","'8th Floor'","'New York'",,,,,,"10018","MANHATTAN","40.755237","-73.992864","4","3","115","1013637","1007620011","Clinton                                                                    "
"AlumVest'","' - '","' - '","' - '",,,,,,,,,,,,,,,
"AlumniChoose'","' - '","' - '","' - '",,,,,,,,,,,,,,,
"Alvadon'","' - '","' - '","' - '",,,,,,,,,,,,,,,
"Amasty'","' - '","' - '","' - '",,,,,,,,,,,,,,,
"Amazon Web Services'","'1350 Avenue of Americas, New York, NY, 10019'","' - '","' - '",,,,,,,,,,,,,,,
"Ambertracks Technology Inc.  DBA: Monstress Zenergy Drink'","' - '","' - '","' - '",,,,,,,,,,,,,,,
"Ambigâˆšâˆ« Empanada Bar'","' - '","' - '","' - '",,,,,,,,,,,,,,,
"Amer Pharmacy Corp.'","' - '","' - '","' - '",,,,,,,,,,,,,,,
"AmerIsrael Capital Management, LLC'","' - '","' - '","' - '",,,,,,,,,,,,,,,
"America's Amazing Teens, LLC'","' - '","' - '","' - '",,,,,,,,,,,,,,,
"America's Amazing Teensâ€šÃ‘Â¢'","' - '","' - '","' - '",,,,,,,,,,,,,,,
"American Capital Group'","' - '","' - '","' - '",,,,,,,,,,,,,,,
"American Civics Exchange'","' - '","' - '","' - '",,,,,,,,,,,,,,,
"American Lawyer Media'","'120 Broadway'","'5th Floor'","'New York'",,,,,,"10271","MANHATTAN","40.708546","-74.011041","1","1","7","1001026","1000477501","Battery Park City-Lower Manhattan                                          "
"American Prison Data Systems, PBC'","' - '","' - '","' - '",,,,,,,,,,,,,,,
"American Story Channel LLC'","' - '","' - '","' - '",,,,,,,,,,,,,,,
"American Woman Publishing LLC'","' - '","' - '","' - '",,,,,,,,,,,,,,,
"Avua Cachaca'","' - '","' - '","' - '",,,,,,,,,,,,,,,
"Awar3'","' - '","' - '","' - '",,,,,,,,,,,,,,,
"Amerikids'","'10 Leonard Street Loft 3SW'","' - '","'New York'",,,,,,"10013","MANHATTAN","40.718798","-74.008254","1","1","33","1001995","1001790021","SoHo-TriBeCa-Civic Center-Little Italy                                     "
"Ammirati'","'19 Union Square W'","' - '","'New York'",,,,,,"10003","MANHATTAN","40.736065","-73.991098","5","2","52","1016074","1008430020","Hudson Yards-Chelsea-Flatiron-Union Square                                 "
"Amo Beverage Group'","' - '","' - '","' - '",,,,,,,,,,,,,,,
"Amorphyk'","' - '","' - '","' - '",,,,,,,,,,,,,,,
"Amplify Education, Inc.'","'55 Washington St'","'#900'","'Brooklyn'",,,,,,"11201","BROOKLYN ","40.70273","-73.989602","2","33","21","3000088","3000380001","DUMBO-Vinegar Hill-Downtown Brooklyn-Boerum Hill                           "
"Amusemi.com'","' - '","' - '","' - '",,,,,,,,,,,,,,,
"Amusology'","'217 East 29th Street, APT 1B'","' - '","'New York'",,,,,,"10016","MANHATTAN","40.742347","-73.979813","6","2","70","1019922","1009100013","Murray Hill-Kips Bay                                                       "
"Amusology'","' - '","' - '","' - '",,,,,,,,,,,,,,,
"Anait Bian LCC'","' - '","' - '","' - '",,,,,,,,,,,,,,,
"AnalytixInsight Inc'","' - '","' - '","' - '",,,,,,,,,,,,,,,
"Andras Fenyves'","' - '","' - '","' - '",,,,,,,,,,,,,,,
"Andrew's Roadmaps'","'Brooklyn'","' - '","'New York'",,,,,,,,,,,,,,,
"Angel-Tel   (Int'l Telephony & Mobile VoIP)'","' - '","' - '","' - '",,,,,,,,,,,,,,,
"Lingy'","' - '","' - '","' - '",,,,,,,,,,,,,,,
"Angry Villagers'","' - '","' - '","' - '",,,,,,,,,,,,,,,
"Aniepo'","' - '","' - '","' - '",,,,,,,,,,,,,,,
"Anime Feast'","' - '","' - '","' - '",,,,,,,,,,,,,,,
"Applique'","' - '","' - '","' - '",,,,,,,,,,,,,,,
"Animoto'","'440 Lafayette St.'","' - '","'New York'",,,,,,"10003","MANHATTAN","40.729327","-73.991907","2","2","57","1088676","1005450026","West Village                                                               "
"Annalect'","'195 Broadway'","'19th Flr'","'New York'",,,,,,"10007","MANHATTAN","40.710536","-74.009378","1","1","13","1001227","1000800001","Battery Park City-Lower Manhattan                                          "
"Annotary'","' - '","' - '","' - '",,,,,,,,,,,,,,,
"AnonymAsk'","' - '","' - '","' - '",,,,,,,,,,,,,,,
"Antarctic Creative'","'122 Norfolk Street'","'Studio 20'","'New York'",,,,,,"10002","MANHATTAN","40.71927","-73.986898","3","1","1402","1004302","1003530057","Lower East Side                                                            "
"Anvil+Gear'","'175 Varick St.'","' - '","'New York'",,,,,,"10014","MANHATTAN","40.727392","-74.005517","2","3","37","1009754","1005800065","SoHo-TriBeCa-Civic Center-Little Italy                                     "
"Any One Color'","' - '","' - '","' - '",,,,,,,,,,,,,,,
"AnySizeDeals'","' - '","' - '","' - '",,,,,,,,,,,,,,,
"Anyone Want To'","' - '","' - '","' - '",,,,,,,,,,,,,,,
"Apartable'","'222 Broadway'","'20th Floor'","'New York'",,,,,,"10038","MANHATTAN","40.711313","-74.008661","1","1","1501","1001245","1000890012","Battery Park City-Lower Manhattan                                          "
"Aplus'","' - '","' - '","' - '",,,,,,,,,,,,,,,
"Apogee Media'","'49 West 23rd Street'","' - '","'New York'",,,,,,"10010","MANHATTAN","40.742227","-73.991162","5","3","58","1080677","1008250012","Hudson Yards-Chelsea-Flatiron-Union Square                                 "
"Aponia Data Solutions'","'28 west 39th street'","'4th floor'","'New York'",,,,,,"10018","MANHATTAN","40.752033","-73.983372","5","4","84","1080743","1008400063","Midtown-Midtown South                                                      "
"Aponia Data Solutions'","' - '","' - '","' - '",,,,,,,,,,,,,,,
"AppAddictive'","'122 West 26th Street'","'5th Floor'","'New York'",,,,,,"10001","MANHATTAN","40.745164","-73.992295","4","3","91","1015021","1008010055","Hudson Yards-Chelsea-Flatiron-Union Square                                 "
"AppFirst'","'6 West 14th Street'","'Suite 4E'","'New York'",,,,,,"10011","MANHATTAN","40.736241","-73.994201","2","3","63","1080157","1005770037","West Village                                                               "
"AppLaunch'","' - '","' - '","'New York'",,,,,,,,,,,,,,,
"AppNexus'","'28 West 23rd St, 4th Fl, New York, NY 10010'","' - '","' - '",,,,,,,,,,,,,,,
"AppNexus'","' - '","'4th Floor'","'New York'",,,,,,,,,,,,,,,
"AppNotes'","' - '","' - '","' - '",,,,,,,,,,,,,,,
"AppOrchard'","'86 Chambers Street'","'7th Floor'","'New York'",,,,,,"10007","MANHATTAN","40.714524","-74.007095","1","1","21","1079153","1001357504","SoHo-TriBeCa-Civic Center-Little Italy                                     "
"AppSavvy'","'594 Broadway Suite 207'","' - '","'New York'",,,,,,"10012","MANHATTAN","40.72496","-73.997157","2","1","43","1007944","1005110012","SoHo-TriBeCa-Civic Center-Little Italy                                     "
"AppSense'","'17 State Street 19th Floor'","' - '","'New York'",,,,,,"10004","MANHATTAN","40.702798","-74.014246","1","1","9","1000020","1000090014","Battery Park City-Lower Manhattan                                          "
"AppStori'","' - '","' - '","' - '",,,,,,,,,,,,,,,
"Appboy'","' - '","' - '","' - '",,,,,,,,,,,,,,,
"Appear By Phone'","'142 East 39 St.'","' - '","'New York'",,,,,,"10016","MANHATTAN","40.749364","-73.977032","6","4","80","1019153","1008940057","Murray Hill-Kips Bay                                                       "
"Appetizer Mobile LLC'","'115 W 45th St'","'#501'","'New York'",,,,,,"10036","MANHATTAN","40.757078","-73.983411","5","4","119","1022640","1009980024","Midtown-Midtown South                                                      "
"Appetizr'","' - '","' - '","' - '",,,,,,,,,,,,,,,
"Appetude'","' - '","' - '","' - '",,,,,,,,,,,,,,,
"Appguppy Mobile'","' - '","' - '","' - '",,,,,,,,,,,,,,,
"Awesome'","' - '","' - '","' - '",,,,,,,,,,,,,,,
"Appinions'","'18 East 41st St'","'2nd Flr'","'New York'",,,,,,"10017","MANHATTAN","40.752417","-73.980448","5","4","82","1035324","1012750061","Murray Hill-Kips Bay                                                       "
"Apple'","'101-104 Fifth Avenue'","' - '","'New York'",,,,,,,,,,,,,,,
"Appliances Connection'","' - '","' - '","' - '",,,,,,,,,,,,,,,
"Application Security'","'55 Broad Street'","'10th Floor'","'New York'",,,,,,"10004","MANHATTAN","40.705189","-74.011505","1","1","9","1000821","1000250001","Battery Park City-Lower Manhattan                                          "
"Applico'","'220 East 23rd Street'","'5th Floor'","'New York'",,,,,,"10010","MANHATTAN","40.738548","-73.982495","6","2","64","1088660","1009030047","Gramercy                                                                   "
"Approved Learning'","' - '","' - '","' - '",,,,,,,,,,,,,,,
"AppsBidder Inc'","' - '","' - '","' - '",,,,,,,,,,,,,,,
"Appular'","'65 Broadway'","'Ste. 903'","'New York'",,,,,,"10006","MANHATTAN","40.707113","-74.012234","1","1","13","1000809","1000210004","Battery Park City-Lower Manhattan                                          "
"Appy Couple from AppeProPo, Inc.'","' - '","' - '","' - '",,,,,,,,,,,,,,,
"Aquarius Global Capital, LLC'","' - '","' - '","' - '",,,,,,,,,,,,,,,
"Arc90'","'747 3rd Ave'","'30th Floor'","'New York'",,,,,,"10017","MANHATTAN","40.753596","-73.972374","6","4","90","1081179","1013200046","Turtle Bay-East Midtown                                                    "
"Arcade CLOVER'","' - '","' - '","' - '",,,,,,,,,,,,,,,
"ArchetypeMe'","'5 Crosby Street 3rd Floor'","' - '","'New York'",,,,,,"10013","MANHATTAN","40.719803","-74.000393","2","1","45","1003052","1002330030","SoHo-TriBeCa-Civic Center-Little Italy                                     "
"Architizer'","'281 Fifth Ave'","'3rd Floor'","'New York'",,,,,,"10016","MANHATTAN","40.745822","-73.986452","5","4","74","1016947","1008590085","Midtown-Midtown South                                                      "
"Ardency Inn Corp.'","' - '","' - '","' - '",,,,,,,,,,,,,,,
"Arderoy'","' - '","' - '","' - '",,,,,,,,,,,,,,,
"Area17'","'99 Richardson Street'","'Second Floor'","'Brooklyn'",,,,,,"11211","BROOKLYN ","40.718501","-73.947999","1","33","499","3338050","3027230038","Greenpoint                                                                 "
"Arellius Enterprises/Custodis Technologies'","' - '","' - '","' - '",,,,,,,,,,,,,,,
"ArgoFund'","' - '","' - '","' - '",,,,,,,,,,,,,,,
"Ark Media'","'325 Gold St.'","'Suite 602'","'Brooklyn'",,,,,,"11201","BROOKLYN ","40.694575","-73.983267","2","35","15","3332462","3020490008","DUMBO-Vinegar Hill-Downtown Brooklyn-Boerum Hill                           "
"Arkadium'","'920 Broadway'","'2nd Floor'","'New York'",,,,,,"10010","MANHATTAN","40.739691","-73.989423","5","2","52","1016224","1008490063","Hudson Yards-Chelsea-Flatiron-Union Square                                 "
"Armada'","' - '","' - '","' - '",,,,,,,,,,,,,,,
"Armani'","' - '","' - '","' - '",,,,,,,,,,,,,,,
"Armoryinteractive LLC'","' - '","' - '","' - '",,,,,,,,,,,,,,,
"Arn-Star Properties'","' - '","' - '","' - '",,,,,,,,,,,,,,,
"AromaGo'","' - '","' - '","' - '",,,,,,,,,,,,,,,
"Arrive'","' - '","' - '","' - '",,,,,,,,,,,,,,,
"Arrow Leads Inc.'","' - '","' - '","' - '",,,,,,,,,,,,,,,
"Art In Your Space'","' - '","' - '","' - '",,,,,,,,,,,,,,,
"Art Matters'","' - '","' - '","' - '",,,,,,,,,,,,,,,
"Art Story'","' - '","' - '","' - '",,,,,,,,,,,,,,,
"Art. Lebedev Studio'","'125 Maiden Lane'","'Suite 15D'","'New York'",,,,,,"10038","MANHATTAN","40.706397","-74.006341","1","1","1502","1087484","1000707501","Battery Park City-Lower Manhattan                                          "
"Art.sy'","'401 Broadway, 25th Flr, New York, NY 10013'","' - '","' - '",,,,,,,,,,,,,,,
"ArtCondo'","' - '","' - '","' - '",,,,,,,,,,,,,,,
"ArtCycle'","'32 Court Street #801'","' - '","'Brooklyn'",,,,,,"11201","BROOKLYN ","40.693014","-73.990758","2","33","9","3002248","3002550044","Brooklyn Heights-Cobble Hill                                               "
"ArtList'","'59 Franklin St.'","'Store A'","'New York'",,,,,,"10013","MANHATTAN","40.717096","-74.002832","1","1","31","1001840","1001710005","SoHo-TriBeCa-Civic Center-Little Italy                                     "
"ArtSpot'","' - '","' - '","' - '",,,,,,,,,,,,,,,
"ArtStar Inc'","'405 w 23rd St'","' - '","'New York'",,,,,,"10011","MANHATTAN","40.746712","-74.001826","4","3","93","1077236","1007217501","Hudson Yards-Chelsea-Flatiron-Union Square                                 "
"Article One Partners'","'555 Madison Avenue'","'30th Floor'","'New York'",,,,,,"10022","MANHATTAN","40.761177","-73.973161","5","4","102","1035775","1012910051","Midtown-Midtown South                                                      "
"Artificial Elegance'","' - '","' - '","' - '",,,,,,,,,,,,,,,
"Artisan Online'","' - '","' - '","' - '",,,,,,,,,,,,,,,
"Artissano'","' - '","' - '","' - '",,,,,,,,,,,,,,,
"ArtistUpgrade'","'34-27 41st Street'","' - '","'Long Island City'",,,,,,"11101","QUEENS   ","40.755781","-73.920476","1","26","159","4010920","4006740009","Astoria                                                                    "
"Artista'","' - '","' - '","' - '",,,,,,,,,,,,,,,
"Artivest'","'1140 Broadway'","'Suite 1501'","'New York'",,,,,,"10001","MANHATTAN","40.743907","-73.988979","5","2","58","1015649","1008280033","Hudson Yards-Chelsea-Flatiron-Union Square                                 "
"Artsicle'","' - '","' - '","' - '",,,,,,,,,,,,,,,
"Artsicle'","' - '","' - '","' - '",,,,,,,,,,,,,,,
"Artspace'","'915 Broadway'","'Suite 602'","'New York'",,,,,,"10010","MANHATTAN","40.739644","-73.989654","5","2","52","1016226","1008490070","Hudson Yards-Chelsea-Flatiron-Union Square                                 "
"Artwalk'","' - '","' - '","' - '",,,,,,,,,,,,,,,
"ArxSocial'","'420 Lexington Avenue'","'Suite 2516'","'New York'",,,,,,"10170","MANHATTAN","40.752262","-73.975464","5","4","92","1035385","1012807501","Turtle Bay-East Midtown                                                    "
"Asanda AVEDA Spa Lounge'","' - '","' - '","' - '",,,,,,,,,,,,,,,
"Ashe Avenue'","'67 West St. Floor 4'","'(Greendesk #C6)'","'Brooklyn'",,,,,,"11222","BROOKLYN ","40.728661","-73.959082","1","33","565","3337600","3025640001","Greenpoint                                                                 "
"Asia Coal Catalyst Company'","' - '","' - '","' - '",,,,,,,,,,,,,,,
"Asia Coal Catalyst Company'","' - '","' - '","' - '",,,,,,,,,,,,,,,
"Asoko Insight'","' - '","' - '","' - '",,,,,,,,,,,,,,,
"Assassin X Tour'","' - '","' - '","' - '",,,,,,,,,,,,,,,
"Assegai LLC'","' - '","' - '","' - '",,,,,,,,,,,,,,,
"AssetCompass'","' - '","' - '","' - '",,,,,,,,,,,,,,,
"Associated Renewable Inc.'","' - '","' - '","' - '",,,,,,,,,,,,,,,
"Assured Labor'","'122 W. 26th St.'","'4th Floor'","'New York'",,,,,,"10001","MANHATTAN","40.745164","-73.992295","4","3","91","1015021","1008010055","Hudson Yards-Chelsea-Flatiron-Union Square                                 "
"Astral Consulting Services, LLC'","' - '","' - '","' - '",,,,,,,,,,,,,,,
"AstrologyMe'","' - '","' - '","' - '",,,,,,,,,,,,,,,
"Asvan'","' - '","' - '","' - '",,,,,,,,,,,,,,,
"Asymptote Security'","' - '","' - '","' - '",,,,,,,,,,,,,,,
"At Peak'","' - '","' - '","' - '",,,,,,,,,,,,,,,
"Ataboy Studios'","'1133 Broadway'","'#1328'","'New York'",,,,,,"10010","MANHATTAN","40.743523","-73.989073","5","3","58","1015625","1008270049","Hudson Yards-Chelsea-Flatiron-Union Square                                 "
"Atari Interactive'","'417 Fifth Avenue'","' - '","'New York'",,,,,,"10016","MANHATTAN","40.750691","-73.982907","5","4","82","1017224","1008670070","Murray Hill-Kips Bay                                                       "
"Atavist'","' - '","' - '","' - '",,,,,,,,,,,,,,,
"Atavist'","'68 Jay Street'","'Suite 422'","'Brooklyn'",,,,,,"11201","BROOKLYN ","40.702763","-73.986681","2","33","21","3000090","3000400001","DUMBO-Vinegar Hill-Downtown Brooklyn-Boerum Hill                           "
"Atelier Brush'","' - '","' - '","' - '",,,,,,,,,,,,,,,
"Baya Weavers' Collective'","' - '","' - '","' - '",,,,,,,,,,,,,,,
"Atikus Investments Incorporated'","' - '","' - '","' - '",,,,,,,,,,,,,,,
"Atlantic Metro Communications'","'325 Hudson St'","'4th floor'","'New York'",,,,,,"10013","MANHATTAN","40.726774","-74.007418","2","3","37","1010375","1005970062","SoHo-TriBeCa-Civic Center-Little Italy                                     "
"Atlas ATS'","' - '","' - '","' - '",,,,,,,,,,,,,,,
"Atlas Gameworks'","' - '","' - '","' - '",,,,,,,,,,,,,,,
"Atlas Scientific'","'630 Flushing Avenue'","'8th Floor'","'Brooklyn'",,,,,,"11206","BROOKLYN ","40.699963","-73.948449","3","36","257","3329628","3017200001","Bedford                                                                    "
"Atomicmonkey'","' - '","' - '","' - '",,,,,,,,,,,,,,,
"Atomite, Inc.'","' - '","' - '","' - '",,,,,,,,,,,,,,,
"Atozus'","' - '","' - '","' - '",,,,,,,,,,,,,,,
"Attendingdr'","' - '","' - '","' - '",,,,,,,,,,,,,,,
"Au Contraire'","' - '","' - '","' - '",,,,,,,,,,,,,,,
"Audiobrain'","'20 W. 22nd St.'","'Suite 712'","'New York'",,,,,,"10010","MANHATTAN","40.741253","-73.990978","5","3","58","1015540","1008230055","Hudson Yards-Chelsea-Flatiron-Union Square                                 "
"Audioms'","'81 Carroll St'","' - '","'New York'",,,,,,,,,,,,,,,
"Augmate Corporation'","' - '","' - '","' - '",,,,,,,,,,,,,,,
"Augmate Corporation'","' - '","' - '","' - '",,,,,,,,,,,,,,,
"Aura Central Market of Aura Inc.'","' - '","' - '","' - '",,,,,,,,,,,,,,,
"Auralis Inc.'","' - '","' - '","' - '",,,,,,,,,,,,,,,
"Aurnhammer LLC'","'55 Broad Street'","'13th Floor'","'New York'",,,,,,"10004","MANHATTAN","40.705189","-74.011505","1","1","9","1000821","1000250001","Battery Park City-Lower Manhattan                                          "
"Ausmode.com'","' - '","' - '","' - '",,,,,,,,,,,,,,,
"Authintic'","' - '","' - '","' - '",,,,,,,,,,,,,,,
"Authorea'","' - '","' - '","' - '",,,,,,,,,,,,,,,
"Authorstransinc@gmail.com'","' - '","' - '","' - '",,,,,,,,,,,,,,,
"AutoSlash.com'","'405 Main Street Suite 9R'","' - '","'New York'",,,,,,"10044","MANHATTAN","40.757748","-73.953581","8","5","23801","1087314","1013737504","Lenox Hill-Roosevelt Island                                                "
"Autumn Games'","'54 Thompson St.'","'4th Flr'","'New York'",,,,,,"10012","MANHATTAN","40.724043","-74.003316","2","1","47","1007320","1004887501","SoHo-TriBeCa-Civic Center-Little Italy                                     "
"Auxiliary Design Company'","'117 Dobbin St'","'Suite 206'","'Brooklyn'",,,,,,"11222","BROOKLYN ","40.725808","-73.954974","1","33","561","3065491","3026160012","Greenpoint                                                                 "
"Availendar'","' - '","' - '","' - '",,,,,,,,,,,,,,,
"Avalanche Studios'","'536 Broadway'","' - '","'New York'",,,,,,"10012","MANHATTAN","40.723341","-73.998528","2","1","43","1007561","1004970004","SoHo-TriBeCa-Civic Center-Little Italy                                     "
"Avatar New York'","'122 Hudson Street'","'4th Floor'","'New York'",,,,,,"10013","MANHATTAN","40.72005","-74.008553","1","1","33","1002165","1001900016","SoHo-TriBeCa-Civic Center-Little Italy                                     "
"Avec'","'265 Canal Street'","'Suite 509'","'New York'",,,,,,"10013","MANHATTAN","40.718804","-74.001039","2","1","45","1002692","1002090028","SoHo-TriBeCa-Civic Center-Little Italy                                     "
"AviantLogic, Inc'","' - '","' - '","' - '",,,,,,,,,,,,,,,
"Awl & Sundry'","'175 Varick Street'","' - '","'New York'",,,,,,"10014","MANHATTAN","40.727392","-74.005517","2","3","37","1009754","1005800065","SoHo-TriBeCa-Civic Center-Little Italy                                     "
"AxialMarket'","'45 EAST 20TH STREET'","'12TH FLOOR'","'New York'",,,,,,"10003","MANHATTAN","40.738851","-73.988983","5","2","52","1016211","1008490031","Hudson Yards-Chelsea-Flatiron-Union Square                                 "
"Ayima'","'99 Hudson Street'","'5th Floor'","'New York'",,,,,,"10013","MANHATTAN","40.719133","-74.008741","1","1","39","1075728","1001817504","SoHo-TriBeCa-Civic Center-Little Italy                                     "
"Ayo! Social Inc'","' - '","' - '","' - '",,,,,,,,,,,,,,,
"Azlore'","' - '","' - '","' - '",,,,,,,,,,,,,,,
"B Culture Media'","'36 East 23rd Street'","'Suite 5F'","'New York'",,,,,,"10010","MANHATTAN","40.740671","-73.987528","5","2","56","1016291","1008510051","Hudson Yards-Chelsea-Flatiron-Union Square                                 "
"B Holding Group, LLC'","' - '","' - '","' - '",,,,,,,,,,,,,,,
"B&g tourism'","' - '","' - '","' - '",,,,,,,,,,,,,,,
"B-OUT'","' - '","' - '","' - '",,,,,,,,,,,,,,,
"B-Reel Products'","' - '","' - '","' - '",,,,,,,,,,,,,,,
"B. Side Swimwear LLC'","' - '","' - '","' - '",,,,,,,,,,,,,,,
"B.O.S.S.'","' - '","' - '","' - '",,,,,,,,,,,,,,,
"B2B Anywhere'","' - '","' - '","' - '",,,,,,,,,,,,,,,
"BABB'","' - '","' - '","' - '",,,,,,,,,,,,,,,
"BACK UP BACK'","' - '","' - '","' - '",,,,,,,,,,,,,,,
"BAX US'","' - '","' - '","' - '",,,,,,,,,,,,,,,
"BBC Worldwide'","' - '","' - '","' - '",,,,,,,,,,,,,,,
"BBDO'","'1285 Avenue of the Americas'","' - '","'New York'",,,,,,"10019","MANHATTAN","40.760753","-73.979818","5","4","131","1023158","1010040029","Midtown-Midtown South                                                      "
"BDominant LLC'","'115 East 57th Street'","'11'","'New York'",,,,,,"10022","MANHATTAN","40.7613","-73.969996","5","4","11203","1036926","1013127501","Turtle Bay-East Midtown                                                    "
"BEAK'","' - '","' - '","' - '",,,,,,,,,,,,,,,
"BEAR'","' - '","' - '","' - '",,,,,,,,,,,,,,,
"BELGIUM MART LLC'","' - '","' - '","' - '",,,,,,,,,,,,,,,
"BIReady'","' - '","' - '","' - '",,,,,,,,,,,,,,,
"BLACK ARMOUR'","' - '","' - '","' - '",,,,,,,,,,,,,,,
"BLACK RENAISSANCE TECHNOLGY'","' - '","' - '","' - '",,,,,,,,,,,,,,,
"BODI~CANDLES, LLC'","' - '","' - '","' - '",,,,,,,,,,,,,,,
"BOLD Organics'","' - '","' - '","' - '",,,,,,,,,,,,,,,
"BOND'","' - '","' - '","' - '",,,,,,,,,,,,,,,
"BOWNCE LLC'","' - '","' - '","' - '",,,,,,,,,,,,,,,
"BOX Creative'","'518 Broadway'","' - '","'New York'",,,,,,"10012","MANHATTAN","40.722666","-73.999102","2","1","45","1007236","1004830014","SoHo-TriBeCa-Civic Center-Little Italy                                     "
"BOX'NGO'","' - '","' - '","' - '",,,,,,,,,,,,,,,
"BRANDmini'","' - '","' - '","' - '",,,,,,,,,,,,,,,
"BRI HOLLOWELL'","' - '","' - '","' - '",,,,,,,,,,,,,,,
"BYOB'","' - '","' - '","' - '",,,,,,,,,,,,,,,
"Baaltaz'","' - '","' - '","' - '",,,,,,,,,,,,,,,
"Baby Bundle'","' - '","' - '","' - '",,,,,,,,,,,,,,,
"BabyCenter, LLC'","'711 Third Avenue'","'1502'","'New York'",,,,,,"10017","MANHATTAN","40.752374","-73.973266","6","4","90","1037568","1013180001","Turtle Bay-East Midtown                                                    "
"Babysitters America'","' - '","' - '","' - '",,,,,,,,,,,,,,,
"Badger'","' - '","' - '","' - '",,,,,,,,,,,,,,,
"Bajan Yankee Pictures Inc.'","' - '","' - '","' - '",,,,,,,,,,,,,,,
"Baking for Good'","'353 East 83rd Street'","' - '","'New York'",,,,,,"10028","MANHATTAN","40.775412","-73.951929","8","5","138","1049931","1015460023","Yorkville                                                                  "
"Balance Engineering, LLC'","' - '","' - '","' - '",,,,,,,,,,,,,,,
"Balance Media, LLC'","'34 W 27th St'","' - '","'New York'",,,,,,"10001","MANHATTAN","40.744829","-73.989592","5","3","58","1015664","1008280067","Hudson Yards-Chelsea-Flatiron-Union Square                                 "
"Bali Pharma'","' - '","' - '","' - '",,,,,,,,,,,,,,,
"Ballooning Nest Eggs, Inc.'","'451 West End Avenue'","' - '","'New York'",,,,,,"10024","MANHATTAN","40.786037","-73.979944","7","6","167","1080438","1012440072","Upper West Side                                                            "
"Ballooning Nest Eggs, Inc.- Astia portfolio company'","' - '","' - '","' - '",,,,,,,,,,,,,,,
"Ballroom Rocks LLC'","' - '","' - '","' - '",,,,,,,,,,,,,,,
"Baltia Airlines'","' - '","' - '","' - '",,,,,,,,,,,,,,,
"Bandsintown'","'215 Lexington Ave'","' - '","'New York'",,,,,,"10016","MANHATTAN","40.745541","-73.980339","6","2","72","1018474","1008887502","Murray Hill-Kips Bay                                                       "
"Bandwaggon'","' - '","' - '","' - '",,,,,,,,,,,,,,,
"Bandwagon'","' - '","' - '","' - '",,,,,,,,,,,,,,,
"Bandwagon (Weeels, Inc.)'","'137 Varick Street'","'1st Floor'","'New York'",,,,,,"10013","MANHATTAN","40.725789","-74.005773","2","3","37","1009745","1005790070","SoHo-TriBeCa-Civic Center-Little Italy                                     "
"Bandwidth Productions'","'134 West 26th Street'","'Suite 1001'","'New York'",,,,,,"10001","MANHATTAN","40.745266","-73.99254","4","3","91","1015025","1008010061","Hudson Yards-Chelsea-Flatiron-Union Square                                 "
"Banking Up'","' - '","' - '","' - '",,,,,,,,,,,,,,,
"Boomset Inc.'","' - '","' - '","' - '",,,,,,,,,,,,,,,
"Boomset Inc.'","' - '","' - '","' - '",,,,,,,,,,,,,,,
"Banking Up'","'55 Broad Street'","' - '","'New York'",,,,,,"10004","MANHATTAN","40.705189","-74.011505","1","1","9","1000821","1000250001","Battery Park City-Lower Manhattan                                          "
"Bar & Club Stats, Inc.'","' - '","' - '","' - '",,,,,,,,,,,,,,,
"Bar & Club Stats, Inc.'","' - '","' - '","' - '",,,,,,,,,,,,,,,
"BareSkin Bags'","' - '","' - '","' - '",,,,,,,,,,,,,,,
"Bargan Technology, LLC'","' - '","' - '","' - '",,,,,,,,,,,,,,,
"BarkBox'","'50 Eldridge Street'","'Floor 5'","'New York'",,,,,,"10002","MANHATTAN","40.716012","-73.993052","3","1","16","1003881","1003000008","Chinatown                                                                  "
"Barnes & Noble'","'76 Ninth Avenue'","'9th Floor'","'New York'",,,,,,"10011","MANHATTAN","40.741915","-74.004659","4","3","83","1013043","1007390001","Hudson Yards-Chelsea-Flatiron-Union Square                                 "
"Barnes and Hoggetts'","' - '","' - '","' - '",,,,,,,,,,,,,,,
"Baro'","' - '","' - '","' - '",,,,,,,,,,,,,,,
"Barrel'","'197 Grand Street'","'Suite 7S'","'New York'",,,,,,"10013","MANHATTAN","40.71918","-73.996894","2","1","41","1003090","1002370014","SoHo-TriBeCa-Civic Center-Little Italy                                     "
"Bart'","' - '","' - '","' - '",,,,,,,,,,,,,,,
"Baruch College'","' - '","' - '","' - '",,,,,,,,,,,,,,,
"Barzaga Capital'","' - '","' - '","' - '",,,,,,,,,,,,,,,
"Bateman Group'","'45 Main Street'","'Suite 617'","'Brooklyn'",,,,,,"11201","BROOKLYN ","40.702799","-73.990677","2","33","21","3329423","3000370001","DUMBO-Vinegar Hill-Downtown Brooklyn-Boerum Hill                           "
"Bates CHI&Partners (Estranged Freelance)'","'Block Zero'","'Room Zero'","'New York'",,,,,,,,,,,,,,,
"Battery Park Media (Battery Park City NEWS)'","'11 Broadway'","'457'","'New York'",,,,,,"10004","MANHATTAN","40.705354","-74.013731","1","1","13","1000044","1000130005","Battery Park City-Lower Manhattan                                          "
"BaubleBar'","'230 Fifth Ave'","'Ste. 612'","'New York'",,,,,,"10001","MANHATTAN","40.743918","-73.987867","5","2","58","1015654","1008280041","Hudson Yards-Chelsea-Flatiron-Union Square                                 "
"BaubleBar'","'131 Greene St'","' - '","'New York'",,,,,,"10012","MANHATTAN","40.725292","-73.999116","2","1","49","1076021","1005147502","SoHo-TriBeCa-Civic Center-Little Italy                                     "
"Bawn Media Networks, Inc'","' - '","' - '","' - '",,,,,,,,,,,,,,,
"Bayshore Networks Inc.'","' - '","' - '","' - '",,,,,,,,,,,,,,,
"Bazaart'","'330 West 38 Street'","'Suite 300'","'New York'",,,,,,"10018","MANHATTAN","40.755139","-73.992669","4","3","111","1013627","1007610053","Hudson Yards-Chelsea-Flatiron-Union Square                                 "
"Bazaarvoice'","'126 5th Ave'","'804'","'New York'",,,,,,"10011","MANHATTAN","40.738338","-73.991931","5","3","54","1015421","1008190044","Hudson Yards-Chelsea-Flatiron-Union Square                                 "
"Bazarnewyork.com'","' - '","' - '","' - '",,,,,,,,,,,,,,,
"BeQRious'","' - '","' - '","' - '",,,,,,,,,,,,,,,
"Beach Facility Innovations'","' - '","' - '","' - '",,,,,,,,,,,,,,,
"Beach Glam'","' - '","' - '","' - '",,,,,,,,,,,,,,,
"Beach Glam LLC'","' - '","' - '","' - '",,,,,,,,,,,,,,,
"BeanJar, Inc.'","' - '","' - '","' - '",,,,,,,,,,,,,,,
"Beau Exchange'","' - '","' - '","' - '",,,,,,,,,,,,,,,
"Beaut.ly'","' - '","' - '","' - '",,,,,,,,,,,,,,,
"Beauteeze'","' - '","' - '","' - '",,,,,,,,,,,,,,,
"Beautiful Villa'","' - '","' - '","' - '",,,,,,,,,,,,,,,
"Beauty Twin'","' - '","' - '","' - '",,,,,,,,,,,,,,,
"BeautyStat'","' - '","' - '","' - '",,,,,,,,,,,,,,,
"Bedrock Divorce Advisors, LLC'","' - '","' - '","' - '",,,,,,,,,,,,,,,
"Bedrocket Media Ventures'","'560 Broadway at Prince St '","' - '","'New York'",,,,,,,,,,,,,,,
"Bee Organic'","' - '","' - '","' - '",,,,,,,,,,,,,,,
"Bee*kin LLC'","' - '","' - '","' - '",,,,,,,,,,,,,,,
"BeeOnTheGo'","' - '","' - '","' - '",,,,,,,,,,,,,,,
"BeejooS'","' - '","' - '","' - '",,,,,,,,,,,,,,,
"BeenVerified'","'307 5th Avenue'","'16th Floor'","'New York'",,,,,,"10016","MANHATTAN","40.746786","-73.985755","5","4","74","1016982","1008610003","Midtown-Midtown South                                                      "
"Beer2Buds'","'175 Varick St'","'4th Floor'","'New York'",,,,,,"10014","MANHATTAN","40.727392","-74.005517","2","3","37","1009754","1005800065","SoHo-TriBeCa-Civic Center-Little Italy                                     "
"BeerRightNow.com'","' - '","' - '","' - '",,,,,,,,,,,,,,,
"Before the Label'","' - '","' - '","' - '",,,,,,,,,,,,,,,
"Behance'","' - '","' - '","' - '",,,,,,,,,,,,,,,
"Bell Boardz'","' - '","' - '","' - '",,,,,,,,,,,,,,,
"Ben Vision Research, Inc.'","' - '","' - '","' - '",,,,,,,,,,,,,,,
"BenchPals'","' - '","' - '","' - '",,,,,,,,,,,,,,,
"BenchPals'","' - '","' - '","' - '",,,,,,,,,,,,,,,
"BeneShip'","' - '","' - '","' - '",,,,,,,,,,,,,,,
"BeneStream'","' - '","' - '","' - '",,,,,,,,,,,,,,,
"Benjamin Capital Management Group Inc.'","' - '","' - '","' - '",,,,,,,,,,,,,,,
"Bennett Architects, Designers'","' - '","' - '","' - '",,,,,,,,,,,,,,,
"Berlin Cameron'","'100 6th Avenue'","' - '","'New York'",,,,,,"10013","MANHATTAN","40.723324","-74.004903","2","1","47","1007098","1004760007","SoHo-TriBeCa-Civic Center-Little Italy                                     "
"Berry Smart Smoothies'","' - '","' - '","' - '",,,,,,,,,,,,,,,
"City Health Works!'","' - '","' - '","' - '",,,,,,,,,,,,,,,
"Bespoke Atelier'","'262 west 38th street'","'Suite 303'","'New York'",,,,,,"10018","MANHATTAN","40.754216","-73.990478","5","3","109","1014468","1007870076","Midtown-Midtown South                                                      "
"Bespoke Post'","' - '","' - '","' - '",,,,,,,,,,,,,,,
"Best Bite'","' - '","' - '","' - '",,,,,,,,,,,,,,,
"Best Biz Survis'","' - '","' - '","' - '",,,,,,,,,,,,,,,
"Best Investments'","' - '","' - '","' - '",,,,,,,,,,,,,,,
"BestDailyDates'","'244 5th Ave'","' - '","'New York'",,,,,,"10001","MANHATTAN","40.744521","-73.987427","5","2","58","1015690","1008290040","Hudson Yards-Chelsea-Flatiron-Union Square                                 "
"BestFriendMatch.com'","' - '","' - '","' - '",,,,,,,,,,,,,,,
"BestRecom Inc.'","' - '","' - '","' - '",,,,,,,,,,,,,,,
"BestVendor'","'524 Broadway'","'Rm 403'","'New York'",,,,,,"10012","MANHATTAN","40.7228","-73.998986","2","1","45","1007238","1004830017","SoHo-TriBeCa-Civic Center-Little Italy                                     "
"Bestflightbook.com'","' - '","' - '","' - '",,,,,,,,,,,,,,,
"Bestowed'","' - '","' - '","' - '",,,,,,,,,,,,,,,
"Betabeat'","'321 W 44th st'","' - '","'New York'",,,,,,"10036","MANHATTAN","40.75889","-73.989669","4","3","121","1080878","1010350017","Clinton                                                                    "
"Betobe'","' - '","' - '","' - '",,,,,,,,,,,,,,,
"Better Future Engineering'","' - '","' - '","' - '",,,,,,,,,,,,,,,
"Better Life'","' - '","' - '","' - '",,,,,,,,,,,,,,,
"Better Restaurant Group'","' - '","' - '","' - '",,,,,,,,,,,,,,,
"Better Schools for Everyone'","' - '","' - '","' - '",,,,,,,,,,,,,,,
"BetterBizWorks, LLC'","'1855 Victory Blvd.'","'2nd Floor'","'Staten Island'",,,,,,,,,,,,,,,
"BetterCloud'","'299 Broadway'","'1310'","'New York'",,,,,,"10007","MANHATTAN","40.715046","-74.005591","1","1","33","1001648","1001500031","SoHo-TriBeCa-Civic Center-Little Italy                                     "
"Betterfly'","'621 Second Ave'","'Second Floor'","'New York'",,,,,,"10016","MANHATTAN","40.744684","-73.975961","6","2","70","1020129","1009140035","Murray Hill-Kips Bay                                                       "
"Betterment'","'61 W 23rd 5th Floor, NY NY 10019'","' - '","' - '",,,,,,,,,,,,,,,
"Bevs Home Services'","'1 Piermont Plaza '","' - '","'Brooklyn '",,,,,,,,,,,,,,,
"Beyond'","'300 Park Avenue South'","'11th Floor'","'New York'",,,,,,"10010","MANHATTAN","40.739921","-73.986569","5","2","56","1016286","1008510035","Hudson Yards-Chelsea-Flatiron-Union Square                                 "
"Beyond Vision Group'","' - '","' - '","' - '",,,,,,,,,,,,,,,
"Bib + Tuck'","' - '","' - '","' - '",,,,,,,,,,,,,,,
"Bibi'","' - '","' - '","' - '",,,,,,,,,,,,,,,
"Bid4MyTradeIn.com'","' - '","' - '","' - '",,,,,,,,,,,,,,,
"BidKind'","' - '","' - '","' - '",,,,,,,,,,,,,,,
"BidOnMyTickets.com'","' - '","' - '","' - '",,,,,,,,,,,,,,,
"Bidzulu'","' - '","' - '","' - '",,,,,,,,,,,,,,,
"Big Apple Fire Engine Tours'","' - '","' - '","' - '",,,,,,,,,,,,,,,
"Big Dick Productions'","' - '","' - '","' - '",,,,,,,,,,,,,,,
"Big Drop Inc.'","'11 Broadway '","' - '","'New York'",,,,,,"10004","MANHATTAN","40.705354","-74.013731","1","1","13","1000044","1000130005","Battery Park City-Lower Manhattan                                          "
"Big Fuel Communications'","'40 W 23rd St'","'5th Flr'","'New York'",,,,,,"10010","MANHATTAN","40.742123","-73.99096","5","3","58","1080674","1008240028","Hudson Yards-Chelsea-Flatiron-Union Square                                 "
"Big Human'","'51 E 12th Street'","'9th Floor'","'New York'",,,,,,"10003","MANHATTAN","40.733373","-73.99147","2","2","61","1009203","1005640022","West Village                                                               "
"Brooklyn SkyBox Inc.'","' - '","' - '","' - '",,,,,,,,,,,,,,,
"Big Spaceship'","'45 Main Street'","'Suite 716'","'Brooklyn'",,,,,,"11201","BROOKLYN ","40.702799","-73.990677","2","33","21","3329423","3000370001","DUMBO-Vinegar Hill-Downtown Brooklyn-Boerum Hill                           "
"Big Sweet Nutrition'","' - '","' - '","' - '",,,,,,,,,,,,,,,
"BigTwist'","' - '","' - '","' - '",,,,,,,,,,,,,,,
"Bignay'","' - '","' - '","' - '",,,,,,,,,,,,,,,
"Bijoor'","' - '","' - '","' - '",,,,,,,,,,,,,,,
"Bikram Yoga Staten Island'","' - '","' - '","' - '",,,,,,,,,,,,,,,
"BillGuard'","' - '","' - '","' - '",,,,,,,,,,,,,,,
"Billboard'","'770 Broadway'","'7'","'New York'",,,,,,"10003","MANHATTAN","40.730842","-73.991402","2","2","57","1008952","1005540001","West Village                                                               "
"Bindo'","' - '","' - '","' - '",,,,,,,,,,,,,,,
"Bio-Cep'","' - '","' - '","' - '",,,,,,,,,,,,,,,
"Bio-Signal Group Corp.'","' - '","' - '","' - '",,,,,,,,,,,,,,,
"BioAegis Therapeutics, Inc.'","' - '","' - '","' - '",,,,,,,,,,,,,,,
"BioDigital'","'594 Broadway'","'Suite 606'","'New York'",,,,,,"10012","MANHATTAN","40.72496","-73.997157","2","1","43","1007944","1005110012","SoHo-TriBeCa-Civic Center-Little Italy                                     "
"BioLite'","'68 Jay Street'","'Suite 309'","'Brooklyn'",,,,,,"11201","BROOKLYN ","40.702763","-73.986681","2","33","21","3000090","3000400001","DUMBO-Vinegar Hill-Downtown Brooklyn-Boerum Hill                           "
"Biogrify'","' - '","' - '","' - '",,,,,,,,,,,,,,,
"Bionee LLC'","' - '","' - '","' - '",,,,,,,,,,,,,,,
"Bionest Partners'","' - '","' - '","' - '",,,,,,,,,,,,,,,
"Boonty'","'54 Franklin Street'","'3F'","'New York'",,,,,,"10013","MANHATTAN","40.717014","-74.002626","1","1","31","1001872","1001720030","SoHo-TriBeCa-Civic Center-Little Italy                                     "
"Biosof LLC'","'138 West 25th Street'","'10th Floor'","'New York'",,,,,,"10001","MANHATTAN","40.744684","-73.993071","4","3","91","1014991","1008000061","Hudson Yards-Chelsea-Flatiron-Union Square                                 "
"Bipe.me'","' - '","' - '","' - '",,,,,,,,,,,,,,,
"Birch Coffee'","' - '","' - '","' - '",,,,,,,,,,,,,,,
"Birchbox'","'230 Park Ave S, Suite 201, New York, NY 10003'","' - '","' - '",,,,,,,,,,,,,,,
"Bisqit, LLC'","'1430 US 206'","'Suite 210'","'Bedminster'",,,,,,,,,,,,,,,
"BitFetcher'","' - '","' - '","' - '",,,,,,,,,,,,,,,
"BitInstant LLC'","'20 W 23rd Stâ€šÃ„Ã©'","' - '","'New York'",,,,,,"10010","MANHATTAN","40.741925","-73.990487","5","3","58","1015571","1008240050","Hudson Yards-Chelsea-Flatiron-Union Square                                 "
"BiteHunter'","' - '","' - '","' - '",,,,,,,,,,,,,,,
"BiteHunter Corporation'","'95 Morton St'","' - '","'New York'",,,,,,"10014","MANHATTAN","40.73113","-74.008573","2","3","69","1010404","1006030028","West Village                                                               "
"Bitly'","'85 5th Avenue'","'4th Flr'","'New York'",,,,,,"10003","MANHATTAN","40.737416","-73.992581","5","2","52","1016080","1008440001","Hudson Yards-Chelsea-Flatiron-Union Square                                 "
"Bitly'","' - '","' - '","' - '",,,,,,,,,,,,,,,
"Bitsocket, Inc.'","' - '","' - '","' - '",,,,,,,,,,,,,,,
"Bivi'","' - '","' - '","' - '",,,,,,,,,,,,,,,
"BizSlate Inc.'","' - '","' - '","' - '",,,,,,,,,,,,,,,
"BizSlate Inc.'","' - '","' - '","' - '",,,,,,,,,,,,,,,
"Bizbash Media'","'8 West 38th Street'","' - '","'New York'",,,,,,"10018","MANHATTAN","40.751215","-73.983354","5","4","84","1075696","1008390055","Midtown-Midtown South                                                      "
"Bizo, Inc.'","'1123 Broadway'","'Suite 507'","'New York'",,,,,,"10010","MANHATTAN","40.743254","-73.989123","5","3","58","1015618","1008270028","Hudson Yards-Chelsea-Flatiron-Union Square                                 "
"Bizodo'","'7th Ave'","' - '","'New York'",,,,,,,,,,,,,,,
"Bizzabo'","' - '","' - '","' - '",,,,,,,,,,,,,,,
"Black + Blanco'","' - '","' - '","' - '",,,,,,,,,,,,,,,
"Black Business Now'","'318 West 118th Street'","'Floor 1'","'New York'",,,,,,"10026","MANHATTAN","40.806012","-73.955118","10","9","20102","1059072","1019440043","Central Harlem South                                                       "
"Black Diamond Pictures, LLC'","' - '","' - '","' - '",,,,,,,,,,,,,,,
"Black Hammer Productions'","'447 Broadway'","'Floor 2'","'New York'",,,,,,"10013","MANHATTAN","40.720393","-74.001053","2","1","47","1003022","1002310037","SoHo-TriBeCa-Civic Center-Little Italy                                     "
"Black Lapel'","'475 Park Avenue South'","'4th Floor'","'New York'",,,,,,"10016","MANHATTAN","40.745646","-73.982378","5","2","72","1018471","1008870095","Murray Hill-Kips Bay                                                       "
"Black Mountain Systems'","' - '","' - '","' - '",,,,,,,,,,,,,,,
"Black Reniassance Technology'","' - '","' - '","' - '",,,,,,,,,,,,,,,
"Black Rock'","' - '","' - '","' - '",,,,,,,,,,,,,,,
"Black Sheep projects'","' - '","' - '","' - '",,,,,,,,,,,,,,,
"BlackFeet Films'","'132 Lexington Avenue.'","' - '","'Brooklyn'",,,,,,"11216","BROOKLYN ","40.687055","-73.956266","3","36","229","3056453","3019710007","Clinton Hill                                                               "
"Blackwall Capital Markets'","' - '","' - '","' - '",,,,,,,,,,,,,,,
"BlankSlate'","'68 Jay Street'","'Suite 512'","'Brooklyn'",,,,,,"11201","BROOKLYN ","40.702763","-73.986681","2","33","21","3000090","3000400001","DUMBO-Vinegar Hill-Downtown Brooklyn-Boerum Hill                           "
"Blast Radius'","'284 Madison Avenue'","'9th floor'","'New York'",,,,,,"10017","MANHATTAN","40.751673","-73.980124","5","4","82","1035316","1012750014","Murray Hill-Kips Bay                                                       "
"Blazetrak'","' - '","' - '","' - '",,,,,,,,,,,,,,,
"Blazetrak.com'","'1133 Broadway'","'Suite 706'","'New York'",,,,,,"10010","MANHATTAN","40.743523","-73.989073","5","3","58","1015625","1008270049","Hudson Yards-Chelsea-Flatiron-Union Square                                 "
"Bleepr'","' - '","' - '","' - '",,,,,,,,,,,,,,,
"BlendED K-12'","'62 Clermont Ave'","'Suite 405'","'Brooklyn'",,,,,,"11205","BROOKLYN ","40.695407","-73.971323","2","35","187","3390220","3020450053","Fort Greene                                                                "
"Blended Inc.'","' - '","' - '","' - '",,,,,,,,,,,,,,,
"Blenderbox'","'26 Dobbin St'","' - '","'Brooklyn'",,,,,,"11222","BROOKLYN ","40.723233","-73.953479","1","33","569","3065960","3026430029","Greenpoint                                                                 "
"Blinkbuggy, Inc.'","' - '","' - '","' - '",,,,,,,,,,,,,,,
"Blinpick'","' - '","' - '","' - '",,,,,,,,,,,,,,,
"Blinq'","' - '","' - '","' - '",,,,,,,,,,,,,,,
"Blip'","'636 Broadway'","'3rd Floor'","'New York'",,,,,,"10012","MANHATTAN","40.726247","-73.996067","2","1","5502","1008213","1005220012","West Village                                                               "
"Blipit LLC'","'110E 28th street'","'Floor 8'","'New York'",,,,,,"10016","MANHATTAN","40.743042","-73.983418","5","2","68","1018203","1008830088","Gramercy                                                                   "
"Bliss and Care Spa'","' - '","' - '","' - '",,,,,,,,,,,,,,,
"Blitor'","' - '","' - '","' - '",,,,,,,,,,,,,,,
"BlocPower'","' - '","' - '","' - '",,,,,,,,,,,,,,,
"Block to Rock'","' - '","' - '","' - '",,,,,,,,,,,,,,,
"Blocksy.com'","'17 Battery Place'","'25th Floor'","'New York'",,,,,,"10004","MANHATTAN","40.704884","-74.015927","1","1","13","1082634","1000157501","Battery Park City-Lower Manhattan                                          "
"Blood, Sweat & Cheers'","' - '","' - '","' - '",,,,,,,,,,,,,,,
"Blood, Sweat & Cheers'","'12 Desbrosses St'","' - '","'New York'",,,,,,"10013","MANHATTAN","40.723365","-74.008756","1","1","39","1002932","1002250006","SoHo-TriBeCa-Civic Center-Little Italy                                     "
"Bloomberg'","'731 Lexington Ave'","' - '","'New York'",,,,,,"10022","MANHATTAN","40.761887","-73.968421","6","4","11203","1086160","1013137501","Turtle Bay-East Midtown                                                    "
"Blu Trumpet'","'555 W18th Street'","' - '","'New York'",,,,,,"10011","MANHATTAN","40.745134","-74.007525","4","3","99","1012280","1006900012","Hudson Yards-Chelsea-Flatiron-Union Square                                 "
"BluEarth Aromatherapy'","' - '","' - '","' - '",,,,,,,,,,,,,,,
"Blue 2.0'","'55 Water Street'","'4'","'Brooklyn'",,,,,,"11201","BROOKLYN ","40.703301","-73.992047","2","33","21","3000019","3000260050","DUMBO-Vinegar Hill-Downtown Brooklyn-Boerum Hill                           "
"Blue Apron'","'5 Crosby St.'","' - '","'New York'",,,,,,"10013","MANHATTAN","40.719803","-74.000393","2","1","45","1003052","1002330030","SoHo-TriBeCa-Civic Center-Little Italy                                     "
"Blue Bonnet Basket'","' - '","' - '","' - '",,,,,,,,,,,,,,,
"Blue Breeze'","' - '","' - '","' - '",,,,,,,,,,,,,,,
"Blue Cups U'","' - '","' - '","' - '",,,,,,,,,,,,,,,
"Blue Fountain Media'","'102 Madison Ave'","'2nd Flr'","'New York'",,,,,,"10016","MANHATTAN","40.74482","-73.985113","5","4","74","1016928","1008590015","Midtown-Midtown South                                                      "
"Blue Label Labs'","'902 Broadway'","'4th Floor'","'New York'",,,,,,"10010","MANHATTAN","40.739279","-73.989726","5","2","52","1016201","1008490016","Hudson Yards-Chelsea-Flatiron-Union Square                                 "
"Blue Phoenix Media'","'265 Canal Street'","' - '","'New York'",,,,,,"10013","MANHATTAN","40.718804","-74.001039","2","1","45","1002692","1002090028","SoHo-TriBeCa-Civic Center-Little Italy                                     "
"Blue State Digital'","'101 Ave of the Americas'","'12th FL'","'New York'",,,,,,"10013","MANHATTAN","40.723247","-74.004957","2","1","37","1007119","1004770011","SoHo-TriBeCa-Civic Center-Little Italy                                     "
"Blue Telescope'","'236 W 30th St'","'# 700'","'New York'",,,,,,"10001","MANHATTAN","40.748952","-73.993623","5","3","95","1014302","1007790063","Midtown-Midtown South                                                      "
"BlueCheck'","' - '","' - '","' - '",,,,,,,,,,,,,,,
"BlueLine Grid, Inc.'","' - '","' - '","' - '",,,,,,,,,,,,,,,
"BlueMetal Architects'","'14 Wall Street'","'20th Floor'","'New York'",,,,,,"10005","MANHATTAN","40.707347","-74.010997","1","1","7","1001025","1000460009","Battery Park City-Lower Manhattan                                          "
"Bluewolf Group'","'11 East 26th Street'","'21st Floor'","'New York'",,,,,,"10010","MANHATTAN","40.743188","-73.98755","5","2","56","1016876","1008560009","Hudson Yards-Chelsea-Flatiron-Union Square                                 "
"Bluum'","'325 W. 38th St.'","'Ste. 1402'","'New York'",,,,,,"10018","MANHATTAN","40.7551","-73.992539","4","3","115","1013642","1007620019","Clinton                                                                    "
"Bluum Inc.'","' - '","' - '","' - '",,,,,,,,,,,,,,,
"Bluwired'","' - '","' - '","' - '",,,,,,,,,,,,,,,
"BoSoul'","' - '","' - '","' - '",,,,,,,,,,,,,,,
"Board Vitals'","'271 W 47th Street '","'#24F'","'New York'",,,,,,"10036","MANHATTAN","40.760048","-73.986608","5","3","125","1086225","1010190001","Midtown-Midtown South                                                      "
"Boardvitals.com'","' - '","' - '","' - '",,,,,,,,,,,,,,,
"Bodian Associates'","' - '","' - '","' - '",,,,,,,,,,,,,,,
"Body&Eden'","' - '","' - '","' - '",,,,,,,,,,,,,,,
"BodyMind Kitchen'","' - '","' - '","' - '",,,,,,,,,,,,,,,
"Bodytone Health Program'","' - '","' - '","' - '",,,,,,,,,,,,,,,
"Boloro'","' - '","' - '","' - '",,,,,,,,,,,,,,,
"Bolster'","' - '","' - '","' - '",,,,,,,,,,,,,,,
"Bolt Digital'","'73 Wortman Ave'","' - '","'Brooklyn'",,,,,,"11207","BROOKLYN ","40.65485","-73.889865","5","42","1104","3097771","3043670015","East New York                                                              "
"Bombfell'","'262 W 38th Street'","'Room 702'","'New York'",,,,,,"10018","MANHATTAN","40.754216","-73.990478","5","3","109","1014468","1007870076","Midtown-Midtown South                                                      "
"BondX'","' - '","' - '","' - '",,,,,,,,,,,,,,,
"BondsOdds.com'","' - '","' - '","' - '",,,,,,,,,,,,,,,
"Bondsy'","'125 Court Street'","'Apartment 4HN'","'Brooklyn'",,,,,,"11201","BROOKLYN ","40.690112","-73.99215","2","33","9","3388736","3002777501","Brooklyn Heights-Cobble Hill                                               "
"Bonnie Young'","' - '","' - '","' - '",,,,,,,,,,,,,,,
"Bonobos'","'45 West 25th Street'","'5th Floor'","'New York'",,,,,,"10010","MANHATTAN","40.743556","-73.990364","5","3","58","1015611","1008270008","Hudson Yards-Chelsea-Flatiron-Union Square                                 "
"Bonus.ly'","' - '","' - '","'New York'",,,,,,,,,,,,,,,
"Bonusly'","' - '","' - '","' - '",,,,,,,,,,,,,,,
"Boo's Bakes'","' - '","' - '","' - '",,,,,,,,,,,,,,,
"Book&Table'","' - '","' - '","' - '",,,,,,,,,,,,,,,
"BookaLokal Inc.'","' - '","' - '","' - '",,,,,,,,,,,,,,,
"Booker Software, Inc.'","'22 Cortlandt Street'","'Floor 18'","'New York'",,,,,,"10007","MANHATTAN","40.710223","-74.010897","1","1","13","1001069","1000630003","Battery Park City-Lower Manhattan                                          "
"Bookish'","'7 West 18th Street'","' - '","'New York'",,,,,,"10011","MANHATTAN","40.738774","-73.992415","5","3","54","1015449","1008200033","Hudson Yards-Chelsea-Flatiron-Union Square                                 "
"Bookspan'","' - '","' - '","' - '",,,,,,,,,,,,,,,
"Boom'","' - '","' - '","' - '",,,,,,,,,,,,,,,
"BoomerPPL LLC'","' - '","' - '","' - '",,,,,,,,,,,,,,,
"Bootstrap Software'","'129 West 29th Street'","'12th Fl.'","'New York'",,,,,,"10001","MANHATTAN","40.747085","-73.991057","5","3","95","1015143","1008050022","Midtown-Midtown South                                                      "
"Booty SlideÂ¬Ã† Fitness'","' - '","' - '","' - '",,,,,,,,,,,,,,,
"BoozBucks'","' - '","' - '","' - '",,,,,,,,,,,,,,,
"Booze & Shoes'","' - '","' - '","' - '",,,,,,,,,,,,,,,
"Boredom Therapy'","'349 5th Avenue'","' - '","'New York'",,,,,,"10016","MANHATTAN","40.748183","-73.984517","5","4","74","1017096","1008630081","Midtown-Midtown South                                                      "
"Born In SKin'","' - '","' - '","' - '",,,,,,,,,,,,,,,
"Boston Biomotion'","' - '","' - '","' - '",,,,,,,,,,,,,,,
"BotFactory'","' - '","' - '","' - '",,,,,,,,,,,,,,,
"Botego'","'244 5th Avenue'","'Suite K-271'","'New York'",,,,,,"10001","MANHATTAN","40.744521","-73.987427","5","2","58","1015690","1008290040","Hudson Yards-Chelsea-Flatiron-Union Square                                 "
"Botego Inc'","' - '","' - '","' - '",,,,,,,,,,,,,,,
"Bounce Exchange'","' - '","' - '","' - '",,,,,,,,,,,,,,,
"Boundless Impact Investing'","' - '","' - '","' - '",,,,,,,,,,,,,,,
"Bowery Financial'","' - '","' - '","' - '",,,,,,,,,,,,,,,
"BoxKit'","' - '","' - '","' - '",,,,,,,,,,,,,,,
"Boxee'","'122 West 26th Street'","'8th Floor'","'New York'",,,,,,"10001","MANHATTAN","40.745164","-73.992295","4","3","91","1015021","1008010055","Hudson Yards-Chelsea-Flatiron-Union Square                                 "
"Boxing For All'","' - '","' - '","' - '",,,,,,,,,,,,,,,
"Boyle Software, Inc.'","'42 West 24th Street'","' - '","'New York'",,,,,,"10010","MANHATTAN","40.74276","-73.990437","5","3","58","1015587","1008250071","Hudson Yards-Chelsea-Flatiron-Union Square                                 "
"BrainGig Inc.'","' - '","' - '","' - '",,,,,,,,,,,,,,,
"BrainTracer'","' - '","' - '","' - '",,,,,,,,,,,,,,,
"Brainscape'","' - '","' - '","' - '",,,,,,,,,,,,,,,
"Braintech'","' - '","' - '","' - '",,,,,,,,,,,,,,,
"Braintive'","' - '","' - '","' - '",,,,,,,,,,,,,,,
"Brake For Life'","' - '","' - '","' - '",,,,,,,,,,,,,,,
"Branch'","'416 W 13th St.'","'Suite 203'","'New York'",,,,,,"10014","MANHATTAN","40.740569","-74.006615","2","3","79","1080266","1006450029","West Village                                                               "
"Branchly'","' - '","' - '","' - '",,,,,,,,,,,,,,,
"Brand Labs NY, Inc.'","'390 Broadway'","'4 floor'","'New York'",,,,,,"10013","MANHATTAN","40.718345","-74.002763","1","1","31","1002320","1001950004","SoHo-TriBeCa-Civic Center-Little Italy                                     "
"Brand Networks'","'175 Varick Street'","'6th Floor'","'New York'",,,,,,"10014","MANHATTAN","40.727392","-74.005517","2","3","37","1009754","1005800065","SoHo-TriBeCa-Civic Center-Little Italy                                     "
"BrandGames'","'636 Broadway'","'Suite 1100'","'New York'",,,,,,"10012","MANHATTAN","40.726247","-73.996067","2","1","5502","1008213","1005220012","West Village                                                               "
"BrandReach'","'89 5th Avenue 7th Floor'","'Suite 703'","'New York'",,,,,,"10003","MANHATTAN","40.73758","-73.992458","5","2","52","1016081","1008440003","Hudson Yards-Chelsea-Flatiron-Union Square                                 "
"BrandShare'","'263 West 38th Street'","'8th Floor'","'New York'",,,,,,"10018","MANHATTAN","40.75423","-73.990468","5","3","113","1014474","1007880011","Midtown-Midtown South                                                      "
"BrandYourself.com'","' - '","' - '","' - '",,,,,,,,,,,,,,,
"Brandemix'","'1270 Broadway'","'803'","'New York'",,,,,,"10001","MANHATTAN","40.748655","-73.988097","5","4","76","1015858","1008340080","Midtown-Midtown South                                                      "
"Brandt Works Inc.'","'611 Broadway #504'","' - '","'New York'",,,,,,"10012","MANHATTAN","40.725699","-73.996558","2","1","5501","1008240","1005230048","West Village                                                               "
"Brazilian Biologics'","' - '","' - '","' - '",,,,,,,,,,,,,,,
"Breadboye Entertainment'","' - '","' - '","' - '",,,,,,,,,,,,,,,
"Breadcrumb (apart of Groupon)'","'10 East 23rd Street'","' - '","'New York'",,,,,,"10010","MANHATTAN","40.741178","-73.988726","5","2","56","1016303","1008510063","Hudson Yards-Chelsea-Flatiron-Union Square                                 "
"Break The Crates'","'902 Broadway'","'4th Floor'","'New York'",,,,,,"10010","MANHATTAN","40.739279","-73.989726","5","2","52","1016201","1008490016","Hudson Yards-Chelsea-Flatiron-Union Square                                 "
"Breakfast'","'55 Washington St'","'#253b'","'Brooklyn'",,,,,,"11201","BROOKLYN ","40.70273","-73.989602","2","33","21","3000088","3000380001","DUMBO-Vinegar Hill-Downtown Brooklyn-Boerum Hill                           "
"Breaking Media'","'611 Broadway'","'Suite 907D'","'New York'",,,,,,"10012","MANHATTAN","40.725699","-73.996558","2","1","5501","1008240","1005230048","West Village                                                               "
"Breakneck Apparel'","' - '","' - '","' - '",,,,,,,,,,,,,,,
"Breakrs'","' - '","' - '","' - '",,,,,,,,,,,,,,,
"Breather'","'235 E 13th St'","'Apt 6L'","'New York'",,,,,,"10003","MANHATTAN","40.732239","-73.986798","3","2","40","1006916","1004690046","East Village                                                               "
"Breefly.com'","' - '","' - '","' - '",,,,,,,,,,,,,,,
"Brentmoor Restaurant Advisors LLC'","' - '","' - '","' - '",,,,,,,,,,,,,,,
"Brevity'","' - '","' - '","' - '",,,,,,,,,,,,,,,
"Brewla, Inc.'","' - '","' - '","' - '",,,,,,,,,,,,,,,
"Brick & Portal'","'626 10th Avenue'","'#5E'","'New York'",,,,,,"10036","MANHATTAN","40.761262","-73.994271","4","3","121","1026399","1010540001","Clinton                                                                    "
"CareBlue'","' - '","' - '","' - '",,,,,,,,,,,,,,,
"BrideClick, Inc'","'120 W31st St.'","'Floor 6'","'New York'",,,,,,"10001","MANHATTAN","40.748241","-73.990003","5","3","101","1015170","1008060054","Midtown-Midtown South                                                      "
"Bridgeline Digital'","'450 7th Ave'","' - '","'New York'",,,,,,"10123","MANHATTAN","40.751359","-73.990367","5","3","109","1014408","1007840041","Midtown-Midtown South                                                      "
"Brif'","' - '","' - '","' - '",,,,,,,,,,,,,,,
"Bright Power'","' - '","' - '","' - '",,,,,,,,,,,,,,,
"Bright Starts of CNY'","' - '","' - '","' - '",,,,,,,,,,,,,,,
"BrightBod'","' - '","' - '","' - '",,,,,,,,,,,,,,,
"BrightLot Inc.'","' - '","' - '","' - '",,,,,,,,,,,,,,,
"BrightWire'","'12 desbrosses'","' - '","'New York'",,,,,,,,,,,,,,,
"BrightZoo'","' - '","' - '","' - '",,,,,,,,,,,,,,,
"Brightidea Inc.'","'810 7th Avenue'","'11'","'New York'",,,,,,"10019","MANHATTAN","40.762639","-73.982146","5","4","131","1024828","1010240038","Midtown-Midtown South                                                      "
"Brightline'","'565 Fifth Avenue'","'18th Floor'","'New York'",,,,,,"10017","MANHATTAN","40.755883","-73.978506","5","4","94","1035402","1012820001","Midtown-Midtown South                                                      "
"Brillist, Inc.'","' - '","' - '","' - '",,,,,,,,,,,,,,,
"BringMeThat'","' - '","' - '","' - '",,,,,,,,,,,,,,,
"Cinchcast'","' - '","' - '","' - '",,,,,,,,,,,,,,,
"Brinkmat'","' - '","' - '","' - '",,,,,,,,,,,,,,,
"BriteRise Systems, LLC'","' - '","' - '","' - '",,,,,,,,,,,,,,,
"Brivea Inc'","' - '","' - '","' - '",,,,,,,,,,,,,,,
"Broadcastr'","'325 Gold St.'","' - '","'Brooklyn'",,,,,,"11201","BROOKLYN ","40.694575","-73.983267","2","35","15","3332462","3020490008","DUMBO-Vinegar Hill-Downtown Brooklyn-Boerum Hill                           "
"Broadway Technology'","'11 Broadway'","' - '","'New York'",,,,,,"10004","MANHATTAN","40.705354","-74.013731","1","1","13","1000044","1000130005","Battery Park City-Lower Manhattan                                          "
"Brode'","' - '","' - '","' - '",,,,,,,,,,,,,,,
"Broncks Consulting Group, Inc'","'400 E Fordham Rd'","'Fl 7'","'Bronx'",,,,,,"10458","BRONX    ","40.861668","-73.891337","6","15","38302","2116415","2030337501","Fordham South                                                              "
"Bronx Basketball Association'","' - '","' - '","' - '",,,,,,,,,,,,,,,
"Bronx Holy Flames'","' - '","' - '","' - '",,,,,,,,,,,,,,,
"Broodr'","' - '","' - '","' - '",,,,,,,,,,,,,,,
"Brooklyn Digital Foundry'","'20 Jay Street'","'Suite 115'","'Brooklyn'",,,,,,"11201","BROOKLYN ","40.704313","-73.986587","2","33","21","3000010","3000190001","DUMBO-Vinegar Hill-Downtown Brooklyn-Boerum Hill                           "
"Brooklyn Leather'","' - '","' - '","' - '",,,,,,,,,,,,,,,
"Brooklyn Research'","'630 Flushing Ave'","'FL 6'","'Brooklyn'",,,,,,"11206","BROOKLYN ","40.699963","-73.948449","3","36","257","3329628","3017200001","Bedford                                                                    "
"Brooklyn Taco Company, Inc.'","' - '","' - '","' - '",,,,,,,,,,,,,,,
"Brooklyn Translation Works LLC'","' - '","'c/o Brooklyn Creative League'","'Brooklyn'",,,,,,,,,,,,,,,
"Brooklyn United (in association w/ Brooklyn Digital Foundry)'","'20 Jay St #1105'","' - '","'Brooklyn'",,,,,,"11201","BROOKLYN ","40.704313","-73.986587","2","33","21","3000010","3000190001","DUMBO-Vinegar Hill-Downtown Brooklyn-Boerum Hill                           "
"Brouha'","' - '","' - '","' - '",,,,,,,,,,,,,,,
"Brown Belt'","' - '","' - '","' - '",,,,,,,,,,,,,,,
"BrunchCritic'","'175 Varick St.'","' - '","'New York'",,,,,,"10014","MANHATTAN","40.727392","-74.005517","2","3","37","1009754","1005800065","SoHo-TriBeCa-Civic Center-Little Italy                                     "
"Bubba & Shirley Trading Co.'","' - '","' - '","' - '",,,,,,,,,,,,,,,
"Bubbl'","' - '","' - '","' - '",,,,,,,,,,,,,,,
"Bubble'","' - '","' - '","' - '",,,,,,,,,,,,,,,
"Bubble News'","' - '","' - '","' - '",,,,,,,,,,,,,,,
"Bubblerock Entertainment'","' - '","' - '","' - '",,,,,,,,,,,,,,,
"Buddy Media (Sales Force Marketing Cloud)'","'155 6th Avenue'","'12th Flr'","'New York'",,,,,,"10013","MANHATTAN","40.725248","-74.004412","2","3","37","1007385","1004910046","SoHo-TriBeCa-Civic Center-Little Italy                                     "
"Budge, Inc'","' - '","' - '","' - '",,,,,,,,,,,,,,,
"Buffalo Forklift LLC (Own Real Assets)'","' - '","' - '","' - '",,,,,,,,,,,,,,,
"Bug Labs'","'598 Broadway'","'4th Floor'","'New York'",,,,,,"10012","MANHATTAN","40.725045","-73.997085","2","1","43","1007945","1005110015","SoHo-TriBeCa-Civic Center-Little Italy                                     "
"Build Long Island'","' - '","' - '","' - '",,,,,,,,,,,,,,,
"BuilderBuzz'","' - '","' - '","' - '",,,,,,,,,,,,,,,
"Building Link'","'85 Fifth Avenue'","'3rd Floor'","'New York'",,,,,,"10003","MANHATTAN","40.737416","-73.992581","5","2","52","1016080","1008440001","Hudson Yards-Chelsea-Flatiron-Union Square                                 "
"Built by the Factory'","'261 Madison Avenue'","' - '","'New York'",,,,,,"10016","MANHATTAN","40.750806","-73.98073","6","4","82","1017231","1008680025","Murray Hill-Kips Bay                                                       "
"Bulb Master Inc'","' - '","' - '","' - '",,,,,,,,,,,,,,,
"Bull Moose Brewing'","' - '","' - '","' - '",,,,,,,,,,,,,,,
"BumpUp'","' - '","' - '","' - '",,,,,,,,,,,,,,,
"Bundle Organics'","' - '","' - '","' - '",,,,,,,,,,,,,,,
"BundleNYC'","'128 Thompson Street'","' - '","'New York'",,,,,,"10012","MANHATTAN","40.726401","-74.001353","2","1","49","1008022","1005160002","SoHo-TriBeCa-Civic Center-Little Italy                                     "
"Bunker New York'","'28 Howard St'","'3rd Floor'","'New York'",,,,,,"10013","MANHATTAN","40.719506","-74.000498","2","1","45","1003053","1002330033","SoHo-TriBeCa-Civic Center-Little Italy                                     "
"Bunny Inc. (VoiceBunny)'","'902 Broadway Ave.'","'4th Floor'","'New York'",,,,,,"10010","MANHATTAN","40.739279","-73.989726","5","2","52","1016201","1008490016","Hudson Yards-Chelsea-Flatiron-Union Square                                 "
"Bureau Blank'","'273 Grand Street'","'Floor 6'","'New York'",,,,,,"10002","MANHATTAN","40.717854","-73.992901","3","1","16","1003958","1003060016","Chinatown                                                                  "
"Burnout Brooklyn'","' - '","' - '","' - '",,,,,,,,,,,,,,,
"Burringo'","' - '","' - '","' - '",,,,,,,,,,,,,,,
"Burst Media'","'1156 Avenue of the Americas'","'Suite 301'","'New York'",,,,,,"10036","MANHATTAN","40.756622","-73.982808","5","4","96","1034240","1012600071","Midtown-Midtown South                                                      "
"BusGenie'","' - '","' - '","' - '",,,,,,,,,,,,,,,
"Bushel Entertainment'","' - '","' - '","' - '",,,,,,,,,,,,,,,
"Business Insider'","' - '","' - '","' - '",,,,,,,,,,,,,,,
"Business Management Consortium, LLC'","' - '","' - '","' - '",,,,,,,,,,,,,,,
"Business Mentor NY'","'253 W 16th St'","' - '","'New York'",,,,,,"10011","MANHATTAN","40.740512","-74.000188","4","3","81","1013795","1007660009","Hudson Yards-Chelsea-Flatiron-Union Square                                 "
"BusinessReel'","'28 Howard St'","' - '","'New York'",,,,,,"10013","MANHATTAN","40.719506","-74.000498","2","1","45","1003053","1002330033","SoHo-TriBeCa-Civic Center-Little Italy                                     "
"BusinessWeek.com (acquired by Bloombergs)'","'731 Lexington Ave'","' - '","'New York'",,,,,,"10022","MANHATTAN","40.761887","-73.968421","6","4","11203","1086160","1013137501","Turtle Bay-East Midtown                                                    "
"Busker'","' - '","' - '","' - '",,,,,,,,,,,,,,,
"BustedTees'","'54 West 22nd Street'","' - '","'New York'",,,,,,"10010","MANHATTAN","40.741588","-73.991776","5","3","58","1015551","1008230072","Hudson Yards-Chelsea-Flatiron-Union Square                                 "
"Bustr'","' - '","' - '","' - '",,,,,,,,,,,,,,,
"Butter Beans, Inc.'","' - '","' - '","' - '",,,,,,,,,,,,,,,
"Buy Me A Drink'","' - '","' - '","' - '",,,,,,,,,,,,,,,
"BuyFolio (AgentFolio) (acquired by Zillow)'","'305 W Broadway'","'Suite 227'","'New York'",,,,,,"10013","MANHATTAN","40.721595","-74.004419","2","1","47","1002959","1002280010","SoHo-TriBeCa-Civic Center-Little Italy                                     "
"Buyology Inc'","' - '","' - '","' - '",,,,,,,,,,,,,,,
"Buyou'","' - '","' - '","' - '",,,,,,,,,,,,,,,
"BuzzBuzzHome Corp.'","'175 Varick St.'","'4'","'New York'",,,,,,"10014","MANHATTAN","40.727392","-74.005517","2","3","37","1009754","1005800065","SoHo-TriBeCa-Civic Center-Little Italy                                     "
"BuzzFeed'","' - '","' - '","' - '",,,,,,,,,,,,,,,
"BuzzTable'","' - '","' - '","' - '",,,,,,,,,,,,,,,
"Buzzr'","'38 W 21st St'","'3rd Flr'","'New York'",,,,,,"10010","MANHATTAN","40.740816","-73.991848","5","3","54","1015508","1008220062","Hudson Yards-Chelsea-Flatiron-Union Square                                 "
"Buzztala'","' - '","' - '","' - '",,,,,,,,,,,,,,,
"Byte Dept.'","'148 Madison Ave'","'#600'","'New York'",,,,,,"10016","MANHATTAN","40.746335","-73.984012","5","4","74","1017000","1008610064","Midtown-Midtown South                                                      "
"ByteFly, Inc.'","'217 Water Street'","'Suite 201'","'New York'",,,,,,"10038","MANHATTAN","40.707525","-74.003365","1","1","1501","1082012","1000960005","Battery Park City-Lower Manhattan                                          "
"Bytemark'","' - '","' - '","' - '",,,,,,,,,,,,,,,
"C M INNOVATION'","' - '","' - '","' - '",,,,,,,,,,,,,,,
"C&C Entertainment Firm'","' - '","' - '","' - '",,,,,,,,,,,,,,,
"C&C Graphics'","' - '","' - '","' - '",,,,,,,,,,,,,,,
"C-EDI Inc.'","' - '","' - '","' - '",,,,,,,,,,,,,,,
"C-Suite Mentor'","' - '","' - '","' - '",,,,,,,,,,,,,,,
"C-vibes'","'154 Grand St'","' - '","'New York'",,,,,,"10013","MANHATTAN","40.719976","-73.9989","2","1","45","1007009","1004720028","SoHo-TriBeCa-Civic Center-Little Italy                                     "
"C.M. Cherry International LLC'","' - '","' - '","' - '",,,,,,,,,,,,,,,
"C.TrAm'","' - '","' - '","' - '",,,,,,,,,,,,,,,
"C3 Metrics'","'1230 Avenue of the Americas'","'7th Floor'","'New York'",,,,,,"10020","MANHATTAN","40.758977","-73.981089","5","4","96","1077287","1012640005","Midtown-Midtown South                                                      "
"CA-Speak'","' - '","' - '","' - '",,,,,,,,,,,,,,,
"CADRE (Next Street)'","'37 West 20th Street'","'Suite 1101'","'New York'",,,,,,"10011","MANHATTAN","40.740232","-73.992252","5","3","54","1015489","1008220009","Hudson Yards-Chelsea-Flatiron-Union Square                                 "
"CALM Energy'","' - '","' - '","' - '",,,,,,,,,,,,,,,
"CAPPTURE'","' - '","' - '","' - '",,,,,,,,,,,,,,,
"CARality'","' - '","' - '","' - '",,,,,,,,,,,,,,,
"CASE'","'125 Maiden Lane'","'Suite 14A'","'New York'",,,,,,"10038","MANHATTAN","40.706397","-74.006341","1","1","1502","1087484","1000707501","Battery Park City-Lower Manhattan                                          "
"CASH COACH'","' - '","' - '","' - '",,,,,,,,,,,,,,,
"CASTNREEL, Inc.'","' - '","' - '","' - '",,,,,,,,,,,,,,,
"CBS Interactive'","'28 East 28th Street'","'10th floor'","'New York'",,,,,,"10016","MANHATTAN","40.743876","-73.985406","5","2","56","1016889","1008570024","Hudson Yards-Chelsea-Flatiron-Union Square                                 "
"CBSEE'","' - '","' - '","' - '",,,,,,,,,,,,,,,
"CD Trade'","' - '","' - '","' - '",,,,,,,,,,,,,,,
"CH Media (College Humor Media)'","'555 West 18th Street'","' - '","'New York'",,,,,,"10011","MANHATTAN","40.745134","-74.007525","4","3","99","1012280","1006900012","Hudson Yards-Chelsea-Flatiron-Union Square                                 "
"CHIPS NY'","' - '","' - '","'Brooklyn'",,,,,,,,,,,,,,,
"CHIYOME'","' - '","' - '","' - '",,,,,,,,,,,,,,,
"CHOICE Financial Solutions'","' - '","' - '","' - '",,,,,,,,,,,,,,,
"CHRISTIAN COTA INTERNATIONAL LLC.'","' - '","' - '","' - '",,,,,,,,,,,,,,,
"CIG, LLC'","' - '","' - '","' - '",,,,,,,,,,,,,,,
"CLEARGOALS'","'105 W 86TH ST'","'227'","'New York'",,,,,,"10024","MANHATTAN","40.786604","-73.972433","7","6","173","1032199","1012170029","Upper West Side                                                            "
"CLPinc.'","' - '","' - '","' - '",,,,,,,,,,,,,,,
"CMP.LY'","' - '","' - '","' - '",,,,,,,,,,,,,,,
"CNEKT'","' - '","' - '","' - '",,,,,,,,,,,,,,,
"COAWAY LLC'","' - '","' - '","' - '",,,,,,,,,,,,,,,
"COLLIDR'","' - '","' - '","' - '",,,,,,,,,,,,,,,
"CONEY  ISLAND  ICE CREAM'","' - '","' - '","' - '",,,,,,,,,,,,,,,
"COOKING LESSONS IN FRANCE'","' - '","' - '","' - '",,,,,,,,,,,,,,,
"CORP Online LLC'","' - '","' - '","' - '",,,,,,,,,,,,,,,
"CRT/tanaka'","' - '","' - '","'New York'",,,,,,,,,,,,,,,
"CS Int'","' - '","' - '","' - '",,,,,,,,,,,,,,,
"CSBM'","' - '","' - '","' - '",,,,,,,,,,,,,,,
"CSRHub LLC'","' - '","' - '","' - '",,,,,,,,,,,,,,,
"CURA Physical and Massage Therapy,LLP'","' - '","' - '","' - '",,,,,,,,,,,,,,,
"CabCorner LLC'","'46 President Street'","'1st Floor'","'Brooklyn'",,,,,,"11231","BROOKLYN ","40.684115","-74.004774","6","39","51","3401409","3003477503","Carroll Gardens-Columbia Street-Red Hook                                   "
"CabEasy'","' - '","' - '","' - '",,,,,,,,,,,,,,,
"Caboost'","' - '","' - '","' - '",,,,,,,,,,,,,,,
"Caeden, Inc.'","' - '","' - '","' - '",,,,,,,,,,,,,,,
"Cafe Empire'","' - '","' - '","' - '",,,,,,,,,,,,,,,
"CafeMom'","'401 Park Ave S Fl 5'","' - '","'New York'",,,,,,"10016","MANHATTAN","40.743228","-73.984132","5","2","68","1018203","1008830088","Gramercy                                                                   "
"Cake Group'","'195 Broadway'","'12th Floor'","'New York'",,,,,,"10007","MANHATTAN","40.710536","-74.009378","1","1","13","1001227","1000800001","Battery Park City-Lower Manhattan                                          "
"CalPal'","' - '","' - '","' - '",,,,,,,,,,,,,,,
"Calcbench, Inc.'","' - '","' - '","' - '",,,,,,,,,,,,,,,
"Calcorie'","' - '","' - '","' - '",,,,,,,,,,,,,,,
"CallSeniorCare.com'","' - '","' - '","' - '",,,,,,,,,,,,,,,
"Callision'","' - '","' - '","' - '",,,,,,,,,,,,,,,
"Calvin'","' - '","' - '","' - '",,,,,,,,,,,,,,,
"Camayak'","'230 W 38th Street'","'Flr 9'","'New York'",,,,,,"10018","MANHATTAN","40.753942","-73.989829","5","3","109","1014462","1007870059","Midtown-Midtown South                                                      "
"Camille Zarsky Handbags'","' - '","' - '","' - '",,,,,,,,,,,,,,,
"Campalyst Inc'","' - '","' - '","' - '",,,,,,,,,,,,,,,
"Campfire'","'313 Church Street'","'2nd Floor'","'New York'",,,,,,"10013","MANHATTAN","40.719778","-74.004113","1","1","33","1002297","1001940019","SoHo-TriBeCa-Civic Center-Little Italy                                     "
"Campus Dining Delivery'","' - '","' - '","' - '",,,,,,,,,,,,,,,
"Campus Job'","'55 E 52nd St. '","' - '","'New York'",,,,,,"10055","MANHATTAN","40.758828","-73.973978","5","4","102","1083869","1012880027","Midtown-Midtown South                                                      "
"Canada Debt relief'","' - '","' - '","' - '",,,,,,,,,,,,,,,
"Canal'","' - '","' - '","' - '",,,,,,,,,,,,,,,
"CandidShots4u'","' - '","' - '","' - '",,,,,,,,,,,,,,,
"CannRx Technology, Inc.'","' - '","' - '","' - '",,,,,,,,,,,,,,,
"Canvas'","'104 Fifth Avenue'","'10H Flr'","'New York'",,,,,,"10011","MANHATTAN","40.737059","-73.992862","5","3","54","1080621","1008177502","Hudson Yards-Chelsea-Flatiron-Union Square                                 "
"Canvas Squared'","' - '","' - '","' - '",,,,,,,,,,,,,,,
"Canvita'","' - '","' - '","' - '",,,,,,,,,,,,,,,
"Canvs+'","' - '","' - '","' - '",,,,,,,,,,,,,,,
"Capital Gain Advisor'","' - '","' - '","' - '",,,,,,,,,,,,,,,
"CatchEye'","' - '","' - '","' - '",,,,,,,,,,,,,,,
"Capital New York'","'333 West 39th St.'","'Suite 902'","'New York'",,,,,,"10018","MANHATTAN","40.755792","-73.99225","4","3","115","1013681","1007630018","Clinton                                                                    "
"Capture Your Flag'","' - '","' - '","' - '",,,,,,,,,,,,,,,
"Car Part Kings'","' - '","' - '","'New York'",,,,,,,,,,,,,,,
"Caravan Interactive'","'68 Jay St #1002'","' - '","'Brooklyn'",,,,,,"11201","BROOKLYN ","40.702763","-73.986681","2","33","21","3000090","3000400001","DUMBO-Vinegar Hill-Downtown Brooklyn-Boerum Hill                           "
"Carbon38'","' - '","' - '","' - '",,,,,,,,,,,,,,,
"Carbonmade'","'187 Lafayette St.'","'4th Floor'","'New York'",,,,,,"10013","MANHATTAN","40.720753","-73.998445","2","1","45","1007001","1004720010","SoHo-TriBeCa-Civic Center-Little Italy                                     "
"CardSpark'","' - '","' - '","' - '",,,,,,,,,,,,,,,
"Care Innovations LLC'","'29 W 35th St'","'12th floor'","'New York'",,,,,,"10001","MANHATTAN","40.74961","-73.985267","5","4","84","1015891","1008370023","Midtown-Midtown South                                                      "
"CareGuardian'","'740 Broadway'","'#1203'","'New York'",,,,,,"10003","MANHATTAN","40.729884","-73.992993","2","2","57","1080092","1005450026","West Village                                                               "
"CarePlanners'","' - '","' - '","' - '",,,,,,,,,,,,,,,
"Career Quad  STUDIOS'","' - '","' - '","' - '",,,,,,,,,,,,,,,
"CareerApp'","' - '","' - '","' - '",,,,,,,,,,,,,,,
"CareerThesaurus'","'65 15th Street '","'#2F'","'Brooklyn'",,,,,,"11215","BROOKLYN ","40.668272","-73.994881","6","39","117","3023588","3010390055","Park Slope-Gowanus                                                         "
"Careeref, Inc.'","' - '","' - '","' - '",,,,,,,,,,,,,,,
"Careeris'","' - '","' - '","' - '",,,,,,,,,,,,,,,
"Carette International'","' - '","' - '","' - '",,,,,,,,,,,,,,,
"CariCorps'","'601 West 26th Street'","'Suite 325'","'New York'",,,,,,"10001","MANHATTAN","40.750934","-74.005955","4","3","99","1012268","1006720001","Hudson Yards-Chelsea-Flatiron-Union Square                                 "
"Caritas'","' - '","' - '","' - '",,,,,,,,,,,,,,,
"Carpathia Hosting'","'1500 Broadway Avenue'","'1811'","'New York'",,,,,,"10036","MANHATTAN","40.756856","-73.985973","5","4","119","1022610","1009960001","Midtown-Midtown South                                                      "
"CarpeCultum'","'20 River Terrace'","' - '","'New York'",,,,,,"10282","MANHATTAN","40.716942","-74.016298","1","1","31703","1086174","1000160180","Battery Park City-Lower Manhattan                                          "
"Carrot Creative'","'45 Main St.'","'Suite 1200'","'New York'",,,,,,,,,,,,,,,
"CartRescue911 LLC'","' - '","' - '","' - '",,,,,,,,,,,,,,,
"Cartonomy'","'105 Madison Ave'","'9th Floor'","'New York'",,,,,,"10016","MANHATTAN","40.744889","-73.985041","5","2","74","1016939","1008590064","Midtown-Midtown South                                                      "
"Cartoon Brew'","'PO Box 15054'","' - '","'Brooklyn'",,,,,,,,,,,,,,,
"Cartoon Encyclopedia'","' - '","' - '","' - '",,,,,,,,,,,,,,,
"CartridgeExpert'","' - '","' - '","' - '",,,,,,,,,,,,,,,
"CarusoApps'","'383 Brookfield Ave'","' - '","'Staten Island'",,,,,,,,,,,,,,,
"Case Commons'","'841 Broadway'","'8th Floor'","'New York'",,,,,,"10003","MANHATTAN","40.734243","-73.990896","2","2","61","1080132","1005650015","West Village                                                               "
"Case Tracker'","' - '","' - '","' - '",,,,,,,,,,,,,,,
"CaseRails'","' - '","' - '","' - '",,,,,,,,,,,,,,,
"Caskers'","' - '","' - '","' - '",,,,,,,,,,,,,,,
"Casserole Labs'","'231 Front Street'","'3'","'Brooklyn'",,,,,,"11201","BROOKLYN ","40.702337","-73.983976","2","33","21","3329427","3000420011","DUMBO-Vinegar Hill-Downtown Brooklyn-Boerum Hill                           "
"Casting to the People'","' - '","' - '","' - '",,,,,,,,,,,,,,,
"Castle Ridge Media'","'78 Ridge St'","'Suite 1D'","'New York'",,,,,,"10002","MANHATTAN","40.717707","-73.983828","3","1","12","1075794","1003437501","Lower East Side                                                            "
"Cat2See'","' - '","' - '","' - '",,,,,,,,,,,,,,,
"Catalyst Global LLC'","' - '","' - '","' - '",,,,,,,,,,,,,,,
"Catalyst Online'","'498 7th Avenue'","' - '","'New York'",,,,,,"10018","MANHATTAN","40.752808","-73.98932","5","3","109","1014445","1007860051","Midtown-Midtown South                                                      "
"Catchafire'","' - '","' - '","' - '",,,,,,,,,,,,,,,
"Catchafire'","'31 East 32nd Street'","' - '","'New York'",,,,,,"10016","MANHATTAN","40.746352","-73.983572","5","2","74","1017017","1008620026","Midtown-Midtown South                                                      "
"Catchpoint Systems'","'336 West 37th Street'","'SUITE 405'","'New York'",,,,,,"10018","MANHATTAN","40.754573","-73.99324","4","3","111","1013604","1007600063","Hudson Yards-Chelsea-Flatiron-Union Square                                 "
"Categorical'","' - '","' - '","' - '",,,,,,,,,,,,,,,
"Cater2.me'","'40 West 29th St'","' - '","'New York'",,,,,,"10001","MANHATTAN","40.746199","-73.988996","5","3","76","1015741","1008300069","Midtown-Midtown South                                                      "
"CaterCow'","' - '","' - '","' - '",,,,,,,,,,,,,,,
"CauseCart'","' - '","' - '","' - '",,,,,,,,,,,,,,,
"CauseCart'","'DUMBO'","' - '","'Brooklyn'",,,,,,,,,,,,,,,
"CauseVox'","' - '","' - '","' - '",,,,,,,,,,,,,,,
"Cedar Grown Transportation'","' - '","' - '","' - '",,,,,,,,,,,,,,,
"Cellfish'","' - '","' - '","' - '",,,,,,,,,,,,,,,
"Centers for HER: Healing, Evaluation and Relationship'","' - '","' - '","' - '",,,,,,,,,,,,,,,
"Central E inc'","' - '","' - '","' - '",,,,,,,,,,,,,,,
"Centrallo'","' - '","' - '","' - '",,,,,,,,,,,,,,,
"Centric Digital'","'120 Fifth Ave '","'7th Floor '","'New York'",,,,,,"10011","MANHATTAN","40.738091","-73.992108","5","3","54","1015419","1008190037","Hudson Yards-Chelsea-Flatiron-Union Square                                 "
"CentricSocial'","' - '","' - '","' - '",,,,,,,,,,,,,,,
"Centzy'","' - '","' - '","' - '",,,,,,,,,,,,,,,
"Cessair Therapeutics'","' - '","' - '","' - '",,,,,,,,,,,,,,,
"ChEucBa'","' - '","' - '","' - '",,,,,,,,,,,,,,,
"Chainbits'","' - '","' - '","' - '",,,,,,,,,,,,,,,
"Chalkable'","' - '","' - '","' - '",,,,,,,,,,,,,,,
"Challengage'","' - '","' - '","' - '",,,,,,,,,,,,,,,
"ChallengePost, Inc.'","' - '","' - '","' - '",,,,,,,,,,,,,,,
"Chamblu Entertainment, Inc.'","' - '","' - '","' - '",,,,,,,,,,,,,,,
"ChameleonJohn'","' - '","' - '","' - '",,,,,,,,,,,,,,,
"Citizen Spend'","' - '","' - '","' - '",,,,,,,,,,,,,,,
"Change.org'","'64 Fulton Street'","'10th Floor'","'New York'",,,,,,"10038","MANHATTAN","40.708769","-74.005136","1","1","1502","1001176","1000760001","Battery Park City-Lower Manhattan                                          "
"Chango'","'20 West 22nd St.'","'Suite 1001'","'New York'",,,,,,"10010","MANHATTAN","40.741253","-73.990978","5","3","58","1015540","1008230055","Hudson Yards-Chelsea-Flatiron-Union Square                                 "
"Characters for Hire, LLC'","' - '","' - '","' - '",,,,,,,,,,,,,,,
"ChargeUp'","' - '","' - '","' - '",,,,,,,,,,,,,,,
"Charged.fm'","' - '","' - '","' - '",,,,,,,,,,,,,,,
"Charideem, Inc'","' - '","' - '","' - '",,,,,,,,,,,,,,,
"Charitable Checkout'","' - '","' - '","' - '",,,,,,,,,,,,,,,
"Charitable.org'","' - '","' - '","' - '",,,,,,,,,,,,,,,
"Charity Miles'","' - '","' - '","' - '",,,,,,,,,,,,,,,
"CharityTick'","' - '","' - '","' - '",,,,,,,,,,,,,,,
"Chart Prophet'","' - '","' - '","' - '",,,,,,,,,,,,,,,
"Chartbeat'","' - '","' - '","' - '",,,,,,,,,,,,,,,
"Chartbeat'","' - '","' - '","' - '",,,,,,,,,,,,,,,
"Chartered Capital Advisers, Inc.'","' - '","' - '","' - '",,,,,,,,,,,,,,,
"Chat ID'","' - '","' - '","'New York'",,,,,,,,,,,,,,,
"Chat.cc'","'440 E 20th st'","'#11B'","'New York'",,,,,,"10009","MANHATTAN","40.734189","-73.978267","6","4","44","1082866","1009720001","Stuyvesant Town-Cooper Village                                             "
"Chatalog'","' - '","' - '","' - '",,,,,,,,,,,,,,,
"CheapInTheCity.com'","'634 St. Nicholas Ave'","' - '","'New York'",,,,,,"10030","MANHATTAN","40.821968","-73.945732","9","9","227","1061047","1020510020","Hamilton Heights                                                           "
"Cheapism'","' - '","' - '","' - '",,,,,,,,,,,,,,,
"Cheater Beater'","' - '","' - '","' - '",,,,,,,,,,,,,,,
"Cheek'd, Inc.'","' - '","' - '","' - '",,,,,,,,,,,,,,,
"Cheeki Brand LLC'","' - '","' - '","' - '",,,,,,,,,,,,,,,
"CheetahMail (acquired by Experian)'","'29 Broadway, 6th floor'","' - '","'New York'",,,,,,"10006","MANHATTAN","40.70601","-74.01315","1","1","13","1000802","1000200001","Battery Park City-Lower Manhattan                                          "
"ChefPrive'","' - '","' - '","' - '",,,,,,,,,,,,,,,
"Chefday'","'1304 Willoughby Ave'","' - '","'Brooklyn'",,,,,,"11237","BROOKLYN ","40.705237","-73.921824","4","34","445","3072972","3032100029","Bushwick North                                                             "
"Cherrysh'","' - '","' - '","' - '",,,,,,,,,,,,,,,
"Chez Tates'","' - '","' - '","' - '",,,,,,,,,,,,,,,
"Chia Charger'","' - '","' - '","' - '",,,,,,,,,,,,,,,
"Chic Sugars'","' - '","' - '","' - '",,,,,,,,,,,,,,,
"ChicRebellion.tv'","' - '","' - '","' - '",,,,,,,,,,,,,,,
"ChickRx'","'902 Broadway'","' - '","'New York'",,,,,,"10010","MANHATTAN","40.739279","-73.989726","5","2","52","1016201","1008490016","Hudson Yards-Chelsea-Flatiron-Union Square                                 "
"Chiefofstaff.com, LLC'","' - '","' - '","' - '",,,,,,,,,,,,,,,
"Chillaxing App'","'442 97th street'","' - '","'Brooklyn'",,,,,,"11209","BROOKLYN ","40.614407","-74.031152","10","43","162","3350376","3061277502","Bay Ridge                                                                  "
"Chimpanzee'","'275 Madison Avenue'","'14th Floor'","'New York'",,,,,,"10016","MANHATTAN","40.751261","-73.979868","6","4","82","1017597","1008690054","Murray Hill-Kips Bay                                                       "
"ChinaUScommerce.com'","' - '","' - '","' - '",,,,,,,,,,,,,,,
"ChineseCUBES'","' - '","' - '","' - '",,,,,,,,,,,,,,,
"ChipperSitter'","' - '","' - '","' - '",,,,,,,,,,,,,,,
"Chitta Wellness LLC'","' - '","' - '","' - '",,,,,,,,,,,,,,,
"Chloe + Isabel'","'122 Hudson St'","'6th Flr'","'New York'",,,,,,"10013","MANHATTAN","40.72005","-74.008553","1","1","33","1002165","1001900016","SoHo-TriBeCa-Civic Center-Little Italy                                     "
"Chocolatania'","' - '","' - '","' - '",,,,,,,,,,,,,,,
"Chocomize'","' - '","' - '","' - '",,,,,,,,,,,,,,,
"Choozer'","' - '","' - '","' - '",,,,,,,,,,,,,,,
"Christopher Jarczynski'","' - '","' - '","' - '",,,,,,,,,,,,,,,
"Chromation'","' - '","' - '","' - '",,,,,,,,,,,,,,,
"Chronopix'","' - '","' - '","'New York'",,,,,,,,,,,,,,,
"ChubbyBrain'","' - '","' - '","'New York'",,,,,,,,,,,,,,,
"Chumfo'","' - '","' - '","' - '",,,,,,,,,,,,,,,
"Cidea Incorporated'","' - '","' - '","' - '",,,,,,,,,,,,,,,
"Cipherhealth'","' - '","' - '","' - '",,,,,,,,,,,,,,,
"Circcle Interactive'","' - '","' - '","' - '",,,,,,,,,,,,,,,
"Circles io'","' - '","' - '","' - '",,,,,,,,,,,,,,,
"Cirqa'","' - '","' - '","' - '",,,,,,,,,,,,,,,
"Cisse'","' - '","' - '","' - '",,,,,,,,,,,,,,,
"Citease Inc.'","' - '","' - '","' - '",,,,,,,,,,,,,,,
