"calendarnumber","premiseaddressnumber","premiseaddressstreet","borough","block","lot","c1","c2","c3","postcode","latitude","longitude","community_board","council_district","census_tract","bin","bbl","nta"
"6-16-S","17-19","Rush St","Brooklyn","02163","35","6","1916","S","11249","40.705921","-73.967651","301","33","545","3000000","3021630001","Williamsburg"
"12-16-S","44-50","East 32nd St","Manhattan","00861","47","12","1916","S","10016","40.746261","-73.983399","105","2","74","1016993","1008610047","Midtown-Midtown South"
"13-16-S","22","East 42nd St","Manhattan","01276","64","13","1916","S","10017","40.753147","-73.98012","105","4","82","1085972","1012760058","Murray Hill-Kips Bay"
"14-16-S","352-358","E 149th St","Bronx","02337","39","14","1916","S","10451","40.816656","-73.919966","201","17","65","2097043","2023300039","Melrose South-Mott Haven North"
"14-16-BZ","13-15","Sumpter St","Brooklyn","01695","16-20,42,43","14","1916","BZ","11233","40.679242","-73.926513","303","36","381","3047927","3016950042","Crown Heights North"
"16-16-S","1332-1350","Broadway Ave","Manhattan","00811","31","16","1916","S","10018","40.750774","-73.987747","105","4","109","1080606","1008110031","Midtown-Midtown South"
"17-16-S","80","Jefferson St","Manhattan","00247","34","17","1916","S","10002","40.71151","-73.988324","103","1","6",,,"Lower East Side"
"18-16-S","3911","2nd Ave","Brooklyn","00707","6","18","1916","S","11232","40.655141","-74.010617","307","38","2","3010455","3007070007","Sunset Park West"
"19-16-S","30-30","Northern Blvd","Queens","00239","60","19","1916","S","11101","40.751201","-73.934402","401","26","171","4003411","4002390060","Hunters Point-Sunnyside-West Maspeth"
"21-16-S","610-618","Broadway","Manhattan","00522","1","21","1916","S","10012","40.725723","-73.996511","102","1","5502","1008209","1005220001","West Village"
"26-16-S","47-51","Pike St","Manhattan","00272","47","26","1916","S","10002","40.71223","-73.992364","103","1","6","1077508","1002550001","Lower East Side"
"29-16-S","240-242","West 23rd St","Manhattan","00772","67","29","1916","S","10011","40.744613","-73.996889","104","3","91","1014132","1007720067","Hudson Yards-Chelsea-Flatiron-Union Square"
"32-16-S","1123-1127","Broadway","Manhattan","00827","28","32","1916","S","10010","40.743254","-73.989123","105","3","58","1015618","1008270028","Hudson Yards-Chelsea-Flatiron-Union Square"
"32-16-S","9","West 25th Street","Manhattan","00827","28","32","1916","S","10010","40.743245","-73.989639","105","3","58","1015618","1008270028","Hudson Yards-Chelsea-Flatiron-Union Square"
"34-16-S","99","Maiden Lane","Manhattan","00069","14","34","1916","S","10038","40.706993","-74.007134","101","1","1502","1087832","1000690006","Battery Park City-Lower Manhattan"
"35-16-S","131-133","Boerum St","Brooklyn","03070","28","35","1916","S","11206","40.705837","-73.943651","301","34","505","3071281","3030700028","East Williamsburg"
"36-16-S","384-390","5th Ave","Manhattan","00837","48","36","1916","S","10018","40.749462","-73.983827","105","4","84","1015899","1008370045","Midtown-Midtown South"
"37-16-A","145-147","40thSt","Manhattan","01295","29,30,41,44","37","1916","A",,,,,,,,,
"38-16-A","951-969","8th Ave","Manhattan","01047","36","38","1916","A","10019","40.766155","-73.983296","104","3","139","1025451","1010477502","Clinton"
"40-16-S","(98-100)","Walker St","Manhattan","00197","30","40","1916","S",,,,,,,,,
"45-16-A","1880","Sterling Pl","Brooklyn","01472","20","45","1916","A","11233","40.670663","-73.916201","316","41","361","3000000","3014720020","Ocean Hill"
"52-16-BZ","761","Park Pl","Brooklyn","01233","81","52","1916","BZ","11216","40.673541","-73.95223","308","36","31701","3031227","3012330081","Crown Heights North"
"54-16-S","81 & 81 1/2","Walker St","Manhattan","00195","11","54","1916","S",,,,,,,,,
"55-16-BZ","28-30","Quincy Ave","Brooklyn","01972","17","55","1916","BZ",,,,,,,,,
"62-16-S","996","East 163rd St","Bronx","NONE",,"62","1916","S","10459","40.820972","-73.89372","202","17","87",,,"Longwood"
"66-16-A","228-230,230-232","Canal St","Manhattan","00198","27&29","66","1916","A",,,,,,,,,
"67-16-S","34","West 17th St","Manhattan","00818","70","67","1916","S","10011","40.738429","-73.993465","105","3","54","1015401","1008187502","Hudson Yards-Chelsea-Flatiron-Union Square"
"67-16-S","34","West 17th St","Manhattan","00818","70","67","1916","S","10011","40.738429","-73.993465","105","3","54","1015401","1008187502","Hudson Yards-Chelsea-Flatiron-Union Square"
"69-16-S","131-133","East 23rd St","Manhattan","00879","17","69","1916","S","10010","40.739644","-73.985039","105","2","68","1018040","1008790017","Gramercy"
"70-16-S","285-287","East 137th St","Bronx","02313","42","70","1916","S",,,,,,,,,
"74-16-S","131","Essex St","Manhattan","00411","68","74","1916","S","10002","40.720008","-73.987464","103","1","3001","1005379","1004110068","Chinatown"
"87-16-S","185-187","Canal St","Manhattan","00205","25 & 30","87","1916","S","10013","40.716863","-73.997882","102","1","41","1002645","1002050030","SoHo-TriBeCa-Civic Center-Little Italy"
"96-16-A","1000-1010","Sutter Ave","Brooklyn","04051","20","96","1916","A","11208","40.671352","-73.88181","305","42","1164","3089813","3040510016","East New York"
"98-16-A","467-473, 437-453","Prospect Ave","Brooklyn","01113","61,62, 73-75","98","1916","A",,,,,,,,,
"103-16-A","227-229","E 56th St","Manhattan","01330","11","103","1916","A","10022","40.759268","-73.967268","106","4","108","1038592","1013300011","Turtle Bay-East Midtown"
"114-16-BZ","1271-1273","Atlantic Ave","Brooklyn","01866","121","114","1916","BZ","11216","40.678422","-73.948657","303","36","247","3053987","3018670078","Crown Heights North"
"115-16-S","733-735","Broadway","Manhattan","00548","64","115","1916","S","10003","40.729774","-73.993109","102","1","57","1008840","1005480070","West Village"
"119-16-S",,"East 141st St","Bronx","NONE",,"119","1916","S",,,,,,,,,
"120-16-BZ","72-79","Guernsey St","Brooklyn","02644","50","120","1916","BZ","11222","40.723655","-73.952735","301","33","569","3066006","3026440045","Greenpoint"
"121-16-S","144-154","John St","Manhattan","00071","25 & 28","121","1916","S","10038","40.706782","-74.004945","101","1","1502","1001137","1000717501","Battery Park City-Lower Manhattan"
"123-16-S","32-38","Fulton St","Manhattan","00075","1-7, 10, 11, 15, 17, 19","123","1916","S","10038","40.707561","-74.004155","101","1","1502","1001163","1000750001","Battery Park City-Lower Manhattan"
"125-16-S","207","Greene St","Manhattan","00534","31","125","1916","S",,,,,,,,,
"127-16-S","515","East 71st St","Manhattan","01483","9, 10, 11, 42","127","1916","S","10021","40.765949","-73.953712","108","5","124","1072694","1014837502","Lenox Hill-Roosevelt Island"
"129-16-S","519-521","5th Ave","Manhattan","01278","1,67","129","1916","S","10175","40.754412","-73.980195","105","4","94","1035355","1012780001","Midtown-Midtown South"
"131-16-S","487-491","5th Ave","Manhattan","01276","4,68","131","1916","S","10017","40.753051","-73.981188","105","4","82","1076266","1012760004","Murray Hill-Kips Bay"
"133-16-BZ","6518-6524","Ft Hamilton Pkwy","Brooklyn","05750","13, 26","133","1916","BZ","11219","40.630496","-74.009446","310","38","120","3328855","3057500026","Sunset Park East"
"137-16-S","126","West 46th St","Manhattan","00998","47","137","1916","S","10036","40.757781","-73.983197","105","4","119","1022645","1009980047","Midtown-Midtown South"
"144-16-BZ","100-106","Marion St","Brooklyn","01695","16-20, 42-43","144","1916","BZ","11233","40.679926","-73.927024","303","36","381","3396472","3016950016","Crown Heights North"
"147-16-A","(8222-8226) 8202-8224","18th Ave","Brooklyn","06314","72, 130, 164","147","1916","A",,,,,,,,,
"149-16-BZ","(15-21) 15-19","Saratoga Ave","Brooklyn","01489","(15-21) 1","149","1916","BZ",,,,,,,,,
"155-16-S","324-328","Lafayette St","Manhattan","00522","28","155","1916","S","10012","40.725545","-73.994974","102","1","5502","1008216","1005220028","West Village"
"156-16-S","248","Lafayette St","Manhattan","00496","5","156","1916","S","10012","40.722946","-73.996876","102","1","43","1007539","1004960005","SoHo-TriBeCa-Civic Center-Little Italy"
"157-16-S","(1-9) 1-15","Bedford St","Manhattan","00528","1-5, 44-51","157","1916","S",,,,,,,,,
"162-16-BZ","19","East 62nd St","Manhattan","01377","13","162","1916","BZ","10065","40.765664","-73.970481","108","4","11401","1040889","1013770013","Upper East Side-Carnegie Hill"
"163-16-A","206","West 102nd St","Manhattan","01873","38","163","1916","A","10025","40.798026","-73.967982","107","7","187","1056515","1018730038","Upper West Side"
"164-16-A","383","East 201st St","Bronx","03281","75","164","1916","A","10458","40.868872","-73.8822","207","11","415","2016464","2032810075","Bedford Park-Fordham North"
"165-16-A","4342-4344","Broadway","Manhattan","02167","29","165","1916","A","10033","40.852843","-73.93436","112","10","271","1076752","1021670029","Washington Heights North"
"167-16-A","673","East 137th St","Staten Island","02566","39","167","1916","A",,,,,,,,,
"171-16-S","408-410-412","West 13th St","Manhattan","00645","35-37","171","1916","S",,,,,,,,,
"172-16-BZ","(31-43) 31-37","Church Ave","Brooklyn","05313","34, 38","172","1916","BZ",,,,,,,,,
"175-16-S","131","Essex St","Manhattan","00411","68","175","1916","S","10002","40.720008","-73.987464","103","1","3001","1005379","1004110068","Chinatown"
"183-16-S","171-173","Greene St","Manhattan","00524","54","183","1916","S","10012","40.725677","-73.998791","102","1","49",,,"SoHo-TriBeCa-Civic Center-Little Italy"
"187-16-BZ","2002-2018","Bedford Ave","Brooklyn","05055","53","187","1916","BZ","11225","40.655973","-73.956409","309","40","79601",,,"Prospect Lefferts Gardens-Wingate"
"192-16-BZ","459-461","12th St","Brooklyn","01096","43, 44","192","1916","BZ","11215","40.664212","-73.981242","306","39","151","3026293","3010960043","Park Slope-Gowanus"
"197-16-A","144-6","West 90th St","Manhattan","01220","57","197","1916","A","10024","40.789925","-73.972406","107","6","173","1087310","1012207506","Upper West Side"
"198-16-BZ","1480-1484","Coney Island Ave","Brooklyn","06536","pt-20","198","1916","BZ","11230","40.621375","-73.96454","312","44","454",,,"Ocean Parkway South"
"199-16-S","243-251","West 125th St","Manhattan","01931","12","199","1916","S","10027","40.80971","-73.950048","110","9","222","1058655","1019310012","Central Harlem South"
"215-16-S","7-9","West 18th St","Manhattan","00820","33,36","215","1916","S",,,,,,,,,
"216-16-BZ","924-926","65th St","Brooklyn","05750","18, 23, 25","216","1916","BZ","11219","40.630951","-74.009767","310","38","120","3328766","3057500018","Sunset Park East"
"216-16-A",,,,,,"216","1916","A",,,,,,,,,
"222-16-A","82-86","Rutgers Slip","Manhattan","00248","24","222","1916","A","10002","40.710591","-73.989864","103","1","6","1085945","1002480015","Lower East Side"
"223-16-BZ","172-186","Empire Blvd (Malbone St)","Brooklyn","01314","15","223","1916","BZ","11225","40.663573","-73.956184","309","40","327","3034759","3013140015","Prospect Lefferts Gardens-Wingate"
"231-16-A","248-252","West 65th St","Manhattan","01156","56","231","1916","A","10023","40.774966","-73.986786","107","6","151","1030340","1011560020","Lincoln Square"
"233-16-A","(93-99) 97","Greene St","Manhattan","00500","30","233","1916","A",,,,,,,,,
"234-16-A","(93-99) 97","Greene St","Manhattan","00500","30","234","1916","A",,,,,,,,,
"239-16-BZ","91-01","Elderts Lane","Queens","01314","15","239","1916","BZ","11421","40.685152","-73.866573","409","30","6","4438412","4089420066","Woodhaven"
"240-16-BZ","179-183","West Houston St","Manhattan","00520","33","240","1916","BZ","10014","40.728419","-74.003456","102","3","37","1008125","1005200029","SoHo-TriBeCa-Civic Center-Little Italy"
"241-16-S","71-73","East Broadway","Manhattan","00280","27","241","1916","S","10002","40.713644","-73.995062","103","1","8","1003410","1002800027","Chinatown"
"244-16-S","35","Great Jones St","Manhattan","00530","24","244","1916","S","10012","40.726906","-73.992867","102","1","5502","1080071","1005300024","West Village"
"248-16-A","3-5","Vestry St","Manhattan","00220","21,22,&23","248","1916","A",,,,,,,,,
"249-16-A","368-370","Greenwich St","Manhattan","00185","37","249","1916","A","10013","40.719629","-74.010274","101","1","39","1086183","1001420025","SoHo-TriBeCa-Civic Center-Little Italy"
"250-16-S","1-3","University Pl","Manhattan","00548","1","250","1916","S",,,,,,,,,
"253-16-A","214/30","East 34th St","Manhattan","00914","53,45","253","1916","A",,,,,,,,,
"255-16-A","4320-4338","Broadway","Manhattan","02167","1-6","255","1916","A","10033","40.852155","-73.934715","112","10","271","1081882","1021670001","Washington Heights North"
"261-16-S","1082","Park Ave","Manhattan","01500","34","261","1916","S","10128","40.781724","-73.956081","108","4","15002","1046955","1015007501","Upper East Side-Carnegie Hill"
"263-16-BZ","883","Tinton Ave","Bronx","02658","57","263","1916","BZ","10456","40.821304","-73.903716","203","16","133",,,"Morrisania-Melrose"
"265-16-S","32-38","Fulton St","Manhattan","00075","1-7, 10, 11, 15, 17, 19","265","1916","S","10038","40.707561","-74.004155","101","1","1502","1001163","1000750001","Battery Park City-Lower Manhattan"
"267-16-BZ","438","Richmond Ave","Staten Island","01101","62,67,69","267","1916","BZ",,,,,,,,,
"444-16-A",,"165th St","Bronx","NONE",,"444","1916","A",,,,,,,,,
"273-16-S","40-42","Mercer St","Manhattan","00474","45","273","1916","S","10013","40.721447","-74.00127","102","1","47","1087559","1004747506","SoHo-TriBeCa-Civic Center-Little Italy"
"274-16-S","40-42","Mercer St","Manhattan","00474","45","274","1916","S","10013","40.721447","-74.00127","102","1","47","1087559","1004747506","SoHo-TriBeCa-Civic Center-Little Italy"
"279-16-A","973","Brook Ave","Bronx","02391","68","279","1916","A","10451","40.825867","-73.91163","203","17","143","2001622","2023910063","East Concourse-Concourse Village"
"283-16-BZ","244-252","54th st","Manhattan","01025","54","283","1916","BZ",,,,,,,,,
"283-16-BZ","229-237","52nd St","Manhattan","01025","7,8,58,59","283","1916","BZ",,,,,,,,,
"283-16-Bz","238-240","54th St","Manhattan","01025","51","283","1916","BZ",,,,,,,,,
"286-16-A","95-103","Meserole Ave","Brooklyn","02596","1","286","1916","A","11222","40.726864","-73.953418","301","33","561","3065312","3025960001","Greenpoint"
"290-16-BZ","1016-1024","St Nicholas Ave","Manhattan","02109","81","290","1916","BZ","10032","40.83505","-73.939809","112","10","24301","1062574","1021090081","Washington Heights South"
"291-16-S","90","Nassau St","Manhattan","00078","43","291","1916","S","10038","40.710064","-74.007885","101","1","1502","1001205","1000780043","Battery Park City-Lower Manhattan"
"297-16-A","51-57","West 81st St","Manhattan","01195","1","297","1916","A","10024","40.782649","-73.973146","107","6","165","1031134","1011950001","Upper West Side"
"298-16-S","237","Mercer St","Manhattan","00533","20","298","1916","S","10012","40.727842","-73.995901","102","1","5501",,,"West Village"
"318-16-S","1901-1915","Park Ave","Manhattan","01778","1","318","1916","S","10035","40.807735","-73.937063","111","9","242","1054509","1017780001","East Harlem North"
"319-16-A","142-146","West 24th St","Manhattan","00799","64","319","1916","A","10011","40.744099","-73.993602","104","3","91","1000000","1007990063","Hudson Yards-Chelsea-Flatiron-Union Square"
"321-16-S","10","East 33rd St","Manhattan","00862","67","321","1916","S","10016","40.747507","-73.984438","105","4","74","1017032","1008620067","Midtown-Midtown South"
"323-16-S","20-24","Vesey St","Manhattan","00088","5","323","1916","S","10007","40.711843","-74.009562","101","1","21","1001235","1000880005","SoHo-TriBeCa-Civic Center-Little Italy"
"326-16-BZ","4350-4352","Broadway","Manhattan","02167","32","326","1916","BZ","10033","40.853033","-73.934266","112","10","271","1076752","1021670029","Washington Heights North"
"336-16-A",,"231st St","Bronx","NONE",,"336","1916","A",,,,,,,,,
"337-16-BZ","216-232","Nichols Ave","Brooklyn","04134","43","337","1916","BZ","11208","40.685309","-73.868855","305","37","1184","3092461","3041340043","Cypress Hills-City Line"
"339-16-S","165-171","Grand St","Manhattan","00235","13","339","1916","S","10013","40.719748","-73.99846","102","1","41","1003065","1002350013","SoHo-TriBeCa-Civic Center-Little Italy"
"344-16-S","412-422","Withers St","Brooklyn","02878","18","344","1916","S","11222","40.719085","-73.936104","301","34","449","3000000","3028780018","East Williamsburg"
"351-16-A","(60) 74","Wadsworth Ave","Manhattan","02145","54","351","1916","A",,,,,,,,,
"355-16-BZ","129","Carroll St","Brooklyn","00349","26,31","355","1916","BZ","11231","40.682296","-74.00093","306","39","63","3004741","3003490031","Carroll Gardens-Columbia Street-Red Hook"
"356-16-A","20","27th St","Manhattan","00828","60","356","1916","A",,,,,,,,,
"358-16-A","1365-1375","Bushwick Ave","Brooklyn","03433","5","358","1916","A","11207","40.68531","-73.910767","304","37","403","3079655","3034330005","Bushwick South"
"374-16-BZ","1664-1670","Fulton St","Brooklyn","01700","26","374","1916","BZ","11213","40.679537","-73.934008","303","36","271","3325185","3017000017","Crown Heights North"
"377-16-BZ","708-724","Metropolitan Ave","Brooklyn","02764","14, 15","377","1916","BZ","11211","40.714429","-73.94539","301","34","497","3338159","3027640014","East Williamsburg"
"379-16-A",,"East 161st St","Bronx","NONE",,"379","1916","A",,,,,,,,,
"384-16-A","212-218","57trh St","Manhattan","01028","38","384","1916","A",,,,,,,,,
"388-16-S","36","West 22 Street","Manhattan","00823","63","388","1916","S","10010","40.741412","-73.991354","105","3","58","1015544","1008230063","Hudson Yards-Chelsea-Flatiron-Union Square"
"388-16-S","36","22nd St","Manhattan","00823","63","388","1916","S",,,,,,,,,
"392-16-BZ","203-207","West 95th St","Manhattan","01243","129-131","392","1916","BZ","10025","40.793493","-73.971104","107","6","183","1033696","1012430028","Upper West Side"
"395-16-S","45","Vesey St","Manhattan","00085","13","395","1916","S","10007","40.712345","-74.010724","101","1","13","1000000","1000580001","Battery Park City-Lower Manhattan"
"405-16-A","368-370","Greenwich St","Manhattan","00185","37","405","1916","A","10013","40.719629","-74.010274","101","1","39","1086183","1001420025","SoHo-TriBeCa-Civic Center-Little Italy"
"406-16-BZ","81","Rapelye St","Brooklyn","00363","38","406","1916","BZ","11231","40.680764","-74.003645","306","39","51","3005196","3003630038","Carroll Gardens-Columbia Street-Red Hook"
"409-16-S","179-183","Lafayette St","Manhattan","00472","4 & 17","409","1916","S","10013","40.720549","-73.998618","102","1","45","1006999","1004720004","SoHo-TriBeCa-Civic Center-Little Italy"
"415-16-A","2242-2262","Church Ave","Brooklyn","05103","42,43,45","415","1916","A","11226","40.650424","-73.957847","314","40","794","3117228","3051030042","Erasmus"
"417-16-A","237","Waverly Pl","Brooklyn","01917","17","417","1916","A",,,,,,,,,
"432-16-A","62","Wooster St","Manhattan","00486","1 & 36","432","1916","A","10012","40.723256","-74.001883","102","1","49","1007300","1004860036","SoHo-TriBeCa-Civic Center-Little Italy"
"433-16-A","50","Broad St","Manhattan","00024","19, 36","433","1916","A","10004","40.705689","-74.011455","101","1","9","1000820","1000240036","Battery Park City-Lower Manhattan"
"434-16-BZ","1095-1107","Atlantic Ave","Brooklyn","02021","20","434","1916","BZ","11216","40.679114","-73.954829","303","36","247","3057911","3020210020","Crown Heights North"
"434-16-BZ","1095-1107","Atlantic Ave","Brooklyn","02021","20","434","1916","BZ","11216","40.679114","-73.954829","303","36","247","3057911","3020210020","Crown Heights North"
"434-16-BZ","1095-1107","Atlantic Ave","Brooklyn","02021","20","434","1916","BZ","11216","40.679114","-73.954829","303","36","247","3057911","3020210020","Crown Heights North"
"438-16-S","58-60","Reade St","Manhattan","00150","2,3","438","1916","S","10007","40.714898","-74.006349","101","1","33","1001636","1001507502","SoHo-TriBeCa-Civic Center-Little Italy"
"448-16-A",,"174th st","Bronx","NONE",,"448","1916","A",,,,,,,,,
"449-16-A","351-353, 355","West 54th St","Manhattan","01045","6-8","449","1916","A",,,,,,,,,
"451-16-S","249-253","Bowery","Manhattan","00427","4","451","1916","S","10002","40.72305","-73.992994","103","1","3601","1078062","1004270002","Chinatown"
"454-16-A","237,251","East Fordham Rd","Bronx","03154","55","454","1916","A",,,,,,,,,
"455-16-S","10","West 46th St","Manhattan","01261","46","455","1916","S","10036","40.756306","-73.979704","105","4","96","1076258","1012617502","Midtown-Midtown South"
"456-16-A","85-109","William St","Manhattan","00067","1, 3, 8, 16, 17","456","1916","A","10038","40.708039","-74.007957","101","1","1502","1079043","1000670001","Battery Park City-Lower Manhattan"
"458-16-BZ","17-35","West 9th St","Brooklyn","00534","35,36,37","458","1916","BZ","11231","40.677042","-74.005916","306","38","59","3395393","3005340041","Carroll Gardens-Columbia Street-Red Hook"
"464-16-S","996","East 163rd St","Bronx","NONE",,"464","1916","S","10459","40.820972","-73.89372","202","17","87",,,"Longwood"
"475-16-A","40-42","Mercer St","Manhattan","00474","45","475","1916","A","10013","40.721447","-74.00127","102","1","47","1087559","1004747506","SoHo-TriBeCa-Civic Center-Little Italy"
"480-16-S","384-390","5th Ave","Manhattan","00837","48","480","1916","S","10018","40.749462","-73.983827","105","4","84","1015899","1008370045","Midtown-Midtown South"
"482-16-A","462-468","Broadway","Manhattan","00473","1 & 3","482","1916","A","10013","40.720978","-74.00053","102","1","45","1079877","1004730001","SoHo-TriBeCa-Civic Center-Little Italy"
"483-16-S","279","E 150th St","Bronx","NONE",,"483","1916","S","10451","40.817835","-73.921594","201","17","65",,,"Melrose South-Mott Haven North"
"484-16-S","11","West 17th St","Manhattan","00819","31","484","1916","S","10011","40.738225","-73.992931","105","3","54","1015418","1008190031","Hudson Yards-Chelsea-Flatiron-Union Square"
"489-16-A","333-337 (form 33-39)","6th Ave","Manhattan","00589","28 & 25","489","1916","A",,,,,,,,,
"490-16-S",,"168th St &  Park Ave","Bronx","NONE",,"490","1916","S",,,,,,,,,
"491-16-A",,"139th St & Brook Ave","Bronx","NONE",,"491","1916","A",,,,,,,,,
"493-16-A","1515","172nd St Bryant Ave","Bronx","NONE",,"493","1916","A",,,,,,,,,
"498-16-S","495","Broome St","Manhattan","00475","14","498","1916","S","10013","40.723138","-74.002637","102","1","47","1007065","1004750014","SoHo-TriBeCa-Civic Center-Little Italy"
"499-16-A",,"169th St & Grant ave","Bronx","NONE",,"499","1916","A",,,,,,,,,
"502-16-A","35","Great Jones St","Manhattan","00530","24","502","1916","A","10012","40.726906","-73.992867","102","1","5502","1080071","1005300024","West Village"
"14-17-A",,"East 161st St","Bronx","NONE",,"14","1917","A",,,,,,,,,
"15-17-A","413-23","East 161st St","Bronx","NONE",,"15","1917","A","10451","40.824048","-73.913334","203","17","141","2001516","2023830044","Morrisania-Melrose"
"17-17-A","139","Madison St","Manhattan","00275","52","17","1917","A","10002","40.712414","-73.993165","103","1","8","1003286","1002750028","Chinatown"
"25-17-A","513/519","Broadway","Manhattan","00484","15 & 16","25","1917","A",,,,,,,,,
"26-17-A","513/519","Broadway","Manhattan","00484","15 & 16","26","1917","A",,,,,,,,,
"29-17-A","59-63","Allen St","Manhattan","00307","24","29","1917","A","10002","40.717104","-73.991458","103","1","16","1082491","1003070024","Chinatown"
"32-17-A","981-983","Southern Blvd","Bronx","02725","75","32","1917","A","10459","40.822359","-73.891759","202","17","159","2005785","2027240175","Hunts Point"
"38-17-A","777","178th st","Bronx","NONE",,"38","1917","A",,,,,,,,,
"40-17-A","210-214","East 86th St","Manhattan","01531","40","40","1917","A","10028","40.778605","-73.953494","108","5","14601","1048782","1015310040","Yorkville"
"44-17-A","256-258","West 36th St","Manhattan","00785","73","44","1917","A","10018","40.752932","-73.991258","105","3","109","1014435","1007850073","Midtown-Midtown South"
"46-17-A","1-31","Hoyt St","Brooklyn","00157","1","46","1917","A",,,,,,,,,
"63-17-A","10-12","Crosby St","Manhattan","00232","5","63","1917","A",,,,,,,,,
"72-17-A","172-186","Empire Blvd (Malbone St)","Brooklyn","01314","15","72","1917","A","11225","40.663573","-73.956184","309","40","327","3034759","3013140015","Prospect Lefferts Gardens-Wingate"
"73-17-A",,"East 134th St & 3rd Ave","Bronx","NONE",,"73","1917","A",,,,,,,,,
"76-17-S","110","West 14th St","Manhattan","00609","33","76","1917","S","10011","40.737619","-73.997474","102","3","71","1010642","1006090033","West Village"
"78-17-A","1770-1792","Southern Blvd","Bronx","02984","1,","78","1917","A","10460","40.837783","-73.887506","203","17","161",,,"Crotona Park East"
"91-17-A","8-14","Grand St","Manhattan","00477","28","91","1917","A",,,,,,,,,
"94-17-A","20-24","Vesey St","Manhattan","00085","5","94","1917","A","10007","40.711843","-74.009562","101","1","21","1001235","1000880005","SoHo-TriBeCa-Civic Center-Little Italy"
"95-17-A","20-24","Vesey St","Manhattan","00088","5","95","1917","A","10007","40.711843","-74.009562","101","1","21","1001235","1000880005","SoHo-TriBeCa-Civic Center-Little Italy"
"104-17-S","182","Duane St","Manhattan","00141","23","104","1917","S","10013","40.717398","-74.010198","101","1","39","1001523","1001410023","SoHo-TriBeCa-Civic Center-Little Italy"
"122-17-A","2-20","East 102 St","Manhattan","01607","59","122","1917","A",,,,,,,,,
"132-17-A","(58) 50","West Houston St","Manhattan","00524","60","132","1917","A",,,,,,,,,
"135-17-A",,"180th st","Bronx","NONE",,"135","1917","A",,,,,,,,,
"135-17-S","236-242","50th St","Manhattan","01021","57-59","135","1917","S",,,,,,,,,
"141-17-A",,"253rd St","Bronx","NONE",,"141","1917","A",,,,,,,,,
"147-17-A",,"180th st","Bronx","NONE",,"147","1917","A",,,,,,,,,
"148-17-A","547-551","West 133rd St","Manhattan","01987","9","148","1917","A","10027","40.818388","-73.955049","109","7","219","1059730","1019870009","Manhattanville"
"158-17-A","1514-30","Broadway","Manhattan","00997","1,6,9,54,57","158","1917","A","10036","40.757361","-73.985768","105","4","119","1022624","1009970001","Midtown-Midtown South"
"164-17-A",,"167th St","Bronx","NONE",,"164","1917","A",,,,,,,,,
"165-17-A","78","Reade St","Manhattan","00150","12","165","1917","A","10007","40.715227","-74.00707","101","1","33","1001641","1001500012","SoHo-TriBeCa-Civic Center-Little Italy"
"172-17-A","(15-21) 15-19","Saratoga Ave","Brooklyn","01489","(15-21) 1","172","1917","A",,,,,,,,,
"174-17-A","722","175th st","Bronx","NONE",,"174","1917","A",,,,,,,,,
"175-17-BZ","346-352, 354-360","West 17th St","Manhattan","00740","7, 55","175","1917","BZ",,,,,,,,,
"176-17-S","24-30","39th St","Manhattan","00840","65","176","1917","S",,,,,,,,,
"176-17-A",,"176th St","Bronx","NONE",,"176","1917","A",,,,,,,,,
"183-17-A","256-258","West 36th St","Manhattan","00785","73","183","1917","A","10018","40.752932","-73.991258","105","3","109","1014435","1007850073","Midtown-Midtown South"
"186-17-A","570-580","East 133rd St","Bronx","NONE",,"186","1917","A",,,,,,,,,
"186-17-A",,,,"NONE",,"186","1917","A",,,,,,,,,
"190-17-A","256-258","West 36th St","Manhattan","00785","73","190","1917","A","10018","40.752932","-73.991258","105","3","109","1014435","1007850073","Midtown-Midtown South"
"191-17-A","(561/567) 561/563","Broadway","Manhattan","00498","7","191","1917","A",,,,,,,,,
"192-17-A","200","West 72nd St","Manhattan","01163","23","192","1917","A","10023","40.77894","-73.982423","107","6","159","1081034","1011637503","Lincoln Square"
"217-17-A","144-6","West 90th St","Manhattan","01220","57","217","1917","A","10024","40.789925","-73.972406","107","6","173","1087310","1012207506","Upper West Side"
"225-17-S","1302-1330","Broadway ave","Manhattan","00836","1","225","1917","S","10001","40.749885","-73.987689","105","4","76","1015867","0","Midtown-Midtown South"
"226-17-S","21","39th St","Manhattan","00841","26","226","1917","S",,,,,,,,,
"227-17-A","394-400","2nd St","Brooklyn","02425","16-17","227","1917","A","11215","40.672915","-73.981802","306","39","135","3020934","3009750020","Park Slope-Gowanus"
"233-17-A","136-140","West 21st St","Manhattan","00796","60","233","1917","A","10011","40.742101","-73.994901","104","3","87","1014758","1007960060","Hudson Yards-Chelsea-Flatiron-Union Square"
"237-17-S","422-430","53rd St","Manhattan","01364","34","237","1917","S",,,,,,,,,
"239-17-A","1365-1373","Boston Rd","Bronx","02934","40","239","1917","A","10456","40.83246","-73.898406","203","16","151","2009757","2029340040","Morrisania-Melrose"
"240-17-S","10","29th St","Manhattan","00830","51","240","1917","S",,,,,,,,,
"244-17-A","215-219","58th St","Manhattan","01332","10","244","1917","A",,,,,,,,,
"255-17-A","1493-1499","St Nicholas Ave","Manhattan","02166","16","255","1917","A","10033","40.851557","-73.932109","112","10","271","1063962","1021660016","Washington Heights North"
"273-17-S",,"176th St","Bronx","NONE",,"273","1917","S",,,,,,,,,
"275-17-S",,"169th St","Bronx","NONE",,"275","1917","S",,,,,,,,,
"281-17-BZ","297-299","Withers St","Brooklyn","02867","34, 55, 41","281","1917","BZ",,,,,,,,,
"288-17-A","2561-2567","Broadway","Manhattan","01868","6, 13","288","1917","A","10025","40.794756","-73.971718","107","6","183","1056068","1018687501","Upper West Side"
"301-17-A","170","Livingston St","Brooklyn","00164","13","301","1917","A","11201","40.690266","-73.98739","302","33","37","3329445","3001640013","DUMBO-Vinegar Hill-Downtown Brooklyn-Boerum Hill"
"305-17-S","2248/2258","Broadway","Manhattan","01228","49","305","1917","S",,,,,,,,,
"315-17-A","32-46","West 57th St","Manhattan","01272","8,12,58,60,65","315","1917","A","10019","40.763461","-73.975164","105","4","11201","1035057","1012720063","Midtown-Midtown South"
"325-17-S","30-34","26th St","Manhattan","00827","64","325","1917","S",,,,,,,,,
"329-17-BZ","361-363","Broadway","Queens","00613","1, 69","329","1917","BZ",,,,,,,,,
"330-17-A","10-12","East 38th St","Manhattan","00867","64","330","1917","A",,,,,,,,,
"333-17-S","249","West 80th St","Manhattan","01228","8","333","1917","S","10024","40.784706","-73.979879","107","6","167","1081044","1012280008","Upper West Side"
"338-17-A","93-99","Nassau St","Manhattan","00089","1","338","1917","A","10038","40.710278","-74.007697","101","1","1501","1001242","1000890001","Battery Park City-Lower Manhattan"
"351-17-S","141-159","54th St","Manhattan","01309","22-24,28-31","351","1917","S",,,,,,,,,
"361-17-S","202-204","East 29th St","Manhattan","00909","53","361","1917","S","10016","40.742426","-73.980047","106","2","66","1019910","1009090053","Murray Hill-Kips Bay"
"365-17-S","511-513","East 164 St","Bronx","02369","45","365","1917","S","10456","40.825612","-73.90913","203","17","185","2001246","2023690045","Morrisania-Melrose"
"366-17-S","15-19","East 26th St","Manhattan","00856","11","366","1917","S","10010","40.743119","-73.987387","105","2","56","1016877","1008567503","Hudson Yards-Chelsea-Flatiron-Union Square"
"369-17-S","1690-1700","Broadway Ave","Manhattan","01025","25,27,29,30,37,38,39","369","1917","S","10019","40.763462","-73.982756","105","4","131",,,"Midtown-Midtown South"
"372-17-S","34-42","Columbia Hts","Brooklyn","00203#00208","1,2,10,21","372","1917","S","11201","40.701726","-73.994716","302","33","1","3335922","3002080002","Brooklyn Heights-Cobble Hill"
"379-17-BZ",,,"Bronx",,,"379","1917","BZ",,,,,,,,,
"392-17-S","390","Pearl St","Manhattan","00112","18","392","1917","S","10038","40.710767","-74.000671","103","1","25","1077416","1001110100","Chinatown"
"398-17-S","1197-1205","Dekalb Ave","Brooklyn","03231","39","398","1917","S","11221","40.695401","-73.927988","304","34","393",,,"Bushwick South"
"405-17-A","203-209","Vernon Ave","Brooklyn","01756","37, 42","405","1917","A","11206","40.695226","-73.94401","303","36","25901",,,"Bedford"
"408-17-A","1823-1827","Sedgwick Ave","Bronx","02881","19,21","408","1917","A","10453","40.852696","-73.919063","205","16","20502","2115888","2028810019","University Heights-Morris Heights"
"414-17-S","394-400","2nd st","Brooklyn","02425","16-17","414","1917","S","11215","40.672915","-73.981802","306","39","135","3020934","3009750020","Park Slope-Gowanus"
"416-17-A",,"170th st","Bronx",,,"417","1917","A",,,,,,,,,
"418-17-A",,"East 189th St","Bronx","NONE",,"418","1917","A",,,,,,,,,
"424-17-BZ","565","East Fordham Rd","Bronx","03273","293","424","1917","BZ","10458","40.858981","-73.886183","206","15","397","2094719","2032730293","Belmont"
"425-17-A",,"217th St","Bronx","NONE",,"425","1917","A",,,,,,,,,
"427-17-S","34-42","Columbia Hts","Brooklyn","00203#00208","1,2,10,21","427","1917","S","11201","40.701726","-73.994716","302","33","1","3335922","3002080002","Brooklyn Heights-Cobble Hill"
"447-17-A","53-63","Park Row","Manhattan","00121","30,34","447","1917","A",,,,,,,,,
"455-17-A","148-160","59th St","Manhattan","01313","43,20-23,33,34,43","455","1917","A",,,,,,,,,
"455-17-A","148-160","East 59th St","Manhattan","01313","43,20,21,22,23,33,34,43","455","1917","A","10022","40.762026","-73.967736","106","4","11203","1086160","1013137501","Turtle Bay-East Midtown"
"460-17-A","174","Wooster St","Manhattan","00524","35","460","1917","A",,,,,,,,,
"461-17-A","39","East 63rd St","Manhattan","01378","30","461","1917","A","10065","40.765919","-73.969149","108","4","122","1041033","1013787501","Upper East Side-Carnegie Hill"
"463-17-A","221-235","East 36th St","Manhattan","00917","16-20","463","1917","A","10016","40.746551","-73.976083","106","4","78","1020204","1009170017","Murray Hill-Kips Bay"
"468-17-BZ","1137-1145","Prospect Ave","Bronx","02680","55","468","1917","BZ","10459","40.826869","-73.898639","203","17","131","2005039","2026800055","Longwood"
"468-17-A",,"167th St","The Bronx",,,"468","1917","A",,,,,,,,,
"474-17-S","570-580","East 133rd St","Bronx","NONE",,"474","1917","S",,,,,,,,,
"482-17-A",,"East 156th St","Bronx","NONE",,"482","1917","A",,,,,,,,,
"484-17-A","227-229","E 56th St","Manhattan","01330","11","484","1917","A","10022","40.759268","-73.967268","106","4","108","1038592","1013300011","Turtle Bay-East Midtown"
"486-17-A","33-51","East 48th St","Manhattan","01284","26,30,33,46,47,48","486","1917","A","10017","40.756492","-73.97621","105","4","94","1035440","1012840026","Midtown-Midtown South"
"488-17-A","63-67","35th St","Manhattan","00837","6","488","1917","A",,,,,,,,,
"492-17-A","93","Crosby St","Manhattan","00496","8","492","1917","A","10012","40.723352","-73.997384","102","1","43","1007541","1004967502","SoHo-TriBeCa-Civic Center-Little Italy"
"495-17-S","240-242","West 23rd St","Manhattan","00772","67","495","1917","S","10011","40.744613","-73.996889","104","3","91","1014132","1007720067","Hudson Yards-Chelsea-Flatiron-Union Square"
"508-17-A","243-253","West 96th St","Manhattan","01868","13, 6","508","1917","A","10025","40.7948","-73.972111","107","6","183",,,"Upper West Side"
"508-17-A","2561-2567","Broadway","Manhattan","01868","6, 13","508","1917","A","10025","40.794756","-73.971718","107","6","183","1056068","1018687501","Upper West Side"
"514-17-A","366-370","5th Ave","Manhattan","00836","33,43","514","1917","A","10001","40.748888","-73.984243","105","4","76","1015878","1008360043","Midtown-Midtown South"
"522-17-A",,"East 189th St","Bronx","NONE",,"522","1917","A",,,,,,,,,
"528-17-A","1250","St Johns Pl","Brooklyn","01382","39","528","1917","A","11213","40.670915","-73.937149","308","35","339","3036962","3013820039","Crown Heights North"
"535-17-S","68","Jay St","Brooklyn","00040","1","535","1917","S","11201","40.702763","-73.986681","302","33","21","3000090","3000400001","DUMBO-Vinegar Hill-Downtown Brooklyn-Boerum Hill"
"541-17-A","321","West 22nd St","Manhattan","00746","25","541","1917","A","10011","40.744986","-73.999798","104","3","93","1013357","1007460025","Hudson Yards-Chelsea-Flatiron-Union Square"
"542-17-A","886-892","7th Ave","Manhattan","01028","25,27,29,42","542","1917","A","10106","40.76495","-73.980463","105","4","137",,,"Midtown-Midtown South"
"543-17-A","40-42","Mercer St","Manhattan","00474","45","543","1917","A","10013","40.721447","-74.00127","102","1","47","1087559","1004747506","SoHo-TriBeCa-Civic Center-Little Italy"
"560-17-A",,"East 204th St & Decatur Ave","Bronx","NONE",,"560","1917","A",,,,,,,,,
"563-17-S","384-390","5th Ave","Manhattan","00837","48","563","1917","S","10018","40.749462","-73.983827","105","4","84","1015899","1008370045","Midtown-Midtown South"
"570-17-A","306-308","West 117th St","Manhattan","01943","37","570","1917","A","10026","40.805235","-73.955224","110","9","20102","1087201","1019437503","Central Harlem South"
"572-17-A","82-86","Rutgers Slip","Manhattan","00248","24","572","1917","A","10002","40.710591","-73.989864","103","1","6","1085945","1002480015","Lower East Side"
"573-17-A","1493-1499","St Nicholas Ave","Manhattan","02166","16","573","1917","A","10033","40.851557","-73.932109","112","10","271","1063962","1021660016","Washington Heights North"
"578-17-S","61","Bargen St","Brooklyn","0193","34","578","1917","S",,,,,,,,,
"579-17-S","95","Reade St","Manhattan","00145","6","579","1917","S","10013","40.715614","-74.007965","101","1","21","1066410","1001457502","SoHo-TriBeCa-Civic Center-Little Italy"
"604-17-S","57","Warren St","Manhattan","00133","19","604","1917","S","10007","40.71476","-74.009289","101","1","21","1077241","1001330019","SoHo-TriBeCa-Civic Center-Little Italy"
"610-17-S","106-110","York St","Brooklyn","00064","8","610","1917","S","11201","40.701522","-73.986941","302","33","21","3000162","3000640008","DUMBO-Vinegar Hill-Downtown Brooklyn-Boerum Hill"
"618-17-A","306-308","E 149th St","Bronx","02330","22","618","1917","A","10451","40.816978","-73.921212","201","17","65","2000895","2023300022","Melrose South-Mott Haven North"
"618-17-A","306-308","E 149th St","Bronx","02330","22","618","1917","A","10451","40.816978","-73.921212","201","17","65","2000895","2023300022","Melrose South-Mott Haven North"
"618-17-A","306-308","East 149 St","Bronx","02330","22","618","1917","A","10451","40.816978","-73.921212","201","17","65","2000895","2023300022","Melrose South-Mott Haven North"
"625-17-S","384-390","5th Ave","Manhattan","00837","48","625","1917","S","10018","40.749462","-73.983827","105","4","84","1015899","1008370045","Midtown-Midtown South"
"627-17-S","49-51","Warren St","Manhattan","00133","22,23","627","1917","S","10007","40.714634","-74.009007","101","1","21","1079150","1001337506","SoHo-TriBeCa-Civic Center-Little Italy"
"633-17-BZ","129","Carroll St","Brooklyn","00349","26,31","633","1917","BZ","11231","40.682296","-74.00093","306","39","63","3004741","3003490031","Carroll Gardens-Columbia Street-Red Hook"
"641-17-A","243-253","West 96th St","Manhattan","01868","13, 6","641","1917","A","10025","40.7948","-73.972111","107","6","183",,,"Upper West Side"
"654-17-BZ","530-532","Bergen Ave","Bronx","02293","33 & 34","654","1917","BZ","10455","40.815405","-73.917276","201","8","43","2095347","2022930036","Mott Haven-Port Morris"
"654-17-A","72-93","Bergen Ave","Bronx","NONE",,"654","1917","A",,,,,,,,,
"658-17-A","2179","Clarendon Rd","Brooklyn","05165","52","658","1917","A","11226","40.642735","-73.957077","314","40","792","3328251","3051650051","Erasmus"
"661-17-BZ","25-34 - 25-38","33rd St","Queens","00620","66","661","1917","BZ",,,,,,,,,
"665-17-A","4101","14th Ave","Brooklyn","05344","6","665","1917","A","11219","40.638085","-73.985332","312","39","230","3124829","3053440006","Borough Park"
"665-17-A","4101","14th ave","Brooklyn","05344","6","665","1917","A","11219","40.638085","-73.985332","312","39","230","3124829","3053440006","Borough Park"
"668-17-S","314-","5th Ave","Manhattan","00833","45","668","1917","S",,,,,,,,,
"668-17-S","5","31st St","Manhattan","00833","36,45","668","1917","S",,,,,,,,,
"672-17-A",,"181st St","Bronx","NONE",,"672","1917","A",,,,,,,,,
"675-17-A",,"181st St","Bronx","NONE",,"675","1917","A",,,,,,,,,
"685-17-A","114-116","Pulaski St","Brooklyn","01775","27","685","1917","A","11206","40.692609","-73.94706","303","36","261","3391974","3017750128","Bedford"
"690-17-A","29","East 29th St","Manhattan","00859","26","690","1917","A","10016","40.744488","-73.984893","105","2","74","1080777","1008590026","Midtown-Midtown South"
"697-17-A","78","Leonard St","Manhattan","00173","19,18","697","1917","A","10013","40.717338","-74.005061","101","1","33","1001874","1001737503","SoHo-TriBeCa-Civic Center-Little Italy"
"702-17-A","34","West 15th St","Manhattan","00816","61","702","1917","A","10011","40.737333","-73.994667","105","3","54","1015297","1008160061","Hudson Yards-Chelsea-Flatiron-Union Square"
"708-17-S","107-113","West 125th St","Manhattan","01910","25","708","1917","S","10027","40.807971","-73.945927","110","9","222","1085673","1019107501","Central Harlem South"
"724-17-BZ","1449-","Vyse Ave","Bronx","02987","33","724","1917","BZ",,,,,,,,,
"732-17-A","1590-1612","Gates Ave","Queens","03444","1","732","1917","A","11385","40.700245","-73.911479","405","34","549","4082319","4034440001","Ridgewood"
"733-17-A","487-495","Park Ave","Manhattan","01313","4","733","1917","A","10022","40.762554","-73.970053","105","4","11203","1037164","1013130004","Turtle Bay-East Midtown"
"748-17-A",,"181st St","Bronx","NONE",,"748","1917","A",,,,,,,,,
"754-17-A","73-79","Christopher St","Manhattan","00619","74","754","1917","A","10014","40.733576","-74.003186","102","3","73","1011168","1006190074","West Village"
"756-17-A","664","Caudwell Ave","Bronx","02628","1","756","1917","A",,,,,,,,,
"759-17-A","279-283","4th Ave","Manhattan","00877","89","759","1917","A",,,,,,,,,
"760-17-A","53-63","Chambers St","Manhattan","00153","1","760","1917","A","10007","40.713827","-74.005559","101","1","31","1079215","1001530001","SoHo-TriBeCa-Civic Center-Little Italy"
"764-17-A","227-229","E 56th St","Manhattan","01330","11","764","1917","A","10022","40.759268","-73.967268","106","4","108","1038592","1013300011","Turtle Bay-East Midtown"
"765-17-A",,"176th St","Bronx","NONE",,"765","1917","A",,,,,,,,,
"773-17-S","127-131","Varet St","Brooklyn","03107","31, 32","773","1917","S",,,,,,,,,
"775-17-S","36","Central Pk South","Manhattan","01274","62,11,12,15,14,64","775","1917","S","10019","40.765053","-73.974795","105","4","11201","1035251","1012740011","Midtown-Midtown South"
"775-17-S","36","Central Pk South","Manhattan","01274","62,11,12,15,14,64","775","1917","S","10019","40.765053","-73.974795","105","4","11201","1035251","1012740011","Midtown-Midtown South"
"775-17-S","33-35","West 58th St","Manhattan","01274","12,15,11,14,62,64","775","1917","S","10019","40.764336","-73.975084","105","4","11201","1035251","1012740011","Midtown-Midtown South"
"776-17-S","131-133","Boerum St","Brooklyn","03070","28","776","1917","S","11206","40.705837","-73.943651","301","34","505","3071281","3030700028","East Williamsburg"
"779-17-S","10-40","Flatbush Ave","Brooklyn","00162","6","779","1917","S",,,,,,,,,
"791-17-A",,"170th st","Bronx",,,"791","1917","A",,,,,,,,,
"793-17-BZ","721-724","Jackson Ave","Bronx","02645","5","793","1917","BZ",,,,,,,,,
"794-17-S","351-353","Jay St","Brooklyn","00147","9","794","1917","S","11201","40.692882","-73.987256","302","33","11","3319418","3001470004","DUMBO-Vinegar Hill-Downtown Brooklyn-Boerum Hill"
"807-17-S","701","183rd St","Bronx","NONE",,"807","1917","S",,,,,,,,,
"814-17-S","45-51","25th St","Manhattan","00827","8","814","1917","S",,,,,,,,,
"815-17-S","131-133","Boerum St","Brooklyn","03070","28","815","1917","S","11206","40.705837","-73.943651","301","34","505","3071281","3030700028","East Williamsburg"
"819-17-S","251-271","Classon Ave","Brooklyn","01924","6-14, 28","819","1917","S","11205","40.692115","-73.960658","303","33","193","3343740","3019247501","Clinton Hill"
"823-17-A","106-112","Spring St","Manhattan","00458","21","823","1917","A","10012","40.723473","-73.999729","102","1","49","1007266","1004850021","SoHo-TriBeCa-Civic Center-Little Italy"
"832-17-A","61","Bargen St","Brooklyn","00193","34","832","1917","A",,,,,,,,,
"833-17-A","405-411-449","Eb 58th St","Manhattan","01370","102,6,7,108,15,16,117,18,19,29,30,31,121,44","833","1917","A",,,,,,,,,
"834-17-A",,"West 246th St & Delafield Ave",,"NONE",,"834","1917","A",,,,,,,,,
"838-17-A","23-25","West 57th St","Manhattan","01273","19,20,54,55,56","838","1917","A","10019","40.76339","-73.974955","105","4","11201","1035071","1012730022","Midtown-Midtown South"
"840-17-A",,"East 156th St","Bronx","NONE",,"840","1917","A",,,,,,,,,
"845-17-A","461-463","Greenwich St","Manhattan","00225","1","845","1917","A","10013","40.723673","-74.009481","101","1","39","1002929","1002257501","SoHo-TriBeCa-Civic Center-Little Italy"
"845-17-A","461-463","Greenwich St","Manhattan","00225","1","845","1917","A","10013","40.723673","-74.009481","101","1","39","1002929","1002257501","SoHo-TriBeCa-Civic Center-Little Italy"
"857-17-A",,"East 204th St & Decatur Ave","Bronx","NONE",,"857","1917","A",,,,,,,,,
"857-17-BZ","124-126","East 124th St","Manhattan","01772","60","857","1917","BZ","10035","40.803973","-73.938584","111","9","196","1054451","1017720060","East Harlem North"
"859-17-BZ","1269-1271","Jerome Ave","Bronx","02855","65","859","1917","BZ","10452","40.837398","-73.920422","204","16","219",,,"Highbridge"
"862-17-A","2360-2364","Amsterdam Ave","Manhattan","02132","44","862","1917","A","10033","40.845638","-73.932712","112","10","261","1088439","1021327501","Washington Heights South"
"863-17-BZ","260","East 197 St","Bronx","03295","29","863","1917","BZ","10458","40.868243","-73.889609","207","15","40501","2016872","2032950029","Bedford Park-Fordham North"
"863-17-A","260","East 197th St","Bronx","03295","29","863","1917","A","10458","40.868243","-73.889609","207","15","40501","2016872","2032950029","Bedford Park-Fordham North"
"877-17-A",,"197th St & Bainbridge Ave","Bronx","NONE",,"877","1917","A",,,,,,,,,
"878-17-BZ","8-16","Clinton St","Brooklyn","00238","50,52","878","1917","BZ",,,,,,,,,
"884-17-A","757-765","3rd Ave","Manhattan","00121","1,5,10,104,150","884","1917","A","10017","40.754035","-73.972056","106","4","90","1037986","1013210001","Turtle Bay-East Midtown"
"884-17-A","757-765","3rd Ave","Manhattan","01321","5,10,104,150","884","1917","A","10017","40.754035","-73.972056","106","4","90","1037986","1013210001","Turtle Bay-East Midtown"
"889-17-A","322-326","East 23rd St","Manhattan","00928","43","889","1917","A","10010","40.737554","-73.980143","106","2","64",,,"Gramercy"
"890-17-A","322-326","East 23rd St","Manhattan","00928","43","890","1917","A","10010","40.737554","-73.980143","106","2","64",,,"Gramercy"
"892-17-A","462-468","Broadway","Manhattan","00473","1 & 3","892","1917","A","10013","40.720978","-74.00053","102","1","45","1079877","1004730001","SoHo-TriBeCa-Civic Center-Little Italy"
"893-17-A","23-25","West 57th St","Manhattan","01273","19,20,54,55,56","893","1917","A","10019","40.76339","-73.974955","105","4","11201","1035071","1012730022","Midtown-Midtown South"
"895-17-A","394-396","Fulton St","Brooklyn","00155","5","895","1917","A","11201","40.691284","-73.986939","302","33","37","3335898","3001550005","DUMBO-Vinegar Hill-Downtown Brooklyn-Boerum Hill"
"901-17-S","43-47","33rd St","Manhattan","00835","11","901","1917","S",,,,,,,,,
"911-17-S","257-265","West 17th St","Manhattan","00767","6","911","1917","S","10011","40.741135","-73.999845","104","3","81","1013847","1007677502","Hudson Yards-Chelsea-Flatiron-Union Square"
"914-17-S","131-133","Boerum St","Brooklyn","03070","28","914","1917","S","11206","40.705837","-73.943651","301","34","505","3071281","3030700028","East Williamsburg"
"920-17-A","49-53","West 45th St","Manhattan","01261","15","920","1917","A","10036","40.756087","-73.981072","105","4","96","1034242","1012610015","Midtown-Midtown South"
"924-17-BZ","396-418","Coney Island Ave","Brooklyn","05331","15, 22, 28","924","1917","BZ","11218","40.648161","-73.97138","312","39","504","3256668","3053310015","Windsor Terrace"
"929-17-A","1-9","West 109th St","Manhattan","01845","36","929","1917","A",,,,,,,,,
"935-17-S","40-42","37th St","Manhattan","00838","72","935","1917","S",,,,,,,,,
"944-17-S","384-390","5th Ave","Manhattan","00837","48","944","1917","S","10018","40.749462","-73.983827","105","4","84","1015899","1008370045","Midtown-Midtown South"
"952-17-S","500-508","5th Ave","Manhattan","01258","34","952","1917","S","10110","40.753543","-73.980856","105","4","96","1034199","1012580034","Midtown-Midtown South"
"965-17-A","345-347","Greenwich St","Manhattan","00180","22 & 23","965","1917","A","10013","40.718422","-74.010458","101","1","39","1002030","1001807507","SoHo-TriBeCa-Civic Center-Little Italy"
"966-17-A","(26-28) 24-26","East 21st St","Manhattan","00849","58","966","1917","A",,,,,,,,,
"969-17-A","231-233","East 43rd St","Manhattan","01317","19","969","1917","A","10017","40.751104","-73.973137","106","4","88","1037560","1013170019","Turtle Bay-East Midtown"
"970-17-A","210-232","51st St","Manhattan","01022","43","970","1917","A",,,,,,,,,
"973-17-A","145-155","West 47th St","Manhattan","01000","11,53","973","1917","A","10036","40.758577","-73.9831","105","4","125","1000000","1010000011","Midtown-Midtown South"
"974-17-A","513/519","Broadway","Manhattan","00484","15 & 16","974","1917","A",,,,,,,,,
"975-17-A","2-4-6","Ceclar street","manhattan","01917","1917","975","1917","A",,,,,,,,,
"982-17-A","2561-2567","Broadway","Manhattan","01868","6, 13","982","1917","A","10025","40.794756","-73.971718","107","6","183","1056068","1018687501","Upper West Side"
"982-17-A","243-253","West 96th St","Manhattan","01868","13, 6","982","1917","A","10025","40.7948","-73.972111","107","6","183",,,"Upper West Side"
"984-17-S","43-47","33rd St","Manhattan","00835","11","984","1917","S",,,,,,,,,
"986-17-A",,"143rd St","Bronx","NONE",,"986","1917","A",,,,,,,,,
"989-995-17-A","1100-1120","177th St","Bronx","03904","150","989","1917","A",,,,,,,,,
"989-to 995-17-A","1100-1104(1100-1150)","177th St","Bronx","03904","30,50,90,34,40","989","1917","A",,,,,,,,,
"989-17-A","1100","177th St","Bronx","03903","50,90,30","989","1917","A",,,,,,,,,
"995-17-A","1100","177th St","Bronx","03903","50,90,30","995","1917","A",,,,,,,,,
"996-17-A","113","Worth St","Manhattan","00170","15","996","1917","A","10013","40.715784","-74.003441","101","1","31","1086161","1001700020","SoHo-TriBeCa-Civic Center-Little Italy"
"997-17-A","550","Broadway","Manhattan","00497","11","997","1917","A","10012","40.723673","-73.99825","102","1","43","1007565","1004970011","SoHo-TriBeCa-Civic Center-Little Italy"
"1001-17-A","159-177","West 45th St","Manhattan","00996","56","1001","1917","A","10036","40.757457","-73.984298","105","4","119","1076844","1009987501","Midtown-Midtown South"
"1002-17-A","461-467","10th Ave","Manhattan","00707","39","1002","1917","A","10018","40.755619","-73.998408","104","3","99","1012483","1007070039","Hudson Yards-Chelsea-Flatiron-Union Square"
"1007-17-A","781-783","East 135th St","Bronx","02587","1","1007","1917","A","10454","40.80223","-73.912536","201","17","19","2003989","2025870001","Mott Haven-Port Morris"
"1014-17-A","512-514","West 161st St","Manhattan","02119","30","1014","1917","A","10032","40.835624","-73.940867","112","7","245","1062836","1021190036","Washington Heights South"
"1015-17-A","23-25","62nd St","Manhattan","00115","17","1015","1917","A",,,,,,,,,
"1015-17-A","23-27","West 62nd St","Manhattan","01115","17,22,43,47","1015","1917","A","10023","40.770283","-73.981436","107","6","149","1027463","1011157503","Lincoln Square"
"1016-17-A",,"174th st","Bronx","NONE",,"1016","1917","A",,,,,,,,,
"1018-17-S","43-47","33rd St","Manhattan","00835","11","1018","1917","S",,,,,,,,,
"1028-17-S","161-165","Perry St","Manhattan","00637","77","1028","1917","S","10014","40.734709","-74.009245","102","3","75","1012010","1006370077","West Village"
"160-22-A",,,,,,"160","1922","A",,,,,,,,,
"1032-17-A","248","Lafayette St","Manhattan","00496","5","1032","1917","A","10012","40.722946","-73.996876","102","1","43","1007539","1004960005","SoHo-TriBeCa-Civic Center-Little Italy"
"1036-17-A","40-60","34th St","Manhattan","00835","1","1036","1917","A",,,,,,,,,
"1040-17-S","120-130","Pearl St","Brooklyn","00063","5","1040","1917","S","11201","40.70139","-73.987713","302","33","21","3000000","3000630005","DUMBO-Vinegar Hill-Downtown Brooklyn-Boerum Hill"
"1047-17-S","350","5th Ave","Manhattan","00835","19-28,41-54","1047","1917","S","10118","40.748276","-73.98469","105","4","76","1015862","1008350041","Midtown-Midtown South"
"1064-17-A","902, 916","Franklin Ave","Brooklyn","01190","29, 33, 36","1064","1917","A",,,,,,,,,
"1066-17-A",,"East 189th St","Bronx","NONE",,"1066","1917","A",,,,,,,,,
"1072-17-A",,"East 207th St","Bronx","NONE",,"1072","1917","A",,,,,,,,,
"1075-17-A","2531-2539","Broadway","Manhattan","01242","55,10","1075","1917","A","10025","40.793694","-73.972498","107","6","183","1033687","1012420055","Upper West Side"
"1076-17-A","4342-4344","Broadway","Manhattan","02167","29","1076","1917","A","10033","40.852843","-73.93436","112","10","271","1076752","1021670029","Washington Heights North"
"1086-17-S","229-237","52nd St","Manhattan","01025","7,8,58,59","1086","1917","S",,,,,,,,,
"1086-17-S","238-240","54th St","Manhattan","01025","51","1086","1917","S",,,,,,,,,
"1086-17-S","244-252","54th st","Manhattan","01025","54","1086","1917","S",,,,,,,,,
"1101-17-A","474","Hemlock St","Brooklyn","04198","17","1101","1917","A","11208","40.677937","-73.869713","305","37","1190","3094320","3041980018","Cypress Hills-City Line"
"1103-17-A","2920-2934","Broadway","Manhattan","01886","1","1103","1917","A","10027","40.807047","-73.964589","109","7","203","1082166","1018860001","Morningside Heights"
"1103-17-A","(2920-2940) 3020","Broadway","Manhattan","01973","1","1103","1917","A",,,,,,,,,
"1115-17-A","62-64","William St","Manhattan","00041","24","1115","1917","A","10005","40.707166","-74.008793","101","1","7","1001013","1000410024","Battery Park City-Lower Manhattan"
"1124-17-S","335-345","East 27th St","Manhattan","00933","18,25","1124","1917","S","10016","40.739566","-73.977039","106","2","66","1084666","1009337501","Murray Hill-Kips Bay"
"1132-17-S","359-363","9th Ave","Manhattan","00728","34-36","1132","1917","S","10001","40.751186","-73.997921","104","3","103","1000000","1007280034","Hudson Yards-Chelsea-Flatiron-Union Square"
"1133-17-S",,"138th St & Walton Ave","Bronx","NONE",,"1133","1917","S",,,,,,,,,
"1138-17-S","159-177","West 45th St","Manhattan","00996","56","1138","1917","S","10036","40.757457","-73.984298","105","4","119","1076844","1009987501","Midtown-Midtown South"
"1145-17-A","1470","Eastern Pkwy","Brooklyn","01474","7","1145","1917","A","11233","40.669625","-73.919577","316","41","361",,,"Ocean Hill"
"1146-17-BZ","4509-4511","18th Ave","Brooklyn","05429","27","1146","1917","BZ","11204","40.630189","-73.97833","312","44","476","3128723","3054390027","Borough Park"
"1159-17-S","455-467","147th St","Bronx","02292","50","1159","1917","S",,,,,,,,,
"1159-17-S","455-467","E 147th St","Bronx","02292","50","1159","1917","S","10455","40.813948","-73.916682","201","8","43","2000000","2022927501","Mott Haven-Port Morris"
"1159-17-S","457-463","147th St","Bronx","02292","50","1159","1917","S",,,,,,,,,
"1159-17-S","(455-467) 457-463","East 147 St","Bronx","02292","50 (form 50 & 52)","1159","1917","S",,,,,,,,,
"1163-17-S","82-90","Brown Pl","Bronx","NONE",,"1163","1917","S","10454","40.804117","-73.922799","201","8","19","2000135","2022770001","Mott Haven-Port Morris"
"1173-17-A","9","Great Jones St","Manhattan","00530","12","1173","1917","A","10012","40.727419","-73.993921","102","1","5502","1008475","1005300012","West Village"
"1184-17-A","23-25","West 57th St","Manhattan","01273","19,20,54,55,56","1184","1917","A","10019","40.76339","-73.974955","105","4","11201","1035071","1012730022","Midtown-Midtown South"
"1186-17-BZ",,"E 172nd st","Bronx","NONE",,"1186","1917","BZR",,,,,,,,,
"1187-17-A",,"174th st","Bronx","NONE",,"1187","1917","A",,,,,,,,,
"1188-17-A","323-335","West 96th St","Manhattan","01887","3","1188","1917","A","10025","40.795494","-73.973758","107","6","183","1086029","1018870003","Upper West Side"
"1189-17-BZ","118-02-12","Queens Blvd","Queens","03347","24","1189","1917","BZ",,,,,,,,,
"1189-17-BZ",,,"Queens","NONE",,"1189","1917","BZ",,,,,,,,,
"1190-17-A","Jackson Ave","155th St","Bronx","NONE",,"1190","1917","A",,,,,,,,,
"1197-17-S","127-131","Varet St","Brooklyn","03107","31, 32","1197","1917","S",,,,,,,,,
"1199-17-S","781-783","East 135th St","Bronx","02587","1","1199","1917","S","10454","40.80223","-73.912536","201","17","19","2003989","2025870001","Mott Haven-Port Morris"
"1200-17-S","317/319","Greenwich St","Manhattan","00141","16","1200","1917","S",,,,,,,,,
"1211-17-BZ","239-245","E 56th St","Manhattan","01330","17","1211","1917","BZ","10022","40.759188","-73.967076","106","4","108","1088892","1013300013","Turtle Bay-East Midtown"
"1212-17-A","101-141","West 54th St","Manhattan","01007","13,14,15,37,43,44,21,22,23,24,25,29,34,39","1212","1917","A","10019","40.762512","-73.97885","105","4","137","1083719","1010070029","Midtown-Midtown South"
"1224-17-A","140","5th Ave","Manhattan","00820","47","1224","1917","A","10011","40.739005","-73.991448","105","3","54","1015455","1008207501","Hudson Yards-Chelsea-Flatiron-Union Square"
"1225-17-A","231-233","East 43rd St","Manhattan","01317","19","1225","1917","A","10017","40.751104","-73.973137","106","4","88","1037560","1013170019","Turtle Bay-East Midtown"
"1230-17-A","59-75","Wall St","Manhattan","00027","9 & 17","1230","1917","A","10005","40.705936","-74.008689","101","1","7","1000828","1000270009","Battery Park City-Lower Manhattan"
"1235-17-A","(437-441) 433-439","West St","Manhattan","00638","4, 6","1235","1917","A",,,,,,,,,
"1236-17-A","1100-1120","177th St","Bronx","03904","150","1236","1917","A",,,,,,,,,
"1236-17-A to 1241-17-A","1100","177th St","Bronx","03903","50,90,30","1236","1917","A",,,,,,,,,
"1236-17-A","1100-1104(1100-1150)","177th St","Bronx","03904","30,50,90,34,40","1236","1917","A",,,,,,,,,
"1241-17-A","1100-1104(1100-1150)","177th St","Bronx","03904","30,50,90,34,40","1241","1917","A",,,,,,,,,
"234-22-S",,,,,,"234","1922","S",,,,,,,,,
"1241-17-A","1100-1120","177th St","Bronx","03904","150","1241","1917","A",,,,,,,,,
"1252-17-A","23-27","West 62nd St","Manhattan","01115","17,22,43,47","1252","1917","A","10023","40.770283","-73.981436","107","6","149","1027463","1011157503","Lincoln Square"
"1252-17-S","23-25","62nd St","Manhattan","00115","17","1252","1917","S",,,,,,,,,
"1253-17-S","323-327","West 16th St","Manhattan","00740","19, 20","1253","1917","S","10011","40.741456","-74.002429","104","3","83","1013051","1007400019","Hudson Yards-Chelsea-Flatiron-Union Square"
"1275-17-A","30-32","West 21st Street","Manhattan","00822","58","1275","1917","A","10010","40.740737","-73.99166","105","3","54","1015506","1008220058","Hudson Yards-Chelsea-Flatiron-Union Square"
"1287-17-S","250-258","East 139th St","Bronx","02333","17","1287","1917","S","10451","40.811967","-73.92706","201","8","51","2097046","2023330017","Mott Haven-Port Morris"
"1292-17-S","661-663","Broadway","Brooklyn","03112","5","1292","1917","S","11206","40.702294","-73.944585","301","34","491","3000000","3031040001","East Williamsburg"
"1304-17-A","8-10.","Fulton St","Brooklyn","00200","1","1304","1917","A",,,,,,,,,
"1314-17-S","633","East 189th St","Bronx","NONE",,"1314","1917","S","10458","40.856886","-73.885015","206","15","389","2120643","2030780072","Belmont"
"1320-17-S","8-10.","Fulton St","Brooklyn","00200","1","1320","1917","S",,,,,,,,,
"1321-17-S","23-25","62nd St","Manhattan","00115","17","1321","1917","S",,,,,,,,,
"1334-17-A","697-701","Greenwich St","Manhattan","00631","30","1334","1917","A","10014","40.733694","-74.007307","102","3","75","1011753","1006310030","West Village"
"1334-17-A","697-701","Greenwich St","Manhattan","00631","30","1334","1917","A","10014","40.733694","-74.007307","102","3","75","1011753","1006310030","West Village"
"1345-17-S","755","East 220th St","Bronx","04668","20","1345","1917","S","10467","40.883801","-73.86088","212","12","396","2058124","2046680020","Williamsbridge-Olinville"
"1347-17-S","542-546","West 22nd St","Manhattan","00693","56","1347","1917","S","10011","40.747635","-74.006135","104","3","99","1012317","1006930056","Hudson Yards-Chelsea-Flatiron-Union Square"
"1348-17-S","57","Warren St","Manhattan","00133","19","1348","1917","S","10007","40.71476","-74.009289","101","1","21","1077241","1001330019","SoHo-TriBeCa-Civic Center-Little Italy"
"1366-17-BZ","1920","Harmon St","Queens","03388","21,22","1366","1917","BZ","11385","40.708221","-73.910473","405","30","591","4080791","4033880022","Ridgewood"
"1377-17-A","7-9","West 18th St","Manhattan","00820","33,36","1377","1917","A",,,,,,,,,
"1378-17-S","222-228","West 14th St","Manhattan","00618","18","1378","1917","S","10011","40.738915","-74.000559","102","3","77","1067572","1006187501","West Village"
"1383-17-S","60","Beekkman St","Manhattan","00100","6","1383","1917","S",,,,,,,,,
"1393-17-A","153-161","East 24th St","Manhattan","00880","37","1393","1917","A","10010","40.739943","-73.983703","106","2","68","1086514","1008800024","Gramercy"
"1396-17-A",,"East 165th St","Bronx","NONE",,"1396","1917","A",,,,,,,,,
"1404-17-S","240-242","West 23rd St","Manhattan","00772","67","1404","1917","S","10011","40.744613","-73.996889","104","3","91","1014132","1007720067","Hudson Yards-Chelsea-Flatiron-Union Square"
"1405-17-S","241-243","West 23rd St","Manhattan","00773","22","1405","1917","S","10011","40.744626","-73.996878","104","3","91","1014146","1007730022","Hudson Yards-Chelsea-Flatiron-Union Square"
"1423-17-S","130-162","Willow Ave","Bronx","02586","1","1423","1917","S","10454","40.801758","-73.913143","201","17","19",,,"Mott Haven-Port Morris"
"1429-17-S","41-","28th St","Manhattan","00830","14","1429","1917","S",,,,,,,,,
"1435-17-S","1433-1435","Dekalb Ave","Brooklyn","03235","44","1435","1917","S","11237","40.700355","-73.923132","304","37","429","3423703","3032350042","Bushwick North"
"1438-17-S","389-393","Kent Ave","Brooklyn","02568","3","1438","1917","S","11249","40.711339","-73.968283","301","33","549","3397615","3024687501","North Side-South Side"
"1446-17-S","82-90","Brown Pl","Bronx","NONE",,"1446","1917","S","10454","40.804117","-73.922799","201","8","19","2000135","2022770001","Mott Haven-Port Morris"
"1447-17-S","397","Washington St","Manhattan","00217","10","1447","1917","S","10013","40.721625","-74.010653","101","1","39","1002816","1002170010","SoHo-TriBeCa-Civic Center-Little Italy"
"1453-17-S","15-27","N Oxford St","Brooklyn","02029","9-10,15-17","1453","1917","S","11205","40.697472","-73.975661","302","35","211","3335213","3020290015","Fort Greene"
"1453-17-S","13-19","N Oxford St","Brooklyn","02029","15-17,9-10","1453","1917","S","11205","40.697516","-73.975668","302","35","211","3057949","3020290017","Fort Greene"
"1453-17-S","15-27","N Oxford St","Brooklyn","02029","9-10","1453","1917","S","11205","40.697472","-73.975661","302","35","211","3335213","3020290015","Fort Greene"
"1453-17-S","13-19","N Oxford St","Brooklyn","02029","15-17","1453","1917","S","11205","40.697516","-73.975668","302","35","211","3057949","3020290017","Fort Greene"
"1454-17-S","108","Park Row","Manhattan","00159","57","1454","1917","S","10007","40.71271","-74.002251","101","1","29","1001680","1001590060","Chinatown"
"1456-17-S","2-20","Tudor City Pl","Manhattan","01333","18","1456","1917","S",,,,,,,,,
"1457-17-BZ","1640/1650","Grand Concourse","Bronx","02823","1","1457","1917","BZ",,,,,,,,,
"1457-17-A","414","45th st","Manhattan","01054","42,44","1457","1917","A",,,,,,,,,
"1458-17-A","13-19","N Oxford St","Brooklyn","02029","15-17","1458","1917","A","11205","40.697516","-73.975668","302","35","211","3057949","3020290017","Fort Greene"
"1458-17-A","15-27","N Oxford St","Brooklyn","02029","9-10","1458","1917","A","11205","40.697472","-73.975661","302","35","211","3335213","3020290015","Fort Greene"
"1458-17-A","15-27","N Oxford St","Brooklyn","2029","9-10,15-17","1458","1917","A","11205","40.697472","-73.975661","302","35","211","3335213","3020290015","Fort Greene"
"1461-17-A","1365-1373","Boston Rd","Bronx","02934","40","1461","1917","A","10456","40.83246","-73.898406","203","16","151","2009757","2029340040","Morrisania-Melrose"
"1463-17-S","8-12","Forrest Ave","Brooklyn","03145","(8,14) 11, 12","1463","1917","S",,,,,,,,,
"1467-17-S","397","Washington St","Manhattan","00217","10","1467","1917","S","10013","40.721625","-74.010653","101","1","39","1002816","1002170010","SoHo-TriBeCa-Civic Center-Little Italy"
"1481-17-A","57","Hope St","Brooklyn","02369","40","1481","1917","A","11211","40.713174","-73.955744","301","34","519","3062518","3023690040","North Side-South Side"
"1485-17-S","77-81","3rd Ave","Brooklyn","00198","7,10,8,11,12","1485","1917","S","11217","40.683955","-73.981615","302","33","39","3324307","3001980008","DUMBO-Vinegar Hill-Downtown Brooklyn-Boerum Hill"
"1487-17-S","130 (130-138)","Palmetto","Brooklyn","03350","18","1487","1917","S",,,,,,,,,
"1488-17-S","39-41","32nd St","Manhattan","00834","19","1488","1917","S",,,,,,,,,
"1489-17-S","(437-441) 433-439","West St","Manhattan","00638","4, 6","1489","1917","S",,,,,,,,,
"1496-17-A","12-14","West 18th St","Manhattan","00819","53","1496","1917","A",,,,,,,,,
"1497-17-A",,"180th st","Bronx","NONE",,"1497","1917","A",,,,,,,,,
"1499-17-S","205-211","East 24th St","Manhattan","00905","6,10,15","1499","1917","S","10010","40.739429","-73.98248","106","2","66","1019785","1009050006","Murray Hill-Kips Bay"
"1506-17-S","240","East 153rd St","Bronx","NONE",,"1506","1917","S","10451","40.82044","-73.922484","201","17","65",,,"Melrose South-Mott Haven North"
"1513-17-S","64","Reade St","Manhattan","00150","5","1513","1917","S","10007","40.714997","-74.006565","101","1","33","1001638","1001500005","SoHo-TriBeCa-Civic Center-Little Italy"
"1519-17-S","420","E 149th St","Bronx","NONE",,"1519","1917","S","10455","40.815564","-73.91647","201","8","43","2000531","2022930039","Mott Haven-Port Morris"
"1530-17-A","3321-3335","Broadway","Manhattan","02001","29-33","1530","1917","A","10031","40.819338","-73.955641","109","7","22302","1059942","1020010005","Manhattanville"
"1532-17-A","193","Bowery","Manhattan","00425","6","1532","1917","A","10002","40.720851","-73.993817","103","1","18","1005678","1004250006","Chinatown"
"1533-17-A","(old-51-55) 49-55","Lexington Ave","Manhattan","00880","66","1533","1917","A",,,,,,,,,
"1535-17-S","522","East 76th St","Manhattan","01487","15","1535","1917","S","10021","40.769132","-73.951147","108","5","132","1085487","1014870015","Lenox Hill-Roosevelt Island"
"1541-17-S","108","Park Row","Manhattan","00159","57","1541","1917","S","10007","40.71271","-74.002251","101","1","29","1001680","1001590060","Chinatown"
"1547-17-A","68-70","Madison St","Manhattan","00278","48","1547","1917","A","10002","40.712104","-73.996494","103","1","8",,,"Chinatown"
"1558-17-A","59-75","Wall St","Manhattan","00027","9 & 17","1558","1917","A","10005","40.705936","-74.008689","101","1","7","1000828","1000270009","Battery Park City-Lower Manhattan"
"1559-17-A","59-75","Wall St","Manhattan","00027","9 & 17","1559","1917","A","10005","40.705936","-74.008689","101","1","7","1000828","1000270009","Battery Park City-Lower Manhattan"
"1594-17-S","57","Warren St","Manhattan","00133","19","1594","1917","S","10007","40.71476","-74.009289","101","1","21","1077241","1001330019","SoHo-TriBeCa-Civic Center-Little Italy"
"1596-17-S","25-27","Carroll St","Brooklyn","00347","53","1596","1917","S","11231","40.683399","-74.004875","306","39","51","3004605","3003477504","Carroll Gardens-Columbia Street-Red Hook"
"1599-17-S","3666","Richmond Terrace","Staten Island","01400","1","1599","1917","S","10303","40.640818","-74.179965","501","49","323",,,"Mariner's Harbor-Arlington-Port Ivory-Graniteville"
"1599-17-S","241","Western Ave","Staten Island","01338","1","1599","1917","S","10303","40.635848","-74.181317","501","49","323","5167190","5014000001","Mariner's Harbor-Arlington-Port Ivory-Graniteville"
"1603-17-S","180","South St","Manhattan","00110","14","1603","1917","S","10038","40.708821","-73.998968","103","1","25","1077413","1001110100","Chinatown"
"1613-17-BZ","107-36","Queens Blvd","Queens","03239,02049","3","1613","1917","BZ","11375","40.721559","-73.844912","406","29","711","4312083","4032397501","Forest Hills"
"1619-17-S","1082","Park Ave","Manhattan","01500","34","1619","1917","S","10128","40.781724","-73.956081","108","4","15002","1046955","1015007501","Upper East Side-Carnegie Hill"
"1626-17-A","144","Freeman St","Brooklyn","02512","59,33","1626","1917","A","11222","40.734331","-73.95613","301","33","563","3064027","3025120033","Greenpoint"
"1641-17-S","82-92","Beekman St","Manhattan","00098","54","1641","1917","S","10038","40.708574","-74.003823","101","1","1501",,,"Battery Park City-Lower Manhattan"
"1643-17-S","82-92","Beekman St","Manhattan","00098","54","1643","1917","S","10038","40.708574","-74.003823","101","1","1501",,,"Battery Park City-Lower Manhattan"
"1647-17-S","21-23","34th St","Manhattan","00836","18","1647","1917","S",,,,,,,,,
"1651-17-S","249","West 80th St","Manhattan","01228","8","1651","1917","S","10024","40.784706","-73.979879","107","6","167","1081044","1012280008","Upper West Side"
"1663-17-S","639-647","Kent Ave","Brooklyn","02191","1,3","1663","1917","S","11249","40.701786","-73.964155","301","33","539",,,"Williamsburg"
"1668-17-A","335-345","East 27th St","Manhattan","00933","18,25","1668","1917","A","10016","40.739566","-73.977039","106","2","66","1084666","1009337501","Murray Hill-Kips Bay"
"1669-17-A","278-280","6th St","Brooklyn","00993","10","1669","1917","A","11215","40.671837","-73.986564","306","39","137","3420412","3009930006","Park Slope-Gowanus"
"1677-17-S","703-705","Bedford Ave","Brooklyn","02235","1","1677","1917","S","11206","40.699959","-73.957206","301","33","531","3394321","3022357510","Bedford"
"1684-17-BZ","112-116","East 32nd St","Manhattan","00887","88-90","1684","1917","BZ","10016","40.745492","-73.981576","105","2","72","1018470","1008870088","Murray Hill-Kips Bay"
"1701-17-S","7-8","Chatham Sq","Manhattan","00162","39","1701","1917","S",,,,,,,,,
"1719-17-S","369","3rd Ave","Manhattan","00907","57","1719","1917","S","10016","40.741131","-73.981459","106","2","66","1019864","1009070056","Murray Hill-Kips Bay"
"1730-17-A","369","3rd Ave","Manhattan","00907","57","1730","1917","A","10016","40.741131","-73.981459","106","2","66","1019864","1009070056","Murray Hill-Kips Bay"
"1731-17-A","369","3rd Ave","Manhattan","00907","57","1731","1917","A","10016","40.741131","-73.981459","106","2","66","1019864","1009070056","Murray Hill-Kips Bay"
"1742-17-A",,"184th st","Bronx","NONE",,"1742","1917","A",,,,,,,,,
"1746-17-A",,"182nd St","Bronx","NONE",,"1746","1917","A",,,,,,,,,
"1749-17-A","750-752","8th Ave","Manhattan","01018","1","1749","1917","A","10036","40.759878","-73.98785","105","3","125","1024736","1010187502","Midtown-Midtown South"
"1750-17-S","203-213","51st St","Manhattan","01023","29","1750","1917","S",,,,,,,,,
"1751-17-S","105-107","Johnson Ave","Brooklyn","03060","30, 32","1751","1917","S",,,,,,,,,
"1754-17-S","2-8","Lafayette St","Manhattan","00155","1","1754","1917","S",,,,,,,,,
"1755-17-S","420","E 149th St","Bronx","NONE",,"1755","1917","S","10455","40.815564","-73.91647","201","8","43","2000531","2022930039","Mott Haven-Port Morris"
"1756-17-S","300","Exterior St","Bronx","NONE",,"1756","1917","S",,,,,,,,,
"1762-17-A","(500-518) 512-516","Park Pl","Brooklyn","01167","32, 36, 38, 134","1762","1917","A",,,,,,,,,
"1767-17-S","39-45","Ainslie St","Brooklyn","02371","48","1767","1917","S","11211","40.712956","-73.953002","301","34","513","3062533","3023710048","North Side-South Side"
"1783-17-S","15-17","17th St","Manhattan","00846","13","1783","1917","S",,,,,,,,,
"1795-17-S","72-98","Bridge St","Brooklyn","00054","22","1795","1917","S","11201","40.702216","-73.984723","302","33","21","3000000","3000540001","DUMBO-Vinegar Hill-Downtown Brooklyn-Boerum Hill"
"1797-17-S","41-","28th St","Manhattan","00830","14","1797","1917","S",,,,,,,,,
"1799-17-S","32-44","S 9th St","Brooklyn","02144","11","1799","1917","S","11249","40.709094","-73.967584","301","33","547",,,"North Side-South Side"
"1800-17-S","311","Bowery","Manhattan","00457","4","1800","1917","S","10003","40.725125","-73.99224","103","2","3602","1087207","1004570001","East Village"
"1804-17-A","3320-3338","Broadway","Manhattan","01988","1","1804","1917","A","10031","40.819459","-73.955528","109","7","22301","1059751","1019880001","Manhattanville"
"1805-17-S","202-204","East 29th St","Manhattan","00909","53","1805","1917","S","10016","40.742426","-73.980047","106","2","66","1019910","1009090053","Murray Hill-Kips Bay"
"1818-17-A","244","Madison Ave","Manhattan","00867","57","1818","1917","A","10016","40.750131","-73.981247","105","4","82","1017221","1008670057","Murray Hill-Kips Bay"
"1819-17-S","282","9th Ave","Manhattan","00750","79","1819","1917","S","10001","40.748755","-73.999668","104","3","97","1082794","1007510001","Hudson Yards-Chelsea-Flatiron-Union Square"
"1830-17-S","40-42","27-th Ave","Manhattan","00828","70","1830","1917","S",,,,,,,,,
"1831-17-A","18-26","Bainbridge St","Brooklyn","01684","9","1831","1917","A","11233","40.680455","-73.935258","303","36","273",,,"Stuyvesant Heights"
"1849-17-A","87-105","Heyward St","Brooklyn","02225","10","1849","1917","A","11206","40.701128","-73.957003","301","33","533","3335318","3022250050","Williamsburg"
"1872-17-S","156","Chambers St","Manhattan","00137","28","1872","1917","S","10007","40.715973","-74.010259","101","1","21","1001493","1001370028","SoHo-TriBeCa-Civic Center-Little Italy"
"1876-17-S","303-309","Rodney St","Brooklyn","02448","17","1876","1917","S","11211","40.708961","-73.956136","301","34","527","3393856","3024480013","North Side-South Side"
"1877-17-S","303-309","Rodney St","Brooklyn","02448","17","1877","1917","S","11211","40.708961","-73.956136","301","34","527","3393856","3024480013","North Side-South Side"
"1879-17-A","4342-4344","Broadway","Manhattan","02167","29","1879","1917","A","10033","40.852843","-73.93436","112","10","271","1076752","1021670029","Washington Heights North"
"1887-17-S","214","E 52nd St","Manhattan","01325","45","1887","1917","S","10022","40.756834","-73.969294","106","4","98","1038484","1013257504","Turtle Bay-East Midtown"
"1903-17-S","16-18","Jay St","Manhattan","00143","23","1903","1917","S","10013","40.718049","-74.010011","101","1","39","1079179","1001437503","SoHo-TriBeCa-Civic Center-Little Italy"
"1915-17-S","450-452","E 148th St","Bronx","02292","35","1915","1917","S","10455","40.814702","-73.916663","201","8","43","2000525","2022920035","Mott Haven-Port Morris"
"1915-17-S","450-452","E 148th St","Bronx","02292","35","1915","1917","S","10455","40.814702","-73.916663","201","8","43","2000525","2022920035","Mott Haven-Port Morris"
"1915-17-S","450-452","East 148 St","Bronx","02292","35","1915","1917","S","10455","40.814702","-73.916663","201","8","43","2000525","2022920035","Mott Haven-Port Morris"
"593-17-S","53-55","Elizabeth St","Manhattan","00204","20","1917","1917","S","10013","40.717094","-73.996652","102","1","41","1002619","1002047502","SoHo-TriBeCa-Civic Center-Little Italy"
"605-17-S","110-112","Greene St","Manhattan","00499","11","1917","1917","S","10012","40.724524","-73.99974","102","1","49","1007605","1004990007","SoHo-TriBeCa-Civic Center-Little Italy"
"464-17-S","121","Spring St","Manhattan","00499","43","1917","1917","S","10012","40.723717","-74.000188","102","1","49","1007626","1004997503","SoHo-TriBeCa-Civic Center-Little Italy"
"1149-17-S","185-187","Canal St","Manhattan","00205","25 & 30","1917","1917","S","10013","40.716863","-73.997882","102","1","41","1002645","1002050030","SoHo-TriBeCa-Civic Center-Little Italy"
"855-17-S","50-56","Downing St","Manhattan","00528","13, 28-31","1917","1917","S","10014","40.729102","-74.004423","102","3","67","1088511","1005280012","West Village"
"1244-17-S","121","Spring St","Manhattan","00499","43","1917","1917","S","10012","40.723717","-74.000188","102","1","49","1007626","1004997503","SoHo-TriBeCa-Civic Center-Little Italy"
"1373-17-S","92","Greene St","Manhattan","00499","1","1917","1917","S","10012","40.724074","-74.000119","102","1","49","1087557","1004997505","SoHo-TriBeCa-Civic Center-Little Italy"
"2455-17-S","(136-138) (140)","Sullivan St","Manhattan","00518","41 & 46","1917","1917","S",,,,,,,,,
"1573-17-S","185-187","Canal St","Manhattan","00205","25 & 30","1917","1917","S","10013","40.716863","-73.997882","102","1","41","1002645","1002050030","SoHo-TriBeCa-Civic Center-Little Italy"
"607-17-S","185-187","Canal St","Manhattan","00205","25 & 30","1917","1917","S","10013","40.716863","-73.997882","102","1","41","1002645","1002050030","SoHo-TriBeCa-Civic Center-Little Italy"
"1450-17-S","185-187","Canal St","Manhattan","00205","25 & 30","1917","1917","S","10013","40.716863","-73.997882","102","1","41","1002645","1002050030","SoHo-TriBeCa-Civic Center-Little Italy"
"1781-17-S","129-133","Hudson St","Manhattan","00188","23 & 25","1917","1917","S","10013","40.72036","-74.008525","101","1","39","1002127","1001887503","SoHo-TriBeCa-Civic Center-Little Italy"
"1636-17-S","241","West Broadway","Manhattan","00191","15","1917","1917","S","10013","40.719745","-74.005887","101","1","33","1002180","1001910015","SoHo-TriBeCa-Civic Center-Little Italy"
"1979-17-S","54-56","White St","Manhattan","00193","6","1917","1917","S","10013","40.718463","-74.003972","101","1","33","1002195","1001930006","SoHo-TriBeCa-Civic Center-Little Italy"
"1053-17-S","47","Walker St","Manhattan","00193","32","1917","1917","S","10013","40.71907","-74.003525","101","1","33","1075737","1001937504","SoHo-TriBeCa-Civic Center-Little Italy"
"2566-17-S","36","Walker St","Manhattan","00194","14","1917","1917","S","10013","40.719251","-74.003878","101","1","33","1002293","1001940014","SoHo-TriBeCa-Civic Center-Little Italy"
"1984-17-S","167-175","Chrystie","Manhattan","00425","9","1917","1917","S",,,,,,,,,
"1607-17-S","315-317","Church St","Manhattan","00194","20","1917","1917","S","10013","40.719836","-74.004069","101","1","33","1002298","1001940020","SoHo-TriBeCa-Civic Center-Little Italy"
"2613-17-S","8","North Moore St","Manhattan","00189","41","1917","1917","S","10013","40.719729","-74.006374","101","1","33","1002152","1001890041","SoHo-TriBeCa-Civic Center-Little Italy"
"1256-17-S","100","Prince St","Manhattan","00499","17","1917","1917","S","10012","40.724796","-73.998932","102","1","49","1007609","1004990017","SoHo-TriBeCa-Civic Center-Little Italy"
"1169-17-A","22-05","43rd Ave","Queens","00426","5","1917","1917","1917","11101","40.750015","-73.944368","402","26","19","4005068","4004260005","Hunters Point-Sunnyside-West Maspeth"
"2422-17-S","115-117","Spring St","Manhattan","00499","39-41","1917","1917","S","10012","40.723632","-74.000011","102","1","49","1007624","1004997504","SoHo-TriBeCa-Civic Center-Little Italy"
"494-17-S","392","Broadway","Manhattan","00195","5","1917","1917","S","10013","40.718392","-74.002724","101","1","31","1002321","1001950005","SoHo-TriBeCa-Civic Center-Little Italy"
"1505-17-S","12-14","West 18th St","Manhattan","00819","53","1917","1917","S",,,,,,,,,
"513-17-S","8-10","White St","Manhattan","00191","10","1917","1917","S",,,,,,,,,
"1282-17-S","00264-266","Canal St","Manhattan","00196","15","1917","1917","S","10013","40.718752","-74.000996","101","1","31","1002345","1001960015","SoHo-TriBeCa-Civic Center-Little Italy"
"1096-17-S","119-125","Walker St","Manhattan","00198","5,8,10,11,12","1917","1917","S","10013","40.717503","-73.999964","101","1","29","1084583","1001980126","Chinatown"
"2282-17-S","84","Bowery","Manhattan","00203","20","1917","1917","S","10013","40.717064","-73.99557","102","1","41","1002608","1002030020","SoHo-TriBeCa-Civic Center-Little Italy"
"1312-17-S","100","Prince St","Manhattan","00499","17","1917","1917","S","10012","40.724796","-73.998932","102","1","49","1007609","1004990017","SoHo-TriBeCa-Civic Center-Little Italy"
"2114-17-S","461-463","Greenwich St","Manhattan","00225","1","1917","1917","S","10013","40.723673","-74.009481","101","1","39","1002929","1002257501","SoHo-TriBeCa-Civic Center-Little Italy"
"2095-17-S","153-155","Hudson St","Manhattan","00215","23","1917","1917","S","10013","40.721496","-74.008326","101","1","39","1002810","1002157501","SoHo-TriBeCa-Civic Center-Little Italy"
"2456-17-S","90-02,91-38","Atlantic Ave","Queens","00344,00347","1,11-12","1917","1917","S",,,,,,,,,
"2591-17-S","611-621","Broadway","Manhattan","00523","48","1917","1917","S","10012","40.725699","-73.996558","102","1","5501","1008240","1005230048","West Village"
"2279-17-S","256-258","Mott St","Manhattan","00508","6","1917","1917","S","10012","40.723566","-73.994664","102","1","43","1007886","1005080006","SoHo-TriBeCa-Civic Center-Little Italy"
"228-17-S","100-102","West Houston St","Manhattan","00525","61","1917","1917","S","10012","40.727159","-74.00035","102","1","65","1008277","1005250061","West Village"
"2326-17-S","280-282","Lafayette St","Manhattan","00510","6","1917","1917","S","10012","40.724074","-73.996169","102","1","43","1007930","1005100006","SoHo-TriBeCa-Civic Center-Little Italy"
"2462-17-S","29","West 17th St","Manhattan","00819","22","1917","1917","S","10011","40.738398","-73.993346","105","3","54","1015413","1008190022","Hudson Yards-Chelsea-Flatiron-Union Square"
"2243-17-S","302","Elizabeth St","Manhattan","00521","70","1917","1917","S","10012","40.724919","-73.993246","102","1","5502","1008197","1005210070","West Village"
"1598-17-S","125","Prince St","Manhattan","00514","42","1917","1917","S","10012","40.725334","-73.999978","102","1","49","1008004","1005140042","SoHo-TriBeCa-Civic Center-Little Italy"
"1261-17-S","17-19","West 17th St","Manhattan","00819","27","1917","1917","S","10011","40.738283","-73.993072","105","3","54","1015415","1008190027","Hudson Yards-Chelsea-Flatiron-Union Square"
"1255-17-S","57-59","Prince St","Manhattan","00510","30","1917","1917","S","10012","40.723607","-73.996266","102","1","43","1007936","1005100030","SoHo-TriBeCa-Civic Center-Little Italy"
"949-17-S","108-110","Crosby St","Manhattan","00511","1","1917","1917","S","10012","40.724002","-73.996865","102","1","43","1007942","1005110001","SoHo-TriBeCa-Civic Center-Little Italy"
"251-17-S","390","West Broadway","Manhattan","00485","27","1917","1917","S","10012","40.724068","-74.002356","102","1","47","1007334","1004880027","SoHo-TriBeCa-Civic Center-Little Italy"
"1055-17-S","138","Wooster St","Manhattan","00514","3","1917","1917","S","10012","40.725704","-73.999816","102","1","49","1007987","1005140003","SoHo-TriBeCa-Civic Center-Little Italy"
"745-17-S","132-136","Greene St","Manhattan","00513","3 & 5","1917","1917","S","10012","40.725251","-73.999123","102","1","49","1077763","1005130003","SoHo-TriBeCa-Civic Center-Little Italy"
"249-17-S","378-380","West Broadway","Manhattan","00486","32 & 33","1917","1917","S","10012","40.723813","-74.002569","102","1","47","1007337","1004880032","SoHo-TriBeCa-Civic Center-Little Italy"
"1119-17-S","248","Lafayette St","Manhattan","00496","5","1917","1917","S","10012","40.722946","-73.996876","102","1","43","1007539","1004960005","SoHo-TriBeCa-Civic Center-Little Italy"
"1443-17-S","101","Prince St","Manhattan","00513","36","1917","1917","S","10012","40.724848","-73.998997","102","1","49","1007984","1005130036","SoHo-TriBeCa-Civic Center-Little Italy"
"783-17-S","112-116","Bleecker St","Manhattan","00524","47 & 49","1917","1917","S","10012","40.727452","-73.997723","102","1","5501",,,"West Village"
"2371-17-S","413","Washington St","Manhattan","00218","2","1917","1917","S","10013","40.7223","-74.010534","101","1","39","1002822","1002180002","SoHo-TriBeCa-Civic Center-Little Italy"
"434-17-S","543","Broadway","Manhattan","00498","17","1917","1917","S","10012","40.723522","-73.998402","102","1","49","1007579","1004987502","SoHo-TriBeCa-Civic Center-Little Italy"
"2573-17-S","137-141","Prince St","Manhattan","00515","42","1917","1917","S","10012","40.725586","-74.000494","102","1","49","1008019","1005150042","SoHo-TriBeCa-Civic Center-Little Italy"
"1441-17-S","336-340","Canal St","Manhattan","00210","5","1917","1917","S","10013","40.7203","-74.003171","101","1","33","1002707","1002100005","SoHo-TriBeCa-Civic Center-Little Italy"
"2417-17-S","332","Canal St","Manhattan","00210","8","1917","1917","S","10013","40.720245","-74.003092","101","1","33","1002709","1002107501","SoHo-TriBeCa-Civic Center-Little Italy"
"1359-17-S","465-469","West Broadway","Manhattan","00515","8","1917","1917","S","10012","40.726379","-74.000372","102","1","49","1008007","1005150008","SoHo-TriBeCa-Civic Center-Little Italy"
"2076-17-S","126/128","5th Ave","Manhattan","00819","44","1917","1917","S",,,,,,,,,
"1891-17-S","193","Bowery","Manhattan","00425","6","1917","1917","S","10002","40.720851","-73.993817","103","1","18","1005678","1004250006","Chinatown"
"1447-17-S","397","Washington St","Manhattan","00271","10","1917","1917","S","10013","40.721625","-74.010653","101","1","39","1002816","1002170010","SoHo-TriBeCa-Civic Center-Little Italy"
"1902-17-S","465-469","West Broadway","Manhattan","00515","8","1917","1917","S","10012","40.726379","-74.000372","102","1","49","1008007","1005150008","SoHo-TriBeCa-Civic Center-Little Italy"
"1467-17-S","397","Washington St","Manhattan","00271","10","1917","1917","S","10013","40.721625","-74.010653","101","1","39","1002816","1002170010","SoHo-TriBeCa-Civic Center-Little Italy"
"1451-17-S","104-108","Mercer St","Manhattan","00498","27","1917","1917","S","10012","40.723599","-73.999448","102","1","49","1007585","1004980027","SoHo-TriBeCa-Civic Center-Little Italy"
"215-17-S","90-02,91-38","Atlantic Ave","Queens","00344,00347","1,11-12","1917","1917","S",,,,,,,,,
"2609-17-S","90-02,91-38","Atlantic Ave","Queens","00344,00347","1,11-12","1917","1917","S",,,,,,,,,
"1070-17-S","121","Spring St","Manhattan","00499","43","1917","1917","S","10012","40.723717","-74.000188","102","1","49","1007626","1004997503","SoHo-TriBeCa-Civic Center-Little Italy"
"417-17-S","550","Broadway","Manhattan","00497","11","1917","1917","S","10012","40.723673","-73.99825","102","1","43","1007565","1004970011","SoHo-TriBeCa-Civic Center-Little Italy"
"1094-17-S","11","West 17th St","Manhattan","00819","31","1917","1917","S","10011","40.738225","-73.992931","105","3","54","1015418","1008190031","Hudson Yards-Chelsea-Flatiron-Union Square"
"774-17-S","101-103","Wooster St","Manhattan","00501","28","1917","1917","S","10012","40.724543","-74.000823","102","1","49","1007714","1005010028","SoHo-TriBeCa-Civic Center-Little Italy"
"2610-17-S","90-02,91-38","Atlantic Ave","Queens","00344,00347","1,11-12","1917","1917","S",,,,,,,,,
"2611-17-S","90-02,91-38","Atlantic Ave","Queens","00344,00347","1,11-12","1917","1917","S",,,,,,,,,
"1552-17-S","155-157","Wooster St","Manhattan","00515","25","1917","1917","S","10012","40.726209","-73.999416","102","1","49","1008012","1005150025","SoHo-TriBeCa-Civic Center-Little Italy"
"2252-17-S","78-94","Front St","Manhattan","00033","1, 10, 13, 34, 41","1917","1917","S","10005","40.703891","-74.008234","101","1","7","1000863","1000330001","Battery Park City-Lower Manhattan"
"292-17-BZ","228-232","East 85th St","Manhattan","01530","34 & 132","1917","1917","BZ","10028","40.777801","-73.953704","108","5","14601","1048745","1015300034","Yorkville"
"1778-17-S","49","Crosby St","Manhattan","00482","5","1917","1917","S","10012","40.721859","-73.998651","102","1","45","1007209","1004820005","SoHo-TriBeCa-Civic Center-Little Italy"
"2383-17-S","45","Vesey St","Manhattan","00085","13","1917","1917","S","10007","40.712345","-74.010724","101","1","13","1000000","1000580001","Battery Park City-Lower Manhattan"
"347-17-S","173-175","East 87th St","Manhattan","01516","30","1917","1917","S","10128","40.779843","-73.954288","108","5","14802","1048052","1015160030","Upper East Side-Carnegie Hill"
"1092-17-S","513/519","Broadway","Manhattan","00484","15 & 16","1917","1917","S",,,,,,,,,
"1700-17-S","83","Mercer St","Manhattan","00485","27","1917","1917","S","10012","40.722855","-74.000101","102","1","49","1007269","1004857504","SoHo-TriBeCa-Civic Center-Little Italy"
"1893-17-S","80-82","Wooster St","Manhattan","00486","9","1917","1917","S","10012","40.723687","-74.001519","102","1","49","1007285","1004860009","SoHo-TriBeCa-Civic Center-Little Italy"
"2278-17-S","81","Greene St","Manhattan","00486","19","1917","1917","S","10012","40.723489","-74.000635","102","1","49","1007289","1004860019","SoHo-TriBeCa-Civic Center-Little Italy"
"586-17-S","62","Pearl St","Manhattan","00007","39 & 26","1917","1917","S","10004","40.703573","-74.01108","101","1","9","1087449","1000077502","Battery Park City-Lower Manhattan"
"577-17-S","62","Pearl St","Manhattan","00007","39 & 26","1917","1917","S","10004","40.703573","-74.01108","101","1","9","1087449","1000077502","Battery Park City-Lower Manhattan"
"2280-17-S","192-194","Front St","Manhattan","00074","24 & 25","1917","1917","S","10038","40.706724","-74.004072","101","1","1502","1001162","1000747501","Battery Park City-Lower Manhattan"
"1777-17-S","14-26","William St","Manhattan","00029","73, 86 & 88-91","1917","1917","S","10004","40.705209","-74.009976","101","1","7",,,"Battery Park City-Lower Manhattan"
"279-17-S","2-8","East End Ave","Manhattan","01576","23","1917","1917","S",,,,,,,,,
"1632-17-S","91-95","Wall St","Manhattan","00033","20, 31, 32","1917","1917","S","10005","40.705261","-74.007527","101","1","7",,,"Battery Park City-Lower Manhattan"
"1646-17-S","54-55","South St","Manhattan","00035","35","1917","1917","S","10005","40.703998","-74.00668","101","1","7","1000868","1000350010","Battery Park City-Lower Manhattan"
"1026-17-S","78-80","Pine St","Manhattan","00039","12-24 & 26","1917","1917","S","10005","40.705994","-74.007343","101","1","7","1000880","1000390012","Battery Park City-Lower Manhattan"
"134-17-S","79-83","Pine St","Manhattan","00039","36 & 8-10","1917","1917","S","10005","40.705931","-74.007275","101","1","7","1000884","1000397501","Battery Park City-Lower Manhattan"
"670-17-S","22","Thames St","Manhattan","00051","14","1917","1917","S","10006","40.709295","-74.012873","101","1","13","1090832","1000510014","Battery Park City-Lower Manhattan"
"1595-17-S","22","Thames St","Manhattan","00051","14","1917","1917","S","10006","40.709295","-74.012873","101","1","13","1090832","1000510014","Battery Park City-Lower Manhattan"
"1543-17-S","25-27","Thames St","Manhattan","00052","8","1917","1917","S","10006","40.709246","-74.012711","101","1","13","1089248","1000520008","Battery Park City-Lower Manhattan"
"1276-17-S","108","Greenwich St","Manhattan","00053","35","1917","1917","S","10006","40.708499","-74.013374","101","1","13","1001052","1000530035","Battery Park City-Lower Manhattan"
"1342-17-S","102-104","Greenwich St","Manhattan","00053","38","1917","1917","S","10006","40.708321","-74.01345","101","1","13","1001054","1000530037","Battery Park City-Lower Manhattan"
"1672-17-S","161","Washington St","Manhattan","00058","11, 30","1917","1917","S",,,,,,,,,
"2061-17-S","12-16","John St","Manhattan","00065","20","1917","1917","S",,,,,,,,,
"2229-17-S","23","West 24th Street","Manhattan","00826","25","1917","1917","S","10010","40.742674","-73.990195","105","3","58","1015597","1008260025","Hudson Yards-Chelsea-Flatiron-Union Square"
"1837-17-S","2-6","Montgomery St","Manhattan","00286","60","1917","1917","S",,,,,,,,,
"1892-17-S","131","Chrystie St","Manhattan","00424","32","1917","1917","S","10002","40.719369","-73.993218","103","1","18","1005668","1004240032","Chinatown"
"235-22-S",,,,,,"235","1922","S",,,,,,,,,
"265-17-S","61-65","Stanton St","Manhattan","00416","14","1917","1917","S","10002","40.721891","-73.989967","103","1","3601","1077637","1004160001","Chinatown"
"2418-17-S","1-5","2nd Ave","Manhattan","00456","34","1917","1917","S",,,,,,,,,
"1209-17-S","314-320","Grand St","Manhattan","00413","51","1917","1917","S","10002","40.717288","-73.990971","103","1","18","1005451","1004130051","Chinatown"
"2513-17-S","214-228","Ave C","Manhattan","00383","1, 5, 9, 21, 29, 31, 35","1917","1917","S","10009","40.727854","-73.976094","103","2","28","1088218","1003830001","Lower East Side"
"1561-17-BZ","192-196","DeGraw St","Manhattan","00331","17 & 31","1917","1917","BZ",,,,,,,,,
"374-17-S","192-196","DeGraw St","Manhattan","00331","17 & 31","1917","1917","S",,,,,,,,,
"1919-17-S","125-131","Canal St","Manhattan","00303","35","1917","1917","S","10002","40.715916","-73.995127","103","1","16","1003917","1003030035","Chinatown"
"1249-17-S","17","Orchard St","Manhattan","00297","31","1917","1917","S","10002","40.715238","-73.991729","103","1","16","1003873","1002997501","Chinatown"
"1834-17-S","196-204","Mulberry St","Manhattan","00480","9","1917","1917","S","10012","40.721436","-73.996461","102","1","41","1007179","0","SoHo-TriBeCa-Civic Center-Little Italy"
"1844-17-S","2-6","Montgomery St","Manhattan","00286","60","1917","1917","S",,,,,,,,,
"473-17-S","8-14","Grand St","Manhattan","00477","28","1917","1917","S",,,,,,,,,
"1315-17-S","429","Broome St","Manhattan","00473","18","1917","1917","S","10013","40.721472","-73.999163","102","1","45","1007017","1004730018","SoHo-TriBeCa-Civic Center-Little Italy"
"308-17-S","2-6","Montgomery St","Manhattan","00286","60","1917","1917","S",,,,,,,,,
"825-17-BZ","1505","Park Ave","Manhattan","01637","72","1917","1917","BZ","10029","40.794985","-73.946371","111","8","172","1078929","1016370001","East Harlem South"
"286-17-S","644-646","Broadway","Manhattan","00429","1","1917","1917","S","10012","40.726626","-73.99575","102","1","5502","1008418","1005290001","West Village"
"1385-17-S","429","Broome St","Manhattan","00473","18","1917","1917","S","10013","40.721472","-73.999163","102","1","45","1007017","1004730018","SoHo-TriBeCa-Civic Center-Little Italy"
"955-17-S","132-140","East 107 St","Manhattan","01634","158","1917","1917","S","10029","40.793094","-73.946221","111","8","172","1000000","1016340158","East Harlem South"
"1578-17-S","174-176","East 104 St","Manhattan","01631","44","1917","1917","S","10029","40.790536","-73.94631","111","8","166","1051932","1016310044","East Harlem South"
"1052-17-S","174-176","East 104 St","Manhattan","01631","44","1917","1917","S","10029","40.790536","-73.94631","111","8","166","1051932","1016310044","East Harlem South"
"2491-17-S","40-42","Mercer St","Manhattan","00474","45","1917","1917","S","10013","40.721447","-74.00127","102","1","47","1087559","1004747506","SoHo-TriBeCa-Civic Center-Little Italy"
"744-17-S","68-70","Grand St","Manhattan","00475","28","1917","1917","S","10013","40.722095","-74.003157","102","1","47","1077732","1004750028","SoHo-TriBeCa-Civic Center-Little Italy"
"1721-17-S","85-109","William St","Manhattan","00067","1, 3, 8, 16, 17","1917","1917","S","10038","40.708039","-74.007957","101","1","1502","1079043","1000670001","Battery Park City-Lower Manhattan"
"1097-17-S","17","Orchard St","Manhattan","00297","31","1917","1917","S","10002","40.715238","-73.991729","103","1","16","1003873","1002997501","Chinatown"
"2333-17-S","140","5th Ave","Manhattan","00820","47","1917","1917","S","10011","40.739005","-73.991448","105","3","54","1015455","1008207501","Hudson Yards-Chelsea-Flatiron-Union Square"
"1665-17-S","26","John St","Manhattan","00065","25","1917","1917","S","10038","40.709724","-74.008707","101","1","1502","1000000","1000650024","Battery Park City-Lower Manhattan"
"870-17-S","68","Beekman St","Manhattan","00099","12","1917","1917","S",,,,,,,,,
"322-17-S","357-359","Canal St","Manhattan","00228","1","1917","1917","S","10013","40.720934","-74.004026","102","1","47","1002953","1002280001","SoHo-TriBeCa-Civic Center-Little Italy"
"711-17-S","357-359","Canal St","Manhattan","00228","1","1917","1917","S","10013","40.720934","-74.004026","102","1","47","1002953","1002280001","SoHo-TriBeCa-Civic Center-Little Italy"
"598-17-S","343","Canal St","Manhattan","00229","3","1917","1917","S","10013","40.720538","-74.003467","102","1","47","1002967","1002290003","SoHo-TriBeCa-Civic Center-Little Italy"
"1690-17-S","128-138","Mott St","Manhattan","00230","6 & 9","1917","1917","S","10013","40.718362","-73.996793","102","1","41","1087662","1002387501","SoHo-TriBeCa-Civic Center-Little Italy"
"1691-17-S","128-138","Mott St","Manhattan","00230","6 & 9","1917","1917","S","10013","40.718362","-73.996793","102","1","41","1087662","1002387501","SoHo-TriBeCa-Civic Center-Little Italy"
"1863-17-S","19","Mercer St","Manhattan","00230","37","1917","1917","S","10013","40.720736","-74.001898","102","1","47","1003000","1002300037","SoHo-TriBeCa-Civic Center-Little Italy"
"1202-17-S","32","West 20th Street","Manhattan","00821","62","1917","1917","S","10011","40.740166","-73.992137","105","3","54","1015483","1008210062","Hudson Yards-Chelsea-Flatiron-Union Square"
"472-17-S","458","Broadway","Manhattan","00232","12","1917","1917","S","10013","40.720651","-74.000808","102","1","45","1003034","1002320012","SoHo-TriBeCa-Civic Center-Little Italy"
"1527-17-S","153-155","Lafayette St","Manhattan","00234","pt-15","1917","1917","S","10013","40.719682","-73.99938","102","1","45","1003057","1002340015","SoHo-TriBeCa-Civic Center-Little Italy"
"1166-17-S","99-103","Beekman St","Manhattan","00095","27","1917","1917","S","10038","40.708313","-74.003618","101","1","1501",,,"Battery Park City-Lower Manhattan"
"1323-17-S","210","Centre St","Manhattan","00235","6","1917","1917","S","10013","40.719229","-73.998965","102","1","41","1079580","1002350006","SoHo-TriBeCa-Civic Center-Little Italy"
"2572-17-S","63-65","Beekman St","Manhattan","00094","17 & 19","1917","1917","S",,,,,,,,,
"2387-17-S","165-171","Grand St","Manhattan","00235","13","1917","1917","S","10013","40.719748","-73.99846","102","1","41","1003065","1002350013","SoHo-TriBeCa-Civic Center-Little Italy"
"527-17-S","132-138","Mulberry St","Manhattan","00237","1-3 & 5","1917","1917","S","10013","40.718392","-73.997774","102","1","41","1066508","1002377501","SoHo-TriBeCa-Civic Center-Little Italy"
"1932-17-S","9-10","East St","Manhattan","00264","20","1917","1917","S",,,,,,,,,
"1059-17-BZ","68-70","Madison St","Manhattan","00278","48","1917","1917","BZ","10002","40.712104","-73.996494","103","1","8",,,"Chinatown"
"2397-17-S","39-41","East Broadway","Manhattan","00280","40","1917","1917","S","10002","40.713553","-73.996148","103","1","8","1003423","1002800040","Chinatown"
"2347-17-S","28","East Broadway","Manhattan","00281","28","1917","1917","S","10002","40.713547","-73.996422","103","1","8","1003488","1002810012","Chinatown"
"2592-17-S","48","East Broadway","Manhattan","00281","22","1917","1917","S","10002","40.713597","-73.995826","103","1","8","1003497","1002810022","Chinatown"
"100264-17-S","52","East Broadway","Manhattan","00281","24","1917","1917","S","10002","40.713608","-73.995707","103","1","8","1003499","1002810024","Chinatown"
"2545-17-S","120-122","East Broadway","Manhattan","00283","50","1917","1917","S","10002","40.713882","-73.992284","103","1","6","1003583","1002830050","Lower East Side"
"1346-17-S","124","East Broadway","Manhattan","00283","53","1917","1917","S","10002","40.713896","-73.992125","103","1","6","1003584","1002830053","Lower East Side"
"2424-17-S","361-363","Broadway","Manhattan","00174","31","1917","1917","S","10013","40.717511","-74.003871","101","1","33","1001905","1001747505","SoHo-TriBeCa-Civic Center-Little Italy"
"1147-17-S","138","Baxter St","Manhattan","00235","4","1917","1917","S","10013","40.71868","-73.998608","102","1","41","1003060","1002350004","SoHo-TriBeCa-Civic Center-Little Italy"
"1861-17-S","72-78","Nassau St","Manhattan","00078","35","1917","1917","S","10038","40.70963","-74.00831","101","1","1502","1001200","1000787505","Battery Park City-Lower Manhattan"
"2191-17-S","56-60","Leonard St","Manhattan","00176","26-29","1917","1917","S","10013","40.717898","-74.006273","101","1","33","1088646","1001767501","SoHo-TriBeCa-Civic Center-Little Italy"
"2163-17-S","85-109","William St","Manhattan","00067","1, 3, 8, 16, 17","1917","1917","S","10038","40.708039","-74.007957","101","1","1502","1079043","1000670001","Battery Park City-Lower Manhattan"
"1042-17-S","85-109","William St","Manhattan","00067","1, 3, 8, 16, 17","1917","1917","S","10038","40.708039","-74.007957","101","1","1502","1079043","1000670001","Battery Park City-Lower Manhattan"
"2239-17-S","64-66","Nassau St","Manhattan","00067","25","1917","1917","S","10038","40.709307","-74.008624","101","1","1502","1001109","1000670023","Battery Park City-Lower Manhattan"
"2122-17-S","23","West 24th Street","Manhattan","00826","25","1917","1917","S","10010","40.742674","-73.990195","105","3","58","1015597","1008260025","Hudson Yards-Chelsea-Flatiron-Union Square"
"1682-17-S","34-38","Platt St","Manhattan","00068","22","1917","1917","S","10038","40.708039","-74.007152","101","1","1502","1087755","1000687502","Battery Park City-Lower Manhattan"
"1642-17-S","217","Pearl St","Manhattan","00069","3","1917","1917","S","10038","40.707116","-74.006175","101","1","1502","1000000","1000690001","Battery Park City-Lower Manhattan"
"1219-17-S","15-23","Platt St","Manhattan","00069","39","1917","1917","S","10038","40.707476","-74.006301","101","1","1502","1001127","1000697502","Battery Park City-Lower Manhattan"
"107-17-S","144-154","John St","Manhattan","00071","25 & 28","1917","1917","S","10038","40.706782","-74.004945","101","1","1502","1001137","1000717501","Battery Park City-Lower Manhattan"
"590-17-S","144-154","John St","Manhattan","00071","25 & 28","1917","1917","S","10038","40.706782","-74.004945","101","1","1502","1001137","1000717501","Battery Park City-Lower Manhattan"
"157-17-S","32-38","Fulton St","Manhattan","00075","1-7, 10, 11, 15, 17, 19","1917","1917","S","10038","40.707561","-74.004155","101","1","1502","1001163","1000750001","Battery Park City-Lower Manhattan"
"588-17-S","45","Fulton St","Manhattan","00095","38","1917","1917","S","10038","40.708047","-74.004505","101","1","1501","1001290","1000950027","Battery Park City-Lower Manhattan"
"2423-17-S","45-49","John St","Manhattan","00078","28","1917","1917","S","10038","40.709241","-74.008","101","1","1502","1001199","1000787508","Battery Park City-Lower Manhattan"
"1773-17-S","26","John St","Manhattan","00065","25","1917","1917","S","10038","40.709724","-74.008707","101","1","1502","1000000","1000650024","Battery Park City-Lower Manhattan"
"2225-17-S","30-32","West 21st Street","Manhattan","00822","58","1917","1917","S","10010","40.740737","-73.99166","105","3","54","1015506","1008220058","Hudson Yards-Chelsea-Flatiron-Union Square"
"932-17-S","120","Fulton St","Manhattan","00078","45","1917","1917","S","10038","40.710081","-74.007485","101","1","1502","1001208","1000780045","Battery Park City-Lower Manhattan"
"750-17-S","15","John St","Manhattan","00079","14","1917","1917","S","10038","40.709954","-74.008999","101","1","1502","1001217","1000790014","Battery Park City-Lower Manhattan"
"1069-17-S","15","John St","Manhattan","00079","14","1917","1917","S","10038","40.709954","-74.008999","101","1","1502","1001217","1000790014","Battery Park City-Lower Manhattan"
"2134-17-S","206-208","Fulton St","Manhattan","00081","24","1917","1917","S",,,,,,,,,
"1516-17-S","217-221","Washington St","Manhattan","00084","41","1917","1917","S","10007","40.713357","-74.012481","101","1","21","1086510","1000840036","SoHo-TriBeCa-Civic Center-Little Italy"
"1174-17-S","45","Vesey St","Manhattan","00085","13","1917","1917","S","10007","40.712345","-74.010724","101","1","13","1000000","1000580001","Battery Park City-Lower Manhattan"
"436-17-S","20-24","Vesey St","Manhattan","00088","5","1917","1917","S","10007","40.711843","-74.009562","101","1","21","1001235","1000880005","SoHo-TriBeCa-Civic Center-Little Italy"
"778-17-S","12","Barclay St","Manhattan","00088","14","1917","1917","S","10007","40.712224","-74.008617","101","1","21","1087947","1000880014","SoHo-TriBeCa-Civic Center-Little Italy"
"498-17-S","93-99","Nassau St","Manhattan","00089","1","1917","1917","S","10038","40.710278","-74.007697","101","1","1501","1001242","1000890001","Battery Park City-Lower Manhattan"
"2135-17-S","61","Beekman St","Manhattan","00093","36","1917","1917","S","10038","40.709765","-74.004949","101","1","1501","1001288","1000930034","Battery Park City-Lower Manhattan"
"866-17-S","32-38","Fulton St","Manhattan","00075","1-7, 10, 11, 15, 17, 19","1917","1917","S","10038","40.707561","-74.004155","101","1","1502","1001163","1000750001","Battery Park City-Lower Manhattan"
"55-17-BZ","282-296","Chester St","Brooklyn","03559","39-45","1917","1917","BZ","11212","40.664812","-73.910467","316","41","924","3081783","3035590138","Brownsville"
"2334-17-S","109-111","West 31st St","Manhattan","00807","34, 35","1917","1917","S","10001","40.748153","-73.989747","105","3","101","1088533","1008077502","Midtown-Midtown South"
"2533-17-S","34","West 15th St","Manhattan","00816","61","1917","1917","S","10011","40.737333","-73.994667","105","3","54","1015297","1008160061","Hudson Yards-Chelsea-Flatiron-Union Square"
"946-17-S","29","West 15th St","Manhattan","00817","25","1917","1917","S","10011","40.737183","-73.994259","105","3","54","1015308","1008170025","Hudson Yards-Chelsea-Flatiron-Union Square"
"810-17-S","43-47","West 16th St","Manhattan","00818","10","1917","1917","S","10011","40.737948","-73.994096","105","3","54","1015376","1008180010","Hudson Yards-Chelsea-Flatiron-Union Square"
"2144-17-S","5302-5324","2nd Ave","Brooklyn","00812","(26) 1","1917","1917","S","11220","40.647326","-74.018778","307","38","18","3014135","3008120026","Sunset Park West"
"2274-17-S","5502-5520","2nd Ave","Brooklyn","00828","1","1917","1917","S","11220","40.646206","-74.019942","307","38","22","3014856","3008280001","Sunset Park West"
"343-17-S","140","East 41st St","Manhattan","01295","45","1917","1917","S","10017","40.750586","-73.976111","106","4","80","1036148","1012950033","Murray Hill-Kips Bay"
"83-17-BZ","581-","Howard Ave","Brooklyn","03512","35","1917","1917","BZ",,,,,,,,,
"1931-17-S","(455-457) 803","6th Ave","Manhattan","00803","69","1917","1917","S",,,,,,,,,
"597-17-S","102","43rd St","Brooklyn","00726","1","1917","1917","S","11232","40.654133","-74.014693","307","38","18","3010890","3007260001","Sunset Park West"
"1757-17-S","674","Union St","Brooklyn","00955","45","1917","1917","S","11215","40.67675","-73.981361","306","39","133","3020063","3009550036","Park Slope-Gowanus"
"792-17-BZ","86-90","Butler St","Brooklyn","00409","18","1917","1917","BZ","11231","40.683805","-73.99126","306","33","69","3330481","3004097501","DUMBO-Vinegar Hill-Downtown Brooklyn-Boerum Hill"
"2454-17-S","232-250","3rd St","Brooklyn","00980","1","1917","1917","S","11215","40.674909","-73.987671","306","39","119","3337594","3009800008","Park Slope-Gowanus"
"2151-17-S","333-335","Carroll St","Brooklyn","00444","18,50","1917","1917","S","11231","40.679177","-73.991686","306","39","75","3007468","3004440061","Carroll Gardens-Columbia Street-Red Hook"
"2251-17-S","55-57","3rd Ave","Brooklyn","00460","34","1917","1917","S","11217","40.684855","-73.981006","302","33","39","3425041","3001867502","DUMBO-Vinegar Hill-Downtown Brooklyn-Boerum Hill"
"1972-17-S","14-18","Glenmore Ave","Brooklyn","03504","15","1917","1917","S","11212","40.671089","-73.910116","316","41","906","3080678","3034890171","Brownsville"
"1709-17-S","147","West 24th St","Manhattan","00800","14","1917","1917","S","10011","40.744146","-73.99367","104","3","91","1014974","1008000014","Hudson Yards-Chelsea-Flatiron-Union Square"
"291-17-BZ","1917",,"Manhattan","1917","1917","1917","1917","BZ",,,,,,,,,
"2584-17-S","643-655","Lexington Ave","Manhattan","01309","20,21,47,53","1917","1917","S","10022","40.759236","-73.97035","106","4","100","1036487","1013090050","Turtle Bay-East Midtown"
"57-17-BZ","494-498","7th Ave","Manhattan","00786","51","1917","1917","BZ","10018","40.752701","-73.989399","105","3","109","1014445","1007860051","Midtown-Midtown South"
"2470-17-S","550-554","8th Ave","Manhattan","00787","1-10","1917","1917","S","10018","40.754354","-73.991875","105","3","109","1014453","1007870001","Midtown-Midtown South"
"2258-17-S","40","East 14th St","Manhattan","00625","7,9","1917","1917","S","10003","40.735148","-73.991571","102","2","61","1009216","1005650011","West Village"
"3509-17-S","40","East 14th St","Manhattan","00625","7,9","1917","1917","S","10003","40.735148","-73.991571","102","2","61","1009216","1005650011","West Village"
"2244-17-S","127-133","West 30th St","Manhattan","00806","58","1917","1917","S","10001","40.747684","-73.990566","105","3","101","1015171","1008060058","Midtown-Midtown South"
"1193-17-S","147-149","West 22nd St","Manhattan","00798","17","1917","1917","S","10011","40.742815","-73.994645","104","3","91","1014794","1007980017","Hudson Yards-Chelsea-Flatiron-Union Square"
"953-17-S","143-145","West 29th St","Manhattan","00805","17","1917","1917","S","10001","40.747206","-73.991342","105","3","95","1015141","1008050017","Midtown-Midtown South"
"1689-17-S","(143-149) 139-149","West 19th St","Manhattan","00795","14, 17","1917","1917","S",,,,,,,,,
"1386-17-S","124","West 18th St","Manhattan","00793","53","1917","1917","S","10011","40.740237","-73.995937","104","3","81","1014663","1007937504","Hudson Yards-Chelsea-Flatiron-Union Square"
"939-17-S","132-134","West 21st St","Manhattan","00796","58","1917","1917","S","10011","40.742065","-73.994818","104","3","87","1014757","1007960058","Hudson Yards-Chelsea-Flatiron-Union Square"
"1968-17-S","120","West 20th St","Manhattan","00795","54","1917","1917","S","10011","40.741393","-73.995049","104","3","87","1014733","1007950054","Hudson Yards-Chelsea-Flatiron-Union Square"
"2123-17-S","119-125","West 25th St","Manhattan","00801","24","1917","1917","S","10001","40.744527","-73.992656","104","3","91","1015007","1008010024","Hudson Yards-Chelsea-Flatiron-Union Square"
"1889-17-S","151-163","West 26th St","Manhattan","00802","8","1917","1917","S","10001","40.745428","-73.992872","105","3","95","1015034","1008020008","Midtown-Midtown South"
"2320-17-S","754-774","Pacific St","Brooklyn","01129","13","1917","1917","S","11238","40.681427","-73.969959","308","35","163","3330630","3011290050","Prospect Heights"
"1916-17-S","103-105","West 14th St","Manhattan","00790","28","1917","1917","S","10011","40.737564","-73.997301","104","3","81","1014525","1007900028","Hudson Yards-Chelsea-Flatiron-Union Square"
"1507-17-S","369-373","Dekalb Ave","Brooklyn","01921","1","1917","1917","S","11205","40.690027","-73.963162","302","35","193","3055114","3019210001","Clinton Hill"
"2046-17-S","102-106","Commerce St","Brooklyn","00507","1","1917","1917","S","11231","40.681324","-74.008931","306","38","59","3008225","3005070001","Carroll Gardens-Columbia Street-Red Hook"
"1106-17-BZ","137","Jefferson Ave","Brooklyn","01827","82","1917","1917","BZ","11216","40.683071","-73.951956","303","36","245","3342633","3018270031","Bedford"
"1029-17-BZ","(1368-1376) 1368-1378","St Johns Pl","Brooklyn","01384","16, 18, 20","1917","1917","BZ",,,,,,,,,
"1216-17-S","1193-1195","Atlantic Ave","Brooklyn","01866","16","1917","1917","S","11216","40.678541","-73.951101","303","36","247","3053926","3018660008","Crown Heights North"
"1313-17-S","68-72","Emerson Pl","Brooklyn","01879","26,31","1917","1917","S","11205","40.6955","-73.962539","302","35","191","3334729","3018940026","Clinton Hill"
"2430-17-S","20-40","Skillman St","Brooklyn","01885","23,6","1917","1917","S","11205","40.698046","-73.957813","303","33","1237","3000000","3018850041","Bedford"
"2447-17-BZ","956-978","Nostrand Ave","Brooklyn","01305","40, 46-48, 50, 52","1917","1917","BZ","11225","40.665534","-73.95092","309","35","321",,,"Crown Heights South"
"647-17-BZ","1894-1898","Sterling Pl","Brooklyn","01472","25","1917","1917","BZ","11233","40.670646","-73.915859","316","41","361","3039487","3014720025","Ocean Hill"
"520-17-BZ","1302-1306","60th St","Brooklyn","05719","7","1917","1917","BZ","11219","40.628643","-73.998224","312","44","192","3141303","3057190007","Borough Park"
"336-17-S","369-373","Dekalb Ave","Brooklyn","01921","1","1917","1917","S","11205","40.690027","-73.963162","302","35","193","3055114","3019210001","Clinton Hill"
"1935-17-A",,"213th St & Jerome Ave","Bronx","NONE",,"1935","1917","A",,,,,,,,,
"819-17--S","251-271","Classon Ave","Brooklyn","01924","6-14,28","1917","1917","S","11205","40.692115","-73.960658","303","33","193","3343740","3019247501","Clinton Hill"
"1962-17-S","325-341","Classon Ave","Brooklyn","01938","7","1917","1917","S","11205","40.690026","-73.96022","303","35","233","3321871","3019380001","Bedford"
"2175-17-S","1050","Broadway","Brooklyn","01596","37","1917","1917","S","11221","40.695066","-73.931861","303","36","287","3391304","3015960038","Stuyvesant Heights"
"128-17-BZ","1060-64","Bedford Ave","Brooklyn","01954","22-24","1917","1917","BZ","11216","40.6886","-73.954967","303","36","233","3055817","3019547503","Bedford"
"1585-17-S","30","Greenwich Ave","Manhattan","00606","10","1917","1917","S","10011","40.735121","-74.000227","102","3","71","1078112","1006060009","West Village"
"2197-17-BZ","28-30","Quincy Ave","Brooklyn","01972","17","1917","1917","BZ",,,,,,,,,
"390-17-S","71-77","Clinton Ave","Brooklyn","01888","39,40,41,60,61,69,81","1917","1917","S","11205","40.695332","-73.969243","302","35","191","3054323","3018880034","Clinton Hill"
"1825-17-BZ","1000-1002","Flatbush Ave","Brooklyn","05125","18,38","1917","1917","BZ","11226","40.646968","-73.958134","314","40","51001","3328206","3051250018","Flatbush"
"2375-17-BZ","1314-1332","Ocean Ave","Brooklyn","06703","55","1917","1917","BZ","11230","40.630156","-73.957243","314","45","764","3179457","3067030055","Flatbush"
"223-17-BZ","611-613","Bergen St","Brooklyn","01137","69, 71, 73","1917","1917","BZ","11238","40.679703","-73.969538","308","35","163","3027886","3011370069","Prospect Heights"
"1765-17-BZ","103-111","Underhill Ave","Brooklyn","01153","5","1917","1917","BZ","11238","40.67757","-73.965783","308","35","205",,,"Prospect Heights"
"1137-17-S","165-181","Sullivan St","Brooklyn","00564","1","1917","1917","S","11231","40.679319","-74.014461","306","38","53","3336588","3005640001","Carroll Gardens-Columbia Street-Red Hook"
"435-17-S","41 & 43","Bond St","Manhattan","00529","29 & 30","1917","1917","S",,,,,,,,,
"3312-17-BZ","2231-2237","Church Ave","Brooklyn","05089","65","1917","1917","BZ","11226","40.650432","-73.957969","314","40","79602","3116880","3050890065","Prospect Lefferts Gardens-Wingate"
"2138-17-BZ","692-710","Jamaica Ave","Brooklyn","04102","19,35","1917","1917","BZ","11208","40.687095","-73.878645","305","37","117601",,,"Cypress Hills-City Line"
"1261-17-S","17-19","West 17th St","Manhattan","00819","27","1917","1917","S","10011","40.738283","-73.993072","105","3","54","1015415","1008190027","Hudson Yards-Chelsea-Flatiron-Union Square"
"707-17-S","754-774","Pacific St","Brooklyn","01129","13","1917","1917","S","11238","40.681427","-73.969959","308","35","163","3330630","3011290050","Prospect Heights"
"1392-17-BZ","2165-2217","Tilden Ave","Brooklyn","05126","33,40,62","1917","1917","BZ","11226","40.646592","-73.956667","314","40","794",,,"Erasmus"
"1144-17-BZ","184-198","Nostrand Ave","Brooklyn","01753","42","1917","1917","BZ","11205","40.693959","-73.952291","303","33","241","3048591","3017530042","Bedford"
"1079-17-BZ","184-198","Nostrand Ave","Brooklyn","01753","42","1917","1917","BZ","11205","40.693959","-73.952291","303","33","241","3048591","3017530042","Bedford"
"2116-17-S","141-151","Terrace Pl","Brooklyn","05255","1","1917","1917","S","11218","40.65515","-73.977006","307","39","171","3121779","3052550018","Windsor Terrace"
"1649-17-S","139-141","Kosciusko St","Brooklyn","01779","66","1917","1917","S","11216","40.690826","-73.949704","303","36","253","3255870","3017790027","Bedford"
"1399-17-S","1941-1659","Park Ave","Brooklyn","01780","1","1917","1917","S",,,,,,,,,
"2216-17-BZ","4004-4006","New Utrecht Ave","Brooklyn","05586","29","1917","1917","BZ","11219","40.644368","-73.994274","312","38","110","3328579","3055860029","Sunset Park East"
"1933-17-S","783-785","Coney Island Ave","Brooklyn","05153","55,56","1917","1917","S","11218","40.63818","-73.968469","314","40","526","3118593","3051530056","Flatbush"
"2121-17-S","771-785","Broadway","Manhattan","00561","25, 26, 28-33, 35, 36","1917","1917","S","10003","40.731256","-73.99186","102","2","59","1009099","1005617501","West Village"
"274-17-S","683-685","Broadway","Manhattan","00535","57","1917","1917","S","10012","40.727913","-73.994685","102","1","5501","1008629","1005357501","West Village"
"2056-17-S","417","Lafayette St","Manhattan","00544","12","1917","1917","S","10003","40.72874","-73.992383","102","2","57","1008772","1005440012","West Village"
"1025-17-S","736","Broadway","Manhattan","00545","22","1917","1917","S","10003","40.729766","-73.993091","102","2","57","1008799","1005450022","West Village"
"1285-17-S","736","Broadway","Manhattan","00545","22","1917","1917","S","10003","40.729766","-73.993091","102","2","57","1008799","1005450022","West Village"
"101-17-S","434","Lafayette St","Manhattan","00545","37","1917","1917","S","10003","40.729181","-73.99203","102","2","57","1008801","1005450037","West Village"
"1606-17-S","1-3","University Pl","Manhattan","00548","1","1917","1917","S",,,,,,,,,
"1969-17-S","12-16","East 13 St","Manhattan","00570","11","1917","1917","S",,,,,,,,,
"1370-17-S","40","East 9 St","Manhattan","00560","9","1917","1917","S","10003","40.731808","-73.993473","102","2","59","1009091","1005607502","West Village"
"2250-17-S","28-30","4th St","Manhattan","00535","24","1917","1917","S",,,,,,,,,
"2190-17-S","47-61","East 9 St","Manhattan","00561","37-44","1917","1917","S","10003","40.73169","-73.993144","102","2","59","1009100","1005610037","West Village"
"1976-17-S","(37-41) 39-41","East 12 St","Manhattan","00564","28","1917","1917","S",,,,,,,,,
"2366-17-S","42","East 14 St","Manhattan","00565","1-3, 10","1917","1917","S","10003","40.735121","-73.991499","102","2","61","1009216","1005650011","West Village"
"1623-17-S","842-846","Broadway","Manhattan","00565","21","1917","1917","S","10003","40.734108","-73.990903","102","2","61","1009217","1005650021","West Village"
"1551-17-S","84","University Pl","Manhattan","00569","26","1917","1917","S","10003","40.733532","-73.993141","102","2","61","1009285","1005690026","West Village"
"2388-17-S","3-9","East 12 St","Manhattan","00570 # 00570","(44) 8 # (8) 44","1917","1917","S",,,,,,,,,
"2351-17-S","265","Greene St","Manhattan","00548","12-15","1917","1917","S","10003","40.730908","-73.994364","102","1","59","1008834","1005480012","West Village"
"2381-17-S","231","Mercer St","Manhattan","00533","23","1917","1917","S","10012","40.72765","-73.996064","102","1","5501",,,"West Village"
"2420-17-S","36","West 17th St","Manhattan","00818","71","1917","1917","S","10011","40.738448","-73.993512","105","3","54","1015402","1008180071","Hudson Yards-Chelsea-Flatiron-Union Square"
"732-17-A","1590-1612","Gates Ave","Queens","03444","1","1917","1917","1917","11385","40.700245","-73.911479","405","34","549","4082319","4034440001","Ridgewood"
"1466-17-S","680","Broadway","Manhattan","00530","6","1917","1917","S","10012","40.727653","-73.99488","102","1","5502","1008470","1005300006","West Village"
"713-17-S","41","Great Jones St","Manhattan","00530","7","1917","1917","S","10012","40.726824","-73.992698","102","1","5502","1008480","1005300027","West Village"
"368-17-S","682","Broadway","Manhattan","00530","7","1917","1917","S","10012","40.727724","-73.994819","102","1","5502","1008471","1005300007","West Village"
"1476-17-S","35","Great Jones St","Manhattan","00530","24","1917","1917","S","10012","40.726906","-73.992867","102","1","5502","1080071","1005300024","West Village"
"1580-17-S","14","West 4 St","Manhattan","00535","47","1917","1917","S","10012","40.728745","-73.994945","102","1","5501","1008629","1005357501","West Village"
"2341-17-S","679","Broadway","Manhattan","00532","10","1917","1917","S","10012","40.727686","-73.99488","102","1","5501","1066869","1005320008","West Village"
"1357-17-S","17-21","West 3 St","Manhattan","00535","38","1917","1917","S","10012","40.728347","-73.995898","102","1","5501","1008627","1005350036","West Village"
"2188-17-S","105","Bleecker St","Manhattan","00533","39","1917","1917","S","10012","40.727178","-73.997128","102","1","5501",,,"West Village"
"276-17-S","217-219","Greene St","Manhattan","00534","22","1917","1917","S",,,,,,,,,
"2069-17-S","217-219","Greene St","Manhattan","00534","22","1917","1917","S",,,,,,,,,
"2514-17-S","217-219","Greene St","Manhattan","00534","22","1917","1917","S",,,,,,,,,
"1417-17-S","213","Greene St","Manhattan","00534","30","1917","1917","S",,,,,,,,,
"500-17-S","207","Greene St","Manhattan","00534","31","1917","1917","S",,,,,,,,,
"2171-17-S","39","Great Jones St","Manhattan","00530","26","1917","1917","S","10012","40.726851","-73.992755","102","1","5502","1008479","1005300026","West Village"
"1367-17-S","382","Lafayette St","Manhattan","00531","11","1917","1917","S","10003","40.727554","-73.993426","102","1","5502","1008508","1005317502","West Village"
"114-17-S","223-227","West 66th St","Manhattan","01158","18,16","1917","1917","S","10023","40.775188","-73.985276","107","6","155","1070711","1011587504","Lincoln Square"
"1307-17-S","520-524","West 48th St","Manhattan","01076","45","1917","1917","S","10036","40.763941","-73.993939","104","3","129","1087113","1010760043","Clinton"
"289-17-BZ","27-37","West 60th St","Manhattan","01113","8","1917","1917","BZ","10023","40.769265","-73.982917","107","3","145","1084277","1011130008","Lincoln Square"
"1737-17-BZ","25","Central Park","Manhattan","01115","17,22,43,47","1917","1917","BZ","10000","40.782295","-73.965194","164","6","143","1000000","1011110001","park-cemetery-etc-Manhattan"
"1321-17-S","23-27","West 62nd St","Manhattan","01115","17,22,43,47","1917","1917","S","10023","40.770283","-73.981436","107","6","149","1027463","1011157503","Lincoln Square"
"1113-17-S","306-308","West 117th St","Manhattan","01943","37","1917","1917","S","10026","40.805235","-73.955224","110","9","20102","1087201","1019437503","Central Harlem South"
"1050-17-S","311","West 120th St","Manhattan","01947","23","1917","1917","S","10027","40.80726","-73.954135","110","9","257","1059142","1019470023","Central Harlem South"
"403-17-S","520-524","West 48th St","Manhattan","01076","45","1917","1917","S","10036","40.763941","-73.993939","104","3","129","1087113","1010760043","Clinton"
"1313-17-BZ","107-36","Queens Blvd","Queens","03239,02049","3","1917","1917","BZ","11375","40.721559","-73.844912","406","29","711","4312083","4032397501","Forest Hills"
"1967-17-S","424","Madison Ave","Manhattan","01084","56","1917","1917","S","10017","40.756962","-73.976256","105","4","94","1035445","1012840056","Midtown-Midtown South"
"1131-17-S","201","West 74thSt","Manhattan","01166","25","1917","1917","S",,,,,,,,,
"1613-17-BZ","107-36","Queens Blvd","Queens","03239","3","1917","1917","BZ","11375","40.721559","-73.844912","406","29","711","4312083","4032397501","Forest Hills"
"1189-17-BZ","118-02/12","Queens Blvd","Queens","03347","24","1917","1917","BZ",,,,,,,,,
"848-17-S","13","East 55th St","Manhattan","01291","13","1917","1917","S","10022","40.761424","-73.974313","105","4","102","1035769","1012910010","Midtown-Midtown South"
"1366-17-BZ","1920","Harmon St","Queens","03388","21,22","1917","1917","BZ","11385","40.708221","-73.910473","405","30","591","4080791","4033880022","Ridgewood"
"869-17-S","8-10","East 57th St","Manhattan","01292","9,64,65","1917","1917","S",,,,,,,,,
"1284-17-S","(126-136) 434-438","Ave of the Americas","Manhattan","00573","6","1917","1917","S",,,,,,,,,
"293-17-BZ","2-4","LaSalle Pl","Manhattan","01965","22","1917","1917","BZ",,,,,,,,,
"2576-17-S","289","Bleecker St","Manhattan","00590","53","1917","1917","S","10014","40.732091","-74.003471","102","3","67","1010156","1005900053","West Village"
"2162-17-S","62","West 14 St","Manhattan","00577","8","1917","1917","S","10011","40.736796","-73.995515","102","3","63","1009706","1005777502","West Village"
"1653-17-S","250","Hudson St","Manhattan","00578","47-57, 83","1917","1917","S","10013","40.724658","-74.007753","102","3","37","1009723","1005780047","SoHo-TriBeCa-Civic Center-Little Italy"
"238-17-S","25","Commerce St","Manhattan","00587","44","1917","1917","S","10014","40.731641","-74.004655","102","3","67","1009960","1005870044","West Village"
"2294-17-S","34","West 13 St","Manhattan","00576","22","1917","1917","S","10011","40.735827","-73.99536","102","3","63","1077931","1005760022","West Village"
"1401-17-S","750-752","8th Ave","Manhattan","01018","1","1917","1917","S","10036","40.759878","-73.98785","105","3","125","1024736","1010187502","Midtown-Midtown South"
"1286-17-S","750-752","8th Ave","Manhattan","01018","1","1917","1917","S","10036","40.759878","-73.98785","105","3","125","1024736","1010187502","Midtown-Midtown South"
"199-17-BZ","253-255","West 47th St","Manhattan","01019","10,11","1917","1917","BZ","10036","40.759914","-73.986283","105","3","125","1000000","1010190010","Midtown-Midtown South"
"1922-17-A","133","Mercer St","Manhattan","00499","22","1922","1917","A","10012","40.724321","-73.998864","102","1","49","1007613","1004990022","SoHo-TriBeCa-Civic Center-Little Italy"
"1925-17-A","580-590","Broadway","Manhattan","00511","8, 6, 10","1925","1917","A","10012","40.724658","-73.997413","102","1","43","1007943","1005110006","SoHo-TriBeCa-Civic Center-Little Italy"
"1930-17-S","318-320","Bridge St","Brooklyn","00143","30","1930","1917","S","11201","40.694136","-73.98519","302","33","11","3339535","3001420100","DUMBO-Vinegar Hill-Downtown Brooklyn-Boerum Hill"
"1936-17-S","27","East 21st St","Manhattan","00850","22","1936","1917","S","10010","40.739639","-73.989023","105","2","56","1016247","1008500022","Hudson Yards-Chelsea-Flatiron-Union Square"
"1937-17-A","306-312","52nd St","Manhattan","01042","37,40","1937","1917","A",,,,,,,,,
"1947-17-S","4010-4016","Park Ave","Bronx","02906","63,65","1947","1917","S","10457","40.843008","-73.901939","203","15","165","2009499","2029060063","Claremont-Bathgate"
"1971-17-S","103","Broadway ave","Brooklyn","02471","8","1971","1917","S","11249","40.710419","-73.964853","301","34","549","3063665","3024710008","North Side-South Side"
"1974-17-S","124-130","Atlantic Ave","Brooklyn","00285","12","1974","1917","S","11201","40.690574","-73.995597","306","39","45","3395982","3002857501","Carroll Gardens-Columbia Street-Red Hook"
"1983-17-S","249","West 80th St","Manhattan","01228","8","1983","1917","S","10024","40.784706","-73.979879","107","6","167","1081044","1012280008","Upper West Side"
"1996-17-A","445","Beach 129th St","Queens","16211","14,18,20","1996","1917","A","11694","40.578691","-73.849578","414","32","93401","4304417","4162110018","Breezy Point-Belle Harbor-Rockaway Park-Broad Channel"
"2007-17-S","65-69","Varick St","Brooklyn","02993","18, 19, 26","2007","1917","S",,,,,,,,,
"2034-17-A","106-112","Spring St","Manhattan","00458","21","2034","1917","A","10012","40.723473","-73.999729","102","1","49","1007266","1004850021","SoHo-TriBeCa-Civic Center-Little Italy"
"2035-17-S","292-314","Kent Ave","Brooklyn","02414","1","2035","1917","S","11249","40.714616","-73.966839","301","33","551","3335796","3024140025","North Side-South Side"
"2039-17-S","330-3520","Kent ave","Brooklyn","02427","1","2039","1917","S","11249","40.713197","-73.967474","301","33","551","3000000","3024140027","North Side-South Side"
"2044-17-A","315","E 148th St","Bronx","NONE",,"2044","1917","A","10451","40.8163","-73.921517","201","17","65","2000907","2023300059","Melrose South-Mott Haven North"
"2047-17-S","5","31st St","Manhattan","00833","36,45","2047","1917","S",,,,,,,,,
"2047-17-S","314-","5th Ave","Manhattan","00833","45","2047","1917","S",,,,,,,,,
"2048-17-S","3-7","35th St","Manhattan","00837","36","2048","1917","S",,,,,,,,,
"2049-17-BZ","153","Victory Blvd","Staten Island","00023","5","2049","1917","BZ","10301","40.636956","-74.081213","501","49","11","5000377","5000230005","West New Brighton-New Brighton-St. George"
"2055-17-S","225-227","State St","Brooklyn","00169","1-3,36","2055","1917","S","11201","40.689893","-73.990632","302","33","9",,,"Brooklyn Heights-Cobble Hill"
"2060-17-A","(149-173) 155-157","Empire Blvd","Brooklyn","01307","1, 6","2060","1917","A",,,,,,,,,
"2070-17-A","1","West 17th St","Manhattan","00819","37","2070","1917","A","10011","40.738127","-73.992704","105","3","54","1015419","1008190037","Hudson Yards-Chelsea-Flatiron-Union Square"
"2070-17-A","118-120","5th Ave","Manhattan","00819","37","2070","1917","A","10011","40.737981","-73.992191","105","3","54","1015419","1008190037","Hudson Yards-Chelsea-Flatiron-Union Square"
"2091-17-S","77","White St","Manhattan","00172","10","2091","1917","S","10013","40.717621","-74.002247","101","1","31","1001867","1001727503","SoHo-TriBeCa-Civic Center-Little Italy"
"2114-17-S","461-463","Greenwich St","Manhattan","00225","1","2114","1917","S","10013","40.723673","-74.009481","101","1","39","1002929","1002257501","SoHo-TriBeCa-Civic Center-Little Italy"
"2129-17-S","2-20","Tudor City Pl","Manhattan","01333","18","2129","1917","S",,,,,,,,,
"2130-17-S","25-27","26th St","Manhattan","00828","17,18","2130","1917","S",,,,,,,,,
"2139-17-A","278-280","6th St","Brooklyn","00993","10","2139","1917","A","11215","40.671837","-73.986564","306","39","137","3420412","3009930006","Park Slope-Gowanus"
"2143-17-A","152-168","Hinsdale Ave","Brooklyn","03715","25-27","2143","1917","A",,,,,,,,,
"2155-17-A","13-21","Park Row","Manhattan","00090","4","2155","1917","A","10038","40.7115","-74.007716","101","1","1501","1001249","1000907501","Battery Park City-Lower Manhattan"
"2164-17-A","512-514","West 161st St","Manhattan","02119","30","2164","1917","A","10032","40.835624","-73.940867","112","7","245","1062836","1021190036","Washington Heights South"
"2165-17-A","310","East 63rd St","Manhattan","01437","49","2165","1917","A","10065","40.762903","-73.962042","108","5","110","1088169","1014370049","Lenox Hill-Roosevelt Island"
"2173-17-S",,"138th St & Walton Ave","Bronx","NONE",,"2173","1917","S",,,,,,,,,
"2174-17-S","315-317","47th St","Manhattan","01038","23","2174","1917","S",,,,,,,,,
"2187-17-S","29-33","East 19th St","Manhattan","00848","23","2187","1917","S","10003","40.738316","-73.98955","105","2","52","1016164","1008480023","Hudson Yards-Chelsea-Flatiron-Union Square"
"2196-17-A","59-63","Allen St","Manhattan","00307","24","2196","1917","A","10002","40.717104","-73.991458","103","1","16","1082491","1003070024","Chinatown"
"2201-17-S","290-304","Furman St","Brooklyn","00245","15","2201","1917","S","11201","40.695462","-73.998507","302","33","301",,,"Brooklyn Heights-Cobble Hill"
"2202-17-S","78","Reade St","Manhattan","00150","12","2202","1917","S","10007","40.715227","-74.00707","101","1","33","1001641","1001500012","SoHo-TriBeCa-Civic Center-Little Italy"
"2204-17-S","477-483","10th Ave","Manhattan","00708","35, 37","2204","1917","S","10018","40.756215","-73.997971","104","3","99","1012494","1007080037","Hudson Yards-Chelsea-Flatiron-Union Square"
"2207-17-S","125","West 45th St","Manhattan","00998","18","2207","1917","S","10036","40.757163","-73.983613","105","4","119","1022637","1009980018","Midtown-Midtown South"
"2220-17-S","630-634","5th Ave","Manhattan","01266","36,39","2220","1917","S","10020","40.758782","-73.977036","105","4","104","1083860","1012660001","Midtown-Midtown South"
"2227-17-A","1300-1306","6th Ave","Manhattan","01268","1,7,8,9","2227","1917","A","10019","40.761236","-73.979435","105","4","104","1081406","1012680001","Midtown-Midtown South"
"2231-17-A","203-213","51st St","Manhattan","01023","29","2231","1917","A",,,,,,,,,
"2232-17-A","272","William St","Manhattan","00119","26","2232","1917","A",,,,,,,,,
"2238-17-A","1300-1306","6th Ave","Manhattan","01268","1,7,8,9","2238","1917","A","10019","40.761236","-73.979435","105","4","104","1081406","1012680001","Midtown-Midtown South"
"2240-17-A","203-213","51st St","Manhattan","01023","29","2240","1917","A",,,,,,,,,
"2242-17-S","40","East 12 St","Manhattan","00563","26","2242","1917","S","10003","40.733675","-73.992228","102","2","61","1009131","1005630026","West Village"
"236-22-S",,,,,,"236","1922","S",,,,,,,,,
"2258-17-S","40","East 14th St","Manhattan","00625","7, 9","2258","1917","S","10003","40.735148","-73.991571","102","2","61","1009216","1005650011","West Village"
"2259-17-S","252-258","West 29th St","Manhattan","00778","70","2259","1917","S","10001","40.748472","-73.994395","105","3","95","1014271","1007780070","Midtown-Midtown South"
"2271-17-A","256-258","Mott St","Manhattan","00508","6","2271","1917","A","10012","40.723566","-73.994664","102","1","43","1007886","1005080006","SoHo-TriBeCa-Civic Center-Little Italy"
"2303-17-A","5511-5629","19th Ave","Brooklyn","05495","1","2303","1917","A","11204","40.623257","-73.982417","312","44","468",,,"Borough Park"
"2305-17-BZ","200-214","Madison Ave","Manhattan","00865","14","2305","1917","BZ","10016","40.748528","-73.982413","105","4","82","1017122","1008650014","Murray Hill-Kips Bay"
"2310-17-A","176-190","Harrison Ave","Brooklyn","02265","14,32,37-39","2310","1917","A","11206","40.701503","-73.948661","301","33","507","3335461","3022650014","Bedford"
"2310-17-A","176-190","Harrison Ave","Brooklyn","02265","14,32,37-39","2310","1917","A","11206","40.701503","-73.948661","301","33","507","3335461","3022650014","Bedford"
"2321-17-A","35-37","Emerson Pl","Brooklyn","01880","8","2321","1917","A","11205","40.696304","-73.962675","302","33","191",,,"Clinton Hill"
"2325-17-S","767","East 133rd St","Bronx","02562","56","2325","1917","S","10454","40.801196","-73.914144","201","17","19","2003738","2025620056","Mott Haven-Port Morris"
"2331-17-S","1199","Broadway Ave","Manhattan","00830","62","2331","1917","S","10001","40.745809","-73.988646","105","3","76","1015740","1008300062","Midtown-Midtown South"
"2322-17-A","595-597","Quincy St","Brooklyn","01625","73","2332","1917","A","11221","40.68875","-73.935178","303","36","291","3044290","3016250073","Stuyvesant Heights"
"2338-17-S","22","Bowery","Manhattan","00163","38","2338","1917","S","10013","40.714758","-73.99701","103","1","29","1001804","1001630038","Chinatown"
"2344-17-A","(old-51-55) 49-55","Lexington Ave","Manhattan","00880","66","2344","1917","A",,,,,,,,,
"2360-17-S","227","E 150th St","Bronx","NONE",,"2360","1917","S",,,,,,,,,
"2361-17-A","106-112","Spring St","Manhattan","00458","21","2361","1917","A","10012","40.723473","-73.999729","102","1","49","1007266","1004850021","SoHo-TriBeCa-Civic Center-Little Italy"
"2363-17-A","30-38","Prince St","Brooklyn","00122","9","2363","1917","A","11201","40.69685","-73.982326","302","33","15","3329431","3001220010","DUMBO-Vinegar Hill-Downtown Brooklyn-Boerum Hill"
"2371-17-S","(70-74) 74-76","Laight Ave","Brooklyn","00218","2, 1","2371","1917","S",,,,,,,,,
"2377-17-A","1081-1089","3rd Ave","Manhattan","01418","45","2377","1917","A","10065","40.764389","-73.9645","108","4","110","1043866","1014180045","Lenox Hill-Roosevelt Island"
"2378-17-A",,"165th St","Bronx","NONE",,"2378","1917","A",,,,,,,,,
"2400-17-A","513/519","Broadway","Manhattan","00484","15 & 16","2400","1917","A",,,,,,,,,
"2401-17-A","62","West 14 St","Manhattan","00577","8","2401","1917","A","10011","40.736796","-73.995515","102","3","63","1009706","1005777502","West Village"
"2405-17-A","(202-210) 204-206","East 77th St","Manhattan","01431","43","2405","1917","A",,,,,,,,,
"2420-17-S","36","West 17th St","Manhattan","00818","71","2420","1917","S","10011","40.738448","-73.993512","105","3","54","1015402","1008180071","Hudson Yards-Chelsea-Flatiron-Union Square"
"2426-17-S","335-","46th St","Manhattan","01339","17","2426","1917","S",,,,,,,,,
"2449-17-A","4350-4352","Broadway","Manhattan","02167","32","2449","1917","A","10033","40.853033","-73.934266","112","10","271","1076752","1021670029","Washington Heights North"
"2451-17-A","2404-2410","Mc Donald Ave","Brooklyn","07149","10,11,12","2451","1917","A","11223","40.593463","-73.973737","315","47","386","3193540","3071490013","Gravesend"
"2451-17-A","341-349","Troy Ave","Brooklyn","01407","1","2451","1917","A","11213","40.667037","-73.936839","309","35","353","3000000","3014070001","Crown Heights North"
"2053-17-S","343-347","Kingsland Ave","Brooklyn","02608","82","2453","1917","S","11222","40.728624","-73.942146","301","33","589",,,"Greenpoint"
"2466-17-A","4350-4352","Broadway","Manhattan","02167","32","2466","1917","A","10033","40.853033","-73.934266","112","10","271","1076752","1021670029","Washington Heights North"
"2476-17-S","1234-1236","6th Ave","Manhattan","01264","5","2476","1917","S","10020","40.759076","-73.981017","105","4","96","1077287","1012640005","Midtown-Midtown South"
"2480-17-S","184-186","William St","Manhattan","00103","3","2480","1917","S",,,,,,,,,
"2504-17-A","294","30ht St","Manhattan","00832","45","2504","1917","A",,,,,,,,,
"2522-17-S","244-246","E 52nd St","Manhattan","01325","32","2522","1917","S","10022","40.75663","-73.968814","106","4","98","1038477","1013250032","Turtle Bay-East Midtown"
"2538-17-S","287","Myrtle Ave","Brooklyn","02034-02038,2041-2043,2054,2057","135-137","2538","1917","S","11205","40.693418","-73.977109","302","35","2901","3345021","3020400001","Fort Greene"
"2538-17-S","287","Myrtle Ave","Brooklyn","00135-00137","2050-2053,2034-2038,2041-2043,2054-2057","2538","1917","S","11205","40.693418","-73.977109","302","35","2901","3345021","3020400001","Fort Greene"
"2538-17-S","287","Myrtle Ave","Brooklyn","02034-02038,2041-2043,2054,2057","135-137","2538","1917","S","11205","40.693418","-73.977109","302","35","2901","3345021","3020400001","Fort Greene"
"2549-17-A",,"165th St","Bronx","NONE",,"2549","1917","A",,,,,,,,,
"2559-17-S","381-387","2nd Ave","Manhattan","00903","27","2559","1917","S","10010","40.737327","-73.981326","106","2","64","1019731","1009037502","Gramercy"
"2578-17-S","772-778","Fulton St","Brooklyn","02007","44","2578","1917","S","11238","40.684779","-73.970643","302","35","179","3321980","3020070014","Fort Greene"
"2578-17-S","772-778","Fulton St","Brooklyn","02007","44","2578","1917","S","11238","40.684779","-73.970643","302","35","179","3321980","3020070014","Fort Greene"
"2579-17-S","10-40","Flatbush Ave","Brooklyn","00162","6","2579","1917","S",,,,,,,,,
"2581-17-S","536-540","Pearl St","Manhattan","00157","22","2581","1917","S",,,,,,,,,
"2584-17-S","643-655","Lexington Ave","Manhattan","01309","20,21,47-53","2584","1917","S","10022","40.759236","-73.97035","106","4","100","1036487","1013090050","Turtle Bay-East Midtown"
"2585B-17-S","50-52","North Henry St","Brooklyn","02828","1","2585","1917","S","11222","40.720716","-73.942737","301","34","477","3069738","3028280001","East Williamsburg"
"2585A-17-S","50-52","North Henry St","Brooklyn","02828","1","2585","1917","S","11222","40.720716","-73.942737","301","34","477","3069738","3028280001","East Williamsburg"
"2594-17-S","481 E","Tremont Ave","Bronx","03043","38","2594","1917","S","10457","40.846957","-73.897654","206","15","395","2011430","2030430038","Claremont-Bathgate"
"2602-17-S","83-93","Park Pl","Manhattan","00129","3,4,5,13,15","2602","1917","S",,,,,,,,,
"3509-17-S","40","East 14th St","Manhattan","00625","7, 9","3509","1917","S","10003","40.735148","-73.991571","102","2","61","1009216","1005650011","West Village"
"4689-17-A",,"167th St","Bronx","NONE",,"4689","1917","A",,,,,,,,,
"1105-17-A",,"West 170th Street","Bronx",,,"11015","1917","A",,,,,,,,,
"2000-17-BZ - 2003-17-BZ","393-399","Halsey St","Brooklyn","01659","65, 68","20002003","1917","BZ","11233","40.683319","-73.936787","303","36","275","3340625","3016590168","Stuyvesant Heights"
"1-18-38-A","201","West 72nd St","Manhattan","01164","26","1","1918","A","10023","40.778954","-73.982412","107","6","159","1077846","1011647501","Lincoln Square"
"2-18-S","20-26","Greene St","Manhattan","00230","17-19","2","1918","S","10013","40.721019","-74.002706","102","1","47","1002990","1002307503","SoHo-TriBeCa-Civic Center-Little Italy"
"2-18-38-A","201","West 72nd St","Manhattan","01164","26","2","1918","A","10023","40.778954","-73.982412","107","6","159","1077846","1011647501","Lincoln Square"
"64-18-S","199-201","Canal St","Manhattan","00205","2","6","1918","S","10013","40.717039","-73.998391","102","1","41","1002629","1002050002","SoHo-TriBeCa-Civic Center-Little Italy"
"11-18-S","17-19","West 17th St","Manhattan","00819","27","11","1918","S","10011","40.738283","-73.993072","105","3","54","1015415","1008190027","Hudson Yards-Chelsea-Flatiron-Union Square"
"11-18-S","17-19","West 17th St","Manhattan","00819","27","11","1918","S","10011","40.738283","-73.993072","105","3","54","1015415","1008190027","Hudson Yards-Chelsea-Flatiron-Union Square"
"13-86-18-S","8","Harrison St","Manhattan","00181","1","13","1918","S","10013","40.718716","-74.009488","101","1","39","1002066","1001817506","SoHo-TriBeCa-Civic Center-Little Italy"
"13-18-S","116-118","West 31st St","Manhattan","00806","52, 53","13","1918","S","10001","40.748208","-73.98992","105","3","101","1087523","1008060052","Midtown-Midtown South"
"16-18-S","5002-5012","7th Ave","Brooklyn","00793","31","16","1918","S","11220","40.642356","-74.006018","307","38","98","3393316","3007937503","Sunset Park East"
"20-18-S","188-190","3rd Ave","Brooklyn","00412","34,37,29,32","20","1918","S","11217","40.680395","-73.984053","306","33","127","3336093","3004120029","DUMBO-Vinegar Hill-Downtown Brooklyn-Boerum Hill"
"23-18-A","420","E 149th St","Bronx","NONE",,"23","1918","A","10455","40.815564","-73.91647","201","8","43","2000531","2022930039","Mott Haven-Port Morris"
"26-18-S","27","38th St","Manhattan","00840","26","26","1918","S",,,,,,,,,
"28-18-A","4","Francis Pl","Staten Island","00843","99","28","1918","A","10304","40.60088","-74.099722","502","50","177","5021822","5008430099","Todt Hill-Emerson Hill-Heartland Village-Lighthouse Hill"
"41-18-A","392","Broadway","Manhattan","00195","5","41","1918","A","10013","40.718392","-74.002724","101","1","31","1002321","1001950005","SoHo-TriBeCa-Civic Center-Little Italy"
"42-18-S","392","Broadway","Manhattan","00195","5","42","1918","S","10013","40.718392","-74.002724","101","1","31","1002321","1001950005","SoHo-TriBeCa-Civic Center-Little Italy"
"43-18-A","1181","Broadway Ave","Manhattan","00829","57","43","1918","A","10001","40.745125","-73.988769","105","3","58","1015698","1008290057","Hudson Yards-Chelsea-Flatiron-Union Square"
"44-18-A",,"East 238th St","Bronx","NONE",,"44","1918","A",,,,,,,,,
"50-18-S","30","Greenwich Ave","Manhattan","00606","10","50","1918","S","10011","40.735121","-74.000227","102","3","71","1078112","1006060009","West Village"
"53-18-S","30-32","East 21st St","Manhattan","00849","55","53","1918","S","10010","40.739606","-73.988987","105","2","52","1016220","1008490055","Hudson Yards-Chelsea-Flatiron-Union Square"
"54-18-S","65-81","Broad St","Manhattan","00029","70","54","1918","S","10004","40.704835","-74.011545","101","1","9","1000849","1000290070","Battery Park City-Lower Manhattan"
"58-18-S","821-823","Broadway","Manhattan","00564","22","58","1918","S","10003","40.733441","-73.991387","102","2","61","1009203","1005640022","West Village"
"62-18-S","708-710","East 136th St","Bronx","02564","34","62","1918","S","10454","40.803381","-73.913369","201","17","19",,,"Mott Haven-Port Morris"
"66-18-S","29-33","Maiden Lane","Manhattan","00067","23","66","1918","S","10038","40.708889","-74.00875","101","1","1502","1001109","1000670023","Battery Park City-Lower Manhattan"
"71-18-BZ","1275","Jerome Ave","Bronx","02855","45","71","1918","BZ","10452","40.837722","-73.919937","204","16","219","2128760","2028550045","Highbridge"
"71-18-A",,"East 169th St","Bronx","NONE",,"71","1918","A",,,,,,,,,
"73-18-S","533","Greenwich St","Manhattan","00597","37","73","1918","S","10013","40.726854","-74.00894","102","3","37","1010365","1005970037","SoHo-TriBeCa-Civic Center-Little Italy"
"77-18-S","533","Greenwich St","Manhattan","00597","37","77","1918","S","10013","40.726854","-74.00894","102","3","37","1010365","1005970037","SoHo-TriBeCa-Civic Center-Little Italy"
"80-18-S","323","Canal St","Manhattan","00230","6","80","1918","S","10013","40.720146","-74.002922","102","1","47","1002983","1002300006","SoHo-TriBeCa-Civic Center-Little Italy"
"83-18-S","214-222","West 26th St","Manhattan","00775","48","83","1918","S","10001","40.746298","-73.994976","104","3","91","1087325","1007750046","Hudson Yards-Chelsea-Flatiron-Union Square"
"87-18-BZ","2205-2211","Bedford Ave","Brooklyn","05104","6,8","87","1918","BZ","11226","40.650118","-73.9558","317","40","794",,,"Erasmus"
"88-18-A","542-50","Eldert St & Irving Ave","Brooklyn","03419","31, 37","88","1918","A",,,,,,,,,
"97-18-S","12-16","John St","Manhattan","00065","20","97","1918","S",,,,,,,,,
"98-18-A","12-16","John St","Manhattan","00065","20","98","1918","A",,,,,,,,,
"100-18-S","533-561","Prospect Pl","Brooklyn","01156","1, 21","100","1918","S","11238","40.675555","-73.958761","308","35","305","3395077","3011560080","Crown Heights North"
"106-18-S","382","Lafayette St","Manhattan","00531","11","106","1918","S","10003","40.727554","-73.993426","102","1","5502","1008508","1005317502","West Village"
"107-18-S","196-198","Chambers St","Manhattan","00138","34","107","1918","S","10007","40.71681","-74.012099","101","1","21",,,"SoHo-TriBeCa-Civic Center-Little Italy"
"108-18-S","53-55","5th Ave","Manhattan","570","1","108","1918","S","10003","40.734767","-73.994505","102","2","61","1009373","1005707501","West Village"
"111-18-S","160-164","Broadway","Manhattan","00064","15","111","1918","S","10038","40.709493","-74.01024","101","1","1502","1079040","1000640015","Battery Park City-Lower Manhattan"
"117-18-S","143","Chambers St","Manhattan","00140","3","117","1918","S","10007","40.715748","-74.009718","101","1","21","1001501","1001400003","SoHo-TriBeCa-Civic Center-Little Italy"
"117-18-A","289-293","22nd St","Brooklyn","00897","pt-41, 45","117","1918","A","11215","40.659813","-73.99237","307","38","145","3000000","3008970045","Sunset Park West"
"121-18-A","1655-1667","St Marks Ave","Brooklyn","01454","54, 58","121","1918","A","11233","40.673147","-73.912189","316","41","36501","3039123","3014540054","Ocean Hill"
"121-18-BZ","1653-1663","St Marks Ave","Brooklyn","01454","54, 58","121","1918","BZ","11233","40.67315","-73.912222","316","41","36501","3039124","3014540058","Ocean Hill"
"123-18-S","3-5","Waverly Pl","Manhattan","00548","68","123","1918","S",,,,,,,,,
"128-18-S","52-56","Garden St","Brooklyn","03137","86","128","1918","S","11206","40.700795","-73.937063","304","34","389","3000000","3031370086","Bushwick South"
"129-18-A","2165-2217","Tilden Ave","Brooklyn","05126","33,40,62","129","1918","A","11226","40.646592","-73.956667","314","40","794",,,"Erasmus"
"131-18-BZ","36-40","East 49th St","Manhattan","01084","50,152","131","1918","BZ","10017","40.757118","-73.975794","105","4","94","1035443","1012840052","Midtown-Midtown South"
"141-18-S","817-819","East 144th St","Bronx","NONE",,"141","1918","S","10454","40.808958","-73.906996","201","8","31",,,"Mott Haven-Port Morris"
"148-18-BZ","161-175","East 51st St","Manhattan","01306","30,33,41","148","1918","BZ","10022","40.756859","-73.971254","106","4","100","1036462","1013060033","Turtle Bay-East Midtown"
"148-18-BZ","161-175","51st St","Manhattan","01306","30,33,41","148","1918","BZ",,,,,,,,,
"151-18-S","336","East 142nd St","Bronx","NONE",,"151","1918","S",,,,,,,,,
"154-18-S","245","East 23rd St","Manhattan","00904","14,24,22","154","1918","S","10010","40.7384","-73.982102","106","2","64","1087220","1009049024","Gramercy"
"155-18-S","138-142","Prince St","Manhattan","00501","12 & 14","155","1918","S","10012","40.725586","-74.000538","102","1","49","1007711","1005010012","SoHo-TriBeCa-Civic Center-Little Italy"
"161-18-S","79-81","Chambers St","Manhattan","00149","3","161","1918","S","10007","40.714428","-74.00685","101","1","21","1001625","1001490003","SoHo-TriBeCa-Civic Center-Little Italy"
"164-18-S","146-150","West 63rd St","Manhattan","01134","58","164","1918","S",,,,,,,,,
"165-18-S","2-50","Taffe Pl","Brooklyn","01881","39","165","1918","S",,,,,,,,,
"165-18-A","24-30","Taffe Pl","Brooklyn","01881","35","165","1918","A",,,,,,,,,
"166-18-S","2-50","Taffe Pl","Brooklyn","01881","39","166","1918","S",,,,,,,,,
"166-18-S","24-30","Taffe Pl","Brooklyn","01881","35","166","1918","S",,,,,,,,,
"167-18-A","24-30","Taffe Pl","Brooklyn","01881","35","167","1918","A",,,,,,,,,
