"station_name","agency","no_of_ports","number","street","city","state","postcode","borough","latitude","longitude","community_district","council_district","census_tract","bin","bbl","nta"
"DOC_MOBI_1","DOC","1",,"Hazen St","Riker's Island","New York","10474",,,,,,,,,
"DOH 56 DRIVE NISSAN","DOH","1","56-17","56th Dr.","Maspeth","New York","11378","QUEENS","40.72441","-73.914492","402","30","219","4058946","4025850002","QN31"
"DOH BEDFORD NISSAN 1","DOH","1","485","Throop Ave.","Brooklyn","New York","11221","BROOKLYN","40.685654","-73.941462","303","36","277","3051782","3018260001","BK35"
"DOH BEDFORD NISSAN 2","DOH","1","485","Throop Ave.","Brooklyn","New York","11221","BROOKLYN","40.685654","-73.941462","303","36","277","3051782","3018260001","BK35"
"DOH BELLEVUE NISSAN 1","DOH","1","455","1st Ave.","New York","New York","10016","MANHATTAN","40.739162","-73.976894","106","2","66","1020610","1009320017","MN20"
"DOH BELLEVUE NISSAN 2","DOH","1","455","1st Ave.","New York","New York","10016","MANHATTAN","40.739162","-73.976894","106","2","66","1020610","1009320017","MN20"
"DOT LOT 190 ST 1","DOT","1","2478","Jerome Ave","Bronx","New York","10468","BRONX","40.863249","-73.90068","207","14","401","2014125","2031890009","BX05"
"DOT LOT 190 ST 2","DOT","1","2478","Jerome Ave","Bronx","New York","10468","BRONX","40.863249","-73.90068","207","14","401","2014125","2031890009","BX05"
"DOT LOT 190 ST 3","DOT","1","2478","Jerome Ave","Bronx","New York","10468","BRONX","40.863249","-73.90068","207","14","401","2014125","2031890009","BX05"
"DOT LOT 190 ST 4","DOT","1","2478","Jerome Ave","Bronx","New York","10468","BRONX","40.863249","-73.90068","207","14","401","2014125","2031890009","BX05"
"DOT LOT 190 ST 5","DOT","1","2478","Jerome Ave","Bronx","New York","10468","BRONX","40.863249","-73.90068","207","14","401","2014125","2031890009","BX05"
"DOT LOT 3510 JEROME AVE 1","DOT","1","3510","Jerome Ave","Bronx","New York","10467","BRONX","40.88316","-73.880887","207","11","431","2017791","2033280010","BX43"
"DOT LOT 3510 JEROME AVE 2","DOT","1","3510","Jerome Ave","Bronx","New York","10467","BRONX","40.88316","-73.880887","207","11","431","2017791","2033280010","BX43"
"DOT LOT 3510 JEROME AVE 3","DOT","1","3510","Jerome Ave","Bronx","New York","10467","BRONX","40.88316","-73.880887","207","11","431","2017791","2033280010","BX43"
"DOT LOT BAY RIDGE 1","DOT","1","8501","Fifth Avenue","Brooklyn","New York","11209","BROOKLYN","40.622039","-74.025734","310","43","142","3153196","3060360001","BK31"
"DOT LOT BAY RIDGE 2","DOT","1","8501","Fifth Avenue","Brooklyn","New York","11209","BROOKLYN","40.622039","-74.025734","310","43","142","3153196","3060360001","BK31"
"DOT LOT BAY RIDGE 3","DOT","1","8501","Fifth Avenue","Brooklyn","New York","11209","BROOKLYN","40.622039","-74.025734","310","43","142","3153196","3060360001","BK31"
"DOT LOT BAY RIDGE 4","DOT","1","8501","Fifth Avenue","Brooklyn","New York","11209","BROOKLYN","40.622039","-74.025734","310","43","142","3153196","3060360001","BK31"
"DOT LOT BAY RIDGE 5","DOT","1","8501","Fifth Avenue","Brooklyn","New York","11209","BROOKLYN","40.622039","-74.025734","310","43","142","3153196","3060360001","BK31"
"DOT LOT COURT SQ 1","DOT","1","45-40","Court Square","Queens","New York","11101","QUEENS","40.745815","-73.943549","402","26","19","4000699","4000830018","QN31"
"DOT LOT COURT SQ 2","DOT","1","45-40","Court Square","Queens","New York","11101","QUEENS","40.745815","-73.943549","402","26","19","4000699","4000830018","QN31"
"DOT LOT COURT SQ 3","DOT","1","45-40","Court Square","Queens","New York","11101","QUEENS","40.745815","-73.943549","402","26","19","4000699","4000830018","QN31"
"DOT LOT COURT SQ 4","DOT","1","45-40","Court Square","Queens","New York","11101","QUEENS","40.745815","-73.943549","402","26","19","4000699","4000830018","QN31"
"DOT LOT COURT SQ 5","DOT","1","45-40","Court Square","Queens","New York","11101","QUEENS","40.745815","-73.943549","402","26","19","4000699","4000830018","QN31"
"DOT LOT COURT SQ 6","DOT","1","45-40","Court Square","Queens","New York","11101","QUEENS","40.745815","-73.943549","402","26","19","4000699","4000830018","QN31"
"DOT LOT COURT SQ 7","DOT","1","45-40","Court Square","Queens","New York","11101","QUEENS","40.745815","-73.943549","402","26","19","4000699","4000830018","QN31"
"DOT LOT COURT SQ 8","DOT","1","45-40","Court Square","Queens","New York","11101","QUEENS","40.745815","-73.943549","402","26","19","4000699","4000830018","QN31"
"DOT LOT ESSEX ST 1","DOT","1","105-113","Essex Street","New York","New York","10002","MANHATTAN","40.719086","-73.98794","103","1","18","1005326","1004100038","MN27"
"DOT LOT ESSEX ST 2","DOT","1","105-113","Essex Street","New York","New York","10002","MANHATTAN","40.719086","-73.98794","103","1","18","1005326","1004100038","MN27"
"DOT LOT ESSEX ST 3","DOT","1","105-113","Essex Street","New York","New York","10002","MANHATTAN","40.719086","-73.98794","103","1","18","1005326","1004100038","MN27"
"DOT LOT ESSEX ST 4","DOT","1","105-113","Essex Street","New York","New York","10002","MANHATTAN","40.719086","-73.98794","103","1","18","1005326","1004100038","MN27"
"DOT LOT ESSEX ST 5","DOT","1","105-113","Essex Street","New York","New York","10002","MANHATTAN","40.719086","-73.98794","103","1","18","1005326","1004100038","MN27"
"DOT LOT QUEENS BORO HALL 1","DOT","1","80-25","126th Street","Queens","New York","11415","QUEENS","40.714856","-73.82705","409","29","216","4206524","4096570001","QN60"
"DOT LOT QUEENS BORO HALL 2","DOT","1","80-25","126th Street","Queens","New York","11415","QUEENS","40.714856","-73.82705","409","29","216","4206524","4096570001","QN60"
"DOT LOT QUEENS BORO HALL 3","DOT","1","80-25","126th Street","Queens","New York","11415","QUEENS","40.714856","-73.82705","409","29","216","4206524","4096570001","QN60"
"DOT LOT QUEENS BORO HALL 4","DOT","1","80-25","126th Street","Queens","New York","11415","QUEENS","40.714856","-73.82705","409","29","216","4206524","4096570001","QN60"
"DOT LOT QUEENS FAMILY COURT 1","DOT","1","150-07","Archer Avenue","Queens","New York","11432","QUEENS","40.701386","-73.80374","412","27","240","4215602","4100920001","QN61"
"DOT LOT QUEENS FAMILY COURT 2","DOT","1","150-07","Archer Avenue","Queens","New York","11432","QUEENS","40.701386","-73.80374","412","27","240","4215602","4100920001","QN61"
"DOT LOT QUEENS FAMILY COURT 3","DOT","1","150-07","Archer Avenue","Queens","New York","11432","QUEENS","40.701386","-73.80374","412","27","240","4215602","4100920001","QN61"
"DOT LOT ST GEORGE 1","DOT","1","54","Central Avenue","Staten Island","New York","10301","STATEN IS","40.640566","-74.076713","501","49","3","5151736","5000060021","SI22"
"DOT LOT ST GEORGE 2","DOT","1","54","Central Avenue","Staten Island","New York","10301","STATEN IS","40.640566","-74.076713","501","49","3","5151736","5000060021","SI22"
"DOT LOT ST GEORGE 3","DOT","1","54","Central Avenue","Staten Island","New York","10301","STATEN IS","40.640566","-74.076713","501","49","3","5151736","5000060021","SI22"
"DOT LOT ST GEORGE 4","DOT","1","54","Central Avenue","Staten Island","New York","10301","STATEN IS","40.640566","-74.076713","501","49","3","5151736","5000060021","SI22"
"DOT LOT ST GEORGE 5","DOT","1","54","Central Avenue","Staten Island","New York","10301","STATEN IS","40.640566","-74.076713","501","49","3","5151736","5000060021","SI22"
"NYC FLEET / ACSLINDENBLVDBK","ACS","1","2554","Linden Blvd","Brooklyn","New York","11208","BROOKLYN","40.668034","-73.869949","305","42","1220","3098733","3044840013","BK82"
"NYC FLEET / ACSSTMARKSPL1","ACS","1","350","St Marks Pl","Staten Island","New York","10301","STATEN IS","40.640708","-74.077697","501","49","3","5000185","5000160054","SI22"
"NYC FLEET / CITYHALL EAST","CITYHALL","2",,"New York City Hall","New York","New York","10007","MANHATTAN","40.712806","-74.006096","101","1","31","1079147","1001220001","MN24"
"NYC FLEET / CITYHALL WEST","CITYHALL","2",,"New York City Hall","New York","New York","10007","MANHATTAN","40.712806","-74.006096","101","1","31","1079147","1001220001","MN24"
"NYC FLEET / DCAS_1CENTRDCFC","DCAS","1","1","Centre St","New York","New York","10007","MANHATTAN","40.713001","-74.004181","101","1","29","1001394","1001210001","MN27"
"NYC FLEET / DCAS_1CENTRE SL","DCAS","1","1","Centre St","New York","New York","10007","MANHATTAN","40.713001","-74.004181","101","1","29","1001394","1001210001","MN27"
"NYC FLEET / DCAS_1CENTRE_L3","DCAS","1","1","Centre St","New York","New York","10007","MANHATTAN","40.713001","-74.004181","101","1","29","1001394","1001210001","MN27"
"NYC FLEET / DCAS_KENTAVE1","DCAS","1","390","Kent Ave","Brooklyn","New York","11249","BROOKLYN","40.711246","-73.968348","301","33","549","3063635","3024670001","BK73"
"NYC FLEET / DCAS_KENTAVE2","DCAS","1","390","Kent Ave","Brooklyn","New York","11249","BROOKLYN","40.711246","-73.968348","301","33","549","3063635","3024670001","BK73"
"NYC FLEET / DCAS_KENTAVE3","DCAS","1","390","Kent Ave","Brooklyn","New York","11249","BROOKLYN","40.711246","-73.968348","301","33","549","3063635","3024670001","BK73"
"NYC FLEET / DCAS100GLD_1_L3","DCAS","1","100","Gold St","New York","New York","10038","MANHATTAN","40.710353","-74.004007","101","1","1501","1001289","1000940025","MN25"
"NYC FLEET / DCAS100GLD_2_L3","DCAS","1","100","Gold St","New York","New York","10038","MANHATTAN","40.710353","-74.004007","101","1","1501","1001289","1000940025","MN25"
"NYC FLEET / DCAS100GOLD","DCAS","1","100","Gold St","New York","New York","10038","MANHATTAN","40.710353","-74.004007","101","1","1501","1001289","1000940025","MN25"
"NYC FLEET / DCASCSTHSE_1_L3","DCAS","1","6626","Metropolitan Ave","Middle Village","New York","11379","QUEENS","40.712372","-73.892028","405","30","61301","4443103","4036050001","QN20"
"NYC FLEET / DCASCSTHSE_2_L3","DCAS","1","6626","Metropolitan Ave","Middle Village","New York","11379","QUEENS","40.712372","-73.892028","405","30","61301","4443103","4036050001","QN20"
"NYC FLEET / DCASNAVYYARD01","DCAS","1","2","Navy St","Brooklyn","New York","11201","BROOKLYN","40.70061","-73.98042","302","35","23","0","0","BK38"
"NYC FLEET / DCASNAVYYARD02","DCAS","1","2","Navy St","Brooklyn","New York","11201","BROOKLYN","40.70061","-73.98042","302","35","23","0","0","BK38"
"NYC FLEET / DCASNAVYYARD03","DCAS","1","2","Navy St","Brooklyn","New York","11201","BROOKLYN","40.70061","-73.98042","302","35","23","0","0","BK38"
"NYC FLEET / DDC_LIC-2","DDC","2","30-30","Thomson Ave","LIC","New York","11101","QUEENS","40.745042","-73.936191","402","26","179","4003533","4002770001","QN31"
"NYC FLEET / DDC_LIC-3","DDC","1","2","31st St","LIC","New York","11101",,,,,,,,,
"NYC FLEET / DDC_LICARC-1","DDC","1","30-20","Thomson Ave","LIC","New York","11101","QUEENS","40.745095","-73.936635","402","26","179","4003517","4002740001","QN31"
"NYC FLEET / DDC_LICARC-2","DDC","1","30-20","Thomson Ave","Long Island City","New York","11101","QUEENS","40.745095","-73.936635","402","26","179","4003517","4002740001","QN31"
"NYC FLEET / DEP_ CONEY ISLA","DEP","2","2501","Knapp St","Brooklyn","New York","11235","BROOKLYN","40.592214","-73.932546","315","48","628","3414032","3088350001","BK17"
"NYC FLEET / DEP_26WARD# 1","DEP","2","12266","Flatlands Ave","Brooklyn","New York","11207","BROOKLYN","40.654817","-73.881479","305","42","1070","3000000","3044400001","BK82"
"NYC FLEET / DEP_26WARD# 2","DEP","2","12266","Flatlands Ave","New York","New York","11207","BROOKLYN","40.654817","-73.881479","305","42","1070","3000000","3044400001","BK82"
"NYC FLEET / DEP_3701JEROME1","DEP","1","3701","Jerome Ave","New York","New York","10467","BRONX","40.887018","-73.878095","226","11","435","2112995","2059000001","BX99"
"NYC FLEET / DEP_3701JEROME2","DEP","2","3701","Jerome Ave","Bronx","New York","10467","BRONX","40.887018","-73.878095","226","11","435","2112995","2059000001","BX99"
"NYC FLEET / DEP_930ZEREGA_1","DEP","2","930","Zerega Ave","East Bronx","New York","10473","BRONX","40.827104","-73.843596","209","18","90","2000000","2037060001","BX09"
"NYC FLEET / DEP_ASTORIA #1","DEP","2","43-1","Berrian Blvd","Queens","New York","11105","QUEENS","40.778421","-73.894593","401","22","10701","4442400","4007760150","QN72"
"NYC FLEET / DEP_ASTORIA#2","DEP","2","43-1","Berrian Blvd","Queens","New York","11105","QUEENS","40.778421","-73.894593","401","22","10701","4442400","4007760150","QN72"
"NYC FLEET / DEP_CATDELUVB#1","DEP","1","2","Walker Rd","Valhalla","New York","10595",,,,,,,,,
"NYC FLEET / DEP_CLOVEPUMP","DEP","2","1270","Victory Blvd","Staten Island","New York","10301","STATEN IS","40.615436","-74.105751","501","49","16901","5112448","5006690001","SI07"
"NYC FLEET / DEP_CROTONFP-BX","DEP","2","3701","Jerome Ave","BRONX","New York","10467","BRONX","40.887018","-73.878095","226","11","435","2112995","2059000001","BX99"
"NYC FLEET / DEP_CROTONFP-S1","DEP","1","3701","Jerome Ave","Bronx","New York","10467","BRONX","40.887018","-73.878095","226","11","435","2112995","2059000001","BX99"
"NYC FLEET / DEP_CRSSRIVER-1","DEP","2","241","Cross River Rd","Katonah","New York","10536",,,,,,,,,
"NYC FLEET / DEP_CRSSRIVER-2","DEP","2","241","Cross River Rd","Katonah","New York","10536",,,,,,,,,
"NYC FLEET / DEP_FMC","DEP","1","58-30","Grand Ave","Maspeth","New York","11378","QUEENS","40.719651","-73.91119","405","30","525","4059931","4026810001","QN30"
"NYC FLEET / DEP_GRAHAMSVLLE","DEP","2","7870","NY-42","Grahamsville","New York","12740",,,,,,,,,
"NYC FLEET / DEP_HILLVW-S1","DEP","1","412-494","Central Park Ave","Yonkers","New York","10704",,,,,,,,,
"NYC FLEET / DEP_HILLVW-S2","DEP","1","492","Central Park Ave","Yonkers","New York","10704",,,,,,,,,
"NYC FLEET / DEP_HILLVW1A-B","DEP","2","123","Hillview Ave","Yonkers","New York","10704",,,,,,,,,
"NYC FLEET / DEP_JAMAICAPLNT","DEP","1","150-20","134th St","Jamaica","New York","11420","QUEENS","40.663386","-73.806631","410","28","716","4459547","4119000002","QN98"
"NYC FLEET / DEP_KINGSTON-1","DEP","2","91","Smith Ave","Kingston","New York","12401",,,,,,,,,
"NYC FLEET / DEP_KINGSTON-2","DEP","2","91","Smith Ave","Kingston","New York","12401",,,,,,,,,
"NYC FLEET / DEP_KINGSTON-3","DEP","2","91","Smith Ave","Kingston","New York","12401",,,,,,,,,
"NYC FLEET / DEP_KINGSTONDPS","DEP","2","134","Flatbush Ave","Kingston","New York","12401",,,,,,,,,
"NYC FLEET / DEP_LFRK_66+67","DEP","2","59-17","Junction Blvd","Flushing","New York","11373","QUEENS","40.734606","-73.864774","404","21","455","4047310","4019180001","QN25"
"NYC FLEET / DEP_LFRK_68+69","DEP","2","59-17","Junction Blvd","Flushing","New York","11373","QUEENS","40.734606","-73.864774","404","21","455","4047310","4019180001","QN25"
"NYC FLEET / DEP_LFRK_70+71","DEP","2","59-17","Junction Blvd","Flushing","New York","11373","QUEENS","40.734606","-73.864774","404","21","455","4047310","4019180001","QN25"
"NYC FLEET / DEP_LFRK_72+73","DEP","2","59-17","Junction Blvd","Flushing","New York","11373","QUEENS","40.734606","-73.864774","404","21","455","4047310","4019180001","QN25"
"NYC FLEET / DEP_LFRK_74+75","DEP","2","59-17","Junction Blvd","Flushing","New York","11373","QUEENS","40.734606","-73.864774","404","21","455","4047310","4019180001","QN25"
"NYC FLEET / DEP_LFRK_76+77","DEP","2","59-17","Junction Blvd","Flushing","New York","11373","QUEENS","40.734606","-73.864774","404","21","455","4047310","4019180001","QN25"
"NYC FLEET / DEP_LFRK_78+79","DEP","2","59-17","Junction Blvd","Flushing","New York","11373","QUEENS","40.734606","-73.864774","404","21","455","4047310","4019180001","QN25"
"NYC FLEET / DEP_LFRK_80+81","DEP","2","59-17","Junction Blvd","Corona","New York","11373","QUEENS","40.734606","-73.864774","404","21","455","4047310","4019180001","QN25"
"NYC FLEET / DEP_LFRK_82+83","DEP","2","59-17","Junction Blvd","Corona","New York","11373","QUEENS","40.734606","-73.864774","404","21","455","4047310","4019180001","QN25"
"NYC FLEET / DEP_LFRK101+102","DEP","2","96-08","57th Ave","Corona","New York","11368","QUEENS","40.73698","-73.864625","404","21","455","4047316","4019180055","QN25"
"NYC FLEET / DEP_LFRK103+104","DEP","2","96-08","57th Ave","Corona","New York","11368","QUEENS","40.73698","-73.864625","404","21","455","4047316","4019180055","QN25"
"NYC FLEET / DEP_LFRK105+106","DEP","2","96-08","57th Ave","Corona","New York","11368","QUEENS","40.73698","-73.864625","404","21","455","4047316","4019180055","QN25"
"NYC FLEET / DEP_LFRK107+108","DEP","2","96-08","57th Ave","Corona","New York","11368","QUEENS","40.73698","-73.864625","404","21","455","4047316","4019180055","QN25"
"NYC FLEET / DEP_LFRK109+110","DEP","2","59-17","Junction Blvd","Corona","New York","11373","QUEENS","40.734606","-73.864774","404","21","455","4047310","4019180001","QN25"
"NYC FLEET / DEP_LFRK111+112","DEP","2","96-08","57th Ave","Corona","New York","11368","QUEENS","40.73698","-73.864625","404","21","455","4047316","4019180055","QN25"
"NYC FLEET / DEP_LFRK113+114","DEP","2","58-17","Junction Blvd","Flushing","New York","11373","QUEENS","40.735229","-73.865098","404","21","455","4047312","4019180025","QN25"
"NYC FLEET / DEP_LFRK115+116","DEP","2","58-17","Junction Blvd","Flushing","New York","11373","QUEENS","40.735229","-73.865098","404","21","455","4047312","4019180025","QN25"
"NYC FLEET / DEP_LFRK117+118","DEP","2","58-17","Junction Blvd","Flushing","New York","11373","QUEENS","40.735229","-73.865098","404","21","455","4047312","4019180025","QN25"
"NYC FLEET / DEP_NCVC1","DEP","1","329","Greenpoint Ave","Brooklyn","New York","11222","BROOKLYN","40.731483","-73.946271","301","33","579","3332517","3025250001","BK76"
"NYC FLEET / DEP_NCVC2","DEP","1","329","Greenpoint Ave","Brooklyn","New York","11222","BROOKLYN","40.731483","-73.946271","301","33","579","3332517","3025250001","BK76"
"NYC FLEET / DEP_NEWTOWN CRE","DEP","2","329","Greenpoint Ave","Brooklyn","New York","11222","BROOKLYN","40.731483","-73.946271","301","33","579","3332517","3025250001","BK76"
"NYC FLEET / DEP_NEWTOWNC-S1","DEP","1","267","Greenpoint Ave","Greenpoint","New York","11222","BROOKLYN","40.730718","-73.948891","301","33","579","3398219","3025250001","BK76"
"NYC FLEET / DEP_NEWTOWNC-S2","DEP","1","267","Greenpoint Ave","Greenpoint","New York","11222","BROOKLYN","40.730718","-73.948891","301","33","579","3398219","3025250001","BK76"
"NYC FLEET / DEP_OAKWOOD BEA","DEP","2","751","Mill Road","Staten Island","New York","10306","STATEN IS","40.553533","-74.117165","503","50","12805","5135536","5050670500","SI25"
"NYC FLEET / DEP_OWLS HE","DEP","2","6700","Shore Rd","Brooklyn","New York","11220","BROOKLYN","40.6418","-74.034055","310","43","34","3391506","3058350001","BK31"
"NYC FLEET / DEP_PORT RICHMO","DEP","2","1759-1839","Richmond Terrace","Staten Island","New York","10310","STATEN IS","40.637411","-74.124854","501","49","13302","0","0","SI22"
"NYC FLEET / DEP_PORTJERVIS","DEP","2","43","N Maple Ave","Port Jervis","New York","12771",,,,,,,,,
"NYC FLEET / DEP_QNS180ST-S1","DEP","1","106-36","180th St","Jamaica","New York","11433","QUEENS","40.703128","-73.77772","412","27","414","4459328","4103350032","QN01"
"NYC FLEET / DEP_QNSREPAIR01","DEP","2","106-36","180th St","Jamaica","New York","11433","QUEENS","40.703128","-73.77772","412","27","414","4459328","4103350032","QN01"
"NYC FLEET / DEP_QNSREPAIR02","DEP","2","106-36","180th St","Jamaica","New York","11433","QUEENS","40.703128","-73.77772","412","27","414","4459328","4103350032","QN01"
"NYC FLEET / DEP_QNSREPAIR03","DEP","2","106-36","180th St","Jamaica","New York","11433","QUEENS","40.703128","-73.77772","412","27","414","4459328","4103350032","QN01"
"NYC FLEET / DEP_QNSREPAIR04","DEP","2","106-36","180th St","Jamaica","New York","11433","QUEENS","40.703128","-73.77772","412","27","414","4459328","4103350032","QN01"
"NYC FLEET / DEP_RED HOOK","DEP","2","63","Flushing Ave","Brooklyn","New York","11205","BROOKLYN","40.69802","-73.974986","302","33","543","3335129","3020230001","BK99"
"NYC FLEET / DEP_ROCKAWAY106","DEP","2","May-36","Beach Channel Dr","Queens","New York","11694",,,,,,,,,
"NYC FLEET / DEP_TALLMAN ISL","DEP","2","127-1","Powell's Cove Blvd","Queens","New York","11356",,,,,,,,,
"NYC FLEET / DEP_W135ST#1","DEP","2","725","W 135th St","New York","New York","10031","MANHATTAN","40.821384","-73.9581","109","7","22301","1084789","1021010117","MN06"
"NYC FLEET / DEP_W135ST#2","DEP","2","725","W 135th St","New York","New York","10031","MANHATTAN","40.821384","-73.9581","109","7","22301","1084789","1021010117","MN06"
"NYC FLEET / DEP_WARDMRNE-1","DEP","1","148","6 Dr","New York","New York","10035","MANHATTAN","40.788995","-73.920003","111","8","240","1088060","1018190015","MN99"
"NYC FLEET / DEP_WARDNEWADMN","DEP","2","104","B Rd","New York","New York","10035","MANHATTAN","40.787146","-73.925083","111","8","240","1088039","1018190015","MN99"
"NYC FLEET / DEP_WARDS ISLAN","DEP","2",,"Hell Gate Cir","New York","New York","10035",,,,,,,,,
"NYC FLEET / DEP_WARDS_1_L3","DEP","1","104","B Rd","New York","New York","10035","MANHATTAN","40.787146","-73.925083","111","8","240","1088039","1018190015","MN99"
"NYC FLEET / DEP_WARDS-ARC","DEP","1","111","3rd Dr","New York","New York","10035","MANHATTAN","40.787573","-73.924403","111","8","240","1088032","1018190015","MN99"
"NYC FLEET / DEP_WARDSADMN-1","DEP","1","106","2nd Dr","New York","New York","10035","MANHATTAN","40.788715","-73.924539","111","8","240","1088029","1018190015","MN99"
"NYC FLEET / DEP_WARDSTLR-1","DEP","1","143","A Rd","New York","New York","10035","MANHATTAN","40.785113","-73.923366","111","8","240","1088038","1018190015","MN99"
"NYC FLEET / DEP_WARDTRLR116","DEP","2","116","4th Dr","New York","New York","10035","MANHATTAN","40.791082","-73.921051","111","8","240","1088022","1018190030","MN99"
"NYC FLEET / DEP_WS_JEROME","DEP","2","3327-3549","Jerome Ave","West Bronx","New York","10468","BRONX","40.879557","-73.884897","207","11","421","0","0","BX43"
"NYC FLEET / DEP_WS465COLU1","DEP","2","465","Columbus Ave","Valhalla","New York","10595",,,,,,,,,
"NYC FLEET / DEP_WS465COLU2","DEP","2","465","Columbus Ave","Valhalla","New York","10595",,,,,,,,,
"NYC FLEET / DEP_WT_HP_ADMIN","DEP","2","1260","Ryawa Ave","Bronx","New York","10474","BRONX","40.804742","-73.885322","202","17","93","2118134","2027800002","BX27"
"NYC FLEET / DEP_WT_HP_CONST","DEP","2","1260","Ryawa Ave","Bronx","New York","10474","BRONX","40.804742","-73.885322","202","17","93","2118134","2027800002","BX27"
"NYC FLEET / DEP_WT_PAEDERGA","DEP","2","1887","Ralph Ave","Brooklyn","New York","11234","BROOKLYN","40.631239","-73.918502","318","46","69601","3398349","3083380001","BK45"
"NYC FLEET / DEP_WTNEWTOWN-1","DEP","1","289-369","Greenpoint Ave","Brooklyn","New York","11222","BROOKLYN","40.730973","-73.947675","301","33","579","0","0","BK76"
"NYC FLEET / DEPGRAHAMWWTP02","DEP","2","7866","NY-42","Grahamsville","New York","12740",,,,,,,,,
"NYC FLEET / DEPNEWTOWNCRK01","DEP","2","319","Greenpoint Ave","Greenpoint","New York","11222","BROOKLYN","40.731272","-73.946848","301","33","579","3397231","3025250001","BK76"
"NYC FLEET / DEPNEWTOWNCRK02","DEP","2","319","Greenpoint Ave","Greenpoint","New York","11222","BROOKLYN","40.731272","-73.946848","301","33","579","3397231","3025250001","BK76"
"NYC FLEET / DEPNEWTOWNCRK03","DEP","2","319","Greenpoint Ave","Greenpoint","New York","11222","BROOKLYN","40.731272","-73.946848","301","33","579","3397231","3025250001","BK76"
"NYC FLEET / DEPNORTHRIVER01","DEP","1","750","W 145th St","New York","New York","10031","MANHATTAN","40.82708","-73.954645","109","7","225","1086244","1021010100","MN04"
"NYC FLEET / DEPNTWNCRK_1_L3","DEP","1","327","Greenpoint Ave","Greenpoint","New York","11222","BROOKLYN","40.731351","-73.946628","301","33","579","3336623","3025250001","BK76"
"NYC FLEET / DHS_COMM#27","DHS","1","64","Sunken Garden Loop","New York","New York","10035","MANHATTAN","40.785494","-73.931397","111","8","240","1085877","1018190010","MN99"
"NYC FLEET / DOC_ HAZEN ST","DOC","1","15-0","Hazen St","New York","New York","11370","QUEENS","40.790985","-73.884396","401","22","1","2116652","2026050040","BX98"
"NYC FLEET / DOC_DIVISION-1","DOC","2","30","N Perimeter Rd","Bronx","New York","11320",,,,,,,,,
"NYC FLEET / DOC_DIVISION-2","DOC","2",,"Hillside Ave","Bronx","New York","10474",,,,,,,,,
"NYC FLEET / DOC_ENVHEALTH","DOC","2",,"Hillside Ave","Bronx","New York","10474",,,,,,,,,
"NYC FLEET / DOC_ETAYLOR-S","DOC","1",,"Rikers Is Br Appr","Flushing","New York","11371",,,,,,,,,
"NYC FLEET / DOC_FFF-CPT","DOC","2","120","Construction Way","Rikers Island","New York","11105",,,,,,,,,
"NYC FLEET / DOC_FLEETMT1A-B","DOC","2","17-17","Hazen St.","Rikers Island","New York","11370","QUEENS","40.789275","-73.884406","401","22","1","0","0","BX98"
"NYC FLEET / DOC_FLEETMT2A-B","DOC","2","17-17","Hazen Street","Rikers Island","New York","11370","QUEENS","40.789275","-73.884406","401","22","1","0","0","BX98"
"NYC FLEET / DOC_FLEETUNIT-1","DOC","2","17-17","Hazen St","Bronx","New York","11474","QUEENS","40.789275","-73.884406","401","22","1","0","0","BX98"
"NYC FLEET / DOC_FMRD-WH","DOC","2",,"Hazen St","Riker's Island","New York","10474",,,,,,,,,
"NYC FLEET / DOC_HAZENDCFC","DOC","1",,"Hazen St","Riker's Island","New York","10474",,,,,,,,,
"NYC FLEET / DOC_HAZENLOT-S1","DOC","1",,"Hazen St","Rikers Island","New York","10474",,,,,,,,,
"NYC FLEET / DOC_HAZENLOT-S2","DOC","1",,"Hazen St","Rikers Island","New York","10474",,,,,,,,,
"NYC FLEET / DOC_HAZENLOT-S3","DOC","1",,"Hazen St","Rikers Island","New York","10474",,,,,,,,,
"NYC FLEET / DOC_HAZENLT1A-B","DOC","2",,"Hazen St","Riker's Island","New York","10474",,,,,,,,,
"NYC FLEET / DOC_HAZENLT2A-B","DOC","2",,"Hazen St","Riker's Island","New York","10474",,,,,,,,,
"NYC FLEET / DOC_PREA-1","DOC","2",,"Unnamed Road","Bronx","New York","11371",,,,,,,,,
"NYC FLEET / DOC_PREA-2","DOC","2",,"Unnamed Road","Bronx","New York","11371",,,,,,,,,
"NYC FLEET / DOC_QNSCOURT","DOC","2","125-01","82nd Ave","Kew Gardens","New York","11415","QUEENS","40.710886","-73.831699","409","29","775","4079703","4033370047","QN60"
"NYC FLEET / DOC_RI-EOC","DOC","1","15-0","Hazen St","East Elmhurst","New York","11370","QUEENS","40.790985","-73.884396","401","22","1","2116652","2026050040","BX98"
"NYC FLEET / DOC_RI-INVDIV-1","DOC","2",,"Hillside Ave","Bronx","New York","10474",,,,,,,,,
"NYC FLEET / DOC_RI-INVDIV-2","DOC","2",,"Hillside Ave","Bronx","New York","10474",,,,,,,,,
"NYC FLEET / DOC_RI-INVDIV-S","DOC","1",,"Hillside Ave","Bronx","New York","10474",,,,,,,,,
"NYC FLEET / DOC_VBAIN-S","DOC","1","1","Halleck Street","Bronx","New York","10474","BRONX","40.803297","-73.878158","202","17","93","2128421","2027800073","BX27"
"NYC FLEET / DOCCIBWESTFAC","DOC","2",,"West Facility CIB","Elmhurst","New York","11370",,,,,,,,,
"NYC FLEET / DOCCMUTRAILER01","DOC","2",,"Unnamed Road","Flushing","New York","11371",,,,,,,,,
"NYC FLEET / DOCCWOD3","DOC","2",,"Hillside Ave","Bronx","New York","10474",,,,,,,,,
"NYC FLEET / DOCFLEETMT_1_L3","DOC","1","17-17","Hazen St","Flushing","New York","11370","QUEENS","40.789275","-73.884406","401","22","1","0","0","BX98"
"NYC FLEET / DOCFLEETMT_2_L3","DOC","1","17-17","Hazen St.","Flushing","New York","11370","QUEENS","40.789275","-73.884406","401","22","1","0","0","BX98"
"NYC FLEET / DOCTRANSARSEN01","DOC","2",,"Hillside Ave","Bronx","New York","10474",,,,,,,,,
"NYC FLEET / DOCTRANSARSEN02","DOC","2",,"Hillside Ave","Bronx","New York","10474",,,,,,,,,
"NYC FLEET / DOCWELLNES_1_L3","DOC","1",,"Hazen St","Bronx","New York","10474",,,,,,,,,
"NYC FLEET / DOE_ Q0001","DOE","1","165-65","84th Ave","Queens","New York","11432","QUEENS","40.715389","-73.800369","408","24","452","4211027","4098670002","QN35"
"NYC FLEET / DOE_ Q0002","DOE","1","165-65","84th Ave","Queens","New York","11432","QUEENS","40.715389","-73.800369","408","24","452","4211027","4098670002","QN35"
"NYC FLEET / DOE_ R0001","DOE","1","6581","Hylan Blvd","Staten Island","New York","10309","STATEN IS","40.509084","-74.22093","503","51","198","5123970","5076640001","SI01"
"NYC FLEET / DOE_131LIV-1","DOE","2","131","Livingston St","Downtown Brooklyn","New York","11201","BROOKLYN","40.690743","-73.988605","302","33","37","3000420","3001540001","BK38"
"NYC FLEET / DOE_131LIV-2","DOE","1","131","Livingston St","Brooklyn","New York","11201","BROOKLYN","40.690743","-73.988605","302","33","37","3000420","3001540001","BK38"
"NYC FLEET / DOE_B&GHS-1","DOE","1","1700","Fulton St","Brooklyn","New York","11213","BROOKLYN","40.67944","-73.932407","303","36","271","3047996","3017010001","BK61"
"NYC FLEET / DOE_BRONXX475","DOE","1","99","Terrace Ave.","Bronx","New York","10463",,,,,,,,,
"NYC FLEET / DOE_EDISONHS","DOE","1","165-65","84th Ave","Queens","New York","11432","QUEENS","40.715389","-73.800369","408","24","452","4211027","4098670002","QN35"
"NYC FLEET / DOE_JFKHS","DOE","1","Jan-49","Teunissen Pl","Bronx","New York","10463","BRONX","40.876606","-73.912839","208","10","309","0","0","MN01"
"NYC FLEET / DOE_K0001","DOE","1","50","Bedford Ave","Brooklyn","New York","11222","BROOKLYN","40.721981","-73.953281","301","33","517","3066698","3026700001","BK73"
"NYC FLEET / DOE_M466","DOE","1","549","Audubon Ave","New York","New York","10040","MANHATTAN","40.855855","-73.92712","112","10","277","1076751","1021600018","MN35"
"NYC FLEET / DOE_M646","DOE","1","321","E 96th St","New York","New York","10128","MANHATTAN","40.783638","-73.945626","111","8","15602","1083927","1016680001","MN33"
"NYC FLEET / DOE_MTWAIN-1","DOE","1","2401","Neptune Ave","Brooklyn","New York","11224","BROOKLYN","40.578188","-73.99203","313","47","330","3188221","3069650140","BK21"
"NYC FLEET / DOE_Q80101","DOE","2","5-1-5-41","44th Dr","LIC","New York","11101",,,,,,,,,
"NYC FLEET / DOE_Q80102","DOE","2","44-36","Vernon Blvd","LIC","New York","11101","QUEENS","40.749384","-73.952233","402","26","1","4005429","4004890001","QN31"
"NYC FLEET / DOE_SBCHS-1","DOE","1","173","Conover St","Brooklyn","New York","11231","BROOKLYN","40.677969","-74.014363","306","38","53","3398190","3005750003","BK33"
"NYC FLEET / DOE1230ZEREGAAV","DOE","1","1230","Zerega Ave","Bronx","New York","10462","BRONX","40.833586","-73.845099","209","13","96","2027195","2038420002","BX59"
"NYC FLEET / DOE4436VERNON#3","DOE","1","44-36","Vernon Blvd","New York","New York","11101","QUEENS","40.749384","-73.952233","402","26","1","4005429","4004890001","QN31"
"NYC FLEET / DOE715OCEANTSI1","DOE","1","715","Ocean Terrace","Staten Island","New York","10301","STATEN IS","40.608512","-74.102067","502","50","177","5113169","5006830001","SI24"
"NYC FLEET / DOE715OCEANTSI2","DOE","1","715","Ocean Terrace","Staten Island","New York","10301","STATEN IS","40.608512","-74.102067","502","50","177","5113169","5006830001","SI24"
"NYC FLEET / DOE90-27SUTPHIN","DOE","2","90-24-90-26","Sutphin Blvd","Jamaica","New York","11435",,,,,,,,,
"NYC FLEET / DOEFACILITIES 1","DOE","2","44-36","Vernon Blvd","Queens","New York","11101","QUEENS","40.749384","-73.952233","402","26","1","4005429","4004890001","QN31"
"NYC FLEET / DOEFACILITIES 2","DOE","2","44-36","Vernon Blvd","Queens","New York","11101","QUEENS","40.749384","-73.952233","402","26","1","4005429","4004890001","QN31"
"NYC FLEET / DOEM535","DOE","2","525","West 50th St","New York","New York","10019","MANHATTAN","40.76525","-73.993105","104","3","135","1083802","1010790029","MN15"
"NYC FLEET / DOEPETRIDESARC","DOE","1","21","Safety City Blvd","Todt Hill","New York","10301",,,,,,,,,
"NYC FLEET / DOEVERNON_1_L3","DOE","1","44-36","Vernon Blvd","LIC","New York","11101","QUEENS","40.749384","-73.952233","402","26","1","4005429","4004890001","QN31"
"NYC FLEET / DOEVERNONBLVD-1","DOE","1","May-40","44th Dr","LIC","New York","11101","QUEENS","40.749341","-73.954023","402","26","1","4518727","4000240007","QN31"
"NYC FLEET / DOEVERNONBLVD-2","DOE","1","44-36","Vernon Blvd","LIC","New York","11101","QUEENS","40.749384","-73.952233","402","26","1","4005429","4004890001","QN31"
"NYC FLEET / DOEVERNONBLVD-3","DOE","1","44-36","Vernon Blvd","LIC","New York","11101","QUEENS","40.749384","-73.952233","402","26","1","4005429","4004890001","QN31"
"NYC FLEET / DOEVERNONBLVD-4","DOE","1","44-36","Vernon Blvd","LIC","New York","11101","QUEENS","40.749384","-73.952233","402","26","1","4005429","4004890001","QN31"
"NYC FLEET / DOEVERNONBLVD-5","DOE","1","44-36","Vernon Blvd","LIC","New York","11101","QUEENS","40.749384","-73.952233","402","26","1","4005429","4004890001","QN31"
"NYC FLEET / DOH_56 DRIVE","DOH","1","56-17","56th Dr.","queens","New York","11378","QUEENS","40.72441","-73.914492","402","30","219","4058946","4025850002","QN31"
"NYC FLEET / DOH_BEDFORDHC","DOH","1","515","Putnam Ave","Bedford-Stuyvesant","New York","11221","BROOKLYN","40.685146","-73.940431","303","36","277","3051831","3018260070","BK35"
"NYC FLEET / DOT_29ST-S1","DOT","1","9","29th St","Greenwood","New York","11232","BROOKLYN","40.661018","-74.004859","307","38","18","3378171","3006620001","BK32"
"NYC FLEET / DOT_29ST-S2","DOT","1","9","29th St","Greenwood","New York","11232","BROOKLYN","40.661018","-74.004859","307","38","18","3378171","3006620001","BK32"
"NYC FLEET / DOT_32-11HARPER","DOT","1","32-11","Harper St","Queens","New York","11368","QUEENS","40.763816","-73.84207","407","21","38301","4444576","4017900001","QN99"
"NYC FLEET / DOT_HARPER ST C","DOT","1","32-1-32-11","Harper St","Queens","New York","11368",,,,,,,,,
"NYC FLEET / DOT_HARPER-S1","DOT","1","32-11","Harper St","Flushing","New York","11368","QUEENS","40.763816","-73.84207","407","21","38301","4444576","4017900001","QN99"
"NYC FLEET / DOT_HARPER-S2","DOT","1","32-1","Harper St","Corona","New York","11368","QUEENS","40.764388","-73.842368","407","21","38301","4045010","4017900001","QN99"
"NYC FLEET / DOT22STLOT-1","DOT","2","41-54","22nd St","Queens","New York","11101","QUEENS","40.752701","-73.942118","401","26","33","4542032","4004110010","QN68"
"NYC FLEET / DOT22STLOT-2","DOT","2","41-54","22nd St","Queens","New York","11101","QUEENS","40.752701","-73.942118","401","26","33","4542032","4004110010","QN68"
"NYC FLEET / DOT22STLOT-3","DOT","2","41-54","22nd St","Queens","New York","11101","QUEENS","40.752701","-73.942118","401","26","33","4542032","4004110010","QN68"
"NYC FLEET / DOT2811QNSPLAZA","DOT","1","28-11","Queens Plaza North","Queens","New York","11101","QUEENS","40.75008","-73.938208","401","26","33","4005022","4004170002","QN68"
"NYC FLEET / DOT3MASPETHQNS","DOT","1","57-50","57th Rd","Queens","New York","11378","QUEENS","40.722361","-73.912677","405","30","531","4567284","4026710001","QN30"
"NYC FLEET / DOT448HAMILTON","DOT","2","448","Hamilton Ave","brooklyn","New York","11232","BROOKLYN","40.670361","-73.997693","307","38","18","3336712","3006250002","BK32"
"NYC FLEET / DOT4MASPETHQNS","DOT","1","57-50","57th Rd","Queens","New York","11378","QUEENS","40.722361","-73.912677","405","30","531","4567284","4026710001","QN30"
"NYC FLEET / DOTFLATLANDS-S1","DOT","1","928","E 76th St","Canarsie","New York","11236","BROOKLYN","40.633144","-73.91573","318","46","998","3325351","3080120400","BK50"
"NYC FLEET / DOTPITKINAVE-1","DOT","1","88-26","Pitkin Ave","Queens","New York","11417","QUEENS","40.673779","-73.847565","410","32","58","4539787","4113680020","QN56"
"NYC FLEET / DOTPITKINAVE-2","DOT","1","88-26","Pitkin Ave","Queens","New York","11417","QUEENS","40.673779","-73.847565","410","32","58","4539787","4113680020","QN56"
"NYC FLEET / DOTPITKINAVEQN1","DOT","1","88-26","Pitkin Ave","Queens","New York","11417","QUEENS","40.673779","-73.847565","410","32","58","4539787","4113680020","QN56"
"NYC FLEET / DOTPITKINAVEQN2","DOT","1","88-26","Pitkin Ave","Queens","New York","11417","QUEENS","40.673779","-73.847565","410","32","58","4539787","4113680020","QN56"
"NYC FLEET / DOTQNSBLVD-1","DOT","1","34-2","Queens Blvd","Queens","New York","11101","QUEENS","40.744537","-73.930602","402","26","179","4003435","4002460001","QN31"
"NYC FLEET / DOTQNSBLVD-2","DOT","1","34-2","Queens Blvd","Queens","New York","11101","QUEENS","40.744537","-73.930602","402","26","179","4003435","4002460001","QN31"
"NYC FLEET / DOTQNSBLVD-3","DOT","1","34-2","Queens Blvd","Queens","New York","11101","QUEENS","40.744537","-73.930602","402","26","179","4003435","4002460001","QN31"
"NYC FLEET / DOTQNSBLVD-4","DOT","1","34-2","Queens Blvd","Queens","New York","11101","QUEENS","40.744537","-73.930602","402","26","179","4003435","4002460001","QN31"
"NYC FLEET / DOTSIDUBOIS","DOT","1","5","Dubois Ave","STATEN ISLAND","New York","10310","STATEN IS","40.631947","-74.129401","501","49","13302","5104536","5002150100","SI22"
"NYC FLEET / DOTWILLIAMSBR","DOT","2","1400","Williamsbridge Rd","Bronx","New York","10461","BRONX","40.842277","-73.844085","210","13","200","2044091","2040740001","BX37"
"NYC FLEET / DPR_5BORO-ARC1","DPR","1","37-49","Bronx Shore Rd","New York","New York","10035","MANHATTAN","40.800068","-73.925671","111","8","240","1088067","1018190203","MN99"
"NYC FLEET / DPR_5BORO-ARC2","DPR","1","37-49","Bronx Shore Rd","New York","New York","10035","MANHATTAN","40.800068","-73.925671","111","8","240","1088067","1018190203","MN99"
"NYC FLEET / DPR_5BORO-ARC3","DPR","1","14","Bronx Shore Rd","New York","New York","10035","MANHATTAN","40.79872","-73.921194","111","8","240","1088069","1018190203","MN99"
"NYC FLEET / DPR_5BORO#10A-B","DPR","2","13","Bronx Shore Rd","New York","New York","10035",,,,,,,,,
"NYC FLEET / DPR_5BORO#11A-B","DPR","2","13","Bronx Shore Rd","New York","New York","10035",,,,,,,,,
"NYC FLEET / DPR_5BORO#12A-B","DPR","2","13","Bronx Shore Rd","New York","New York","10035",,,,,,,,,
"NYC FLEET / DPR_5BORO#1A-B","DPR","2","14","Bronx Shore Rd","New York","New York","10035","MANHATTAN","40.79872","-73.921194","111","8","240","1088069","1018190203","MN99"
"NYC FLEET / DPR_5BORO#2A-B","DPR","2","14","Bronx Shore Rd","New York","New York","10035","MANHATTAN","40.79872","-73.921194","111","8","240","1088069","1018190203","MN99"
"NYC FLEET / DPR_5BORO#3A-B","DPR","2","14","Bronx Shore Rd","New York","New York","10035","MANHATTAN","40.79872","-73.921194","111","8","240","1088069","1018190203","MN99"
"NYC FLEET / DPR_5BORO#4A-B","DPR","2","14","Bronx Shore Rd","New York","New York","10035","MANHATTAN","40.79872","-73.921194","111","8","240","1088069","1018190203","MN99"
"NYC FLEET / DPR_5BORO#5A-B","DPR","2","37-49","Bronx Shore Rd","New York","New York","10035","MANHATTAN","40.800068","-73.925671","111","8","240","1088067","1018190203","MN99"
"NYC FLEET / DPR_5BORO#6A-B","DPR","2","14","Bronx Shore Rd","New York","New York","10035","MANHATTAN","40.79872","-73.921194","111","8","240","1088069","1018190203","MN99"
"NYC FLEET / DPR_5BORO#7A-B","DPR","2","13","Bronx Shore Rd","New York","New York","10035",,,,,,,,,
"NYC FLEET / DPR_5BORO#8A-B","DPR","2","13","Bronx Shore Rd","New York","New York","10035",,,,,,,,,
"NYC FLEET / DPR_5BORO#9A-B","DPR","2","13","Bronx Shore Rd","New York","New York","10035",,,,,,,,,
"NYC FLEET / DPR_5BORONORTH1","DPR","1","850","E 138th St","Bronx","New York","10454","BRONX","40.803141","-73.909049","201","17","19","2086438","2025890031","BX39"
"NYC FLEET / DPR_5BORONORTH2","DPR","1","850","E 138th St","Bronx","New York","10454","BRONX","40.803141","-73.909049","201","17","19","2086438","2025890031","BX39"
"NYC FLEET / DPR_5BORONORTH3","DPR","1","850","E 138th St","Bronx","New York","10454","BRONX","40.803141","-73.909049","201","17","19","2086438","2025890031","BX39"
"NYC FLEET / DPR_5BORONORTH4","DPR","1","850","E 138th St","Bronx","New York","10454","BRONX","40.803141","-73.909049","201","17","19","2086438","2025890031","BX39"
"NYC FLEET / DPR_AL ORTER #6","DPR","1","131-40","Fowler Ave","Flushing","New York","11355","QUEENS","40.751616","-73.834155","407","20","38302","4540092","4020180001","QN99"
"NYC FLEET / DPR_ALLIED #3","DPR","1","15","East Rd","Corona","New York","11368","QUEENS","40.754021","-73.838509","481","21","38302","4541447","4020180001","QN99"
"NYC FLEET / DPR_ALLIED#1","DPR","1","13","East Rd","Corona","New York","11368","QUEENS","40.753928","-73.838823","481","21","38302","4439847","4020180001","QN99"
"NYC FLEET / DPR_ALLIED#10","DPR","1","15","East Rd","Flushing","New York","11368","QUEENS","40.754021","-73.838509","481","21","38302","4541447","4020180001","QN99"
"NYC FLEET / DPR_ALLIED#11","DPR","1","15","East Rd","Corona","New York","11368","QUEENS","40.754021","-73.838509","481","21","38302","4541447","4020180001","QN99"
"NYC FLEET / DPR_ALLIED#12","DPR","1","13","East Rd","Corona","New York","11368","QUEENS","40.753928","-73.838823","481","21","38302","4439847","4020180001","QN99"
"NYC FLEET / DPR_ALLIED#13","DPR","1","15","East Rd","Corona","New York","11368","QUEENS","40.754021","-73.838509","481","21","38302","4541447","4020180001","QN99"
"NYC FLEET / DPR_ALLIED#14","DPR","1","13","East Rd","Corona","New York","11368","QUEENS","40.753928","-73.838823","481","21","38302","4439847","4020180001","QN99"
"NYC FLEET / DPR_ALLIED#2","DPR","1","13","East Rd","Corona","New York","11368","QUEENS","40.753928","-73.838823","481","21","38302","4439847","4020180001","QN99"
"NYC FLEET / DPR_ALLIED#4","DPR","1","15","East Rd","Corona","New York","11368","QUEENS","40.754021","-73.838509","481","21","38302","4541447","4020180001","QN99"
"NYC FLEET / DPR_ALLIED#5","DPR","1","15","East Rd","Corona","New York","11368","QUEENS","40.754021","-73.838509","481","21","38302","4541447","4020180001","QN99"
"NYC FLEET / DPR_ALLIED#6","DPR","1","15","East Rd","Corona","New York","11368","QUEENS","40.754021","-73.838509","481","21","38302","4541447","4020180001","QN99"
"NYC FLEET / DPR_ALLIED#7","DPR","1","15","East Rd","Corona","New York","11368","QUEENS","40.754021","-73.838509","481","21","38302","4541447","4020180001","QN99"
"NYC FLEET / DPR_ALLIED#8","DPR","1","15","East Rd","Corona","New York","11368","QUEENS","40.754021","-73.838509","481","21","38302","4541447","4020180001","QN99"
"NYC FLEET / DPR_ALLIED#9","DPR","1","15","East Rd","Flushing","New York","11368","QUEENS","40.754021","-73.838509","481","21","38302","4541447","4020180001","QN99"
"NYC FLEET / DPR_ALLIED2A-B","DPR","2","15","East Rd","Flushing","New York","11355","QUEENS","40.754021","-73.838509","481","21","38302","4541447","4020180001","QN99"
"NYC FLEET / DPR_ALLIED3A-B","DPR","2","15","East Rd","Flushing","New York","11355","QUEENS","40.754021","-73.838509","481","21","38302","4541447","4020180001","QN99"
"NYC FLEET / DPR_ALLIED4A-B","DPR","2","15","East Rd","Flushing","New York","11355","QUEENS","40.754021","-73.838509","481","21","38302","4541447","4020180001","QN99"
"NYC FLEET / DPR_ALOERTER4#5","DPR","2","131-40","Fowler Ave","Flushing","New York","11355","QUEENS","40.751616","-73.834155","407","20","38302","4540092","4020180001","QN99"
"NYC FLEET / DPR_CENTRALCOM1","DPR","2","313","Broome St","New York","New York","10002","MANHATTAN","40.718875","-73.992735","103","1","18","1086508","1004180001","MN27"
"NYC FLEET / DPR_CHELSEAPARK","DPR","1","437-401-437-407","W 27th St","New York","New York","10001",,,,,,,,,
"NYC FLEET / DPR_CIG-S1","DPR","1","1521-1529","E 102nd St","Brooklyn","New York","11236","BROOKLYN","40.635668","-73.885339","318","46","1034","0","0","BK50"
"NYC FLEET / DPR_CIG-S2","DPR","1","1521-1529","E 102nd St","New York","New York","11236","BROOKLYN","40.635668","-73.885339","318","46","1034","0","0","BK50"
"NYC FLEET / DPR_GRACIEMAN","DPR","2","181","East End Ave","New York","New York","10028","MANHATTAN","40.776309","-73.943758","108","5","14402","1085796","1015920001","MN32"
"NYC FLEET / DPR_ICAHN_1_L3","DPR","1","10","Central Rd","New York","New York","10035","MANHATTAN","40.792269","-73.923827","111","8","240","1085645","1018190203","MN99"
"NYC FLEET / DPR_ICAHN_2_L3","DPR","1","10","Central Rd","New York","New York","10035","MANHATTAN","40.792269","-73.923827","111","8","240","1085645","1018190203","MN99"
"NYC FLEET / DPR_ICAHN_3_L3","DPR","1","10","Central Rd","New York","New York","10035","MANHATTAN","40.792269","-73.923827","111","8","240","1085645","1018190203","MN99"
"NYC FLEET / DPR_LRP#1#2","DPR","2","42-12","Queens Plaza S","Long Island City","New York","11101",,,,,,,,,
"NYC FLEET / DPR_ORCH-BCH-S1","DPR","1",,"Park Dr","Bronx","New York","10464",,,,,,,,,
"NYC FLEET / DPR_SROOSEVELT1","DPR","2",,"Hester St","New York","New York","10002",,,,,,,,,
"NYC FLEET / DPR_SROOSEVELT2","DPR","2",,"Hester St","New York","New York","10002",,,,,,,,,
"NYC FLEET / DPR_VC-GAR-S1","DPR","1",,"Mosholu Ave","Bronx","New York","10471",,,,,,,,,
"NYC FLEET / DPR_VC-GAR-S2","DPR","1","5788","Broadway","North Riverdale","New York","10471","BRONX","40.884065","-73.901217","208","11","283","2016176","2032700009","BX29"
"NYC FLEET / DPR_WHRLMPIER","DPR","2","698","West 135th Street","New York","New York","10031","MANHATTAN","40.821351","-73.958067","109","7","22302","1076688","1020050027","MN06"
"NYC FLEET / DPR5BOROBB_1_L3","DPR","1","20","Bronx Shore Rd","New York","New York","10035","MANHATTAN","40.79952","-73.92227","111","8","240","1085922","1018190203","MN99"
"NYC FLEET / DPR5BOROBB_2_L3","DPR","1","20","Bronx Shore Rd","New York","New York","10035","MANHATTAN","40.79952","-73.92227","111","8","240","1085922","1018190203","MN99"
"NYC FLEET / DPR5BOROBB1A-B","DPR","2","20R","Bronx Shore Rd","New York","New York","10035","MANHATTAN","40.79952","-73.92227","111","8","240","0","0","MN99"
"NYC FLEET / DPR5BOROBB2A-B","DPR","2","20R","Bronx Shore Rd","New York","New York","10035","MANHATTAN","40.79952","-73.92227","111","8","240","0","0","MN99"
"NYC FLEET / DPR5BOROBB3A-B","DPR","2","20R","Bronx Shore Rd","New York","New York","10035","MANHATTAN","40.79952","-73.92227","111","8","240","0","0","MN99"
"NYC FLEET / DPR5BOROBB4A-B","DPR","2","20R","Bronx Shore Rd","New York","New York","10035","MANHATTAN","40.79952","-73.92227","111","8","240","0","0","MN99"
"NYC FLEET / DPR5BOROBB5A-B","DPR","2","20R","Bronx Shore Rd","New York","New York","10035","MANHATTAN","40.79952","-73.92227","111","8","240","0","0","MN99"
"NYC FLEET / DPR5BOROBB6A-B","DPR","2","20R","Bronx Shore Rd","New York","New York","10035","MANHATTAN","40.79952","-73.92227","111","8","240","0","0","MN99"
"NYC FLEET / DPR86MNSHPS#1#2","DPR","2","50","85th St Transverse","New York","New York","10128","MANHATTAN","40.781339","-73.962508","164","6","143","0","0","MN99"
"NYC FLEET / DPRABRYAN-S1","DPR","1","3278","Middletown Rd","Bronx","New York","10465","BRONX","40.848118","-73.821238","210","13","27401","2075923","2054130059","BX10"
"NYC FLEET / DPRABRYAN-S2","DPR","1","3280","Middletown Rd","Bronx","New York","10465","BRONX","40.848238","-73.821007","210","13","27401","2000000","2054130114","BX10"
"NYC FLEET / DPRALOERTER#1","DPR","1","131-40","Fowler Ave","Flushing","New York","11355","QUEENS","40.751616","-73.834155","407","20","38302","4540092","4020180001","QN99"
"NYC FLEET / DPRALOERTER#2","DPR","1","131-40","Fowler Ave","Brooklyn","New York","11355","QUEENS","40.751616","-73.834155","407","20","38302","4540092","4020180001","QN99"
"NYC FLEET / DPRALOERTER#3","DPR","1","131-40","Fowler Ave","Flushing","New York","11355","QUEENS","40.751616","-73.834155","407","20","38302","4540092","4020180001","QN99"
"NYC FLEET / DPRARSENAL_1_L3","DPR","1",,"East Dr","New York","New York","10019",,,,,,,,,
"NYC FLEET / DPRARSENAL#1","DPR","1",,"East Dr","New York","New York","10019",,,,,,,,,
"NYC FLEET / DPRARSENAL#10","DPR","1",,"East Dr","New York","New York","10019",,,,,,,,,
"NYC FLEET / DPRARSENAL#11","DPR","1",,"East Dr","New York","New York","10019",,,,,,,,,
"NYC FLEET / DPRARSENAL#12","DPR","1",,"East Dr","New York","New York","10019",,,,,,,,,
"NYC FLEET / DPRARSENAL#13","DPR","1",,"East Dr","New York","New York","10019",,,,,,,,,
"NYC FLEET / DPRARSENAL#14","DPR","1",,"East Dr","New York","New York","10019",,,,,,,,,
"NYC FLEET / DPRARSENAL#15","DPR","1",,"East Dr","New York","New York","10019",,,,,,,,,
"NYC FLEET / DPRARSENAL#16","DPR","1",,"East Dr","New York","New York","10019",,,,,,,,,
"NYC FLEET / DPRARSENAL#17","DPR","1",,"East Dr","New York","New York","10019",,,,,,,,,
"NYC FLEET / DPRARSENAL#18","DPR","1",,"East Dr","New York","New York","10024",,,,,,,,,
"NYC FLEET / DPRARSENAL#19","DPR","1",,"East Dr","New York","New York","10019",,,,,,,,,
"NYC FLEET / DPRARSENAL#2","DPR","1",,"East Dr","New York","New York","10019",,,,,,,,,
"NYC FLEET / DPRARSENAL#3","DPR","1",,"East Dr","New York","New York","10019",,,,,,,,,
"NYC FLEET / DPRARSENAL#4","DPR","1",,"East Dr","New York","New York","10019",,,,,,,,,
"NYC FLEET / DPRARSENAL#5","DPR","1",,"East Dr","New York","New York","10019",,,,,,,,,
"NYC FLEET / DPRARSENAL#6","DPR","1",,"East Dr","New York","New York","10019",,,,,,,,,
"NYC FLEET / DPRARSENAL#7","DPR","1",,"East Dr","New York","New York","10019",,,,,,,,,
"NYC FLEET / DPRARSENAL#8","DPR","1",,"East Dr","New York","New York","10019",,,,,,,,,
"NYC FLEET / DPRARSENAL#9","DPR","1",,"East Dr","New York","New York","10019",,,,,,,,,
"NYC FLEET / DPRBKFORST#1A-B","DPR","2","95","Prospect Park West","Brooklyn","New York","11215","BROOKLYN","40.667391","-73.974508","355","39","177","3339260","3011170001","BK99"
"NYC FLEET / DPRBKFORST#2A-B","DPR","2","95","Prospect Park West","Brooklyn","New York","11215","BROOKLYN","40.667391","-73.974508","355","39","177","3339260","3011170001","BK99"
"NYC FLEET / DPRBKFORST#3A-B","DPR","2","95","Prospect Park West","Brooklyn","New York","11215","BROOKLYN","40.667391","-73.974508","355","39","177","3339260","3011170001","BK99"
"NYC FLEET / DPRBLUHERON1A-B","DPR","2","222","Poillon Ave","Annadale","New York","10312","STATEN IS","40.530065","-74.176447","503","51","176","5133519","5064610002","SI01"
"NYC FLEET / DPRBROOKFLD1A-B","DPR","2","575","Arthur Kill Rd","Staten Island","New York","10308","STATEN IS","40.56161","-74.160443","503","51","279","5153576","5055550001","SI24"
"NYC FLEET / DPRBROOKFLD2A-B","DPR","2","575","Arthur Kill Rd","Staten Island","New York","10308","STATEN IS","40.56161","-74.160443","503","51","279","5153576","5055550001","SI24"
"NYC FLEET / DPRBROOKFLD3A-B","DPR","2","575","Arthur Kill Rd","Staten Island","New York","10308","STATEN IS","40.56161","-74.160443","503","51","279","5153576","5055550001","SI24"
"NYC FLEET / DPRBROOKFLD4A-B","DPR","2","575","Arthur Kill Rd","Staten Island","New York","10308","STATEN IS","40.56161","-74.160443","503","51","279","5153576","5055550001","SI24"
"NYC FLEET / DPRBROOKLYNBPC","DPR","2","334","Furman St","Brooklyn Heights","New York","11201","BROOKLYN","40.693999","-73.999196","302","33","301","3423338","3002450015","BK09"
"NYC FLEET / DPRBUSHWINL#1#2","DPR","2","110","Kent Ave","Brooklyn","New York","11249","BROOKLYN","40.720795","-73.961226","301","33","557","3061864","3023160049","BK73"
"NYC FLEET / DPRBUSHWINL#3#4","DPR","2","Feb-42","N 10th St","Williamsburg","New York","11249","BROOKLYN","40.717655","-73.953014","301","33","519","3398096","3023070001","BK73"
"NYC FLEET / DPRBXFORST#1A-B","DPR","2","1","Bronx River Pkwy","Bronx","New York","10462","BRONX","40.847238","-73.87133","227","15","334","2101002","2043330001","BX99"
"NYC FLEET / DPRBXFORST#2A-B","DPR","2","1","Bronx River Pkwy","Bronx","New York","10462","BRONX","40.847238","-73.87133","227","15","334","2101002","2043330001","BX99"
"NYC FLEET / DPRBXFORST#3A-B","DPR","2","1","Bronx River Pkwy","Bronx","New York","10462","BRONX","40.847238","-73.87133","227","15","334","2101002","2043330001","BX99"
"NYC FLEET / DPRBXFORST#4A-B","DPR","2","1","Bronx River Pkwy","Bronx","New York","10462","BRONX","40.847238","-73.87133","227","15","334","2101002","2043330001","BX99"
"NYC FLEET / DPRBXFORST#5A-B","DPR","2","1831","Unionport Rd","East Bronx","New York","10462","BRONX","40.845802","-73.868694","211","15","220","2042490","2040110011","BX17"
"NYC FLEET / DPRBXFORST#6A-B","DPR","2","1831","Unionport Rd","East Bronx","New York","10462","BRONX","40.845802","-73.868694","211","15","220","2042490","2040110011","BX17"
"NYC FLEET / DPRBXFORST#7A-B","DPR","2","1831","Unionport Rd","East Bronx","New York","10462","BRONX","40.845802","-73.868694","211","15","220","2042490","2040110011","BX17"
"NYC FLEET / DPRBXFORST#8A-B","DPR","2","1831","Unionport Rd","BRONX","New York","10462","BRONX","40.845802","-73.868694","211","15","220","2042490","2040110011","BX17"
"NYC FLEET / DPRBXFORST#9A-B","DPR","2","1831","Unionport Rd","BRONX","New York","10462","BRONX","40.845802","-73.868694","211","15","220","2042490","2040110011","BX17"
"NYC FLEET / DPRBXFRST#10A-B","DPR","2","1831","Unionport Rd","BRONX","New York","10462","BRONX","40.845802","-73.868694","211","15","220","2042490","2040110011","BX17"
"NYC FLEET / DPRBXPEPNORTH-1","DPR","2",,"Westchester Av/Burr Av","Pelham Bay","New York","10461",,,,,,,,,
"NYC FLEET / DPRBXPEPNORTH-2","DPR","2",,"Westchester Av/Burr Av","Pelham Bay","New York","10461",,,,,,,,,
"NYC FLEET / DPRBXRANWIGWAM1","DPR","1","1","Bronx River Parkway-North East section","Bronx","New York","10462",,,,,,,,,
"NYC FLEET / DPRBXRANWIGWAM2","DPR","1","1","Bronx River Parkway-North East section","Bronx","New York","10462",,,,,,,,,
"NYC FLEET / DPRBXRANWIGWAM3","DPR","1","1","Bronx River Parkway-North East section","Bronx","New York","10462",,,,,,,,,
"NYC FLEET / DPRBXRANWIGWAM4","DPR","1","1","Bronx River Parkway-North East section","Bronx","New York","10462",,,,,,,,,
"NYC FLEET / DPRBXSTARLGT-1","DPR","1",,"Bronx River House","BRONX","New York","10459","BRONX","40.832835","-73.88291","209","17","157","2128943","2030190100","BX75"
"NYC FLEET / DPRBXSTARLGT-2","DPR","1",,"Bronx River House","BRONX","New York","10459","BRONX","40.832835","-73.88291","209","17","157","2128943","2030190100","BX75"
"NYC FLEET / DPRCALVAUX-S1","DPR","1","1990","Shore Pkwy","Gravesend","New York","11214","BROOKLYN","40.587688","-73.992367","313","43","314","0","0","BK26"
"NYC FLEET / DPRCALVAUX-S2","DPR","1","1990","Shore Pkwy","Gravesend","New York","11214","BROOKLYN","40.587688","-73.992367","313","43","314","0","0","BK26"
"NYC FLEET / DPRCONFHSE1A-B","DPR","2","298","Satterlee St","Tottenville","New York","10307","STATEN IS","40.502357","-74.25144","503","51","24402","5126463","5078570001","SI11"
"NYC FLEET / DPRCROTONAPL#1","DPR","1","1700","Fulton Ave","BRONX","New York","10457","BRONX","40.841369","-73.897872","203","17","163","2114529","2029410001","BX99"
"NYC FLEET / DPRCROTONAPL#2","DPR","1","1700","Fulton Ave","Bronx","New York","10457","BRONX","40.841369","-73.897872","203","17","163","2114529","2029410001","BX99"
"NYC FLEET / DPRCUNINGHM1A-B","DPR","2","19600","Union Tpke","Fresh Meadows","New York","11366","QUEENS","40.730929","-73.774773","408","23","1283","4591812","4072900001","QN99"
"NYC FLEET / DPRCUNINGHM2A-B","DPR","2","19600","Union Tpke","Fresh Meadows","New York","11366","QUEENS","40.730929","-73.774773","408","23","1283","4591812","4072900001","QN99"
"NYC FLEET / DPRCUNINGHM3A-B","DPR","2","19600","Union Tpke","Fresh Meadows","New York","11366","QUEENS","40.730929","-73.774773","408","23","1283","4591812","4072900001","QN99"
"NYC FLEET / DPRCUNINGHM4A-B","DPR","2","19600","Union Tpke","Fresh Meadows","New York","11366","QUEENS","40.730929","-73.774773","408","23","1283","4591812","4072900001","QN99"
"NYC FLEET / DPRCUNINGHM5A-B","DPR","2","196-5","Grand Central Parkway N Svc Rd","Queens","New York","11423",,,,,,,,,
"NYC FLEET / DPRCUNINGHM6A-B","DPR","2","196-5","Grand Central Parkway N Svc Rd","Queens","New York","11423",,,,,,,,,
"NYC FLEET / DPRCUNINGHMARC","DPR","1",,"Cunningham Park State Rte","Fresh Meadows","New York","11366","QUEENS","40.728776","-73.764505","408","23","1283","4000000","4073000001","QN99"
"NYC FLEET / DPRFLUSHING1A-B","DPR","2","8","Olmsted Dr","Corona","New York","11368","QUEENS","40.752164","-73.84963","481","21","38302","4541448","4020180500","QN99"
"NYC FLEET / DPRFLUSHING2A-B","DPR","2","8","Olmsted Dr","Corona","New York","11368","QUEENS","40.752164","-73.84963","481","21","38302","4541448","4020180500","QN99"
"NYC FLEET / DPRFLUSHING3A-B","DPR","2","8","Olmsted Dr","Corona","New York","11368","QUEENS","40.752164","-73.84963","481","21","38302","4541448","4020180500","QN99"
"NYC FLEET / DPRFLUSHING4A-B","DPR","2","8","Olmsted Dr","Corona","New York","11368","QUEENS","40.752164","-73.84963","481","21","38302","4541448","4020180500","QN99"
"NYC FLEET / DPRFLUSHING5A-B","DPR","2","8","Olmsted Dr","Corona","New York","11368","QUEENS","40.752164","-73.84963","481","21","38302","4541448","4020180500","QN99"
"NYC FLEET / DPRFMAQUA-1A-B","DPR","2","125-40","Roosevelt Ave","Flushing","New York","11355","QUEENS","40.752442","-73.837885","481","21","38302","4540097","4020180001","QN99"
"NYC FLEET / DPRFMAQUATIC-1","DPR","1","13104","Meridian Road","Flushing","New York","11355","QUEENS","40.752442","-73.837885","481","21","38302","0","0","QN99"
"NYC FLEET / DPRFRKILLS1A-B","DPR","2",,"Unnamed Road","Staten Island","New York","10314",,,,,,,,,
"NYC FLEET / DPRFRKILLS2A-B","DPR","2",,"Unnamed Road","Staten Island","New York","10314",,,,,,,,,
"NYC FLEET / DPRFTTOTTEN-S1","DPR","1",,"Murray Ave","Fort Totten","New York","11359",,,,,,,,,
"NYC FLEET / DPRFTTOTTEN-S2","DPR","1",,"Murray Ave","Fort Totten","New York","11359",,,,,,,,,
"NYC FLEET / DPRFTTOTTEN1A-B","DPR","2","638","Bayside St","Bayside","New York","11359",,,,,,,,,
"NYC FLEET / DPRFTTOTTEN2A-B","DPR","2","638","Bayside St","Bayside","New York","11359",,,,,,,,,
"NYC FLEET / DPRFTTOTTEN3A-B","DPR","2","638","Bayside St","Bayside","New York","11359",,,,,,,,,
"NYC FLEET / DPRGREENBELT#1","DPR","1","501","Brielle Ave","Staten Island","New York","10314","STATEN IS","40.592224","-74.13628","502","50","27302","5107273","5019550001","SI05"
"NYC FLEET / DPRHIGHROCK#1","DPR","1","191-249","Nevada Ave","Staten Island","New York","10306","STATEN IS","40.584008","-74.125528","502","50","181","5158050","5009520275","SI24"
"NYC FLEET / DPRHIGHWAYP2-S1","DPR","1","2900","Flatbush Ave","Brooklyn","New York","11234","BROOKLYN","40.60261","-73.91467","318","46","666","3397327","3085900600","BK99"
"NYC FLEET / DPRHIGHWAYP2-S2","DPR","1","2900","Flatbush Ave","Brooklyn","New York","11234","BROOKLYN","40.60261","-73.91467","318","46","666","3397327","3085900600","BK99"
"NYC FLEET / DPRICAHNLOTE-S1","DPR","1",,"Main Rdwy/ICAHN Stadium","New York","New York","10035",,,,,,,,,
"NYC FLEET / DPRICAHNLOTE-S2","DPR","1",,"Main Rdwy/ICAHN Stadium","New York","New York","10035",,,,,,,,,
"NYC FLEET / DPRICAHNLOTE-S3","DPR","1",,"Main Rdwy/Tennis Center 1","New York","New York","10035",,,,,,,,,
"NYC FLEET / DPRICAHNSTADIUM","DPR","1","20","Randalls Is Rd","New York","New York","10035",,,,,,,,,
"NYC FLEET / DPRLITCHFLD1A-B","DPR","2","95","Prospect Park West","Brooklyn","New York","11215","BROOKLYN","40.667391","-73.974508","355","39","177","3339260","3011170001","BK99"
"NYC FLEET / DPRLITCHFLD2A-B","DPR","2","95","Prospect Park West","Brooklyn","New York","11215","BROOKLYN","40.667391","-73.974508","355","39","177","3339260","3011170001","BK99"
"NYC FLEET / DPRLITCHFLD3A-B","DPR","2","95","Prospect Park West","Brooklyn","New York","11215","BROOKLYN","40.667391","-73.974508","355","39","177","3339260","3011170001","BK99"
"NYC FLEET / DPRLITCHFLD4A-B","DPR","2","95","Prospect Park West","Brooklyn","New York","11215","BROOKLYN","40.667391","-73.974508","355","39","177","3339260","3011170001","BK99"
"NYC FLEET / DPRLITCHFLD5A-B","DPR","2","95","Prospect Park West","Brooklyn","New York","11215","BROOKLYN","40.667391","-73.974508","355","39","177","3339260","3011170001","BK99"
"NYC FLEET / DPRLITCHFLD6A-B","DPR","2","95","Prospect Park West","Brooklyn","New York","11215","BROOKLYN","40.667391","-73.974508","355","39","177","3339260","3011170001","BK99"
"NYC FLEET / DPRLITCHFLD7A-B","DPR","2","95","Prospect Park West","Brooklyn","New York","11215","BROOKLYN","40.667391","-73.974508","355","39","177","3339260","3011170001","BK99"
"NYC FLEET / DPRLYONSARC","DPR","1","13","Hannah St","Tompkinsville","New York","10304","STATEN IS","40.636247","-74.074589","501","49","21","0","0","SI37"
"NYC FLEET / DPRLYONSPL1A-B","DPR","2","15","Murray Hulbert Ave","Staten Island","New York","10301","STATEN IS","40.637211","-74.073618","501","49","21","5155219","5004870100","SI37"
"NYC FLEET / DPRLYONSPL2A-B","DPR","2","6-Feb","Murray Hulbert Ave","Staten Island","New York","10304","STATEN IS","40.637675","-74.073719","501","49","21","0","0","SI37"
"NYC FLEET / DPRMBLOT7-S1","DPR","1","829","Father Capodanno Blvd","Midland Beach","New York","10305","STATEN IS","40.575685","-74.083179","502","50","11201","5000000","5038320021","SI36"
"NYC FLEET / DPRMBLOT7-S2","DPR","1","829","Father Capodanno Blvd","Midland Beach","New York","10305","STATEN IS","40.575685","-74.083179","502","50","11201","5000000","5038320021","SI36"
"NYC FLEET / DPRMBLOT8_1_L3","DPR","1","920","Father Capodanno Blvd","Midland Beach","New York","10305","STATEN IS","40.575993","-74.082618","595","50","11201","0","0","SI36"
"NYC FLEET / DPRMBLOT8_2_L3","DPR","1","920","Father Capodanno Blvd","Midland Beach","New York","10305","STATEN IS","40.575993","-74.082618","595","50","11201","0","0","SI36"
"NYC FLEET / DPRMBLOT8-S1","DPR","1",,"Father Capodanno Blvd","Midland Beach","New York","10305",,,,,,,,,
"NYC FLEET / DPRMBLOT8-S2","DPR","1",,"Father Capodanno Blvd","Midland Beach","New York","10305",,,,,,,,,
"NYC FLEET / DPRMBLOT8-S3","DPR","1",,"Father Capodanno Blvd","Midland Beach","New York","10305",,,,,,,,,
"NYC FLEET / DPRMILLPOND1&2","DPR","2",,"Major Deegan Expy","West Bronx","New York","10451",,,,,,,,,
"NYC FLEET / DPRNMEADOW#1A-B","DPR","2","97th","St Transverse","New York","New York","10029",,,,,,,,,
"NYC FLEET / DPRNMEADOW#2A-B","DPR","2","97th","St Transverse","New York","New York","10029",,,,,,,,,
"NYC FLEET / DPROAKRIDGE#1#2","DPR","2",,"Forest Park Dr","Woodhaven","New York","11421",,,,,,,,,
"NYC FLEET / DPROCEANBR#1A-B","DPR","2","631-643","Father Capodanno Blvd","South Beach","New York","10305","STATEN IS","40.581606","-74.075187","502","50","70","5170654","5033550001","SI36"
"NYC FLEET / DPROCEANBR#2A-B","DPR","2","631-643","Father Capodanno Blvd","South Beach","New York","10305","STATEN IS","40.581606","-74.075187","502","50","70","5170654","5033550001","SI36"
"NYC FLEET / DPROLMBRADDICK1","DPR","1","8","Olmsted Dr","Corona","New York","11368","QUEENS","40.752164","-73.84963","481","21","38302","4541448","4020180500","QN99"
"NYC FLEET / DPROLMSTD#10A-B","DPR","2","117-2","Roosevelt Ave","Corona","New York","11368","QUEENS","40.751876","-73.849331","481","21","38302","4050124","4020180500","QN99"
"NYC FLEET / DPROLMSTD#11A-B","DPR","2","117-2","Roosevelt Ave","Corona","New York","11368","QUEENS","40.751876","-73.849331","481","21","38302","4050124","4020180500","QN99"
"NYC FLEET / DPROLMSTD#12A-B","DPR","2","117-2","Roosevelt Ave","Corona","New York","11368","QUEENS","40.751876","-73.849331","481","21","38302","4050124","4020180500","QN99"
"NYC FLEET / DPROLMSTD#13A-B","DPR","2","117-2","Roosevelt Ave","Corona","New York","11368","QUEENS","40.751876","-73.849331","481","21","38302","4050124","4020180500","QN99"
"NYC FLEET / DPROLMSTD#14A-B","DPR","2","8","Olmsted Dr","Corona","New York","11368","QUEENS","40.752164","-73.84963","481","21","38302","4541448","4020180500","QN99"
"NYC FLEET / DPROLMSTD#15A-B","DPR","2","8","Olmsted Dr","Corona","New York","11368","QUEENS","40.752164","-73.84963","481","21","38302","4541448","4020180500","QN99"
"NYC FLEET / DPROLMSTD#16A-B","DPR","2","6","Olmsted Dr","Corona","New York","11368","QUEENS","40.752167","-73.849641","481","21","38302","4050124","4020180500","QN99"
"NYC FLEET / DPROLMSTD#17A-B","DPR","2","6","Olmsted Dr","Corona","New York","11368","QUEENS","40.752167","-73.849641","481","21","38302","4050124","4020180500","QN99"
"NYC FLEET / DPROLMSTD#18A-B","DPR","2","6","Olmsted Dr","Corona","New York","11368","QUEENS","40.752167","-73.849641","481","21","38302","4050124","4020180500","QN99"
"NYC FLEET / DPROLMSTED#1A-B","DPR","2","117-2","Roosevelt Ave","Corona","New York","11368","QUEENS","40.751876","-73.849331","481","21","38302","4050124","4020180500","QN99"
"NYC FLEET / DPROLMSTED#2A-B","DPR","2","117-2","Roosevelt Ave","Corona","New York","11368","QUEENS","40.751876","-73.849331","481","21","38302","4050124","4020180500","QN99"
"NYC FLEET / DPROLMSTED#3A-B","DPR","2","117-2","Roosevelt Ave","Corona","New York","11368","QUEENS","40.751876","-73.849331","481","21","38302","4050124","4020180500","QN99"
"NYC FLEET / DPROLMSTED#4A-B","DPR","2","117-2","Roosevelt Ave","Corona","New York","11368","QUEENS","40.751876","-73.849331","481","21","38302","4050124","4020180500","QN99"
"NYC FLEET / DPROLMSTED#5A-B","DPR","2","117-2","Roosevelt Ave","Corona","New York","11368","QUEENS","40.751876","-73.849331","481","21","38302","4050124","4020180500","QN99"
"NYC FLEET / DPROLMSTED#6A-B","DPR","2","117-2","Roosevelt Ave","Corona","New York","11368","QUEENS","40.751876","-73.849331","481","21","38302","4050124","4020180500","QN99"
"NYC FLEET / DPROLMSTED#7A-B","DPR","2","117-2","Roosevelt Ave","Corona","New York","11368","QUEENS","40.751876","-73.849331","481","21","38302","4050124","4020180500","QN99"
"NYC FLEET / DPROLMSTED#8A-B","DPR","2","6","Olmsted Dr","Corona","New York","11368","QUEENS","40.752167","-73.849641","481","21","38302","4050124","4020180500","QN99"
"NYC FLEET / DPROLMSTED#9A-B","DPR","2","6","Olmsted Dr","Corona","New York","11368","QUEENS","40.752167","-73.849641","481","21","38302","4050124","4020180500","QN99"
"NYC FLEET / DPROLMSTEDFOR#3","DPR","1","12","Olmsted Dr","Corona","New York","11368","QUEENS","40.752161","-73.849609","481","21","38302","4619884","4020180500","QN99"
"NYC FLEET / DPROMSDFR#10#11","DPR","2","12","Olmsted Dr","Corona","New York","11368","QUEENS","40.752161","-73.849609","481","21","38302","4619884","4020180500","QN99"
"NYC FLEET / DPROMSDFR#12#13","DPR","2","12","Olmsted Dr","Corona","New York","11368","QUEENS","40.752161","-73.849609","481","21","38302","4619884","4020180500","QN99"
"NYC FLEET / DPROMSDFR#14#15","DPR","2","12","Olmsted Dr","Corona","New York","11368","QUEENS","40.752161","-73.849609","481","21","38302","4619884","4020180500","QN99"
"NYC FLEET / DPROMSDFR#16","DPR","1",,"Grand Central Pkwy","Corona","New York","11368",,,,,,,,,
"NYC FLEET / DPROMSTDFOR#1#2","DPR","2","12","Olmsted Dr","Corona","New York","11368","QUEENS","40.752161","-73.849609","481","21","38302","4619884","4020180500","QN99"
"NYC FLEET / DPROMSTDFOR#4#5","DPR","2","12","Olmsted Dr","Corona","New York","11368","QUEENS","40.752161","-73.849609","481","21","38302","4619884","4020180500","QN99"
"NYC FLEET / DPROMSTDFOR#6#7","DPR","2","12","Olmsted Dr","Corona","New York","11368","QUEENS","40.752161","-73.849609","481","21","38302","4619884","4020180500","QN99"
"NYC FLEET / DPROMSTDFOR#8#9","DPR","2","12","Olmsted Dr","Corona","New York","11368","QUEENS","40.752161","-73.849609","481","21","38302","4619884","4020180500","QN99"
"NYC FLEET / DPROVERLOOK1A-B","DPR","2","80-30","Park Ln","Kew Gardens","New York","11415","QUEENS","40.710954","-73.835147","482","29","773","4442874","4033122000","QN60"
"NYC FLEET / DPRPARADE1-2","DPR","2","397","Coney Island Ave","Flatbush","New York","11218","BROOKLYN","40.649009","-73.971603","314","40","177","3256655","3050510001","BK99"
"NYC FLEET / DPRPARADE3-4","DPR","2","397","Coney Island Ave","Flatbush","New York","11218","BROOKLYN","40.649009","-73.971603","314","40","177","3256655","3050510001","BK99"
"NYC FLEET / DPRPAYSONPLAY#1","DPR","2","269","Dyckman St","New York","New York","10034","MANHATTAN","40.866824","-73.928811","112","10","297","1000000","1022552000","MN99"
"NYC FLEET / DPRPEPBURR-S1","DPR","1","2029","Burr Ave","Bronx","New York","10461","BRONX","40.853828","-73.827513","210","13","300","2047778","2042490041","BX10"
"NYC FLEET / DPRPEPBURR-S2","DPR","1","2029","Burr Ave","Middletown - Pelham Bay","New York","10461","BRONX","40.853828","-73.827513","210","13","300","2047778","2042490041","BX10"
"NYC FLEET / DPRPEPBURR-S3","DPR","1","2029","Burr Ave","Middletown - Pelham Bay","New York","10461","BRONX","40.853828","-73.827513","210","13","300","2047778","2042490041","BX10"
"NYC FLEET / DPRPRSPCTYARDS1","DPR","1","48","West Dr","Brooklyn","New York","11215","BROOKLYN","40.664987","-73.973384","355","39","177","3411717","3011170001","BK99"
"NYC FLEET / DPRPRSPCTYARDS2","DPR","1","48","West Dr","Brooklyn","New York","11215","BROOKLYN","40.664987","-73.973384","355","39","177","3411717","3011170001","BK99"
"NYC FLEET / DPRQBLIC#1&2","DPR","2","23-10","Queens Plaza S","Long Island City","New York","11101","QUEENS","40.751136","-73.94204","402","26","19","4005066","4004250005","QN31"
"NYC FLEET / DPRQBLIC#3&4","DPR","2","10th","street and queens plaza south","Long Island City","New York","11101",,,,,,,,,
"NYC FLEET / DPRQNSMSEUM#1#2","DPR","2",,"Avenue of the States","Corona","New York","11368",,,,,,,,,
"NYC FLEET / DPRQNSSHOPS1A-B","DPR","2","8298","88th Pl","Flushing","New York","11385","QUEENS","40.701474","-73.858238","405","30","639","0","0","QN19"
"NYC FLEET / DPRQNSSHOPS2A-B","DPR","2","8298","88th Pl","Flushing","New York","11385","QUEENS","40.701474","-73.858238","405","30","639","0","0","QN19"
"NYC FLEET / DPRQNSSTHSE#1#2","DPR","2","43","Flushing Meadows Corona Park Rd","Queens","New York","11368","QUEENS","40.752552","-73.838235","481","21","38302","4540096","4020180001","QN99"
"NYC FLEET / DPRQNSSTHSE#3#4","DPR","2","43","Flushing Meadows Corona Park Rd","QUEENS","New York","11368","QUEENS","40.752552","-73.838235","481","21","38302","4540096","4020180001","QN99"
"NYC FLEET / DPRRANAQUA#1","DPR","1","1","Bronx River Pkwy","new york city","New York","10462","BRONX","40.847238","-73.87133","227","15","334","2101002","2043330001","BX99"
"NYC FLEET / DPRRANAQUA#2","DPR","1","1","Bronx River Pkwy","new york city","New York","10462","BRONX","40.847238","-73.87133","227","15","334","2101002","2043330001","BX99"
"NYC FLEET / DPRRANAQUA#3","DPR","1","1","Bronx River Pkwy","new york city","New York","10462","BRONX","40.847238","-73.87133","227","15","334","2101002","2043330001","BX99"
"NYC FLEET / DPRRANAQUA#4","DPR","1","1","Bronx River Pkwy","Bronx","New York","10462","BRONX","40.847238","-73.87133","227","15","334","2101002","2043330001","BX99"
"NYC FLEET / DPRRANAQUA#5","DPR","1","1","Bronx River Pkwy","Bronx","New York","10462","BRONX","40.847238","-73.87133","227","15","334","2101002","2043330001","BX99"
"NYC FLEET / DPRRB75ST1A-B","DPR","2","Mar-52","Beach 75th St","Far Rockaway","New York","11692","QUEENS","40.591571","-73.803231","414","31","94202","4435935","4160790047","QN12"
"NYC FLEET / DPRRB75ST2A-B","DPR","2","352","Beach 75th St","Far Rockaway","New York","11692","QUEENS","40.591571","-73.803231","414","31","94202","4435935","4160790047","QN12"
"NYC FLEET / DPRRIVERSIDE-S1","DPR","1",,"Hudson River Greenway","New York","New York","10025",,,,,,,,,
"NYC FLEET / DPRRIVERSIDE-S2","DPR","1",,"NY-9A","New York","New York","10025",,,,,,,,,
"NYC FLEET / DPRROCKAWAY106S","DPR","1","106-01","Shore Front Pkwy","Far Rockaway","New York","11694","QUEENS","40.581116","-73.82529","414","32","938","4000000","4161890001","QN10"
"NYC FLEET / DPRROCKAWAY17S","DPR","1",,"Beach 17th St.","Far Rockaway","New York","11691",,,,,,,,,
"NYC FLEET / DPRROCKAWAY17ST","DPR","2","16-25","Seagirt Blvd","Far Rockaway","New York","11691","QUEENS","40.595127","-73.750371","414","31","101001","4299407","4156490001","QN15"
"NYC FLEET / DPRROCKAWAY86S","DPR","1","8601","Shore Front Pkwy","Rockaway Beach","New York","11693","QUEENS","40.584972","-73.810876","414","32","94203","4303674","4161500100","QN12"
"NYC FLEET / DPRROCKAWAY97S","DPR","1","9701","Shore Front Pkwy","Rockaway Park","New York","11694","QUEENS","40.58316","-73.817825","414","32","94201","0","0","QN10"
"NYC FLEET / DPRSBLOT4-S1","DPR","1","405","Father Capodanno Blvd","South Beach","New York","10305","STATEN IS","40.587755","-74.069261","502","50","70","5145877","5034910116","SI36"
"NYC FLEET / DPRSBLOT4-S2","DPR","1","405","Father Capodanno Blvd","South Beach","New York","10305","STATEN IS","40.587755","-74.069261","502","50","70","5145877","5034910116","SI36"
"NYC FLEET / DPRSID1HDQT#1#2","DPR","2","1150","Clove Rd","Staten Island","New York","10301","STATEN IS","40.618239","-74.105161","501","49","147","5112426","5003190001","SI07"
"NYC FLEET / DPRSIFRSTRY#3#4","DPR","2","21","Slosson Ave","Staten Island","New York","10314","STATEN IS","40.621","-74.119452","501","49","147","5112422","5003190001","SI07"
"NYC FLEET / DPRSIFRSTRY#5#6","DPR","2","21-51","Slosson Ave","Castleton Corners","New York","10314","STATEN IS","40.621","-74.119452","501","49","147","5112422","5003190001","SI07"
"NYC FLEET / DPRSIFRSTRY#7#8","DPR","2","21","Slosson Ave","Castleton Corners","New York","10314","STATEN IS","40.621","-74.119452","501","49","147","5112422","5003190001","SI07"
"NYC FLEET / DPRSISHOPS#1#2","DPR","2","21","Slosson Ave","staten island","New York","10314","STATEN IS","40.621","-74.119452","501","49","147","5112422","5003190001","SI07"
"NYC FLEET / DPRSLTENNIS-S1","DPR","1","42","Revere St","Silver Lake","New York","10301","STATEN IS","40.62852","-74.100238","501","49","59","5156178","5002390001","SI35"
"NYC FLEET / DPRSLTENNIS-S2","DPR","1","42","Revere St","Silver Lake","New York","10301","STATEN IS","40.62852","-74.100238","501","49","59","5156178","5002390001","SI35"
"NYC FLEET / DPRSLVRLAKE1-CP","DPR","1","42","Revere St","Staten Island","New York","10301","STATEN IS","40.62852","-74.100238","501","49","59","5156178","5002390001","SI35"
"NYC FLEET / DPRSLVRLAKE1A-B","DPR","2","42","Revere St","Staten Island","New York","10301","STATEN IS","40.62852","-74.100238","501","49","59","5156178","5002390001","SI35"
"NYC FLEET / DPRSLVRLAKE2A-B","DPR","2","42","Revere St","Staten Island","New York","10301","STATEN IS","40.62852","-74.100238","501","49","59","5156178","5002390001","SI35"
"NYC FLEET / DPRSLVRLAKE3A-B","DPR","2","42","Revere St","Staten Island","New York","10301","STATEN IS","40.62852","-74.100238","501","49","59","5156178","5002390001","SI35"
"NYC FLEET / DPRSLVRLAKE4A-B","DPR","2","42","Revere St","Staten Island","New York","10301","STATEN IS","40.62852","-74.100238","501","49","59","5156178","5002390001","SI35"
"NYC FLEET / DPRSLVRLAKE5A-B","DPR","2","42","Revere St","Staten Island","New York","10301","STATEN IS","40.62852","-74.100238","501","49","59","5156178","5002390001","SI35"
"NYC FLEET / DPRSOUTHBEACH#1","DPR","1","375","Sand Ln","Staten Island","New York","10305","STATEN IS","40.59048","-74.06675","502","50","74","5000000","5031220001","SI14"
"NYC FLEET / DPRSOUTHBEACH#2","DPR","1","375","Sand Ln","staten Island","New York","10305","STATEN IS","40.59048","-74.06675","502","50","74","5000000","5031220001","SI14"
"NYC FLEET / DPRTOTENBLG4222","DPR","1","422","Weaver Ave","Bayside","New York","11359","QUEENS","40.792928","-73.77621","407","19","999","4453946","4059170001","QN47"
"NYC FLEET / DPRTOTTENBLG203","DPR","1","208","Totten Ave","Bayside","New York","11359","QUEENS","40.792442","-73.777563","407","19","999","4539849","4059170001","QN47"
"NYC FLEET / DPRTOTTENBLG422","DPR","1","422","Weaver Ave","Queens","New York","11359","QUEENS","40.792928","-73.77621","407","19","999","4453946","4059170001","QN47"
"NYC FLEET / DPRTOTTENBLG431","DPR","2","431","Walter Reed Rd","Bayside","New York","11359","QUEENS","40.794148","-73.775415","407","19","999","4539884","4059170001","QN47"
"NYC FLEET / DPRWFMARINA-DC1","DPR","1","109-5","Marina Rd","Corona","New York","11368",,,,,,,,,
"NYC FLEET / DPRWFMARINA#1#2","DPR","2","1","Flushing Bay Promenade","East Elmhurst","New York","11369",,,,,,,,,
"NYC FLEET / DPRWFMARINA#3","DPR","1","109-5","Marina Rd","Queens","New York","11368",,,,,,,,,
"NYC FLEET / DPRWOLFESPP-S1","DPR","1",,"Chester Ave","New York","New York","10312",,,,,,,,,
"NYC FLEET / DSNY_BETTSAVE-1","DSNY","1","58-73","53rd Ave","Queens","New York","11377","QUEENS","40.734136","-73.909403","402","30","243","4462505","4023610268","QN50"
"NYC FLEET / DSNY_BETTSAVE-2","DSNY","1","58-73","53rd Ave","Queens","New York","11377","QUEENS","40.734136","-73.909403","402","30","243","4462505","4023610268","QN50"
"NYC FLEET / DSNY_BK1-1","DSNY","2","161","Varick ave","East Williamsburg","New York","11237","BROOKLYN","40.711118","-73.928548","301","34","449","3400387","3029620001","BK90"
"NYC FLEET / DSNY_BK1-2 L3","DSNY","1","161","Varick Ave","East Williamsburg","New York","11237","BROOKLYN","40.711118","-73.928548","301","34","449","3400387","3029620001","BK90"
"NYC FLEET / DSNY_BK10-1","DSNY","2","5100","1st ave","Brooklyn","New York","11232","BROOKLYN","40.649977","-74.02012","307","38","18","3000000","3007250200","BK32"
"NYC FLEET / DSNY_BK11-1","DSNY","2","1824","Shore Pkwy","Brooklyn","New York","11214","BROOKLYN","40.59132","-73.994509","311","43","304","3378180","3069430030","BK29"
"NYC FLEET / DSNY_BK14-1","DSNY","2","1397","Ralph Ave","Canarsie","New York","11236","BROOKLYN","40.642674","-73.919717","318","45","960","3221978","3079180145","BK50"
"NYC FLEET / DSNY_BK17-1","DSNY","1","10502","Avenue D","Brooklyn","New York","11236","BROOKLYN","40.653831","-73.901511","318","42","1098","3256921","3081380001","BK82"
"NYC FLEET / DSNY_BK17-2","DSNY","1","10502","Avenue D","Brooklyn","New York","11236","BROOKLYN","40.653831","-73.901511","318","42","1098","3256921","3081380001","BK82"
"NYC FLEET / DSNY_BK18-1","DSNY","1","105-01","Foster Ave","Brooklyn","New York","11236","BROOKLYN","40.627727","-73.976281","314","44","480","3398029","3054260001","BK42"
"NYC FLEET / DSNY_BK18-2","DSNY","1","105-01","Foster Ave","Brooklyn","New York","11236","BROOKLYN","40.627727","-73.976281","314","44","480","3398029","3054260001","BK42"
"NYC FLEET / DSNY_BK2-1","DSNY","2","465","Hamilton Ave","Gowanus","New York","11232","BROOKLYN","40.669156","-73.996907","306","39","119","3023562","3010380001","BK37"
"NYC FLEET / DSNY_BK3-1","DSNY","1","525","Johnson Ave","Brooklyn","New York","11237","BROOKLYN","40.708726","-73.926318","301","34","449","3070584","3029870016","BK90"
"NYC FLEET / DSNY_BK4-1","DSNY","2","161","Varick Ave","East Williamsburg","New York","11237","BROOKLYN","40.711118","-73.928548","301","34","449","3400387","3029620001","BK90"
"NYC FLEET / DSNY_BK4-2","DSNY","2","161","Varick Ave","East Williamsburg","New York","11237","BROOKLYN","40.711118","-73.928548","301","34","449","3400387","3029620001","BK90"
"NYC FLEET / DSNY_BK5-1","DSNY","2","606","Milford street","East New York","New York","11208","BROOKLYN","40.660832","-73.8697","305","42","1078","3099068","3045620001","BK82"
"NYC FLEET / DSNY_BK6-1","DSNY","1","127","2nd Ave","brooklyn","New York","11215","BROOKLYN","40.671308","-73.994452","306","39","117","3022747","3010200001","BK37"
"NYC FLEET / DSNY_BK6A-1","DSNY","1","93","Van Brunt St","brooklyn","New York","11231","BROOKLYN","40.685408","-74.004969","306","39","51","3004232","3003350001","BK33"
"NYC FLEET / DSNY_BK7-1","DSNY","2","5100","1st ave","Sunset Park","New York","11232","BROOKLYN","40.649977","-74.02012","307","38","18","3000000","3007250200","BK32"
"NYC FLEET / DSNY_BK8-1","DSNY","2","1755","Pacific St","Crown Heights","New York","11213","BROOKLYN","40.67669","-73.931938","308","36","309","3330693","3013360018","BK61"
"NYC FLEET / DSNY_BKLC-1","DSNY","2","803","Forbell St","East New York","New York","11208","BROOKLYN","40.664595","-73.860612","305","42","1220","3099064","3045550001","BK82"
"NYC FLEET / DSNY_BX10-1","DSNY","2","850","Zerega Ave","East Bronx","New York","10473","BRONX","40.825144","-73.843139","209","18","90","2094841","2037020001","BX09"
"NYC FLEET / DSNY_BX12-1","DSNY","2","1635","E 233rd St","East Bronx","New York","10475","BRONX","40.888188","-73.826903","212","12","456","2090261","2049740028","BX03"
"NYC FLEET / DSNY_BX12-2","DSNY","1","1635","E 233rd St","New York","New York","10475","BRONX","40.888188","-73.826903","212","12","456","2090261","2049740028","BX03"
"NYC FLEET / DSNY_BX12-3","DSNY","1","1635","E 233rd St","New York","New York","10475","BRONX","40.888188","-73.826903","212","12","456","2090261","2049740028","BX03"
"NYC FLEET / DSNY_BX12-4","DSNY","1","1635","E 233rd St","bronx","New York","10475","BRONX","40.888188","-73.826903","212","12","456","2090261","2049740028","BX03"
"NYC FLEET / DSNY_BX12-5","DSNY","1","1635","E 233rd St","bronx","New York","10475","BRONX","40.888188","-73.826903","212","12","456","2090261","2049740028","BX03"
"NYC FLEET / DSNY_BX12-6","DSNY","1","1635","E 233rd St","Bronx","New York","10475","BRONX","40.888188","-73.826903","212","12","456","2090261","2049740028","BX03"
"NYC FLEET / DSNY_BX12-7","DSNY","1","1635","E 233rd St","Bronx","New York","10475","BRONX","40.888188","-73.826903","212","12","456","2090261","2049740028","BX03"
"NYC FLEET / DSNY_BX2-1","DSNY","2","650","Casanova St","West Bronx","New York","10474","BRONX","40.812786","-73.889857","202","17","93","2006621","2027650177","BX27"
"NYC FLEET / DSNY_BX5-1","DSNY","1","1331","Cromwell Ave","Bronx","New York","10452","BRONX","40.839273","-73.920629","204","16","219","2008640","2028710077","BX26"
"NYC FLEET / DSNY_BX6-1","DSNY","2","800E","176th St","West Bronx","New York","10460",,,,,,,,,
"NYC FLEET / DSNY_BX6-2","DSNY","1","800","E 176th St","Bronx","New York","10460","BRONX","40.842053","-73.889504","206","17","367","2097277","2029530021","BX17"
"NYC FLEET / DSNY_BX6A-1","DSNY","1","800","E 176th St","Bronx","New York","10460","BRONX","40.842053","-73.889504","206","17","367","2097277","2029530021","BX17"
"NYC FLEET / DSNY_BX6A-2","DSNY","1","800","E 176th St","Bronx","New York","10460","BRONX","40.842053","-73.889504","206","17","367","2097277","2029530021","BX17"
"NYC FLEET / DSNY_BXENF-1","DSNY","2","1787","West farms road","Bronx","New York","10460","BRONX","40.836086","-73.882066","203","17","161","2010955","2030150058","BX75"
"NYC FLEET / DSNY_BXENF-2","DSNY","2","1787","W Farms Rd","Bronx","New York","10460","BRONX","40.836086","-73.882066","203","17","161","2010955","2030150058","BX75"
"NYC FLEET / DSNY_BXENF-3","DSNY","2","1787","West farms road","Bronx","New York","10460","BRONX","40.836086","-73.882066","203","17","161","2010955","2030150058","BX75"
"NYC FLEET / DSNY_CBS-1","DSNY","1","10601","Avenue D","Brooklyn","New York","11236","BROOKLYN","40.654363","-73.900725","318","42","1098","3252759","3038710001","BK82"
"NYC FLEET / DSNY_CRS_5F_NE1","DSNY","2","5235","58th St","Woodside","New York","11377","QUEENS","40.734883","-73.909957","402","30","243","4462505","4023610268","QN50"
"NYC FLEET / DSNY_CRS_5F_NE2","DSNY","2","52-35","58th St","Woodside","New York","11377","QUEENS","40.734883","-73.909957","402","30","243","4462505","4023610268","QN50"
"NYC FLEET / DSNY_CRS_BBM-1","DSNY","1","52-35","58th St","Woodside","New York","11377","QUEENS","40.734883","-73.909957","402","30","243","4462505","4023610268","QN50"
"NYC FLEET / DSNY_CRS_MM-1","DSNY","2","52-35","58th St","Woodside","New York","11377","QUEENS","40.734883","-73.909957","402","30","243","4462505","4023610268","QN50"
"NYC FLEET / DSNY_EMM_LAB-1","DSNY","1","52-35","58th St","Queens","New York","11377","QUEENS","40.734883","-73.909957","402","30","243","4462505","4023610268","QN50"
"NYC FLEET / DSNY_HENRY-1","DSNY","1","80","henry street","New York","New York","10002","MANHATTAN","40.71307","-73.993821","103","1","8","1079607","1002750003","MN27"
"NYC FLEET / DSNY_HENRY-2","DSNY","1","80","henry street","New York","New York","10002","MANHATTAN","40.71307","-73.993821","103","1","8","1079607","1002750003","MN27"
"NYC FLEET / DSNY_HENRY-3","DSNY","1","80","henry street","New York","New York","10002","MANHATTAN","40.71307","-73.993821","103","1","8","1079607","1002750003","MN27"
"NYC FLEET / DSNY_HENRY-4","DSNY","1","80","henry street","New York","New York","10002","MANHATTAN","40.71307","-73.993821","103","1","8","1079607","1002750003","MN27"
"NYC FLEET / DSNY_MBS-1","DSNY","1","640","West 26th street","New York","New York","10001","MANHATTAN","40.751183","-74.006594","104","3","99","1012267","1006700050","MN13"
"NYC FLEET / DSNY_MN1-1","DSNY","2","353","Spring St","New York","New York","10013","MANHATTAN","40.726159","-74.010712","102","3","37","1089625","1005967501","MN24"
"NYC FLEET / DSNY_MN10-1","DSNY","1","110","E 131st St","New York","New York","10037","MANHATTAN","40.808657","-73.935809","111","9","242","1054511","1017790001","MN34"
"NYC FLEET / DSNY_MN10-2","DSNY","1","110","E 131st St","New York","New York","10037","MANHATTAN","40.808657","-73.935809","111","9","242","1054511","1017790001","MN34"
"NYC FLEET / DSNY_MN10-3","DSNY","1","110","E 131st St","New York","New York","10037","MANHATTAN","40.808657","-73.935809","111","9","242","1054511","1017790001","MN34"
"NYC FLEET / DSNY_MN10-4","DSNY","1","110","E 131st St","New York","New York","10037","MANHATTAN","40.808657","-73.935809","111","9","242","1054511","1017790001","MN34"
"NYC FLEET / DSNY_MN10-5","DSNY","1","110","E 131st St","New York","New York","10037","MANHATTAN","40.808657","-73.935809","111","9","242","1054511","1017790001","MN34"
"NYC FLEET / DSNY_MN12-1","DSNY","2","301","West 215 street","New York","New York","10034","MANHATTAN","40.868199","-73.911997","112","10","299","1064485","1021960001","MN01"
"NYC FLEET / DSNY_MN2-1","DSNY","2","353","Spring St","New York","New York","10013","MANHATTAN","40.726159","-74.010712","102","3","37","1089625","1005967501","MN24"
"NYC FLEET / DSNY_MN3-1","DSNY","2",,"South Street Pier 36","New York","New York","10002",,,,,,,,,
"NYC FLEET / DSNY_MN3-2","DSNY","2",,"South Street Pier 36","New York","New York","10002",,,,,,,,,
"NYC FLEET / DSNY_MN3-3","DSNY","2",,"South Street pier 36","New York","New York","10002",,,,,,,,,
"NYC FLEET / DSNY_MN4-1","DSNY","2","780-786","12th ave","New York","New York","10019","MANHATTAN","40.770095","-73.994621","104","6","135","1089493","1011030010","MN15"
"NYC FLEET / DSNY_MN5-1","DSNY","2","353","Spring St","New York","New York","10013","MANHATTAN","40.726159","-74.010712","102","3","37","1089625","1005967501","MN24"
"NYC FLEET / DSNY_MN7-1","DSNY","2","780","12 ave","New York","New York","10019","MANHATTAN","40.770095","-73.994621","104","6","135","1089493","1011030010","MN15"
"NYC FLEET / DSNY_MN7-2","DSNY","2","780-786","12th ave","New York","New York","10019","MANHATTAN","40.770095","-73.994621","104","6","135","1089493","1011030010","MN15"
"NYC FLEET / DSNY_MN7-3","DSNY","1","786","12th Ave","New York","New York","10019","MANHATTAN","40.770257","-73.994599","104","6","135","1027163","1011030044","MN15"
"NYC FLEET / DSNY_MN7-4","DSNY","1","786","12th Ave","New York","New York","10019","MANHATTAN","40.770257","-73.994599","104","6","135","1027163","1011030044","MN15"
"NYC FLEET / DSNY_MN7-5","DSNY","1","786","12th Ave","New York","New York","10019","MANHATTAN","40.770257","-73.994599","104","6","135","1027163","1011030044","MN15"
"NYC FLEET / DSNY_Q10-1","DSNY","2","130-23","150th Ave","Jamaica","New York","11430","QUEENS","40.664778","-73.810159","410","28","84602","4257531","4118840001","QN55"
"NYC FLEET / DSNY_Q13J-1","DSNY","1","153-67","146th Ave","Jamaica","New York","11434","QUEENS","40.664629","-73.784675","413","31","306","4433112","4150010073","QN03"
"NYC FLEET / DSNY_Q13J-2","DSNY","2","153-67","146th Ave","Jamaica","New York","11434","QUEENS","40.664629","-73.784675","413","31","306","4433112","4150010073","QN03"
"NYC FLEET / DSNY_Q14-1","DSNY","1","51-10","Almeda Ave","Queens","New York","11691","QUEENS","40.59781","-73.78309","414","31","97203","4616024","4159800100","QN12"
"NYC FLEET / DSNY_Q14-2","DSNY","2","51-10","Almeda Ave","Far Rockaway","New York","11691","QUEENS","40.59781","-73.78309","414","31","97203","4616024","4159800100","QN12"
"NYC FLEET / DSNY_Q14-3","DSNY","2","51-10","Almeda Ave","Far Rockaway","New York","11691","QUEENS","40.59781","-73.78309","414","31","97203","4616024","4159800100","QN12"
"NYC FLEET / DSNY_Q2-1","DSNY","1","52-35","58th St","Queens","New York","11377","QUEENS","40.734883","-73.909957","402","30","243","4462505","4023610268","QN50"
"NYC FLEET / DSNY_Q2-2","DSNY","2","52-35","58th St","Flushing","New York","11377","QUEENS","40.734883","-73.909957","402","30","243","4462505","4023610268","QN50"
"NYC FLEET / DSNY_Q3-1","DSNY","1","52-35","58th St","woodside","New York","11377","QUEENS","40.734883","-73.909957","402","30","243","4462505","4023610268","QN50"
"NYC FLEET / DSNY_Q4-1","DSNY","2","58-65","52nd Rd","Woodside","New York","11377","QUEENS","40.73442","-73.907602","402","30","243","4054172","4023510023","QN50"
"NYC FLEET / DSNY_Q4-2","DSNY","1","52-35","58th St","Woodside","New York","11377","QUEENS","40.734883","-73.909957","402","30","243","4462505","4023610268","QN50"
"NYC FLEET / DSNY_Q5-1","DSNY","2","47-01","48th street","Maspeth","New York","11377",,,,,,,,,
"NYC FLEET / DSNY_Q5-2","DSNY","2","47-01","48th St","Maspeth","New York","11377",,,,,,,,,
"NYC FLEET / DSNY_Q6-1","DSNY","1","58-73","53rd Ave","Queens","New York","11377","QUEENS","40.734136","-73.909403","402","30","243","4462505","4023610268","QN50"
"NYC FLEET / DSNY_Q7-1","DSNY","2","120-15","31st Ave","Flushing","New York","11354","QUEENS","40.769692","-73.847197","407","19","907","0","0","QN23"
"NYC FLEET / DSNY_Q7-2","DSNY","2","120-15","31st ave","Flushing","New York","11354","QUEENS","40.769692","-73.847197","407","19","907","0","0","QN23"
"NYC FLEET / DSNY_Q7-3","DSNY","2","30-19","122nd St","Flushing","New York","11354","QUEENS","40.770849","-73.846552","407","19","907","4570021","4043500001","QN23"
"NYC FLEET / DSNY_Q7A-1","DSNY","2","30-19","122nd St","Flushing","New York","11354","QUEENS","40.770849","-73.846552","407","19","907","4570021","4043500001","QN23"
"NYC FLEET / DSNY_Q7A-2","DSNY","2","30-19","122nd St","Flushing","New York","11354","QUEENS","40.770849","-73.846552","407","19","907","4570021","4043500001","QN23"
"NYC FLEET / DSNY_QBSROOF-1","DSNY","2","52-35","58th St","Woodside","New York","11377","QUEENS","40.734883","-73.909957","402","30","243","4462505","4023610268","QN50"
"NYC FLEET / DSNY_QBSROOF-2","DSNY","2","5207","58th St","Woodside","New York","11377","QUEENS","40.735462","-73.909675","402","30","243","4054170","4023470055","QN50"
"NYC FLEET / DSNY_QBSROOF-3","DSNY","2","52-07","58th St","Woodside","New York","11377","QUEENS","40.735462","-73.909675","402","30","243","4054170","4023470055","QN50"
"NYC FLEET / DSNY_QBSROOF-4","DSNY","1","52-35","58th St","Woodside","New York","11377","QUEENS","40.734883","-73.909957","402","30","243","4462505","4023610268","QN50"
"NYC FLEET / DSNY_QBSSHOP-1","DSNY","1","52-07","58th St","Woodside","New York","11377","QUEENS","40.735462","-73.909675","402","30","243","4054170","4023470055","QN50"
"NYC FLEET / DSNY_QBSSHOP-2","DSNY","1","5800","52nd Ave","Woodside","New York","11377","QUEENS","40.735599","-73.909412","402","30","243","0","0","QN50"
"NYC FLEET / DSNY_RBS-1","DSNY","1","2","Muldoon Ave","Staten Island","New York","10314","STATEN IS","40.575017","-74.196645","503","51","228","5158124","5059000500","SI05"
"NYC FLEET / DSNY_SI2-1","DSNY","2","2500","Richmond Ave","Heartland Village","New York","10314","STATEN IS","40.587291","-74.168234","502","51","228","5041599","5025200001","SI05"
"NYC FLEET / DSNY_SI2-2","DSNY","1","2500","Richmond Ave","Staten Island","New York","10314","STATEN IS","40.587291","-74.168234","502","51","228","5041599","5025200001","SI05"
"NYC FLEET / DSNY_SI2-3","DSNY","2","2500","Richmond Ave","Heartland Village","New York","10314","STATEN IS","40.587291","-74.168234","502","51","228","5041599","5025200001","SI05"
"NYC FLEET / DSNY_SI2-4","DSNY","1","2500","Richmond Ave","Staten Island","New York","10314","STATEN IS","40.587291","-74.168234","502","51","228","5041599","5025200001","SI05"
"NYC FLEET / DSNY_SI3-1","DSNY","2","1323","Muldoon Ave","Staten Island","New York","10314","STATEN IS","40.571144","-74.195327","503","51","228","5130986","5059000500","SI05"
"NYC FLEET / DSNY_SITS-1","DSNY","2","600","West Service Road","Staten Island","New York","10314","STATEN IS","40.583069","-74.192892","502","50","228","5141714","5026850100","SI05"
"NYC FLEET / DSNY_SPRING ST1","DSNY","2","353","Spring St","New York","New York","10014","MANHATTAN","40.726159","-74.010712","102","3","37","1089625","1005967501","MN24"
"NYC FLEET / DSNY_SPRING ST2","DSNY","2","353","Spring St","New York","New York","10014","MANHATTAN","40.726159","-74.010712","102","3","37","1089625","1005967501","MN24"
"NYC FLEET / DSNY_WASH_ST-1","DSNY","2","1595","Washington Ave","Bronx","New York","10457","BRONX","40.839498","-73.90231","203","16","167","2009477","2029040034","BX01"
"NYC FLEET / FDNY 35ST LIC#1","FDNY","1","48-34","35th St","LIC","New York","11101","QUEENS","40.740165","-73.930693","402","26","199","4003451","4002540001","QN31"
"NYC FLEET / FDNY 35ST LIC#2","FDNY","1","48-34","35th St","LIC","New York","11101","QUEENS","40.740165","-73.930693","402","26","199","4003451","4002540001","QN31"
"NYC FLEET / FDNY 35ST LIC#3","FDNY","1","48-34","35th St","LIC","New York","11101","QUEENS","40.740165","-73.930693","402","26","199","4003451","4002540001","QN31"
"NYC FLEET / FDNY-FA_B14","FDNY","1",,"Randalls Island Fire Academy","New York","New York","10035","MANHATTAN","40.795535","-73.922671","111","8","240","1000000","1018190203","MN99"
"NYC FLEET / FDNY-FA_B9","FDNY","1",,"Randalls Island Fire Academy","New York","New York","10035","MANHATTAN","40.795535","-73.922671","111","8","240","1000000","1018190203","MN99"
"NYC FLEET / FDNY121ST","FDNY","1","91-45","121st St","Queens","New York","11418","QUEENS","40.695411","-73.82626","409","29","14202","4196913","4093750007","QN54"
"NYC FLEET / FDNY35EMPIRE","FDNY","1","35","Empire Blvd","Brooklyn","New York","11205","BROOKLYN","40.663265","-73.961382","355","35","177","3029669","3011830051","BK99"
"NYC FLEET / FDNY48-58 35LIC","FDNY","1","48-58","35th St","Long Island City","New York","11101","QUEENS","40.740126","-73.9307","402","26","199","4003451","4002540001","QN31"
"NYC FLEET / FDNY9METROTECH1","FDNY","1","9","MetroTech Center","Brooklyn","New York","11201","BROOKLYN","40.69486","-73.984674","302","33","15","3058187","3020470011","BK38"
"NYC FLEET / FDNY9METROTECH2","FDNY","1","9","MetroTech Center","Brooklyn","New York","11201","BROOKLYN","40.69486","-73.984674","302","33","15","3058187","3020470011","BK38"
"NYC FLEET / FDNY9METROTECH3","FDNY","1","9","MetroTech Center","Brooklyn","New York","11201","BROOKLYN","40.69486","-73.984674","302","33","15","3058187","3020470011","BK38"
"NYC FLEET / FDNY9METROTECH4","FDNY","1","9","MetroTech Center","Brooklyn","New York","11201","BROOKLYN","40.69486","-73.984674","302","33","15","3058187","3020470011","BK38"
"NYC FLEET / FDNY9METROTECH5","FDNY","1","9","MetroTech Center","Brooklyn","New York","11201","BROOKLYN","40.69486","-73.984674","302","33","15","3058187","3020470011","BK38"
"NYC FLEET / FDNY9METROTECH6","FDNY","1","9","MetroTech Center","Brooklyn","New York","11201","BROOKLYN","40.69486","-73.984674","302","33","15","3058187","3020470011","BK38"
"NYC FLEET / FDNY9METROTECH7","FDNY","1","9","MetroTech Center","Brooklyn","New York","11201","BROOKLYN","40.69486","-73.984674","302","33","15","3058187","3020470011","BK38"
"NYC FLEET / FDNYBRIELLESI","FDNY","1","460","Brielle Ave","Staten Island","New York","10314","STATEN IS","40.593798","-74.135437","502","50","181","5141697","5009550100","SI24"
"NYC FLEET / FDNYCIHOSP","FDNY","1","2600-2698","E 6th St","Brooklyn","New York","11235","BROOKLYN","40.586579","-73.96381","313","48","370","0","0","BK19"
"NYC FLEET / FDNYE176ST","FDNY","1","453","E 176th St","Bronx","New York","10457","BRONX","40.846206","-73.899394","206","15","395","2009541","2029090040","BX01"
"NYC FLEET / FDNYFORTTOTTEN1","FDNY","1","422","Weaver Ave","Bayside","New York","11359","QUEENS","40.792928","-73.77621","407","19","999","4453946","4059170001","QN47"
"NYC FLEET / FDNYFORTTOTTEN2","FDNY","1","422","Weaver Ave","Bayside","New York","11359","QUEENS","40.792928","-73.77621","407","19","999","4453946","4059170001","QN47"
"NYC FLEET / FDNYREVIEWAVE#2","FDNY","1","30-30","Review Ave","Long Island City","New York","11101","QUEENS","40.736818","-73.939753","402","26","199","4003565","4002940173","QN31"
"NYC FLEET / MAYOR_HRO1","MAYOR","1","158-23-158-29","Cross Bay Blvd","Howard Beach","New York","11414",,,,,,,,,
"NYC FLEET / MAYOR_HRO2","MAYOR","1","158-29-158-35","Cross Bay Blvd","Howard Beach","New York","11414",,,,,,,,,
"NYC FLEET / NYCHA 23ASH1A B","NYCHA","2","23","Ash St","Greenpoint","New York","11222","BROOKLYN","40.738096","-73.954533","301","33","579","3063679","3024770060","BK76"
"NYC FLEET / NYCHA 23ASH2A B","NYCHA","2","23","Ash St","Greenpoint","New York","11222","BROOKLYN","40.738096","-73.954533","301","33","579","3063679","3024770060","BK76"
"NYC FLEET / NYCHA 23ASH3A B","NYCHA","2","23","Ash St","Greenpoint","New York","11222","BROOKLYN","40.738096","-73.954533","301","33","579","3063679","3024770060","BK76"
"NYC FLEET / NYCHA_ALSMITH","NYCHA","1",,"Robert F. Wagner Sr. Place","New York","New York","10038",,,,,,,,,
"NYC FLEET / NYCHA_LIC1A-B","NYCHA","2","37","49th Ave","LIC","New York","11101",,,,,,,,,
"NYC FLEET / NYCHA_LIC2A-B","NYCHA","2","36","49th Ave","LIC","New York","11101",,,,,,,,,
"NYC FLEET / NYCHAALSMITH02","NYCHA","2","3","St. James Pl","New York","New York","10038","MANHATTAN","40.71108","-74.000397","103","1","25","1077416","1001110100","MN27"
"NYC FLEET / NYPD_CRS_1_L3","NYPD","1","53-15","58th St","Flushing","New York","11377","QUEENS","40.733733","-73.91054","402","30","243","4054276","4023610150","QN50"
"NYC FLEET / NYPD_CRS_2_L3","NYPD","1","53-15","58th St","Flushing","New York","11377","QUEENS","40.733733","-73.91054","402","30","243","4054276","4023610150","QN50"
"NYC FLEET / NYPD105PCT-2","NYPD","2","92-08","222nd St","Queens Village","New York","11428","QUEENS","40.726329","-73.734788","413","23","560","4230132","4107370001","QN34"
"NYC FLEET / NYPD111PCT-1","NYPD","2","1964","Northern Blvd","Bayside","New York","11361",,,,,,,,,
"NYC FLEET / NYPD122PCT-1","NYPD","2","2320","Hylan Blvd","New Dorp","New York","10306","STATEN IS","40.5743","-74.105888","502","50","11202","5107580","5039060001","SI45"
"NYC FLEET / NYPD25PCT-1","NYPD","2","120","E 119th St","New York","New York","10035","MANHATTAN","40.800892","-73.941025","111","9","182","1054360","1017670062","MN34"
"NYC FLEET / NYPD44PCT-1","NYPD","2","1264","River Ave","Concourse","New York","10452","BRONX","40.837181","-73.920451","204","16","197","2003017","2024890077","BX63"
"NYC FLEET / NYPD49PCT-1","NYPD","2","2121","Eastchestr Rd","East Bronx","New York","10461","BRONX","40.856047","-73.843944","211","13","296","2097543","2042050001","BX49"
"NYC FLEET / NYPD60PCT-1","NYPD","2","2927","W 8th St","Coney Island","New York","11224","BROOKLYN","40.576822","-73.976465","313","48","354","3196591","3072790290","BK23"
"NYC FLEET / NYPD61PCT-1","NYPD","2","1016","Gravesend Neck Rd","Sheepshead Bay","New York","11223","BROOKLYN","40.59445","-73.960233","315","48","584","3200557","3073710065","BK25"
"NYC FLEET / NYPD72PCT-1","NYPD","2","830","4th Ave","Greenwood","New York","11232","BROOKLYN","40.65815","-74.00044","307","38","101","3009843","3006680029","BK32"
"NYC FLEET / NYPD73PCT-1","NYPD","2","401","Thomas S Boyland St","Brownsville","New York","11212","BROOKLYN","40.670653","-73.913955","316","41","924","3080735","3034970002","BK81"
"NYC FLEET / NYPD7PCT-1","NYPD","2","19","1/2 Pitt St","New York","New York","10002",,,,,,,,,
"NYC FLEET / NYPDACADEMY-S1","NYPD","1","3529","College Point Blvd","Flushing","New York","11354","QUEENS","40.762473","-73.835496","407","20","869","0","0","QN22"
"NYC FLEET / NYPDACADEMY-S2","NYPD","1","3529","College Point Blvd","Flushing","New York","11354","QUEENS","40.762473","-73.835496","407","20","869","0","0","QN22"
"NYC FLEET / NYPDACADEMY-S3","NYPD","1","130-30","28th Ave","Flushing","New York","11354","QUEENS","40.772829","-73.838857","407","19","907","4537931","4043270100","QN23"
"NYC FLEET / NYPDACADEMY-S4","NYPD","1","130-30","28th Ave","Flushing","New York","11354","QUEENS","40.772829","-73.838857","407","19","907","4537931","4043270100","QN23"
"NYC FLEET / NYPDBXTRAFFIC-1","NYPD","1","4223","Third Ave","New York","New York","10457","BRONX","40.84707","-73.895984","206","15","395","2000000","2030430072","BX01"
"NYC FLEET / NYPDBXTRAFFIC-2","NYPD","1","4223","Third Ave","New York","New York","10457","BRONX","40.84707","-73.895984","206","15","395","2000000","2030430072","BX01"
"NYC FLEET / NYPDERIEBASIN","NYPD","1","700","Columbia St","Red Hook","New York","11231","BROOKLYN","40.669126","-74.009776","306","38","53","3008876","3006120205","BK33"
"NYC FLEET / NYPDFSD-CRS1A-B","NYPD","2","53-01","58th St","Flushing","New York","11377","QUEENS","40.734205","-73.910298","402","30","243","4054276","4023610150","QN50"
"NYC FLEET / NYPDHQ_1PP_1_L3","NYPD","1","1","Police Plaza Path","New York","New York","10038",,,,,,,,,
"NYC FLEET / NYPDHQ_1PP_2_L3","NYPD","1","29","Avenue of the Finest","New York","New York","10038","MANHATTAN","40.710369","-74.00136","101","1","29","1001389","1001137501","MN27"
"NYC FLEET / NYPDHQ_1PP_3_L3","NYPD","1",,"Rose St","New York","New York","10038",,,,,,,,,
"NYC FLEET / NYPDHQ_1PP_4_L3","NYPD","1","1","Police Plaza Path","New York","New York","10038",,,,,,,,,
"NYC FLEET / NYPDHQ_1PP_5_L3","NYPD","1",,"Rose St","New York","New York","10038",,,,,,,,,
"NYC FLEET / NYPDHQ_1PP_6_L3","NYPD","1","17","Frankfort St","New York","New York","10038","MANHATTAN","40.710932","-74.003481","101","1","1501","0","0","MN25"
"NYC FLEET / NYPDSSD_DK_1_L3","NYPD","1","43-30","Dutch Kill street","LIC","New York","11101",,,,,,,,,
"NYC FLEET / NYPDSSHOP4_1_L3","NYPD","1","49-21","Metropolitan Ave","New York","New York","11385","QUEENS","40.713639","-73.917886","405","30","535","4059022","4026110452","QN30"
"NYC FLEET / OCME SISEAVIEW","OCME","2","460","Brielle Ave","Staten Island","New York","10314","STATEN IS","40.593798","-74.135437","502","50","181","5141697","5009550100","SI24"
"NYC FLEET / OCME_26ST-1","OCME","2","421","E 26th St","New York","New York","10016","MANHATTAN","40.738575","-73.976588","106","4","62","1087242","1009620100","MN20"
"NYC FLEET / OCME_BKLN-1","OCME","2","599","Winthrop St","East Flatbush","New York","11203","BROOKLYN","40.657723","-73.940499","309","40","808","3397939","3048120001","BK60"
"NYC FLEET / OCME_QUEENS-1","OCME","2","160-15","82nd Dr","Jamaica","New York","11432","QUEENS","40.717155","-73.805825","408","24","1267","4439812","4068580001","QN38"
"NYC FLEET / OEMHQ_1_L3","OEM","1","165","Cadman Plaza E","Downtown Brooklyn","New York","11201","BROOKLYN","40.698767","-73.98987","302","33","13","3000172","3000850006","BK38"
"NYC FLEET / OEMHQ_2_L3","OEM","1","165","Cadman Plaza E","Downtown Brooklyn","New York","11201","BROOKLYN","40.698767","-73.98987","302","33","13","3000172","3000850006","BK38"
"NYC FLEET / OEMHQARC-1","OEM","1","42","Red Cross Pl","Downtown Brooklyn","New York","11201","BROOKLYN","40.699502","-73.989556","302","33","13","0","0","BK38"
"NYC FLEET / OEMHQARC-2","OEM","1","42","Red Cross Pl","Downtown Brooklyn","New York","11201","BROOKLYN","40.699502","-73.989556","302","33","13","0","0","BK38"
"NYC FLEET / OEMHQARC-3","OEM","1","165","Cadman Plaza E","Brooklyn","New York","11201","BROOKLYN","40.698767","-73.98987","302","33","13","3000172","3000850006","BK38"
"NYC FLEET / OEMHQARC-4","OEM","1","165","Cadman Plaza E","Brooklyn","New York","11201","BROOKLYN","40.698767","-73.98987","302","33","13","3000172","3000850006","BK38"
"NYC FLEET / OEMHQCADMAN-1","OEM","1","165","Cadman Plaza E","Brooklyn","New York","11201","BROOKLYN","40.698767","-73.98987","302","33","13","3000172","3000850006","BK38"
"NYC FLEET / OEMHQCADMAN-10","OEM","1","165","Cadman Plaza E","Brooklyn","New York","11201","BROOKLYN","40.698767","-73.98987","302","33","13","3000172","3000850006","BK38"
"NYC FLEET / OEMHQCADMAN-11","OEM","1","165","Cadman Plaza E","Brooklyn","New York","11201","BROOKLYN","40.698767","-73.98987","302","33","13","3000172","3000850006","BK38"
"NYC FLEET / OEMHQCADMAN-12","OEM","1","165","Cadman Plaza E","Brooklyn","New York","11201","BROOKLYN","40.698767","-73.98987","302","33","13","3000172","3000850006","BK38"
"NYC FLEET / OEMHQCADMAN-2","OEM","1","165","Cadman Plaza E","Brooklyn","New York","11201","BROOKLYN","40.698767","-73.98987","302","33","13","3000172","3000850006","BK38"
"NYC FLEET / OEMHQCADMAN-3","OEM","1","165","Cadman Plaza E","Brooklyn","New York","11201","BROOKLYN","40.698767","-73.98987","302","33","13","3000172","3000850006","BK38"
"NYC FLEET / OEMHQCADMAN-4","OEM","1","165","Cadman Plaza E","Brooklyn","New York","11201","BROOKLYN","40.698767","-73.98987","302","33","13","3000172","3000850006","BK38"
"NYC FLEET / OEMHQCADMAN-5","OEM","1","165","Cadman Plaza E","Brooklyn","New York","11201","BROOKLYN","40.698767","-73.98987","302","33","13","3000172","3000850006","BK38"
"NYC FLEET / OEMHQCADMAN-6","OEM","1","165","Cadman Plaza E","Brooklyn","New York","11201","BROOKLYN","40.698767","-73.98987","302","33","13","3000172","3000850006","BK38"
"NYC FLEET / OEMHQCADMAN-7","OEM","1","165","Cadman Plaza E","Brooklyn","New York","11201","BROOKLYN","40.698767","-73.98987","302","33","13","3000172","3000850006","BK38"
"NYC FLEET / OEMHQCADMAN-8","OEM","1","165","Cadman Plaza E","Brooklyn","New York","11201","BROOKLYN","40.698767","-73.98987","302","33","13","3000172","3000850006","BK38"
"NYC FLEET / OEMHQCADMAN-9","OEM","1","165","Cadman Plaza E","Brooklyn","New York","11201","BROOKLYN","40.698767","-73.98987","302","33","13","3000172","3000850006","BK38"
"NYC FLEET / OEMWAREHSE_1_L3","OEM","1","930","Flushing Ave","Brooklyn","New York","11206","BROOKLYN","40.702555","-73.934382","304","34","391","3071838","3031400001","BK78"
"NYC FLEET / OEMWAREHSE_2_L3","OEM","1","930","Flushing Ave","East Williamsburg","New York","11206","BROOKLYN","40.702555","-73.934382","304","34","391","3071838","3031400001","BK78"
"NYC FLEET / PROB_340BAYST","PROB","2","340","Bay St","Tompkinsville","New York","10301","STATEN IS","40.63368","-74.075159","501","49","21","5013302","5005030032","SI37"
