"projectid","buildingid","reportingconstructiontype","boroid","block","lot","bin","housenumber","streetname","countedrentalunits","countedhomeownershipunits","allcountedunits","totalbuildingunits","basesquarefootage","stories","bbl","community_board_cb","council_district","census_tract","nta","latitude","longitude","postcode"
"44218","987329","New Construction","1","1790","1","1054691","2319","3 AVENUE","297","0","297","404","35436","19","1017900046","111","8","242","East Harlem North","40.804265","-73.93539","10035"
"44223","927737","New Construction","3","1556","3","3000000","335","RALPH AVENUE","0","13","13","13","1989","7","3015560003","303","41","301","Ocean Hill","40.677644","-73.921745","11233"
"44223","969695","New Construction","3","1709","10","3000000","35","ROCHESTER AVENUE","0","8","8","8","1720","4","3017090010","303","36","299","Crown Heights North","40.677925","-73.927466","11233"
"44223","975702","New Construction","3","1709","27","3000000","18-22","SUYDAM PLACE","0","15","15","15","2778","4","3017090027","303","36","299","Crown Heights North","40.677823","-73.926554","11233"
"44223","977564","New Construction","3","1556","8",,"329/331","RALPH AVENUE","0","10","10","10","2925","5",,,,,,,,
"44225","927748","New Construction","2","2292","7501","2129098","469","EAST 147 STREET","11","0","11","11","2249","7","2022927501","201","8","43","Mott Haven-Port Morris","40.813854","-73.9164","10455"
"44225","955261","New Construction","2","2292","50","2000000","455","EAST 147 STREET","55","0","55","55","10000","5","2022927501","201","8","43","Mott Haven-Port Morris","40.813948","-73.916682","10455"
"44230","336111","New Construction","3","7014","53","3000000","2427","MERMAID AVENUE","2","1","3","3","2451","3","3070140053","313","47","326","Seagate-Coney Island","40.575896","-73.99149","11224"
"44230","336151","New Construction","3","7048","6","3000000","3216","MERMAID AVENUE","2","1","3","3","3135","3","3070480006","313","47","342","Seagate-Coney Island","40.575062","-73.998834","11224"
"44230","394346","New Construction","3","7021","16","3425388","2816","WEST 16 STREET","2","1","3","3","3825","3","3070210016","313","47","326","Seagate-Coney Island","40.57844","-73.984045","11224"
"44230","927137","New Construction","3","7014","52","3188890","2425","MERMAID AVENUE","2","1","3","3","2881","3","3070140052","313","47","326","Seagate-Coney Island","40.575896","-73.991476","11224"
"44230","967108","New Construction","3","6978","22","3413785","3566","CANAL AVENUE","2","1","3","3","2881","3","3069780022","313","47","330","Seagate-Coney Island","40.579028","-74.00238","11224"
"44230","967109","New Construction","3","7021","17","3425387","2818","WEST 16 STREET","2","1","3","3","3825","3","3070210017","313","47","326","Seagate-Coney Island","40.578407","-73.984038","11224"
"44230","967127","New Construction","3","6978","21","3413786","3568","CANAL AVENUE","2","1","3","3","2809","3","3069780021","313","47","330","Seagate-Coney Island","40.579028","-74.002383","11224"
"44239","927150","New Construction","1","1911","61","1090253","2139","ADAM C POWELL JR BOULEVARD","60","0","60","60","9000","10","1019110061","110","9","224","Central Harlem North-Polo Grounds","40.81014","-73.947461","10027"
"44249","927160","New Construction","2","3146","67","2117807","2311","TIEBOUT AVENUE","0","0","0","20","3036","7","2031460067","205","15","38301","Fordham South","40.856961","-73.897031","10458"
"44250","927161","New Construction","3","1028","7","3000000","487","4 AVENUE","0","0","0","8","2571","2","3010280007","306","39","139","Park Slope-Gowanus","40.668453","-73.990289","11215"
"44256","988143","New Construction","1","1863","5","1000000","137-159","WEST 108 STREET","199","0","199","199","1000","11","1018630017","107","7","193","Morningside Heights","40.801083","-73.963173","10025"
"44258","927117","New Construction","1","1846","55","1089839","312","WEST 112 STREET","0","0","0","8","12410","5","1018460055","110","9","19702","Central Harlem South","40.801995","-73.957585","10026"
"44258","928028","New Construction","1","1831","21","1089848","215","WEST 115 STREET","0","0","0","5","6250","4","1018310021","110","9","218","Central Harlem South","40.802899","-73.95386","10026"
"44258","928029","New Construction","1","1922","58","1090566","274","WEST 117 STREET","0","0","0","8","11940","4","1019220058","110","9","218","Central Harlem South","40.804782","-73.954148","10026"
"44258","969720","New Construction","1","1831","47","1089849","228","WEST 116 STREET","0","0","0","10","9226","6","1018310047","110","9","218","Central Harlem South","40.803777","-73.953867","10026"
"44265","957381","New Construction","3","5295","4","3395126","1204","37 STREET","0","4","4","4","800","4","3052950004","312","39","226","Borough Park","40.64283","-73.986941","11218"
"44265","957382","New Construction","3","5295","104","3395127","1208","37 STREET","0","4","4","4","800","4","3052950104","312","39","226","Borough Park","40.642792","-73.986877","11218"
"44265","957383","New Construction","3","5295","105","3395128","1214","37 STREET","0","4","4","4","800","4","3052950105","312","39","226","Borough Park","40.642737","-73.986783","11218"
"44265","957384","New Construction","3","5295","106","3395129","1220","37 STREET","0","4","4","4","800","4","3052950106","312","39","226","Borough Park","40.642679","-73.986689","11218"
"44265","957387","New Construction","3","5295","107","3395130","1226","37 STREET","0","4","4","4","800","4","3052950107","312","39","226","Borough Park","40.642622","-73.986596","11218"
"44265","957388","New Construction","3","5295","108","3395131","1232","37 STREET","0","4","4","4","800","4","3052950108","312","39","226","Borough Park","40.642567","-73.986502","11218"
"44265","957389","New Construction","3","5295","111","3395134","1264","37 STREET","0","4","4","4","800","4","3052950111","312","39","226","Borough Park","40.642262","-73.985997","11218"
"44265","957390","New Construction","3","5295","112","3395135","1270","37 STREET","0","4","4","4","800","4","3052950112","312","39","226","Borough Park","40.642205","-73.985904","11218"
"44265","957420","New Construction","3","5295","113","3395136","1276","37 STREET","0","4","4","4","800","4","3052950113","312","39","226","Borough Park","40.64215","-73.98581","11218"
"44280","928040","New Construction","2","2383","19","2001510","432","EAST 162 STREET","199","0","199","199","19125","12","2023837501","203","17","141","Morrisania-Melrose","40.824457","-73.912459","10451"
"44281","980874","New Construction","3","4375","1","3425901","924","HENDRIX PLACE","31","0","31","31","7000","4","3043750001","305","42","1106","East New York","40.658302","-73.882849","11207"
"44281","981192","New Construction","3","4375","1","3425900","910","HENDRIX PLACE","31","0","31","31","7000","4","3043750001","305","42","1106","East New York","40.65867","-73.88313","11207"
"44281","981457","New Construction","3","4375","1","3413779","879","VAN SICLEN AVENUE","27","0","27","27","7000","4","3043750001","305","42","1106","East New York","40.658484","-73.884143","11207"
"44281","981458","New Construction","3","4375","1","3413778","869","VAN SICLEN AVENUE","31","0","31","31","7000","4","3043750001","305","42","1106","East New York","40.658652","-73.884265","11207"
"44281","981459","New Construction","3","4375","1","3413737","656","STANLEY AVENUE","31","0","31","31","7000","4","3043750001","305","42","1106","East New York","40.659132","-73.884397","11207"
"44281","981460","New Construction","3","4375","1","3413736","271","WORTMAN AVENUE","89","0","89","89","10000","7","3043750001","305","42","1106","East New York","40.657778","-73.883084","11207"
"44282","973906","New Construction","1","716","7506","1000000","425","WEST 18 STREET","160","0","160","160","11040","18","1007167506","104","3","89","Hudson Yards-Chelsea-Flatiron-Union Square","40.743962","-74.004735","10011"
"44285","331134","New Construction","3","1641","68","3000000","633","MADISON STREET","1","1","2","2","4094","3","3016410068","303","36","293","Stuyvesant Heights","40.686892","-73.931765","11221"
"44285","927191","New Construction","3","1795","15","3000000","22","VAN BUREN STREET","1","1","2","2","2943","3","3017950015","303","36","263","Bedford","40.689937","-73.944263","11221"
"44285","927618","New Construction","3","1801","8","3000000","666","GREENE AVENUE","1","1","2","2","3256","4","3018010008","303","36","279","Stuyvesant Heights","40.689469","-73.941797","11221"
"44285","927624","New Construction","3","1791","17","3425327","716","LAFAYETTE AVENUE","1","1","2","2","3156","3","3017910017","303","36","263","Bedford","40.69067","-73.944382","11221"
"44285","927625","New Construction","3","1791","18","3425328","718","LAFAYETTE AVENUE","1","1","2","2","3067","3","3017910018","303","36","263","Bedford","40.690676","-73.944321","11221"
"44285","927626","New Construction","3","1791","19","3425329","720","LAFAYETTE AVENUE","1","1","2","2","3156","3","3017910019","303","36","263","Bedford","40.690684","-73.944259","11221"
"44285","927981","New Construction","3","1814","15","3000000","494","GATES AVENUE","1","1","2","2","3150","3","3018140015","303","36","265","Bedford","40.686697","-73.946354","11216"
"44285","927982","New Construction","3","1789","80","3000000","327","CLIFTON PLACE","1","1","2","2","3920","3","3017890080","303","36","251","Bedford","40.689254","-73.950333","11216"
"44285","972362","New Construction","3","1852","9","3425165","461","TOMPKINS AVENUE","1","1","2","2","3280","3","3018520009","303","36","269","Bedford","40.681604","-73.943553","11216"
"44285","972363","New Construction","3","1852","8","3000000","463","TOMPKINS AVENUE","1","1","2","2","3280","3","3018520008","303","36","269","Bedford","40.681538","-73.943539","11216"
"44288","946784","New Construction","3","1450","7501","3000000","203","MOTHER GASTON BOULEVARD","0","4","4","4","5139","4","3014500008","316","37","36502","Ocean Hill","40.674439","-73.908312","11233"
"44288","947359","New Construction","3","1450","8","3000000","2390","DEAN STREET","0","3","3","3","5240","4","3014500008","316","37","36502","Ocean Hill","40.674579","-73.907955","11233"
"44288","947360","New Construction","3","1450","8","3000000","2394","DEAN STREET","0","4","4","4","5282","4","3014500008","316","37","36502","Ocean Hill","40.674573","-73.907858","11233"
"44288","947361","New Construction","3","1450","8","3000000","2398","DEAN STREET","0","4","4","4","4499","4","3014500008","316","37","36502","Ocean Hill","40.674568","-73.90776","11233"
"44295","965149","New Construction","3","3850","5","3000000","679","VAN SINDEREN AVENUE","102","0","102","102","18180","7","3038500005","305","42","1132","East New York (Pennsylvania Ave)","40.659906","-73.899419","11207"
"44295","965150","New Construction","3","3865","24",,"170","NEW LOTS AVENUE","28","0","28","28","6534","7",,"305","42","1132","East New York (Pennsylvania Ave)","40.659157","-73.899099","11207"
"44303","927939","New Construction","3","4309","1","3397178","660","JEROME STREET","0","0","0","51","7188","4","3043090001","305","42","1122","East New York (Pennsylvania Ave)","40.664352","-73.884169","11207"
"44306","926973","New Construction","3","2270","10","3425062","640","BROADWAY","0","0","0","7","7500","5","3022700010","301","33","507","Bedford","40.702687","-73.945335","11206"
"44319","927209","New Construction","3","2785","42","3251772","37","MAUJER STREET","10","0","10","10","2500","4","3027850042","301","34","513","North Side-South Side","40.710342","-73.949819","11206"
"44319","955279","New Construction","3","2791","35","3251778","37","TEN EYCK STREET","6","0","6","6","2300","4","3027910035","301","34","513","North Side-South Side","40.709669","-73.949329","11206"
"44319","955280","New Construction","3","2791","37","3000000","33","TEN EYCK STREET","18","0","18","18","7500","4","3027910037","301","34","513","North Side-South Side","40.709658","-73.949466","11206"
"44319","955283","New Construction","3","2430","24","3397101","356","BEDFORD AVENUE","19","0","19","19","10000","4","3024307501","301","34","551","North Side-South Side","40.712164","-73.962789","11249"
"44324","927213","New Construction","1","1081","7501","1090143","525","WEST 52 STREET","103","0","103","103","14600","7","1010817501","104","3","135","Clinton","40.766507","-73.992217","10019"
"44332","973750","New Construction","3","1468","56","3000000","1900A","PARK PLACE","0","7","7","7","1927","4","3014680056","316","41","363","Ocean Hill","40.671483","-73.914794","11233"
"44332","973751","New Construction","3","1468","56","3000000","1900B","PARK PLACE","0","10","10","10","3097","4","3014680056","316","41","363","Ocean Hill","40.671483","-73.914794","11233"
"44332","975662","New Construction","3","1468","63","3000000","416","THOMAS S BOYLAND STREET","0","8","8","8","2479","4","3014680063","316","41","363","Ocean Hill","40.67101","-73.914128","11233"
"44333","955937","New Construction","2","2874","27","2000000","1450","PLIMPTON AVENUE","62","0","62","62","15000","7","2028740027","204","16","21302","Highbridge","40.843998","-73.922008","10452"
"44339","974382","New Construction","2","2384","7501","2001528","443","EAST 162 STREET","305","0","305","305","53666","12","2023840123","203","17","141","Morrisania-Melrose","40.824479","-73.91247","10451"
"44340","927586","New Construction","3","4065","22","3000000","617","CLEVELAND STREET","1","1","2","2","832","3","3040650022","305","42","1164","East New York","40.669188","-73.883068","11208"
"44340","927678","New Construction","3","3767","10","3000000","291","HINSDALE STREET","2","1","3","3","3374","3","3037670010","305","42","1134","East New York (Pennsylvania Ave)","40.667974","-73.89967","11207"
"44340","965968","New Construction","3","3767","11","3252578","289","HINSDALE STREET","2","1","3","3","3146","3","3037670011","305","42","1134","East New York (Pennsylvania Ave)","40.668009","-73.899681","11207"
"44340","965970","New Construction","3","3767","13","3000000","285","HINSDALE STREET","2","1","3","3","1109","3","3037670013","305","42","1134","East New York (Pennsylvania Ave)","40.668083","-73.899698","11207"
"44340","969937","New Construction","3","4050","25","3000000","586","LINWOOD STREET","1","1","2","2","768","3","3040500025","305","42","1164","East New York","40.670822","-73.881818","11208"
"44340","969938","New Construction","3","4067","8",,"669","LINWOOD STREET","1","1","2","2","1044","3",,"305","42","1164","East New York","40.66887","-73.881295","11208"
"44340","969939","New Construction","3","4058","18","3089994","806","BLAKE AVENUE","1","1","2","2","1018","3","3040580018","305","42","1160","East New York","40.668721","-73.8888","11207"
"44340","969940","New Construction","3","4081","23","3252950","980","DUMONT AVENUE","1","1","2","2","670","3","3040810023","305","42","1120","East New York","40.668078","-73.882374","11208"
"44340","969941","New Construction","3","3767","12","3000000","287","HINSDALE STREET","2","1","3","3","1049","3","3037670012","305","42","1134","East New York (Pennsylvania Ave)","40.668048","-73.899691","11207"
"44340","969942","New Construction","3","4060","16",,"846","BLAKE AVENUE","1","1","2","2","685","3",,"305","42","1160","East New York","40.668956","-73.887225","11207"
"44340","969943","New Construction","3","4062","31","3000000","588","WARWICK STREET","1","1","2","2","866","3","3040620031","305","42","1162","East New York","40.668821","-73.884687","11207"
"44340","969960","New Construction","3","4060","16",,"848","BLAKE AVENUE","1","1","2","2","894","3",,"305","42","1160","East New York","40.668964","-73.887167","11207"
"44340","969961","New Construction","3","4062","30","3000000","586","WARWICK STREET","1","1","2","2","870","3","3040620030","305","42","1162","East New York","40.668865","-73.884698","11207"
"44348","950310","New Construction","2","2582","7502","2128607","501","SOUTHERN BOULEVARD","136","0","136","136","25000","13","2025827502","201","8","31","Mott Haven-Port Morris","40.811296","-73.9054","10455"
"44350","928130","New Construction","2","2867","125","2128716","92","WEST TREMONT AVENUE","0","0","0","61","37750","7","2028670125","205","14","217","University Heights-Morris Heights","40.85032","-73.912534","10453"
"44353","926997","New Construction","2","2814","73","2007780","280","EAST BURNSIDE AVENUE","40","0","40","40","52183","13","2028140073","205","15","381","Mount Hope","40.851217","-73.90201","10457"
"44353","939117","New Construction","2","3186","76","2128908","2247","WALTON AVENUE","50","0","50","50","4595","11","2031860076","205","14","239","Fordham South","40.857477","-73.90335","10453"
"44357","958188","New Construction","1","1808","10","1089835","401","EAST 120 STREET","179","0","179","179","27853","12","1018080010","111","8","192","East Harlem North","40.798511","-73.933326","10035"
"44362","947316","New Construction","2","3805","7501","2127430","2026","WESTCHESTER AVENUE","0","0","0","134","16752","7","2038057501","209","18","92","Westchester-Unionport","40.833662","-73.856695","10462"
"44369","927815","New Construction","3","1451","42","3420444","404","HOWARD AVENUE","0","0","0","14","2194","4","3014510042","316","41","303","Ocean Hill","40.673937","-73.919514","11233"
"44369","927816","New Construction","3","1452","1","3420448","1459","ST. MARKS AVENUE","0","0","0","7","1809","4","3014520001","316","41","303","Ocean Hill","40.673528","-73.919125","11233"
"44369","943963","New Construction","3","1451","48","3420446","414","HOWARD AVENUE","0","0","0","7","2073","4","3014510048","316","41","303","Ocean Hill","40.673676","-73.919539","11233"
"44369","976936","New Construction","3","1447","67","3424209","1969","BERGEN STREET","0","0","0","16","2907","5","3014470067","316","41","303","Ocean Hill","40.674225","-73.915533","11233"
"44388","958153","New Construction","2","3171","13","2013863","2264","MORRIS AVENUE","94","0","94","94","8572","11","2031710013","205","14","23704","Fordham South","40.857456","-73.902308","10453"
"44405","973259","New Construction","3","2107","7501","3424470","590","FULTON STREET","0","0","0","586","23146","52","3021077501","302","35","33","Fort Greene","40.688091","-73.97891","11217"
"44409","927022","New Construction","2","2984","46","2124684","1825","BOSTON ROAD","108","0","108","108","17752","8","2029847503","203","17","161","Crotona Park East","40.838878","-73.885209","10460"
"44431","965100","New Construction","2","3805","7502","2000000","2044","WESTCHESTER AVENUE","82","0","82","82","94302","11","2038050124","209","18","92","Westchester-Unionport","40.833705","-73.856301","10462"
"44431","974694","New Construction","2","3805","123",,"2035","NEWBOLD AVENUE","124","0","124","124","112109","10",,"209","18","92","Westchester-Unionport","40.832722","-73.856202","10462"
"44602","927742","New Construction","3","3487","21","3326569","137","JAMAICA AVENUE","54","0","54","54","47000","5","3034870021","305","37","114201","Cypress Hills-City Line","40.679152","-73.895291","11207"
"44865","969852","New Construction","2","3140","2","2119487","1041","EAST 179 STREET","0","0","0","65","3194","8","2031400002","206","15","361","East Tremont","40.841468","-73.878641","10460"
"44888","949804","New Construction","2","3355","121","2128753","3349","WEBSTER AVENUE","0","0","0","115","9873","8","2033550121","207","11","42902","Norwood","40.87774","-73.871871","10467"
"45223",,"New Construction",,,,,,,"0","0","0","0","0","6",,,,,,,,
"45223",,"New Construction",,,,,,,"0","0","0","0","0","6",,,,,,,,
"45265","38122","Preservation","1","1829","38","1055164","214","WEST 114 STREET","0","0","0","70","4900","5","1018290038","110","9","216","Central Harlem South","40.802194","-73.954153","10026"
"45265","38135","Preservation","1","1829","50","1055174","234","WEST 114 STREET","0","0","0","98","6200","5","1018290050","110","9","216","Central Harlem South","40.802361","-73.954557","10026"
"45280","935092","New Construction","2","2690","7503","2128714","899","WESTCHESTER AVENUE","0","0","0","141","21195","8","2026907503","202","17","12901","Longwood","40.821031","-73.899024","10459"
"45301","941593","New Construction","1","1652","7501","1088906","222","EAST 104 STREET","0","0","0","89","27500","11","1016527501","111","8","164","East Harlem South","40.789956","-73.944956","10029"
"45303","949086","New Construction","3","1458","140","3425174","1765","PROSPECT PLACE","78","0","78","78","13748","6","3014580140","316","41","363","Ocean Hill","40.672564","-73.917922","11233"
"45303","972798","New Construction","3","1458","52","3425177","1751","PROSPECT PLACE","32","0","32","32","8214","4","3014580052","316","41","363","Ocean Hill","40.672569","-73.917983","11233"
"45326","934081","New Construction","2","2991","5","2000000","1776","BOSTON ROAD","73","0","73","73","1600","8","2029910005","203","17","161","Crotona Park East","40.837938","-73.886812","10460"
"45578","25214","Preservation","1","1846","7504","1055757","272","MANHATTAN AVENUE","0","0","0","57","8463","7","1018467504","110","9","19702","Central Harlem South","40.802031","-73.959","10026"
"45675","934659","New Construction","2","3310","29","2120106","3114","VILLA AVENUE","0","0","0","57","3313","9","2033100029","207","11","411","Bedford Park-Fordham North","40.874705","-73.887711","10468"
"45677","935209","New Construction","3","5088","30","3000000","226","LINDEN BOULEVARD","0","0","0","72","4631","9","3050880030","317","40","820","Prospect Lefferts Gardens-Wingate","40.652584","-73.950731","11226"
"46076","934663","New Construction","2","3360","7501","2128358","3560","WEBSTER AVENUE","0","0","0","135","12362","13","2033607501","212","11","435","park-cemetery-etc-Bronx","40.88086","-73.870646","10467"
"46143","958172","New Construction","2","3016","7502","2000000","1939","WEST FARMS ROAD","153","0","153","153","287164","14","2030160050","206","17","359","East Tremont","40.839162","-73.880594","10460"
"46143","976480","New Construction","2","3016","7502","2000000","1926","LONGFELLOW AVENUE","28","0","28","28","79176","8","2030160038","206","17","359","East Tremont","40.839388","-73.881771","10460"
"46264","954550","New Construction","3","1859","7501","3000000","27","ALBANY AVENUE","0","0","0","50","53821",,"3018590001","303","36","273","Stuyvesant Heights","40.680089","-73.938402","11216"
"46299","957262","New Construction","3","1384","52","3413922","1339","LINCOLN PLACE","0","0","0","87","6492","12","3013840052","308","35","351","Crown Heights North","40.669814","-73.932247","11213"
"47767","49424","Preservation","2","3080","82","2012339","2076","BELMONT AVENUE","0","0","0","15","0","5","2030800082","206","15","373","East Tremont","40.848179","-73.890123","10457"
"47767","49429","Preservation","2","3081","13","2012356","2121","BELMONT AVENUE","0","0","0","19","0","5","2030810013","206","15","373","East Tremont","40.849172","-73.889446","10457"
"47767","70285","Preservation","2","4838","21","2063397","755","EAST 224 STREET","0","0","0","7","1580","3","2048380021","212","12","406","Williamsbridge-Olinville","40.886621","-73.859319","10466"
"47767","70287","Preservation","2","4838","20","2063396","757","EAST 224 STREET","0","0","0","7","1580","3","2048380020","212","12","406","Williamsbridge-Olinville","40.886607","-73.859275","10466"
"47767","70671","Preservation","2","4850","51","2063899","812","EAST 226 STREET","0","0","0","6","1507","3","2048500051","212","12","406","Williamsbridge-Olinville","40.887372","-73.856522","10466"
"47772","9980","Preservation","1","2062","14","1061438","400","CONVENT AVENUE","0","0","0","39","9992","6","1020620014","109","7","231","Hamilton Heights","40.826047","-73.945219","10031"
"47805","59179","Preservation","2","3171","37","2092415","2239","CRESTON AVENUE","0","0","0","28","3938","5","2031710037","205","14","23704","Fordham South","40.85672","-73.901576","10453"
"47805","59205","Preservation","2","3172","28","2013889","2323","CRESTON AVENUE","0","0","0","37","5044","5","2031720028","205","14","23703","Fordham South","40.858465","-73.900532","10468"
"47805","59207","Preservation","2","3172","25","2013888","2333","CRESTON AVENUE","0","0","0","30","4435","5","2031720025","205","14","23703","Fordham South","40.858649","-73.90042","10468"
"47805","806404","Preservation","2","3171","37","2092414","2241","CRESTON AVENUE","0","0","0","27","3889","5","2031710037","205","14","23704","Fordham South","40.856753","-73.901558","10453"
"47838","308509","Preservation","3","1594","39","3043084","340","HART STREET","0","0","0","2","800","2","3015940039","303","36","281","Stuyvesant Heights","40.694397","-73.938043","11206"
"47838","321654","Preservation","3","1601","68","3043233","375","KOSCIUSZKO STREET","0","0","0","4","1380","3","3016010068","303","36","281","Stuyvesant Heights","40.692002","-73.939451","11221"
"47838","321766","Preservation","3","1607","26","3043454","540","KOSCIUSZKO STREET","0","0","0","6","2500","3","3016070026","303","36","289","Stuyvesant Heights","40.692791","-73.932476","11221"
"47838","322548","Preservation","3","1606","74","3043431","903","LAFAYETTE AVENUE","0","0","0","2","855","3","3016060074","303","36","289","Stuyvesant Heights","40.691646","-73.936058","11221"
"47838","322621","Preservation","3","1607","68","3043486","981","LAFAYETTE AVENUE","0","0","0","3","1100","3","3016070068","303","36","289","Stuyvesant Heights","40.692034","-73.932694","11221"
"47838","322622","Preservation","3","1607","67","3043485","983","LAFAYETTE AVENUE","0","0","0","3","1100","3","3016070067","303","36","289","Stuyvesant Heights","40.692039","-73.932629","11221"
"47838","357508","Preservation","3","1594","65","3043098","315","PULASKI STREET","0","0","0","8","1825","4","3015940065","303","36","281","Stuyvesant Heights","40.69364","-73.938242","11206"
"47838","378847","Preservation","3","1589","47","3042950","22","STUYVESANT AVENUE","0","0","0","8","2100","4","3015890047","303","36","287","Stuyvesant Heights","40.695801","-73.934619","11221"
"47838","379255","Preservation","3","1594","3","3043067","143","MARCUS GARVEY BOULEVARD","0","0","0","7","1430","4","3015940003","303","36","281","Stuyvesant Heights","40.693654","-73.940153","11206"
"47841","59988","Preservation","2","2939","1","2000000","1490","CROTONA PARK EAST","39","0","39","39","7646","6","2029420001","203","17","153","Crotona Park East","40.835654","-73.894947","10460"
"47850","63567","Preservation","2","2274","34","2000116","539","EAST 147 STREET","0","0","0","11","1937","5","2022740034","201","8","43","Mott Haven-Port Morris","40.813081","-73.914082","10455"
"47850","63568","Preservation","2","2274","33","2000115","541","EAST 147 STREET","0","0","0","10","1937","5","2022740033","201","8","43","Mott Haven-Port Morris","40.812974","-73.913753","10455"
"47858","65623","Preservation","2","2939","100","2009868","800","EAST 173 STREET","0","0","0","27","20530","5","2029390100","203","17","155","Crotona Park East","40.836781","-73.890475","10460"
"47861","396594","Preservation","3","3207","8","3072879","992","WILLOUGHBY AVENUE","0","0","0","8","2375","4","3032070008","304","34","423","Bushwick South","40.698685","-73.929243","11221"
"47862","112023","Preservation","2","2523","150","2003424","1015","SUMMIT AVENUE","0","0","0","37","6788","6","2025230150","204","8","189","Highbridge","40.833688","-73.929941","10452"
"47868","42098","Preservation","1","2033","21","1060529","211","WEST 147 STREET","0","12","12","12","3747","5","1020330021","110","9","234","Central Harlem North-Polo Grounds","40.823233","-73.938812","10039"
"47878","19629","Preservation","1","1643","51","1052261","152","EAST 116 STREET","0","9","9","9","0","5","1016430051","111","8","182","East Harlem North","40.79843","-73.941186","10029"
"47888","20827","Preservation","1","1753","49","1054195","46","EAST 129 STREET","0","10","10","10","3747","5","1017530049","111","9","206","Central Harlem North-Polo Grounds","40.80812","-73.938439","10035"
"47948","49241","Preservation","2","2707","42","2005521","748","BECK STREET","0","10","10","10","15300","5","2027070042","202","8","85","Longwood","40.816157","-73.898897","10455"
"47960","51236","Preservation","2","3293","39","2016794","2600","BRIGGS AVENUE","0","0","0","36","7898","5","2032930039","207","15","39901","Bedford Park-Fordham North","40.864151","-73.893307","10458"
"47960","59221","Preservation","2","3165","22","2013793","2414","CRESTON AVENUE","0","0","0","30","6563","5","2031650022","205","14","23703","Fordham South","40.860904","-73.899129","10468"
"47960","81557","Preservation","2","3209","45","2014559","2333","GRAND AVENUE","0","0","0","44","9000","6","2032090045","207","14","253","Kingsbridge Heights","40.860771","-73.90465","10468"
"47960","114432","Preservation","2","3145","26","2013410","2279","TIEBOUT AVENUE","0","0","0","15","2872","4","2031450026","205","15","38301","Fordham South","40.856214","-73.89751","10457"
"47962","60640","Preservation","2","2695","40","2005336","753","DAWSON STREET","11","0","11","11","2731","5","2026950040","202","17","85","Longwood","40.817376","-73.900098","10455"
"47962","109771","Preservation","2","2723","29","2005762","914","SIMPSON STREET","31","0","31","31","6977","5","2027230029","202","17","89","Hunts Point","40.820288","-73.893432","10459"
"48002","210828","Preservation","3","3305","19","3075614","64","BLEECKER STREET","0","0","0","3","1563","3","3033050019","304","34","419","Bushwick South","40.694341","-73.921981","11221"
"48002","230079","Preservation","3","3248","11","3073908","1560","DEKALB AVENUE","0","0","0","5","1615","3","3032480011","304","37","445","Bushwick North","40.703159","-73.920351","11237"
"48002","302967","Preservation","3","3456","45","3080321","27","GRANITE STREET","0","0","0","5","1648","3","3034560045","304","37","403","Bushwick South","40.682522","-73.907829","11207"
"48002","303837","Preservation","3","3287","40","3413942","1285","GREENE AVENUE","0","0","0","5","1373","3","3032870040","304","37","431","Bushwick North","40.697927","-73.919665","11237"
"48002","303867","Preservation","3","3289","44","3075122","1351","GREENE AVENUE","0","0","0","6","1953","3","3032890044","304","37","431","Bushwick North","40.699761","-73.91786","11237"
"48002","340299","Preservation","3","3012","8","3070725","26","MORGAN AVENUE","0","0","0","5","1494","3","3030120008","301","34","453","Bushwick North","40.704673","-73.931415","11237"
"48002","377625","Preservation","3","3246","38","3073844","195","STOCKHOLM STREET","0","0","0","5","1600","3","3032460038","304","37","429","Bushwick North","40.700138","-73.922173","11237"
"48002","396127","Preservation","3","3209","12","3072931","1116","WILLOUGHBY AVENUE","0","0","0","4","1375","3","3032090012","304","34","429","Bushwick North","40.701436","-73.925558","11237"
"48002","396200","Preservation","3","3211","17","3072995","1344","WILLOUGHBY AVENUE","0","0","0","3","1478","3","3032110017","304","34","445","Bushwick North","40.706233","-73.92082","11237"
"48002","398306","Preservation","3","3320","1","3075982","279","WYCKOFF AVENUE","0","0","0","2","2219","3","3033200001","304","37","441","Bushwick North","40.700848","-73.913437","11237"
"48002","398316","Preservation","3","3329","1","3076194","299","WYCKOFF AVENUE","0","0","0","3","1500","3","3033290001","304","37","441","Bushwick North","40.700427","-73.912676","11237"
"48003","90415","New Construction","2","3515","1","2092605","1711","LACOMBE AVENUE","0","0","0","120","18353","1","2035150001","209","18","20","Soundview-Castle Hill-Clason Point-Harding Park","40.814473","-73.865804","10473"
"48011","45506","Preservation","2","2878","61","2009001","1641","ANDREWS AVENUE SOUTH","60","0","60","60","55750","5","2028780061","205","14","21501","University Heights-Morris Heights","40.848236","-73.919411","10453"
"48012","939257","New Construction","2","3515","40","2127010","391","BRONX RIVER AVENUE","0","0","0","86","11802",,"2035150040","209","18","20","Soundview-Castle Hill-Clason Point-Harding Park","40.814436","-73.866773","10473"
"48013","59349","Preservation","2","3748","59","2024101","1131","CROES AVENUE","0","0","0","4","1640","2","2037480059","209","18","68","Soundview-Bruckner","40.827947","-73.870305","10472"
"48013","60013","Preservation","2","2948","28","2000000","701","CROTONA PARK NORTH","0","0","0","24","3675","5","2029420001","206","17","36902","East Tremont","40.842114","-73.893953","10457"
"48013","60014","Preservation","2","2948","25","2000000","705","CROTONA PARK NORTH","0","0","0","20","2866","5","2029420001","206","17","36902","East Tremont","40.842059","-73.893863","10457"
"48013","60061","Preservation","2","2985","23","2010620","1922","CROTONA PARKWAY","0","0","0","17","4512","4","2029850023","206","17","359","East Tremont","40.841261","-73.885534","10460"
"48014","88674","Preservation","2","2935","1","2009764","625","JEFFERSON PLACE","16","0","16","16","2548","5","2029350001","203","16","149","Morrisania-Melrose","40.833537","-73.90032","10456"
"48014","113781","Preservation","2","2373","43","2091169","3531","3 AVENUE","14","0","14","14","2734","4","2023730043","203","16","145","Claremont-Bathgate","40.831472","-73.905653","10456"
"48038","35779","Preservation","1","1211","7","1031954","165","WEST 80 STREET","29","0","29","29","0","5","1012110007","107","6","165","Upper West Side","40.783556","-73.977157","10024"
"48049","2630","Preservation","1","1751","71","1054129","2049","5 AVENUE","0","0","0","24","4400","7","1017510071","111","9","206","Central Harlem North-Polo Grounds","40.807422","-73.941517","10035"
"48049","28357","Preservation","1","1954","15","1059377","8","ST NICHOLAS TERRACE","0","0","0","10","2652","5","1019540015","109","9","21303","Manhattanville","40.812683","-73.951946","10027"
"48049","38114","Preservation","1","1823","41","1055024","110","WEST 114 STREET","0","0","0","10","2210","5","1018230041","110","9","216","Central Harlem South","40.801029","-73.951391","10026"
"48049","41031","Preservation","1","2023","13","1060205","241","WEST 137 STREET","0","0","0","5","1140","5","1020230013","110","9","228","Central Harlem North-Polo Grounds","40.817148","-73.94403","10030"
"48049","42401","Preservation","1","2036","24","1060593","271","WEST 150 STREET","0","0","0","11","3230","5","1020360024","110","9","236","Central Harlem North-Polo Grounds","40.825533","-73.93847","10039"
"48128","38344","Preservation","1","1922","13","1058372","235","WEST 116 STREET","16","0","16","16","3205","6","1019220013","110","9","218","Central Harlem South","40.80386","-73.954018","10026"
"48128","38996","Preservation","1","1927","15","1058502","229","WEST 121 STREET","21","0","21","21","4172","4","1019270015","110","9","220","Central Harlem South","40.806845","-73.951202","10027"
"48128","40547","Preservation","1","1918","23","1058224","119","WEST 133 STREET","10","0","10","10","1551","5","1019180023","110","9","226","Central Harlem North-Polo Grounds","40.813266","-73.942856","10030"
"48128","40553","Preservation","1","1918","20","1058222","125","WEST 133 STREET","21","0","21","21","4235","5","1019180020","110","9","226","Central Harlem North-Polo Grounds","40.81331","-73.942957","10030"
"48128","40557","Preservation","1","1917","45","1058176","132","WEST 133 STREET","11","0","11","11","1836","5","1019170045","110","9","226","Central Harlem North-Polo Grounds","40.813357","-73.94312","10030"
"48128","41096","Preservation","1","1735","8","1053903","63","WEST 137TH ST","21","0","21","21","3406","5","1017350008","110","9","212","Central Harlem North-Polo Grounds","40.81484","-73.938548","10037"
"48132","5653","Preservation","1","2079","34","1061988","1772","AMSTERDAM AVENUE","0","0","0","9","8565","5","1020790034","109","7","233","Hamilton Heights","40.826934","-73.946375","10031"
"48132","21283","Preservation","1","2054","16","1061167","369","EDGECOMBE AVENUE","0","0","0","16","12975","5","1020540016","109","9","23501","Hamilton Heights","40.827741","-73.940878","10031"
"48132","28239","Preservation","1","2065","26","1061579","801","ST NICHOLAS AVENUE","0","0","0","42","52854","6","1020650026","109","9","23501","Hamilton Heights","40.827451","-73.94275","10031"
"48143","3615","Preservation","1","2030","33","1060458","2488","ADAM C POWELL BOULEVARD","16","0","16","16","3983","6","1020300033","110","9","232","Central Harlem North-Polo Grounds","40.821307","-73.93933","10030"
"48143","4160","Preservation","1","2034","3","1060550","2794","FREDERICK DOUGLASS BOULEVARD","13","0","13","13","4000","5","1020340003",,,,,,,
"48143","5781","Preservation","1","2121","37","1062896","2110","AMSTERDAM AVENUE","13","0","13","13","3000","5","1021210037","112","7","24301","Washington Heights South","40.837571","-73.938603","10032"
"48143","5813","Preservation","1","2112","14","1062675","2185","AMSTERDAM AVENUE","16","0","16","16","3750","6","1021120014","112","10","249","Washington Heights South","40.840085","-73.936743","10032"
"48254","316613","Preservation","3","147","2","3000324","365","JAY STREET","0","0","0","18","5250","6","3001470002","302","33","11","DUMBO-Vinegar Hill-Downtown Brooklyn-Boerum Hill","40.692624","-73.987267","11201"
"48579","940495","New Construction","1","372","41","1088845","310","EAST 2 STREET","0","0","0","135","13622","12","1003720041","103","2","2202","Lower East Side","40.720081","-73.979203","10009"
"48607","65790","Preservation","2","2826","24","2007882","108","EAST 176 STREET","37","0","37","37","1631","6","2028260024","205","14","22701","Mount Hope","40.848177","-73.909403","10453"
"48607","80080","Preservation","2","2488","36","2003002","1175","GERARD AVENUE","43","0","43","43","2800","6","2024880036","204","16","197","West Concourse","40.834706","-73.920721","10452"
"48607","87863","Preservation","2","2763","195","2006549","760","HUNTS POINT AVENUE","49","0","49","49","4801","6","2027630195","202","17","117","Hunts Point","40.815899","-73.887239","10474"
"48607","92694","Preservation","2","3225","91","2014940","2292","LORING PLACE NORTH","9","0","9","9","1391","4","2032250091","207","14","255","Kingsbridge Heights","40.861515","-73.908539","10468"
"48608","23493","Preservation","1","1721","3","1053389","244","LENOX AVENUE","10","0","10","10","1362","5","1017210003","110","9","200","Central Harlem South","40.806126","-73.946677","10027"
"48608","38692","Preservation","1","1718","27","1053254","23","WEST 119 STREET","23","0","23","23","3246","7","1017180027","110","9","200","Central Harlem South","40.802978","-73.945924","10026"
"48608","39109","Preservation","1","1907","8","1057707","157","WEST 122 STREET","4","0","4","4","850","5","1019070008","110","9","222","Central Harlem South","40.806495","-73.948428","10027"
"48608","39958","Preservation","1","1954","55","1059392","410","WEST 128 STREET","56","0","56","56","8329","7","1019540055","109","9","21303","Manhattanville","40.813098","-73.952169","10027"
"48608","40005","Preservation","1","1913","40","1082693","116","WEST 129 STREET","19","0","19","19","3219","6","1019130040","110","9","224","Central Harlem North-Polo Grounds","40.81075","-73.944679","10027"
"48608","40238","Preservation","1","1916","25","1058098","111","WEST 131 STREET","4","0","4","4","792","5","1019160025","110","9","226","Central Harlem North-Polo Grounds","40.811856","-73.943381","10027"
"48608","806050","Preservation","1","1913","40","1057955","120","WEST 129 STREET","9","0","9","9","1384","6","1019130040","110","9","224","Central Harlem North-Polo Grounds","40.810778","-73.944748","10027"
"48621","100201","Preservation","2","2524","20","2003443","919","OGDEN AVE","0","0","0","4","6308","5","2025240020","204","8","189","Highbridge","40.831043","-73.930457","10452"
"48621","120994","Preservation","2","2521","1","2003337","127","WEST 170 STREET","0","0","0","40","39432","6","2025210001","204","16","211","Highbridge","40.840905","-73.92345","10452"
"48621","120999","Preservation","2","2534","38","2003557","185","WEST 170TH STREET","0","0","0","21","18750","5","2025340038","204","16","201","Highbridge","40.841933","-73.925834","10452"
"48624","326470","Preservation","3","1387","57","3037220","1619","LINCOLN PLACE","6","0","6","6","5035","3","3013870057","308","41","359","Crown Heights North","40.669323","-73.923268","11233"
"48624","330826","Preservation","3","1987","71","3057109","25","MADISON STREET","8","0","8","8","7180","4","3019870071","303","35","229","Clinton Hill","40.683888","-73.95788","11238"
"48624","366365","Preservation","3","1452","51","3039059","354","SARATOGA AVENUE","12","0","12","12","10460","4","3014520051","316","41","303","Ocean Hill","40.673578","-73.916764","11233"
"48624","376539","Preservation","3","1466","67","3039390","1719","STERLING PLACE","16","0","16","16","12900","4","3014660067","316","41","363","Ocean Hill","40.670982","-73.921713","11233"
"48624","376543","Preservation","3","1466","65","3039389","1725","STERLING PLACE","16","0","16","16","12900","4","3014660065","316","41","363","Ocean Hill","40.670971","-73.921543","11233"
"48624","376557","Preservation","3","1470","29","3039434","1752","STERLING PLACE","31","0","31","31","16672","4","3014700029","316","41","361","Ocean Hill","40.670908","-73.92066","11233"
"48624","380356","Preservation","3","3208","50","3072921","163","SUYDAM STREET","0","0","0","6","4098","3","3032080050","304","34","423","Bushwick South","40.699528","-73.926288","11221"
"48625","232147","Preservation","3","1504","14","3040499","518","DECATUR STREET","0","0","0","4","3096","4","3015040014","303","41","377","Stuyvesant Heights","40.682777","-73.92176","11233"
"48625","338754","Preservation","3","1817","36","3051316","184","MONROE STREET","0","0","0","20","15000","4","3018170036","303","36","245","Bedford","40.685288","-73.952063","11216"
"48625","339245","Preservation","3","1638","78","3044756","759","MONROE STREET","0","0","0","8","9000","4","3016380078","303","41","385","Stuyvesant Heights","40.688297","-73.926048","11221"
"48625","362389","Preservation","3","1368","1","3036296","1493","PARK PLACE","0","0","0","19","17493","4","3013680001","308","36","347","Crown Heights North","40.672194","-73.927548","11213"
"48625","849296","Preservation","3","1381","36","3036924","1682-1700","STERLING PLACE","0","0","0","32","29150",,"3013810036","308","41","359","Crown Heights North","40.671038","-73.923065","11233"
"48626","197987","Preservation","3","1683","79","3047691","295A","BAINBRIDGE STREET","0","0","0","8","5785","4","3016830079","303","41","381","Crown Heights North","40.681681","-73.924862","11233"
"48626","214946","Preservation","3","1208","47","3030115","96","BROOKLYN AVENUE","0","0","0","8","6768","3","3012080047","308","36","313","Crown Heights North","40.676691","-73.944303","11216"
"48626","359983","Preservation","3","1508","6","3040760","233","RALPH AVENUE","0","0","0","2","3360","3","3015080006","303","41","379","Stuyvesant Heights","40.681663","-73.92249","11233"
"48626","363723","Preservation","3","1254","6","3032217","177","ROGERS AVENUE","0","0","0","8","8216","4","3012540006","308","35","31702","Crown Heights North","40.67131","-73.953136","11216"
"48632","5374","Preservation","1","2218","42","1064729","541","ACADEMY STREET","0","0","0","24","3080","5","1022180042","112","10","291","Marble Hill-Inwood","40.862975","-73.922842","10034"
"48632","5376","Preservation","1","2218","44","1064730","545","ACADEMY STREET","0","0","0","25","3400","5","1022180044","112","10","291","Marble Hill-Inwood","40.863016","-73.922868","10034"
"48632","5379","Preservation","1","2218","48","1064732","553","ACADEMY STREET","0","0","0","25","3440","5","1022180048","112","10","291","Marble Hill-Inwood","40.863099","-73.922922","10034"
"48632","5381","Preservation","1","2218","54","1064733","565","ACADEMY STREET","0","0","0","26","3440","5","1022180054","112","10","291","Marble Hill-Inwood","40.863222","-73.923001","10034"
"48634","5380","Preservation","1","2218","50","1084223","557","ACADEMY STREET","0","0","0","26","3440","5","1022180050","112","10","291","Marble Hill-Inwood","40.86314","-73.922947","10034"
"48634","803993","Preservation","1","2218","50","1080035","561","ACADEMY STREET","0","0","0","25","3440","5","1022180050","112","10","291","Marble Hill-Inwood","40.863181","-73.922976","10034"
"48638","33874","Preservation","1","1041","47","1025181","330","WEST 51 STREET","53","0","53","53","2355","5","1010410047","104","3","133","Clinton","40.763408","-73.986846","10019"
"48638","33876","Preservation","1","1041","47","1025182","332","WEST 51 STREET","56","0","56","56","2355","5","1010410047","104","3","133","Clinton","40.763435","-73.986907","10019"
"48639","945946","New Construction","2","2614","38","2004285","1191","BOSTON ROAD","0","0","0","155","10040","12","2026140038","203","16","185","Morrisania-Melrose","40.829145","-73.902773","10456"
"48640","945034","New Construction","2","2934","50","2128618","1351","BOSTON ROAD","0","0","0","43","3201","7","2029340050","203","16","151","Morrisania-Melrose","40.832161","-73.898819","10456"
"48641","967101","New Construction","2","2814","8","2212753","304","ECHO PLACE","0","0","0","55","4585","6","2028140008","205","15","381","Mount Hope","40.849346","-73.90279","10457"
"48643","972670","New Construction","2","2383","39","2000000","425","EAST 161 STREET","59","0","59","59","3597","9","2023830039","203","17","141","Morrisania-Melrose","40.82398","-73.9131","10451"
"48644","948176","New Construction","2","3070","8","2012032","600","EAST 181 STREET","0","0","0","108","9171","9","2030700008","206","15","373","East Tremont","40.850378","-73.890788","10457"
"48646","375","Preservation","1","1691","2","1052997","1918","1 AVENUE","203","0","203","203","16998","14","1016910002","111","8","162","East Harlem South","40.784985","-73.943444","10029"
"48647","976517","New Construction","3","3696","7501","3425596","91","JUNIUS STREET","161","0","161","161","25039","6","3036967501","316","37","908","Brownsville","40.672816","-73.903776","11212"
"48650","11915","Preservation","1","468","20","1006860","222","EAST 13 STREET","18","0","18","18","1418","3","1004680020","103","2","40","East Village","40.732307","-73.987","10003"
"48657","88527","Preservation","2","2578","6","2003905","440","JACKSON AVENUE","0","0","0","49","10608","6","2025780006","201","8","35","Mott Haven-Port Morris","40.810309","-73.910112","10455"
"48657","88530","Preservation","2","2557","56","2003695","455","JACKSON AVENUE","0","0","0","60","13608","6","2025570056","201","8","37","Mott Haven-Port Morris","40.810964","-73.909898","10455"
"48657","115745","Preservation","2","2557","78","2003696","500","TRINITY AVENUE","0","0","0","69","15678","6","2025570078","201","8","35","Mott Haven-Port Morris","40.812049","-73.91025","10455"
"48657","118659","Preservation","2","2580","26","2003947","535","WALES AVENUE","0","0","0","10","2318","5","2025800026","201","8","35","Mott Haven-Port Morris","40.812541","-73.907367","10455"
"48660","48245","Preservation","2","3044","29","2011442","1991","BATHGATE AVENUE","0","0","0","15","3075","5","2030440029","206","15","395","Claremont-Bathgate","40.848728","-73.89613","10457"
"48660","65832","Preservation","2","2908","15","2009523","442","EAST 176 STREET","0","0","0","24","3888","4","2029080015","206","15","395","Claremont-Bathgate","40.846264","-73.899621","10457"
"48660","65833","Preservation","2","2908","17","2009524","446","EAST 176 STREET","0","0","0","24","3888","4","2029080017","206","15","395","Claremont-Bathgate","40.846234","-73.899535","10457"
"48660","74399","Preservation","2","2909","12","2009533","440","EAST TREMONT AVENUE","0","0","0","9","2880","4","2029090012","206","15","395","Claremont-Bathgate","40.847235","-73.899128","10457"
"48660","119759","Preservation","2","2917","6","2009562","1824","WASHINGTON AVENUE","0","0","0","8","2403","4","2029170006","206","15","395","Claremont-Bathgate","40.845163","-73.899095","10457"
"48660","119798","Preservation","2","3046","3","2011471","2028","WASHINGTON AVENUE","0","0","0","34","5925","6","2030460003","206","15","395","Claremont-Bathgate","40.850043","-73.896359","10457"
"48676","42813","Preservation","1","2118","46","1062802","515","WEST 159 STREET","0","0","0","15","0","5","1021180046","112","7","245","Washington Heights South","40.83437","-73.941703","10032"
"48676","42815","Preservation","1","2118","48","1062803","517","WEST 159 STREET","0","0","0","20","0","5","1021180048","112","7","245","Washington Heights South","40.834386","-73.941747","10032"
"48676","42818","Preservation","1","2118","50","1062804","521","WEST 159 STREET","0","0","0","20","0","5","1021180050","112","7","245","Washington Heights South","40.834422","-73.94183","10032"
"48677","58929","Preservation","2","2329","83","2091147","485","COURTLANDT AVENUE","0","0","0","12","7000","4","2023290083","201","8","65","Melrose South-Mott Haven North","40.815108","-73.920214","10451"
"48677","58933","Preservation","2","2329","72","2000874","515","COURTLANDT AVENUE","0","0","0","8","6400","4","2023290072","201","8","65","Melrose South-Mott Haven North","40.815649","-73.919967","10451"
"48677","806394","Preservation","2","2329","83","2091145","483","COURTLANDT AVENUE","0","0","0","8","7000","4","2023290083","201","8","65","Melrose South-Mott Haven North","40.815073","-73.920228","10451"
"48677","806497","Preservation","2","2329","83","2091148","357","EAST 146 STREET","0","0","0","8","9400","4","2023290083","201","8","65","Melrose South-Mott Haven North","40.814755","-73.92064","10451"
"48678","58930","Preservation","2","2329","82","2000877","495","COURTLANDT AVENUE","0","0","0","4","5200","4","2023290082","201","8","65","Melrose South-Mott Haven North","40.815287","-73.92013","10451"
"48678","58944","Preservation","2","2397","5","2001653","580","COURTLANDT AVENUE","0","0","0","10","9635","5","2023970005","201","17","65","Melrose South-Mott Haven North","40.817427","-73.919142","10451"
"48678","88544","Preservation","2","2579","10","2003919","512","JACKSON AVENUE","0","0","0","8","4600","4","2025790010","201","8","35","Mott Haven-Port Morris","40.812164","-73.909448","10455"
"48678","125023","Preservation","2","2284","4","2000280","288","WILLIS AVENUE","0","0","0","7","7425","3","2022840004","201","8","39","Mott Haven-Port Morris","40.81009","-73.922163","10454"
"48678","940965","Preservation","2","2284","6","2000281","292","WILLIS AVENUE","0","0","0","3","3000","3","2022840006","201","8","39","Mott Haven-Port Morris","40.810177","-73.922102","10454"
"48679","63048","Preservation","2","2285","69","2000347","445","EAST 140 STREET","21","0","21","21","3300","5","2022850069","201","8","39","Mott Haven-Port Morris","40.809775","-73.92043","10454"
"48679","63052","Preservation","2","2285","67","2000346","451","EAST 140 STREET","20","0","20","20","3331","5","2022850067","201","8","39","Mott Haven-Port Morris","40.809718","-73.920296","10454"
"48679","63053","Preservation","2","2285","66","2000345","455","EAST 140 STREET","21","0","21","21","3331","5","2022850066","201","8","39","Mott Haven-Port Morris","40.809679","-73.920206","10454"
"48679","63054","Preservation","2","2285","64","2000344","461","EAST 140 STREET","20","0","20","20","3331","5","2022850064","201","8","39","Mott Haven-Port Morris","40.809624","-73.920072","10454"
"48679","63055","Preservation","2","2285","63","2000343","465","EAST 140 STREET","10","0","10","10","3300","5","2022850063","201","8","39","Mott Haven-Port Morris","40.809586","-73.919982","10454"
"48679","63057","Preservation","2","2285","61","2000342","471","EAST 140 STREET","11","0","11","11","3300","5","2022850061","201","8","39","Mott Haven-Port Morris","40.809528","-73.919848","10454"
"48679","63059","Preservation","2","2285","58","2000340","481","EAST 140 STREET","11","0","11","11","3300","5","2022850058","201","8","39","Mott Haven-Port Morris","40.809435","-73.919624","10454"
"48681","340340","Preservation","3","2835","2","3069873","512","MORGAN AVENUE","0","0","0","8","1400","4","3028350002","301","34","449","East Williamsburg","40.721661","-73.938486","11222"
"48681","375409","Preservation","3","3031","13","3327900","18","STAGG STREET","0","0","0","10","1977","3","3030310013","301","34","511","East Williamsburg","40.708882","-73.94986","11206"
"48681","375410","Preservation","3","3031","14","3327902","20","STAGG STREET","0","0","0","9","1977","3","3030310014","301","34","511","East Williamsburg","40.708887","-73.949791","11206"
"48681","375411","Preservation","3","3031","15",,"22 FRONT","STAGG STREET","0","0","0","9","1977","3",,"301","34","511","East Williamsburg","40.708895","-73.949719","11206"
"48683","18986","Preservation","1","1610","9","1051500","21","EAST 104 STREET","0","0","0","36","4400","6","1016100009","111","8","168","East Harlem South","40.792638","-73.951231","10029"
"48683","18990","Preservation","1","1610","13","1051501","29","EAST 104 STREET","0","0","0","34","4400","6","1016100013","111","8","168","East Harlem South","40.792536","-73.950992","10029"
"48685","317155","Preservation","3","1835","7","3052414","346","JEFFERSON AVENUE","0","0","0","9","4000","4","3018350007","303","36","267","Bedford","40.684014","-73.943612","11221"
"48685","330794","Preservation","3","1818","86","3051446","223","MADISON STREET","0","0","0","8","3600","4","3018180086","303","36","249","Bedford","40.684829","-73.949698","11216"
"48685","332710","Preservation","3","1819","8","3051453","817","MARCY AVENUE","0","0","0","4","2000","3","3018190008","303","36","265","Bedford","40.685624","-73.947256","11216"
"48685","346832","Preservation","3","1827","60","3051874","456","NOSTRAND AVENUE","0","0","0","12","4000","4","3018270060","303","36","245","Bedford","40.683432","-73.950196","11216"
"48685","346837","Preservation","3","1832","50","3052225","466","NOSTRAND AVENUE","0","0","0","7","2757","4","3018320050","303","36","245","Bedford","40.682987","-73.95011","11216"
"48685","381637","Preservation","3","1820","4","3051468","351","TOMPKINS AVENUE","0","0","0","3","2500","4","3018200004","303","36","265","Bedford","40.685771","-73.944382","11216"
"48686","32921","Preservation","1","1033","6","1024937","351","WEST 42 STREET","0","0","0","308","8000","21","1010330006","104","3","121","Clinton","40.757848","-73.991229","10036"
"48688","52798","Preservation","2","2282","45","2091021","211S","BROWN PLACE","0","0","0","2","1235","2","2022820045","201","8","25","Mott Haven-Port Morris","40.807338","-73.920472","10454"
"48688","62690","Preservation","2","2282","75","2091035","405","EAST 137 STREET","0","0","0","2","2210","2","2022820075","201","8","25","Mott Haven-Port Morris","40.808331","-73.923112","10454"
"48688","814505","Preservation","2","2282","45","2091021","213F","BROWN PLACE","0","0","0","2","1220","2","2022820045","201","8","25","Mott Haven-Port Morris","40.807382","-73.920443","10454"
"48688","814506","Preservation","2","2282","45","2091021","215F","BROWN PLACE","0","0","0","2","2455","2","2022820045","201","8","25","Mott Haven-Port Morris","40.807423","-73.920411","10454"
"48688","814507","Preservation","2","2282","75","2091028","411","EAST 137 STREET","0","0","0","2","2470","2","2022820075","201","8","25","Mott Haven-Port Morris","40.808232","-73.922877","10454"
"48688","814508","Preservation","2","2282","75","2091029","413","EAST 137 STREET","0","0","0","2","2470","2","2022820075","201","8","25","Mott Haven-Port Morris","40.808199","-73.922798","10454"
"48688","814509","Preservation","2","2282","45","2091019","465S","EAST 137 STREET","0","0","0","2","2500","3","2022820045","201","8","25","Mott Haven-Port Morris","40.807512","-73.921173","10454"
"48688","814510","Preservation","2","2282","45","2091019","467S","EAST 137 STREET","0","0","0","2","2460","2","2022820045","201","8","25","Mott Haven-Port Morris","40.807495","-73.921133","10454"
"48688","814511","Preservation","2","2282","45","2091019","469S","EAST 137 STREET","0","0","0","2","1625","2","2022820045","201","8","25","Mott Haven-Port Morris","40.807479","-73.921093","10454"
"48688","814512","Preservation","2","2282","75","2091026","407","EAST 137 STREET","0","0","0","2","2470","2","2022820075","201","8","25","Mott Haven-Port Morris","40.808298","-73.923032","10454"
"48688","814513","Preservation","2","2282","75","2091027","409","EAST 137 STREET","0","0","0","2","2465","2","2022820075","201","8","25","Mott Haven-Port Morris","40.808265","-73.922953","10454"
"48688","814514","Preservation","2","2282","75","2091030","415","EAST 137 STREET","0","0","0","2","2470","2","2022820075","201","8","25","Mott Haven-Port Morris","40.808149","-73.922686","10454"
"48688","814515","Preservation","2","2282","75","2091031","417","EAST 137 STREET","0","0","0","4","3240","2","2022820075","201","8","25","Mott Haven-Port Morris","40.808127","-73.922632","10454"
"48688","814516","Preservation","2","2282","75","2091032","419","EAST 137 STREET","0","0","0","4","1180","3","2022820075",,,,,,,
"48688","814518","Preservation","2","2282","75","2091033","421","EAST 137 STREET","0","0","0","2","2470","2","2022820075","201","8","25","Mott Haven-Port Morris","40.808009","-73.922354","10454"
"48688","814519","Preservation","2","2282","75","2091034","423","EAST 137 STREET","0","0","0","2","2515","2","2022820075","201","8","25","Mott Haven-Port Morris","40.807984","-73.922292","10454"
"48688","814520","Preservation","2","2283","40","2091053","473","EAST 138 STREET","0","0","0","2","1200","2","2022830040","201","8","39","Mott Haven-Port Morris","40.808195","-73.920702","10454"
"48688","814521","Preservation","2","2283","40","2091036","475","EAST 138 STREET","0","0","0","2","1200","2","2022830040","201","8","39","Mott Haven-Port Morris","40.808173","-73.920656","10454"
"48688","814522","Preservation","2","2283","40","2091037","477","EAST 138 STREET","0","0","0","2","575","2","2022830040","201","8","39","Mott Haven-Port Morris","40.808153","-73.920609","10454"
"48688","814523","Preservation","2","2283","40","2091038","479","EAST 138 STREET","0","0","0","2","1120","2","2022830040","201","8","39","Mott Haven-Port Morris","40.808134","-73.920562","10454"
"48688","814524","Preservation","2","2283","40","2091039","481","EAST 138 STREET","0","0","0","2","1215","2","2022830040","201","8","39","Mott Haven-Port Morris","40.808115","-73.920515","10454"
"48688","814525","Preservation","2","2283","40","2091040","483","EAST 138 STREET","0","0","0","4","3250","2","2022830040","201","8","39","Mott Haven-Port Morris","40.808093","-73.920468","10454"
"48688","814526","Preservation","2","2283","40","2091041","485","EAST 138 STREET","0","0","0","4","1175","2","2022830040","201","8","39","Mott Haven-Port Morris","40.807859","-73.919915","10454"
"48688","814528","Preservation","2","2283","40","2091043","489","EAST 138 STREET","0","0","0","2","1240","2","2022830040","201","8","39","Mott Haven-Port Morris","40.807815","-73.919811","10454"
"48688","814529","Preservation","2","2283","40","2091044","491","EAST 138 STREET","0","0","0","2","1125","2","2022830040","201","8","39","Mott Haven-Port Morris","40.807793","-73.919757","10454"
"48688","814530","Preservation","2","2283","40","2091046","472F","EAST 139 STREET","0","0","0","2","1240","2","2022830040","201","8","39","Mott Haven-Port Morris","40.808793","-73.920088","10454"
"48688","814531","Preservation","2","2283","40","2091047","474F","EAST 139 STREET","0","0","0","2","1245","2","2022830040","201","8","39","Mott Haven-Port Morris","40.808773","-73.920037","10454"
"48688","814532","Preservation","2","2283","40","2091048","476F","EAST 139 STREET","0","0","0","4","1175","2","2022830040","201","8","39","Mott Haven-Port Morris","40.808751","-73.91999","10454"
"48688","814533","Preservation","2","2283","40","2091049","478F","EAST 139 STREET","0","0","0","2","1175","2","2022830040","201","8","39","Mott Haven-Port Morris","40.808732","-73.91994","10454"
"48688","814534","Preservation","2","2283","40","2091049","478A","EAST 139 STREET","0","0","0","2","3255","2","2022830040","201","8","39","Mott Haven-Port Morris","40.808732","-73.91994","10454"
"48688","814535","Preservation","2","2283","40","2091050","480F","EAST 139 STREET","0","0","0","2","1340","2","2022830040","201","8","39","Mott Haven-Port Morris","40.80871","-73.919889","10454"
"48688","814536","Preservation","2","2283","40","2091051","482F","EAST 139 STREET","0","0","0","2","1240","2","2022830040","201","8","39","Mott Haven-Port Morris","40.808691","-73.919842","10454"
"48688","814537","Preservation","2","2283","40","2091052","484F","EAST 139 STREET","0","0","0","2","1260","2","2022830040","201","8","39","Mott Haven-Port Morris","40.808669","-73.919792","10454"
"48688","954143","Preservation","2","2282","45","2114797","471","EAST 137 STREET","0","0","0","2","570","3","2022820045","201","8","25","Mott Haven-Port Morris","40.807459","-73.92105","10454"
"48688","954320","Preservation","2","2282","45","2114797","473","EAST 137 STREET","0","0","0","2","1200","3","2022820045","201","8","25","Mott Haven-Port Morris","40.807443","-73.92101","10454"
"48688","954321","Preservation","2","2282","45","2114797","475","EAST 137 STREET","0","0","0","2","1195","3","2022820045","201","8","25","Mott Haven-Port Morris","40.807426","-73.920971","10454"
"48688","954324","Preservation","2","2282","45","2114797","477","EAST 137 STREET","0","0","0","2","1240","3","2022820045","201","8","25","Mott Haven-Port Morris","40.80741","-73.920931","10454"
"48690","744417","Preservation","5","1020","20","5110130","160","HEBERTON AVENUE","0","0","0","43","11102","4","5010200020","501","49","207","Port Richmond","40.636179","-74.131816","10302"
"48704","57040","Preservation","2","2948","18","2009923","1781","CLINTON AVENUE","0","0","0","24","4410","5","2029480018","206","17","36902","East Tremont","40.84174","-73.893079","10457"
"48704","57048","Preservation","2","2948","14","2009922","1805","CLINTON AVENUE","0","0","0","11","2234","5","2029480014","206","17","36902","East Tremont","40.842195","-73.892612","10457"
"48704","63982","Preservation","2","2401","12","2001712","374","EAST 155 STREET","0","0","0","21","4375","5","2024010012","201","17","67","Melrose South-Mott Haven North","40.820428","-73.916901","10455"
"48704","806523","Preservation","2","2400","15","2001690","384","EAST 154 STREET","0","0","0","31","6562","5","2024000015","201","17","67","Melrose South-Mott Haven North","40.819698","-73.916899","10455"
"48726","943722","New Construction","4","6","7502",,"18264","50 AVENUE","0","0","0","619","10357","37",,"411","20","1417","Auburndale","40.744479","-73.792974","11365"
"48729","46169","Preservation","2","3069","24","2011996","2091","ARTHUR AVENUE","55","0","55","55","66393","6","2030690024","206","15","37504","East Tremont","40.849109","-73.89177","10457"
"48729","57116","Preservation","2","3098","50","2012772","2131","CLINTON AVENUE","28","0","28","28","34128","6","2030980050","206","15","371","East Tremont","40.848829","-73.886771","10457"
"48729","90293","Preservation","2","3061","70","2011846","565","EAST 178 STREET","20","0","20","20","17028","5","2030610070","206","15","37504","East Tremont","40.847395","-73.89422","10457"
"48729","122170","Preservation","2","2862","8","2008383","62","WEST TREMONT AVENUE","90","0","90","90","73531","6","2028620008","205","14","217","University Heights-Morris Heights","40.851489","-73.91178","10453"
"48730","118661","Preservation","2","2580","24","2003946","539","WALES AVENUE","0","0","0","12","0","4","2025800024","201","8","35","Mott Haven-Port Morris","40.812637","-73.907334","10455"
"48731","104337","Preservation","2","2962","44","2010202","1409","PROSPECT AVENUE","11","0","11","11","16236","5","2029620044","203","16","151","Morrisania-Melrose","40.832348","-73.896625","10459"
"48731","121088","Preservation","2","2866","72","2008461","66","WEST 176 STREET","20","0","20","20","18395","5","2028660072","205","14","21502","University Heights-Morris Heights","40.848688","-73.914419","10453"
"48731","941024","Preservation","2","2850","40","2008213","1770","TOWNSEND AVENUE","57","0","57","57","54122","6","2028500040","205","14","22701","Mount Hope","40.847854","-73.911077","10453"
"48731","941025","Preservation","2","2866","74","2008462","62","WEST 176 STREET","12","0","12","12","12408","3","2028660074","205","14","21502","University Heights-Morris Heights","40.848677","-73.914372","10453"
"48732","43250","Preservation","1","2131","52","1063173","503","WEST 174 STREET","26","0","26","26","22000","5","1021310052","112","10","261","Washington Heights South","40.843693","-73.934474","10033"
"48733","386227","Preservation","3","1159","4","3028779","665","VANDERBILT AVENUE","0","0","0","7","1716","4","3011590004","308","35","205","Prospect Heights","40.677068","-73.969064","11238"
"48735","1327","Preservation","1","1785","27","1054590","2353","2 AVENUE","0","0","0","9","1616","5","1017850027","111","8","194","East Harlem North","40.799822","-73.935691","10035"
"48735","20752","Preservation","1","1751","44","1054106","70","EAST 127 STREET","0","0","0","17","1827","6","1017510044","111","9","206","Central Harlem North-Polo Grounds","40.806726","-73.938993","10035"
"48735","39110","Preservation","1","1906","57","1057695","158","WEST 122 STREET","0","0","0","8","936","4","1019060057","110","9","220","Central Harlem South","40.806495","-73.948475","10027"
"48735","39419","Preservation","1","1908","56","1057806","152","WEST 124 STREET","0","0","0","19","1885","5","1019080056","110","9","222","Central Harlem South","40.80771","-73.947448","10027"
"48742","951656","New Construction","1","1171","7509","1089742","40","RIVERSIDE BOULEVARD","55","0","55","274","37995","33","1011717509","107","6","151","Lincoln Square","40.774319","-73.991624","10069"
"48746","353050","Preservation","3","3738","1","3083921","277","PENNSYLVANIA AVENUE","0","0","0","16","3240","4","3037380001","305","42","1144","East New York (Pennsylvania Ave)","40.670934","-73.89561","11207"
"48748","381140","Preservation","3","1760","41","3418278","266A","THROOP AVENUE","0","0","0","6","1800","4","3017600041","303","36","25901","Bedford","40.695179","-73.943376","11206"
"48752","110157","Preservation","2","2600","131","2004084","490","SOUTHERN BOULEVARD","0","0","0","137","50500","5","2026000131","201","8","31","Mott Haven-Port Morris","40.811082","-73.905693","10455"
"48753","89051","Preservation","2","2504","36","2003035","941","JEROME AVENUE","0","85","85","85","114941","6","2025040036","204","8","189","Highbridge","40.830182","-73.928481","10452"
"48754","865282","Preservation","1","2026","33","1085368","202","WEST 141 STREET","0","0","0","69","8775","6","1020260033","110","9","230","Central Harlem North-Polo Grounds","40.819312","-73.941463","10030"
"48755","72098","Preservation","2","5000","1","2068251","855","EAST 233 STREET","0","0","0","108","9537","12","2050000001","212","12","430","Woodlawn-Wakefield","40.89194","-73.852775","10466"
"48760","45408","Preservation","2","2508","43","2003145","1001","ANDERSON AVENUE","0","0","0","22","4350","6","2025080043","204","8","189","Highbridge","40.832284","-73.927189","10452"
"48763","3607","Preservation","1","2029","35","1060435","2472","ADAM C POWELL BOULEVARD","8","0","8","8","1450","5","1020290035","110","9","232","Central Harlem North-Polo Grounds","40.820755","-73.939732","10030"
"48763","4163","Preservation","1","2045","74","1060834","2797","FREDERICK DOUGLASS BOULEVARD","8","0","8","8","2050","5","1020450074",,,,,,,
"48763","7470","Preservation","1","2046","41","1060868","204","BRADHURST AVENUE","20","0","20","20","3944","5","1020460041","110","9","23502","Central Harlem North-Polo Grounds","40.827452","-73.939827","10039"
"48763","42323","Preservation","1","2034","52","1060577","232","WEST 149 STREET","18","0","18","18","3480","6","1020340052","110","9","234","Central Harlem North-Polo Grounds","40.824655","-73.938359","10039"
"48765","19048","Preservation","1","1655","13","1052409","229","EAST 105 STREET","0","0","0","8","2535","4","1016550013","111","8","170","East Harlem South","40.790571","-73.944378","10029"
"48765","19049","Preservation","1","1655","14","1052410","231","EAST 105 STREET","0","0","0","8","2523","4","1016550014","111","8","170","East Harlem South","40.790557","-73.944345","10029"
"48765","19506","Preservation","1","1643","8","1052233","117","EAST 115 STREET","0","0","0","21","4423","6","1016430008","111","8","182","East Harlem North","40.79839","-73.943176","10029"
"48765","24535","Preservation","1","2038","9","1060610","67","MACOMBS PLACE","0","0","0","34","6675","6","1020380009","110","9","236","Central Harlem North-Polo Grounds","40.826949","-73.937218","10039"
"48765","26937","Preservation","1","1710","26","1053086","307","PLEASANT AVENUE","0","0","0","17","3780","6","1017100026","111","8","178","East Harlem North","40.795316","-73.932976","10035"
"48765","28116","Preservation","1","1958","56","1059441","428","ST NICHOLAS AVENUE","0","0","0","11","3188","5","1019580056","110","9","215","Central Harlem North-Polo Grounds","40.814592","-73.949271","10027"
"48765","28117","Preservation","1","1958","55","1059440","430","ST NICHOLAS AVENUE","0","0","0","11","3188","5","1019580055","110","9","215","Central Harlem North-Polo Grounds","40.814633","-73.949242","10027"
"48765","28118","Preservation","1","1958","54","1059439","432","ST NICHOLAS AVENUE","0","0","0","10","2490","5","1019580054","110","9","215","Central Harlem North-Polo Grounds","40.814675","-73.949217","10027"
"48765","42524","Preservation","1","2038","7","1060609","259","WEST 152 STREET","0","0","0","24","5000","6","1020380007","110","9","236","Central Harlem North-Polo Grounds","40.8269","-73.937869","10039"
"48765","85438","Preservation","2","2749","20","2006112","1046","HOE AVENUE","0","0","0","21","4000","5","2027490020","202","17","119","Hunts Point","40.824367","-73.890495","10459"
"48765","85441","Preservation","2","2749","22","2006113","1050","HOE AVENUE","0","0","0","21","4000","5","2027490022","202","17","119","Hunts Point","40.824446","-73.890498","10459"
"48765","309680","Preservation","3","4478","1","3098665","996","HEGEMAN AVENUE","0","0","0","24","6600","4","3044780001","305","42","1116","East New York","40.666658","-73.876011","11208"
"48765","313692","Preservation","3","1550","31","3042158","178","THOMAS S BOYLAND STREET","0","0","0","28","10000","4","3015500031","316","41","301","Ocean Hill","40.678316","-73.913574","11233"
"48765","313693","Preservation","3","1550","36","3042159","186","THOMAS S BOYLAND STREET","0","0","0","32","10000","4","3015500036","316","41","301","Ocean Hill","40.67808","-73.913582","11233"
"48765","822049","Preservation","2","2964","29","2114127","1412","BRISTOW STREET","0","0","0","80","40000","5","2029640029","203","16","153","Crotona Park East","40.833678","-73.895196","10459"
"48766","65697","Preservation","2","2997","26","2010803","978","EAST 174 STREET","0","0","0","38","7441","6","2029970026","203","17","161","Crotona Park East","40.836512","-73.885242","10460"
"48766","85558","Preservation","2","2983","38","2010611","1685","HOE AVENUE","0","0","0","37","7122","6","2029830038","203","17","161","Crotona Park East","40.835944","-73.887502","10460"
"48766","89105","Preservation","2","2872","252","2008697","1604","JESUP AVENUE","0","0","0","29","4688","6","2028720252","205","14","21301","University Heights-Morris Heights","40.845823","-73.91824","10452"
"48766","93706","Preservation","2","2872","365","2008721","1601","MACOMBS ROAD","0","0","0","53","9282","6","2028720365","205","14","21301","University Heights-Morris Heights","40.84594","-73.917166","10452"
"48766","109403","Preservation","2","2873","103","2008741","1551","SHAKESPEARE AVENUE","0","0","0","72","12958","6","2028730103","205","14","21301","University Heights-Morris Heights","40.845865","-73.91923","10452"
"48766","118493","Preservation","2","2997","1","2010798","1662","VYSE AVENUE","0","0","0","37","7384","6","2029970001","203","17","161","Crotona Park East","40.835367","-73.886787","10460"
"48766","118495","Preservation","2","2997","5","2010799","1668","VYSE AVENUE","0","0","0","37","6989","6","2029970005","203","17","161","Crotona Park East","40.835438","-73.886744","10460"
"48766","118497","Preservation","2","2997","9","2010800","1680","VYSE AVENUE","0","0","0","37","6977","5","2029970009","203","17","161","Crotona Park East","40.835581","-73.88666","10460"
"48766","118500","Preservation","2","2997","13","2010801","1690","VYSE AVENUE","0","0","0","37","6995","6","2029970013","203","17","161","Crotona Park East","40.835701","-73.886588","10460"
"48766","118502","Preservation","2","2997","17","2010802","1698","VYSE AVENUE","0","0","0","37","7001","6","2029970017","203","17","161","Crotona Park East","40.835797","-73.886533","10460"
"48768","65052","Preservation","2","2480","1","2101464","50","EAST 168 STREET","132","0","132","132","0","10","2024800001","204","16","197","West Concourse","40.836725","-73.919292","10452"
"48771","50377","Preservation","2","2614","41","2004286","1187","BOSTON ROAD","0","0","0","20","4203","5","2026140041","203","16","185","Morrisania-Melrose","40.829082","-73.902842","10456"
"48771","50382","Preservation","2","2663","1","2004739","729","EAST 168 STREET","0","0","0","20","3235","5","2026630001","203","17","151","Morrisania-Melrose","40.829529","-73.9018","10456"
"48771","56602","Preservation","2","2928","14","2009645","538","CLAREMONT PARKWAY","0","0","0","12","3469","5","2029280014","203","16","169","Claremont-Bathgate","40.838072","-73.900917","10457"
"48771","56847","Preservation","2","2427","18","2002100","1268","CLAY AVENUE","0","0","0","12","2315","5","2024270018","204","16","17701","East Concourse-Concourse Village","40.833784","-73.909798","10456"
"48771","64901","Preservation","2","2633","20","2004506","656","EAST 166 STREET","0","0","0","15","2510","5","2026330020","203","16","185","Morrisania-Melrose","40.826989","-73.904615","10456"
"48771","64911","Preservation","2","2679","21","2005028","818","EAST 166 STREET","0","0","0","15","2700","5","2026790021","203","17","131","Longwood","40.825882","-73.899988","10459"
"48771","64974","Preservation","2","2613","24","2004267","600","EAST 167 STREET","0","0","0","20","3428","5","2026130024","203","16","185","Morrisania-Melrose","40.828433","-73.904237","10456"
"48771","113800","Preservation","2","2927","9","2009633","3758","3 AVENUE","0","0","0","18","3523","5","2029270009","203","16","169","Claremont-Bathgate","40.83638","-73.90256","10456"
"48771","116817","Preservation","2","2876","83","2008826","1632","DR M L KING JR BOULEVARD","0","0","0","25","4113","5","2028760083","205","14","21502","University Heights-Morris Heights","40.847635","-73.919401","10453"
"48771","116824","Preservation","2","2876","95","2008831","94","BRANDT PLACE","0","0","0","21","3580","5","2028760095","205","14","21502","University Heights-Morris Heights","40.848096","-73.918161","10453"
"48771","116827","Preservation","2","2876","100","2008832","1700","DR M L KING JR BOULEVARD","0","0","0","22","4196","5","2028760100","205","14","21502","University Heights-Morris Heights","40.848433","-73.918262","10453"
"48771","120450","Preservation","2","2427","44","2002113","1241","WEBSTER AVENUE","0","0","0","8","1967","4","2024270044","204","16","17701","East Concourse-Concourse Village","40.832826","-73.909326","10456"
"48771","120452","Preservation","2","2427","42","2002111","1245","WEBSTER AVENUE","0","0","0","7","1950","4","2024270042","204","16","17701","East Concourse-Concourse Village","40.832927","-73.909268","10456"
"48771","120457","Preservation","2","2427","32","2002106","1267","WEBSTER AVENUE","0","0","0","11","1987","5","2024270032","204","16","17701","East Concourse-Concourse Village","40.833682","-73.908848","10456"
"48771","120458","Preservation","2","2427","31","2002105","1273","WEBSTER AVENUE","0","0","0","10","2011","5","2024270031","204","16","17701","East Concourse-Concourse Village","40.83378","-73.908794","10456"
"48771","806301","Preservation","2","2663","1","2004740","1214","BOSTON ROAD","0","0","0","16","3177","5","2026630001","203","17","151","Morrisania-Melrose","40.829891","-73.901876","10456"
"48771","806302","Preservation","2","2663","1","2004741","1216","BOSTON ROAD","0","0","0","17","2846","5","2026630001","203","17","151","Morrisania-Melrose","40.829921","-73.901839","10456"
"48771","806680","Preservation","2","2608","19","2004201","1109","FRANKLIN AVENUE","0","0","0","24","4269","5","2026080019","203","16","185","Morrisania-Melrose","40.827831","-73.906312","10456"
"48772","944105","New Construction","3","4452","7505","3398158","526","SCHROEDERS AVENUE","0","0","0","47","53245","5","3044527505","305","42","1070","East New York","40.655079","-73.87249","11239"
"48772","944106","New Construction","3","4452","7503","3398159","516","VANDALIA AVENUE","0","0","0","64","77190","6","3044527503","305","42","1070","East New York","40.655427","-73.873963","11239"
"48772","944107","New Construction","3","4452","7504","3398170","524","VANDALIA AVENUE","0","0","0","64","77190","6","3044520000","305","42","1070","East New York","40.655758","-73.873187","11239"
"48775","946628","New Construction","3","3040","24","3000000","40","SCHOLES STREET","6","0","6","6","2511","2","3030400024","301","34","511","East Williamsburg","40.70825","-73.948944","11206"
"48775","946629","New Construction","3","2700","6","3000000","568","GRAHAM AVENUE","4","0","4","4","3051","4","3027000006","301","33","499","Greenpoint","40.722437","-73.947346","11222"
"48775","946631","New Construction","3","3022","101","3400412","7","STAGG STREET","4","0","4","4","1490","2","3030220101","301","34","511","East Williamsburg","40.708862","-73.950228","11206"
"48775","946632","New Construction","3","3063","101","3325861","198","MONTROSE AVENUE","4","0","4","4","2785",,"3030630101","301","34","493","Bushwick South","40.707299","-73.94136","11206"
"48775","340323","Preservation","3","3008","6","3070688","44","MORGAN AVENUE","6","0","6","6","2500","3","3030080006","301","34","453","Bushwick North","40.705414","-73.93162","11237"
"48787","215645","Preservation","3","3349","3","3076548","1089","BUSHWICK AVENUE","1","15","16","16","12480","4","3033490003","304","34","399","Bushwick South","40.690255","-73.919451","11221"
"48788","9827","Preservation","1","1841","4","1055594","927","COLUMBUS AVENUE","0","0","0","12","2500","5","1018410004","107","7","189","Upper West Side","40.79887","-73.96312","10025"
"48794","52677","Preservation","2","2284","62","2091063","277","BROOK AVENUE","0","0","0","14","20401","5","2022840062","201","8","39","Mott Haven-Port Morris","40.808583","-73.918636","10454"
"48794","62836","Preservation","2","2550","8","2003605","572","EAST 138 STREET","0","0","0","10","3417","5","2025500008","201","8","2701","Mott Haven-Port Morris","40.806641","-73.917096","10454"
"48794","62837","Preservation","2","2550","10","2003606","574","EAST 138 STREET","0","0","0","24","5000","6","2025500010","201","8","2701","Mott Haven-Port Morris","40.806625","-73.917052","10454"
"48794","63883","Preservation","2","2398","9","2001662","356","EAST 152 STREET","0","0","0","13","2858","5","2023980009","201","17","67","Melrose South-Mott Haven North","40.818662","-73.918483","10455"
"48794","806337","Preservation","2","2284","62","2091060","281","BROOK AVENUE","0","0","0","15","20401","5","2022840062","201","8","39","Mott Haven-Port Morris","40.808638","-73.918607","10454"
"48794","806338","Preservation","2","2284","62","2091061","283","BROOK AVENUE","0","0","0","15","20401","5","2022840062","201","8","39","Mott Haven-Port Morris","40.808663","-73.918592","10454"
"48794","902977","Preservation","2","2284","62","2091062","285","BROOK AVENUE","0","0","0","15","20401","5","2022840062","201","8","39","Mott Haven-Port Morris","40.80869","-73.918574","10454"
"48870","116785","Preservation","2","2534","8","2003556","1380","DR M L KING JR BOULEVARD","139","0","139","139","8946","17","2025340008","204","16","201","Highbridge","40.842425","-73.925928","10452"
"48877","950994","New Construction","3","4586","971","3000000","900","ERSKINE STREET","0","0","0","1","1500","3","3045860001","305","42","1070","East New York","40.656842","-73.868183","11239"
"48877","951024","New Construction","3","4586","972","3000000","902","ERSKINE STREET","0","0","0","1","820","3","3045860001","305","42","1070","East New York","40.656773","-73.86814","11239"
"48877","951028","New Construction","3","4452","323","3398312","693","VANDALIA AVENUE","0","0","0","1","820","3","3044520323","305","42","1070","East New York","40.657567","-73.869014","11239"
"48877","951031","New Construction","3","4586","974","3000000","906","ERSKINE STREET","0","0","0","1","820","3","3045860001","305","42","1070","East New York","40.656641","-73.86805","11239"
"48877","951032","New Construction","3","4586","975","3000000","908","ERSKINE STREET","0","0","0","1","820","3","3045860001","305","42","1070","East New York","40.656575","-73.868007","11239"
"48877","951033","New Construction","3","4586","976","3000000","910","ERSKINE STREET","0","0","0","1","820","3","3045860001","305","42","1070","East New York","40.65651","-73.867964","11239"
"48877","951034","New Construction","3","4586","977","3000000","912","ERSKINE STREET","0","0","0","1","820","3","3045860001","305","42","1070","East New York","40.656444","-73.867917","11239"
"48877","951035","New Construction","3","4586","973","3000000","904","ERSKINE STREET","0","0","0","1","820","3","3045860001","305","42","1070","East New York","40.656707","-73.868093","11239"
"48877","951037","New Construction","3","4452","324","3398313","695","VANDALIA AVENUE","0","0","0","1","820","3","3044520324","305","42","1070","East New York","40.657589","-73.868967","11239"
"48877","951039","New Construction","3","4452","325","3398314","697","VANDALIA AVENUE","0","0","0","1","820","3","3044520300","305","42","1070","East New York","40.657609","-73.86892","11239"
"48877","951041","New Construction","3","4452","326","3398315","699","VANDALIA AVENUE","0","0","0","1","820","3","3044520326","305","42","1070","East New York","40.65763","-73.86887","11239"
"48877","951043","New Construction","3","4452","327","3398316","701","VANDALIA AVENUE","0","0","0","1","820","3","3044520327","305","42","1070","East New York","40.65765","-73.868823","11239"
"48877","951045","New Construction","3","4452","328","3398317","703","VANDALIA AVENUE","0","0","0","1","820","3","3044520328","305","42","1070","East New York","40.657671","-73.868772","11239"
"48877","951047","New Construction","3","4452","329","3398318","705","VANDALIA AVENUE","0","0","0","1","820","3","3044520329","305","42","1070","East New York","40.657693","-73.868725","11239"
"48877","951050","New Construction","3","4452","331","3398320","709","VANDALIA AVENUE","0","0","0","1","820","3","3044520331","305","42","1070","East New York","40.65777","-73.868541","11239"
"48877","951052","New Construction","3","4452","332","3398321","711","VANDALIA AVENUE","0","0","0","1","820","3","3044520332","305","42","1070","East New York","40.657795","-73.868484","11239"
"48877","951054","New Construction","3","4452","333","3398322","713","VANDALIA AVENUE","0","0","0","1","820","3","3044520333","305","42","1070","East New York","40.657819","-73.868422","11239"
"48877","951056","New Construction","3","4452","334","3398323","715","VANDALIA AVENUE","0","0","0","1","820","3","3044520334","305","42","1070","East New York","40.657844","-73.868365","11239"
"48877","951058","New Construction","3","4452","335","3398324","717","VANDALIA AVENUE","0","0","0","1","820","3","3044520335","305","42","1070","East New York","40.657869","-73.868307","11239"
"48877","951060","New Construction","3","4452","336","3398325","719","VANDALIA AVENUE","0","0","0","1","820","3","3044520336","305","42","1070","East New York","40.657896","-73.868249","11239"
"48877","951063","New Construction","3","4452","337","3398326","721","VANDALIA AVENUE","0","0","0","1","820","3","3044520337","305","42","1070","East New York","40.657956","-73.868105","11239"
"48877","951065","New Construction","3","4452","338","3398327","723","VANDALIA AVENUE","0","0","0","1","820","3","3044520338","305","42","1070","East New York","40.657986","-73.868036","11239"
"48877","951067","New Construction","3","4452","339","3398328","725","VANDALIA AVENUE","0","0","0","1","820","3","3044520339","305","42","1070","East New York","40.658016","-73.867964","11239"
"48877","951069","New Construction","3","4452","340","3398329","727","VANDALIA AVENUE","0","0","0","1","820","3","3044520340","305","42","1070","East New York","40.658049","-73.867896","11239"
"48877","951071","New Construction","3","4452","341","3398330","729","VANDALIA AVENUE","0","0","0","1","820","3","3044520341","305","42","1070","East New York","40.658079","-73.867824","11239"
"48877","951073","New Construction","3","4452","342","3398331","731","VANDALIA AVENUE","0","0","0","1","820","3","3044520342","305","42","1070","East New York","40.658112","-73.867751","11239"
"48877","951076","New Construction","3","4452","359","3398296","733","VANDALIA AVENUE","0","0","0","1","820","3","3044520359","305","42","1070","East New York","40.658246","-73.867438","11239"
"48877","951079","New Construction","3","4452","360","3398297","735","VANDALIA AVENUE","0","0","0","1","820","3","3044520360","305","42","1070","East New York","40.658279","-73.867362","11239"
"48877","951081","New Construction","3","4452","361","3398298","737","VANDALIA AVENUE","0","0","0","1","820","3","3044520361","305","42","1070","East New York","40.658312","-73.86729","11239"
"48877","951083","New Construction","3","4452","362","3398299","739","VANDALIA AVENUE","0","0","0","1","820","3","3044520362","305","42","1070","East New York","40.658345","-73.867214","11239"
"48877","951085","New Construction","3","4452","363","3398300","741","VANDALIA AVENUE","0","0","0","1","820","3","3044520363","305","42","1070","East New York","40.658375","-73.867138","11239"
"48877","951087","New Construction","3","4452","364","3398301","743","VANDALIA AVENUE","0","0","0","1","820","3","3044520364","305","42","1070","East New York","40.658408","-73.867063","11239"
"48877","951089","New Construction","3","4452","365","3398302","745","VANDALIA AVENUE","0","0","0","1","820","3","3044520365","305","42","1070","East New York","40.658441","-73.86699","11239"
"48877","951091","New Construction","3","4452","366","3398303","747","VANDALIA AVENUE","0","0","0","1","820","3","3044520366","305","42","1070","East New York","40.658474","-73.866915","11239"
"48877","951093","New Construction","3","4452","367","3398304","749","VANDALIA AVENUE","0","0","0","1","820","3","3044520367","305","42","1070","East New York","40.658504","-73.866839","11239"
"48877","951095","New Construction","3","4452","368","3398305","751","VANDALIA AVENUE","0","0","0","1","820","3","3044520368","305","42","1070","East New York","40.658537","-73.866767","11239"
"48877","951097","New Construction","3","4452","369","3398306","753","VANDALIA AVENUE","0","0","0","1","820","3","3044520369","305","42","1070","East New York","40.658569","-73.866691","11239"
"48877","951099","New Construction","3","4452","370","3398307","755","VANDALIA AVENUE","0","0","0","1","820","3","3044520370","305","42","1070","East New York","40.658602","-73.866615","11239"
"48877","951101","New Construction","3","4452","371","3398308","757","VANDALIA AVENUE","0","0","0","1","820","3","3044520371","305","42","1070","East New York","40.658632","-73.866543","11239"
"48877","951103","New Construction","3","4452","372","3398309","759","VANDALIA AVENUE","0","0","0","1","820","3","3044520372","305","42","1070","East New York","40.658665","-73.866467","11239"
"48877","951105","New Construction","3","4452","373","3398310","761","VANDALIA AVENUE","0","0","0","1","820","3","3044520373","305","42","1070","East New York","40.658698","-73.866392","11239"
"48877","951107","New Construction","3","4452","374","3398311","763","VANDALIA AVENUE","0","0","0","1","820","3","3044520374","305","42","1070","East New York","40.658731","-73.866316","11239"
"48877","951318","New Construction","3","4452","301","3398247","694","EGAN STREET","0","0","0","1","820","3","3044520301","305","42","1070","East New York","40.658292","-73.869254","11239"
"48877","951319","New Construction","3","4452","302","3398248","696","EGAN STREET","0","0","0","1","820","3","3044520302","305","42","1070","East New York","40.658309","-73.869211","11239"
"48877","951320","New Construction","3","4452","303","3398249","698","EGAN STREET","0","0","0","1","820","3","3044520303","305","42","1070","East New York","40.658328","-73.869171","11239"
"48877","951321","New Construction","3","4452","304","3398250","700","EGAN STREET","0","0","0","1","820","3","3044520304","305","42","1070","East New York","40.658344","-73.869128","11239"
"48877","951322","New Construction","3","4452","305","3398254","702","EGAN STREET","0","0","0","1","820","3","3044520305","305","42","1070","East New York","40.658361","-73.869085","11239"
"48877","951323","New Construction","3","4452","306","3398255","704","EGAN STREET","0","0","0","1","820","3","3044520306","305","42","1070","East New York","40.65838","-73.869045","11239"
"48877","951324","New Construction","3","4452","307","3398256","706","EGAN STREET","0","0","0","1","820","3","3044520307","305","42","1070","East New York","40.658396","-73.869002","11239"
"48877","951325","New Construction","3","4452","308","3413855","708","EGAN STREET","0","0","0","1","820","3","3044520308","305","42","1070","East New York","40.658416","-73.868962","11239"
"48877","951326","New Construction","3","4452","309","3398259","710","EGAN STREET","0","0","0","1","820","3","3044520309","305","42","1070","East New York","40.658432","-73.868919","11239"
"48877","951327","New Construction","3","4452","310","3398260","712","EGAN STREET","0","0","0","1","820","3","3044520310","305","42","1070","East New York","40.658451","-73.868879","11239"
"48877","951328","New Construction","3","4452","311","3398261","714","EGAN STREET","0","0","0","1","820","3","3044520311","305","42","1070","East New York","40.658468","-73.868836","11239"
"48877","951329","New Construction","3","4452","312","3398262","716","EGAN STREET","0","0","0","1","820","3","3044520312","305","42","1070","East New York","40.658484","-73.868796","11239"
"48877","951330","New Construction","3","4452","313","3398263","718","EGAN STREET","0","0","0","1","820","3","3044520313","305","42","1070","East New York","40.658503","-73.868753","11239"
"48877","951331","New Construction","3","4452","314","3398264","720","EGAN STREET","0","0","0","1","820","3","3044520314","305","42","1070","East New York","40.65852","-73.868713","11239"
"48877","951332","New Construction","3","4452","315","3398265","722","EGAN STREET","0","0","0","1","820","3","3044520315","305","42","1070","East New York","40.658539","-73.86867","11239"
"48877","951333","New Construction","3","4452","316","3398266","724","EGAN STREET","0","0","0","1","820","3","3044520316","305","42","1070","East New York","40.658555","-73.86863","11239"
"48877","951334","New Construction","3","4452","317","3398267","726","EGAN STREET","0","0","0","1","820","3","3044520317","305","42","1070","East New York","40.658572","-73.868587","11239"
"48877","951335","New Construction","3","4452","318","3398268","728","EGAN STREET","0","0","0","1","820","3","3044520318","305","42","1070","East New York","40.658591","-73.868543","11239"
"48877","951336","New Construction","3","4452","319","3398269","730","EGAN STREET","0","0","0","1","820","3","3044520319","305","42","1070","East New York","40.658607","-73.868504","11239"
"48877","951337","New Construction","3","4452","320","3398270","732","EGAN STREET","0","0","0","1","820","3","3044520320","305","42","1070","East New York","40.658626","-73.868461","11239"
"48877","951338","New Construction","3","4452","321","3398271","734","EGAN STREET","0","0","0","1","820","3","3044520321","305","42","1070","East New York","40.658643","-73.868421","11239"
"48877","951339","New Construction","3","4452","322","3398272","736","EGAN STREET","0","0","0","1","820","3","3044520322","305","42","1070","East New York","40.658662","-73.868378","11239"
"48877","951387","New Construction","3","4452","343","3398273","738","EGAN STREET","0","0","0","1","820","3","3044520343","305","42","1070","East New York","40.65887","-73.867887","11239"
"48877","951388","New Construction","3","4452","344","3398274","740","EGAN STREET","0","0","0","1","820","3","3044520344","305","42","1070","East New York","40.658897","-73.867815","11239"
"48877","951389","New Construction","3","4452","345","3398275","742","EGAN STREET","0","0","0","1","820","3","3044520345","305","42","1070","East New York","40.658927","-73.867746","11239"
"48877","951390","New Construction","3","4452","346","3398276","744","EGAN STREET","0","0","0","1","820","3","3044520346","305","42","1070","East New York","40.658958","-73.867674","11239"
"48877","951391","New Construction","3","4452","347","3398277","746","EGAN STREET","0","0","0","1","820","3","3044520347","305","42","1070","East New York","40.658988","-73.867606","11239"
"48877","951392","New Construction","3","4452","348","3398278","748","EGAN STREET","0","0","0","1","820","3","3044520348","305","42","1070","East New York","40.659018","-73.867533","11239"
"48877","951393","New Construction","3","4452","349","3398279","750","EGAN STREET","0","0","0","1","820","3","3044520349","305","42","1070","East New York","40.659048","-73.867465","11239"
"48877","951394","New Construction","3","4452","350","3398280","752","EGAN STREET","0","0","0","1","820","3","3044520350","305","42","1070","East New York","40.659075","-73.867393","11239"
"48877","951395","New Construction","3","4452","351","3398281","754","EGAN STREET","0","0","0","1","820","3","3044520351","305","42","1070","East New York","40.659105","-73.867324","11239"
"48877","951396","New Construction","3","4452","352","3398282","756","EGAN STREET","0","0","0","1","820","3","3044520352","305","42","1070","East New York","40.659135","-73.867252","11239"
"48877","951397","New Construction","3","4452","353","3398283","758","EGAN STREET","0","0","0","1","820","3","3044520353","305","42","1070","East New York","40.659166","-73.867184","11239"
"48877","951398","New Construction","3","4452","354","3398284","760","EGAN STREET","0","0","0","1","820","3","3044520354","305","42","1070","East New York","40.659196","-73.867111","11239"
"48877","951399","New Construction","3","4452","355","3398285","762","EGAN STREET","0","0","0","1","820","3","3044520355","305","42","1070","East New York","40.659226","-73.867043","11239"
"48877","951400","New Construction","3","4452","356","3398286","764","EGAN STREET","0","0","0","1","820","3","3044520356","305","42","1070","East New York","40.659256","-73.866971","11239"
"48877","951401","New Construction","3","4452","358","3398288","768","EGAN STREET","0","0","0","1","820","3","3044520358","305","42","1070","East New York","40.659313","-73.86683","11239"
"48877","951402","New Construction","3","4452","357","3398287","766","EGAN STREET","0","0","0","1","820","3","3044520357","305","42","1070","East New York","40.659283","-73.866902","11239"
"48877","951455","New Construction","3","4452","330","3398319","707","VANDALIA AVENUE","0","0","0","1","820","3","3044520330","305","42","1070","East New York","40.657713","-73.868679","11239"
"48879","954108","Preservation","4","811","1","4616405","19-73","38 STREET","84","0","84","84","33900","4","4008110001","401","22","12301","Steinway","40.777568","-73.901635","11105"
"48885","1182","Preservation","1","1678","1","1081081","2086","2 AVENUE","0","118","118","118","0","20","1016780001","111","8","170","East Harlem South","40.791363","-73.941885","10029"
"48885","1946","Preservation","1","1656","1","1080689","1925","3 AVENUE","0","114","114","114","0","20","1016560001","111","8","170","East Harlem South","40.791666","-73.944594","10029"
"48885","804638","Preservation","1","1656","1","1080691","225","EAST 106 STREET","0","116","116","116","0","20","1016560001","111","8","170","East Harlem South","40.791073","-73.943475","10029"
"48885","804639","Preservation","1","1678","1","1081083","315","EAST 106 STREET","0","118","118","118","0","20","1016780001","111","8","170","East Harlem South","40.790265","-73.941561","10029"
"48885","804640","Preservation","1","1678","1","1081085","325","EAST 106 STREET","0","118","118","118","0","20","1016780001","111","8","170","East Harlem South","40.790086","-73.941139","10029"
"48885","804647","Preservation","1","1678","1","1081080","324","EAST 108 STREET","0","118","118","118","0","20","1016780001","111","8","170","East Harlem South","40.791403","-73.940332","10029"
"48885","804648","Preservation","1","1678","1","1081079","334","EAST 108 STREET","0","118","118","118","0","20","1016780001","111","8","170","East Harlem South","40.791244","-73.939957","10029"
"48885","804717","Preservation","1","1656","1","1080690","211","EAST 106 STREET","0","115","115","115","0","20","1016560001","111","8","170","East Harlem South","40.79137","-73.944179","10029"
"48885","804823","Preservation","1","1678","1","1081084","2065","1 AVENUE","0","118","118","118","0","20","1016780001","111","8","170","East Harlem South","40.790017","-73.939792","10029"
"48885","804824","Preservation","1","1678","1","1081078","2075","1 AVENUE","0","118","118","118","0","20","1016780001","111","8","170","East Harlem South","40.790376","-73.939532","10029"
"48885","805279","Preservation","1","1656","1","1084322","2075","2 AVENUE","0","116","116","116","0","20","1016560001","111","8","170","East Harlem South","40.791067","-73.942128","10029"
"48885","805280","Preservation","1","1678","1","1081082","2078","SECOND AVENUE","0","118","118","118","0","20","1016780001","111","8","170","East Harlem South","40.791036","-73.942124","10029"
"48885","805281","Preservation","1","1656","1","1080693","2081","2 AVENUE","0","114","114","114","0","20","1016560001","111","8","170","East Harlem South","40.791371","-73.941907","10029"
"48885","805394","Preservation","1","1656","1","1080688","1945","3 AVENUE","0","115","115","115","0","20","1016560001","111","8","170","East Harlem South","40.792374","-73.944073","10029"
"48886","51243","Preservation","2","3293","135","2016825","2621","BRIGGS AVENUE","0","0","0","49","1300","5","2032930135","207","15","39901","Bedford Park-Fordham North","40.864431","-73.893151","10458"
"48886","66855","Preservation","2","3174","24","2013923","62","EAST 190 STREET","0","0","0","27","7131","5","2031740024","207","14","401","Bedford Park-Fordham North","40.863011","-73.898475","10468"
"48886","66882","Preservation","2","3276","36","2016344","353","EAST 193 STREET","0","0","0","11","3053","5","2032760036","207","15","39901","Bedford Park-Fordham North","40.863246","-73.891114","10458"
"48886","67110","Preservation","2","3283","37","2016501","364","EAST 197 STREET","0","0","0","14","2850","4","2032830037","207","15","40502","Bedford Park-Fordham North","40.865933","-73.887943","10458"
"48886","117114","Preservation","2","3300","11","2016995","2666","VALENTINE AVENUE","0","0","0","11","2884","5","2033000011","207","15","40501","Bedford Park-Fordham North","40.865784","-73.893008","10458"
"48886","117122","Preservation","2","3300","23","2017001","2690","VALENTINE AVENUE","0","0","0","10","3973","5","2033000023","207","15","40501","Bedford Park-Fordham North","40.866182","-73.892812","10458"
"48886","117124","Preservation","2","3300","27","2017003","2698","VALENTINE AVENUE","0","0","0","10","4690","5","2033000027","207","15","40501","Bedford Park-Fordham North","40.866571","-73.892562","10458"
"48887","57693","Preservation","2","3737","37","2023761","1160","COLGATE AVENUE","0","0","0","17","0","4","2037370037","209","17","52","Soundview-Bruckner","40.827218","-73.881706","10472"
"48889","342209","Preservation","3","7268","1","3320750","828","NEPTUNE AVENUE","0","0","0","318","16979","20","3072680001","313","48","350","West Brighton","40.579693","-73.977216","11224"
"48889","809793","Preservation","3","7268","1","3320751","2892","WEST 8 STREET","0","0","0","314","16979","20","3072680001","313","48","350","West Brighton","40.578208","-73.97636","11224"
"48889","809794","Preservation","3","7268","1","3320752","2954","WEST 8 STREET","0","0","0","318","16979","20","3072680001","313","48","350","West Brighton","40.576608","-73.976508","11224"
"48889","809803","Preservation","3","7268","1","3320749","2823","WEST 12 STREET","0","0","0","314","16979","20","3072680001","313","48","350","West Brighton","40.578818","-73.979603","11224"
"48889","809804","Preservation","3","7268","1","3320753","2879","WEST 12 STREET","0","0","0","312","16979","20","3072680001","313","48","350","West Brighton","40.577347","-73.979603","11224"
"48890","59889","Preservation","2","3083","68","2012405","2129","CROTONA AVENUE","0","0","0","45","0","6","2030830068","206","15","373","East Tremont","40.849097","-73.887964","10457"
"48891","88316","Preservation","2","2859","1","2008319","1484","INWOOD AVENUE","0","0","0","27","0","6","2028590001","204","14","209","West Concourse","40.842551","-73.917452","10452"
"48892","53714","Preservation","2","3001","6","2010870","1522","BRYANT AVENUE","0","0","0","11","2200","5","2030010006","203","17","157","Crotona Park East","40.833489","-73.886881","10460"
"48895","57674","Preservation","2","3737","18","2092814","1130","COLGATE AVENUE","0","0","0","12","23403","4","2037370018","209","17","52","Soundview-Bruckner","40.826641","-73.88157","10472"
"48895","806379","Preservation","2","3737","18","2092815","1132","COLGATE AVENUE","0","0","0","12","23403","4","2037370018","209","17","52","Soundview-Bruckner","40.82668","-73.881581","10472"
"48895","806380","Preservation","2","3737","18","2092816","1136","COLGATE AVENUE","0","0","0","12","23403","4","2037370018","209","17","52","Soundview-Bruckner","40.826757","-73.881599","10472"
"48895","806381","Preservation","2","3737","18","2092817","1138","COLGATE AVENUE","0","0","0","12","23403","4","2037370018","209","17","52","Soundview-Bruckner","40.826795","-73.881606","10472"
"48895","806382","Preservation","2","3737","18","2092818","1140","COLGATE AVENUE","0","0","0","12","23403","4","2037370018","209","17","52","Soundview-Bruckner","40.826834","-73.881617","10472"
"48895","806383","Preservation","2","3737","18","2092819","1142","COLGATE AVENUE","0","0","0","12","23403","4","2037370018","209","17","52","Soundview-Bruckner","40.826872","-73.881624","10472"
"48895","806384","Preservation","2","3737","18","2092820","1146","COLGATE AVENUE","0","0","0","12","23403","4","2037370018","209","17","52","Soundview-Bruckner","40.826949","-73.881642","10472"
"48896","216940","Preservation","3","2044","13","3257033","105","CARLTON AVENUE","0","0","0","135","15000","5","3020440013","302","35","18501","Fort Greene","40.694581","-73.973188","11205"
"48897","8023","Preservation","1","2087","31","1062299","3405","BROADWAY","0","0","0","16","3250","6","1020870031","109","7","225","Hamilton Heights","40.822213","-73.953539","10031"
"48898","822634","Preservation","1","1748","1","1084826","1883","MADISON AVENUE","0","135","135","135","308799","6","1017480001","111","9","198","East Harlem North","40.803857","-73.942069","10035"
"48899","4360","Preservation","1","749","24","1083599","315","8 AVENUE","0","0","0","186","59250","21","1007490024","104","3","93","Hudson Yards-Chelsea-Flatiron-Union Square","40.746984","-73.997272","10001"
"48899","4371","Preservation","1","752","1","1083604","363","8 AVENUE","0","0","0","186","84550","21","1007520001","104","3","97","Hudson Yards-Chelsea-Flatiron-Union Square","40.748535","-73.996138","10001"
"48899","4623","Preservation","1","747","1","1078541","350","WEST 24 STREET","0","0","0","186","71700","21","1007470001","104","3","93","Hudson Yards-Chelsea-Flatiron-Union Square","40.746825","-74.000448","10011"
"48899","4633","Preservation","1","749","1","1013458","365","WEST 25 STREET","0","0","0","186","49375","21","1007490001","104","3","93","Hudson Yards-Chelsea-Flatiron-Union Square","40.747426","-73.999552","10001"
"48899","4636","Preservation","1","751","1","1082794","270","9 AVENUE","0","0","0","378","393100","21","1007510001","104","3","97","Hudson Yards-Chelsea-Flatiron-Union Square","40.748497","-73.999856","10001"
"48899","31596","Preservation","1","748","1","1083596","311","WEST 24 STREET","0","0","0","378","206175","21","1007480001","104","3","93","Hudson Yards-Chelsea-Flatiron-Union Square","40.746043","-73.998333","10011"
"48899","803934","Preservation","1","751","1","1082793","345","8 AVENUE","0","0","0","378","393100","21","1007510001","104","3","97","Hudson Yards-Chelsea-Flatiron-Union Square","40.74792","-73.996589","10001"
"48899","805574","Preservation","1","748","1","1083598","341","WEST 24 STREET","0","0","0","378","206175","21","1007480001","104","3","93","Hudson Yards-Chelsea-Flatiron-Union Square","40.746325","-73.999802","10011"
"48899","805584","Preservation","1","751","1","1082796","330","WEST 28 STREET","0","0","0","378","393100","21","1007510001","104","3","97","Hudson Yards-Chelsea-Flatiron-Union Square","40.749131","-73.997019","10001"
"48899","805585","Preservation","1","752","1","1083605","365","WEST 28 STREET","0","0","0","186","84550","21","1007520001","104","3","97","Hudson Yards-Chelsea-Flatiron-Union Square","40.749501","-73.998444","10001"
"48902","88267","Preservation","2","2722","1","2087653","854","INTERVALE AVENUE","0","0","0","15","4345","4","2027220001","202","17","89","Hunts Point","40.817721","-73.895441","10459"
"48906","948178","New Construction","3","4829","5","3000000","560","WINTHROP STREET","293","0","293","293","1","9","3048290005","309","40","808","Prospect Lefferts Gardens-Wingate","40.657646","-73.941519","11203"
"48908","139704","Preservation","3","1043","21","3023754","342","14 STREET","8","0","8","8","5370","4","3010430021","306","39","149","Park Slope-Gowanus","40.664547","-73.985474","11215"
"48908","307271","Preservation","3","1656","48","3045833","633","HANCOCK STREET","6","0","6","6","3388","3","3016560048","303","36","295","Stuyvesant Heights","40.684827","-73.930177","11233"
"48908","330823","Preservation","3","1823","29","3051638","248","MADISON STREET","8","0","8","8","6632","4","3018230029","303","36","249","Bedford","40.684908","-73.948868","11216"
"48908","330827","Preservation","3","1823","31","3051639","250","MADISON STREET","8","0","8","8","6632","4","3018230031","303","36","249","Bedford","40.684916","-73.948804","11216"
"48908","352128","Preservation","3","1235","71","3031307","941","PARK PLACE","16","0","16","16","7636","4","3012350071","308","36","341","Crown Heights North","40.673223","-73.946318","11213"
"48908","358597","Preservation","3","1483","58","3039714","969","PUTNAM AVENUE","8","0","8","8","5080","4","3014830058","303","41","375","Stuyvesant Heights","40.687229","-73.922285","11221"
"48908","375049","Preservation","3","1223","1","3030801","915","ST MARKS AVENUE","4","0","4","4","4319","4","3012230001","308","36","311","Crown Heights North","40.674735","-73.941295","11213"
"48908","375083","Preservation","3","1223","52","3030844","971","ST MARKS AVENUE","8","0","8","8","5332","4","3012230052","308","36","311","Crown Heights North","40.674622","-73.939161","11213"
"48908","375084","Preservation","3","1223","51","3030843","973","ST MARKS AVENUE","8","0","8","8","5222","4","3012230051","308","36","311","Crown Heights North","40.674619","-73.939099","11213"
"48909","947309","New Construction","2","5141","7501","2123665","2217","GIVAN AVENUE","0","0","0","101","8769","11","2051417501","210","12","46201","Co-op City","40.880249","-73.828026","10475"
"48910","946091","New Construction","2","5141","7501","2111961","2219","GIVAN AVENUE","0","0","0","79","6332","11","2051417501","210","12","46201","Co-op City","40.880255","-73.828008","10475"
"48928","97290","Preservation","2","2443","170",,"775","CONCOURSE VILLAGE EAST","0","0","0","313","11319","23",,"204","16","61","East Concourse-Concourse Village","40.823224","-73.919763","10451"
"48928","109464","Preservation","2","2443","9080",,"780","CONCOURSE VILLAGE WEST","0","0","0","312","6000","25",,"204","16","61","East Concourse-Concourse Village","40.823921","-73.922884","10451"
"48928","806181","Preservation","2","2443","9080",,"790","CONCOURSE VILLAGE WEST","0","0","0","312","6000","25",,"204","16","61","East Concourse-Concourse Village","40.824382","-73.922613","10451"
"48928","806388","Preservation","2","2443","170",,"773","CONCOURSE VILLAGE EAST","0","0","0","313","11319","25",,"204","16","61","East Concourse-Concourse Village","40.823046","-73.919861","10451"
"48928","806389","Preservation","2","2443","170",,"779","CONCOURSE VILLAGE EAST","0","0","0","314","11319","25",,"204","16","61","East Concourse-Concourse Village","40.823885","-73.919397","10451"
"48928","806390","Preservation","2","2443","9080",,"800","CONCOURSE VILLAGE WEST","0","0","0","314","6000","25",,"204","16","61","East Concourse-Concourse Village","40.824859","-73.92233","10451"
"48929","949024","New Construction","1","700","27","1090201","507","WEST 28 STREET","0","0","0","375","17284","35","1007000027","104","3","99","Hudson Yards-Chelsea-Flatiron-Union Square","40.751219","-74.002786","10001"
"48937","21460","Preservation","1","507","10","1007852","244","ELIZABETH STREET","0","0","0","19","2630","5","1005070010","102","1","43","SoHo-TriBeCa-Civic Center-Little Italy","40.723423","-73.993856","10012"
"48940","42095","Preservation","1","2033","24","1060531","207","WEST 147 STREET","2","13","15","15","3747","5","1020330024","110","9","234","Central Harlem North-Polo Grounds","40.823197","-73.938732","10039"
"48973","40680","Preservation","1","1987","41","1059745","508","WEST 134 STREET","0","15","15","15","2738","5","1019870041","109","7","219","Manhattanville","40.81853","-73.953448","10031"
"48996","972405","New Construction","1","406","6","1005201","204","AVENUE A","0","10","10","10","0","5","1004060006","103","2","34","East Village","40.729512","-73.981","10009"
"48996","972406","New Construction","1","406","47","1005227","535","EAST 12 STREET","11","0","11","11","0","5","1004060047","103","2","34","East Village","40.728708","-73.980405","10009"
"49010","346924","Preservation","3","1233","47","3031212","722","NOSTRAND AVENUE","0","0","0","2","0","4","3012330047","308","36","31701","Crown Heights North","40.673922","-73.950128","11216"
"49026","85641","Preservation","2","3067","24","2011941","2501","HOFFMAN STREET","0","0","0","25","4000","5","2030670024","206","15","387","Belmont","40.858328","-73.886437","10458"
"49058","64797","Preservation","2","2622","5","2004395","576","EAST 165 STREET","0","0","0","68","13517","6","2026220005","203","16","185","Morrisania-Melrose","40.825695","-73.906615","10456"
"49060","52764","Preservation","2","2365","26","2001202","873","BROOK AVENUE","0","0","0","20","5000","5","2023650026","203","17","141","Morrisania-Melrose","40.82269","-73.910507","10451"
"49060","64260","Preservation","2","2405","13","2001758","370","EAST 159 STREET","0","0","0","4","2500","3","2024050013","201","17","69","Melrose South-Mott Haven North","40.823229","-73.915471","10451"
"49060","64309","Preservation","2","2419","13","2001902","320","EAST 160 STREET","0","0","0","6","2475","4","2024190013","203","17","69","Melrose South-Mott Haven North","40.824215","-73.91625","10451"
"49060","64510","Preservation","2","2408","33","2001803","369","EAST 162 STREET","0","0","0","16","3352","5","2024080033","203","17","143","East Concourse-Concourse Village","40.825021","-73.91416100000001","10451"
"49060","95625","Preservation","2","2384","7","2001520","920","MELROSE AVENUE","0","0","0","4","2900","4","2023840007","203","17","141","Morrisania-Melrose","40.825064","-73.913362","10451"
"49067","64306","Preservation","2","2360","70","2001154","530","EAST 159 STREET","0","0","0","44","0","6","2023600070","201","17","71","Melrose South-Mott Haven North","40.82137","-73.91061","10451"
"49070","213832","Preservation","3","1484","15","3039725","1438","BROADWAY","0","0","0","9","0","4","3014840015","303","41","375","Stuyvesant Heights","40.688073","-73.919583","11221"
"49070","334864","Preservation","3","1501","26","3040340","706","MAC DONOUGH STREET","0","0","0","4","1313","3","3015010026","303","41","377","Stuyvesant Heights","40.683927","-73.918283","11233"
"49070","357634","Preservation","3","1484","47","3039736","1001","PUTNAM AVENUE","0","0","0","6","1300","4","3014840047","303","41","375","Stuyvesant Heights","40.687426","-73.920572","11221"
"49070","357669","Preservation","3","1486","20","3039813","1064","PUTNAM AVENUE","0","0","0","5","1625","3","3014860020","303","41","375","Stuyvesant Heights","40.687521","-73.919627","11221"
"49070","357675","Preservation","3","1486","25","3039818","1074","PUTNAM AVENUE","0","0","0","3","855","3","3014860025","303","41","375","Stuyvesant Heights","40.687554","-73.919332","11221"
"49070","357677","Preservation","3","1486","27","3039820","1078","PUTNAM AVENUE","0","0","0","13","3805","4","3014860027","303","41","375","Stuyvesant Heights","40.68757","-73.919216","11221"
"49070","359775","Preservation","3","1653","59","3045637","104","RALPH AVENUE","0","0","0","7","1680","4","3016530059","303","41","385","Stuyvesant Heights","40.686453","-73.923429","11221"
"49103","59514","Preservation","2","2872","312","2008717","1479","CROMWELL AVENUE","0","0","0","72","13367","6","2028720312","204","16","21302","Highbridge","40.842527","-73.918547","10452"
"49143","945536","New Construction","4","6","7501",,"20090","BORDEN AVENUE","0","0","0","306","12100","32",,"402","26","1","Hunters Point-Sunnyside-West Maspeth","40.740477","-73.950129","11101"
"49147","6125","Preservation","1","2174","188","1064203","21","ARDEN STREET","0","15","15","15","0","5","1021740188","112","10","285","Washington Heights North","40.861702","-73.926969","10040"
"49171","64618","Preservation","2","2632","1","2004497","665","EAST 163 STREET","0","0","0","62","111425","5","2026320001","203","16","185","Morrisania-Melrose","40.82345","-73.906167","10456"
"49171","113704","Preservation","2","2621","1","2116529","3250","3 AVENUE","0","0","0","63","137833","6","2026210001","203","16","185","Morrisania-Melrose","40.824212","-73.908633","10456"
"49171","806307","Preservation","2","2621","1","2004388","970","BOSTON ROAD","0","0","0","63","181500","5","2026210001","203","16","185","Morrisania-Melrose","40.824829","-73.908192","10456"
"49171","806372","Preservation","2","2621","1","2116530","955","CAULDWELL AVENUE","0","0","0","64","137833","6","2026210001","203","16","185","Morrisania-Melrose","40.824446","-73.906407","10456"
"49172","948177","New Construction","2","2421","27","2129176","316","EAST 162 STREET","86","0","86","86","5045","10","2024210027","204","17","173","East Concourse-Concourse Village","40.826032","-73.916443","10451"
"49173","946227","New Construction","2","3318","29","2128677","2808","JEROME AVENUE","0","0","0","31","3184","7","2033180029","207","14","40303","Van Cortlandt Village","40.87044","-73.894512","10468"
"49248",,"Preservation",,,,,,,"0","0","0","0","0","10",,,,,,,,
"49270","947270","New Construction","1","779","7","1014279","257","WEST 29 STREET","0","0","0","37","2469","14","1007790007","105","3","95","Midtown-Midtown South","40.748521","-73.994464","10001"
"49272","944498","New Construction","1","919","58","1000000","202","EAST 39 STREET","0","0","0","91","6392","0","1009190058","106","4","78","Murray Hill-Kips Bay","40.748796","-73.975653","10016"
"49273","944527","New Construction","3","2732","7501","3418255","59","FROST STREET","0","0","0","47","45129","7","3027327501","301","34","515","North Side-South Side","40.71764","-73.9495","11211"
"49275","394700","Preservation","3","7055","13","3189540","2950","WEST 24 STREET","0","0","0","120","34000","19","3070550013","313","47","326","Seagate-Coney Island","40.57454","-73.990886","11224"
"49275","809816","Preservation","3","7055","13","3189540","2960","WEST 24 STREET","0","0","0","120","34000","19","3070550013","313","47","326","Seagate-Coney Island","40.574326","-73.990846","11224"
"49275","809817","Preservation","3","7055","13","3189540","2970","WEST 24 STREET","0","0","0","120","34000","19","3070550013","313","47","326","Seagate-Coney Island","40.574134","-73.99081","11224"
"49276","944544","New Construction","1","1037","7501","1090496","733","8 AVENUE","0","0","0","12","2247","5","1010377501","104","3","127","Clinton","40.759887","-73.987868","10036"
"49281","550156","Preservation","4","9970","23","4213647","89-06","138 STREET","0","0","0","9","1951","3","4099700023","412","24","212","Jamaica","40.701293","-73.81439","11435"
"49281","944555","Preservation","4","10090","21","4457458","107-04","150 STREET","0","0","0","13","3256","4","4100900021","412","28","198","South Jamaica","40.694321","-73.800901","11435"
"49285","947478","New Construction","1","345","17","1089961","331","EAST HOUSTON STREET","0","0","0","78","4984","13","1003450017","103","2","2201","Lower East Side","40.721042","-73.982442","10002"
"49338","944796","New Construction","2","3013","7501","2128557","1512","BOONE AVENUE","0","0","0","127","6212","15","2030137501","203","17","157","Crotona Park East","40.83228","-73.885535","10460"
"49358","25197","Preservation","1","1843","14","1055683","153","MANHATTAN AVENUE","0","0","0","22","16000","6","1018430014","107","7","193","Morningside Heights","40.799427","-73.960927","10025"
"49358","25198","Preservation","1","1843","15","1055684","157","MANHATTAN AVENUE","0","0","0","24","16300","6","1018430015","107","7","193","Morningside Heights","40.79949","-73.96088","10025"
"49358","25199","Preservation","1","1843","16","1055685","161","MANHATTAN AVENUE","0","0","0","18","16000","6","1018430016","107","7","193","Morningside Heights","40.799553","-73.960833","10025"
"49391","945214","New Construction","1","806","7502","1088841","855","AVENUE OF THE AMERICAS","0","0","0","375","32929","33","1008067502","105","3","101","Midtown-Midtown South","40.747431","-73.989519","10001"
"49418","1101","Preservation","1","1558","50","1050342","1850","SECOND AVENUE","0","0","0","49","62500","26","1015580050","108","5","15601","Yorkville","40.78396","-73.947283","10128"
"49445","40063","Preservation","1","1727","20","1053724","31","WEST 129 STREET","18","0","18","18","4138","6","1017270020","110","9","208","Central Harlem North-Polo Grounds","40.809604","-73.941909","10027"
"49445","40069","Preservation","1","1727","16","1053722","39","WEST 129 STREET","25","0","25","25","4996","6","1017270016","110","9","208","Central Harlem North-Polo Grounds","40.809665","-73.942057","10027"
"49445","40079","Preservation","1","1727","14","1053721","43","WEST 129 STREET","25","0","25","25","4996","6","1017270014","110","9","208","Central Harlem North-Polo Grounds","40.809698","-73.942129","10027"
"49445","40088","Preservation","1","1727","10","1053719","53","WEST 129 STREET","24","0","24","24","4996","6","1017270010","110","9","208","Central Harlem North-Polo Grounds","40.809778","-73.942317","10027"
"49455","42407","Preservation","1","2036","10","1060588","287","WEST 150 STREET","0","0","0","20","3444","5","1020360010","110","9","236","Central Harlem North-Polo Grounds","40.825657","-73.938755","10039"
"49481","946226","New Construction","2","2370","35","2128570","3361","3 AVENUE","0","0","0","63","4628","7","2023700035","203","16","185","Morrisania-Melrose","40.826602","-73.907698","10456"
"49501","79187","Preservation","2","2709","34","2005606","847","FOX STREET","0","8","8","8","7400","4","2027090034","202","17","87","Longwood","40.817743","-73.896088","10459"
"49517","945811","New Construction","2","3360","70","2121023","3580","WEBSTER AVENUE","0","0","0","95","7825","13","2033600070","212","11","435","park-cemetery-etc-Bronx","40.88149","-73.870374","10467"
"49533","211017","Preservation","3","3077","1","3327971","54","BOERUM STREET","0","387","387","387","0","21","3030770001","301","34","491","East Williamsburg","40.705512","-73.947161","11206"
"49533","211018","Preservation","3","3060","75","3071200","91","BOERUM STREET","0","387","387","387","0","21","3030600075","301","34","505","East Williamsburg","40.705676","-73.945513","11206"
"49533","331799","Preservation","3","3078","1","3338422","67","MANHATTAN AVENUE","0","387","387","387","0","21","3030780001","301","34","491","East Williamsburg","40.704699","-73.944525","11206"
"49533","340170","Preservation","3","3058","1","3338413","30","MONTROSE AVENUE","0","387","387","387","0","22","3030580001","301","34","511","East Williamsburg","40.706762","-73.949111","11206"
"49533","807809","Preservation","3","3058","1","3338415","25","BOERUM STREET","0","387","387","387","0","22","3030580001","301","34","511","East Williamsburg","40.705359","-73.948755","11206"
"49533","808686","Preservation","3","3077","1","3327972","31","LEONARD STREET","0","387","387","387","0","21","3030770001","301","34","491","East Williamsburg","40.70428","-73.946062","11206"
"49533","808883","Preservation","3","3078","1","3338423","29","MOORE STREET","0","387","387","387","0","21","3030780001","301","34","491","East Williamsburg","40.703513","-73.945118","11206"
"49534","945855","New Construction","2","2988","16","2127575","1500","HOE AVENUE","0","0","0","84","16875","8","2029880016","203","17","157","Crotona Park East","40.833126","-73.889158","10460"
"49544","10734","Preservation","1","373","18","1004386","330","EAST 4 STREET","33","0","33","33","2204","5","1003730018","103","2","2601","Lower East Side","40.721788","-73.979022","10009"
"49562","60426","Preservation","2","2867","47","2008501","1711","DAVIDSON AVENUE","39","47","86","86","98700","6","2028670047","205","14","217","University Heights-Morris Heights","40.847549","-73.913625","10453"
"49569","20765","Preservation","1","1775","165","1054499","112","EAST 128 STREET","0","0","0","157","25944","12","1017750165","111","9","242","East Harlem North","40.806676","-73.936941","10035"
"49570","10011","Preservation","1","2064","47","1079809","455","CONVENT AVENUE","0","0","0","3","688","4","1020640047","109","9","231","Hamilton Heights","40.827633","-73.944025","10031"
"49570","42452","Preservation","1","2081","142","1062132","524","WEST 150 STREET","0","0","0","3","797","3","1020810142","109","7","233","Hamilton Heights","40.828762","-73.946182","10031"
"49570","804217","Preservation","1","2064","46","1079827","457","CONVENT AVENUE","0","0","0","3","688","4","1020640046","109","9","231","Hamilton Heights","40.827677","-73.943993","10031"
"49575","945947","New Construction","2","2369","12","2127051","1016","WASHINGTON AVENUE","0","0","0","65","86581","9","2023690012","203","17","185","Morrisania-Melrose","40.826582","-73.909505","10456"
"49576","945948","New Construction","2","4647","7501","2129019","3639","WHITE PLAINS ROAD","0","0","0","69","62600","6","2046477501","212","12","378","Williamsbridge-Olinville","40.880117","-73.864811","10467"
"49588","949027","New Construction","1","933","7501","1084666","335","EAST 27 STREET","23","0","23","55","3560","9","1009337501","106","2","66","Murray Hill-Kips Bay","40.739566","-73.977039","10016"
"49607","954885","New Construction","2","2845","47","2128647","1561","WALTON AVENUE","60","0","60","60","9196","11","2028450047","204","14","209","West Concourse","40.843001","-73.913498","10452"
"49625","952254","New Construction","2","2333","1","2128555","255","E. 138TH STREET","96","0","96","96","20974","8","2023337501","201","8","51","Mott Haven-Port Morris","40.811367","-73.927649","10451"
"49628","20629","Preservation","1","1775","6","1054496","107","EAST 126 STREET","0","0","0","255","23797","11","1017750006","111","9","242","East Harlem North","40.805507","-73.937997","10035"
"49635","502964","Preservation","4","10318","17","4220047","178-25","93 AVENUE","0","1","1","1","2142","2","4103180017","412","27","444","Jamaica","40.707133","-73.782194","11433"
"49635","509831","Preservation","4","10848","5","4231913","201-10","99 AVENUE","0","1","1","1","1398","2","4108480005","412","27","50202","Hollis","40.711824","-73.758775","11423"
"49635","524251","Preservation","4","11137","146","4240176","212-44","112 ROAD","0","1","1","1","1720","2","4111370146","413","27","538","Queens Village","40.705481","-73.743913","11429"
"49635","524259","Preservation","4","11141","88","4240288","214-05","112 ROAD","0","1","1","1","1248","2","4111410088","413","27","538","Queens Village","40.704996","-73.741737","11429"
"49635","544606","Preservation","4","12977","34","4279539","241-51","132 ROAD","0","1","1","1","1600","2","4129770034","413","31","61602","Rosedale","40.675525","-73.730624","11422"
"49635","546603","Preservation","4","13101","32","4281401","221-16","134 ROAD","0","1","1","1","1352","2","4131010032","413","31","358","Laurelton","40.677637","-73.748372","11413"
"49635","589793","Preservation","4","12622","29","4271855","118-46","198 STREET","0","1","1","1","1520","2","4126220029","412","27","376","St. Albans","40.692085","-73.75338","11412"
"49635","606794","Preservation","4","11164","28","4240715","104-29","219 STREET","0","1","1","1","1440","2","4111640028","413","27","580","Queens Village","40.711537","-73.735702","11429"
"49635","606930","Preservation","4","12736","38","4274375","117-41","219 STREET","0","1","1","1","1216","2","4127360038","413","27","608","Cambria Heights","40.694447","-73.741493","11411"
"49635","607523","Preservation","4","13128","4",,"137-35","220 PLACE","0","1","1","1","840","2",,"413","31","358","Laurelton","40.674181","-73.750883","11413"
"49635","611062","Preservation","4","12934","129","4278619","131-25","224 STREET","0","1","1","1","1474","0","4129340129","413","31","630","Laurelton","40.680543","-73.744135","11413"
"49635","611063","Preservation","4","12934","127","4278618","131-27","224 STREET","0","1","1","1","1440","2","4129340127","413","31","630","Laurelton","40.680504","-73.744157","11413"
"49635","743473","Preservation","5","1227","37","5027759","43","HARBOR ROAD","0","1","1","1","888","1","5012270037","501","49","223","Mariner's Harbor-Arlington-Port Ivory-Graniteville","40.636","-74.160204","10303"
"49657","377137","Preservation","3","1321","11",,"320","STERLING PLACE","0","0","0","0","0","6",,"308","35","207","Prospect Heights","40.675547","-73.967817","11238"
"49690","952080","New Construction","1","862","7504","1017014","160","MADISON AVENUE","0","0","0","319","17395","42","1008627504","105","4","74","Midtown-Midtown South","40.746769","-73.983698","10016"
"49706","948157","New Construction","3","2333","7501","3424736","149","KENT AVENUE","0","0","0","164","38520","7","3023337501","301","33","555","North Side-South Side","40.719303","-73.962803","11249"
"49713","950357","New Construction","2","2369","1","2000000","986","WASHINGTON AVENUE","95","0","95","95","0",,"2023690001","203","17","185","Morrisania-Melrose","40.825945","-73.909852","10456"
"49716","207180","Preservation","3","1734","58","3048430","825","BEDFORD AVENUE","4","0","4","4","0","4","3017340058","303","33","1237","Bedford","40.695657","-73.956347","11205"
"49716","247933","Preservation","3","5099","37","3117105","83","EAST 18 STREET","7","0","7","7","0","4","3050990037","314","40","51002","Flatbush","40.649155","-73.963012","11226"
"49716","294186","Preservation","3","3139","12","3071834","892","FLUSHING AVENUE","27","0","27","27","0","5","3031390012","304","34","391","Bushwick South","40.702106","-73.936153","11206"
"49716","322143","Preservation","3","1948","28","3055591","368","LAFAYETTE AVENUE","8","0","8","8","0","4","3019480028","302","35","231","Clinton Hill","40.688772","-73.960873","11238"
"49716","329197","Preservation","3","5127","15","3117702","72","LOTT STREET","4","0","4","4","0","4","3051270015","317","40","794","Erasmus","40.647749","-73.954209","11226"
"49716","329199","Preservation","3","5127","16","3117703","74","LOTT STREET","4","0","4","4","0","4","3051270016","317","40","794","Erasmus","40.647708","-73.954209","11226"
"49716","351171","Preservation","3","2031","57","3058003","165","PARK AVENUE","9","0","9","9","0","4","3020310057","302","35","211","Fort Greene","40.696228","-73.972831","11205"
"49716","388933","Preservation","3","1173","53","3029404","802","WASHINGTON AVENUE","12","0","12","12","0","4","3011730053","308","35","207","Prospect Heights","40.673995","-73.963041","11238"
"49716","388945","Preservation","3","1176","98","3029544","840","WASHINGTON AVENUE","13","0","13","13","0","4","3011760098","308","35","215","Prospect Heights","40.673037","-73.962854","11238"
"49722","948722","New Construction","3","3805","7501","3413699","491","SHEFFIELD AVENUE","52","0","52","52","9750","6","3038057501","305","42","1126","East New York (Pennsylvania Ave)","40.664986","-73.8951","11207"
"49722","948723","New Construction","3","3804","1","3421640","494","SHEFFIELD AVE","84","0","84","84","13880","8","3038047501","305","42","1126","East New York (Pennsylvania Ave)","40.664945","-73.895111","11207"
"49722","948724","New Construction","3","3820","7501","3418179","494","GEORGIA AVENUE","90","0","90","90","20000","7","3038207501","305","42","1130","East New York (Pennsylvania Ave)","40.664166","-73.895855","11207"
"49722","969838","New Construction","3","3819","7501","3418180","481","WILLIAMS AVENUE","52","0","52","52","10000","7","3038197501","305","42","1130","East New York (Pennsylvania Ave)","40.663863","-73.897661","11207"
"49908","955006","New Construction","1","1072","50","1090461","546","WEST 44 STREET","62","0","62","280","17792","14","1010720050","104","3","129","Clinton","40.761619","-73.996199","10036"
"49909",,"Preservation",,,,,,,"0","0","0","0","0","2",,,,,,,,
"49938","947501","New Construction","3","2494","1",,"31","EAGLE STREET","98","0","98","98","14557","7",,"301","33","563","Greenpoint","40.73476","-73.959294","11222"
"49943","948192","New Construction","3","2472","100",,"1","BLUE SLIP","92","0","92","93","14000","6",,"301","33","563","Greenpoint","40.735562","-73.959806","11222"
"49959","972807","New Construction","1","2038","7501","1089911","260","WEST 153 STREET","51","0","51","51","1","7","1020387501","110","9","236","Central Harlem North-Polo Grounds","40.82741","-73.937178","10039"
"50026","927138","New Construction","3","1507","32","3414036","8","ROCKAWAY AVENUE","79","0","79","79","8033","6","3015077501","316","41","373","Ocean Hill","40.683362","-73.911657","11233"
"50026","947649","New Construction","3","1503","29","3040472","1672","BROADWAY","55","0","55","55","4373","6","3015037501","316","41","373","Ocean Hill","40.684214","-73.912781","11207"
"50059","234927","Preservation","3","4061","1","3090031","877","DUMONT AVENUE","6","0","6","6","3190","3","3040610001","305","42","1162","East New York","40.667549","-73.886052","11207"
"50059","294143","Preservation","3","2276","3","3061501","717","FLUSHING AVENUE","4","0","4","4","2990","3","3022760003","301","33","507","Bedford","40.70051","-73.943768","11206"
"50059","300735","Preservation","3","3709","115","3083741","160","GLENMORE AVENUE","8","0","8","8","3423","3","3037090115","316","37","908","Brownsville","40.671851","-73.904949","11212"
"50059","305076","Preservation","3","3322","10","3076062","78","GROVE STREET","6","0","6","6","6630","3","3033220010","304","34","399","Bushwick South","40.692375","-73.92168","11221"
"50059","335793","Preservation","3","3309","32","3251914","275","MENAHAN STREET","6","0","6","6","3390","3","3033090032","304","37","433","Bushwick North","40.699288","-73.915981","11237"
"50059","362522","Preservation","3","1567","31","3042587","178","ROCKAWAY AVENUE","6","0","6","6","3100","3","3015670031","316","41","301","Ocean Hill","40.677046","-73.910868","11233"
"50059","396441","Preservation","3","1761","70","3048930","663","WILLOUGHBY AVENUE","3","0","3","3","3458","3","3017610070","303","36","283","Stuyvesant Heights","40.694627","-73.942702","11206"
"50088","949394","New Construction","2","2483","5","2002976","810","RIVER AVENUE","134","0","134","134","20000","17","2024830005","204","8","63","West Concourse","40.826092","-73.926925","10451"
"50104","927022","New Construction","2","2984","46","2124684","1825","BOSTON ROAD","80","0","80","80","20000","8","2029847503","203","17","161","Crotona Park East","40.838878","-73.885209","10460"
"50131","56818","Preservation","2","2430","43","2002159","1171","CLAY AVENUE","12","0","12","12","2232","5","2024300043","204","16","17701","East Concourse-Concourse Village","40.831669","-73.911023","10456"
"50131","56824","Preservation","2","2430","37","2002156","1183","CLAY AVENUE","12","0","12","12","2232","5","2024300037","204","16","17701","East Concourse-Concourse Village","40.831927","-73.910881","10456"
"50131","56832","Preservation","2","2426","59","2002082","1202","CLAY AVENUE","11","0","11","11","2171","5","2024260059","204","16","17701","East Concourse-Concourse Village","40.832377","-73.91061","10456"
"50131","81951","Preservation","2","2341","55","2001008","384","GRAND CONCOURSE","26","0","26","26","3178","5","2023410055","201","8","51","Mott Haven-Port Morris","40.816058","-73.928392","10451"
"50131","97336","Preservation","2","2449","23","2002575","1129","MORRIS AVENUE","5","0","5","5","1946","3","2024490023","204","16","18101","East Concourse-Concourse Village","40.83134","-73.915244","10456"
"50131","107220","Preservation","2","2700","9","2005392","1038","ROGERS PLACE","21","0","21","21","3752","5","2027000009","202","17","131","Longwood","40.824464","-73.897746","10459"
"50132","29016","Preservation","1","2166","69","1063978","273","WADSWORTH AVENUE","21","0","21","21","4306","5","1021660069","112","10","271","Washington Heights North","40.85338","-73.932364","10033"
"50156","944796","New Construction","2","3013","7501","2128557","1512","BOONE AVENUE","0","0","0","110","6212","15","2030137501","203","17","157","Crotona Park East","40.83228","-73.885535","10460"
"50157","927198","New Construction","3","389","28","3000000","346","BERGEN STREET","24","0","24","24","6000","6","3003890028","302","33","127","DUMBO-Vinegar Hill-Downtown Brooklyn-Boerum Hill","40.682824","-73.980487","11217"
"50181","948130","New Construction","1","1538","7501","1090174","203","EAST 92 STREET","0","0","0","231","11313","36","1015387501","108","5","154","Yorkville","40.782537","-73.950949","10128"
"50184","3548","Preservation","1","1941","36","1058898","2312","ADAM C POWELL BOULEVARD","8","0","8","8","2500","5","1019410036","110","9","228","Central Harlem North-Polo Grounds","40.815723","-73.943407","10030"
"50184","4083","Preservation","1","1940","3","1084051","2518","FREDERICK DOUGLASS BOULEVARD","22","0","22","22","6000","5","1019400003",,,,,,,
"50184","4091","Preservation","1","1941","3","1058870","2540","FREDERICK DOUGLASS BOULEVARD","17","0","17","17","4000","5","1019410003",,,,,,,
"50184","28132","Preservation","1","1959","58","1059459","488","ST NICHOLAS AVENUE","15","0","15","15","4000","5","1019590058","110","9","22102","Central Harlem North-Polo Grounds","40.81656","-73.948258","10030"
"50184","28134","Preservation","1","1959","56","1059458","490","ST NICHOLAS AVENUE","15","0","15","15","3600","5","1019590056","110","9","22102","Central Harlem North-Polo Grounds","40.816634","-73.948225","10030"
"50184","40723","Preservation","1","1940","39","1058844","216","WEST 135 STREET","8","0","8","8","3330","4","1019400039","110","9","228","Central Harlem North-Polo Grounds","40.815595","-73.944411","10030"
"50184","40735","Preservation","1","1941","14","1058880","229","WEST 135 STREET","8","0","8","8","2498","5","1019410014","110","9","228","Central Harlem North-Polo Grounds","40.815902","-73.945094","10030"
"50184","40737","Preservation","1","1941","13","1058879","231","WEST 135 STREET","8","0","8","8","24978","5","1019410013","110","9","228","Central Harlem North-Polo Grounds","40.815933","-73.94517","10030"
"50184","40739","Preservation","1","1941","12","1058878","233","WEST 135 STREET","8","0","8","8","2498","5","1019410012","110","9","228","Central Harlem North-Polo Grounds","40.815966","-73.945242","10030"
"50184","40741","Preservation","1","1941","11","1058877","235","WEST 135 STREET","8","0","8","8","2498","5","1019410011","110","9","228","Central Harlem North-Polo Grounds","40.815996","-73.945318","10030"
"50186","64613","Preservation","2","2620","25","2004376","574","EAST 163 STREET","0","0","0","16","3900","6","2026200025","203","17","141","Morrisania-Melrose","40.823907","-73.908128","10456"
"50186","64614","Preservation","2","2620","27","2004377","578","EAST 163 STREET","0","0","0","16","3900","6","2026200027","203","17","141","Morrisania-Melrose","40.823899","-73.908088","10456"
"50186","806534","Preservation","2","2620","29","2096046","586","EAST 163 STREET","0","0","0","16","3742","5","2026200029","203","17","141","Morrisania-Melrose","40.823877","-73.908009","10456"
"50193","329481","Preservation","3","373","46","3323276","93","LUQUER STREET","8","0","8","8","5100","4","3003730046","306","39","65","Carroll Gardens-Columbia Street-Red Hook","40.67789","-74.001089","11231"
"50193","341859","Preservation","3","526","15","3008346","60","NELSON STREET","6","0","6","6","1336","4","3005260015","306","38","59","Carroll Gardens-Columbia Street-Red Hook","40.677863","-74.003674","11231"
"50193","341863","Preservation","3","526","20","3008350","68","NELSON STREET","8","0","8","8","5100","4","3005260020","306","38","59","Carroll Gardens-Columbia Street-Red Hook","40.677822","-74.003526","11231"
"50193","341864","Preservation","3","526","20","3008351","70","NELSON STREET","8","0","8","8","5100","4","3005260020","306","38","59","Carroll Gardens-Columbia Street-Red Hook","40.677811","-74.003486","11231"
"50193","387264","Preservation","3","530","10","3008383","91","VERONA STREET","6","0","6","6","4625","3","3005300010","306","38","59","Carroll Gardens-Columbia Street-Red Hook","40.679663","-74.009338","11231"
"50193","808774","Preservation","3","373","46","3323275","95","LUQUER STREET","8","0","8","8","5000","4","3003730046","306","39","65","Carroll Gardens-Columbia Street-Red Hook","40.677882","-74.00106","11231"
"50196","49501","Preservation","2","3076","11","2012218","2431","BELMONT AVENUE","43","0","43","43","13781","5","2030760011","206","15","389","Belmont","40.855396","-73.885752","10458"
"50196","59948","Preservation","2","3104","1","2092313","2404","CROTONA AVENUE","24","0","24","24","55000","5","2031040001","206","15","393","Belmont","40.854315","-73.883411","10458"
"50196","87351","Preservation","2","3076","39","2012230","2476","HUGHES AVENUE","63","0","63","63","17500","5","2030760039","206","15","389","Belmont","40.85693","-73.885398","10458"
"50196","806409","Preservation","2","3104","1","2092314","2412","CROTONA AVENUE","25","0","25","25","15000","5","2031040001","206","15","393","Belmont","40.854475","-73.883331","10458"
"50196","806410","Preservation","2","3104","1","2092315","2416","CROTONA AVENUE","25","0","25","25","15000","5","2031040001","206","15","393","Belmont","40.854554","-73.883291","10458"
"50200","948174","New Construction","2","2938","9","2000000","1420","CROTONA PARK EAST","60","0","60","60","4378","8","2029420001","203","16","153","Crotona Park East","40.834596","-73.896325","10460"
"50201","372190","Preservation","3","2438","20","3063379","392","SOUTH 3 STREET","22","0","22","22","3900","6","3024380020","301","34","527","North Side-South Side","40.708525","-73.951628","11211"
"50205","65477","Preservation","2","3866","5","2027461","1585","EAST 172 STREET","0","0","0","49","7536","5","2038660005","209","18","56","West Farms-Bronx River","40.83156","-73.876712","10472"
"50205","65478","Preservation","2","3866","1","2027460","1589","EAST 172 STREET","0","0","0","59","7598","5","2038660001","209","18","56","West Farms-Bronx River","40.831582","-73.876571","10472"
"50205","97967","Preservation","2","3777","40","2025369","1265","MORRISON AVENUE","0","0","0","59","7665","6","2037770040","209","18","62","West Farms-Bronx River","40.831254","-73.875036","10472"
"50205","111969","Preservation","2","3777","35","2025368","1268","STRATFORD AVENUE","0","0","0","59","7722","6","2037770035","209","18","62","West Farms-Bronx River","40.830766","-73.875853","10472"
"50205","116780","Preservation","2","2532","20","2003534","1350","DR M L KING JR BOULEVARD","0","0","0","43","6602","5","2025320020","204","16","201","Highbridge","40.841498","-73.926648","10452"
"50206","287193","Preservation","3","1399","145","3037641","1169","EAST NEW YORK AVENUE","29","0","29","29","35980","4","3013990145","308","41","359","Crown Heights North","40.666675","-73.923744","11212"
"50206","322130","Preservation","3","1948","14","3055580","342","LAFAYETTE AVENUE","16","0","16","16","7830","4","3019480014","302","35","231","Clinton Hill","40.688676","-73.961706","11238"
"50206","330371","Preservation","3","1498","22","3040206","862","MACON STREET","7","0","7","7","8730","4","3014980022","316","41","373","Ocean Hill","40.6849","-73.91632","11233"
"50206","330372","Preservation","3","1498","23","3040207","864","MACON STREET","7","0","7","7","8640","4","3014980023","316","41","373","Ocean Hill","40.684908","-73.916263","11233"
"50206","330373","Preservation","3","1498","24","3040208","868","MACON STREET","7","0","7","7","8795","4","3014980024","316","41","373","Ocean Hill","40.684922","-73.916151","11233"
"50206","351727","Preservation","3","1465","50","3039376","1939","PARK PLACE","37","0","37","37","43340","4","3014650050","316","41","363","Ocean Hill","40.671372","-73.913147","11233"
"50206","358230","Preservation","3","1825","41","3051745","495","PUTNAM AVENUE","3","0","3","3","6195","4","3018250041","303","36","267","Bedford","40.68499","-73.941776","11221"
"50206","383478","Preservation","3","1399","115","3037639","1920","UNION STREET","42","0","42","42","62412","6","3013990115","308","41","359","Crown Heights North","40.667424","-73.923999","11233"
"50206","383480","Preservation","3","1399","62","3037636","1933","UNION STREET","66","0","66","66","90477","6","3013990062","308","41","359","Crown Heights North","40.667452","-73.92419","11233"
"50207","300660","Preservation","3","4213","16","3342871","438","EUCLID AVENUE","3","0","3","3","689","3","3042130016","305","42","1196","East New York","40.676441","-73.872182","11208"
"50207","354367","Preservation","3","4213","1","3342869","2709","PITKIN AVENUE","3","0","3","3","879","3","3042130001","305","42","1196","East New York","40.675374","-73.872191","11208"
"50207","810091","Preservation","3","4213","1","3342507","63","DOSCHER STREET","3","0","3","3","879","3","3042130001","305","42","1196","East New York","40.67586","-73.8728","11208"
"50207","810092","Preservation","3","4213","1","3342860","65","DOSCHER STREET","3","0","3","3","879","3","3042130001","305","42","1196","East New York","40.675814","-73.872789","11208"
"50207","810093","Preservation","3","4213","1","3342861","67","DOSCHER STREET","3","0","3","3","879","3","3042130001","305","42","1196","East New York","40.675767","-73.872778","11208"
"50207","810094","Preservation","3","4213","1","3342862","69","DOSCHER STREET","3","0","3","3","879","3","3042130001","305","42","1196","East New York","40.67572","-73.872764","11208"
"50207","810095","Preservation","3","4213","1","3342863","71","DOSCHER STREET","3","0","3","3","879","3","3042130001","305","42","1196","East New York","40.675673","-73.872753","11208"
"50207","810096","Preservation","3","4213","1","3342864","73","DOSCHER STREET","3","0","3","3","879","3","3042130001","305","42","1196","East New York","40.675627","-73.872742","11208"
"50207","810098","Preservation","3","4213","16","3342872","440","EUCLID AVENUE","3","0","3","3","689","3","3042130016","305","42","1196","East New York","40.676403","-73.872171","11208"
"50207","810099","Preservation","3","4213","16","3342873","442","EUCLID AVENUE","3","0","3","3","689","3","3042130016","305","42","1196","East New York","40.676365","-73.872164","11208"
"50207","810100","Preservation","3","4213","1","3342874","444","EUCLID AVENUE","3","0","3","3","689","3","3042130001","305","42","1196","East New York","40.676326","-73.872153","11208"
"50207","810101","Preservation","3","4213","16","3342875","446","EUCLID AVENUE","3","0","3","3","689","3","3042130016","305","42","1196","East New York","40.676288","-73.872143","11208"
"50207","810102","Preservation","3","4213","16","3342876","448","EUCLID AVENUE","3","0","3","3","689","3","3042130016","305","42","1196","East New York","40.676249","-73.872135","11208"
"50207","810103","Preservation","3","4213","16","3342877","450","EUCLID AVENUE","3","0","3","3","689","3","3042130016","305","42","1196","East New York","40.676208","-73.872125","11208"
"50207","810104","Preservation","3","4213","16","3342878","452","EUCLID AVENUE","3","0","3","3","689","3","3042130016","305","42","1196","East New York","40.67617","-73.872114","11208"
"50207","810105","Preservation","3","4213","1","3342866","2703","PITKIN AVENUE","3","0","3","3","703","3","3042130001","305","42","1196","East New York","40.675352","-73.872346","11208"
"50207","810106","Preservation","3","4213","1","3342867","2705","PITKIN AVENUE","3","0","3","3","703","3","3042130001","305","42","1196","East New York","40.675357","-73.872296","11208"
"50207","810107","Preservation","3","4213","1","3342868","2707","PITKIN AVENUE","3","0","3","3","879","3","3042130001","305","42","1196","East New York","40.675366","-73.872242","11208"
"50207","810108","Preservation","3","4213","1","3342870","2711","PITKIN AVENUE","3","0","3","3","879","3","3042130001","305","42","1196","East New York","40.675382","-73.872137","11208"
"50207","810109","Preservation","3","4213","1","3342865","2713","PITKIN AVENUE","2","0","2","2","1175","3","3042130001","305","42","1196","East New York","40.675387","-73.872083","11208"
"50223","3611","Preservation","1","2030","29","1060456","2480","ADAM C POWELL BOULEVARD","20","0","20","20","22183","6","1020300029","110","9","232","Central Harlem North-Polo Grounds","40.821117","-73.939468","10030"
"50223","3962","Preservation","1","1922","1","1058363","2150","FREDERICK DOUGLASS BOULEVARD","16","0","16","16","24534","5","1019220001",,,,,,,
"50223","7479","Preservation","1","2047","20","1060891","234","BRADHURST AVENUE","25","0","25","25","21628","5","1020470020","110","9","23502","Central Harlem North-Polo Grounds","40.828745","-73.939052","10039"
"50223","21286","Preservation","1","2054","22","1061170","377","EDGECOMBE AVENUE","16","0","16","16","15301","5","1020540022","109","9","23501","Hamilton Heights","40.827955","-73.940722","10031"
"50223","362423","Preservation","3","1391","39","3037370","270","ROCHESTER AVENUE","16","0","16","16","15301","4","3013910039","308","41","349","Crown Heights North","40.669365","-73.928293","11213"
"50248","183277","Preservation","3","1346","9","3035759","1494","DEAN STREET","5","0","5","5","926","4","3013460009","308","36","311","Crown Heights North","40.676254","-73.938557","11213"
"50248","205660","Preservation","3","1232","7","3031170","1435","BEDFORD AVENUE","5","0","5","5","1072","4","3012320007","308","36","221","Crown Heights North","40.674088","-73.953827","11216"
"50248","211306","Preservation","3","3741","30","3083954","294","BRADFORD STREET","2","0","2","2","809","2","3037410030","305","37","1152","East New York","40.671911","-73.891996","11207"
"50248","219540","Preservation","3","3614","32","3082621","497","CHESTER STREET","6","0","6","6","2180","3","3036140032","316","42","916","Brownsville","40.65911","-73.908996","11212"
"50248","219546","Preservation","3","3613","38","3082595","510","CHESTER STREET","6","0","6","6","1629","3","3036130038","316","42","916","Brownsville","40.658882","-73.908961","11212"
"50248","219551","Preservation","3","3614","26","3082617","519","CHESTER STREET","2","0","2","2","505","2","3036140026","316","42","916","Brownsville","40.658701","-73.908893","11212"
"50248","219567","Preservation","3","3613","53","3082603","546","CHESTER STREET","2","0","2","2","609","2","3036130053","316","42","916","Brownsville","40.658215","-73.908789","11212"
"50248","221738","Preservation","3","1141","49","3027995","644","CLASSON AVENUE","2","0","2","2","510","3","3011410049","308","35","305","Crown Heights North","40.677869","-73.959005","11238"
"50248","221746","Preservation","3","1142","6","3028013","655","CLASSON AVENUE","5","0","5","5","1251","4","3011420006","308","35","305","Crown Heights North","40.677963","-73.958951","11238"
"50248","309559","Preservation","3","4321","9","3097256","514","HEGEMAN AVENUE","3","0","3","3","1141","2","3043210009","305","42","1104","East New York","40.659521","-73.892578","11207"
"50248","309562","Preservation","3","4298","48","3096416","519","HEGEMAN AVENUE","3","0","3","3","1387","2","3042980048","305","42","1128","East New York (Pennsylvania Ave)","40.659686","-73.892243","11207"
"50248","349855","Preservation","3","1344","104","3035731","1892","PACIFIC STREET","4","0","4","4","1351","3","3013440104","308","41","307","Crown Heights North","40.676251","-73.924255","11233"
"50248","349884","Preservation","3","1344","118","3035739","1920","PACIFIC STREET","3","0","3","3","1686","3","3013440118","308","41","307","Crown Heights North","40.67619","-73.923123","11233"
"50248","349890","Preservation","3","1344","124","3035745","1932","PACIFIC STREET","3","0","3","3","1686","3","3013440124","308","41","307","Crown Heights North","40.676174","-73.922839","11233"
"50248","354114","Preservation","3","3741","17","3083944","2156","PITKIN AVENUE","3","0","3","3","662","3","3037410017","305","37","1152","East New York","40.672326","-73.892893","11207"
"50248","357152","Preservation","3","1155","77","3028649","451","PROSPECT PLACE","9","0","9","9","1868","4","3011550077","308","35","305","Crown Heights North","40.676097","-73.961353","11238"
"50248","363912","Preservation","3","1225","20","3030928","60","ROGERS AVENUE","3","0","3","3","655","3","3012250020","308","36","221","Crown Heights North","40.674754","-73.952835","11216"
"50248","363970","Preservation","3","1232","21","3031176","74","ROGERS AVENUE","2","0","2","2","888","2","3012320021","308","36","221","Crown Heights North","40.674145","-73.952893","11216"
"50248","369344","Preservation","3","4322","54","3097298","735","SHEFFIELD AVENUE","3","0","3","3","1236","2","3043220054","305","42","1104","East New York","40.659194","-73.892165","11207"
"50248","398640","Preservation","3","3741","13","3083940","285","WYONA STREET","3","0","3","3","761","3","3037410013","305","37","1152","East New York","40.671829","-73.892894","11207"
"50248","398650","Preservation","3","3741","4","3083932","307","WYONA STREET","3","0","3","3","761","3","3037410004","305","37","1152","East New York","40.671423","-73.892794","11207"
"50258","119146","Preservation","2","3182","4","2088408","2240","WALTON AVENUE","31","0","31","31","9500","8","2031820004","205","14","239","Fordham South","40.857378","-73.903386","10453"
"50258","119162","Preservation","2","3182","19","2099975","2270","WALTON AVENUE","54","0","54","54","14250","8","2031820019","205","14","239","Fordham South","40.857841","-73.903103","10453"
"50278","45438","Preservation","2","2504","53","2003036","946","ANDERSON AVENUE","0","16","16","16","16403","5","2025040053","204","8","189","Highbridge","40.830841","-73.928181","10452"
"50278","45594","Preservation","2","2889","18","2009331","1705","ANTHONY AVENUE","0","21","21","21","22570","5","2028890018","204","15","165","Claremont-Bathgate","40.844242","-73.904251","10457"
"50278","56949","Preservation","2","2889","1","2009326","1680","CLAY AVENUE","0","20","20","20","14807","5","2028890001","204","15","165","Claremont-Bathgate","40.843601","-73.904909","10457"
"50278","100202","Preservation","2","2511","25","2003178","934","OGDEN AVENUE","0","16","16","16","3325","5","2025110025","204","8","189","Highbridge","40.831287","-73.930298","10452"
"50278","112044","Preservation","2","2526","70","2003491","1087","SUMMIT AVENUE","0","21","21","21","23438","5","2025260070","204","16","193","Highbridge","40.835444","-73.928953","10452"
"50278","115544","Preservation","2","2791","44","2007349","1707","TOPPING AVENUE","0","32","32","32","40800","6","2027910044","204","15","22902","Mount Hope","40.844395","-73.905801","10457"
"50278","120990","Preservation","2","2517","30","2003310","88","WEST 169 STREET","0","13","13","13","37370","5","2025170030","204","16","211","Highbridge","40.839481","-73.923083","10452"
"50282","983486","New Construction","2","5851","2098","2084826","6469","BROADWAY","86","0","86","86","4286","11","2058517501","208","11","345","North Riverdale-Fieldston-Riverdale","40.904171","-73.896408","10471"
"50291","20889","Preservation","1","1756","113","1054343","25","EAST 131 STREET","10","0","10","10","1881","5","1017560113","111","9","206","Central Harlem North-Polo Grounds","40.809776","-73.938448","10037"
"50293","66001","Preservation","2","3068","61","2011977","601","EAST 178 STREET","21","0","21","21","23750","5","2030680061","206","17","373","East Tremont","40.846919","-73.892861","10457"
"50294","87096","Preservation","2","3124","66","2013169","2147","HONEYWELL AVENUE","31","0","31","31","32235","5","2031240066","206","15","363","East Tremont","40.8462","-73.881405","10460"
"50329","948333","New Construction","1","1064","44","1026799","424","WEST 55 STREET","0","0","0","17","2633","7","1010640044","104","3","139","Clinton","40.766998","-73.987592","10019"
"50330","951712","New Construction","1","967","1","1089237","626","1 AVENUE","160","0","160","761","68770","47","1009670001","106","4","8601","Turtle Bay-East Midtown","40.744898","-73.972688","10016"
"50347","47143","Preservation","2","4425","1","2051242","2410","BARKER AVENUE","1","171","172","172","0","20","2044250001","211","15","33202","Bronxdale","40.861793","-73.869411","10467"
"50352","60498","Preservation","2","3198","50","2014264","2324","DAVIDSON AVENUE","17","0","17","17","4600","4","2031980050","207","14","239","Fordham South","40.859681","-73.904257","10468"
"50352","77186","Preservation","2","3209","9","2014537","54","EVELYN PLACE","65","0","65","65","14000","5","2032090009","207","14","253","Kingsbridge Heights","40.859814","-73.905851","10468"
"50352","97550","Preservation","2","3172","8","2013884","2314","MORRIS AVENUE","37","0","37","37","8250","5","2031720008","205","14","23703","Fordham South","40.858631","-73.90158","10468"
"50353","107804","Preservation","2","3152","3","2013578","2380","RYER AVENUE","36","0","36","36","7047","6","2031520003","205","15","23702","Bedford Park-Fordham North","40.859415","-73.898029","10458"
"50353","120575","Preservation","2","3143","124","2013313","2093","WEBSTER AVENUE","8","0","8","8","3400","4","2031430124","205","15","379","Mount Hope","40.852254","-73.898152","10457"
"50353","120621","Preservation","2","3031","33","2011193","2372","WEBSTER AVENUE","8","0","8","8","3536","4","2030310033","206","15","38302","Fordham South","40.85802","-73.894427","10458"
"50353","120629","Preservation","2","3032","2","2011215","2406","WEBSTER AVENUE","8","0","8","8","3366","4","2030320002","206","15","38302","Fordham South","40.858953","-73.893822","10458"
"50353","844746","Preservation","2","3031","38","2011198","2382","WEBSTER AVENUE","8","0","8","8","3600","4","2030310038","206","15","38302","Fordham South","40.858193","-73.894315","10458"
"50370","186479","Preservation","3","185","19","3000979","510","ATLANTIC AVENUE","202","0","202","202","10000","9","3001850019","302","33","39","DUMBO-Vinegar Hill-Downtown Brooklyn-Boerum Hill","40.685525","-73.98124","11217"
"50390","66411","Preservation","2","3051","1","2095365","535","EAST 182 STREET","91","0","91","91","0","10","2030510001","206","15","385","Claremont-Bathgate","40.853111","-73.89279","10457"
"50407","183060","Preservation","3","3837","26","3085464","539","ALABAMA AVENUE","0","0","0","6","1833","3","3038370026","305","42","1130","East New York (Pennsylvania Ave)","40.662583","-73.89638","11207"
"50407","207683","Preservation","3","4249","18","3095391","970","BELMONT AVENUE","0","0","0","23","4177","4","3042490018","305","42","1196","East New York","40.673947","-73.872839","11208"
"50407","207686","Preservation","3","4249","21","3095392","122","DOSCHER STREET","0","0","0","16","3600","4","3042490021","305","42","1196","East New York","40.673834","-73.87232","11208"
"50407","234974","Preservation","3","4065","1","3090131","973","DUMONT AVENUE","0","0","0","19","3730","4","3040650001","305","42","1164","East New York","40.66807","-73.882547","11208"
"50407","289096","Preservation","3","3986","1","3393458","335","ELTON STREET","0","0","0","16","7122","2","3039860001","305","37","1166","East New York","40.675197","-73.883757","11208"
"50407","299963","Preservation","3","4297","74","3096383","645","GEORGIA AVENUE","0","0","0","2","694","2","3042970074","305","42","1128","East New York (Pennsylvania Ave)","40.660574","-73.894267","11207"
"50407","299970","Preservation","3","4297","71","3096380","653","GEORGIA AVENUE","0","0","0","2","694","2","3042970071","305","42","1128","East New York (Pennsylvania Ave)","40.660453","-73.894177","11207"
"50407","300002","Preservation","3","4296","32","3096300","692","GEORGIA AVENUE","0","0","0","3","926","2","3042960032","305","42","1130","East New York (Pennsylvania Ave)","40.659874","-73.893771","11207"
"50407","313104","Preservation","3","3835","16","3085395","523","HINSDALE STREET","0","0","0","4","1600","2","3038350016","305","42","1130","East New York (Pennsylvania Ave)","40.661972","-73.898136","11207"
"50407","328562","Preservation","3","4262","42","3095635","596","LOGAN STREET","0","0","0","6","1760","3","3042620042","305","42","1194","East New York","40.671397","-73.87536","11208"
"50407","342523","Preservation","3","3824","5","3085074","633","NEW JERSEY AVENUE","0","0","0","4","1420","2","3038240005","305","42","1126","East New York (Pennsylvania Ave)","40.663784","-73.892755","11207"
"50407","342526","Preservation","3","3824","1","3085071","641","NEW JERSEY AVENUE","0","0","0","6","2100","3","3038240001","305","42","1126","East New York (Pennsylvania Ave)","40.663636","-73.89272","11207"
"50407","342533","Preservation","3","3840","35","3085571","660","NEW JERSEY AVENUE","0","0","0","3","900","3","3038400035","305","42","1128","East New York (Pennsylvania Ave)","40.662952","-73.892566","11207"
"50407","342542","Preservation","3","3841","7","3085588","673","NEW JERSEY AVENUE","0","0","0","4","1716","2","3038410007","305","42","1128","East New York (Pennsylvania Ave)","40.662714","-73.89248","11207"
"50407","342738","Preservation","3","4296","2","3096273","300","NEW LOTS AVENUE","0","0","0","3","1292","2","3042960002","305","42","1130","East New York (Pennsylvania Ave)","40.660888","-73.895218","11207"
"50407","342739","Preservation","3","4296","2","3096274","302","NEW LOTS AVENUE","0","0","0","3","1292","2","3042960002","305","42","1130","East New York (Pennsylvania Ave)","40.66091","-73.895171","11207"
"50407","342742","Preservation","3","4296","5","3096276","306","NEW LOTS AVENUE","0","0","0","3","1254","2","3042960005","305","42","1130","East New York (Pennsylvania Ave)","40.660951","-73.895074","11207"
"50407","342744","Preservation","3","4296","9","3319734","310","NEW LOTS AVENUE","0","0","0","3","1059","2","3042960009","305","42","1130","East New York (Pennsylvania Ave)","40.661025","-73.894904","11207"
"50407","342745","Preservation","3","4296","9","3319735","312","NEW LOTS AVENUE","0","0","0","10","3531","3","3042960009","305","42","1130","East New York (Pennsylvania Ave)","40.661036","-73.894879","11207"
"50407","342748","Preservation","3","3838","68","3085511","325","NEW LOTS AVENUE","0","0","0","3","3680","2","3038380068","305","42","1128","East New York (Pennsylvania Ave)","40.661167","-73.89462","11207"
"50407","342753","Preservation","3","4297","3","3096325","332","NEW LOTS AVENUE","0","0","0","3","1073","3","3042970003","305","42","1128","East New York (Pennsylvania Ave)","40.661225","-73.894457","11207"
"50407","342757","Preservation","3","4297","5","3096327","336","NEW LOTS AVENUE","0","0","0","3","5500","3","3042970005","305","42","1128","East New York (Pennsylvania Ave)","40.661272","-73.894353","11207"
"50407","353145","Preservation","3","3822","27","3085055","518","PENNSYLVANIA AVENUE","0","0","0","19","5160","4","3038220027","305","42","1126","East New York (Pennsylvania Ave)","40.664408","-73.893966","11207"
"50407","353190","Preservation","3","3840","3","3085552","611","PENNSYLVANIA AVENUE","0","0","0","15","3391","4","3038400003","305","42","1128","East New York (Pennsylvania Ave)","40.662212","-73.893349","11207"
"50407","354165","Preservation","3","3997","36","3088843","2297","PITKIN AVENUE","0","0","0","10","3900","3","3039970036","305","37","1150","East New York","40.673372","-73.887567","11207"
"50407","354170","Preservation","3","3997","133","3088845","2307","PITKIN AVENUE","0","0","0","3","1100","3","3039970133","305","37","1150","East New York","40.673185","-73.887203","11207"
"50407","354251","Preservation","3","4003","28","3088969","2447","PITKIN AVENUE","0","0","0","1","4650","3","3040030028","305","37","1166","East New York","40.673949","-73.882065","11208"
"50407","362334","Preservation","3","3834","20","3085371","474","RIVERDALE AVENUE","0","0","0","12","2870","3","3038340020","305","42","1132","East New York (Pennsylvania Ave)","40.66248","-73.8986","11207"
"50407","362337","Preservation","3","3836","26","3085433","520","RIVERDALE AVENUE","0","0","0","3","1350","2","3038360026","305","42","1130","East New York (Pennsylvania Ave)","40.662718","-73.897014","11207"
"50407","362339","Preservation","3","3836","30","3085436","526","RIVERDALE AVENUE","0","0","0","3","1350","2","3038360030","305","42","1130","East New York (Pennsylvania Ave)","40.662767","-73.89669","11207"
"50407","362349","Preservation","3","3840","29","3085567","614","RIVERDALE AVENUE","0","0","0","3","1300","3","3038400029","305","42","1128","East New York (Pennsylvania Ave)","40.663293","-73.893124","11207"
"50407","362352","Preservation","3","3840","31","3085569","620","RIVERDALE AVENUE","0","0","0","3","1300","3","3038400031","305","42","1128","East New York (Pennsylvania Ave)","40.663321","-73.892936","11207"
"50407","379928","Preservation","3","4246","38","3095335","1163","SUTTER AVENUE","0","0","0","22","6480","4","3042460038","305","42","1194","East New York","40.672338","-73.87507","11208"
"50407","395827","Preservation","3","3818","33","3084957","486","WILLIAMS AVENUE","0","0","0","13","3098","4","3038180033","305","42","1130","East New York (Pennsylvania Ave)","40.663786","-73.897661","11207"
"50407","395829","Preservation","3","3818","35","3084958","490","WILLIAMS AVENUE","0","0","0","13","3098","4","3038180035","305","42","1130","East New York (Pennsylvania Ave)","40.663712","-73.897643","11207"
"50407","395830","Preservation","3","3818","37","3084959","496","WILLIAMS AVENUE","0","0","0","13","3098","4","3038180037","305","42","1130","East New York (Pennsylvania Ave)","40.663602","-73.897615","11207"
"50407","395833","Preservation","3","3818","39","3084960","502","WILLIAMS AVENUE","0","0","0","13","3098","4","3038180039","305","42","1130","East New York (Pennsylvania Ave)","40.66349","-73.897586","11207"
"50407","395834","Preservation","3","3819","13","3084972","503","WILLIAMS AVENUE","0","0","0","8","3280","2","3038190013","305","42","1130","East New York (Pennsylvania Ave)","40.663457","-73.897557","11207"
"50407","395836","Preservation","3","3818","41","3084961","508","WILLIAMS AVENUE","0","0","0","16","3731","4","3038180041","305","42","1130","East New York (Pennsylvania Ave)","40.66338","-73.897557","11207"
"50407","395840","Preservation","3","3818","43","3084962","514","WILLIAMS AVENUE","0","0","0","16","3731","4","3038180043","305","42","1130","East New York (Pennsylvania Ave)","40.66327","-73.897532","11207"
"50407","395843","Preservation","3","3818","46","3084963","520","WILLIAMS AVENUE","0","0","0","16","3731","4","3038180046","305","42","1130","East New York (Pennsylvania Ave)","40.663157","-73.897504","11207"
"50407","395844","Preservation","3","3818","49","3084964","526","WILLIAMS AVENUE","0","0","0","16","3731","4","3038180049","305","42","1130","East New York (Pennsylvania Ave)","40.663047","-73.897475","11207"
"50407","395846","Preservation","3","3836","25","3085432","506","RIVERDALE AVENUE","0","0","0","8","1773","3","3038360025","305","42","1130","East New York (Pennsylvania Ave)","40.662619","-73.897667","11207"
"50407","395849","Preservation","3","3835","28","3252666","542","WILLIAMS AVENUE","0","0","0","6","1760","3","3038350028","305","42","1130","East New York (Pennsylvania Ave)","40.662331","-73.897292","11207"
"50407","395877","Preservation","3","3835","44","3085414","584","WILLIAMS AVENUE","0","0","0","9","2800","3","3038350044","305","42","1130","East New York (Pennsylvania Ave)","40.661551","-73.897092","11207"
"50407","807552","Preservation","3","3837","26","3085463","543","ALABAMA AVENUE","0","0","0","6","1833","3","3038370026","305","42","1130","East New York (Pennsylvania Ave)","40.662509","-73.896362","11207"
"50407","807553","Preservation","3","3837","26","3085462","545","ALABAMA AVENUE","0","0","0","6","1833","3","3038370026","305","42","1130","East New York (Pennsylvania Ave)","40.66247","-73.896351","11207"
"50407","808939","Preservation","3","4297","5","3331367","340","NEW LOTS AVENUE","0","0","0","6","2750","3","3042970005","305","42","1128","East New York (Pennsylvania Ave)","40.661321","-73.894252","11207"
"50407","808942","Preservation","3","4297","5","3331370","348","NEW LOTS AVENUE","0","0","0","7","2750","3","3042970005","305","42","1128","East New York (Pennsylvania Ave)","40.661414","-73.894039","11207"
"50407","809283","Preservation","3","3818","52","3084965","532","WILLIAMS AVENUE","0","0","0","16","3240","4","3038180052","305","42","1130","East New York (Pennsylvania Ave)","40.662938","-73.897446","11207"
"50407","809877","Preservation","3","3836","25","3394182","539","WILLIAMS AVENUE","0","0","0","2","1773","2","3038360025","305","42","1130","East New York (Pennsylvania Ave)","40.662369","-73.897278","11207"
"50407","913572","Preservation","3","3985","5","3392546","336","ELTON STREET","0","0","0","24","7554","2","3039850005","305","37","1166","East New York","40.675194","-73.883778","11208"
"50407","940975","Preservation","3","4003","28","3088965","2449","PITKIN AVENUE","0","0","0","6","2325","3","3040030028","305","37","1166","East New York","40.673957","-73.882007","11208"
"50407","940976","Preservation","3","4003","30","3088966","2445","PITKIN AVENUE","0","0","0","6","2325","3","3040030028","305","37","1166","East New York","40.673941","-73.882119","11208"
"50407","949647","Preservation","3","3836","26","3085434","522","RIVERDALE AVENUE","0","0","0","3","1350","2","3038360026","305","42","1130","East New York (Pennsylvania Ave)","40.662734","-73.896906","11207"
"50408","67516","Preservation","2","3352","1","2018488","333","EAST 209 STREET","0","43","43","43","7500","5","2033520001","207","11","42902","Norwood","40.876725","-73.874278","10467"
"50410","980814","New Construction","3","1447","1","3413938","331","SARATOGA AVENUE","80","0","80","80","13445","5","3014470001","316","41","303","Ocean Hill","40.674495","-73.916658","11233"
"50411","958174","New Construction","3","2443","7501","3000000","105","SOUTH 5 STREET","55","0","55","55","64490","11","3024430006","301","34","549","North Side-South Side","40.711481","-73.96425","11249"
"50414","66360","Preservation","2","3125","12","2013180","908","EAST 181 STREET","0","0","0","56","0","5","2031250012","206","17","363","East Tremont","40.845585","-73.881449","10460"
"50414","66361","Preservation","2","3128","9","2013230","924","EAST 181 STREET","0","0","0","45","0","5","2031280009","206","17","363","East Tremont","40.845228","-73.880785","10460"
"50414","66363","Preservation","2","3128","13","2013231","934","EAST 181 STREET","0","0","0","40","0","5","2031280013","206","17","363","East Tremont","40.845096","-73.880543","10460"
"50414","66368","Preservation","2","3133","13","2013267","966","EAST 181 STREET","0","0","0","42","0","6","2031330013","206","15","361","East Tremont","40.844551","-73.879539","10460"
"50414","118550","Preservation","2","3128","29","2013233","2103","VYSE AVENUE","0","0","0","45","0","5","2031280029","206","17","363","East Tremont","40.844069","-73.880332","10460"
"50414","118563","Preservation","2","3129","29","2013243","2131","VYSE AVENUE","0","0","0","7","0","5","2031290029","206","15","363","East Tremont","40.844782","-73.879683","10460"
"50414","118564","Preservation","2","3134","1","2013270","2134","VYSE AVENUE","0","0","0","38","0","5","2031340001","206","15","361","East Tremont","40.844798","-73.879644","10460"
"50424","513272","Preservation","4","1696","9","4041955","32-10","102 STREET","0","1","1","1","1188","2","4016960009","403","21","365","East Elmhurst","40.758973","-73.86684","11369"
"50424","522928","Preservation","4","11206","67","4241547","223-19","111 AVENUE","0","1","1","1","1110","1","4112060067","413","27","580","Queens Village","40.706103","-73.733523","11429"
"50424","528114","Preservation","4","11033","69","4237376","190-17","115 DRIVE","0","1","1","1","1531","2","4110330069","412","27","526","St. Albans","40.694638","-73.7609","11412"
"50424","529586","Preservation","4","11069","198","4238421","197-18","116 AVENUE","0","1","1","1","1152","2","4110690198","412","27","530","St. Albans","40.695315","-73.755283","11412"
"50424","531912","Preservation","4","12368","53","4268028","168-31","118 ROAD","0","1","1","1","1440","1","4123680053","412","27","284","Baisley Park","40.683839","-73.776789","11434"
"50424","532806","Preservation","4","12370","16","4268090","168-32","119 AVENUE","0","1","1","1","1260","0","4123700016","412","27","284","Baisley Park","40.683414","-73.776052","11434"
"50424","532963","Preservation","4","12654","7","4272735","198-14","119 AVENUE","0","1","1","1","3833","1","4126540007","412","27","376","St. Albans","40.691266","-73.752734","11412"
"50424","533227","Preservation","4","12375","85","4268268","171-48","119 ROAD","0","1","1","1","1655","1","4123750085","412","27","282","St. Albans","40.684231","-73.77372","11434"
"50424","533654","Preservation","4","12469","137","4269360","177-19","120 AVENUE","0","1","1","1","1788","2","4124690137","412","27","368","St. Albans","40.684972","-73.767101","11434"
"50424","552683","Preservation","4","13086","57","4281201","222-33","143 ROAD","0","1","1","1","1162","2","4130860057","413","31","682","Laurelton","40.66677","-73.754296","11413"
"50424","553308","Preservation","4","12594","16","4271188","171-15","144 AVENUE","0","1","1","1","1336","2","4125940016","412","31","330","Springfield Gardens North","40.668823","-73.769014","11434"
"50424","565015","Preservation","4","15013","4","4296670","144-41","158 STREET","0","1","1","1","1148","2","4150130004","413","31","306","Springfield Gardens South-Brookville","40.665017","-73.779534","11434"
"50424","568358","Preservation","4","6856","59","4148462","80-44","162 STREET","0","1","1","1","1296","2","4068560059","408","24","1265","Pomonok-Flushing Heights-Hillcrest","40.720157","-73.805261","11432"
"50424","584952","Preservation","4","12605","39","4271504","118-19","190 STREET","0","1","1","1","1312","2","4126050039","412","27","394","St. Albans","40.690162","-73.76021","11412"
"50424","594559","Preservation","4","12634","24","4272231","117-27","204 STREET","0","1","1","1","1140","2","4126340024","412","27","384","St. Albans","40.695206","-73.748132","11412"
"50424","597224","Preservation","4","11026","379","4237092","114-26","208 STREET","0","1","1","1","1176","2","4110260379","413","27","516","Queens Village","40.701375","-73.746501","11411"
"50424","597766","Preservation","4","10573","43","4225490","89-55","208 STREET","0","1","1","1","1476","2","4105730043","413","23","492","Jamaica Estates-Holliswood","40.719646","-73.756132","11427"
"50424","630308","Preservation","4","12462","12","4269190","177-48","BAISLEY BOULEVARD","0","1","1","1","1608","2","4124620012","412","27","368","St. Albans","40.687144","-73.767573","11434"
"50424","655268","Preservation","4","12438","142","4268885","186-20","FOCH BOULEVARD","0","1","1","1","1156","2","4124380142","412","27","366","St. Albans","40.690404","-73.764431","11412"
"50473","952671","New Construction","2","3357","7501","2128546","3160","WEBSTER AVENUE","12","0","12","60","6447","10","2033577501","207","11","425","Norwood","40.872282","-73.87562","10467"
"50495","949059","New Construction","4","12183","35","4607744","162-25","112 ROAD","53","0","53","53","10639","5","4121830035","412","28","264","South Jamaica","40.689767","-73.786563","11433"
"50497","806842","New Construction","2","2441","1","2002441","635","MORRIS AVENUE","176","0","176","176","50392","7","2024410001","201","17","65","Melrose South-Mott Haven North","40.819177","-73.921958","10451"
"50509","965117","New Construction","2","3168","7501","2127056","2605","GRAND CONCOURSE","94","0","94","94","7823","12","2031687501","207","14","401","Bedford Park-Fordham North","40.864727","-73.895407","10468"
"50519","38153","Preservation","1","1830","11","1055196","265","WEST 114 STREET","115","0","115","115","2523","5","1018300011","110","9","218","Central Harlem South","40.802754","-73.955442","10026"
"50568",,"Preservation",,,,,,,"0","0","0","0","0","2",,,,,,,,
"50580","28059","Preservation","1","1925","13","1058445","180","ST NICHOLAS AVENUE","0","21","21","21","33230","7","1019250013","110","9","220","Central Harlem South","40.805904","-73.9528","10026"
"50583","217149","Preservation","3","2007","14","3321981","475","CARLTON AVENUE","0","305","305","305","99999","15","3020070014","302","35","179","Fort Greene","40.683478","-73.970918","11238"
"50602","231421","Preservation","3","1130","75","3027676","683","DEAN STREET","0","0","0","61","11493","3","3011300075","308","35","203","Prospect Heights","40.680062","-73.967314","11238"
"50602","331239","Preservation","3","1648","19","3045327","800","MADISON STREET","0","0","0","99","14761","3","3016480019","303","41","385","Stuyvesant Heights","40.687577","-73.925674","11221"
"50602","808434","Preservation","3","3061","18","3325854","157","GRAHAM AVENUE","0","0","0","76","7865","5","3030610018","301","34","505","East Williamsburg","40.707223","-73.943196","11206"
"50605","79712","Preservation","2","2609","39","2004215","1195","FULTON AVENUE","0","0","0","20","9650","5","2026090039","203","16","145","Claremont-Bathgate","40.830023","-73.904922","10456"
"50605","79714","Preservation","2","2609","37","2004214","1199","FULTON AVENUE","0","0","0","20","19255","5","2026090037","203","16","145","Claremont-Bathgate","40.830086","-73.904882","10456"
"50606","64431","Preservation","2","2657","9","2004694","754","EAST 161 STREET","0","0","0","24","5100","6","2026570009","201","17","77","Melrose South-Mott Haven North","40.821283","-73.904584","10456"
"50606","92439","Preservation","2","3008","15","2010918","1496","LONGFELLOW AVENUE","0","0","0","19","5000","5","2030080015","203","17","157","Crotona Park East","40.832226","-73.886605","10460"
"50606","92440","Preservation","2","3008","17","2010919","1500","LONGFELLOW AVENUE","0","0","0","19","5000","5","2030080017","203","17","157","Crotona Park East","40.832314","-73.88655","10460"
"50606","92441","Preservation","2","3008","19","2010920","1504","LONGFELLOW AVENUE","0","0","0","19","5000","5","2030080019","203","17","157","Crotona Park East","40.832405","-73.886499","10460"
"50609","215649","Preservation","3","3349","1","3076547","1095","BUSHWICK AVENUE","5","10","15","15","7500","4","3033490001","304","34","399","Bushwick South","40.690172","-73.91931","11221"
"50611","867829","Preservation","4","15890","30","4532559","334","BEACH 54 STREET","0","0","0","32","1","4","4158900030","414","31","97204","Hammels-Arverne-Edgemere","40.593481","-73.784379","11692"
"50623","860085","Preservation","4","16151","6",,"44241","BEACH 96 STREET","0","0","0","72","1","7",,,,,,,,
"50638","949243","New Construction","3","5229","17","3328301","1355","ROGERS AVENUE","123","0","123","123","11584","8","3052290017","314","45","788","Flatbush","40.636955","-73.950995","11210"
"50655","958176","New Construction","3","2782","7502","3069426","695","GRAND STREET","51","0","51","51","7630","8","3027820036","301","34","495","East Williamsburg","40.711566","-73.944797","11211"
"50675","227371","Preservation","3","8804","42","3247881","2800","COYLE STREET","0","0","0","157","1","6","3088040042","315","48","622","Sheepshead Bay-Gerritsen Beach-Manhattan Beach","40.585065","-73.934159","11235"
"50677","348491","Preservation","3","7238","115","3196066","2650","OCEAN PARKWAY","0","0","0","190","186630","12","3072380115","313","47","37401","Gravesend","40.585466","-73.966438","11235"
"50735","251214","Preservation","3","7467","13","3205115","2654","EAST 23 STREET","0","0","0","16","10248","3","3074670013","315","48","600","Sheepshead Bay-Gerritsen Beach-Manhattan Beach","40.587486","-73.946552","11235"
"50741","394534","Preservation","3","7019","82","3189023","2817","WEST 20 STREET","0","0","0","5","3160","2","3070190082","313","47","326","Seagate-Coney Island","40.578092","-73.98721","11224"
"50744","213199","Preservation","3","8716","43","3245628","3038","BRIGHTON 14 STREET","0","0","0","5","2300","2","3087160043","313","48","61004","Brighton Beach","40.578803","-73.955322","11235"
"50753","341971","Preservation","3","7264","15","3196510","191","NEPTUNE AVENUE","0","0","0","5","1760","3","3072640015","313","48","366","Brighton Beach","40.581854","-73.960468","11235"
"50774","633968","Preservation","4","16138","24","4435782","148","BEACH 93 STREET","0","0","0","7","5350","2","4161380024","414","32","94203","Hammels-Arverne-Edgemere","40.584866","-73.815236","11693"
"50777","213197","Preservation","3","8717","96","3245685","3031","BRIGHTON 14 STREET","0","0","0","47","1","6","3087170096","313","48","61004","Brighton Beach","40.578855","-73.95526","11235"
"50778","842134","Preservation","3","8810","7503","3350422","3411","GUIDER AVENUE","0","0","0","6","8235","7","3088107503","315","48","608","Sheepshead Bay-Gerritsen Beach-Manhattan Beach","40.582899","-73.958635","11235"
"50788","11230","Preservation","1","391","57","1004759","303","EAST 8 STREET","0","0","0","13","1","6","1003910057","103","2","2602","Lower East Side","40.725433","-73.980143","10009"
"50793","821898","Preservation","1","390","7501","1085928","217","EAST 7 STREET","0","0","0","16","13141","6","1003907501","103","2","2602","Lower East Side","40.724459","-73.979735","10009"
"50795","6553","Preservation","1","393","38","1004895","165","AVENUE C","0","0","0","8","1","5","1003930038","103","2","28","Lower East Side","40.726029","-73.977433","10009"
"50795","6554","Preservation","1","393","37","1004894","167","AVENUE C","0","0","0","8","1","5","1003930037","103","2","28","Lower East Side","40.726086","-73.97739","10009"
"50795","6555","Preservation","1","393","36","1004893","169","AVENUE C","0","0","0","8","1","5","1003930036","103","2","28","Lower East Side","40.726147","-73.977343","10009"
"50801","6603","Preservation","1","387","140","1004657","77","AVENUE C","0","0","0","16",,"6","1003870140","103","2","2601","Lower East Side","40.723051","-73.979624","10009"
"50804","6529","Preservation","1","378","4","1004527","132","AVENUE C","0","0","0","22","30450","6","1003780004","103","2","2602","Lower East Side","40.724939","-73.978223","10009"
"50805","11576","Preservation","1","393","40","1004897","391","EAST 10 STREET","0","0","0","7","10625","5","1003930040","103","2","28","Lower East Side","40.726138","-73.97814","10009"
"50806","11247","Preservation","1","391","45","1077453","327","EAST 8 STREET","0","0","0","12","17669","5","1003910045","103","2","2602","Lower East Side","40.725043","-73.979212","10009"
"50807","6424","Preservation","1","393","7","1004876","171","AVENUE B","0","0","0","9","2356","5","1003930007","103","2","28","Lower East Side","40.727313","-73.979568","10009"
"50808","11113","Preservation","1","389","27","1004682","218","EAST 7 STREET","0","0","0","5","7765","5","1003890027","103","2","2602","Lower East Side","40.724445","-73.979746","10009"
"50813","943824","Preservation","1","1671","1","1089704","301","EAST 99 STREET","0","0","0","176","1","10","1016710001","111","8","164","East Harlem South","40.786032","-73.945335","10029"
"50815","776615","Preservation","5","1003","14","5023696","2044","RICHMOND TERRACE","36","0","36","36","4160","3","5010030014","501","49","207","Port Richmond","40.640368","-74.131298","10302"
"50818","31409","Preservation","1","694","17","1012327","531","WEST 22 STREET","0","0","0","50",,"5","1006940017","104","3","99","Hudson Yards-Chelsea-Flatiron-Union Square","40.747481","-74.005724","10011"
"50819","6422","Preservation","1","393","6","1004875","169","AVENUE B","0","0","0","9","2356","5","1003930006","103","2","28","Lower East Side","40.727253","-73.979612","10009"
"50820","11252","Preservation","1","390","24","1004713","334","EAST 8 STREET","0","0","0","30","29232","6","1003900024","103","2","2602","Lower East Side","40.724903","-73.978927","10009"
"50821","6426","Preservation","1","393","8","1004877","173","AVENUE B","0","0","0","9","10785","5","1003930008","103","2","28","Lower East Side","40.727374","-73.979525","10009"
"50837","881542","Preservation","1","595","7504","1087495","330","SPRING STREET","0","0","0","40",,"12","1005957504","102","3","37","SoHo-TriBeCa-Civic Center-Little Italy","40.726044","-74.009705","10013"
"50847","637018","Preservation","4","16250","1","4305475","138-11","BEACH CHANNEL DRIVE","0","0","0","41","1","2","4162500001","414","32","922","Breezy Point-Belle Harbor-Rockaway Park-Broad Channel","40.578288","-73.858424","11694"
"50866","634640","Preservation","4","16232","71","4304984","166","BEACH 123 STREET","0","0","0","6","1000","3","4162320071","414","32","93402","Breezy Point-Belle Harbor-Rockaway Park-Broad Channel","40.57701","-73.842551","11694"
"50868","810149","Preservation","3","8273","7501","3233305","108-01","SEAVIEW AVENUE","0","0","0","223","1","2","3082737501","318","46","1018","Canarsie","40.639092","-73.881532","11236"
"50869","634610","Preservation","4","16204","22","4304182","431","BEACH 122 STREET","0","0","0","5","1200","3","4162040022","414","32","93402","Breezy Point-Belle Harbor-Rockaway Park-Broad Channel","40.58041","-73.843544","11694"
"50895","691317","Preservation","4","16166","38","4435715","112-22","ROCKAWAY BEACH BOULEVARD","0","0","0","23",,"3","4161660038","414","32","938","Breezy Point-Belle Harbor-Rockaway Park-Broad Channel","40.580728","-73.833989","11694"
"50902","908868","Preservation","4","16173","7501","4538266","100-14","SHORE FRONT PARKWAY","0","0","0","78",,"4","4161737501","414","32","94201","Breezy Point-Belle Harbor-Rockaway Park-Broad Channel","40.582429","-73.820402","11694"
"50933","811259","Preservation","4","15931","40","4302057","147","BEACH 59 STREET","0","0","0","11",,"1","4159310040","414","31","964","Hammels-Arverne-Edgemere","40.590417","-73.788753","11692"
"50938","51561","Preservation","2","2972","34","2010431","1347","BRISTOW STREET","13","10","23","23","5350","5","2029720034","203","16","153","Crotona Park East","40.831908","-73.894913","10459"
"50942","964992","New Construction","2","2808","73","2000000","2026","CRESTON AVENUE","114","0","114","114","18395","11","2028080073","205","14","23501","Mount Hope","40.852057","-73.905436","10453"
"50959","633908","Preservation","4","16138","39","4435778","145","BEACH 92 STREET","0","0","0","5","2300","2","4161380039","414","32","94203","Hammels-Arverne-Edgemere","40.585156","-73.814504","11693"
"50996","837303","Preservation","3","8720","7512",,"155","OCEANA DRIVE EAST","0","0","0","56","87230","8",,"313","48","61002","Brighton Beach","40.575859","-73.957257","11235"
"50996","837304","Preservation","3","8720","7512",,"105","OCEANA DRIVE EAST","0","0","0","56","87230","7",,"313","48","61002","Brighton Beach","40.576553","-73.957317","11235"
"51023","809070","Preservation","3","7260","28","3196299","2727","OCEAN PARKWAY","0","0","0","174","1","6","3072600028","313","48","366","Brighton Beach","40.582809","-73.967034","11235"
"51031","6546","Preservation","1","392","33","1004774","155","AVENUE C","0","0","0","16","1","5","1003920033","103","2","28","Lower East Side","40.725636","-73.977729","10009"
"51035","683674","Preservation","4","16213","1","4304470","117-17","NEWPORT AVENUE","0","0","0","6","3200","3","4162130001","414","32","93402","Breezy Point-Belle Harbor-Rockaway Park-Broad Channel","40.581093","-73.839273","11694"
"51047","212708","Preservation","3","8691","33","3245108","3099","BRIGHTON 6 STREET","0","0","0","96",,"6","3086910033","313","48","36002","Brighton Beach","40.577007","-73.961331","11235"
"51051","387522","Preservation","3","8782","7","3247146","2330","VOORHIES AVENUE","0","0","0","105","18210","6","3087820007","315","48","600","Sheepshead Bay-Gerritsen Beach-Manhattan Beach","40.586616","-73.945624","11235"
"51052","11135","Preservation","1","376","16","1004475","248","EAST 7 STREET","0","0","0","12","23604","6","1003760016","103","2","2602","Lower East Side","40.72374","-73.978065","10009"
"51056","211091","Preservation","3","399","1","3006362","205","BOND STREET","0","0","0","5","1","4","3003990001","306","33","71","DUMBO-Vinegar Hill-Downtown Brooklyn-Boerum Hill","40.683162","-73.987395","11217"
"51056","216349","Preservation","3","411","11","3006598","190","BUTLER STREET","0","0","0","4","1","3","3004110011","306","33","71","DUMBO-Vinegar Hill-Downtown Brooklyn-Boerum Hill","40.682353","-73.987514","11217"
"51064","335986","Preservation","3","7061","2","3189572","1726","MERMAID AVENUE","0","0","0","7",,"4","3070610002","313","47","326","Seagate-Coney Island","40.57659","-73.985028","11224"
"51065","691364","Preservation","4","16215","37","4304544","119-08","ROCKAWAY BEACH BOULEVARD","0","0","0","6","4100","3","4162150037","414","32","93402","Breezy Point-Belle Harbor-Rockaway Park-Broad Channel","40.578909","-73.839926","11694"
"51067","11583","Preservation","1","379","15","1004545","412","EAST 10 STREET","0","0","0","24","14910","6","1003790015","103","2","28","Lower East Side","40.725581","-73.976849","10009"
"51104","956094","New Construction","1","595","7509","1080177","460","WASHINGTON STREET","22","0","22","107","25641","10","1005957509","101","1","39","SoHo-TriBeCa-Civic Center-Little Italy","40.724414","-74.010192","10013"
"51123","967799","New Construction","3","2107","7502","3000000","15","LAFAYETTE AVENUE","50","0","50","123","12000","12","3021077502","302","35","33","Fort Greene","40.68679","-73.97851","11217"
"51143","5578","Preservation","1","1987","33","1059740","1488","AMSTERDAM AVENUE","18","0","18","18","3983","6","1019870033","109","7","219","Manhattanville","40.817942","-73.95295","10031"
"51143","5579","Preservation","1","1987","34","1059741","1492","AMSTERDAM AVENUE","18","0","18","18","4000","6","1019870034","109","7","219","Manhattanville","40.818022","-73.952888","10031"
"51143","5580","Preservation","1","1987","36","1059742","1496","AMSTERDAM AVENUE","22","0","22","22","4000","6","1019870036","109","7","219","Manhattanville","40.818104","-73.952831","10031"
"51150","66602","Preservation","2","3031","7","2011182","406","EAST 184 STREET","20","0","20","20","3680","6","2030310007","206","15","38302","Fordham South","40.856646","-73.894993","10458"
"51168","910338","Preservation","4","16137","7502","4540154","91-16","SHORE FRONT PARKWAY","0","0","0","43",,"6","4161377502","414","32","94203","Hammels-Arverne-Edgemere","40.584402","-73.813196","11693"
"51175","927217","New Construction","2","2360","3","2000000","740","BROOK AVENUE","52","0","52","52","0","9","2023600003","201","17","71","Melrose South-Mott Haven North","40.81971","-73.911689","10451"
"51177","5624","Preservation","1","2076","30","1061912","1702","AMSTERDAM AVENUE","7","0","7","7","1263","5","1020760030","109","7","229","Hamilton Heights","40.82472","-73.947995","10031"
"51177","5656","Preservation","1","2080","28","1062032","1780","AMSTERDAM AVENUE","13","0","13","13","2219","5","1020800028","109","7","233","Hamilton Heights","40.82725","-73.946143","10031"
"51177","5659","Preservation","1","2080","30","1062033","1784","AMSTERDAM AVENUE","9","0","9","9","1500","5","1020800030","109","7","233","Hamilton Heights","40.827359","-73.946063","10031"
"51177","5661","Preservation","1","2080","31","1062034","1786","AMSTERDAM AVENUE","9","0","9","9","1500","5","1020800031","109","7","233","Hamilton Heights","40.827414","-73.946024","10031"
"51177","21191","Preservation","1","2048","33","1060909","115","EDGECOMBE AVENUE","9","0","9","9","1292","5","1020480033","110","9","22102","Central Harlem North-Polo Grounds","40.820352","-73.945556","10030"
"51177","21218","Preservation","1","2051","85","1061078","161","EDGECOMBE AVENUE","15","0","15","15","2588","5","1020510085","109","9","227","Hamilton Heights","40.822086","-73.944601","10030"
"51177","21219","Preservation","1","2051","83","1061077","165","EDGECOMBE AVENUE","20","0","20","20","2034","5","1020510083","109","9","227","Hamilton Heights","40.822149","-73.944568","10030"
"51177","21220","Preservation","1","2051","81","1061076","169","EDGECOMBE AVENUE","20","0","20","20","2013","5","1020510081","109","9","227","Hamilton Heights","40.822212","-73.944539","10030"
"51177","21221","Preservation","1","2051","98","1061083","180","EDGECOMBE AVENUE","42","0","42","42","5124","6","1020510098","109","9","227","Hamilton Heights","40.822144","-73.94455","10030"
"51177","21246","Preservation","1","2051","66","1079815","211","EDGECOMBE AVENUE","36","0","36","36","3066","6","1020510066","109","9","227","Hamilton Heights","40.822868","-73.944228","10030"
"51177","28152","Preservation","1","2048","42","1060915","618","ST NICHOLAS AVENUE","15","0","15","15","2122","5","1020480042","110","9","22102","Central Harlem North-Polo Grounds","40.821068","-73.946159","10030"
"51177","41519","Preservation","1","2051","7","1061040","347","WEST 141 STREET","10","0","10","10","1235","5","1020510007","109","9","227","Hamilton Heights","40.820986","-73.945397","10030"
"51177","41521","Preservation","1","2051","4","1061039","351","WEST 141 STREET","12","0","12","12","1576","6","1020510004","109","9","227","Hamilton Heights","40.821005","-73.94544","10030"
"51177","41937","Preservation","1","2051","60","1061060","340","WEST 145 STREET","7","0","7","7","1504","4","1020510060","109","9","227","Hamilton Heights","40.823697","-73.943985","10039"
"51177","804763","Preservation","1","2051","64","1079816","219","EDGECOMBE AVENUE","30","0","30","30","2941","6","1020510064","109","9","227","Hamilton Heights","40.822994","-73.944166","10030"
"51179","876943","Preservation","3","1625","34","3390995","625","QUINCY STREET","94","0","94","94","84416","6","3016250034","303","36","291","Stuyvesant Heights","40.688856","-73.934247","11221"
"51248","9911","Preservation","1","2057","46","1061204","270","CONVENT AVENUE","60","0","60","60","75679","10","1020570046","109","9","227","Hamilton Heights","40.821896","-73.948254","10031"
"51249","94237","Preservation","2","3111","4","2012994","2120","MAPES AVENUE","0","29","29","29","27495","5","2031110004","206","15","36501","East Tremont","40.847123","-73.885094","10460"
"51252","46525","Preservation","2","3261","15","2015921","3058","BAILEY AVENUE","9","0","9","9","1500","4","2032610015","208","14","277","Van Cortlandt Village","40.877375","-73.902948","10463"
"51252","46526","Preservation","2","3261","17","2015922","3060","BAILEY AVENUE","9","0","9","9","1572","4","2032610017","208","14","277","Van Cortlandt Village","40.8774","-73.90293","10463"
"51252","116663","Preservation","2","3213","14","2014629","2432","UNIVERSITY AVENUE","46","0","46","46","8300","5","2032130014","207","14","263","Kingsbridge Heights","40.863593","-73.904393","10468"
"51252","119119","Preservation","2","3179","47","2013964","2085","WALTON AVENUE","42","0","42","42","7052","6","2031790047","205","14","241","Mount Hope","40.854223","-73.90578","10453"
"51260","811859","Preservation","4","15926","1","4536731","57-15","SHORE FRONT PARKWAY","0","0","0","1093",,"19","4159260001","414","31","97202","Hammels-Arverne-Edgemere","40.589248","-73.787478","11692"
"51261","2713","Preservation","1","1763","1","1054344","2289","5 AVENUE","0","0","0","297","0","16","1017630001","111","9","210","East Harlem North","40.814945","-73.936012","10037"
"51261","2716","Preservation","1","1764","1","1054345","2301","5 AVENUE","0","0","0","60","0","11","1017640001","111","9","210","East Harlem North","40.815502","-73.935614","10037"
"51261","804799","Preservation","1","1764","1","1085294","2311","5 AVENUE","0","0","0","84","0","11","1017640001","111","9","210","East Harlem North","40.816029","-73.935227","10037"
"51261","904741","Preservation","1","1764","1","1085296","2333","5 AVENUE","0","0","0","184","0","19","1017640001","111","9","210","East Harlem North","40.816767","-73.934713","10037"
"51271","213417","Preservation","3","8690","91","3245104","500","BRIGHTWATER COURT","0","0","0","193",,"18","3086900091","313","48","36002","Brighton Beach","40.575745","-73.962217","11235"
"51274","6564","Preservation","1","382","1","1083146","2","HAVEN PLAZA","0","0","0","72","1","1","1003820001","103","2","28","Lower East Side","40.727003","-73.976448","10009"
"51274","804063","Preservation","1","382","1","1083141","1","HAVEN PLAZA","0","0","0","278","1","1","1003820001","103","2","28","Lower East Side","40.727016","-73.97644","10009"
