"_2017_organization","project_address","project_title","council_district","community_board_1","_2017_award","postcode","borough","latitude","longitude","community_board_2","bin","bbl","nta"
"Immigrant Social Services, Inc.","137 Henry Street, New York NY 10002","ISS Computer System","1","3","77000.00","10002","Manhattan","40.71333","-73.990827","6","1003564","1002830015","Lower East Side                                                            "
"3-Legged Dog, Inc.","80 Greenwich St, New York, NY 10006","Video/Lighting System - 3-Legged Dog","1","1","100000.00","10006","Manhattan","40.707514","-74.0138","13","1078977","1000180100","Battery Park City-Lower Manhattan                                          "
"Educational Alliance, Inc.","100 William Street, New York, NY 10038","IT Upgrade","1","1","100000.00","10038","Manhattan","40.708497","-74.007477","1502","1001116","1000680036","Battery Park City-Lower Manhattan                                          "
"Gina Gibney Dance","280 Broadway, New York, NY 10007","280 Broadway Smart Studios","1","1","120000.00","10007","Manhattan","40.714417","-74.006089","31","1079215","1001530001","SoHo-TriBeCa-Civic Center-Little Italy                                     "
"Lower East Side Tenement
Museum ***","103 Orchard Street, New York, NY 10002","103 Orchard Street Equipment Systems","1","3","85000.00","10002","Manhattan","40.718592","-73.990007","18","1005471","1004140051","Chinatown                                                                  "
"Lower Manhattan Cultural Council
***","110 Andes Road 10004 and 125 Maiden
Lane 10038","IT & Media Equipment","1","1","50000.00","10038","Manhattan","40.692552","-74.016281","5","1086432","1000010010","park-cemetery-etc-Manhattan                                                "
"New York Classical Theatre, Inc.","TBD","Theatrical Seating Completion Project","1","1","20000.00",,"Manhattan",,,,,,
"Seaport Museum New York","Docked at Pier 16 East River, New York, NY 10038","Wavertree Public Access and Education","1","1","500000.00","10038","Manhattan","40.705316","-74.002734","1502","1077339","1000730008","Battery Park City-Lower Manhattan                                          "
"Grand Street Settlement, Inc. ***","80 Pitt Street, New York NY 10002","80 Pitt Street Renovation","2","3","250000.00","10002","Manhattan","40.718328","-73.98245","2201","1084357","1003380001","Lower East Side                                                            "
"ARC on 4th Street, Inc.","61 East 4th Street, New York, NY 10003","Greening and ADA Compliance Project","2","3","150000.00","10003","Manhattan","40.726755","-73.990735","38","1082642","1004600056","East Village                                                               "
"La MaMa Experimental Theatre Club, Inc.","74A East 4th Street, New York, NY 10003","Renovation of 74A East 4th Street","2","3","150000.00","10003","Manhattan","40.726494","-73.990169","38",,,"East Village                                                               "
"New York Shakespeare Festival","425 Lafayette Street, New York, NY 10003","ELEVATOR RENOVATION","2","2","185000.00","10003","Manhattan","40.728932","-73.992218","57","1008774","1005440016","West Village                                                               "
"New York Theatre Workshop, Inc","79 East 4th Street, New York, NY 10003","Flexible Seating System","2","3","35000.00","10003","Manhattan","40.726483","-73.990096","38","1006601","1004600046","East Village                                                               "
"Nuyorican Poets Cafe Inc.","236 East 3rd Street, New York, NY 10009","Nuyorican Poets Cafe Renovation Project","2","3","250000.00","10009","Manhattan","40.722274","-73.982048","2202","1004592","1003850023","Lower East Side                                                            "
"Spanish Theatre Repertory
Company LTD","138 East 27th Street, New York, NY 10016","In-house Color Production Printer","2","6","55000.00","10016","Manhattan","40.741886","-73.982599","68","1018151","1008820060","Gramercy                                                                   "
"The 122 Community Center, Inc.","150 First Avenue, New York, NY 10009","122CC Code Renovation and New
Addition","2","3","100000.00","10009","Manhattan","40.728261","-73.984785","34","1005894","1004370001","East Village                                                               "
"Theater for the New City
Foundation, Inc.","155 First Avenue, New York NY 10003","A new Seamless roof and HVACs","2","3","100000.00","10003","Manhattan","40.728505","-73.984634","40","1006416","1004517502","East Village                                                               "
"Third Street Music School
Settlement","235 E. 11th Street, New York, NY 10003","Technology Upgrades Project","2","3","52000.00","10003","Manhattan","40.730806","-73.987364","40","1006849","1004677501","East Village                                                               "
"Lesbian & Gay Community Services Center, Inc","208 W 13th St, New York NY 10011","Windows, Facade, & Electronic Key Access","3","2","250000.00","10011","Manhattan","40.738034","-74.000603","77","1067571","1006170047","West Village                                                               "
"Alvin Ailey Dance Foundation, Inc.","405 West 55th Street, New York, NY 10019","Ailey Addition Project","3","4","100000.00","10019","Manhattan","40.766839","-73.987163","139","1026846","1010650029","Clinton                                                                    "
"Atlantic Theater Company","333 West 20th Street, New York, NY 10011","LGT Roof & Windows Replacement","3","4","100000.00","10011","Manhattan","40.743885","-74.00092","89","1013257","1007440020","Hudson Yards-Chelsea-Flatiron-Union Square                                 "
"Home for Contemporary Theatre and Art","145 Sixth Avenue, New York, NY 10013","HERE LED Lighting System","3","2","41000.00","10013","Manhattan","40.724971","-74.004477","37","1087061","1004917502","SoHo-TriBeCa-Civic Center-Little Italy                                     "
"Jazz at Lincoln Center, Inc. ***","10 Columbus Circle, New York, NY 10019","Rose Hall Restroom Upgrades","3","4","100000.00","10019","Manhattan","40.767815","-73.98226","145","1026318","1010497501","Lincoln Square                                                             "
"Manhattan Theatre Club","261 West 47th Street, New York, NY 10036","MTC Net3 Dimmer System","3","5","90000.00","10036","Manhattan","40.759974","-73.986428","125","1024753","1010190005","Midtown-Midtown South                                                      "
"Roundabout Theatre Company, Inc.","229 West 54th Street, New York, NY 10019","Studio 54 Fire and Life Safety System","3","5","100000.00","10019","Manhattan","40.764209","-73.982867","137","1024849","1010267501","Midtown-Midtown South                                                      "
"The New 42nd Street","209 West 42nd Street, New York, NY 10036","New Victory Public Spaces Renovation","3","5","100000.00","10036","Manhattan","40.756261","-73.987457","119","1024685","1010140025","Midtown-Midtown South                                                      "
"Project Renewal, Inc.","225 East 45th Street, New York NY 10017","New Providence Backup Generator","4","6","75000.00","10017","Manhattan","40.752396","-73.97232","90","1037587","1013190011","Turtle Bay-East Midtown                                                    "
"Jewish Museum","1109 Fifth Avenue, New York, NY 10128","Computer System","4","8","200000.00","10128","Manhattan","40.785298","-73.957263","16001","1047052","1015040001","Upper East Side-Carnegie Hill                                              "
"New York City Center","130 West West 56th Street, New York, NY
10019","Studio Upgrade","4","5","100000.00","10019","Manhattan","40.764151","-73.978889","137",,,"Midtown-Midtown South                                                      "
"Seventh Regiment Armory
Conservancy, Inc.","643 Park Avenue, New York, NY 10065","Drill Hall Waterproofing & Masonry Work","4","8","100000.00","10065","Manhattan","40.767491","-73.966448","120","1042460","1014010001","Upper East Side-Carnegie Hill                                              "
"The Young Men's & Young
Women's Hebrew Association","1395 Lexington Avenue, New York NY 10128","Fire Alarm System Upgrade","5","8","150000.00","10128","Manhattan","40.783051","-73.952978","15801","1048310","1015200050","Upper East Side-Carnegie Hill                                              "
"City Parks Foundation","50 72nd Street Transverse, New York NY
10021","SummerStage Renovation","6",,"150000.00","10021","Manhattan","40.773423","-73.970145","143","1083827","1011110001","park-cemetery-etc-Manhattan                                                "
"American Museum of Natural History","200 Central Park West, New York, NY 10024","Gilder Ctr for Science Edu. & Innovation","6","7","250000.00","10024","Manhattan","40.781312","-73.972254","165","1083846","1011300001","Upper West Side                                                            "
"Bloomingdale School of Music","323 West 108th Street, New York, NY 10025","New Grand Piano for Recital Hall","6","7","102000.00","10025","Manhattan","40.80314","-73.968073","195","1057302","1018930010","Morningside Heights                                                        "
"City Center of Music & Drama, Inc","20 Lincoln Center, New York, NY 10023","Energy Efficiency and Theater Upgrades","6","7","100000.00","10023","Manhattan","40.771414","-73.983201","149","1028831","1011340005","Lincoln Square                                                             "
"Elaine Kaufman Cultural
Center/Lucy Moses School for Music and Dance","129 West 67th Street, New York, NY 10023","Infrastructure FY17","6","7","100000.00","10023","Manhattan","40.774919","-73.982745","153","1081024","1011390008","Lincoln Square                                                             "
"New York Historical Society","170 Central Park West, New York, NY 10024","Museum Education Technology Center","6","7","100000.00","10024","Manhattan","40.779265","-73.973743","161","1028816","1011290029","Upper West Side                                                            "
"Symphony Space, Inc.","2537 Broadway, New York, NY 10025","Symphony Space Renovation","6","7","50000.00","10025","Manhattan","40.793842","-73.972393","183","1033687","1012420055","Upper West Side                                                            "
"The Metropolitan Museum of Art","1000 Fifth Avenue, New York, NY 10028","Wings A, B & C Skylight/ Mec Replacement","6",,"100000.00","10028","Manhattan","40.778633","-73.962546","143","1083810","1011110001","park-cemetery-etc-Manhattan                                                "
"The Bridge, Inc.","248 West 108th Street, New York NY 10025","IT Infrastructure Enhancement Project","7","7","148000.00","10025","Manhattan","40.802302","-73.966112","195","1056670","1018790057","Morningside Heights                                                        "
"The Brotherhood/Sister Sol","512-514 West 143 Street, New York NY
10031","BHSS Community Center","7","9",,"10031","Manhattan","40.824482","-73.949867","229","1061865","1020740047","Hamilton Heights                                                           "
"Dance Theatre of Harlem, Inc.","466 West 152nd Street, New York, NY
10031","Boiler & HVAC Upgrades","7","9","250000.00","10031","Manhattan","40.829244","-73.943446","23501","1061605","1020660059","Hamilton Heights                                                           "
"East Harlem Tutorial Program","2040-2050 Second Avenue, New York NY 10029","East Harlem Education Center - FY 17","8","11","161000.00","10029","Manhattan","40.790049","-73.942843","170","1089693","1016770001","East Harlem South                                                          "
"Museum of the City of New York","1220 Fifth Avenue, New York, NY 10029","Exterior Rehabilitation & Restoration 2","8","11","200000.00","10029","Manhattan","40.792438","-73.952448","168","1074157","1016090001","East Harlem South                                                          "
"The Children's Aid Society","14-32 West 118th Street, New York NY
10026","Childrens Aid Milbank Pool","9","10","100000.00","10026","Manhattan","40.802278","-73.946257","190","1051435","1016010018","Central Harlem South                                                       "
"Esplanade Gardens, Inc.","2569 Adam Clayton Powell Jr Blvd","Facade Upgrades & Elevator
Modernization","9","10","200000.00",,"Manhattan","40.823872","-73.937438","236","1079773","1020160050","Central Harlem North-Polo Grounds                                          "
"Center for Urban Community Services","302-310  West 127th Street, New York, NY 10027","302-310 W127th St Supportive Housing","9","10","100000.00","10027","Manhattan","40.811565","-73.950451","215","1059346","1019530036","Central Harlem North-Polo Grounds                                          "
"Greater Harlem Housing Development Corporation","200 W. 136th; 488-90 St. Nicholas Avenue; 2518 & 2540 Frederick Douglass Blvd; 229- 245 W. 135th Street; 216 W. 135th St","GHHDC Strivers Plaza Capital Phase 3","9","10","100000.00",,"Manhattan",,,,,,
"Maysles Institute","343 Lenox Ave, New York, NY 10027","Sound System","9","10","51000.00","10027","Manhattan","40.809254","-73.944416","224","1086536","1019120130","Central Harlem North-Polo Grounds                                          "
"The Studio Museum in Harlem","142 and 144 West 125th Street, New York,
NY 10027","New Building Project","9","10","100000.00","10027","Manhattan",,,,,,
"New York Restoration Project","3725 10th Avenue, New York, NY 10034","Sherman Creek Park","10","12","257000.00","10034","Manhattan","40.860433","-73.921855","299","1089884","1021500001","Marble Hill-Inwood                                                         "
"Council on the Environment, Inc. d/b/a GrowNYC","(Will be parked inside the warehouse in the Bronx)","Greenmarket Co. Van","1 - Org",,"42000.00",,"Manhattan",,,,,,
"Urban Resource Institute","Will be parked off street at URI's shelters.","Urban Resource Institute DV Shelter Vans","1- Org",,"40000.00",,"Manhattan",,,,,,
"Borough of Manhattan Community College","199 Chambers Street","LED Lighting","Council District 1 CM Chin","1","225000.00",,"Manhattan","40.716838","-74.012117","39","1066406","1001420050","SoHo-TriBeCa-Civic Center-Little Italy                                     "
"Manhattan Early College School for Advertising","411 Pearl Street","Classroom Technology Upgrade","Council District 1 CM Chin","1","100000.00",,"Manhattan","40.711442","-74.000851","29","1001388","1001130100","Chinatown                                                                  "
"Battery Park City School","55 Battery Place","Laptop Carts Purchase","Council District 1 CM Chin","1","100000.00",,"Manhattan","40.70644","-74.017818","31704","1087945","1000160040","Battery Park City-Lower Manhattan                                          "
"Stuyvesant High School","345 Chambers Street","Science Lab Upgrade","Council District 1 CM Chin","1","300000.00",,"Manhattan","40.71759","-74.013748","31703","1084587","1000160215","Battery Park City-Lower Manhattan                                          "
"The Urban Assembly Maker Academy","411 Pearl Street, 4th Floor","Classroom Technology Upgrade","Council District 1 CM Chin","1","100000.00",,"Manhattan","40.711442","-74.000851","29","1001388","1001130100","Chinatown                                                                  "
"The Urban Assembly School for Emergency Management","411 Pearl Street, Room B33","Classroom Technology Upgrade","Council District 1 CM Chin","1","100000.00",,"Manhattan","40.711442","-74.000851","29","1001388","1001130100","Chinatown                                                                  "
"75 Morton Street School - I.S. 323 & P94","c/o P.S. 126MAT, 80 Catherine Street","Experimental Roof Garden Ecosystem","Council
District 3 CM
Johnson","2","100000.00",,"Manhattan",,,,,,
"City-As-School High School","16 Clarkson Street","Hydroponics Learning Infrastructure","Council
District 3 CM
Johnson","2","100000.00",,"Manhattan","40.729412","-74.006148","67","1009757","1005810054","West Village                                                               "
"Hudson River Park Trust","353 West Street, Pier 40, 2nd Fl.","Chelsea Waterside Park","Council
District 3 CM
Johnson","2","119000.00",,"Manhattan","40.729719","-74.010622","69","1012249","1006560001","West Village                                                               "
"Merchant's House Museum","29 East 4th Street","Slate Roof and Fire Escape Renovation","Council
District 2 CM
Mendez","2","250000.00",,"Manhattan","40.727579","-73.992528","57","1008785","1005440071","West Village                                                               "
"NYC iSchool","131 Avenue of the Americas","Classroom Technology Upgrade","Council
District 3 CM
Johnson","2","100000.00",,"Manhattan","40.7244","-74.004625","37","1007378","1004910016","SoHo-TriBeCa-Civic Center-Little Italy                                     "
"Bard High School Early College","525 East Houston Street","Classroom Technology Upgrade","Council
District 2 CM
Mendez","3","100000.00",,"Manhattan","40.719029","-73.975891","1002","1004062","1003250025","Lower East Side                                                            "
"Cascades High School","198 Forsyth Street","Classroom Technology Upgrade","Council District 1 CM Chin","3","100000.00",,"Manhattan","40.72252","-73.990728","3601","1005626","1004220072","Chinatown                                                                  "
"The New York Public Library","President's Office Stephen A. Schwarzman Building,  476 Fifth Avenue","Chatham Square Library Mechanical Upgrade","Council District 1 CM Chin","3","200000.00",,"Manhattan",,,,,,
"East Side Community High School","420 East 12th Street","Classroom Technology Upgrade","Council
District 2 CM
Mendez","3","100000.00",,"Manhattan","40.729589","-73.982555","34","1005974","1004390017","East Village                                                               "
"Essex Street Academy","350 Grand Street","Locker Room Renovation","Council District 1 CM Chin","3","150000.00",,"Manhattan","40.716778","-73.989337","18","1005283","1004080030","Chinatown                                                                  "
"The School for Global Leaders","145 Stanton Street","Library Upgrade","Council District 1 CM Chin","3","100000.00",,"Manhattan","40.720581","-73.985645","3001","1004323","1003540080","Chinatown                                                                  "
"New Explorations into Science, Technology & Math","111 Columbia Street","Classroom Technology Upgrade","Council
District 2 CM
Mendez","3","100000.00",,"Manhattan","40.718895","-73.979308","2201","1004070","1003350001","Lower East Side                                                            "
"P.S. 63 - Star Academy","121 East 3rd Street","Video Surveillance Camera","Council
District 2 CM
Mendez","3","50000.00",,"Manhattan","40.724117","-73.986381","32","1005760","1004310014","East Village                                                               "
"P.S. 126 - Manhattan Academy of Technology","80 Catherine Street","Gym/Auditorium Renovation","Council District 1 CM Chin","3","200000.00",,"Manhattan","40.710729","-73.996631","25","1083357","1001110160","Chinatown                                                                  "
"P.S. 140 - Nathan Straus Preparatory School of Humanities","123 Ridge Street","Classroom Technology Upgrade","Council District 1 CM Chin","3","100000.00",,"Manhattan","40.71925","-73.983056","2201","1004091","1003440001","Lower East Side                                                            "
"P.S. 142 - Amalia Castro School","100 Attorney Street","Classroom Technology Upgrade","Council District 1 CM Chin","3","100000.00",,"Manhattan","40.718383","-73.984452","1402","1004080","1003430001","Lower East Side                                                            "
"P.S. 184M - Shuang Wen School","327 Cherry Street","Classroom Technology Upgrade","Council District 1 CM Chin","3","125000.00",,"Manhattan","40.711549","-73.986542","201","1003143","1002450007","Lower East Side                                                            "
"P.S. 361 - The Children's Workshop School","610 East 12th Street","Playground Resurfacing & Renovation","Council
District 2 CM
Mendez","3","225000.00",,"Manhattan","40.727892","-73.978525","28","1079053","1003940012","Lower East Side                                                            "
"Pace High School","100 Hester Street","Classroom Technology Upgrade","Council District 1 CM Chin","3","100000.00",,"Manhattan","40.716553","-73.993092","16","1082489","1003010003","Chinatown                                                                  "
"University Neighborhood High School","200 Monroe Street","Classroom Technology Upgrade","Council District 1 CM Chin","3","100000.00",,"Manhattan","40.712399","-73.984497","202","1003214","1002590044","Lower East Side                                                            "
"Sara Roosevelt Park","167-191 Forsyth Street","Sara Roosevelt Park Pathways and Fencing Renovation","Council District 1 CM Chin","3","300000.00",,"Manhattan",,,,,,
"DeWitt Clinton Park","601 West 52nd Street","De Witt Clinton Park Staircase Renovation","Council
District 3 CM
Johnson","4","500000.00",,"Manhattan","40.767268","-73.994022","135","1027153","1011000001","Clinton                                                                    "
"High School for Environmental Studies","444 West 56th Street","Hydroponics Learning Infrastructure","Council
District 3 CM
Johnson","4","200000.00",,"Manhattan","40.767791","-73.987531","139","1026841","1010650001","Clinton                                                                    "
"Independence High School","850 Tenth Avenue","Classroom Technology Upgrade","Council
District 3 CM
Johnson","4","100000.00",,"Manhattan","40.768343","-73.989108","139","1026841","1010650001","Clinton                                                                    "
"John Jay College of Criminal Justice","524 West 59th Street, Suite 625","Classroom/Public Spaces Technology Upgrade","Council
District 6 CM
Rosentha
l","4","275000.00",,"Manhattan","40.770794","-73.988534","147","1027084","1010870005","Lincoln Square                                                             "
"Landmark High School","351 West 18th Street","Classroom Technology Upgrade","Council
District 3 CM
Johnson","4","100000.00",,"Manhattan","40.742867","-74.002136","89","1013096","1007420007","Hudson Yards-Chelsea-Flatiron-Union Square                                 "
"Manhattan Bridges High School","525 West 50th Street","Classroom Technology Upgrade","Council
District 3 CM
Johnson","4","100000.00",,"Manhattan","40.765184","-73.992953","135","1083802","1010790029","Clinton                                                                    "
"Manhattan Business Academy","351 West 18th Street","Classroom Technology Upgrade","Council
District 3 CM
Johnson","4","100000.00",,"Manhattan","40.742867","-74.002136","89","1013096","1007420007","Hudson Yards-Chelsea-Flatiron-Union Square                                 "
"The New York Public Library","President's Office Stephen A. Schwarzman Building,  476 Fifth Avenue","Muhlenberg Library Mechanical Upgrade","Council
District 3 CM
Johnson","4","200000.00",,"Manhattan",,,,,,
"NYC Lab High School for Collaborative Studies","333 West 17th Street","Locker Replacement","Council
District 3 CM
Johnson","4","100000.00",,"Manhattan","40.742129","-74.002198","83","1079152","1007410010","Hudson Yards-Chelsea-Flatiron-Union Square                                 "
"Quest to Learn School","351 West 18th Street","Classroom Technology Upgrade","Council
District 3 CM
Johnson","4","100000.00",,"Manhattan","40.742867","-74.002136","89","1013096","1007420007","Hudson Yards-Chelsea-Flatiron-Union Square                                 "
"Sakura Park","115-145 Calremont Avenue","Sakura Park Staircase  Renovation","Council
District 7 CM
Levine","9","375000.00",,"Manhattan",,,,,,
"The High School of Fashion Industries","225 West 24th Street","Gymnasium Upgrade","Council
District 3 CM
Johnson","4","77000.00",,"Manhattan","40.745156","-73.996074","91","1014174","1007740019","Hudson Yards-Chelsea-Flatiron-Union Square                                 "
"Urban Assembly School for Design and Construction","525 W. 50th Street, 4th Fl.","Classroom Technology Upgrade","Council
District 3 CM
Johnson","4","100000.00",,"Manhattan","40.765184","-73.992953","135","1083802","1010790029","Clinton                                                                    "
"Fashion Institute of Technology","Marvin Feldman Center, Suite C-908 227 West 27th Street","School of Graduate Studies Renovation","Council
District 3 CM
Johnson","5","150000.00",,"Manhattan",,,,,,
"School of the Future","127 East 22nd Street","Auditorium Upgrade","Council
District 2 CM
Mendez","5","175000.00",,"Manhattan","40.738952","-73.985479","68","1018014","1008780016","Gramercy                                                                   "
"The Graduate Center -City University of New York","365 - 5th Avenue, Suite 8201","Graduate Center  Energy Savings","Council
District 4 CM
Garodnic
k","5","200000.00",,"Manhattan",,,,,,
"Baruch College","1 Bernard Baruch Way, Box D-0710","17 Lexington Wireless Network","Council
District 2 CM
Mendez","6","250000.00",,"Manhattan","40.740601","-73.983389","68","1086514","1008800024","Gramercy                                                                   "
"High School of Art and Design","245 East 56th Street","Classroom Technology Upgrade","Council
District 4 CM
Garodnic
k","6","100000.00",,"Manhattan","40.759147","-73.966979","108","1038593","1013300015","Turtle Bay-East Midtown                                                    "
"Global Learning Collaborative School","145 West 84th Street","Classroom Technology Upgrade","Council
District 6 CM
Rosentha
l","7","100000.00",,"Manhattan","40.785803","-73.974614","169","1032128","1012150001","Upper West Side                                                            "
"High School for Arts, Imagination and Inquiry","122 Amsterdam Avenue","Maxine Green Guidance and Pupil Personnel Revamp","Council
District 6 CM
Rosentha
l","7","200000.00",,"Manhattan","40.774351","-73.984753","151","1030343","1011570025","Lincoln Square                                                             "
"M.S. 250 - West Side Collaborative Middle School","735 West End Avenue","Classroom Technology Upgrade","Council
District 6 CM
Rosentha
l","7","100000.00",,"Manhattan","40.795157","-73.973292","183","1034190","1012530065","Upper West Side                                                            "
"M.S. 256 - Academic and Athletic Excellence School","154 West 93rd Street","Classroom Technology Upgrade","Council
District 6 CM
Rosentha
l","7","100000.00",,"Manhattan","40.791728","-73.970845","177","1032522","1012230005","Upper West Side                                                            "
"M.S. 258 - Community Action School","154 West 93rd Street","Art Room Renovation","Council
District 6 CM
Rosentha
l","7","100000.00",,"Manhattan","40.791728","-73.970845","177","1032522","1012230005","Upper West Side                                                            "
"West Prep Academy","150 West 105th Street","Green Roof Feasibility Study","Council
District 7 CM
Levine","7","100000.00",,"Manhattan","40.799178","-73.964842","189","1076625","1018590001","Upper West Side                                                            "
"M.S. 54 - Booker T. Washington Middle School","103 West 107th Street","Classroom Technology Upgrade","Council
District 7 CM
Levine","7","100000.00",,"Manhattan","40.800119","-73.962837","193","1055990","1018620011","Morningside Heights                                                        "
"Dual Language Middle School - 03M24","32 West 92nd Street, Rm. 319","Classroom Technology Upgrade","Council
District 6 CM
Rosentha
l","7","100000.00",,"Manhattan","40.789526","-73.967574","177","1081042","1012050006","Upper West Side                                                            "
"Mott Hall 2","234 West 109th Street, 4th Fl.","Hydroponics Learning Infrastructure","Council
District 7 CM
Levine","7","100000.00",,"Manhattan","40.802917","-73.965613","195","1056676","1018800013","Morningside Heights                                                        "
"P.S. 9 - The Sarah Anderson School","100 West 84th Street","Infrastructure Renovation","Council
District 6 CM
Rosentha
l","7","290000.00",,"Manhattan","40.785287","-73.97343","169","1032119","1012140029","Upper West Side                                                            "
"P.S. 84 - Lillian Weber School of the Arts","32 West 92nd Street","Roof Repair and Courtyard STEM Space","Council
District 6 CM
Rosentha
l","7","150000.00",,"Manhattan","40.789526","-73.967574","177","1081042","1012050006","Upper West Side                                                            "
"P.S. 87 - William T. Sherman School","160 West 78th Street","Hydroponics Learning Infrastructure","Council
District 6 CM
Rosentha
l","7","48000.00",,"Manhattan","40.781958","-73.977638","161","1030196","1011490007","Upper West Side                                                            "
"P.S. 166 - Richard Rogers School of Arts and Technology","132 W. 89th Street","Auditorium Renovation","Council
District 6 CM
Rosentha
l","7","100000.00",,"Manhattan","40.788865","-73.971847","173","1032308","1012190047","Upper West Side                                                            "
"P.S. 191 - Museum Magnet School","210 West 61st Street","Classroom Technology Upgrade","Council
District 6 CM
Rosentha
l","7","100000.00",,"Manhattan","40.771925","-73.987328","147","1030320","1011520029","Lincoln Square                                                             "
"P.S. 199 - Jessie Isador Straus School","270 West 70th Street","Science Center","Council
District 6 CM
Rosentha
l","7","91000.00",,"Manhattan","40.778059","-73.984449","155","1030351","1011580040","Lincoln Square                                                             "
"P.S. 333 - Manhattan School for Children","154 West 93 Street","Auditorium Lighting","Council
District 6 CM
Rosentha
l","7","170000.00",,"Manhattan","40.791728","-73.970845","177","1032522","1012230005","Upper West Side                                                            "
"Special Music School","122 Amsterdam Avenue","Classroom Technology Upgrade","Council
District 6 CM
Rosentha
l","7","100000.00",,"Manhattan","40.774351","-73.984753","151","1030343","1011570025","Lincoln Square                                                             "
"West End Secondary School - M291","227 West 61st Street","Classroom Technology Upgrade","Council
District 6 CM
Rosentha
l","7","50000.00",,"Manhattan","40.772007","-73.987479","151","1030328","1011540108","Lincoln Square                                                             "
"Manhattan Hunter Science High School","122 Amsterdam Avenue","Hydroponics Learning Infrastructure","Council
District 6 CM
Rosentha
l","7","35000.00",,"Manhattan","40.774351","-73.984753","151","1030343","1011570025","Lincoln Square                                                             "
"Carl Schurz Park","97 South End Avenue","Carl Schurz Park Playground Renovation","Council
District 5 CM
Kallos","8","300000.00",,"Manhattan","40.708381","-74.017461","31704",,,"Battery Park City-Lower Manhattan                                          "
"East Side Middle School","331 East 91st Street","Hydroponics Learning Infrastructure","Council
District 5 CM
Kallos","8","100000.00",,"Manhattan","40.780706","-73.948553","154","1081267","1015540032","Yorkville                                                                  "
"Hunter College, City University of New York","695 Park Avenue","Black Box Renovation","Council
District 4 CM
Garodnic
k","8","250000.00",,"Manhattan","40.768973","-73.965367","120","1081419","1014030001","Upper East Side-Carnegie Hill                                              "
"Life Sciences Secondary School","320 East 96th Street","Gym Renovation","Council
District 5 CM
Kallos","8","200000.00",,"Manhattan","40.783625","-73.945637","15601","1050338","1015580034","Yorkville                                                                  "
"M.S. 167M - Robert F. Wagner Middle School","220 East 76th Street","Classroom Technology Upgrade","Council
District 4 CM
Garodnic
k","8","100000.00",,"Manhattan","40.77205","-73.958066","134","1044058","1014300005","Lenox Hill-Roosevelt Island                                                "
"P.S. 151 - Yorkville Community School","421 East 88th Street","Hydroponics Learning Infrastructure","Council
District 5 CM
Kallos","8","100000.00",,"Manhattan","40.777911","-73.947757","14402","1050618","1015680008","Yorkville                                                                  "
"P.S. 183 - Robert L. Stevenson School","419 East 66th Street","Classroom Technology Upgrade","Council
District 5 CM
Kallos","8","100000.00",,"Manhattan","40.763736","-73.95815","116","1045569","1014610007","Lenox Hill-Roosevelt Island                                                "
"P.S. 198M - The Straus School","1700 Third Avenue","Split Level HVAC for Auditorium and Cafeteria Installation","Council
District 5 CM
Kallos","8","250000.00",,"Manhattan","40.784826","-73.949611","15801","1048492","1015240023","Upper East Side-Carnegie Hill                                              "
"P.S./I.S. 217 - The Roosevelt Island School","645 Main Street","Green Roof","Council
District 5 CM
Kallos","8","200000.00",,"Manhattan","40.763894","-73.947916","23802","1084848","1013730001","Lenox Hill-Roosevelt Island                                                "
"The Carter Burden Center for the Aging","1484 First Avenue","Covello Kitchen Relocation","Council District 8 - CM Mark-
Viverito","11","100000.00",,"Manhattan","40.771244","-73.953478","132","1081248","1014720003","Lenox Hill-Roosevelt Island                                                "
"Hunter College Campus Schools","71 East 94th Street","Athletic Facilities Renovation","Council
District 4 CM
Garodnic
k","8","115000.00",,"Manhattan","40.785602","-73.954323","16001","1047404","1015060021","Upper East Side-Carnegie Hill                                              "
"Columbia Secondary School for Math, Science and Engineering","425 West 123rd Street","Engineering Lab","Council
District 7 CM
Levine","9","150000.00",,"Manhattan","40.810431","-73.955809","20901","1059526","1019640012","Morningside Heights                                                        "
"John H. Finley Campus School - P.S./M.S. 129M","425 West 130th Street","Classroom Technology Upgrade","Council
District 9 CM
Levine","9","50000.00",,"Manhattan","40.814637","-73.951912","21703","1059407","1019570010","Manhattanville                                                             "
"Morningside Park","70-74 Morningside Drive","Morningside Park Playground Renovation","Council
District 7 CM
Levine","9","300000.00",,"Manhattan","40.80682","-73.95886","20101","1059498","1019610057","Morningside Heights                                                        "
"P.S. 36 - Margaret Douglas Elementary School","123 Morningside Drive","Classroom Technology Upgrade","Council
District 7 CM
Levine","9","100000.00",,"Manhattan","40.81027","-73.957482","19701","1055890","1018500002","Morningside Heights                                                        "
"P.S. 125 - The Ralph Bunche School of Urban Farming","425 West 123rd Street","Hydroponics Learning Infrastructure","Council
District 7 CM
Levine","9","100000.00",,"Manhattan","40.810431","-73.955809","20901","1059526","1019640012","Morningside Heights                                                        "
"P.S./M.S. 161M - Don Pedro Albizu Campos School","499 West 133rd Street","Classroom Technology Upgrade","Council District 9 - CM
Dickens","9","100000.00",,"Manhattan","40.81755","-73.953041","21303","1059645","1019710001","Manhattanville                                                             "
"The Mott Hall School","71 Convent Avenue","STEAM Lab","Council
District 9 CM
Dickens","9","100000.00",,"Manhattan","40.815458","-73.952908","21703","1084067","1019570001","Manhattanville                                                             "
"NYS Office of Parks, Recreation and Historic Preservation, NYC Regional Office","163 West 125th Street, 17th Floor","Riverbank State Park Greenhouse","Council
District 7 CM
Levine","9","150000.00",,"Manhattan","40.808644","-73.947524","222","1081602","1019100001","Central Harlem South                                                       "
"The High School for Math, Science and Engineering @ CCNY","240 Convent Avenue","Rooftop Garden","Council
District 9 CM
Dickens","9","201000.00",,"Manhattan","40.82074","-73.949097","21703","1084085","1019570200","Manhattanville                                                             "
"Democracy Prep High School","212 West 120th Street","Bathroom Renovation","Council
District 9 CM
Dickens","10","175000.00",,"Manhattan","40.806063","-73.95134","220","1058447","1019250019","Central Harlem South                                                       "
"The New York Public Library","President's Office Stephen A. Schwarzman Building,  476 Fifth Avenue","Macomb's Bridge Library New Branch","Council
District 9 CM
Dickens","10","500000.00",,"Manhattan",,,,,,
"Mott Hall High School","6 Edgecombe Avenue, 4th Fl.","Classroom Technology Upgrade","Council
District 9 CM
Dickens","10","100000.00",,"Manhattan","40.817372","-73.947712","22102","1059460","1019600001","Central Harlem North-Polo Grounds                                          "
"Harlem Hospital","506 Lenox Avenue, 2nd Fl., Executive Suite","Medical Equipment Purchase","Council
District 9 CM
Dickens","10","85000.00",,"Manhattan","40.814358","-73.940659","212","1053899","1017330001","Central Harlem North-Polo Grounds                                          "
"P.S./M.S. 46 - The Arthur Tappan School","2987 - 8th Avenue","Classroom Technology Upgrade","Council
District 9 CM
Dickens","10","100000.00",,"Manhattan",,,,,,
"P.S. 76 - A. Philip Randolph Middle School","220 West 121 Street","Auditorium Restoration","Council
District 9 CM
Dickens","10","165000.00",,"Manhattan","40.806768","-73.951061","220","1058470","1019260017","Central Harlem South                                                       "
"C.S. 154 - Harriet Tubman Learning Center","250 West 127th Street","Auditorium Projection System Installation","Council
District 9 CM
Dickens","10","36000.00",,"Manhattan","40.810928","-73.948938","224","1058671","1019320010","Central Harlem North-Polo Grounds                                          "
"P.S. 175 - Henry Highland Garnet Elementary School","175 West 134th Street","Gymnasium Upgrade","Council
District 9 CM
Dickens","10","370000.00",,"Manhattan","40.814422","-73.943664","228","1058248","1019190006","Central Harlem North-Polo Grounds                                          "
"P.S./I.S. 180 - The Hugo Newman College Preparatory School","370 West 120th Street","Hydroponic and STEEM Lab","Council
District 9 CM
Dickens","10","107000.00",,"Manhattan","40.807843","-73.955569","257","1059111","1019460001","Central Harlem South                                                       "
"P.S. 194M - Countee Cullen School","244 West 144 Street","Library Upgrade","Council
District 9 CM
Dickens","10","275000.00",,"Manhattan","40.821535","-73.940941","232","1060432","1020290011","Central Harlem North-Polo Grounds                                          "
"P.S. 197 - John B. Russwurm School","2230 Fifth Avenue","Hydroponics Learning Infrastructure","Council
District 9 CM
Dickens","10","100000.00",,"Manhattan","40.813184","-73.937322","212","1076433","1017330017","Central Harlem North-Polo Grounds                                          "
"P.S. 242 - The Young Diplomats Magnet Academy","134 W 122nd Street","Classroom Technology Upgrade","Council
District 9 CM
Dickens","10","100000.00",,"Manhattan","40.8063","-73.948013","220","1057683","1019060011","Central Harlem South                                                       "
"P.S. 811 - Mickey Mantle School","34 West 118th Street","Schoolyard renovation and Garden","Council
District 9 CM
Dickens","10","250000.00",,"Manhattan","40.80247","-73.946716","190","1051434","1016010001","Central Harlem South                                                       "
"The Eagle Academy for Young Men of Harlem","6 Edgecombe Avenue","Internet Upgrade","Council
District 9 CM
Dickens","10","140000.00",,"Manhattan","40.817372","-73.947712","22102","1059460","1019600001","Central Harlem North-Polo Grounds                                          "
"Thurgood Marshall Academy Lower School","282 West 151st Street","Classroom Technology Upgrade","Council
District 9 CM
Dickens","10","100000.00",,"Manhattan","40.826164","-73.938075","236","1060597","1020360049","Central Harlem North-Polo Grounds                                          "
"The Frederick Douglass Academy I","2581 Adam Clayton Powell Jr. Blvd.","Digital Media and the Arts Auditorium","Council
District 9 CM
Dickens","10","100000.00",,"Manhattan","40.824319","-73.93712","236","1060198","1020160100","Central Harlem North-Polo Grounds                                          "
"Central Park East High School","1573 Madison Avenue","Classroom Technology Upgrade","Council District 8 CM Mark- Viverito","11","100000.00",,"Manhattan","40.793763","-73.949381","17401","1051515","1016120050","East Harlem South                                                          "
"Renaissance School of the Arts","319 East 117th  Street","Classroom Technology Upgrade","Council District 8 CM Mark- Viverito","11","100000.00",,"Manhattan","40.797302","-73.936365","188","1052986","1016890005","East Harlem North                                                          "
"P.S. 30M - Rafael Hernandez/Langston Hughes School","144 - 176 E. 128th Street","Mobile STEM Labs","Council
District 9 CM
Dickens","11","100000.00",,"Manhattan","40.805953","-73.935179","242","1054502","1017760020","East Harlem North                                                          "
"P.S. 38 - Roberto Clemente School","232 East 103rd Street","Classroom Technology Upgrade","Council District 8 CM Mark- Viverito","11","100000.00",,"Manhattan","40.788952","-73.944538","164","1052384","1016520016","East Harlem South                                                          "
"P.S./M.S. 050 - Vito Marcantonio School","433 East 100th Street","Auditorium Upgrade","Council District 8 CM Mark- Viverito","11","300000.00",,"Manhattan","40.785258","-73.941526","162","1083933","1016940001","East Harlem South                                                          "
"The Lexington Academy - 04M072","131 East 104th Street","Hydroponics Learning Infrastructure","Council District 8 CM Mark- Viverito","11","100000.00",,"Manhattan","40.791179","-73.947776","166","1081340","1016320011","East Harlem South                                                          "
"P.S. 83 - Luis Munoz Rivera School","219 East 109th Street","Classroom Technology Upgrade","Council District 8 CM Mark- Viverito","11","100000.00",,"Manhattan","40.793194","-73.942548","180","1052436","1016590012","East Harlem North                                                          "
"P.S./M.S. 096 - Joseph Lanzetta School","216 East 120th Street","Electrical Upgrade","Council District 8 CM Mark- Viverito","11","100000.00",,"Manhattan","40.800256","-73.937558","194","1074333","1017840012","East Harlem North                                                          "
"P.S. 102 - Jacques Cartier School","315 East 113th Street","Playground Upgrade","Council District 8 CM Mark- Viverito","11","100000.00",,"Manhattan","40.794872","-73.938719","180","1081366","1016840101","East Harlem North                                                          "
"P.S. 108 - Assemblyman Angelo Del Toro Educational Complex School","1615 Madison Avenue","Classroom Technology Upgrade","Council District 8 CM Mark- Viverito","11","100000.00",,"Manhattan","40.795146","-73.948368","17401","1051584","1016140021","East Harlem South                                                          "
"P.S. 155 - William Paca School","319 East 117th  Street","Classroom Technology Upgrade","Council District 8 CM Mark- Viverito","11","100000.00",,"Manhattan","40.797302","-73.936365","188","1052986","1016890005","East Harlem North                                                          "
"P.S./I.S. 171 - Patrick Henry Preparatory School","19 East 103 Street","Classroom Technology Upgrade","Council
District 8 CM Mark- Viverito","11","100000.00",,"Manhattan","40.792122","-73.951961","168","1051497","1016090007","East Harlem South                                                          "
"P.S. 182 - The Bilingual Bicultural Mini School","219 East 109th Street","Classroom Technology Upgrade","Council District 8 CM Mark- Viverito","11","100000.00",,"Manhattan","40.793194","-73.942548","180","1052436","1016590012","East Harlem North                                                          "
"P.S. 206 - Jose Celso Barbosa School","508 East 120th Street","Auditorium Upgrade","Council District 8 CM Mark- Viverito","11","200000.00",,"Manhattan","40.797467","-73.930868","192","1084005","1018160001","East Harlem North                                                          "
"P.S. 375 - Mosaic Preparatory Academy","141 East 111th Street","STEM Lab","Council District 8 CM Mark- Viverito","11","100000.00",,"Manhattan","40.79564","-73.94441","172","1081346","1016390003","East Harlem South                                                          "
"Park East High School/East Harlem Pride","230 East 105th Street","Auditorium Upgrade","Council District 8 CM Mark- Viverito","11","60000.00",,"Manhattan","40.790543","-73.944356","170","1075643","1016540033","East Harlem South                                                          "
"Poor Richard's Park Playground","2095 Second Avenue","Poor Richard's Park Playground Renovation","Council District 8 CM Mark- Viverito","11","200000.00",,"Manhattan","40.792082","-73.94139","170","1052433","1016560100","East Harlem South                                                          "
"The Talented and Gifted School for Young Scholars","240 East 109th Street","Classroom Technology Upgrade","Council District 8 CM Mark- Viverito","11","100000.00",,"Manhattan","40.79307","-73.942303","170","1052433","1016560100","East Harlem South                                                          "
"Dyckman Farmhouse Museum Alliance","4881 Broadway @ 204th Street","ADA Ramp and Bathroom Upgrade","Council
District 10 - CM
Rodrigue
z","12","375000.00",,"Manhattan","40.867125","-73.92283","295","1075616","1022410035","Marble Hill-Inwood                                                         "
"JHS 052 - Inwood","650  Academy Street","Classroom Technology Upgrade","Council
District 10 - CM
Rodrigue
z","12","100000.00",,"Manhattan","40.866053","-73.924835","291","1076776","1022330020","Marble Hill-Inwood                                                         "
"M.S. 322","4600 Broadway","Urban Community Garden","Council
District 10 - CM
Rodrigue
z","12","100000.00",,"Manhattan","40.86079","-73.930672","285","1076756","1021720016","Washington Heights North                                                   "
"M.S. 324 - Patria Mirabal School","21 Jumel Place","Classroom Technology Upgrade","Council
District 10 - CM
Rodrigue
z","12","100000.00",,"Manhattan","40.839305","-73.936159","249","1076741","1021120058","Washington Heights South                                                   "
"P.S. 189M School","2580 Amsterdam Avenue","All Purpose Room Upgrade","Council
District 10 - CM
Rodrigue
z","12","75000.00",,"Manhattan","40.852631","-73.927604","277","1076750","1021590051","Washington Heights North                                                   "
"P.S. 4 - Duke Ellington Elementary School","500 West 160th Street","Classroom Technology Upgrade","Council
District 7 CM
Levine","12","100000.00",,"Manhattan","40.834899","-73.941085","245","1062792","1021180022","Washington Heights South                                                   "
"P.S. 28M - The Wright Brothers School","475 West 155th Street","Hydroponics Learning Infrastructure","Council
District 7 CM
Levine","12","100000.00",,"Manhattan","40.831227","-73.942143","239","1076739","1021070026","Washington Heights South                                                   "
"P.S. 48M - Michael J. Buczek School","4360 Broadway","Hydroponics Learning Infrastructure","Council
District 10 - CM
Rodrigue
z","12","100000.00",,"Manhattan","40.853466","-73.934048","271","1076752","1021670029","Washington Heights North                                                   "
"P.S. 115 - Alexander Humbolt School","586 West 177 Street","Classroom Technology Upgrade","Council
District 10 - CM
Rodrigue
z","12","100000.00",,"Manhattan","40.846542","-73.935205","261","1063228","1021330040","Washington Heights South                                                   "
"P.S. 152M - The Dyckman Valley School","93 Nagle Avenue","Classroom Technology Upgrade","Council
District 10 - CM
Rodrigue
z","12","100000.00",,"Manhattan","40.860412","-73.927936","283","1064149","1021730001","Washington Heights North                                                   "
"P.S. 173","306 Fort Washington Avenue","A+ Stem labs","Council
District 10 - CM
Rodrigue
z","12","100000.00",,"Manhattan","40.845469","-73.940468","263","1063503","1021420154","Washington Heights South                                                   "
"P.S. 178 - Professor Juan Bosch School","12-18 Ellwood Street","Classroom Technology Upgrade","Council
District 10 - CM
Rodrigue
z","12","100000.00",,"Manhattan","40.859243","-73.927792","283","1064128","1021710036","Washington Heights North                                                   "
"P.S./I.S. 187 - Hudson Cliffs School","349 Cabrini Boulevard","Rooftop Playground and Exterior Safety Fence","Council
District 10 - CM
Rodrigue
z","12","200000.00",,"Manhattan","40.856693","-73.937093","273","1064371","1021790365","Washington Heights North                                                   "
"P.S. 314 - Muscota New School","4862 Broadway","Classroom Technology Upgrade","Council
District 10 - CM
Rodrigue z","12","100000.00",,"Manhattan","40.866706","-73.923948","291","1064900","1022340007","Marble Hill-Inwood                                                         "
"Riverside Park","West 72nd Street to St. Clair Place","Riverside Park Facilities Upgrade","Council District 6 & 7 - CM
Helen Rosentha l, CM
Levine",,"250000.00",,"Manhattan",,,,,,
