"providertype","dfta_id","programname","sponsorname","programaddress","programcity","programstate","programzipcode","borough","programphone","dfta_funded","monhouropen","monhourclose","tuehouropen","tuehourclose","wedhouropen","wedhourclose","thuhouropen","thuhourclose","frihouropen","frihourclose","sathouropen","sathourclose","sunhouropen","sunhourclose","latitude","longitude","community_board","council_district","census_tract","bin","bbl","nta","geocoded_column"
"SENIOR CENTER CONTRACTS","13H01","Sister Annunciata Bethell Neighborhood Senior Center","BEDFORD PARK MULTI-SERVICE CENTER FOR SENIOR CITIZENS INC","243 EAST 204TH ST","BRONX","NY","10458","BRONX","718-365-3725","Y","8 :30","4 :30","8 :30","4 :30","8 :30","4 :30","8 :30","4 :30","8 :30","4 :30","00:00","00:00","00:00","00:00","40.874205","-73.884457","207","11","413","2017363","2033110146","Bedford Park-Fordham North","
,  
(40.874205, -73.884457)"
"SENIOR CENTER CONTRACTS","13J01","Bronx House Weinberg Neighborhood Senior Center","BRONX HOUSE INC","990 PELHAM PARKWAY SOUTH","BRONX","NY","10461","BRONX","718-792-1800","Y","8 :30","4 :30","8 :30","4 :30","8 :30","4 :30","8 :30","4 :30","8 :30","4 :30","00:00","00:00","00:00","00:00","40.856804","-73.860354","211","13","248","2088568","2043287501","Pelham Parkway","
,  
(40.856804, -73.860354)"
"SENIOR CENTER CONTRACTS","13K01","Heights Neighborhood Senior Center","BRONXWORKS INC","200 WEST TREMONT AVENUE","BRONX","NY","10453","BRONX","718-299-0300","Y","8 :00","4 :00","8 :00","4 :00","8 :00","4 :00","8 :00","4 :00","8 :00","4 :00","00:00","00:00","00:00","00:00","40.851984","-73.916804","205","14","20502","2008966","2028770522","University Heights-Morris Heights","
,  
(40.851984, -73.916804)"
"SENIOR CENTER CONTRACTS","13L01","E. Roberts Moore Neighborhood Senior Center","BRONXWORKS INC","515 JACKSON AVENUE","BRONX","NY","10455","BRONX","718 665-5559","Y","8 :00","4 :00","8 :00","4 :00","8 :00","4 :00","8 :00","4 :00","8 :00","4 :00","00:00","00:00","00:00","00:00","40.812353","-73.909401","201","8","35","2091284","2025570083","Mott Haven-Port Morris","
,  
(40.812353, -73.909401)"
"SENIOR CENTER CONTRACTS","13M01","East Concourse Neighborhood Senior Center","BRONXWORKS INC","236 EAST TREMONT AVENUE","BRONX","NY","10457","BRONX","718 731-6300","Y","8 :00","4 :00","8 :00","4 :00","8 :00","4 :00","8 :00","4 :00","8 :00","4 :00","00:00","00:00","00:00","00:00","40.848936","-73.904562","205","15","23302","2007599","2028040021","Mount Hope","
,  
(40.848936, -73.904562)"
"SENIOR CENTER CONTRACTS","13N01","Marble Hill Neighborhood Senior Center","CHILD DEVELOPMENT CENTER OF THE MOSHOLU-MONTEFIORE COMMMUNIT","5365 BROADWAY","BRONX","NY","10463","BRONX","718-562-8551","Y","8 :30","4 :30","8 :30","4 :30","8 :30","4 :30","8 :30","4 :30","8 :30","4 :30","00:00","00:00","00:00","00:00","40.876062","-73.907886","208","10","309","1082782","1022150623","Marble Hill-Inwood","
,  
(40.876062, -73.907886)"
"SENIOR CENTER CONTRACTS","13P01","Mosholu Montefiore Neighborhood Senior Center","CHILD DEVELOPMENT CENTER OF THE MOSHOLU-MONTEFIORE COMMMUNIT","3450 DEKALB AVENUE","BRONX","NY","10467","BRONX","718-798-6601","Y","8 :00","4 :00","8 :00","4 :00","8 :00","4 :00","8 :00","4 :00","8 :00","4 :00","00:00","00:00","00:00","00:00","40.881486","-73.881226","207","11","421","2096396","2033270001","Norwood","
,  
(40.881486, -73.881226)"
"SENIOR CENTER CONTRACTS","13P02","Fort Independence Social Club","CHILD DEVELOPMENT CENTER OF THE MOSHOLU-MONTEFIORE COMMMUNIT","3340 BAILEY AVENUE","BRONX","NY","10463","BRONX","718-796-2950","Y","08:00","4 :00","08:00","4 :00","08:00","4 :00","08:00","4 :00","08:00","4 :00","00:00","00:00","00:00","00:00","40.879929","-73.900869","208","14","277","2086835","2032610102","Van Cortlandt Village","
,  
(40.879929, -73.900869)"
"SENIOR CENTER CONTRACTS","13Q01","Mitchell Neighborhood Senior Center","EAST SIDE HOUSE INC","188 LINCOLN AVENUE","BRONX","NY","10454","BRONX","718-665-2168","Y","8 :00","4 :00","8 :00","4 :00","8 :00","4 :00","8 :00","4 :00","8 :00","4 :00","00:00","00:00","00:00","00:00","40.809874","-73.927933","201","8","23","2091142","2023110001","Mott Haven-Port Morris","
,  
(40.809874, -73.927933)"
"SENIOR CENTER CONTRACTS","13R01","Melrose Mott Haven Neighborhood Senior Center","EAST SIDE HOUSE INC","372 EAST 152 STREET","BRONX","NY","10455","BRONX","718-665-2280","Y","8 :00","4 :00","8 :00","4 :00","8 :00","4 :00","8 :00","4 :00","8 :00","4 :00","8 :00","4 :00","8 :00","4 :00","40.818516","-73.91793","201","17","67","2090413","2023980014","Melrose South-Mott Haven North","
,  
(40.818516, -73.91793)"
"SENIOR CENTER CONTRACTS","13R02","Patterson Houses Senior Center","EAST SIDE HOUSE INC","337 ALEXANDER AVENUE","BRONX","NY","10454","BRONX","718-993-5146","Y","08:00","4 :00","08:00","4 :00","08:00","4 :00","8 :00","4 :00","08:00","4 :00","00:00","00:00","00:00","00:00","40.815197","-73.922179","201","8","51","2091115","2023240001","Mott Haven-Port Morris","
,  
(40.815197, -73.922179)"
"SENIOR CENTER CONTRACTS","13S01","Hope of Israel Neighborhood Senior Center","HOPE OF ISRAEL SENIOR CITIZENS CENTER INC","1068 GERARD AVENUE","BRONX","NY","10452","BRONX","718-665-8400","Y","9 :00","5 :00","9 :00","5 :00","9 :00","5 :00","9 :00","5 :00","9 :00","5 :00","00:00","00:00","00:00","00:00","40.832289","-73.922123","204","16","195","2002944","2024780007","West Concourse","
,  
(40.832289, -73.922123)"
"SENIOR CENTER CONTRACTS","13T01","Bronx River Neighborhood Senior Center","INSTITUTE FOR THE PUERTO RICAN HISPANIC ELDERLY INC","1619 EAST 174TH ST","BRONX","NY","10472","BRONX","718-617-6334","Y","8 :00","4 :00","8 :00","4 :00","8 :00","4 :00","8 :00","4 :00","8 :00","4 :00","00:00","00:00","00:00","00:00","40.83395","-73.876147","209","18","62","2092909","2038860002","West Farms-Bronx River","
,  
(40.83395, -73.876147)"
"SENIOR CENTER CONTRACTS","13U01","James Monroe Neighborhood Senior Center","INSTITUTE FOR THE PUERTO RICAN HISPANIC ELDERLY INC","1776 STORY AVENUE","BRONX","NY","10472","BRONX","718-893-3484","Y","8 :00","4 :00","8 :00","4 :00","8 :00","4 :00","8 :00","4 :00","8 :00","4 :00","00:00","00:00","00:00","00:00","40.82324","-73.86596","209","18","42","2092748","2036370001","Soundview-Castle Hill-Clason Point-Harding Park","
,  
(40.82324, -73.86596)"
"SENIOR CENTER CONTRACTS","13V01","Arturo Schomburg Neighborhood Senior Center","INSTITUTE FOR THE PUERTO RICAN HISPANIC ELDERLY INC","1315 FRANKLIN AVENUE","BRONX","NY","10456","BRONX","718-842-6880","Y","09:00","05:00","09:00","05:00","09:00","05:00","09:00","05:00","09:00","05:00","00:00","00:00","00:00","00:00","40.832062","-73.901641","203","16","149","2009713","2029310086","Morrisania-Melrose","
,  
(40.832062, -73.901641)"
"SENIOR CENTER CONTRACTS","13X01","Betances Neighborhood Senior Center","INSTITUTE FOR THE PUERTO RICAN HISPANIC ELDERLY INC","607 CONCORD AVE","BRONX","NY","10455","BRONX","718-292-4922","Y","8 :30","4 :30","8 :30","4 :30","8 :30","4 :30","8 :30","4 :30","8 :30","4 :30","00:00","00:00","00:00","00:00","40.814544","-73.907628","201","8","73","2114666","2026420022","Melrose South-Mott Haven North","
,  
(40.814544, -73.907628)"
"SENIOR CENTER CONTRACTS","13Y01","Van Cortlandt Neighborhood Senior Center","THE JEWISH ASSOCIATION FOR SERVICES FOR THE AGED","3880 SEDGWICK AVENUE","BRONX","NY","10463","BRONX","718 549-4700","Y","9 :00","5 :00","9 :00","5 :00","9 :00","5 :00","9 :00","5 :00","9 :00","5 :00","00:00","00:00","00:00","00:00","40.882997","-73.894008","208","11","409","2086830","2032460076","Van Cortlandt Village","
,  
(40.882997, -73.894008)"
"SENIOR CENTER CONTRACTS","13Z01","Coop City Neighborhood Senior Center","THE JEWISH ASSOCIATION FOR SERVICES FOR THE AGED","2049 BARTOW AVENUE","BRONX","NY","10475","BRONX","718-320-2066","Y","8 :00","4 :00","8 :00","4 :00","8 :00","4 :00","8 :00","4 :00","8 :00","4 :00","00:00","00:00","00:00","00:00","40.869472","-73.828582","210","12","46201","2097466","2051410100","Co-op City","
,  
(40.869472, -73.828582)"
"SENIOR CENTER CONTRACTS","13Z02","JASA Einstein Senior Center","THE JEWISH ASSOCIATION FOR SERVICES FOR THE AGED","135 EINSTEIN LOOP","BRONX","NY","10475","BRONX","718-379-2702","Y","08:00","4 :00","08:00","4 :00","08:00","4 :00","08:00","4 :00","08:00","4 :00","00:00","00:00","00:00","00:00","40.864255","-73.82203","210","12","302","2095160","2051350210","Co-op City","
,  
(40.864255, -73.82203)"
"SENIOR CENTER CONTRACTS","14A01","Concourse Plaza Wellness Neighborhood Senior Center","MID BRONX SENIOR CITIZENS COUNCIL INC","900 GRAND CONCOURSE","BRONX","NY","10451","BRONX","718-588-8200","Y","8 :30","7 :00","8 :30","7 :00","8 :30","7 :00","8 :30","7 :00","8 :30","7 :00","00:00","00:00","00:00","00:00","40.827412","-73.922277","204","16","18301","2002802","2024600001","East Concourse-Concourse Village","
,  
(40.827412, -73.922277)"
"SENIOR CENTER CONTRACTS","14B01","Thomas Guess Neighborhood Senior Center","THE NEIGHBORHOOD SELF-HELP BY OLDER PERSONS PROJECT INC","2070 CLINTON AVENUE","BRONX","NY","10457","BRONX","718-584-2357","Y","09:00","05:00","09:00","05:00","09:00","05:00","09:00","05:00","09:00","05:00","00:00","00:00","00:00","00:00","40.847236","-73.888101","206","15","371","2012652","2030940014","East Tremont","
,  
(40.847236, -73.888101)"
"SENIOR CENTER CONTRACTS","14C01","Bay Eden Neighborhood Senior Center","THE JEWISH ASSOCIATION FOR SERVICES FOR THE AGED","1220 EAST 229TH STREET","BRONX","NY","10466","BRONX","718-882-3815","Y","8 :00","4 :00","8 :00","4 :00","8 :00","4 :00","8 :00","4 :00","8 :00","4 :00","00:00","00:00","00:00","00:00","40.884011","-73.842204","212","12","460","2093741","2049050360","Eastchester-Edenwald-Baychester","
,  
(40.884011, -73.842204)"
"SENIOR CENTER CONTRACTS","14C02","Sue Ginsburg Senior Center","THE JEWISH ASSOCIATION FOR SERVICES FOR THE AGED","975 WARING AVENUE","BRONX","NY","10469","BRONX","718-881-1758","Y","09:00","05:00","09:00","05:00","09:00","05:00","09:00","05:00","09:00","05:00","00:00","00:00","00:00","00:00","40.861211","-73.859709","211","13","324","2093415","2044440001","Bronxdale","
,  
(40.861211, -73.859709)"
"SENIOR CENTER CONTRACTS","14D01","Dreiser Neighborhood Senior Center","THE JEWISH ASSOCIATION FOR SERVICES FOR THE AGED","177 DREISER LOOP","BRONX","NY","10475","BRONX","718-320-1345","Y","8 :00","4 :00","8 :00","4 :00","8 :00","4 :00","8 :00","4 :00","8 :00","4 :00","00:00","00:00","00:00","00:00","40.877935","-73.82953","210","12","46201","2097469","2051410500","Co-op City","
,  
(40.877935, -73.82953)"
"SENIOR CENTER CONTRACTS","14E01","Throggs Neck Neighborhood Senior Center","THE JEWISH ASSOCIATION FOR SERVICES FOR THE AGED","2705 SCHLEY AVENUE","BRONX","NY","10465","BRONX","718-823-1771","Y","09:00","05:00","09:00","05:00","09:00","05:00","09:00","05:00","09:00","05:00","00:00","00:00","00:00","00:00","40.821662","-73.827061","210","13","144","2080423","2055680050","Schuylerville-Throgs Neck-Edgewater Park","
,  
(40.821662, -73.827061)"
"SENIOR CENTER CONTRACTS","14F01","Kips Bay Castle Hill Neighborhood Senior Center","KIPS BAY BOYS AND GIRLS CLUB","625 CASTLE HILL AVENUE","BRONX","NY","10473","BRONX","718-319-9156","Y","8 :00","4 :00","8 :00","4 :00","8 :00","4 :00","8 :00","4 :00","8 :00","4 :00","00:00","00:00","00:00","00:00","40.819754","-73.848209","209","18","86","2092673","2035700001","Soundview-Castle Hill-Clason Point-Harding Park","
,  
(40.819754, -73.848209)"
"SENIOR CENTER CONTRACTS","14H01","Neighborhood SHOPP Leon Neighborhood Senior Center","THE NEIGHBORHOOD SELF-HELP BY OLDER PERSONS PROJECT INC","735 EAST 152ND STREET","BRONX","NY","10455","BRONX","718-708-6897","Y","9 :00","5 :00","9 :00","5 :00","9 :00","5 :00","9 :00","5 :00","9 :00","5 :00","00:00","00:00","00:00","00:00","40.815994","-73.907843","201","17","79","2091979","2026540002","Melrose South-Mott Haven North","
,  
(40.815994, -73.907843)"
"SENIOR CENTER CONTRACTS","14J01","Northeast Bronx Neighborhood Senior Center","NORTHEAST BRONX SENIOR CITIZENS INC","2968 BRUCKNER BLVD","BRONX","NY","10465","BRONX","718-892-6090","Y","9 :00","4 :00","9 :00","4 :00","9 :00","4 :00","9 :00","4 :00","9 :00","4 :00","00:00","00:00","00:00","00:00","40.833889","-73.826264","210","13","164","2097558","2054200002","Schuylerville-Throgs Neck-Edgewater Park","
,  
(40.833889, -73.826264)"
"SENIOR CENTER CONTRACTS","14K01","PSS Parkside Neighborhood Senior Center","PRESBYTERIAN SENIOR SERVICES","644 ADEE AVENUE","BRONX","NY","10467","BRONX","718-881-7780","Y","8 :00","4 :00","8 :00","4 :00","8 :00","4 :00","8 :00","4 :00","8 :00","4 :00","00:00","00:00","00:00","00:00","40.86967","-73.869106","211","15","336","2101742","2045420100","Bronxdale","
,  
(40.86967, -73.869106)"
"SENIOR CENTER CONTRACTS","14L01","PSS Andrew Jackson Neighborhood Senior Center","PRESBYTERIAN SENIOR SERVICES","325 EAST 156TH STREET","BRONX","NY","10451","BRONX",,"Y","8 :00","4 :00","8 :00","4 :00","8 :00","4 :00","8 :00","4 :00","8 :00","4 :00","00:00","00:00","00:00","00:00","40.821439","-73.917995","201","17","69","2091224","2024160001","Melrose South-Mott Haven North","
,  
(40.821439, -73.917995)"
"SENIOR CENTER CONTRACTS","14L02","Morrisania Air Rights Social Club","PRESBYTERIAN SENIOR SERVICES","3135 PARK AVENUE","BRONX","NY","10451","BRONX","718-992-2528","Y","08:00","4 :00","08:00","4 :00","08:00","4 :00","08:00","4 :00","08:00","4 :00","00:00","00:00","00:00","00:00","40.82415","-73.917164","204","16","173","2100990","2024209078","East Concourse-Concourse Village","
,  
(40.82415, -73.917164)"
"SENIOR CENTER CONTRACTS","14M01","PSS Davidson Neighborhood Senior Center","PRESBYTERIAN SENIOR SERVICES","950 UNION AVENUE","BRONX","NY","10459","BRONX","718-328-2811","Y","8 :00","4 :00","8 :00","4 :00","8 :00","4 :00","8 :00","4 :00","8 :00","4 :00","00:00","00:00","00:00","00:00","40.822812","-73.901821","203","17","12901","2005015","2026780001","Longwood","
,  
(40.822812, -73.901821)"
"SENIOR CENTER CONTRACTS","14N01","PSS Highbridge Neighborhood Senior Center","PRESBYTERIAN SENIOR SERVICES","1181 NELSON AVENUE","BRONX","NY","10452","BRONX","718-588-3004","Y","8 :00","4 :00","8 :00","4 :00","8 :00","4 :00","8 :00","4 :00","8 :00","4 :00","00:00","00:00","00:00","00:00","40.837232","-73.925706","204","16","199","2003301","2025160051","Highbridge","
,  
(40.837232, -73.925706)"
"SENIOR CENTER CONTRACTS","14N02","NYCHA SITE HIGHBRIDGE GARDENS","PRESBYTERIAN SENIOR SERVICES","1181 NELSON AVENUE","BRONX","NY","10452","BRONX","718-588-3004","Y","8 :00","4 :00","8 :00","4 :00","8 :00","4 :00","8 :00","4 :00","8 :00","4 :00","00:00","00:00","00:00","00:00","40.837232","-73.925706","204","16","199","2003301","2025160051","Highbridge","
,  
(40.837232, -73.925706)"
"SENIOR CENTER CONTRACTS","14P01","RAIN Gunhill Neighborhood Senior Center","REGIONAL AID FOR INTERIM NEEDS INC","3377 WHITE PLAINS ROAD","BRONX","NY","10467","BRONX","718-881-5589","Y","8 :00","4 :00","8 :00","4 :00","8 :00","4 :00","8 :00","4 :00","8 :00","4 :00","00:00","00:00","00:00","00:00","40.874872","-73.86706","212","12","374","2087299","2046240037","Williamsbridge-Olinville","
,  
(40.874872, -73.86706)"
"SENIOR CENTER CONTRACTS","14Q01","RAIN Eastchester Neighborhood Senior Center","REGIONAL AID FOR INTERIM NEEDS INC","1246 BURKE AVENUE","BRONX","NY","10469","BRONX","718-882-8513","Y","8 :00","4 :00","8 :00","4 :00","8 :00","4 :00","8 :00","4 :00","8 :00","4 :00","00:00","00:00","00:00","00:00","40.871144","-73.851046","211","12","348","2093500","2045810001","Allerton-Pelham Gardens","
,  
(40.871144, -73.851046)"
"SENIOR CENTER CONTRACTS","14Q02","Tolentine Zeiser Community Life Center","REGIONAL AID FOR INTERIM NEEDS INC","2345 UNIVERSITY AVENUE","BRONX","NY","10468","BRONX","718-933-3305","Y","8 :00","4 :00","8 :00","4 :00","8 :00","4 :00","8 :00","4 :00","8 :00","4 :00","00:00","00:00","00:00","00:00","40.861503","-73.906077","207","14","255","2118380","2032180035","Kingsbridge Heights","
,  
(40.861503, -73.906077)"
"SENIOR CENTER CONTRACTS","14Q03","Bailey Senior Center","REGIONAL AID FOR INTERIM NEEDS INC","2660 BAILEY AVENUE","BRONX","NY","10463","BRONX","718-796-2559","Y","8 :00","4 :00","8 :00","4 :00","8 :00","4 :00","8 :00","4 :00","8 :00","4 :00","00:00","00:00","00:00","00:00","40.870747","-73.906859","207","14","269","2000000","2032390025","Kingsbridge Heights","
,  
(40.870747, -73.906859)"
"SENIOR CENTER CONTRACTS","14R01","RAIN Middletown Neighborhood Senior Center","REGIONAL AID FOR INTERIM NEEDS INC","3035 MIDDLETOWN ROAD","BRONX","NY","10461","BRONX","718-822-0486","Y","8 :00","4 :00","8 :00","4 :00","8 :00","4 :00","8 :00","4 :00","8 :00","4 :00","00:00","00:00","00:00","00:00","40.844355","-73.828806","210","13","26602","2046141","2041710024","Pelham Bay-Country Club-City Island","
,  
(40.844355, -73.828806)"
"SENIOR CENTER CONTRACTS","14S01","RAIN Nereid Neighborhood Senior Center","REGIONAL AID FOR INTERIM NEEDS INC","720 NEREID AVENUE","BRONX","NY","10466","BRONX","718-994-0132","Y","8 :00","4 :00","8 :00","4 :00","8 :00","4 :00","8 :00","4 :00","8 :00","4 :00","00:00","00:00","00:00","00:00","40.898158","-73.853568","212","11","434","2069882","2050460033","Woodlawn-Wakefield","
,  
(40.898158, -73.853568)"
"SENIOR CENTER CONTRACTS","14T01","RAIN Parkchester Neighborhood Senior Center","REGIONAL AID FOR INTERIM NEEDS INC","1380 METROPOLITAN AVENUE","BRONX","NY","10462","BRONX","718-597-9220","Y","8 :00","4 :00","8 :00","4 :00","8 :00","4 :00","8 :00","4 :00","8 :00","4 :00","00:00","00:00","00:00","00:00","40.835141","-73.861061","209","18","212","2096674","2039387501","Parkchester","
,  
(40.835141, -73.861061)"
"SENIOR CENTER CONTRACTS","14U01","RAIN Boston Road Neighborhood Senior Center","REGIONAL AID FOR INTERIM NEEDS INC","2424 BOSTON ROAD","BRONX","NY","10467","BRONX","718-547-8827","Y","8 :00","4 :00","8 :00","4 :00","8 :00","4 :00","8 :00","4 :00","8 :00","4 :00","00:00","00:00","00:00","00:00","40.861733","-73.866616","211","13","330","2093401","2044310001","Bronxdale","
,  
(40.861733, -73.866616)"
"SENIOR CENTER CONTRACTS","14V01","RAIN Boston East Neighborhood Senior Center","REGIONAL AID FOR INTERIM NEEDS INC","3450 BOSTON ROAD","BRONX","NY","10469","BRONX","718-654-9200","Y","8 :00","4 :00","8 :00","4 :00","8 :00","4 :00","8 :00","4 :00","8 :00","4 :00","00:00","00:00","00:00","00:00","40.876304","-73.848594","212","12","364","2060739","2047370105","Eastchester-Edenwald-Baychester","
,  
(40.876304, -73.848594)"
"SENIOR CENTER CONTRACTS","14X01","RAIN Boston Secor Neighborhood Senior Center","REGIONAL AID FOR INTERIM NEEDS INC","3540 BIVONA STREET","BRONX","NY","10475","BRONX","718-671-8550","Y","8 :00","4 :00","8 :00","4 :00","8 :00","4 :00","8 :00","4 :00","8 :00","4 :00","00:00","00:00","00:00","00:00","40.883026","-73.833227","212","12","46202","2093879","2052630070","Co-op City","
,  
(40.883026, -73.833227)"
"SENIOR CENTER CONTRACTS","14Y01","Riverdale Neighborhood Senior Center","RIVERDALE SENIOR SERVICES INC","2600 NETHERLAND AVENUE","BRONX","NY","10463","BRONX","718-884-5900","Y","9 :00","5 :00","9 :00","5 :00","9 :00","5 :00","9 :00","5 :00","9 :00","5 :00","00:00","00:00","00:00","00:00","40.878744","-73.915679","208","11","29302","2083247","2057220475","Spuyten Duyvil-Kingsbridge","
,  
(40.878744, -73.915679)"
"SENIOR CENTER CONTRACTS","14Z01","SEBCO Neighborhood Senior Center","SEBCO DEVELOPMENT INC","887 SOUTHERN BLVD","BRONX","NY","10459","BRONX","718-617-3465","Y","8 :00","4 :00","8 :00","4 :00","8 :00","4 :00","8 :00","4 :00","8 :00","4 :00","00:00","00:00","00:00","00:00","40.818913","-73.89355","202","17","89","2005752","2027220040","Hunts Point","
,  
(40.818913, -73.89355)"
"SENIOR CENTER CONTRACTS","15B01","William Hodson Neighborhood Senior Center","WILLIAM HODSON COMMUNITY CENTER INC","1320 WEBSTER AVENUE","BRONX","NY","10456","BRONX","718-538-1515","Y","8 :30","4 :30","8 :30","4 :30","8 :30","4 :30","8 :30","4 :30","8 :30","4 :30","00:00","00:00","00:00","00:00","40.834189","-73.90854","203","16","14701","2092074","2028940001","Claremont-Bathgate","
,  
(40.834189, -73.90854)"
"SENIOR CENTER CONTRACTS","15C01","Riverdale Y Senior Center","YM YWHA OF THE BRONX dba RIVERDALE YM YWHA","5625 ARLINGTON AVENUE","BRONX","NY","10471","BRONX","718-548-8200","Y","8 :30","4 :00","8 :30","4 :00","8 :30","4 :00","8 :30","4 :00","8 :30","4 :00","00:00","00:00","00:00","00:00","40.905009","-73.907133","208","11","323","2086312","2059520374","North Riverdale-Fieldston-Riverdale","
,  
(40.905009, -73.907133)"
"SENIOR CENTER CONTRACTS","15D01","PSS City Island Neighborhood Senior Center","PRESBYTERIAN SENIOR SERVICES","116 CITY ISLAND AVENUE","BRONX","NY","10464","BRONX","718 885-0727","Y","08:00","03:00","08:00","03:00","08:00","03:00","08:00","03:00","08:00","03:00","00:00","00:00","00:00","00:00","40.841097","-73.784187","210","13","516","2082432","2056400010","Pelham Bay-Country Club-City Island","
,  
(40.841097, -73.784187)"
"SENIOR CENTER CONTRACTS","15E01","Neighborhood SHOPP Innovative Senior Center","THE NEIGHBORHOOD SELF-HELP BY OLDER PERSONS PROJECT INC","910 EAST 172ND STREET","BRONX","NY","10460","BRONX","718-542-0222","Y","9 :00","5 :00","9 :00","5 :00","9 :00","5 :00","9 :00","5 :00","9 :00","5 :00","00:00","00:00","00:00","00:00","40.834198","-73.890157","203","17","155","2010507","2029770103","Crotona Park East","
,  
(40.834198, -73.890157)"
"SENIOR CENTER CONTRACTS","15F01","RAIN Mt. Carmel Neighborhood Senior Center","REGIONAL AID FOR INTERIM NEEDS INC","2405 SOUTHERN BLVD","BRONX","NY","10458","BRONX","718-733-8852","Y","9 :00","05:00","9 :00","05:00","9 :00","05:00","9 :00","05:00","9 :00","05:00","00:00","00:00","00:00","00:00","40.853773","-73.881558","206","15","393","2013061","2031150005","Belmont","
,  
(40.853773, -73.881558)"
"SENIOR CENTER CONTRACTS","15F02","RAIN FINDLAY HOUSE SENIOR CENTER","REGIONAL AID FOR INTERIM NEEDS INC","811 MORRIS PARK AVENUE","BRONX","NY","10462","BRONX","718-733-8852","Y",,,,,,,,,,,,,,,,,"211","13",,"2043661","2040540005",,
"SENIOR CENTER CONTRACTS","15G01","BronxWorks Innovative Senior Center","BRONXWORKS INC","80 EAST 181ST STREET","BRONX","NY","10453","BRONX","718-933-5300","Y","08:00","04:00","08:00","04:00","08:00","04:00","08:00","04:00","08:00","04:00","08:00","04:00","00:00","00:00","40.855076","-73.904199","205","14","241","2013953","2031780032","Mount Hope","
,  
(40.855076, -73.904199)"
"SENIOR CENTER CONTRACTS","1Z501","BRONX YMCA GLEBE CENTER","YMCA OF GREATER NEW YORK","2125 GLEBE AVENUE","BRONX","NY","10462","BRONX","718-829-1564","Y","9 :30","3 :30","9 :30","3 :30","9 :30","3 :30","9 :30","3 :30","9 :30","3 :30","00:00","00:00","00:00","00:00","40.8351","-73.850368","210","18","20601","2041406","2039630043","Westchester-Unionport","
,  
(40.8351, -73.850368)"
"SENIOR CENTER CONTRACTS","22U01","Boro Park Neighborhood Senior Center","AGUDATH ISRAEL OF AMERICA COMMUNITY SERVICES INC","5602 11TH AVENUE","BROOKLYN","NY","11219","BROOKLYN","718-854-7430","Y","09:00","04:00","09:00","04:00","09:00","04:00","09:00","04:00","00:00","00:00","00:00","00:00","09:00","04:00","40.63368","-74.000703","312","44","216","3139989","3056880036","Borough Park","
,  
(40.63368, -74.000703)"
"SENIOR CENTER CONTRACTS","23Q01","Brookdale Neighborhood Senior Center","AGUDATH ISRAEL OF AMERICA COMMUNITY SERVICES INC","817 AVENUE H","BROOKLYN","NY","11230","BROOKLYN","718-434-8670","Y","08:00","04:00","08:00","04:00","08:00","04:00","08:00","04:00","08:00","04:00","00:00","00:00","00:00","00:00","40.629268","-73.968686","314","40","460","3170160","3064960039","Flatbush","
,  
(40.629268, -73.968686)"
"SENIOR CENTER CONTRACTS","23U01","AMICO 59th Street Neighborhood Senior Center","AMERICAN ITALIAN COALITION OF ORGANIZATIONS INC\AMICO","5901 13TH AVENUE","BROOKLYN","NY","11219","BROOKLYN","718-972-1558","Y","08:30","04:30","08:30","04:30","08:30","04:30","08:30","04:30","08:30","04:30","00:00","00:00","00:00","00:00","40.629332","-73.998022","312","44","192","3141065","3057120001","Borough Park","
,  
(40.629332, -73.998022)"
"SENIOR CENTER CONTRACTS","24M01","Midwood Neighborhood Senior Center","BERGEN BASIN COMMUNITY DEVELOPMENT CORPORATION DBA MILLENNIU","2164 RALPH AVENUE","BROOKLYN","NY","11234","BROOKLYN","718-253-5557","Y","08:00","04:00","08:00","04:00","08:00","04:00","08:00","04:00","08:00","04:00","00:00","00:00","00:00","00:00","40.625065","-73.917858","318","46","692","3218178","3078390001","Flatlands","
,  
(40.625065, -73.917858)"
"SENIOR CENTER CONTRACTS","24M02","Mill Basin Neighborhood Senior Center","BERGEN BASIN COMMUNITY DEVELOPMENT CORPORATION DBA MILLENNIU","2075 EAST 68TH STREET","BROOKLYN","NY","11234","BROOKLYN","718-444-3850","Y","08:00","04:00","08:00","04:00","08:00","04:00","08:00","04:00","00:00","00:00","00:00","00:00","00:00","00:00","40.618864","-73.910226","318","46","69602","3237201","3084090001","Georgetown-Marine Park-Bergen Beach-Mill Basin","
,  
(40.618864, -73.910226)"
"SENIOR CENTER CONTRACTS","24Q01","Vandalia Neighborhood Senior Center","BERGEN BASIN COMMUNITY DEVELOPMENT CORPORATION DBA MILLENNIU","47 VANDALIA AVENUE","BROOKLYN","NY","11239","BROOKLYN","718-272-3949","Y","08:00","04:00","08:00","04:00","08:00","04:00","08:00","04:00","08:00","04:00","00:00","00:00","00:00","00:00","40.649799","-73.88676","305","42","105804","3348859","3044310100","Starrett City","
,  
(40.649799, -73.88676)"
"SENIOR CENTER CONTRACTS","24R01","Independence Neighborhood Senior Center","BERGEN BASIN COMMUNITY DEVELOPMENT CORPORATION DBA MILLENNIU","114 TAYLOR STREET","BROOKLYN","NY","11211","BROOKLYN","718-388-9242","Y","08:00","05:00","08:00","05:00","08:00","05:00","08:00","05:00","08:00","05:00","00:00","00:00","00:00","00:00","40.705508","-73.963702","301","33","545","3059905","3021760001","Williamsburg","
,  
(40.705508, -73.963702)"
"SENIOR CENTER CONTRACTS","24S01","MARINE PARK ACTIVE ADULTS NEIGHBORHOOD SENIOR CENTER","BERGEN BEACH YOUTH ORGANIZATION INC","3000 FILLMORE AVENUE","BROOKLYN","NY","11234","BROOKLYN","718-336-0275","Y","08:00","04:00","08:00","04:00","08:00","04:00","08:00","04:00","08:00","04:00","00:00","00:00","00:00","00:00","40.608592","-73.937467","318","46","666","3000000","3084960001","park-cemetery-etc-Brooklyn","
,  
(40.608592, -73.937467)"
"SENIOR CENTER CONTRACTS","24U01","Boro Park Y Neighborhood Senior Center","YOUNG MENS AND YOUNG WOMENS HEBREW ASSOCIATION OF BORO PARK","4912 14TH AVENUE","BROOKLYN","NY","11219","BROOKLYN","718-435-3804","Y","09:00","04:30","09:00","04:30","09:00","04:30","09:00","04:30","09:00","04:30","00:00","00:00","00:00","00:00","40.63357","-73.99006","312","44","236","3328617","3056420042","Borough Park","
,  
(40.63357, -73.99006)"
"SENIOR CENTER CONTRACTS","24V01","BCA Neighborhood Senior Center","BROOKLYN CHINESE-AMERICAN ASSOCIATION","545 60TH STREET","BROOKLYN","NY","11220","BROOKLYN","718-567-9311","Y","09:00","05:00","09:00","05:00","09:00","05:00","09:00","05:00","09:00","05:00","00:00","00:00","00:00","00:00","40.638869","-74.015137","307","38","102","3337343","3008640001","Sunset Park East","
,  
(40.638869, -74.015137)"
"SENIOR CENTER CONTRACTS","24X01","CCNS The Bay Neighborhood Senior Center","CATHOLIC CHARITIES NEIGHBORHOOD SERVICES INC","3643 NOSTRAND AVENUE","BROOKLYN","NY","11229","BROOKLYN","718-648-2053","Y","08:30","04:30","08:30","04:30","08:30","04:30","08:30","04:30","08:30","04:30","00:00","00:00","00:00","00:00","40.594966","-73.940825","315","46","572","3344554","3074051001","Sheepshead Bay-Gerritsen Beach-Manhattan Beach","
,  
(40.594966, -73.940825)"
"SENIOR CENTER CONTRACTS","24Y01","CCNS Glenwood Neighborhood Senior Center","CATHOLIC CHARITIES NEIGHBORHOOD SERVICES INC","5701 AVENUE H","BROOKLYN","NY","11234","BROOKLYN","718-241-7711","Y","08:00","04:00","08:00","04:00","08:00","04:00","08:00","04:00","08:00","04:00","00:00","00:00","00:00","00:00","40.633288","-73.921555","318","45","94402","3331006","3079780001","Flatlands","
,  
(40.633288, -73.921555)"
"SENIOR CENTER CONTRACTS","24Z01","CCNS The Lodge Neighborhood Senior Center","CATHOLIC CHARITIES NEIGHBORHOOD SERVICES INC","7711 18TH AVENUE","BROOKLYN","NY","11214","BROOKLYN","718-621-1081","Y","08:30","04:30","08:30","04:30","08:30","04:30","08:30","04:30","08:30","04:30","00:00","00:00","00:00","00:00","40.612087","-73.997288","311","47","274","3161485","3062490006","Bensonhurst West","
,  
(40.612087, -73.997288)"
"SENIOR CENTER CONTRACTS","25801","CCNS Narrows Neighborhood Senior Center","CATHOLIC CHARITIES NEIGHBORHOOD SERVICES INC","933 54th Street","BROOKLYN","NY","11219","BROOKLYN","718-232-3211","Y","08:30","04:30","08:30","04:30","08:30","04:30","08:30","04:30","08:30","04:30","00:00","00:00","00:00","00:00","40.636979","-74.002882","312","38","116","3343065","3056660012","Borough Park","
,  
(40.636979, -74.002882)"
"SENIOR CENTER CONTRACTS","25901","PENN WORTMAN NEIGHBORHOOD SENIOR CENTER","BERGEN BASIN COMMUNITY DEVELOPMENT CORPORATION DBA MILLENNIU","895 PENNSYLVANIA AVENUE","BROOKLYN","NY","11207","BROOKLYN","347-318-3770","Y","07:30","03:00","07:30","03:00","07:30","03:00","07:30","03:00","07:30","03:00","00:00","00:00","00:00","00:00","40.655966","-73.888652","305","42","1104","3324011","3043690001","East New York","
,  
(40.655966, -73.888652)"
"SENIOR CENTER CONTRACTS","25A01","Penn Wortman Neighborhood Senior Center","BERGEN BASIN COMMUNITY DEVELOPMENT CORPORATION DBA MILLENNIU","895 PENNSYLVANIA AVENUE","BROOKLYN","NY","11207","BROOKLYN","347-318-3770","Y","07:30","03:30","07:30","03:30","07:30","03:30","07:30","03:30","07:30","03:30","00:00","00:00","00:00","00:00","40.655966","-73.888652","305","42","1104","3324011","3043690001","East New York","
,  
(40.655966, -73.888652)"
"SENIOR CENTER CONTRACTS","25E01","CCNS Northside Neighborhood Senior Center","CATHOLIC CHARITIES NEIGHBORHOOD SERVICES INC","179 NORTH 6TH STREET","BROOKLYN","NY","11211","BROOKLYN","718-387-2316","Y","08:30","04:30","08:30","04:30","08:30","04:30","08:30","04:30","08:30","04:30","00:00","00:00","00:00","00:00","40.716685","-73.957339","301","33","553","3062100","3023280025","North Side-South Side","
,  
(40.716685, -73.957339)"
"SENIOR CENTER CONTRACTS","25F01","CCNS Pete McGuinness Neighborhood Senior Center","CATHOLIC CHARITIES NEIGHBORHOOD SERVICES INC","715 LEONARD STREET","BROOKLYN","NY","11222","BROOKLYN","718-383-1940","Y","08:30","04:30","08:30","04:30","08:30","04:30","08:30","04:30","08:30","04:30","00:00","00:00","00:00","00:00","40.729007","-73.95276","301","33","575","3333076","3025740053","Greenpoint","
,  
(40.729007, -73.95276)"
"SENIOR CENTER CONTRACTS","25G01","CCNS St. Charles Neighborhood Senior Center","CATHOLIC CHARITIES NEIGHBORHOOD SERVICES INC","55 PIERREPONT STREET","BROOKLYN","NY","11201","BROOKLYN","718-855-0326","Y","8 :30","4 :30","8 :30","4 :30","8 :30","4 :30","8 :30","4 :30","8 :30","4 :30","00:00","00:00","00:00","00:00","40.695783","-73.995117","302","33","501","3001825","3002367502","Brooklyn Heights-Cobble Hill","
,  
(40.695783, -73.995117)"
"SENIOR CENTER CONTRACTS","25H01","CCNS St. Louis Neighborhood Senior Center","CATHOLIC CHARITIES NEIGHBORHOOD SERVICES INC","230 KINGSTON AVENUE","BROOKLYN","NY","11213","BROOKLYN","718-397-7171","Y","8 :30","4 :30","8 :30","4 :30","8 :30","4 :30","8 :30","4 :30","8 :30","4 :30","00:00","00:00","00:00","00:00","40.671821","-73.941982","308","35","339","3032045","3012500025","Crown Heights North","
,  
(40.671821, -73.941982)"
"SENIOR CENTER CONTRACTS","25J01","Williamsburg Satmar Neighborhood Senior Center","CONGREGATION YETEV LEV DSATMAR","125 HEYWARD STREET","BROOKLYN","NY","11206","BROOKLYN","718-625-1608","Y","09:00","05:00","09:00","05:00","09:00","05:00","09:00","05:00","00:00","00:00","00:00","00:00","09:00","05:00","40.701627","-73.956235","301","33","533","3060997","3022250042","Williamsburg","
,  
(40.701627, -73.956235)"
"SENIOR CENTER CONTRACTS","25K01","Shalom Neighborhood Senior Center","CROWN HEIGHTS PRESERVATION CORP","483 ALBANY AVENUE","BROOKLYN","NY","11203","BROOKLYN","718 774-9213","Y","09:00","05:00","09:00","05:00","09:00","05:00","09:00","05:00","09:00","02:00","00:00","00:00","00:00","00:00","40.663388","-73.939975","309","41","331","3038418","3014267501","Crown Heights South","
,  
(40.663388, -73.939975)"
"SENIOR CENTER CONTRACTS","25L01","Cypress Hills Fulton Street Senior Citizens Center","CYPRESS HILLS-FULTON STREET SENIOR CITIZENS CENTER INC","3208 FULTON STREET","BROOKLYN","NY","11208","BROOKLYN","718-235-0064","Y","08:15","04:15","08:15","04:15","08:15","04:15","08:15","04:15","08:15","04:15","00:00","00:00","00:00","00:00","40.682337","-73.876771","305","37","1178","3092631","3041400013","Cypress Hills-City Line","
,  
(40.682337, -73.876771)"
"SENIOR CENTER CONTRACTS","25L02","Cypress Hills Social Club","CYPRESS HILLS-FULTON STREET SENIOR CITIZENS CENTER INC","3208 FULTON STREET","BROOKLYN","NY","11208","BROOKLYN","718-235-0064","Y","08:15","04:15","08:15","04:15","08:15","04:15","08:15","04:15","08:15","04:15","00:00","00:00","00:00","00:00","40.682337","-73.876771","305","37","1178","3092631","3041400013","Cypress Hills-City Line","
,  
(40.682337, -73.876771)"
"SENIOR CENTER CONTRACTS","25M01","Dorchester Neighborhood Senior Citizens Center","DORCHESTER SENIOR CITIZENS CENTER INC","1419 DORCHESTER ROAD","BROOKLYN","NY","11226","BROOKLYN","718-941-6700","Y","08:00","04:00","08:00","04:00","08:00","04:00","08:00","04:00","08:00","04:00","00:00","00:00","00:00","00:00","40.638972","-73.964689","314","40","520","3118688","3051570035","Flatbush","
,  
(40.638972, -73.964689)"
"SENIOR CENTER CONTRACTS","25N01","Bensonhurst Neighborhood Senior Center","EDITH AND CARL MARKS JEWISH COMMUNITY HOUSE OF BENSONHURST","7802 BAY PARKWAY","BROOKLYN","NY","11214","BROOKLYN","718 331-6800","Y","09:00","05:00","09:00","05:00","09:00","05:00","09:00","05:00","09:00","05:00","00:00","00:00","00:00","00:00","40.606369","-73.989235","311","44","270","3162352","3062640030","Bensonhurst West","
,  
(40.606369, -73.989235)"
"SENIOR CENTER CONTRACTS","25P01","Albany Neighborhood Senior Center","FORT GREENE COUNCIL","196 ALBANY AVENUE","BROOKLYN","NY","11213","BROOKLYN","718-773-2600","Y","09:00","05:00","09:00","05:00","09:00","05:00","09:00","05:00","09:00","05:00","00:00","00:00","00:00","00:00","40.67388","-73.938974","308","36","343","3031082","3012300044","Crown Heights North","
,  
(40.67388, -73.938974)"
"SENIOR CENTER CONTRACTS","25Q01","BLENMAN NEIGHBORHOOD SENIOR CENTER","FORT GREENE COUNCIL","720 EAST NEW YORK AVENUE","BROOKLYN","NY","11203","BROOKLYN","718-773-7400","Y","08:00","04:00","08:00","07:00","08:00","04:00","08:00","07:00","08:00","04:00","10:00","03:00","00:00","00:00","40.662289","-73.938916","309","41","87401","3106612","3047950016","Prospect Lefferts Gardens-Wingate","
,  
(40.662289, -73.938916)"
"SENIOR CENTER CONTRACTS","25R01","Grace Agard Harewood Neighborhood Senior Center","FORT GREENE COUNCIL","966 FULTON STREET","BROOKLYN","NY","11238","BROOKLYN","718-638-6910","Y","09:00","05:00","09:00","05:00","09:00","07:00","09:00","07:00","09:00","05:00","00:00","00:00","00:00","00:00","40.682487","-73.962178","302","35","201","3057638","3020140026","Clinton Hill","
,  
(40.682487, -73.962178)"
"SENIOR CENTER CONTRACTS","25R02","Marcus Garvey Social Club","FORT GREENE COUNCIL","1440 E NEW YORK AVENUE","BROOKLYN","NY","11212","BROOKLYN","718-346-7167","Y","09:00","5 :00","09:00","5 :00","09:00","5 :00","09:00","5 :00","09:00","5 :00","00:00","00:00","00:00","00:00","40.670654","-73.914575","316","41","902","3080727","3034960013","Brownsville","
,  
(40.670654, -73.914575)"
"SENIOR CENTER CONTRACTS","25R03","Seth Low Social Club","FORT GREENE COUNCIL","137 BELMONT AVENUE","BROOKLYN","NY","11212","BROOKLYN","718-485-4991","Y","09:30","04:30","09:30","04:30","09:30","04:30","09:30","04:30","09:30","04:30","00:00","00:00","00:00","00:00","40.669205","-73.905172","316","41","908","3327015","3037270001","Brownsville","
,  
(40.669205, -73.905172)"
"SENIOR CENTER CONTRACTS","25S01","Grant Square Neighborhood Senior Center","FORT GREENE COUNCIL","19 GRANT SQUARE","BROOKLYN","NY","11216","BROOKLYN","718-363-3133","Y","09:00","05:00","09:00","05:00","09:00","05:00","09:00","05:00","09:00","05:00","00:00","00:00","00:00","00:00","40.676909","-73.952667","308","36","315","3030302","3012120006","Crown Heights North","
,  
(40.676909, -73.952667)"
"SENIOR CENTER CONTRACTS","25T01","Hazel Brooks Neighborhood Senior Center","FORT GREENE COUNCIL","961 OCEAN AVENUE","BROOKLYN","NY","11226","BROOKLYN","347-435-3287","Y","08:00","04:00","08:00","04:00","08:00","04:00","08:00","04:00","08:00","04:00","00:00","00:00","00:00","00:00","40.638891","-73.958877","314","40","51601","3120264","3052060062","Flatbush","
,  
(40.638891, -73.958877)"
"SENIOR CENTER CONTRACTS","25U01","Maria Lawton Neighborhood Senior Center","FORT GREENE COUNCIL","400 HART STREET","BROOKLYN","NY","11206","BROOKLYN","718-452-7474","Y","08:00","04:00","08:00","04:00","08:00","04:00","08:00","04:00","08:00","04:00","00:00","00:00","00:00","00:00","40.694725","-73.93519","303","36","287","3341752","3015950024","Stuyvesant Heights","
,  
(40.694725, -73.93519)"
"SENIOR CENTER CONTRACTS","25V01","Hugh Gilroy Neighborhood Senior Center","FORT GREENE COUNCIL","447 KINGSBOROUGH 4TH WALK","BROOKLYN","NY","11233","BROOKLYN","718-756-8400","Y","08:00","04:00","08:00","04:00","08:00","04:00","08:00","04:00","08:00","04:00","00:00","00:00","00:00","00:00","40.675242","-73.924931","308","41","307","3035751","3013440175","Crown Heights North","
,  
(40.675242, -73.924931)"
"SENIOR CENTER CONTRACTS","25X01","Remsen Neighborhood Senior Center","FORT GREENE COUNCIL","3304 CLARENDON ROAD","BROOKLYN","NY","11203","BROOKLYN","718-282-1259","Y","08:00","04:00","08:00","04:00","08:00","04:00","08:00","04:00","08:00","04:00","00:00","00:00","00:00","00:00","40.643428","-73.945697","317","45","830","3111409","3049500001","East Flatbush-Farragut","
,  
(40.643428, -73.945697)"
"SENIOR CENTER CONTRACTS","25Y01","Stuyvesant Heights Neighborhood Senior Center","FORT GREENE COUNCIL","562-574 MADISON STREET","BROOKLYN","NY","11221","BROOKLYN","718-230-0824","Y","09:00","05:00","09:00","05:00","09:00","05:00","09:00","05:00","09:00","05:00","00:00","00:00","00:00","00:00","40.686471","-73.935295","303","36","293","3045125","3016450001","Stuyvesant Heights","
,  
(40.686471, -73.935295)"
"SENIOR CENTER CONTRACTS","25Z01","Teresa Moore Neighborhood Senior Center","FORT GREENE COUNCIL","2702 LINDEN BOULEVARD","BROOKLYN","NY","11208","BROOKLYN","347-663-7770","Y","08:00","04:00","08:00","04:00","08:00","04:00","08:00","04:00","08:00","07:00","00:00","00:00","00:00","00:00","40.669208","-73.864514","305","42","1214","3326995","3044880001","East New York","
,  
(40.669208, -73.864514)"
"SENIOR CENTER CONTRACTS","26501","Willoughby Neighborhood Senior Center","FORT GREENE COUNCIL","105 North Portland Avenue","BROOKLYN","NY","11205","BROOKLYN","718-875-1011","Y","08:00","04:00","08:00","04:00","08:00","04:00","08:00","04:00","08:00","04:00","00:00","00:00","00:00","00:00","40.694782","-73.976116","302","35","18501","3335258","3020410001","Fort Greene","
,  
(40.694782, -73.976116)"
"SENIOR CENTER CONTRACTS","26A01","Homecrest Bensonhurst Neighborhood Senior Center","HOMECREST COMMUNITY SERVICES INC","7907 NEW UTRECHT AVENUE","BROOKLYN","NY","11214","BROOKLYN","718-621-7960","Y","08:30","03:00","08:30","03:00","08:30","03:00","08:30","03:00","08:30","03:00","00:00","00:00","00:00","00:00","40.612279","-74.000933","311","43","276","3162717","3062720007","Bensonhurst West","
,  
(40.612279, -74.000933)"
"SENIOR CENTER CONTRACTS","26H01","Manhattan Beach Neighborhood Senior Center","THE JEWISH ASSOCIATION FOR SERVICES FOR THE AGED","60 WEST END AVENUE","BROOKLYN","NY","11235","BROOKLYN","718-646-1118","Y","09:00","05:00","09:00","05:00","09:00","05:00","09:00","05:00","09:00","05:00","00:00","00:00","00:00","00:00","40.580394","-73.953567","315","48","61004","3326901","3087130077","Brighton Beach","
,  
(40.580394, -73.953567)"
"SENIOR CENTER CONTRACTS","26J01","HES Neighborhood Senior Center","THE JEWISH ASSOCIATION FOR SERVICES FOR THE AGED","9502 SEAVIEW AVENUE","BROOKLYN","NY","11236","BROOKLYN","718-251-3700","Y","8 :00","4 :00","8 :00","4 :00","8 :00","4 :00","8 :00","4 :00","8 :00","4 :00","00:00","00:00","00:00","00:00","40.632808","-73.89122","318","46","1028","3235056","3083180008","Canarsie","
,  
(40.632808, -73.89122)"
"SENIOR CENTER CONTRACTS","26K01","Luna Park Neighborhood Senior Center","THE JEWISH ASSOCIATION FOR SERVICES FOR THE AGED","2880 WEST  12TH STREET","BROOKLYN","NY","11224","BROOKLYN","718-996-6666","Y","08:00","04:00","08:00","04:00","08:00","04:00","08:00","04:00","08:00","04:00","00:00","00:00","00:00","00:00","40.577347","-73.979625","313","47","350","3196559","3072660060","West Brighton","
,  
(40.577347, -73.979625)"
"SENIOR CENTER CONTRACTS","26L01","Scheuer House of Coney Island Neighborhood Senior Center","THE JEWISH ASSOCIATION FOR SERVICES FOR THE AGED","3601 SURF AVENUE","BROOKLYN","NY","11224","BROOKLYN","718-373-3954","Y","10:00","6 :00","10:00","6 :00","10:00","6 :00","10:00","6 :00","10:00","6 :00","00:00","00:00","00:00","00:00","40.573144","-74.001587","313","47","342","3321762","3070450031","Seagate-Coney Island","
,  
(40.573144, -74.001587)"
"SENIOR CENTER CONTRACTS","26M01","Senior Alliance Neighborhood Senior Center","THE JEWISH ASSOCIATION FOR SERVICES FOR THE AGED","161 CORBIN PLACE","BROOKLYN","NY","11235","BROOKLYN","718-646-4100","Y","09:00","05:00","09:00","05:00","09:00","05:00","09:00","05:00","09:00","05:00","00:00","00:00","00:00","00:00","40.578026","-73.954127","315","48","61004","3245719","3087190073","Brighton Beach","
,  
(40.578026, -73.954127)"
"SENIOR CENTER CONTRACTS","26N01","Shorefront Neighborhood Senior Center","THE JEWISH ASSOCIATION FOR SERVICES FOR THE AGED","3300 CONEY ISLAND AVENUE","BROOKLYN","NY","11235","BROOKLYN","718-646-1444","Y","8 :00","4 :00","8 :00","4 :00","8 :00","4 :00","8 :00","4 :00","8 :00","4 :00","00:00","00:00","00:00","00:00","40.575607","-73.959463","313","48","36002","3326880","3086930001","Brighton Beach","
,  
(40.575607, -73.959463)"
"SENIOR CENTER CONTRACTS","26P01","JASA Starrett City Neighborhood Senior Center","THE JEWISH ASSOCIATION FOR SERVICES FOR THE AGED","1540 VAN SICLEN AVENUE","BROOKLYN","NY","11239","BROOKLYN","718-642-1010","Y","7 :00","3 :00","7 :00","3 :00","7 :00","3 :00","7 :00","3 :00","7 :00","3 :00","00:00","00:00","00:00","00:00","40.648214","-73.877613","305","42","105801","3343608","3044520200","Starrett City","
,  
(40.648214, -73.877613)"
"SENIOR CENTER CONTRACTS","26Q01","Williamsburg Neighborhood Senior Center","THE JEWISH ASSOCIATION FOR SERVICES FOR THE AGED","202 GRAHAM AVENUE","BROOKLYN","NY","11206","BROOKLYN","718-388-6865","Y","8 :00","4 :00","8 :00","4 :00","8 :00","4 :00","8 :00","4 :00","8 :00","4 :00","00:00","00:00","00:00","00:00","40.708879","-73.943443","301","34","493","3344974","3030260001","Bushwick South","
,  
(40.708879, -73.943443)"
"SENIOR CENTER CONTRACTS","26Q02","Cooper Park Social Club","THE JEWISH ASSOCIATION FOR SERVICES FOR THE AGED","288 FROST STREET","BROOKLYN","NY","11222","BROOKLYN","718-408 6328","Y","08:00","04:00","08:00","04:00","08:00","04:00","08:00","04:00","08:00","04:00","00:00","00:00","00:00","00:00","40.718837","-73.939856","301","34","449","3327829","3028670001","East Williamsburg","
,  
(40.718837, -73.939856)"
"SENIOR CENTER CONTRACTS","26R01","Haber House Neighborhood Senior Center","JEWISH COMMUNITY COUNCIL OF GREATER CONEY ISLAND INC","3024 WEST 24TH STREET","BROOKLYN","NY","11224","BROOKLYN","718-372-5775","Y","08:05","04:00","08:00","04:00","08:00","04:00","08:00","04:00","07:30","02:30","00:00","00:00","00:00","00:00","40.573171","-73.990645","313","47","352","3322050","3070700001","Seagate-Coney Island","
,  
(40.573171, -73.990645)"
"SENIOR CENTER CONTRACTS","26S01","Jay Harama Neighborhood Senior Center","JEWISH COMMUNITY COUNCIL OF GREATER CONEY ISLAND INC","2600 OCEAN AVENUE","BROOKLYN","NY","11229","BROOKLYN","718-891-1110","Y","08:00","04:00","08:00","04:00","08:00","04:00","08:00","04:00","08:00","04:00","00:00","00:00","00:00","00:00","40.598158","-73.951186","315","48","578","3199766","3073520032","Madison","
,  
(40.598158, -73.951186)"
"SENIOR CENTER CONTRACTS","26T01","Marlboro Neighborhood Senior Center","JEWISH COMMUNITY COUNCIL OF GREATER CONEY ISLAND INC","2298 WEST 8TH STREET","BROOKLYN","NY","11223","BROOKLYN","718-373-6161","Y","08:00","04:00","08:00","04:00","08:00","04:00","08:00","04:00","08:00","04:00","00:00","00:00","00:00","00:00","40.592081","-73.978468","313","47","382","3322179","3071400016","Gravesend","
,  
(40.592081, -73.978468)"
"SENIOR CENTER CONTRACTS","26U01","Council Center for Senior Citizens Neighborhood Senior Center","BROOKLYN SECTION NATIONAL COUNCIL OF JEWISH WOMEN INC.","1001 QUENTIN ROAD","BROOKLYN","NY","11223","BROOKLYN","718-627-7680","Y","08:30","04:30","08:30","04:30","08:30","04:30","08:30","07:00","08:30","04:30","00:00","00:00","00:00","00:00","40.607755","-73.962822","315","44","420","3176314","3066420045","Homecrest","
,  
(40.607755, -73.962822)"
"SENIOR CENTER CONTRACTS","26V01","Ocean Parkway Neighborhood Senior Center","JEWISH COMMUNITY COUNCIL OF GREATER CONEY ISLAND INC","1960 EAST 7TH STREET","BROOKLYN","NY","11223","BROOKLYN","718-449-5000","Y","08:00","04:00","08:00","04:00","08:00","04:00","08:00","04:00","08:00","04:00","00:00","00:00","00:00","00:00","40.603084","-73.965083","315","47","418","3178703","3066820045","Homecrest","
,  
(40.603084, -73.965083)"
"SENIOR CENTER CONTRACTS","26Y01","Krakus Luncheon Club Neighborhood Senior Center","POLISH & SLAVIC CENTER INC","176 JAVA STREET","BROOKLYN","NY","11222","BROOKLYN","718-383-3324","Y","08:00","04:00","08:00","04:00","08:00","04:00","08:00","04:00","08:00","04:00","00:00","00:00","00:00","00:00","40.731692","-73.953577","301","33","575","3064615","3025510014","Greenpoint","
,  
(40.731692, -73.953577)"
"SENIOR CENTER CONTRACTS","26Z01","Ridgewood Bushwick Neighborhood Senior Center","RISEBORO COMMUNITY PARTNERSHIP INC","319 STANHOPE STREET","BROOKLYN","NY","11237","BROOKLYN","718 366-3038","Y","08:00","04:00","08:00","04:00","08:00","04:00","08:00","04:00","08:00","04:00","00:00","00:00","00:00","00:00","40.70285","-73.918336","304","37","443","3074237","3032590023","Bushwick North","
,  
(40.70285, -73.918336)"
"SENIOR CENTER CONTRACTS","27001","Borinquen Plaza Nutrition Neighborhood Senior Center","RISEBORO COMMUNITY PARTNERSHIP INC","80 SEIGEL STREET","BROOKLYN","NY","11206","BROOKLYN","718-782-6334","Y","09:00","05:00","09:00","05:00","09:00","05:00","09:00","05:00","09:00","05:00","00:00","00:00","00:00","00:00","40.704366","-73.943775","301","34","491","3071447","3030960030","East Williamsburg","
,  
(40.704366, -73.943775)"
"SENIOR CENTER CONTRACTS","27A01","ABE STARK NEIGHBORHOOD SENIOR CENTER","BERGEN BASIN COMMUNITY DEVELOPMENT CORPORATION DBA MILLENNIU","10315 FARRAGUT ROAD","BROOKLYN","NY","11236","BROOKLYN","718-272-9515","Y","08:00","04:00","08:00","04:00","08:00","04:00","08:00","04:00","08:00","04:00","00:00","00:00","00:00","00:00","40.649668","-73.89929","318","42","1098","3229152","3081520201","East New York","
,  
(40.649668, -73.89929)"
"SENIOR CENTER CONTRACTS","27B01","Roundtable Neighborhood Senior Center","RISEBORO COMMUNITY PARTNERSHIP INC","1175 GATES AVENUE","BROOKLYN","NY","11221","BROOKLYN","718 443-1903","Y","9 :00","7 :00","9 :00","7 :00","9 :00","7 :00","9 :00","7 :00","9 :00","7 :00","00:00","00:00","00:00","00:00","40.691707","-73.919907","304","34","399","3076253","3033310025","Bushwick South","
,  
(40.691707, -73.919907)"
"SENIOR CENTER CONTRACTS","27B02","Saratoga Square Senior Center","RISEBORO COMMUNITY PARTNERSHIP INC","930 HALSEY STREET","BROOKLYN","NY","11233","BROOKLYN","347-425-0676","Y","9 :00","5 :00","9 :00","5 :00","9 :00","5 :00","9 :00","5 :00","9 :00","5 :00","00:00","00:00","00:00","00:00","40.685579","-73.916976","316","41","373","3339097","3014950013","Ocean Hill","
,  
(40.685579, -73.916976)"
"SENIOR CENTER CONTRACTS","27B03","Brevoort Social Club","RISEBORO COMMUNITY PARTNERSHIP INC","280 RALPH AVENUE","BROOKLYN","NY","11233","BROOKLYN","347-318-3383","Y","9 :00","7 :00","9 :00","7 :00","9 :00","7 :00","9 :00","7 :00","9 :00","7 :00","00:00","00:00","00:00","00:00","40.679794","-73.922153","303","41","381","3325173","3016880001","Crown Heights North","
,  
(40.679794, -73.922153)"
"SENIOR CENTER CONTRACTS","27B04","Stuyvesant Gardens Social Club","RISEBORO COMMUNITY PARTNERSHIP INC","150 MALCOLM X BOULEVARD","BROOKLYN","NY","11221","BROOKLYN","347-318-3313","Y","9 :00","7 :00","9 :00","7 :00","9 :00","7 :00","9 :00","7 :00","9 :00","7 :00","00:00","00:00","00:00","00:00","40.688335","-73.930144","303","36","293","3044658","3016360024","Stuyvesant Heights","
,  
(40.688335, -73.930144)"
"SENIOR CENTER CONTRACTS","27B05","Palmetto Gardens Social Club","RISEBORO COMMUNITY PARTNERSHIP INC","85 PALMETTO STREET","BROOKLYN","NY","11221","BROOKLYN","718-676-0876","Y","9 :00","7 :00","9 :00","7 :00","9 :00","7 :00","9 :00","7 :00","9 :00","7 :00","00:00","00:00","00:00","00:00","40.691599","-73.91884","304","34","399","3076429","3033400020","Bushwick South","
,  
(40.691599, -73.91884)"
"SENIOR CENTER CONTRACTS","27C01","Senior Citizens League of Flatbush Neighborhood Senior Center","SENIOR CITIZENS LEAGUE OF FLATBUSH INC","870 OCEAN PARKWAY","BROOKLYN","NY","11230","BROOKLYN","718-438-7771","Y","08:30","04:00","08:30","04:00","08:30","04:00","08:30","04:00","08:30","04:00","00:00","00:00","00:00","00:00","40.627218","-73.971057","312","44","46201","3170453","3065080006","Flatbush","
,  
(40.627218, -73.971057)"
"SENIOR CENTER CONTRACTS","27D01","Senior Citizens League of Midwood Neighborhood Senior Center","SENIOR CITIZENS LEAGUE OF FLATBUSH INC","1625 OCEAN AVENUE","BROOKLYN","NY","11230","BROOKLYN","718-253-0508","Y","09:00","04:30","09:00","04:30","09:00","04:30","09:00","04:30","09:00","04:30","00:00","00:00","00:00","00:00","40.622341","-73.955743","314","45","760","3208316","3076200025","Midwood","
,  
(40.622341, -73.955743)"
"SENIOR CENTER CONTRACTS","27E01","Los Sures David Santiago Neighborhood Senior Center","SOUTHSIDE UNITED HOUSING DEVELOPMENT FUND CORP","201 SOUTH  4TH STREET","BROOKLYN","NY","11211","BROOKLYN","718-384-2314","Y","09:00","04:00","09:00","04:00","09:00","04:00","09:00","04:00","09:00","04:00","00:00","00:00","00:00","00:00","40.710881","-73.96016","301","34","523","3321304","3024320025","North Side-South Side","
,  
(40.710881, -73.96016)"
"SENIOR CENTER CONTRACTS","27E02","SWINGING 60S SENIOR CENTER","SOUTHSIDE UNITED HOUSING DEVELOPMENT FUND CORP","211 Ainslie Street","BROOKLYN","NY","11211","BROOKLYN","718-963-3793","Y","09:00","04:00","09:00","04:00","09:00","04:00","09:00","04:00","09:00","04:00","00:00","00:00","00:00","00:00","40.712972","-73.945453","301","34","495","3069039","3027700001","East Williamsburg","
,  
(40.712972, -73.945453)"
"SENIOR CENTER CONTRACTS","27G01","Red Hook Neighborhood Senior Center","THE SPANISH SPEAKING ELDERLY COUNCIL-RAICES INC.","120 WEST 9TH STREET","BROOKLYN","NY","11231","BROOKLYN","718-269 0519","Y","08:00","04:00","08:00","04:00","08:00","04:00","08:00","04:00","08:00","04:00","00:00","00:00","00:00","00:00","40.675925","-74.001961","306","38","85","3339412","3005380001","Carroll Gardens-Columbia Street-Red Hook","
,  
(40.675925, -74.001961)"
"SENIOR CENTER CONTRACTS","27H01","RAICES Times Plaza Neighborhood Senior Center","THE SPANISH SPEAKING ELDERLY COUNCIL-RAICES INC.","460 ATLANTIC AVENUE","BROOKLYN","NY","11217","BROOKLYN","718-694-0895","Y","08:00","04:00","08:00","04:00","08:00","04:00","08:00","04:00","08:00","04:00","00:00","00:00","00:00","00:00","40.686296","-73.983223","302","33","41","3000937","3001840025","DUMBO-Vinegar Hill-Downtown Brooklyn-Boerum Hill","
,  
(40.686296, -73.983223)"
"SENIOR CENTER CONTRACTS","27H02","Farragut Senior Center","THE SPANISH SPEAKING ELDERLY COUNCIL-RAICES INC.","228 YORK  STREET","BROOKLYN","NY","11201","BROOKLYN","718-422-1069","Y","08:30","04:30","08:30","04:30","08:30","04:30","08:30","04:30","08:30","04:30","00:00","00:00","00:00","00:00","40.701304","-73.981762","302","35","23","3325909","3000710001","DUMBO-Vinegar Hill-Downtown Brooklyn-Boerum Hill","
,  
(40.701304, -73.981762)"
"SENIOR CENTER CONTRACTS","27H03","RAICES Gowanus Senior Center","THE SPANISH SPEAKING ELDERLY COUNCIL-RAICES INC.","420 Baltic Street","BROOKLYN","NY","11201","BROOKLYN","718-797-2472","Y","09:00","05:00","09:00","05:00","09:00","05:00","09:00","05:00","09:00","05:00","00:00","00:00","00:00","00:00","40.683646","-73.988783","306","33","71","3336072","3004040001","DUMBO-Vinegar Hill-Downtown Brooklyn-Boerum Hill","
,  
(40.683646, -73.988783)"
"SENIOR CENTER CONTRACTS","27J01","Wyckoff Gardens Neighborhood Senior Center","THE SPANISH SPEAKING ELDERLY COUNCIL-RAICES INC.","280 WYCKOFF STREET","BROOKLYN","NY","11217","BROOKLYN","718 237-1802","Y","08:00","04:00","08:00","04:00","08:00","04:00","08:00","04:00","08:00","04:00","00:00","00:00","00:00","00:00","40.683365","-73.983941","306","33","127","3336056","3003940001","DUMBO-Vinegar Hill-Downtown Brooklyn-Boerum Hill","
,  
(40.683365, -73.983941)"
"SENIOR CENTER CONTRACTS","27K01","Shore Hill Neighborhood Senior Center","SUNSET PARK HEALTH COUNCIL INC d/b/a FAMILY HEALTH CENTERS A","9000 SHORE ROAD","BROOKLYN","NY","11209","BROOKLYN","718-680-7689","Y","09:00","05:00","09:00","05:00","09:00","05:00","09:00","05:00","09:00","05:00","00:00","00:00","00:00","00:00","40.622093","-74.040244","310","43","5201","3322532","3060780010","Bay Ridge","
,  
(40.622093, -74.040244)"
"SENIOR CENTER CONTRACTS","27L01","Sunset Park Neighborhood Senior Center","SUNSET PARK HEALTH COUNCIL INC d/b/a FAMILY HEALTH CENTERS A","4520 4TH AVENUE","BROOKLYN","NY","11220","BROOKLYN","718-210-1050","Y","08:00","04:00","08:00","04:00","08:00","04:00","08:00","04:00","08:00","04:00","00:00","00:00","00:00","00:00","40.649111","-74.009845","307","38","80","3324373","3007460039","Sunset Park West","
,  
(40.649111, -74.009845)"
"SENIOR CENTER CONTRACTS","27M01","St. Gabriel's Neighborhood Senior Center","ST GABRIELS EPISCOPAL CHURCH","331 HAWTHORNE STREET","BROOKLYN","NY","11225","BROOKLYN","718-773-4049","Y","09:00","05:00","09:00","05:00","09:00","05:00","09:00","05:00","09:00","05:00","00:00","00:00","00:00","00:00","40.657919","-73.949217","309","40","804","3000000","3048140071","Prospect Lefferts Gardens-Wingate","
,  
(40.657919, -73.949217)"
"SENIOR CENTER CONTRACTS","27N01","United Neighborhood Senior Citizens Center","UNITED SENIOR CITIZENS OF SUNSET PARK INC","475 53RD STREET","BROOKLYN","NY","11220","BROOKLYN","718-439-8647","Y","08:00","04:00","08:00","04:00","08:00","04:00","08:00","04:00","08:00","04:00","00:00","00:00","00:00","00:00","40.64386","-74.012767","307","38","76","3013917","3008070046","Sunset Park West","
,  
(40.64386, -74.012767)"
"SENIOR CENTER CONTRACTS","27P01","Rosetta Gaston Neighborhood Senior Center","WAYSIDE OUT-REACH DEVELOPMENT INC","460 DUMONT AVENUE","BROOKLYN","NY","11212","BROOKLYN","718-345-5665","Y","09:00","05:00","09:00","05:00","09:00","05:00","09:00","05:00","09:00","05:00","00:00","00:00","00:00","00:00","40.66514","-73.902222","316","42","910","3328133","3037970001","Brownsville","
,  
(40.66514, -73.902222)"
"SENIOR CENTER CONTRACTS","27P02","GLENMORE SOCIAL CLUB","WAYSIDE OUT-REACH DEVELOPMENT INC","1777 PITKIN AVENUE","BROOKLYN","NY","11212","BROOKLYN","718-345-5665","Y","09:00","05:00","09:00","05:00","09:00","05:00","09:00","05:00","09:00","05:00","00:00","00:00","00:00","00:00","40.670168","-73.907561","316","37","906","3080766","3035070001","Brownsville","
,  
(40.670168, -73.907561)"
"SENIOR CENTER CONTRACTS","27P03","Brownsville Social Club","WAYSIDE OUT-REACH DEVELOPMENT INC","528 MOTHER GASTON BLVD","BROOKLYN","NY","11212","BROOKLYN","718-345-5665","Y","09:00","05:00","09:00","05:00","09:00","05:00","09:00","05:00","09:00","05:00","00:00","00:00","00:00","00:00","40.665956","-73.905923","316","41","912","3325326","3035610001","Brownsville","
,  
(40.665956, -73.905923)"
"SENIOR CENTER CONTRACTS","27Q01","Tilden Neighborhood Senior Center","WAYSIDE OUT-REACH DEVELOPMENT INC","630 MOTHER GASTON BLVD","BROOKLYN","NY","11212","BROOKLYN","718-498-2990","Y","09:00","05:00","09:00","05:00","09:00","05:00","09:00","05:00","09:00","05:00","00:00","00:00","00:00","00:00","40.663471","-73.905278","316","41","912","3326549","3035760001","Brownsville","
,  
(40.663471, -73.905278)"
"SENIOR CENTER CONTRACTS","27Q02","Langston Hughes Social Club","WAYSIDE OUT-REACH DEVELOPMENT INC","301 SUTTER AVENUE","BROOKLYN","NY","11212","BROOKLYN","718-498-2990","Y","09:00","05:00","09:00","05:00","09:00","05:00","09:00","05:00","09:00","05:00","00:00","00:00","00:00","00:00","40.667312","-73.909072","316","41","906","3348344","3035260021","Brownsville","
,  
(40.667312, -73.909072)"
"SENIOR CENTER CONTRACTS","27R01","Tompkins Park Neighborhood Senior Center","WAYSIDE OUT-REACH DEVELOPMENT INC","550 GREENE AVENUE","BROOKLYN","NY","11216","BROOKLYN","718-638-3000","Y","08:00","04:00","08:00","04:00","08:00","04:00","08:00","04:00","08:00","04:00","00:00","00:00","00:00","00:00","40.688666","-73.948775","303","36","251","3050417","3017980040","Bedford","
,  
(40.688666, -73.948775)"
"SENIOR CENTER CONTRACTS","27R02","Armstrong Social Club","WAYSIDE OUT-REACH DEVELOPMENT INC","360 NOSTRAND AVENUE","BROOKLYN","NY","11216","BROOKLYN","718-638-3000","Y","08:00","04:00","08:00","04:00","08:00","04:00","08:00","04:00","08:00","04:00","00:00","00:00","00:00","00:00","40.687303","-73.950965","303","36","243","3350437","3018020051","Bedford","
,  
(40.687303, -73.950965)"
"SENIOR CENTER CONTRACTS","27S01","Vandyke Neighborhood Senior Center","WAYSIDE OUT-REACH DEVELOPMENT INC","430 DUMONT AVENUE","BROOKLYN","NY","11212","BROOKLYN","718-385-1110","Y","08:00","04:30","08:00","04:30","08:00","04:30","08:00","04:30","08:00","04:30","00:00","00:00","00:00","00:00","40.664982","-73.903308","316","41","910","3328126","3037940001","Brownsville","
,  
(40.664982, -73.903308)"
"SENIOR CENTER CONTRACTS","27T01","Young Israel Senior Services Neighborhood Senior Center","YOUNG ISRAEL PROGRAMS INC","1694 OCEAN AVENUE","BROOKLYN","NY","11230","BROOKLYN","718-253-7800","Y","08:30","04:30","08:30","04:30","08:30","04:30","08:30","04:30","08:30","01:30","00:00","00:00","08:30","04:30","40.620447","-73.955405","314","48","538","3180733","3067390044","Midwood","
,  
(40.620447, -73.955405)"
"SENIOR CENTER CONTRACTS","27U01","Bay Ridge Neighborhood Senior Center","BAY RIDGE CENTER INC d/b/a BAY RIDGE CENTER","411 OVINGTON AVENUE","BROOKLYN","NY","11209","BROOKLYN","718-748-0650","Y","08:00","04:00","08:00","04:00","08:00","04:00","08:00","04:00","08:00","04:00","00:00","00:00","00:00","00:00","40.633477","-74.023321","310","43","130","3145772","3058730089","Bay Ridge","
,  
(40.633477, -74.023321)"
"SENIOR CENTER CONTRACTS","27V01","Hope Gardens Multi-Service Neighborhood Senior Center","RISEBORO COMMUNITY PARTNERSHIP INC","195 LINDEN STREET","BROOKLYN","NY","11221","BROOKLYN","718-455-1100","Y","08:00","04:00","08:00","04:00","08:00","04:00","08:00","04:00","08:00","04:00","00:00","00:00","00:00","00:00","40.69537","-73.917486","304","37","417","3076116","3033240019","Bushwick South","
,  
(40.69537, -73.917486)"
"SENIOR CENTER CONTRACTS","27Z01","Prospect Hill Neighborhood Senior Center","ST JOHN ST MATTHEW EMANUEL LUTHERAN CHURCH","283 PROSPECT AVENUE","BROOKLYN","NY","11215","BROOKLYN","718-499-9574","Y","08:00","04:00","08:00","04:00","08:00","04:00","08:00","04:00","08:00","04:00","00:00","00:00","00:00","00:00","40.663323","-73.989165","307","39","141","3337801","3010530073","Park Slope-Gowanus","
,  
(40.663323, -73.989165)"
"SENIOR CENTER CONTRACTS","28A01","CCNS Riverway Innovative Senior Center","CATHOLIC CHARITIES NEIGHBORHOOD SERVICES INC","230 RIVERDALE AVENUE","BROOKLYN","NY","11212","BROOKLYN","718-942-5345","Y","9 :00","5 :00","9 :00","5 :00","9 :00","5 :00","9 :00","5 :00","9 :00","5 :00","00:00","00:00","00:00","00:00","40.661083","-73.908024","316","42","916","3413856","3036030025","Brownsville","
,  
(40.661083, -73.908024)"
"SENIOR CENTER CONTRACTS","28B01","JCCGCI Innovative Senior Center","JEWISH COMMUNITY COUNCIL OF GREATER CONEY ISLAND INC","3001 WEST 37TH STREET","BROOKLYN","NY","11224","BROOKLYN","718-449-5000","Y","8 :30","4 :30","8 :30","4 :30","8 :30","4 :30","8 :30","4 :30","8 :30","4 :00","00:00","00:00","00:00","00:00","40.573177","-74.002509","313","47","340","3189617","3070650001","Seagate-Coney Island","
,  
(40.573177, -74.002509)"
"SENIOR CENTER CONTRACTS","28C01","Sephardic Multi-Service Neighborhood Senior Center","SEPHARDIC MULTI SERVICES SENIOR CITIZEN CENTER INC","485 KINGS HIGHWAY","BROOKLYN","NY","11223","BROOKLYN","718-336-1300","Y","08:00","04:00","08:00","04:00","08:00","04:00","08:00","04:00","08:00","04:00","00:00","00:00","00:00","00:00","40.604258","-73.971654","315","44","422","3177186","3066580048","Homecrest","
,  
(40.604258, -73.971654)"
"SENIOR CENTER CONTRACTS","28C02","House of Jacob Neighborhood Senior Center","SEPHARDIC MULTI SERVICES SENIOR CITIZEN CENTER INC","6222 23RD AVENUE","BROOKLYN","NY","11204","BROOKLYN","718-259-0100","Y","09:00","04:00","09:00","04:00","09:00","04:00","09:00","04:00","09:00","04:00","00:00","00:00","00:00","00:00","40.61405","-73.977597","311","44","436","3172161","3065510045","Bensonhurst East","
,  
(40.61405, -73.977597)"
"SENIOR CENTER CONTRACTS","28D01","AMICO Eileen Dugan Neighborhood Senior Center","AMERICAN ITALIAN COALITION OF ORGANIZATIONS INC\AMICO","378 COURT STREET","BROOKLYN","NY","11231","BROOKLYN","718-596-1956","Y","08:00","04:00","08:00","04:00","08:00","04:00","08:00","04:00","08:00","04:00","00:00","00:00","00:00","00:00","40.681371","-73.996391","306","39","65","3004823","3003510031","Carroll Gardens-Columbia Street-Red Hook","
,  
(40.681371, -73.996391)"
"SENIOR CENTER CONTRACTS","28G01","Ridgewood Bushwick Innovative Senior Center","RISEBORO COMMUNITY PARTNERSHIP INC","9 NOLL STREET","BROOKLYN","NY","11206","BROOKLYN","718-782-3601","Y","8 :00","4 :00","8 :00","4 :00","8 :00","4 :00","8 :00","4 :00","8 :00","4 :00","00:00","00:00","00:00","00:00","40.700163","-73.935675","304","34","391","3387594","3031450100","Bushwick South","
,  
(40.700163, -73.935675)"
"SENIOR CENTER CONTRACTS","28J01","Park Slope Center for Successful Aging","HEIGHTS AND HILLS INC.","463A 7TH STREET","BROOKLYN","NY","11215","BROOKLYN","718-832-3726","Y","09:00","05:00","09:00","05:00","09:00","05:00","09:00","05:00","09:00","05:00","00:00","00:00","00:00","00:00","40.668419","-73.981201","306","39","153","3021748","3009950051","Park Slope-Gowanus","
,  
(40.668419, -73.981201)"
"SENIOR CENTER CONTRACTS","30C01","Moriah Older Adult Luncheon Neighborhood Senior Center","AGUDATH ISRAEL OF AMERICA COMMUNITY SERVICES INC","90 BENNETT AVENUE","NEW YORK","NY","10033","MANHATTAN","212-923-5715","Y","09:00","04:30","09:00","04:30","09:00","04:30","09:00","04:30","09:00","02:30","00:00","00:00","00:00","00:00","40.853017","-73.935383","112","10","271","1064436","1021800172","Washington Heights North","
,  
(40.853017, -73.935383)"
"SENIOR CENTER CONTRACTS","30E01","ARC XVI Fort Washington Neighborhood Senior Center","ARC XVI FORT WASHINGTON INC","4111 BROADWAY","NEW YORK","NY","10033","MANHATTAN","212-781-5700","Y","09:00","05:00","09:00","05:00","09:00","05:00","09:00","05:00","09:00","05:00","00:00","00:00","00:00","00:00","40.845128","-73.938763","112","10","263","1063501","1021420133","Washington Heights South","
,  
(40.845128, -73.938763)"
"SENIOR CENTER CONTRACTS","30P01","ABSW Neighborhood Senior Center","ASSOCIATION OF BLACK SOCIAL WORKERS INC","221 WEST 107TH STREET","NEW YORK","NY","10025","MANHATTAN","212-749-8400","Y","08:30","04:00","08:30","04:00","08:30","04:00","08:30","04:00","08:30","04:00","00:00","00:00","00:00","00:00","40.801503","-73.96612","107","7","195","1075379","1018790017","Morningside Heights","
,  
(40.801503, -73.96612)"
"SENIOR CENTER CONTRACTS","30Q01","BRC Neighborhood Senior Center","BOWERY RESIDENTS COMMITTEE INC","30 DELANCEY STREET","NEW YORK","NY","10002","MANHATTAN","212-533-2020","Y","08:00","03:30","08:00","03:30","08:00","03:30","08:00","03:30","08:00","03:00","00:00","00:00","00:00","00:00","40.719792","-73.992269","103","1","18","1079081","1004200001","Chinatown","
,  
(40.719792, -73.992269)"
"SENIOR CENTER CONTRACTS","30R01","Canaan Neighborhood Senior Center","CANAAN BAPTIST CHURCH OF CHRIST","1428 Fifth Avenue","NEW YORK","NY","10035","MANHATTAN","212-876-2638","Y","09:00","05:00","09:00","05:00","09:00","05:00","09:00","05:00","09:00","05:00","00:00","00:00","00:00","00:00","40.80115","-73.946121","110","9","190","1051430","1016000021","Central Harlem South","
,  
(40.80115, -73.946121)"
"SENIOR CENTER CONTRACTS","31701","Carter Burden Luncheon Club Neighborhood Senior Center","CARTER BURDEN NETWORK INC.","351 EAST 74TH STREET","NEW YORK","NY","10021","MANHATTAN","212-535-5235","Y","09:00","05:00","09:00","05:00","09:00","05:00","09:00","05:00","09:00","05:00","00:00","00:00","00:00","00:00","40.76962","-73.956197","108","5","134","1044930","1014490020","Lenox Hill-Roosevelt Island","
,  
(40.76962, -73.956197)"
"SENIOR CENTER CONTRACTS","31702","Carter Burden Roosevelt Island Neighborhood Senior Center","CARTER BURDEN NETWORK INC.","564 Main Street","NEW YORK","NY","10021","MANHATTAN","212-980-1888","Y","09:00","05:00","09:00","05:00","09:00","05:00","09:00","05:00","09:00","05:00","00:00","00:00","00:00","00:00","40.761781","-73.949762","108","5","23801","1083202","1013730030","Lenox Hill-Roosevelt Island","
,  
(40.761781, -73.949762)"
"SENIOR CENTER CONTRACTS","31T01","Jackie Robinson Neighborhood Senior Center","CHARLES A WALBURG MULTI SERVICE ORGANIZATION INC","1301 AMSTERDAM AVENUE","NEW YORK","NY","10027","MANHATTAN","212-666-4910","Y","08:00","04:00","08:00","04:00","08:00","04:00","08:00","04:00","08:00","04:00","00:00","00:00","00:00","00:00","40.811994","-73.957264","109","7","20901","1084095","1019640001","Morningside Heights","
,  
(40.811994, -73.957264)"
"SENIOR CENTER CONTRACTS","32001","NY Chinatown Neighborhood Senior Center","CHINESE-AMERICAN PLANNING COUNCIL INC","70 MULBERRY STREET","NEW YORK","NY","10013","MANHATTAN","212-233-8930","Y","09:00","05:00","09:00","05:00","09:00","05:00","09:00","05:00","09:00","05:00","00:00","00:00","00:00","00:00","40.716092","-73.999203","103","1","29","1066494","1002000001","Chinatown","
,  
(40.716092, -73.999203)"
"SENIOR CENTER CONTRACTS","32201","CPC Project Open Door Neighborhood Senior Center","CHINESE-AMERICAN PLANNING COUNCIL INC","168 GRAND STREET","NEW YORK","NY","10013","MANHATTAN","212-431-9026","Y","08:30","05:00","08:30","05:00","08:30","05:00","08:30","05:00","08:30","05:00","00:00","00:00","00:00","00:00","40.71969","-73.998286","102","1","41","1075959","1004727501","SoHo-TriBeCa-Civic Center-Little Italy","
,  
(40.71969, -73.998286)"
"SENIOR CENTER CONTRACTS","32901","Cothoa Luncheon Club Neighborhood Senior Center","COTHOA LUNCHEON CLUB INC","2005 AMSTERDAM AVENUE","NEW YORK","NY","10032","MANHATTAN","212-781-6580","Y","08:00","04:00","08:00","04:00","08:00","04:00","08:00","04:00","08:00","04:00","00:00","00:00","00:00","00:00","40.834326","-73.940952","112","10","245","1062531","1021090003","Washington Heights South","
,  
(40.834326, -73.940952)"
"SENIOR CENTER CONTRACTS","32902","Polo Grounds","COTHOA LUNCHEON CLUB INC","2965 EIGHTH AVENUE","NEW YORK","NY","10039","MANHATTAN","2122835475","Y","09:00","05:00","09:00","05:00","09:00","05:00","09:00","05:00","09:00","05:00","00:00","00:00","00:00","00:00","40.830242","-73.9365","110","9","24302","1084520","1021060003","Central Harlem North-Polo Grounds","
,  
(40.830242, -73.9365)"
"SENIOR CENTER CONTRACTS","32904","Bethune Neighborhood Senior Center","COTHOA LUNCHEON CLUB INC","1970 AMSTERDAM AVENUE","NEW YORK","NY","10032","MANHATTAN","646-918-7710","Y","08:00","04:00","08:00","04:00","08:00","04:00","08:00","04:00","08:00","04:00","00:00","00:00","00:00","00:00","40.83328","-73.94174","112","7","241","1076742","1021160033","Washington Heights South","
,  
(40.83328, -73.94174)"
"SENIOR CENTER CONTRACTS","32U01","East Harlem Neighborhood Senior Center","EAST HARLEM COUNCIL FOR HUMAN SERVICES INC","150 EAST 121ST STREET","NEW YORK","NY","10035","MANHATTAN","212-722-2205","Y","09:00","05:00","09:00","05:00","09:00","05:00","09:00","05:00","09:00","05:00","00:00","00:00","00:00","00:00","40.801704","-73.939037","111","8","196","1054378","1017690021","East Harlem North","
,  
(40.801704, -73.939037)"
"SENIOR CENTER CONTRACTS","33401","Stein Neighborhood Senior Center","STEIN SENIOR CENTER INC","204 EAST 23RD STREET","NEW YORK","NY","10010","MANHATTAN","646-395-8083","Y","08:00","04:00","08:00","04:00","08:00","04:00","08:00","04:00","08:00","04:00","00:00","00:00","00:00","00:00","40.738655","-73.982755","106","2","64","1019664","1009030056","Gramercy","
,  
(40.738655, -73.982755)"
"SENIOR CENTER CONTRACTS","33A01","Weinberg Center for Balanced Living","THE EDUCATIONAL ALLIANCE INC","197 EAST BROADWAY","NEW YORK","NY","10002","MANHATTAN","646-395-4270 x","Y","08:00","04:00","08:00","04:00","08:00","04:00","08:00","04:00","08:00","04:00","00:00","00:00","00:00","00:00","40.714219","-73.988219","103","1","6","1003704","1002850029","Lower East Side","
,  
(40.714219, -73.988219)"
"SENIOR CENTER CONTRACTS","33L01","Encore Neighborhood Senior Center","ENCORE COMMUNITY SERVICES","239 WEST 49TH STREET","NEW YORK","NY","10019","MANHATTAN","212-581-2910","Y","08:00","04:00","08:00","04:00","08:00","04:00","08:00","04:00","08:00","04:00","00:00","00:00","00:00","00:00","40.761143","-73.985312","105","3","125","1024789","1010210009","Midtown-Midtown South","
,  
(40.761143, -73.985312)"
"SENIOR CENTER CONTRACTS","33N01","FIND Clinton Neighborhood Senior Center","FIND AID FOR THE AGED","530 WEST 55TH STREET","NEW YORK","NY","10019","MANHATTAN","212-757-2026","Y","08:00","05:00","08:00","05:00","08:00","05:00","08:00","05:00","08:00","05:00","00:00","00:00","00:00","00:00","40.768258","-73.990588","104","6","135","1027059","1010830015","Clinton","
,  
(40.768258, -73.990588)"
"SENIOR CENTER CONTRACTS","33P01","FIND Aid Coffeehouse Neighborhood Senior Center","FIND AID FOR THE AGED","331 WEST 42ND STREET","NEW YORK","NY","10036","MANHATTAN","646-545-4621","Y","08:00","05:00","08:00","05:00","08:00","05:00","08:00","08:00","08:00","05:00","00:00","00:00","00:00","00:00","40.757677","-73.990821","104","3","121","1083731","1010330049","Clinton","
,  
(40.757677, -73.990821)"
"SENIOR CENTER CONTRACTS","33R01","FIND Woodstock Neighborhood Senior Center","FIND AID FOR THE AGED","127 WEST 43RD STREET","NEW YORK","NY","10036","MANHATTAN","212-874-0300","Y","00:00","00:00","08:30","05:00","08:30","05:00","08:30","05:00","08:30","05:00","08:30","05:00","08:30","05:00","40.755873","-73.984454","105","4","119","1022613","1009960014","Midtown-Midtown South","
,  
(40.755873, -73.984454)"
"SENIOR CENTER CONTRACTS","33S01","Food Bank Neighborhood Senior Center","FOOD BANK FOR NEW YORK CITY","252 WEST 116TH STREET","NEW YORK","NY","10026","MANHATTAN","212-566-7855","Y","09:00","05:00","09:00","05:00","09:00","05:00","09:00","05:00","09:00","05:00","00:00","00:00","00:00","00:00","40.80386","-73.954062","110","9","218","1055248","1018310060","Central Harlem South","
,  
(40.80386, -73.954062)"
"SENIOR CENTER CONTRACTS","33T01","Goddard Riverside Neighborhood Senior Center","GODDARD-RIVERSIDE COMMUNITY CENTER","593 COLUMBUS AVENUE","NEW YORK","NY","10024","MANHATTAN","212-873-6600","Y","08:00","04:00","08:00","04:00","08:00","04:00","08:00","04:00","08:00","04:00","00:00","00:00","00:00","00:00","40.788212","-73.970904","107","6","173","1079511","1012020001","Upper West Side","
,  
(40.788212, -73.970904)"
"SENIOR CENTER CONTRACTS","33U01","Center on the Square Neighborhood Senior Center","GREENWICH HOUSE INC.","20 WASHINGTON SQUARE NORTH","NEW YORK","NY","10011","MANHATTAN","212-777-3555","Y","09:00","05:00","09:00","05:00","09:00","05:00","09:00","05:00","09:00","05:00","00:00","00:00","00:00","00:00","40.731781","-73.997705","102","1","63","1008851","1005510008","West Village","
,  
(40.731781, -73.997705)"
"SENIOR CENTER CONTRACTS","33V01","Grand Coalition of Seniors Neighborhood Senior Center","GRAND STREET SETTLEMENT INC","80 PITT STREET","NEW YORK","NY","10002","MANHATTAN","646-201-4251","Y","08:30","04:30","08:30","04:30","08:30","04:30","08:30","04:30","08:30","04:30","00:00","00:00","00:00","00:00","40.718328","-73.98245","103","2","2201","1084357","1003380001","Lower East Side","
,  
(40.718328, -73.98245)"
"SENIOR CENTER CONTRACTS","33X01","Independence Plaza Neighborhood Senior Center","GREENWICH HOUSE INC.","310 GREENWICH STREET","NEW YORK","NY","10013","MANHATTAN","212-267-0499","Y","09:00","05:00","09:00","05:00","09:00","05:00","09:00","05:00","09:00","05:00","00:00","00:00","00:00","00:00","40.717604","-74.010667","101","1","39","1083243","1001420025","SoHo-TriBeCa-Civic Center-Little Italy","
,  
(40.717604, -74.010667)"
"SENIOR CENTER CONTRACTS","33Y01","Judith C. White Neighborhood Senior Center","GREENWICH HOUSE INC.","27 BARROW STREET","NEW YORK","NY","10014","MANHATTAN","212-242-4140","Y","09:00","05:00","09:00","05:00","09:00","05:00","09:00","05:00","09:00","05:00","00:00","00:00","00:00","00:00","40.732503","-74.003078","102","3","67","1010159","1005900056","West Village","
,  
(40.732503, -74.003078)"
"SENIOR CENTER CONTRACTS","33Z01","Our Lady of Pompeii Senior Center","GREENWICH HOUSE INC.","25 CARMINE STREET","NEW YORK","NY","10014","MANHATTAN","212-989-3620","Y","09:00","05:00","09:00","05:00","09:00","05:00","09:00","05:00","09:00","05:00","00:00","00:00","00:00","00:00","40.730178","-74.002955","102","3","67","1009904","1005860020","West Village","
,  
(40.730178, -74.002955)"
"SENIOR CENTER CONTRACTS","34701","City Hall Neighborhood Senior Center","HAMILTON MADISON HOUSE INC","100 GOLD STREET","NEW YORK","NY","10038","MANHATTAN","212-788-5580","Y","08:00","05:00","08:00","05:00","08:00","05:00","08:00","05:00","08:00","05:00","00:00","00:00","00:00","00:00","40.710353","-74.004007","101","1","1501","1001289","1000940025","Battery Park City-Lower Manhattan","
,  
(40.710353, -74.004007)"
"SENIOR CENTER CONTRACTS","34801","Good Companions Neighborhood Senior Center","HENRY STREET SETTLEMENT","334 MADISON STREET","NEW YORK","NY","10002","MANHATTAN","212-349-2770 X","Y","09:00","06:00","09:00","06:00","09:00","06:00","09:00","06:00","09:00","06:00","00:00","00:00","09:00","03:30","40.713266","-73.983237","103","2","202","1077526","1002600001","Lower East Side","
,  
(40.713266, -73.983237)"
"SENIOR CENTER CONTRACTS","34A01","Hudson Guild Neighborhood Center","HUDSON GUILD","441 West 26th Street","NEW YORK","NY","10011","MANHATTAN","212-760-9805","Y","08:30","05:30","08:30","05:30","08:30","05:30","08:30","05:30","08:30","05:30","00:00","00:00","00:00","00:00","40.749196","-74.001815","104","3","97","1012827","1007240010","Hudson Yards-Chelsea-Flatiron-Union Square","
,  
(40.749196, -74.001815)"
"SENIOR CENTER CONTRACTS","34H01","Carver Neighborhood Senior Center","INSTITUTE FOR THE PUERTO RICAN HISPANIC ELDERLY INC","55 EAST 102ND STREET","NEW YORK","NY","10029","MANHATTAN","212-289-2708","Y","09:00","05:00","09:00","05:00","09:00","05:00","09:00","05:00","09:00","05:00","00:00","00:00","00:00","00:00","40.79084","-73.950853","111","8","168","1082659","1016080023","East Harlem South","
,  
(40.79084, -73.950853)"
"SENIOR CENTER CONTRACTS","34M01","Lenox Hill Neighborhood Senior Center","LENOX HILL NEIGHBORHOOD HOUSE INC","619 LEXINGTON AVENUE","NEW YORK","NY","10022","MANHATTAN","212-308-1959","Y","09:00","05:00","09:00","05:00","09:00","05:00","09:00","05:00","09:00","05:00","00:00","00:00","00:00","00:00","40.758698","-73.970744","106","4","100","1036474","1013087501","Turtle Bay-East Midtown","
,  
(40.758698, -73.970744)"
"SENIOR CENTER CONTRACTS","34N01","West 65th Street Center","GODDARD-RIVERSIDE COMMUNITY CENTER","250 WEST 65TH STREET","NEW YORK","NY","10023","MANHATTAN","212-874-0860","Y","09:00","05:00","09:00","05:00","09:00","05:00","09:00","05:00","09:00","05:00","00:00","00:00","00:00","00:00","40.77501","-73.98689","107","6","151","1030340","1011560020","Lincoln Square","
,  
(40.77501, -73.98689)"
"SENIOR CENTER CONTRACTS","34P01","Dyckman Neighborhood Senior Center","NEW YORK FOUNDATION FOR SENIOR CITIZENS INC","3754 10TH AVENUE","NEW YORK","NY","10034","MANHATTAN","212-569-7790","Y","08:30","04:30","08:30","04:30","08:30","04:30","08:30","04:30","08:30","04:30","00:00","00:00","00:00","00:00","40.860844","-73.921587","112","10","299","1080032","1022160001","Marble Hill-Inwood","
,  
(40.860844, -73.921587)"
"SENIOR CENTER CONTRACTS","34Q01","LaGuardia Neighborhood Senior Center","NEW YORK FOUNDATION FOR SENIOR CITIZENS INC","280 CHERRY STREET","NEW YORK","NY","10002","MANHATTAN","212-732-3656","Y","08:30","04:30","08:30","04:30","08:30","04:30","08:30","04:30","08:30","04:30","00:00","00:00","00:00","00:00","40.711376","-73.988461","103","1","6","1003211","1002560014","Lower East Side","
,  
(40.711376, -73.988461)"
"SENIOR CENTER CONTRACTS","34R01","Mott Street Neighborhood Senior Center","NEW YORK FOUNDATION FOR SENIOR CITIZENS INC","180 MOTT STREET","NEW YORK","NY","10012","MANHATTAN","212-966-5460","Y","09:00","04:00","09:00","04:00","09:00","04:00","09:00","04:00","09:00","04:00","00:00","00:00","00:00","00:00","40.7205","-73.995895","102","1","41","1007156","1004790001","SoHo-TriBeCa-Civic Center-Little Italy","
,  
(40.7205, -73.995895)"
"SENIOR CENTER CONTRACTS","34S01","John Paul II Friendship Neighborhood Senior Center","POLISH & SLAVIC CENTER INC","103 EAST 7TH STREET","NEW YORK","NY","10009","MANHATTAN","212-673-7704","Y","8 :00","4 :00","8 :00","4 :00","8 :00","4 :00","8 :00","4 :00","8 :00","4 :00","00:00","00:00","00:00","00:00","40.726683","-73.985016","103","2","32","1005851","1004350049","East Village","
,  
(40.726683, -73.985016)"
"SENIOR CENTER CONTRACTS","34T01","PSS Harlem Neighborhood Senior Center","PRESBYTERIAN SENIOR SERVICES","18 MT. MORRIS PARK WEST","NEW YORK","NY","10027","MANHATTAN","212-222-3132","Y","08:00","04:00","08:00","04:00","08:00","04:00","08:00","04:00","08:00","04:00","00:00","00:00","00:00","00:00","40.804822","-73.945457","111","9","198","1083967","1017190001","East Harlem North","
,  
(40.804822, -73.945457)"
"SENIOR CENTER CONTRACTS","34T03","PSS Manhattanville Senior Center","PRESBYTERIAN SENIOR SERVICES","530 West 133rd Street","NEW YORK","NY","10027","MANHATTAN","212-862-5562","Y","08:00","04:00","08:00","04:00","08:00","04:00","08:00","04:00","08:00","04:00","00:00","00:00","00:00","00:00","40.818127","-73.954478","109","7","219","1084130","1019840001","Manhattanville","
,  
(40.818127, -73.954478)"
"SENIOR CENTER CONTRACTS","34U01","RAIN Inwood Neighborhood Senior Center","REGIONAL AID FOR INTERIM NEEDS INC","84 VERMILYEA AVENUE","NEW YORK","NY","10034","MANHATTAN","212-567-3200","Y","08:00","04:00","08:00","04:00","08:00","04:00","08:00","04:00","08:00","04:00","00:00","00:00","00:00","00:00","40.865838","-73.923128","112","10","291","1064905","1022340029","Marble Hill-Inwood","
,  
(40.865838, -73.923128)"
"SENIOR CENTER CONTRACTS","34V01","Riverstone Senior Life Neighborhood Senior Center","RIVERSTONE SENIOR LIFE SERVICES INC.","99 FORT WASHINGTON AVENUE","NEW YORK","NY","10032","MANHATTAN","212-927-5600","Y","08:00","04:30","08:00","04:30","08:00","04:30","08:00","04:30","08:00","04:30","00:00","00:00","00:00","00:00","40.83851","-73.943738","112","7","247","1063346","1021360235","Washington Heights South","
,  
(40.83851, -73.943738)"
"SENIOR CENTER CONTRACTS","34Y01","Stanley Isaacs Neighborhood Senior Center","STANLEY M ISAACS NEIGHBORHOOD CENTER INC","415 EAST 93RD STREET","NEW YORK","NY","10128","MANHATTAN","212-360-7620","Y","09:00","05:00","09:00","05:00","09:00","05:00","09:00","05:00","09:00","05:00","00:00","00:00","00:00","00:00","40.780904","-73.945112","108","5","152","1082367","1015730001","Yorkville","
,  
(40.780904, -73.945112)"
"SENIOR CENTER CONTRACTS","34Z01","Corsi House Neighborhood Senior Center","UNION SETTLEMENT ASSOCIATION","307 EAST 116TH STREET","NEW YORK","NY","10029","MANHATTAN","212-828-6756","Y","08:30","04:30","08:30","04:30","08:30","04:30","08:30","04:30","08:30","04:30","00:00","00:00","00:00","00:00","40.796935","-73.93759","111","8","188","1079357","1016880045","East Harlem North","
,  
(40.796935, -73.93759)"
"SENIOR CENTER CONTRACTS","35101","Gaylord White Neighborhood Senior Center","UNION SETTLEMENT ASSOCIATION","2029 SECOND AVENUE","NEW YORK","NY","10029","MANHATTAN","212-828-6055","Y","09:00","05:00","10:00","06:00","09:00","05:00","10:00","06:00","09:00","05:00","00:00","00:00","00:00","00:00","40.789473","-73.943288","111","8","170","1080669","1016540011","East Harlem South","
,  
(40.789473, -73.943288)"
"SENIOR CENTER CONTRACTS","35201","Jefferson Houses Neighborhood Senior Center","UNION SETTLEMENT ASSOCIATION","2205 FIRST AVENUE","NEW YORK","NY","10029","MANHATTAN","212-828-6104","Y","08:00","04:30","08:00","04:30","08:00","04:30","08:00","04:30","08:00","04:03","00:00","00:00","00:00","00:00","40.794319","-73.93665","111","8","180","1081091","1016840001","East Harlem North","
,  
(40.794319, -73.93665)"
"SENIOR CENTER CONTRACTS","35A01","Hamilton Grange Neighborhood Senior Center","CONVENT AVENUE BAPTIST CHURCH","420 WEST 145TH STREET","NEW YORK","NY","10031","MANHATTAN","212-862-4181","Y","09:00","05:00","09:00","05:00","09:00","05:00","09:00","05:00","09:00","05:00","00:00","00:00","00:00","00:00","40.824436","-73.945733","109","7","227","1060948","1020500042","Hamilton Heights","
,  
(40.824436, -73.945733)"
"SENIOR CENTER CONTRACTS","35B01","ARC Central Harlem Senior Center","ARC XVI FORT WASHINGTON INC","120 WEST 140TH STREET","NEW YORK","NY","10030","MANHATTAN","212-781-5700","Y","09:00","05:00","09:00","05:00","09:00","05:00","09:00","05:00","09:00","05:00","00:00","00:00","00:00","00:00","40.817579","-73.939272","110","9","230","1060054","1020080013","Central Harlem North-Polo Grounds","
,  
(40.817579, -73.939272)"
"SENIOR CENTER CONTRACTS","35B02","AP Randolph Senior Center","ARC XVI FORT WASHINGTON INC","108 West 146th Street","NEW YORK","NY","10030","MANHATTAN","917-639-3054","Y","09:00","05:00","09:00","05:00","09:00","05:00","09:00","05:00","09:00","05:00","00:00","00:00","00:00","00:00","40.821341","-73.936317","110","9","232","1060189","1020140036","Central Harlem North-Polo Grounds","
,  
(40.821341, -73.936317)"
"SENIOR CENTER CONTRACTS","35C01","Central Harlem Kennedy Senior Center","CENTRAL HARLEM SENIOR CITIZENS CENTERS INC.","2322 Third Avenue","NEW YORK","NY","10037","MANHATTAN","212-926-4465","Y","09:00","05:00","09:00","05:00","09:00","05:00","09:00","05:00","09:00","05:00","00:00","00:00","00:00","00:00","40.812702","-73.939645","110","9","212","1083984","1017300016","Central Harlem North-Polo Grounds","
,  
(40.812702, -73.939645)"
"SENIOR CENTER CONTRACTS","35C02","Saint Nicholas Social Club","CENTRAL HARLEM SENIOR CITIZENS CENTERS INC.","210 WEST 131ST STREET","NEW YORK","NY","10001","MANHATTAN","646-678-4451","Y","09:00","05:00","09:00","05:00","09:00","05:00","09:00","05:00","09:00","05:00","00:00","00:00","00:00","00:00","40.812977","-73.94614","110","9","224","1081515","1019330050","Central Harlem North-Polo Grounds","
,  
(40.812977, -73.94614)"
"SENIOR CENTER CONTRACTS","35C03","Beatrice Lewis","CENTRAL HARLEM SENIOR CITIZENS CENTERS INC.","34 WEST 134TH STREET","NEW YORK","NY","10037","MANHATTAN","212-289-9155","Y","09:00","05:00","09:00","05:00","09:00","05:00","09:00","05:00","09:00","05:00","00:00","00:00","00:00","00:00","40.804468","-73.935267","111","9","242","1054497","1017750033","East Harlem North","
,  
(40.804468, -73.935267)"
"SENIOR CENTER CONTRACTS","35C04","Lincoln Social Club","CENTRAL HARLEM SENIOR CITIZENS CENTERS INC.","34 WEST 134TH STREET","NEW YORK","NY","10037","MANHATTAN","212-926-4871","Y","09:00","05:00","09:00","05:00","09:00","05:00","09:00","05:00","09:00","05:00","00:00","00:00","00:00","00:00","40.812702","-73.939645","110","9","212","1083984","1017300016","Central Harlem North-Polo Grounds","
,  
(40.812702, -73.939645)"
"SENIOR CENTER CONTRACTS","35D01","Carter Burden Innovative Senior Center","CARTER BURDEN NETWORK INC.","312 EAST 109 STREET","NEW YORK","NY","10029","MANHATTAN","2124239665","Y","9 :00","5 :00","9 :00","5 :00","9 :00","5 :00","9 :00","5 :00","9 :00","5 :00","8 :00","4.:00","8 :00","4 :00","40.792306","-73.94048","111","8","170","1074278","1016800045","East Harlem South","
,  
(40.792306, -73.94048)"
"SENIOR CENTER CONTRACTS","35D01","Carter Burden Innovative Senior Center","CARTER BURDEN NETWORK INC.","312 EAST 109 STREET","NEW YORK","NY","10029","MANHATTAN","2124239665","Y","9 :00","5 :00","9 :00","5 :00","9 :00","5 :00","9 :00","5 :00","9 :00","5 :00","8 :00","4.:00","8 :00","4 :00",,,"111","8",,"1074278","1016800045",,
"SENIOR CENTER CONTRACTS","35D02","Lehman Social Club","CARTER BURDEN NETWORK INC.","1641 MADISON AVENUE","NEW YORK","NY","10029","MANHATTAN","646-370-5642","Y","9 :00","5 :00","9 :00","5 :00","9 :00","5 :00","9 :00","5 :00","9 :00","5 :00","00:00","00:00","00:00","00:00","40.79584","-73.947866","111","8","17401","1078867","1016150023","East Harlem South","
,  
(40.79584, -73.947866)"
"SENIOR CENTER CONTRACTS","35D02","Lehman Social Club","CARTER BURDEN NETWORK INC.","1641 MADISON AVENUE","NEW YORK","NY","10029","MANHATTAN","646-370-5642","Y","9 :00","5 :00","9 :00","5 :00","9 :00","5 :00","9 :00","5 :00","9 :00","5 :00","00:00","00:00","00:00","00:00","40.79584","-73.947866","111","8","17401","1078867","1016150023","East Harlem South","
,  
(40.79584, -73.947866)"
"SENIOR CENTER CONTRACTS","35E01","Sirovich Innovative Senior Center","THE EDUCATIONAL ALLIANCE INC","331 EAST 12TH STREET","NEW YORK","NY","10003","MANHATTAN","646-395-4523","Y","8 :00","7 :00","8 :00","7 :00","8 :00","9 :00","8 :00","9 :00","8 :00","6 :00","9 :00","3 :00","00:00","00:00","40.730657","-73.985041","103","2","40","1006502","1004540052","East Village","
,  
(40.730657, -73.985041)"
"SENIOR CENTER CONTRACTS","35F01","FIND Aid Innovative Senior Center","FIND AID FOR THE AGED","141 WEST 73RD STREET","NEW YORK","NY","10023","MANHATTAN","212-787-7710","Y","9 :00","7 :00","9 :00","7 :00","9 :00","7 :00","9 :00","7 :00","9 :00","7 :00","00:00","00:00","9 :00","5 :00","40.778624","-73.979527","107","6","157","1030011","1011450012","Lincoln Square","
,  
(40.778624, -73.979527)"
"SENIOR CENTER CONTRACTS","35K01","Lenox Hill Innovative Senior Center","LENOX HILL NEIGHBORHOOD HOUSE INC","343 EAST 70TH STREET","NEW YORK","NY","10021","MANHATTAN","212-744-5905","Y","8 :00","8 :00","8 :00","8 :00","8 :00","8 :00","8 :00","8 :00","8 :00","8 :00","00:00","00:00","00:00","00:00","40.766686","-73.95739","108","5","126","1044841","1014450023","Lenox Hill-Roosevelt Island","
,  
(40.766686, -73.95739)"
"SENIOR CENTER CONTRACTS","35M01","YM YWHA INNOVATIVE SENIOR CENTER","YM YWHA OF WASHINGTON HEIGHTS AND INWOOD INC","54 NAGLE AVENUE","NEW YORK","NY","10040","MANHATTAN","212-569-6200","Y","09:00","05:30","09:00","05:00","09:00","05:30","09:00","05:00","09:00","04:00","00:00","00:00","09:00","04:30","40.859993","-73.929129","112","10","285","1064146","1021720064","Washington Heights North","
,  
(40.859993, -73.929129)"
"SENIOR CENTER CONTRACTS","36201","UJC Adult Luncheon Club Neighborhood Senior Center","UNITED JEWISH COUNCIL OF THE EAST SIDE INC","15 BIALYSTOKER PLACE","NEW YORK","NY","10002","MANHATTAN","212-673-9328","Y","08:00","04:00","08:00","04:00","08:00","04:00","08:00","04:00","08:00","03:00","00:00","00:00","00:00","00:00","40.71566","-73.982977","103","1","12","1088884","1003360005","Lower East Side","
,  
(40.71566, -73.982977)"
"SENIOR CENTER CONTRACTS","36202","UJC Lillian Wald Houses Senior Center","UNITED JEWISH COUNCIL OF THE EAST SIDE INC","12 AVENUE D","NEW YORK","NY","10009","MANHATTAN","212-260-2731","Y","08:00","04:00","08:00","04:00","08:00","04:00","08:00","04:00","08:00","04:00","00:00","00:00","00:00","00:00","40.720462","-73.978369","103","2","20","1078045","1003560001","Lower East Side","
,  
(40.720462, -73.978369)"
"SENIOR CENTER CONTRACTS","36301","University Settlement Neighborhood Senior Center","UNIVERSITY SETTLEMENT SOCIETY OF NEW YORK","189 ALLEN STREET","NEW YORK","NY","10002","MANHATTAN","212-473-8217","Y","08:00","04:00","08:00","04:00","08:00","04:00","08:00","04:00","08:00","04:00","09:00","01:00","00:00","00:00","40.722133","-73.988964","103","1","3601","1005537","1004170001","Chinatown","
,  
(40.722133, -73.988964)"
"SENIOR CENTER CONTRACTS","36302","Meltzer Tower Social Club","UNIVERSITY SETTLEMENT SOCIETY OF NEW YORK","94 EAST 1ST STREET","NEW YORK","NY","10009","MANHATTAN","212-253-5624","Y","08:00","04:00","08:00","04:00","08:00","04:00","08:00","04:00","08:00","04:00","00:00","00:00","00:00","00:00","40.722827","-73.987402","103","2","3002","1005743","1004290021","East Village","
,  
(40.722827, -73.987402)"
"SENIOR CENTER CONTRACTS","36A01","Washington Heights Neighborhood Senior Center","WASHINGTON HEIGHTS COMMUNITY SERVICE INC","650 WEST 187TH STREET","NEW YORK","NY","10033","MANHATTAN","212-781-8331","Y","08:00","04:00","08:00","04:00","08:00","04:00","08:00","04:00","08:00","04:00","00:00","00:00","00:00","00:00","40.853679","-73.932494","112","10","271","1075520","1021670056","Washington Heights North","
,  
(40.853679, -73.932494)"
"SENIOR CENTER CONTRACTS","36B01","The Center at the Red Oak Neighborhood Senior Center","WEST SIDE FEDERATION FOR SENIOR AND SUPPORTIVE HOUSING INC","135 WEST 106TH STREET","NEW YORK","NY","10025","MANHATTAN","646-214-2560","Y","08:30","04:00","08:30","04:00","08:30","04:00","08:30","04:00","08:30","04:00","00:00","00:00","00:00","00:00","40.799919","-73.964459","107","7","193","1055957","1018610010","Morningside Heights","
,  
(40.799919, -73.964459)"
"SENIOR CENTER CONTRACTS","36B02","Douglass Social Club","WEST SIDE FEDERATION FOR SENIOR AND SUPPORTIVE HOUSING INC","868 Amsterdam Avenue","NEW YORK","NY","10025","MANHATTAN","646-214-2560","Y","08:00","04:00","08:00","04:00","08:00","04:00","08:00","04:00","08:00","04:00","00:00","00:00","00:00","00:00","40.798169","-73.967371","107","7","191","1079429","1018740029","Upper West Side","
,  
(40.798169, -73.967371)"
"SENIOR CENTER CONTRACTS","40101","Rockaway Park Neighborhood Senior Center","THE JEWISH ASSOCIATION FOR SERVICES FOR THE AGED","106-20 SHORE FRONT PARKWAY","FAR ROCKAWAY","NY","11694","QUEENS","718-634-3044","Y","8 :00","4 :00","8 :00","4 :00","8 :00","4 :00","8 :00","4 :00","8 :00","4 :00","00:00","00:00","00:00","00:00","40.580723","-73.826713","414","32","938","4303818","4161770035","Breezy Point-Belle Harbor-Rockaway Park-Broad Channel","
,  
(40.580723, -73.826713)"
"SENIOR CENTER CONTRACTS","42501","CCNS Woodhaven Neighborhood Senior Center","CATHOLIC CHARITIES NEIGHBORHOOD SERVICES INC","89-02 91ST STREET","JAMAICA","NY","11421","QUEENS","718-847-9200","Y","8 :00","4 :00","8 :00","4 :00","8 :00","4 :00","8 :00","4 :00","8 :00","4 :00","00:00","00:00","00:00","00:00","40.690455","-73.852946","409","32","18","4185709","4089720004","Woodhaven","
,  
(40.690455, -73.852946)"
"SENIOR CENTER CONTRACTS","42A01","Brooks Memorial Neighborhood Senior Center","BROOKS SENIOR CENTER","143-22 109TH AVENUE","JAMAICA","NY","11435","QUEENS","718-291-3935","Y","8 :00","4 :00","8 :00","4 :00","8 :00","4 :00","8 :00","4 :00","8 :00","4 :00","00:00","00:00","00:00","00:00","40.688564","-73.803554","412","28","196","4257866","4119330001","South Jamaica","
,  
(40.688564, -73.803554)"
"SENIOR CENTER CONTRACTS","42J01","Roy Reuther Neighborhood Senior Center","THE JEWISH ASSOCIATION FOR SERVICES FOR THE AGED","711C SEAGIRT AVENUE","FAR ROCKAWAY","NY","11691","QUEENS","718-471-3110","Y","8 :00","4 :00","8 :00","4 :00","8 :00","4 :00","8 :00","4 :00","8 :00","4 :00","00:00","00:00","00:00","00:00","40.595996","-73.742187","414","31","101002","4298968","4156100001","Far Rockaway-Bayswater","
,  
(40.595996, -73.742187)"
"SENIOR CENTER CONTRACTS","42Q01","JSPOA Theodora Jackson Neighborhood Senior Center","JAMAICA SERVICE PROGRAM FOR OLDER ADULTS INC","92-47 165TH STREET","JAMAICA","NY","11433","QUEENS","718-657-6618","Y","8 :30","4 :30","8 :30","4 :30","8 :30","4 :30","8 :30","4 :30","8 :30","4 :30","00:00","00:00","00:00","00:00","40.704457","-73.794108","412","27","444","4216225","4101550029","Jamaica","
,  
(40.704457, -73.794108)"
"SENIOR CENTER CONTRACTS","42Q02","International Towers Social Club","JAMAICA SERVICE PROGRAM FOR OLDER ADULTS INC","90-20 170TH STREET","JAMAICA","NY","11432","QUEENS","718-657-5075","Y","8 :30","8 :30","8 :30","8 :30","8 :30","8 :30","8 :30","8 :30","8 :30","8 :30","00:00","00:00","00:00","00:00","40.708578","-73.790579","412","27","460","4209721","4098020041","Jamaica","
,  
(40.708578, -73.790579)"
"SENIOR CENTER CONTRACTS","42W01","CCNS Ozone Park Neighborhood Senior Center","CATHOLIC CHARITIES NEIGHBORHOOD SERVICES INC","103-02 101 AVENUE","JAMAICA","NY","11416","QUEENS","718-847-2100","Y","8 :00","4 :00","8 :00","4 :00","8 :00","4 :00","8 :00","4 :00","8 :00","4 :00","00:00","00:00","00:00","00:00","40.686027","-73.839777","409","28","112","4198392","4094210001","Richmond Hill","
,  
(40.686027, -73.839777)"
"SENIOR CENTER CONTRACTS","42X01","CCNS Dellamonica-Steinway Neighborhood Senior Center","CATHOLIC CHARITIES NEIGHBORHOOD SERVICES INC","23-56 BROADWAY","LONG ISLAND CITY","NY","11106","QUEENS","718-626-1500","Y","8 :00","4 :00","8 :00","4 :00","8 :00","4 :00","8 :00","4 :00","8 :00","4 :00","00:00","00:00","00:00","00:00","40.764285","-73.930011","401","22","53","4006560","4005660050","Astoria","
,  
(40.764285, -73.930011)"
"SENIOR CENTER CONTRACTS","42Y01","Elmcor's Golden Phoenix Club One","ELMCOR YOUTH & ADULT ACTIVITIES INC","98-19 ASTORIA BOULEVARD","FLUSHING","NY","11369","QUEENS","718-457-9757","Y","9 :00","5 :00","9 :00","5 :00","9 :00","5 :00","9 :00","5 :00","9 :00","5 :00","00:00","00:00","00:00","00:00","40.762296","-73.871089","403","21","367","4032768","4013720045","East Elmhurst","
,  
(40.762296, -73.871089)"
"SENIOR CENTER CONTRACTS","43501","JSPOA Friendship Neighborhood Senior Center","JAMAICA SERVICE PROGRAM FOR OLDER ADULTS INC","92-33 170TH STREET","JAMAICA","NY","11433","QUEENS","718-657-6540","Y","8 :00","4 :00","8 :00","4 :00","8 :00","4 :00","8 :00","4 :00","8 :00","4 :00","00:00","00:00","00:00","00:00","40.706193","-73.789136","412","27","444","4457492","4102120033","Jamaica","
,  
(40.706193, -73.789136)"
"SENIOR CENTER CONTRACTS","43502","ASTORIA SOCIAL CLUB","JAMAICA SERVICE PROGRAM FOR OLDER ADULTS INC","92-33 170TH STREET","JAMAICA","NY","11433","QUEENS","718-657-6540","Y","8 :00","4 :00","8 :00","4 :00","8 :00","4 :00","8 :00","4 :00","8 :00","4 :00","00:00","00:00","00:00","00:00","40.706193","-73.789136","412","27","444","4457492","4102120033","Jamaica","
,  
(40.706193, -73.789136)"
"SENIOR CENTER CONTRACTS","43A01","Bayside Neighborhood Senior Center","CATHOLIC CHARITIES NEIGHBORHOOD SERVICES INC","221-15 HORACE HARDING EXPRESSWAY","FLUSHING","NY","11364","QUEENS","718-225-1144","Y","8 :00","4 :00","8 :00","4 :00","8 :00","4 :00","8 :00","4 :00","8 :00","4 :00","9 :00","04:00","00:00","00:00","40.749688","-73.756559","411","23","138501","4161696","4075270065","Oakland Gardens","
,  
(40.749688, -73.756559)"
"SENIOR CENTER CONTRACTS","43B01","CCNS Catherine Sheridan Neighborhood Senior Center","CATHOLIC CHARITIES NEIGHBORHOOD SERVICES INC","35-24 83RD STREET","FLUSHING","NY","11372","QUEENS","718-458-4600","Y","8 :30","4 :30","8 :30","4 :30","8 :30","4 :30","8 :30","4 :30","8 :30","4 :30","00:00","00:00","00:00","00:00","40.751548","-73.883703","403","25","283","4437136","4014560001","Jackson Heights","
,  
(40.751548, -73.883703)"
"SENIOR CENTER CONTRACTS","43C01","CCNS Seaside Neighborhood Senior Center","CATHOLIC CHARITIES NEIGHBORHOOD SERVICES INC","320 BEACH 94TH STREET","FAR ROCKAWAY","NY","11693","QUEENS","347-926-4119","Y","8 :00","4 :00","8 :00","4 :00","8 :00","4 :00","8 :00","4 :00","8 :00","4 :00","00:00","00:00","00:00","00:00","40.5877","-73.817309","414","32","94202","4303571","4161260004","Hammels-Arverne-Edgemere","
,  
(40.5877, -73.817309)"
"SENIOR CENTER CONTRACTS","43F01","Florence E. Smith Neighborhood Senior Center","CORONA CONGREGATIONAL CHURCH","102-19 34TH AVENUE","FLUSHING","NY","11368","QUEENS","718 899-0553","Y","8 :00","4 :00","8 :00","4 :00","8 :00","4 :00","8 :00","4 :00","8 :00","4 :00","00:00","00:00","00:00","00:00","40.755742","-73.865988","403","21","379","4042602","4017170033","North Corona","
,  
(40.755742, -73.865988)"
"SENIOR CENTER CONTRACTS","43K01","Elmcor's Golden Phoenix Club Two","ELMCOR YOUTH & ADULT ACTIVITIES INC","95-18 Northern Boulevard","FLUSHING","NY","11372","QUEENS","718-271-1222","Y","9 :00","5 :00","9 :00","5 :00","9 :00","5 :00","9 :00","5 :00","9 :00","5 :00","00:00","00:00","00:00","00:00","40.756866","-73.872861","403","21","375","4042344","4017100010","North Corona","
,  
(40.756866, -73.872861)"
"SENIOR CENTER CONTRACTS","43L01","HANAC Ravenswood Neighborhood Senior Center","HANAC INC.","34-35 12TH STREET","LONG ISLAND CITY","NY","11106","QUEENS","718-786-1550","Y","8 :00","4 :00","8 :00","4 :00","8 :00","4 :00","8 :00","4 :00","8 :00","4 :00","00:00","00:00","00:00","00:00","40.76323","-73.937607","401","26","43","4430802","4005230002","Queensbridge-Ravenswood-Long Island City","
,  
(40.76323, -73.937607)"
"SENIOR CENTER CONTRACTS","43M01","Rochdale Neighborhood Senior Center","ROCHDALE VILLAGE SOCIAL SERVICES INC","169-65 137TH AVENUE","JAMAICA","NY","11434","QUEENS","718-525-2800","Y","9 :00","5 :00","9 :00","5 :00","9 :00","5 :00","9 :00","5 :00","9 :00","5 :00","00:00","00:00","00:00","00:00","40.672622","-73.770641","412","28","33402","4436348","4124950002","Springfield Gardens North","
,  
(40.672622, -73.770641)"
"SENIOR CENTER CONTRACTS","43N01","Elmhurst Jackson Heights Neighborhood Senior Center","INSTITUTE FOR THE PUERTO RICAN HISPANIC ELDERLY INC","75-01 BROADWAY","FLUSHING","NY","11373","QUEENS","718-478-7171","Y","8 :00","4 :00","8 :00","4 :00","8 :00","4 :00","8 :00","4 :00","8 :00","4 :00","00:00","00:00","00:00","00:00","40.746172","-73.890208","404","25","267","4036730","4014860013","Elmhurst","
,  
(40.746172, -73.890208)"
"SENIOR CENTER CONTRACTS","43P01","Selfhelp Austin Street Neighborhood Senior Center","SELFHELP COMMUNITY SERVICES INC","106-06 QUEENS BOULEVARD","FLUSHING","NY","11375","QUEENS","718-520-8197","Y","8 :30","4 :00","8 :30","4 :00","8 :30","4 :00","8 :30","4 :00","8 :30","4 :00","00:00","00:00","00:00","00:00","40.72212","-73.847335","406","29","711","4077479","4032370040","Forest Hills","
,  
(40.72212, -73.847335)"
"SENIOR CENTER CONTRACTS","43R01","KCS Flushing Neighborhood Senior Center","KOREAN COMMUNITY SERVICES OF METROPOLITAN NEW YORK INC","42-15 166TH STREET","FLUSHING","NY","11358","QUEENS","718-886-8203","Y","8 :00","5 :00","8 :00","5 :00","8 :00","5 :00","8 :00","5 :00","8 :00","5 :00","00:00","00:00","00:00","00:00","40.75939","-73.800335","407","19","1185","4439629","4053970006","East Flushing","
,  
(40.75939, -73.800335)"
"SENIOR CENTER CONTRACTS","43T01","Selfhelp Clearview Neighborhood Senior Center","SELFHELP COMMUNITY SERVICES INC","208-11 26TH AVENUE","FLUSHING","NY","11360","QUEENS","718-224-7888","Y","8 :30","4 :00","8 :30","4 :00","8 :30","4 :00","8 :30","4 :00","8 :30","4 :00","00:00","00:00","00:00","00:00","40.776381","-73.783798","407","19","99704","4130866","4058630250","Ft. Totten-Bay Terrace-Clearview","
,  
(40.776381, -73.783798)"
"SENIOR CENTER CONTRACTS","43V01","Newtown Italian Neighborhood Senior Center","ITALIAN SENIOR CITIZENS INC.","83-20 QUEENS BOULEVARD","FLUSHING","NY","11373","QUEENS","718-335-7272","Y","9 :00","4 :00","9 :00","4 :00","9 :00","4 :00","9 :00","4 :00","9 :00","4 :00","00:00","00:00","00:00","00:00","40.737205","-73.879686","404","25","475","4057291","4024760017","Elmhurst","
,  
(40.737205, -73.879686)"
"SENIOR CENTER CONTRACTS","43W01","Queensbridge/Riis Neighborhood Senior Center","JACOB A RIIS NEIGHBORHOOD SETTLEMENT","10-25 41ST AVENUE","LONG ISLAND CITY","NY","11101","QUEENS","718-784-7447","Y","8 :00","3 :00","8 :00","3 :00","8 :00","3 :00","8 :00","3 :00","8 :00","3 :00","00:00","00:00","00:00","00:00","40.755488","-73.945328","401","26","25","4433386","4004700100","Queensbridge-Ravenswood-Long Island City","
,  
(40.755488, -73.945328)"
"SENIOR CENTER CONTRACTS","43X01","Rego Park Neighborhood Senior Center","QUEENS COMMUNITY HOUSE INC.","93-29 QUEENS BOULEVARD","FLUSHING","NY","11374","QUEENS","718-896-8511","Y","8 :00","4 :00","8 :00","4 :00","8 :00","4 :00","8 :00","4 :00","8 :00","4 :00","00:00","00:00","00:00","00:00","40.73147","-73.866044","406","29","71702","4050408","4020770050","Rego Park","
,  
(40.73147, -73.866044)"
"SENIOR CENTER CONTRACTS","43Y01","Sunnyside Community Neighborhood Senior Center","SUNNYSIDE COMMUNITY SERVICES INC","43-31 39TH STREET","LONG ISLAND CITY","NY","11104","QUEENS","929-335-7915","Y","8 :30","4 :30","8 :30","4 :30","8 :30","4 :30","8 :30","4 :30","8 :30","4 :30","00:00","00:00","00:00","00:00","40.74519","-73.925909","402","26","179","4436677","4001910005","Hunters Point-Sunnyside-West Maspeth","
,  
(40.74519, -73.925909)"
"SENIOR CENTER CONTRACTS","43Z01","Queens Valley Neighborhood Senior Center","YOUNG ISRAEL PROGRAMS INC","141-55 77TH AVENUE","FLUSHING","NY","11367","QUEENS","718-263-6995","Y","9 :00","4 :00","9 :00","4 :00","9 :00","4 :00","9 :00","4 :00","9 :00","4 :00","00:00","00:00","00:00","00:00","40.721128","-73.819822","408","24","77903","4143547","4066280084","Kew Gardens Hills","
,  
(40.721128, -73.819822)"
"SENIOR CENTER CONTRACTS","44A01","Selfhelp Latimer Neighborhood Senior Center","SELFHELP COMMUNITY SERVICES INC","34-30 137TH STREET","FLUSHING","NY","11354","QUEENS","718-961-3660","Y","8 :30","4 :00","8 :30","4 :00","8 :30","4 :00","8 :30","4 :00","8 :30","4 :00","00:00","00:00","00:00","00:00","40.766044","-73.829935","407","20","88901","4443410","4049510008","Flushing","
,  
(40.766044, -73.829935)"
"SENIOR CENTER CONTRACTS","44B01","Brookville Neighborhood Senior Center","SERVICES NOW FOR ADULT PERSONS INC","133-33 BROOKVILLE BOULEVARD","JAMAICA","NY","11422","QUEENS","718-525-8899","Y","8 :30","4 :30","8 :30","4 :30","8 :30","4 :30","8 :30","4 :30","8 :30","4 :30","00:00","00:00","00:00","00:00","40.674396","-73.732749","413","31","61602","4279577","4129800001","Rosedale","
,  
(40.674396, -73.732749)"
"SENIOR CENTER CONTRACTS","44E01","Rockaway Boulevard Neighborhood Senior Center","JAMAICA SERVICE PROGRAM FOR OLDER ADULTS INC","123-10 143RD STREET","JAMAICA","NY","11433","QUEENS","718-657-6752","Y","8 :00","4 :00","8 :00","4 :00","8 :00","4 :00","8 :00","4 :00","8 :00","4 :00","00:00","00:00","00:00","00:00","40.674522","-73.795725","412","28","182","4261337","4120390044","Baisley Park","
,  
(40.674522, -73.795725)"
"SENIOR CENTER CONTRACTS","44F01","Holliswood Neighborhood Senior Center","THE JEWISH ASSOCIATION FOR SERVICES FOR THE AGED","86-25 FRANCIS LEWIS BOULEVARD","JAMAICA","NY","11427","QUEENS","718-454-6157","Y","8 :00","4 :00","8 :00","4 :00","8 :00","4 :00","8 :00","4 :00","8 :00","4 :00","00:00","00:00","00:00","00:00","40.724948","-73.765107","408","23","492","4226088","4106000019","Jamaica Estates-Holliswood","
,  
(40.724948, -73.765107)"
"SENIOR CENTER CONTRACTS","44F02","JASA Club 76 Senior Center","THE JEWISH ASSOCIATION FOR SERVICES FOR THE AGED","120 W. 76 Street","NEW YORK","NY","10023","MANHATTAN","212-712-0170","Y","8 :00","4 :00","8 :00","4 :00","8 :00","4 :00","8 :00","4 :00","8 :00","4 :00","00:00","00:00","00:00","00:00","40.780342","-73.977739","107","6","161","1030146","1011470042","Upper West Side","
,  
(40.780342, -73.977739)"
"SENIOR CENTER CONTRACTS","44G01","Peter Cardella Neighborhood Senior Center","PETER CARDELLA SENIOR CITIZEN CENTER INC","68-52 FRESH POND ROAD","FLUSHING","NY","11385","QUEENS","718-497-2908","Y","8 :00","4 :00","8 :00","4 :00","8 :00","4 :00","8 :00","4 :00","8 :00","4 :00","00:00","00:00","00:00","00:00","40.703894","-73.895681","405","30","583","4085200","4035350024","Ridgewood","
,  
(40.703894, -73.895681)"
"SENIOR CENTER CONTRACTS","44H01","JASA Brookdale Neighborhood Senior Center","THE JEWISH ASSOCIATION FOR SERVICES FOR THE AGED","131 BEACH 19TH STREET","FAR ROCKAWAY","NY","11691","QUEENS","718-471-3200","Y","8 :30","4 :30","8 :30","4 :30","8 :30","4 :30","8 :30","4 :30","8 :30","4 :30","00:00","00:00","00:00","00:00","40.593761","-73.753207","414","31","99802","4301622","4158100055","Far Rockaway-Bayswater","
,  
(40.593761, -73.753207)"
"SENIOR CENTER CONTRACTS","44K01","KCS Corona Neighborhood Senior Center","KOREAN COMMUNITY SERVICES OF METROPOLITAN NEW YORK INC","37-06 111TH STREET","FLUSHING","NY","11368","QUEENS","718-651-9220","Y","9 :00","5 :00","9 :00","5 :00","9 :00","5 :00","9 :00","5 :00","9 :00","5 :00","00:00","00:00","00:00","00:00","40.753941","-73.857264","403","21","401","4430244","4017780027","North Corona","
,  
(40.753941, -73.857264)"
"SENIOR CENTER CONTRACTS","44M01","Forest Hills Neighborhood Senior Center","QUEENS COMMUNITY HOUSE INC.","108-25 62ND DRIVE","FLUSHING","NY","11375","QUEENS","718-699-1010","Y","08:00","04:00","08:00","04:00","08:00","04:00","08:00","04:00","08:00","04:00","00:00","00:00","00:00","00:00","40.73591","-73.850212","406","29","745","4432108","4021590002","Forest Hills","
,  
(40.73591, -73.850212)"
"SENIOR CENTER CONTRACTS","44N01","Alpha Phi Alpha Neighborhood Senior Center","ALPHA PHI ALPHA SENIOR CITIZENS CENTER INC","220-01 LINDEN BOULEVARD","JAMAICA","NY","11411","QUEENS","718-528-8238","Y","9 :00","5 :00","9 :00","5 :00","9 :00","5 :00","9 :00","5 :00","9 :00","5 :00","00:00","00:00","00:00","00:00","40.695105","-73.740004","413","27","596","4244354","4113210006","Cambria Heights","
,  
(40.695105, -73.740004)"
"SENIOR CENTER CONTRACTS","44P01","CCNS Hillcrest Neighborhood Senior Center","CATHOLIC CHARITIES NEIGHBORHOOD SERVICES INC","9134 182nd  Pl","JAMAICA","NY","11423","QUEENS","718-297-7171","Y","8 :00","4 :00","8 :00","4 :00","8 :00","4 :00","8 :00","4 :00","8 :00","4 :00","00:00","00:00","00:00","00:00","40.709634","-73.778431","412","27","470","4211802","4099000001","Jamaica","
,  
(40.709634, -73.778431)"
"SENIOR CENTER CONTRACTS","44Q01","Allen Community Neighborhood Senior Center","ALLEN AME CHURCH ALLEN COMMUNITY SENIOR CENTER","166-01 LINDEN BOULEVARD","JAMAICA","NY","11433","QUEENS","718-658-0980","Y","8 :00","4 :00","8 :00","4 :00","8 :00","4 :00","8 :00","4 :00","8 :00","4 :00","00:00","00:00","00:00","00:00","40.690054","-73.783147","412","27","266","4435290","4123220001","South Jamaica","
,  
(40.690054, -73.783147)"
"SENIOR CENTER CONTRACTS","44R01","RAICES Corona Neighborhood Senior Center","THE SPANISH SPEAKING ELDERLY COUNCIL-RAICES INC.","107-24 CORONA AVENUE","FLUSHING","NY","11368","QUEENS","718-458-7259","Y","8 :00","4 :00","8 :00","4 :00","8 :00","4 :00","8 :00","4 :00","8 :00","4 :00","00:00","00:00","00:00","00:00","40.743551","-73.855705","404","21","439","4431694","4019420053","Corona","
,  
(40.743551, -73.855705)"
"SENIOR CENTER CONTRACTS","44R02","RAICES Corona Neighborhood Senior Center NYCHA SITE 9","THE SPANISH SPEAKING ELDERLY COUNCIL-RAICES INC.","107-24 CORONA AVENUE","FLUSHING","NY","11368","QUEENS","718-458-7259","Y","8 :00","4 :00","8 :00","4 :00","8 :00","4 :00","8 :00","4 :00","8 :00","4 :00","00:00","00:00","00:00","00:00","40.743551","-73.855705","404","21","439","4431694","4019420053","Corona","
,  
(40.743551, -73.855705)"
"SENIOR CENTER CONTRACTS","44S01","Robert Couche Neighborhood Senior Center","MERRILL PARK CIVIC ASSOCIATION OF SPRINGFIELD GARDENS INC","137-57 FARMERS BOULEVARD","JAMAICA","NY","11434","QUEENS","718-978-8352","Y","8 :00","4 :00","8 :00","4 :00","8 :00","4 :00","8 :00","4 :00","8 :00","4 :00","00:00","00:00","00:00","00:00","40.67251","-73.764138","412","31","330","4280089","4130200013","Springfield Gardens North","
,  
(40.67251, -73.764138)"
"SENIOR CENTER CONTRACTS","44T01","RAICES Astoria Neighborhood Senior Center","THE SPANISH SPEAKING ELDERLY COUNCIL-RAICES INC.","21-21 30TH DRIVE","LONG ISLAND CITY","NY","11102","QUEENS","718-726-9642","Y","8 :00","4 :00","8 :00","4 :00","8 :00","4 :00","8 :00","4 :00","8 :00","4 :00","00:00","00:00","00:00","00:00","40.768135","-73.928916","401","22","79","4006319","4005500007","Old Astoria","
,  
(40.768135, -73.928916)"
"SENIOR CENTER CONTRACTS","44T02","ASTORIA NYCHA SITE 9","THE SPANISH SPEAKING ELDERLY COUNCIL-RAICES INC.","21-21 30TH DRIVE","LONG ISLAND CITY","NY","11102","QUEENS","718-726-9642","Y","8 :00","4 :00","8 :00","4 :00","8 :00","4 :00","8 :00","4 :00","8 :00","4 :00","00:00","00:00","00:00","00:00","40.768135","-73.928916","401","22","79","4006319","4005500007","Old Astoria","
,  
(40.768135, -73.928916)"
"SENIOR CENTER CONTRACTS","44V01","Wavecrest and Bayswater Neighborhood Senior Center","YOUNG ISRAEL PROGRAMS INC","2716 HEALY AVENUE","FAR ROCKAWAY","NY","11691","QUEENS","718-327-0297","Y","9 :00","4 :00","9 :00","4 :00","9 :00","4 :00","9 :00","4 :00","9 :00","1 :00","00:00","00:00","00:00","00:00","40.604149","-73.765737","414","31","100802","4300494","4157220041","Far Rockaway-Bayswater","
,  
(40.604149, -73.765737)"
"SENIOR CENTER CONTRACTS","44W01","Pomonok Neighborhood Senior Center","QUEENS COMMUNITY HOUSE INC.","67-09 KISSENA BOULEVARD","FLUSHING","NY","11367","QUEENS","718-591-3377","Y","8 :00","4 :00","8 :00","4 :00","8 :00","4 :00","8 :00","4 :00","8 :00","4 :00","00:00","00:00","00:00","00:00","40.735033","-73.814726","408","24","122702","4455430","4067920030","Pomonok-Flushing Heights-Hillcrest","
,  
(40.735033, -73.814726)"
"SENIOR CENTER CONTRACTS","44X01","Samuel Field Neighborhood Senior Center","SAMUEL FIELD YM & YWHA INC","58-20 LITTLE NECK PARKWAY","FLUSHING","NY","11362","QUEENS","718-225-6750","Y","9 :00","4 :00","9 :00","4 :00","9 :00","4 :00","9 :00","4 :00","9 :00","4 :00","00:00","00:00","00:00","00:00","40.761577","-73.723122","411","23","152902","4173029","4083520051","Douglas Manor-Douglaston-Little Neck","
,  
(40.761577, -73.723122)"
"SENIOR CENTER CONTRACTS","45A01","Ridgewood Older Adult Neighborhood Senior Center","RIDGEWOOD OLDER ADULT CENTER AND SERVICES INC","59-14 70th AVENUE","FLUSHING","NY","11385","QUEENS","718-456-2000","Y","9 :00","4 :30","9 :00","4 :30","9 :00","4 :30","9 :00","4 :30","9 :00","4 :30","00:00","00:00","00:00","00:00","40.701191","-73.900024","405","30","583","4084122","4035080009","Ridgewood","
,  
(40.701191, -73.900024)"
"SENIOR CENTER CONTRACTS","45C01","Woodside Neighborhood Senior Center","SAMARITAN DAYTOP VILLAGE INC","50-37 NEWTOWN ROAD","FLUSHING","NY","11377","QUEENS","718-932-6916","Y","7 :45","3 :45","7 :45","3 :45","7 :45","3 :45","7 :45","3 :45","7 :45","3 :45","00:00","00:00","00:00","00:00","40.753724","-73.911047","401","26","163","4430993","4007360002","Astoria","
,  
(40.753724, -73.911047)"
"SENIOR CENTER CONTRACTS","45F01","Middle Village Neighborhood Senior Center","RABBI ISRAEL MEYER HACOHEN RABBINICAL SEMINARY OF AMERICA IN","69-10 75TH STREET","FLUSHING","NY","11379","QUEENS","718-894-3441","Y","8 :00","4 :00","8 :00","4 :00","8 :00","4 :00","8 :00","4 :00","8 :00","4 :00","00:00","00:00","00:00","00:00","40.709285","-73.876664","405","30","619","4091868","4037860020","Middle Village","
,  
(40.709285, -73.876664)"
"SENIOR CENTER CONTRACTS","45G01","CCNS Howard Beach Neighborhood Senior Center","CATHOLIC CHARITIES NEIGHBORHOOD SERVICES INC","155-55 CROSSBAY BOULEVARD","JAMAICA","NY","11414","QUEENS","718-738-8100","Y","8 :00","4 :00","8 :00","4 :00","8 :00","4 :00","8 :00","4 :00","8 :00","4 :00","00:00","00:00","00:00","00:00","40.664372","-73.841152","410","32","884","4442269","4115880075","Lindenwood-Howard Beach","
,  
(40.664372, -73.841152)"
"SENIOR CENTER CONTRACTS","45N01","HANAC Harmony JVL Innovative Senior Center","HANAC INC.","27-40 HOYT AVENUE SOUTH","LONG ISLAND CITY","NY","11102","QUEENS","718-396-5002","Y","8 :30","4 :30","8 :30","4 :30","8 :30","4 :30","8 :30","4 :30","8 :30","4 :30","9 :30","1 :00","00:00","00:00","40.771857","-73.9198","401","22","69","4537921","4008390001","Old Astoria","
,  
(40.771857, -73.9198)"
"SENIOR CENTER CONTRACTS","45T01","Selfhelp Innovative Senior Center","SELFHELP COMMUNITY SERVICES INC","45-25 KISSENA BOULEVARD","FLUSHING","NY","11355","QUEENS","718-886-5777","Y","08:30","04:00","08:30","04:00","08:30","04:00","08:30","04:00","08:30","04:00","08:30","04:00","00:00","00:00","40.751765","-73.820331","407","20","1205","4117390","4052000052","East Flushing","
,  
(40.751765, -73.820331)"
"SENIOR CENTER CONTRACTS","45V01","SNAP Innovative Senior Center","SERVICES NOW FOR ADULT PERSONS INC","80-45 WINCHESTER  BOULEVARD","JAMAICA","NY","11427","QUEENS","718-454-2100 x","Y","8 :30","4 :30","8 :30","4 :30","8 :30","4 :30","8 :30","4 :30","8 :30","4 :30","10:00","1 :00","00:00","00:00","40.737685","-73.734021","413","23","1567","4537294","4078800400","Bellerose","
,  
(40.737685, -73.734021)"
"SENIOR CENTER CONTRACTS","46F01","HANAC Angelo Petromelis Neighborhood Senior Center","HANAC INC.","13-28 123RD STREET","FLUSHING","NY","11356","QUEENS","718-961-0344","Y","8 :00","3 :30","8 :00","3 :30","8 :00","3 :30","8 :00","3 :30","8 :00","3 :30","00:00","00:00","00:00","00:00","40.786179","-73.844772","407","19","947","4096960","4039970035","College Point","
,  
(40.786179, -73.844772)"
"SENIOR CENTER CONTRACTS","47201","Corona Neighborhood Senior Center","INSTITUTE FOR THE PUERTO RICAN HISPANIC ELDERLY INC","108-74 ROOSEVELT AVENUE","FLUSHING","NY","11368","QUEENS","718-639-2000","Y",,,,,,,,,,,,,,,"40.75086","-73.858248","404","21","401","4049199","4019960039","North Corona","
,  
(40.75086, -73.858248)"
"SENIOR CENTER CONTRACTS","48801","CPC Nan Shan Neighborhood Senior Center","CHINESE-AMERICAN PLANNING COUNCIL INC","133-14 41st Avenue","FLUSHING","NY","11355","QUEENS","718-358-3030","Y","8 :00","4 :00","8 :00","4 :00","8 :00","4 :00","8 :00","4 :00","8 :00","4 :00","00:00","00:00","00:00","00:00","40.757805","-73.830321","407","20","849","4114228","4050410005","Flushing","
,  
(40.757805, -73.830321)"
"SENIOR CENTER CONTRACTS","49301","Selfhelp Maspeth Neighborhood Senior Center","SELFHELP COMMUNITY SERVICES INC","69-61 GRAND AVENUE","FLUSHING","NY","11378","QUEENS","718-429-3636","Y","8 :30","4 :00","8 :30","4 :00","8 :30","4 :00","8 :30","4 :00","8 :30","4 :00","00:00","00:00","00:00","00:00","40.727019","-73.893556","405","30","49302","4058561","4025010032","Maspeth","
,  
(40.727019, -73.893556)"
"SENIOR CENTER CONTRACTS","49701","The Young Israel of Forest Hills Neighborhood Senior Center","YOUNG ISRAEL PROGRAMS INC","68-07 BURNS STREET","FLUSHING","NY","11375","QUEENS","718-520-2305","Y","8 :30","4 :30","8 :30","4 :30","8 :30","4 :30","8 :30","4 :30","8 :30","1 :30","00:00","00:00","00:00","00:00","40.721357","-73.851655","406","29","711","4077448","4032340089","Forest Hills","
,  
(40.721357, -73.851655)"
"SENIOR CENTER CONTRACTS","54501","West Brighton Neighborhood Senior Center","CATHOLIC CHARITIES OF STATEN ISLAND INC.","230 BROADWAY","STATEN ISLAND","NY","10310","STATEN ISLAND","718-727-9763","Y","8 :00","4 :00","8 :00","4 :00","8 :00","4 :00","8 :00","4 :00","8 :00","4 :00","00:00","00:00","00:00","00:00","40.636486","-74.117523","501","49","13301","5095818","5001960001","West New Brighton-New Brighton-St. George","
,  
(40.636486, -74.117523)"
"SENIOR CENTER CONTRACTS","54601","Anderson Neighborhood Senior Center","CATHOLIC CHARITIES OF STATEN ISLAND INC.","120 ANDERSON AVENUE","STATEN ISLAND","NY","10302","STATEN ISLAND","718-448-5757","Y","7 :00","3 :00","7 :00","3 :00","7 :00","3 :00","7 :00","3 :00","7 :00","3 :00","00:00","00:00","00:00","00:00","40.634927","-74.134422","501","49","213","5024253","5010360019","Port Richmond","
,  
(40.634927, -74.134422)"
"SENIOR CENTER CONTRACTS","54701","Stapleton Neighborhood Senior Center","JEWISH COMMUNITY CENTER OF STATEN ISLAND INC","189 GORDON STREET","STATEN ISLAND","NY","10304","STATEN ISLAND","718-981-8828","Y","8 :00","4 :00","8 :00","4 :00","8 :00","4 :00","8 :00","4 :00","8 :00","4 :00","00:00","00:00","00:00","00:00","40.623124","-74.082838","501","49","29","5108860","5005450100","Stapleton-Rosebank","
,  
(40.623124, -74.082838)"
"SENIOR CENTER CONTRACTS","54801","JCC South Shore Neighborhood Senior Center","JEWISH COMMUNITY CENTER OF STATEN ISLAND INC","1297 ARTHUR KILL ROAD","STATEN ISLAND","NY","10312","STATEN ISLAND","718-475-5283","Y","9 :00","5 :00","9 :00","5 :00","9 :00","5 :00","9 :00","5 :00","9 :00","5 :00","00:00","00:00","00:00","00:00","40.565262","-74.183882","503","51","228","5077603","5059000105","New Springville-Bloomfield-Travis","
,  
(40.565262, -74.183882)"
"SENIOR CENTER CONTRACTS","54901","New Lane Neighborhood Senior Center","COMMUNITY AGENCY FOR SENIOR CITIZENS INC","70 NEW LANE","STATEN ISLAND","NY","10305","STATEN ISLAND","718-448-5936","Y","8 :00","4 :00","8 :00","4 :00","8 :00","4 :00","8 :00","4 :00","8 :00","4 :00","00:00","00:00","00:00","00:00","40.612811","-74.062256","501","49","6","5042254","5028320068","Stapleton-Rosebank","
,  
(40.612811, -74.062256)"
"SENIOR CENTER CONTRACTS","55001","Cassidy Coles Neighborhood Senior Center","COMMUNITY AGENCY FOR SENIOR CITIZENS INC","125 CASSIDY PLACE","STATEN ISLAND","NY","10301","STATEN ISLAND","718-273-6808","Y","8 :00","4 :00","8 :00","4 :00","8 :00","4 :00","8 :00","4 :00","8 :00","4 :00","00:00","00:00","00:00","00:00","40.641888","-74.096489","501","49","81","5001762","5000710011","West New Brighton-New Brighton-St. George","
,  
(40.641888, -74.096489)"
"SENIOR CENTER CONTRACTS","55101","Great Kills Neighborhood Senior Center","STATEN ISLAND COMMUNITY SERVICES FRIENDSHIP CLUBS INC","11 SAMPSON AVENUE","STATEN ISLAND","NY","10308","STATEN ISLAND","718-356-5050","Y","8 :00","4 :00","8 :00","4 :00","8 :00","4 :00","8 :00","4 :00","8 :00","4 :00","00:00","00:00","00:00","00:00","40.552603","-74.149795","503","51","14605","5062569","5046240500","Great Kills","
,  
(40.552603, -74.149795)"
"SENIOR CENTER CONTRACTS","55201","Arrochar Neighborhood Senior Center","STATEN ISLAND COMMUNITY SERVICES FRIENDSHIP CLUBS INC","85 JEROME AVENUE","STATEN ISLAND","NY","10305","STATEN ISLAND","718-720-6110","Y","8 :00","4 :00","8 :00","4 :00","8 :00","4 :00","8 :00","4 :00","8 :00","4 :00","00:00","00:00","00:00","00:00","40.59635","-74.076172","502","50","64","5133958","5032700025","Grasmere-Arrochar-Ft. Wadsworth","
,  
(40.59635, -74.076172)"
"SENIOR CENTER CONTRACTS","55301","Todt Hill Neighborhood Senior Center","STATEN ISLAND COMMUNITY SERVICES FRIENDSHIP CLUBS INC","184 SCHMIDTS LANE","STATEN ISLAND","NY","10314","STATEN ISLAND","718-720-6110","Y","8 :00","4 :00","8 :00","4 :00","8 :00","4 :00","8 :00","4 :00","8 :00","4 :00","00:00","00:00","00:00","00:00","40.609058","-74.119053","502","49","173","5108960","5007060001","New Springville-Bloomfield-Travis","
,  
(40.609058, -74.119053)"
"SENIOR CENTER CONTRACTS","55401","Mount Loretto Neighborhood Senior Center","STATEN ISLAND COMMUNITY SERVICES FRIENDSHIP CLUBS INC","6581 HYLAN  BOULEVARD","STATEN ISLAND","NY","10309","STATEN ISLAND","718-984-8589","Y","8 :00","4 :00","8 :00","4 :00","8 :00","4 :00","8 :00","4 :00","8 :00","4 :00","00:00","00:00","00:00","00:00","40.508809","-74.222403","503","51","198","5123970","5076640001","Annadale-Huguenot-Prince's Bay-Eltingville","
,  
(40.508809, -74.222403)"
"SENIOR CENTER CONTRACTS","57401","JCC of Staten Island Innovative Senior Center","JEWISH COMMUNITY CENTER OF STATEN ISLAND INC","1466 MANOR ROAD","STATEN ISLAND","NY","10314","STATEN ISLAND","718 475-5200","Y","9 :00","5 :00","9 :00","5 :00","9 :00","5 :00","12:00","8 :00","9 :00","5 :00","00:00","00:00","00:00","00:00","40.594454","-74.125677","502","50","181","5141743","5009550100","Todt Hill-Emerson Hill-Heartland Village-Lighthouse Hill","
,  
(40.594454, -74.125677)"
"SENIOR CENTER CONTRACTS","64801","VISIONS Innovative Senior Center","VISIONS/SERVICES FOR THE BLIND AND VISUALLY IMPAIRED","135 WEST 23RD STREET","NEW YORK","NY","10011","MANHATTAN","646-486-4444","Y","09:00","08:00","09:00","08:00","09:00","08:00","09:00","08:00","09:00","06:00","00:00","00:00","00:00","00:00","40.743386","-73.993916","104","3","91","1014949","1007990021","Hudson Yards-Chelsea-Flatiron-Union Square","
,  
(40.743386, -73.993916)"
"SENIOR CENTER CONTRACTS","64901","SAGE Innovative Senior Center","SERVICES AND ADVOCACY FOR GAYLESBIANBISEXUAL AND TRANSGEND","305 SEVENTH AVENUE","NEW YORK","NY","10001","MANHATTAN","212-741-2247","Y","11:00","08:00","11:00","08:00","11:00","08:00","11:00","08:00","11:00","08:00","00:00","00:00","00:00","00:00","40.746817","-73.993655","105","3","95","1015060","1008037502","Midtown-Midtown South","
,  
(40.746817, -73.993655)"
