"dca_license_number","license_status","business_name","dba_trade_name","building_number","street","unit","city","state","postcode","borough","darp_enrollment_status","rotow_enrollment_status","community_board","council_district","police_precinct","bbl","bin","x_coordinate","y_coordinate","latitude","longitude","census_tract","nta","geocoded_column_1"
"0971954-DCA","Active","FRANKIE'S TOWING 77, INC.",,"9","MAIN ST",,"FORT PLAIN","NY","13339-1126","Outside NYC","Not Enrolled","Not Enrolled",,,,,,"0","0",,,,,
"2072637-DCA","Active","TOWING AND GOING INC.",,"3","TIOGA BLVD","1","APALACHIN","NY","13732-4150","Outside NYC",,,,,,,,,,,,,,
"1122094-DCA","Active","A.T.A. TOWING, INC.",,"5354","VAN DAM ST",,"LONG ISLAND CITY","NY","11101-3223","Queens","Enrolled","Enrolled","402","26","108","4002980010","4003583","1001395","206761","40.734652","-73.937778","199","Hunters Point-Sunnyside-West Maspeth","POINT (-73.937778 40.734652)"
"1474700-DCA","Active","360 COLLISION & TOWING INC.",,"684","E 137TH ST",,"BRONX","NY","10454-3304","Bronx","Enrolled","Not Enrolled","201","8","40","2025650008","2092950","1007934","232438","40.804562","-73.914284","2701","Mott Haven-Port Morris","POINT (-73.914284 40.804562)"
"1361360-DCA","Active","JUSTICE RECOVERY INC.",,"10517","101ST AVE",,"OZONE PARK","NY","11416-2704","Queens","Enrolled","Not Enrolled","409","28","102","4094070029","4197811","1029198","189454","40.68657","-73.83793","116","Richmond Hill","POINT (-73.83793 40.68657)"
"0832833-DCA","Active","D. MAC ARTHUR AUTO BODY LTD.",,"13631","SPRINGFIELD BLVD",,"SPRINGFIELD GARDENS","NY","11413-2237","Queens","Enrolled","Not Enrolled","413","31","105","4130180032","4280067","1052128","186067","40.677128","-73.755285","358","Laurelton","POINT (-73.755285 40.677128)"
"1303471-DCA","Active","O.Z. AUTO BODY & TOWING INC.",,"9821","LINDEN BLVD",,"OZONE PARK","NY","11417-2523","Queens","Enrolled","Not Enrolled","410","32","106","4115010058","4248255","1029459","185133","40.674709","-73.837018","864","South Ozone Park","POINT (-73.837018 40.674709)"
"2045899-DCA","Active","FIVE J'S AUTOMOTIVE LTD.",,"10","FRANCES KIERNAN PL",,"CARMEL","NY","10512-4446","Outside NYC",,,,,,,,,,,,,,
"1412322-DCA","Active","CROSS COUNTY COLLISION & TOWING INC.",,"5933","FRESH MEADOW LN",,"FRESH MEADOWS","NY","11365-1513","Queens","Enrolled","Not Enrolled","411","20","111","4068870020","4148767","1040525","208782","40.739556","-73.796926","1417","Auburndale","POINT (-73.796926 40.73955600000001)"
"2092560-DCA","Active","NK TECH AUTOMOBILE SERVICES INC",,"1712","JEROME AVE",,"BRONX","NY","10453-5704","Bronx",,,"205","14","46","2028490005","2008174","1008336","247820","40.846851","-73.912943","22701","Mount Hope","POINT (-73.912943 40.846851)"
"0832867-DCA","Active","TRIANGLE AUTO BODY INC.",,"5711","79TH AVE",,"GLENDALE","NY","11385-6057","Queens","Enrolled","Enrolled","405","30","104","4035580007","4085826","1012189","192284","40.694408","-73.899248","565","Glendale","POINT (-73.899248 40.694408)"
"1419615-DCA","Active","BUS MAINTENANCE II LLC",,"9714","ATLANTIC AVE",,"OZONE PARK","NY","11416-1620","Queens","Not Enrolled","Not Enrolled","409","32","102","4090420001","4187795","1027159","190393","40.689158","-73.845276","32","Woodhaven","POINT (-73.845276 40.689158)"
"2084096-DCA","Active","ATLANTIC AUTO SPA CORP.",,"150","2ND AVE",,"BROOKLYN","NY","11215-3811","Brooklyn","Enrolled",,"306","39","78","3010250043","3000000","985701","183724","40.671031","-73.994708","119","Park Slope-Gowanus","POINT (-73.994708 40.671031)"
"0833037-DCA","Active","JETS TOWING INC",,"918","E 51ST ST",,"BROOKLYN","NY","11203-6736","Brooklyn","Not Enrolled","Enrolled","317","45","67","3047850026","3106472","1004235","172001","40.638757","-73.927991","932","East Flatbush-Farragut","POINT (-73.927991 40.638757)"
"0998978-DCA","Active","ALL MAGIC AUTOMOTIVE, INC.",,"537","W 38TH ST",,"NEW YORK","NY","10018-1111","Manhattan","Not Enrolled","Not Enrolled","104","3","10","1007100011","1012524","984557","215362","40.757796","-73.998892","117","Hudson Yards-Chelsea-Flatiron-Union Square","POINT (-73.998892 40.757796000000006)"
"2004454-DCA","Active","WRECK O MEND AUTO EXPERTS CORP",,"80","GRANITE AVE",,"STATEN ISLAND","NY","10303-2718","Staten Island","Enrolled","Not Enrolled","501","49","121","5011570031","5026644","943260","170818","40.635438","-74.147686","223","Mariner's Harbor-Arlington-Port Ivory-Graniteville","POINT (-74.147686 40.635438)"
"2019310-DCA","Active","ACTION AUTO COLLISION & TOWING INC",,"5873","GRAND AVE",,"MASPETH","NY","11378-3230","Queens","Enrolled",,"405","30","104","4026800062","4437547","1009387","201674","40.72019","-73.909317","531","Maspeth","POINT (-73.909317 40.72019)"
"2047505-DCA","Active","MACARTHUR AUTOBODY & TOWING INC",,"170","E LINCOLN AVE",,"VALLEY STREAM","NY","11580-5905","Outside NYC",,,,,,,,,,,,,,
"2067407-DCA","Active","NYCA LLC",,"10115","ROCKAWAY BLVD",,"OZONE PARK","NY","11417-2228","Queens","Enrolled",,"410","32","106","4095220031","4201988","1029087","186989","40.679805","-73.838346","94","South Ozone Park","POINT (-73.838346 40.679805)"
"0915955-DCA","Active","ONE STOP 86 ST. INC.",,"8202","7TH AVE",,"BROOKLYN","NY","11228-2807","Brooklyn","Not Enrolled","Not Enrolled","310","43","68","3060100047","3152227","978681","165645","40.621332","-74.020061","140","Dyker Heights","POINT (-74.020061 40.621332)"
"0851591-DCA","Active","ADIEL'S AUTO REPAIRS, INC.",,"3717","54TH ST",,"WOODSIDE","NY","11377-2433","Queens","Not Enrolled","Not Enrolled","402","26","108","4012090037","4027631","1009710","212740","40.750757","-73.90802","255","Woodside","POINT (-73.90802 40.750757)"
"0890594-DCA","Active","QUALITY AUTOMOTIVE SERVICES, INC.",,"12228","FARMERS BLVD",,"SPRINGFIELD GARDENS","NY","11413-1047","Queens","Enrolled","Enrolled","412","27","113","4124580128","4269113","1050628","188067","40.682629","-73.760673","366","St. Albans","POINT (-73.760673 40.682629000000006)"
"0853860-DCA","Active","RESPONSE TOWING SERVICE INC.","CHAMPION COLLISION","17030","39TH AVE",,"FLUSHING","NY","11358-2261","Queens","Not Enrolled","Not Enrolled","407","19","109","4053230068","4120197","1040988","216785","40.761519","-73.795188","1175","Murray Hill","POINT (-73.795188 40.761519)"
"0833080-DCA","Active","PRECISION COLLISION AUTO BODY INC.",,"12317","101ST AVE",,"SOUTH RICHMOND HILL","NY","11419-1407","Queens","Enrolled","Enrolled","409","28","102","4094640023","4199853","1033446","191049","40.690926","-73.822601","154","Richmond Hill","POINT (-73.822601 40.690926)"
"2067393-DCA","Active","ALL PRO AUTOBODY INC.",,"3475","FORT HAMILTON PKWY",,"BROOKLYN","NY","11218-2194","Brooklyn","Enrolled",,"312","39","66","3053020032","3123397","988068","174406","40.64538","-73.986242","498","Kensington-Ocean Parkway","POINT (-73.986242 40.64538)"
"1397016-DCA","Active","A & R COLLISION EXPERTS CORP",,"8625","LIBERTY AVE",,"OZONE PARK","NY","11417-1325","Queens","Enrolled","Not Enrolled","410","32","106","4091070027","4438513","1025451","186999","40.67985","-73.851455","54","Ozone Park","POINT (-73.851455 40.67985)"
"1428104-DCA","Active","GRAY'S AUTO ENTERPRISES INC.",,"1639","UTICA AVE",,"BROOKLYN","NY","11234-1524","Brooklyn","Enrolled","Not Enrolled","318","46","63","3077540034","3214515","1004156","169604","40.632178","-73.928283","722","Flatlands","POINT (-73.928283 40.632178)"
"2081613-DCA","Active","1-2-3 AUTO SERVICE, INC.",,"1820","UTICA AVE",,"BROOKLYN","NY","11234-2123","Brooklyn",,,"318","45","63","3077970047","3216403","1004284","167974","40.627704","-73.927827","730","Flatlands","POINT (-73.927827 40.627704)"
"2026018-DCA","Active","CHRIS & SON TOWING INC",,"2916","ATLANTIC AVE",,"BROOKLYN","NY","11207-2729","Brooklyn",,,"305","37","75","3039670015","3088336","1015702","186097","40.677414","-73.886608","1170","East New York","POINT (-73.886608 40.677414)"
"0838740-DCA","Active","CLOVE AUTO BODY, INC.",,"240","CLOVE RD",,"STATEN ISLAND","NY","10310-1210","Staten Island","Enrolled","Not Enrolled","501","49","120","5002050068","5005499","949249","170427","40.63439","-74.126105","13302","West New Brighton-New Brighton-St. George","POINT (-74.126105 40.63439)"
"0931300-DCA","Active","MOTION AUTOMOTIVE, INC.",,"3500","HEATHCOTE AVE",,"BRONX","NY","10475-1208","Bronx","Enrolled","Not Enrolled","212","12","47","2052860036","2072576","1032775","261974","40.885599","-73.824508","46202","Co-op City","POINT (-73.82450800000001 40.885599)"
"1331368-DCA","Active","KEM AUTO CENTER INC.",,"2080","STILLWELL AVE",,"BROOKLYN","NY","11223-3439","Brooklyn","Not Enrolled","Not Enrolled","313","47","60","3068700031","3329282","988370","156474","40.596161","-73.985165","300","Bensonhurst East","POINT (-73.985165 40.596161)"
"2017805-DCA","Active","FINEST AUTOMOTIVE RECOVERY INC",,"1410","61ST ST",,"BROOKLYN","NY","11219-5407","Brooklyn","Enrolled",,"312","44","66","3057270019","3141386","985266","167544","40.626566","-73.996369","250","Bensonhurst West","POINT (-73.99636900000002 40.626566)"
"1006768-DCA","Active","JIMMY'S FIX A DENT INC.","FIX A DENT AUTO BODY","10","VAN ST",,"STATEN ISLAND","NY","10310-1311","Staten Island","Enrolled","Not Enrolled","501","49","120","5001870141","5005161","950977","172620","40.640416","-74.11989","13302","West New Brighton-New Brighton-St. George","POINT (-74.11989000000001 40.640416)"
"1225509-DCA","Active","HELMS BROS. INC.",,"20824","NORTHERN BLVD",,"BAYSIDE","NY","11361-3148","Queens","Not Enrolled","Not Enrolled","411","19","111","4073050030","4156686","1046633","215836","40.758877","-73.77482","1447","Bayside-Bayside Hills","POINT (-73.77482 40.758877)"
"0859357-DCA","Active","CROMWELL COLLISION & TOWING, INC.",,"1297","INWOOD AVE",,"BRONX","NY","10452-3207","Bronx","Enrolled","Not Enrolled","204","16","44","2028640001","2008407","1006270","244748","40.838425","-73.920421","219","Highbridge","POINT (-73.920421 40.838425)"
"2091960-DCA","Active","NORTH WEST ERS, INC.",,"6410","MAURICE AVE",,"MASPETH","NY","11378-1335","Queens",,,"405","30","104","4023750106","4054797","1011340","206161","40.7325","-73.902254","515","Maspeth","POINT (-73.902254 40.7325)"
"2037882-DCA","Active","Machine Towing Inc",,"18609","MERRICK BLVD",,"SPRINGFIELD GARDENS","NY","11413-1455","Queens","Enrolled",,"412","27","113","4127170084","4000000","1051971","187149","40.680099","-73.75584","352","St. Albans","POINT (-73.75584 40.680099)"
"2048713-DCA","Active","ACES AUTO BODY & TOWING INC",,"6417","NEW UTRECHT AVE",,"BROOKLYN","NY","11219-5724","Brooklyn","Not Enrolled","Not Enrolled","311","38","62","3057480049","3142113","984934","166725","40.624298","-73.997536","250","Bensonhurst West","POINT (-73.997536 40.624298)"
"2089583-DCA","Active","HARD CORE AUTOMOTIVE CORP.",,"749","E 136TH ST",,"BRONX","NY","10454-3410","Bronx",,,"201","17","40","2025650060","2003778","1008374","231911","40.803185","-73.912863","19","Mott Haven-Port Morris","POINT (-73.912863 40.803185)"
"1386995-DCA","Active","TOW AUTHORITY INC.",,"412","MASPETH AVE",,"BROOKLYN","NY","11211-1704","Brooklyn","Not Enrolled","Not Enrolled","301","34","90","3029280001","3325325","1004193","201222","40.718962","-73.928056","449","East Williamsburg","POINT (-73.928056 40.718962)"
"1423268-DCA","Active","EXCELLENCE AUTO & TOWING INC.",,"5511","NORTHERN BLVD",,"WOODSIDE","NY","11377-1940","Queens","Enrolled","Not Enrolled","401","26","114","4011570034","4026045","1010389","213787","40.753434","-73.905655","295","Woodside","POINT (-73.905655 40.753434)"
"1276631-DCA","Active","NORTHSIDE AUTO TOWING INC.",,"9154","GOLD RD",,"OZONE PARK","NY","11417-2417","Queens","Enrolled","Enrolled","410","32","106","4113730038","4000000","1027398","184909","40.674104","-73.844449","58","Ozone Park","POINT (-73.844449 40.674104)"
"2012876-DCA","Active","CASINO GARAGE INC.",,"7505","BEACH CHANNEL DR",,"ARVERNE","NY","11692-1027","Queens","Enrolled",,"414","31","100","4160900020","4303327","1038856","154516","40.590619","-73.803388","94202","Hammels-Arverne-Edgemere","POINT (-73.803388 40.590619)"
"1065438-DCA","Active","FINEST AUTOMOTIVE RECOVERY, INC.",,"583","BALTIC ST",,"BROOKLYN","NY","11217-2706","Brooklyn","Enrolled","Not Enrolled","306","33","78","3004010001","3426931","989535","187247","40.680988","-73.981876","127","DUMBO-Vinegar Hill-Downtown Brooklyn-Boerum Hill","POINT (-73.981876 40.680988)"
"2094045-DCA","Active","D & T AUTOMOTIVE INC",,"13935","QUEENS BLVD",,"JAMAICA","NY","11435-2925","Queens",,,"408","24","107",,,"1035222","196383","40.705556","-73.816156","214","Briarwood-Jamaica Hills","POINT (-73.816156 40.705556)"
"1443457-DCA","Active","CERTIFIED TOWING, INC",,"2917","ARTHUR KILL RD",,"STATEN ISLAND","NY","10309-1136","Staten Island","Not Enrolled","Not Enrolled","503","51","123","5072060235","5104539","919881","137862","40.547185","-74.227997","226","Charleston-Richmond Valley-Tottenville","POINT (-74.227997 40.547185)"
"1309073-DCA","Active","JAY'S TOWING INC",,"13316","35TH AVE",,"FLUSHING","NY","11354-2713","Queens","Not Enrolled","Not Enrolled","407","20","109","4049460165","4111935","1030174","217612","40.763852","-73.834218","869","Flushing","POINT (-73.834218 40.763852)"
"1451903-DCA","Active","HOLLIS COURT COLLISION & RECOVERY INC.",,"4719","HOLLIS COURT BLVD",,"FLUSHING","NY","11358-3958","Queens","Enrolled","Enrolled","411","20","111","4056110001","4126860","1042813","213214","40.751706","-73.788631","1429","Auburndale","POINT (-73.788631 40.751706)"
"1413887-DCA","Active","KNIGHTS COLLISION EXPERTS, INC.",,"2000","EASTERN PKWY",,"BROOKLYN","NY","11233-2912","Brooklyn","Enrolled","Enrolled","316","37","73","3015400072","3041998","1010306","186877","40.679573","-73.906059","367","Ocean Hill","POINT (-73.906059 40.679573)"
"0832835-DCA","Active","SCUFFY'S COLLISION INC.","PRO BODIES.","7011","GARFIELD AVE",,"WOODSIDE","NY","11377-6031","Queens","Enrolled","Not Enrolled","402","30","108","4024360066","4056364","1013634","207819","40.737043","-73.893969","489","Elmhurst-Maspeth","POINT (-73.893969 40.73704300000001)"
"1191333-DCA","Active","USAC TOWING CORP.",,"3108","NORTHERN BLVD",,"LONG ISLAND CITY","NY","11101-2818","Queens","Enrolled","Not Enrolled","401","26","114","4002390105","4003414","1002673","213137","40.751669","-73.933507","171","Hunters Point-Sunnyside-West Maspeth","POINT (-73.933507 40.751669)"
"2087355-DCA","Active","FINEST TOUCH MOTORSPORTS 1 INC",,"87-97","256TH ST",,"FLORAL PARK","NY","11001-1707","Queens","Enrolled",,"413","23","105","4088310009","4180741","1065072","204525","40.727954","-73.708678","157903","Glen Oaks-Floral Park-New Hyde Park","POINT (-73.708678 40.727954)"
"0832876-DCA","Active","NIC-WAY CORPORATION","ADVANCED AUTO BODY","201","62ND ST",,"BROOKLYN","NY","11220-4409","Brooklyn","Enrolled","Not Enrolled","307","38","72","3057890001","3143617","977692","173225","40.642137","-74.023631","22","Sunset Park West","POINT (-74.023631 40.642137)"
"1064889-DCA","Active","BIG G'S AUTO SALES, INC.",,"3600","BOSTON RD",,"BRONX","NY","10469-2647","Bronx","Not Enrolled","Not Enrolled","212","12","47","2048830001","2065450","1027622","259615","40.879151","-73.843159","46202","Co-op City","POINT (-73.843159 40.879151)"
"1418198-DCA","Active","DESTINATION AUTOMOTIVE & RECOVERY INC.",,"34","COFFEY ST",,"BROOKLYN","NY","11231-1510","Brooklyn","Enrolled","Not Enrolled","306","38","76","3005880033","3008758","981047","185009","40.674483","-74.011547","53","Carroll Gardens-Columbia Street-Red Hook","POINT (-74.011547 40.67448300000001)"
"1277334-DCA","Active","JMX TOWING INC",,"12406","ROCKAWAY BLVD",,"SOUTH OZONE PARK","NY","11420-2517","Queens","Not Enrolled","Not Enrolled","410","28","106","4117460041","4254664","1036031","185405","40.675419","-73.813323","840","South Ozone Park","POINT (-73.813323 40.675419)"
"2083985-DCA","Active","D&S TOWING INC",,"660","OLD COUNTRY RD",,"WESTBURY","NY","11590-4504","Outside NYC",,,,,,,,,,,,,,
"2093566-DCA","Active","JIANS COLLISION CENTER INC",,"5816","LAUREL HILL BLVD",,"WOODSIDE","NY","11377-7416","Queens",,,"402","30","108","4023420014","4054158","1009552","207556","40.736334","-73.9087","243","Elmhurst-Maspeth","POINT (-73.9087 40.736334)"
"1363361-DCA","Active","O.Z. AUTO BODY INC.",,"9825","LINDEN BLVD",,"OZONE PARK","NY","11417-2523","Queens","Enrolled","Not Enrolled","410","32","106","4115010057","4248254","1029459","185133","40.674709","-73.837018","864","South Ozone Park","POINT (-73.837018 40.674709)"
"0855687-DCA","Active","ALL-TYPE TOWING CORP.",,"4242","FRANCIS LEWIS BLVD",,"BAYSIDE","NY","11361-2561","Queens","Not Enrolled","Not Enrolled","411","19","111","4053730026","4121247","1044111","215770","40.758655","-73.783895","1181","Auburndale","POINT (-73.783895 40.758655)"
"0895551-DCA","Active","HI BOM YOON","O-SUNG TOWING","7952","ALBION AVE",,"ELMHURST","NY","11373-3725","Queens","Not Enrolled","Not Enrolled","404","25","110","4015370027","4038519","1016288","208627","40.739252","-73.884388","485","Elmhurst-Maspeth","POINT (-73.884388 40.73925200000001)"
"2028454-DCA","Active","BEN & NINO AUTOBODY CORP",,"2302","MCDONALD AVE",,"BROOKLYN","NY","11223-4739","Brooklyn","Enrolled","Not Enrolled","315","47","61","3071230041","3000000","991643","156443","40.596073","-73.973379","398","Gravesend","POINT (-73.973379 40.596073)"
"1125673-DCA","Active","RODRIGUEZ, FELIPE","KANTOZ TOWING","209","N 10TH ST",,"BROOKLYN","NY","11211-1108","Brooklyn","Not Enrolled","Not Enrolled","301","33","94","3022990021","3000000","997003","200973","40.718292","-73.953994","519","North Side-South Side","POINT (-73.953994 40.718292)"
"2076622-DCA","Active","FINEST TOUCH MOTORSPORTS 1 INC",,"25607","JERICHO TPKE",,"FLORAL PARK","NY","11001-1707","Queens","Enrolled",,"413","23","105","4088310009","4180741","1065072","204525","40.727682","-73.708398","157903","Glen Oaks-Floral Park-New Hyde Park","POINT (-73.708398 40.727682)"
"0850093-DCA","Active","BREEN BROS. TOWING, INC.",,"211","VETERANS RD W",,"STATEN ISLAND","NY","10309-1205","Staten Island","Enrolled","Not Enrolled","503","51","123","5070670161","5086598","924673","141419","40.554638","-74.214394","20801","Rossville-Woodrow","POINT (-74.214394 40.554638)"
"1464029-DCA","Active","AUTO TOW NYC INC.",,"14046","QUEENS BLVD",,"JAMAICA","NY","11435-3220","Queens","Not Enrolled","Not Enrolled","412","24","103","4096190028","4206303","1035597","195562","40.703301","-73.81481","214","Briarwood-Jamaica Hills","POINT (-73.81481 40.703301)"
"2038782-DCA","Active","LIBERTY BELL CAR CARE & TOWING INC",,"8625","LIBERTY AVE",,"OZONE PARK","NY","11417","Queens",,,"410","32","106",,,"1025235","186978","40.67985","-73.851455","54","Ozone Park","POINT (-73.851455 40.67985)"
"0884086-DCA","Active","TRIANGLE TOWING AND RECOVERY, INC.",,"7708","CYPRESS AVE",,"GLENDALE","NY","11385-6075","Queens","Enrolled","Not Enrolled","405","30","104","4035580003","4549246","1012302","192622","40.695335","-73.898839","565","Glendale","POINT (-73.898839 40.695335)"
"1329948-DCA","Active","ALL BORO TOWING L.L.C.",,"1115","E 179TH ST",,"BRONX","NY","10460-2307","Bronx","Enrolled","Not Enrolled","206","15","48","2040050006","2042438","1018457","245545","40.840574","-73.876373","220","East Tremont","POINT (-73.876373 40.840574)"
"2082053-DCA","Active","TIMMY'S AUTOMOTIVE CORP",,"401","W 218TH ST",,"NEW YORK","NY","10034-1103","Manhattan","Enrolled",,"112","10","34","1022140024","1082040","1008469","256441","40.870513","-73.912431","299","Marble Hill-Inwood","POINT (-73.912431 40.870513)"
"1089466-DCA","Active","BRIGHTON ENTERPRISES, INC.",,"2750","STILLWELL AVE",,"BROOKLYN","NY","11224-2722","Brooklyn","Not Enrolled","Not Enrolled","313","47","60","3069970086","3188521","989202","150720","40.580367","-73.982173","348","Seagate-Coney Island","POINT (-73.982173 40.580367)"
"1348077-DCA","Active","PARADISE TOWING AND RECOVERY LLC",,"1611","E 233RD ST",,"BRONX","NY","10466-3303","Bronx","Enrolled","Enrolled","212","12","47","2049720007","2067177","1031539","263212","40.889004","-73.82897","456","Eastchester-Edenwald-Baychester","POINT (-73.82897 40.889004)"
"2094845-DCA","Active","PLAZA BODY SHOP, INC",,"2700","NOSTRAND AVE",,"BROOKLYN","NY","11210-5326","Brooklyn","Enrolled",,"314","45","70","3076650058","3210332","999425","164653","40.618598","-73.945339","746","Flatlands","POINT (-73.945339 40.618598)"
"2025002-DCA","Active","FINEST AUTOMOTIVE RECOVERY INC",,"326","BUTLER ST",,"BROOKLYN","NY","11217-2702","Brooklyn",,,"306","33","78","3004130029","3006620","989192","187120","40.680302","-73.98224","127","DUMBO-Vinegar Hill-Downtown Brooklyn-Boerum Hill","POINT (-73.98224 40.680302)"
"0832943-DCA","Active","METRO AUTO BODY INC.",,"9614","NORTHERN BLVD",,"CORONA","NY","11368-1046","Queens","Enrolled","Not Enrolled","403","21","115","4017110005","4437203","1019713","215083","40.756959","-73.871995","375","North Corona","POINT (-73.871995 40.756959)"
"2071695-DCA","Active","CANARSIE MOTORS INC",,"514","E 81ST ST",,"BROOKLYN","NY","11236-3117","Brooklyn","Enrolled",,"318","46","69","3079590055","3406481","1007069","172720","40.64073","-73.917785","954","Canarsie","POINT (-73.91778500000001 40.64073)"
"0978538-DCA","Active","ANT.'S TOWING CORP.",,"450","E 176TH ST",,"BRONX","NY","10457-6102","Bronx","Not Enrolled","Not Enrolled","206","15","48","2029080020","2009525","1012070","247588","40.846203","-73.899448","395","Claremont-Bathgate","POINT (-73.89944800000002 40.846203)"
"2044974-DCA","Active","SARDAR JI TOWING INC",,"7515","NORTHERN BLVD",,"JACKSON HEIGHTS","NY","11372-1148","Queens",,,"403","25","115","4011710036","4026612","1014269","214328","40.754907","-73.891649","30903","Jackson Heights","POINT (-73.891649 40.754907)"
"2004154-DCA","Active","BLACK & YELLOW AUTO CENTER LLC",,"1680","JEROME AVE",,"BRONX","NY","10453-5702","Bronx",,,"205","14","46","2028480012","2008154","1008230","247626","40.846319","-73.913327","22701","Mount Hope","POINT (-73.913327 40.846319)"
"1389410-DCA","Active","MAC ARTHUR COLLISION AND TOWING, INC.",,"13709","EASTGATE PLZ",,"SPRINGFIELD GARDENS","NY","11413-2624","Queens","Enrolled","Not Enrolled","412","27","113","4129990001","4279925","1051772","185688","40.67609","-73.756572","352","St. Albans","POINT (-73.756572 40.67609)"
"1427313-DCA","Active","FULL THROTTLE AUTOMOTIVE INCORPORATED","FIX A DENT TOWING","70","S BRIDGE ST",,"STATEN ISLAND","NY","10309-2619","Staten Island","Enrolled","Not Enrolled","503","51","123","5075840112","5163857","918403","130665","40.525076","-74.236853","226","Charleston-Richmond Valley-Tottenville","POINT (-74.236853 40.525076)"
"2097194-DCA","Active","C & S AUTOMOTIVE INC",,"1000","BROOK AVE",,"BRONX","NY","10451-4237","Bronx",,,"203","17","42","2023860008","2001544","1008674","240544","40.82688","-73.911748","185","Morrisania-Melrose","POINT (-73.911748 40.82688)"
"1201170-DCA","Active","A & R AUTO TOWING, INC.",,"7523","18TH AVE",,"BROOKLYN","NY","11214-1114","Brooklyn","Not Enrolled","Not Enrolled","311","47","62","3062270001","3329032","985315","162680","40.613196","-73.996164","274","Bensonhurst West","POINT (-73.996164 40.613196)"
"2078448-DCA","Active","AA ALWAYS TOWING INC",,"10604","MERRICK BLVD",,"JAMAICA","NY","11433-2415","Queens","Enrolled",,"412","27","103","4101640090","4442246","1042761","194474","40.70027","-73.788982","254","South Jamaica","POINT (-73.788982 40.70027)"
"2089836-DCA","Active","COUNTY WIDE AUTO COLLISION INC",,"6005","FLUSHING AVE",,"MASPETH","NY","11378-3220","Queens",,,"405","30","104","4026990037","4060323","1010003","201309","40.719186","-73.907096","525","Maspeth","POINT (-73.907096 40.719186)"
"1345445-DCA","Active","RIDGE POND AUTO REPAIR, INC.","RIDGEWOOD AUTO SPRING","6307","FRESH POND RD",,"RIDGEWOOD","NY","11385-2623","Queens","Enrolled","Not Enrolled","405","30","104","4036080011","4087417","1011949","198597","40.711737","-73.900087","61301","Ridgewood","POINT (-73.900087 40.711737)"
"2047264-DCA","Active","EAST COAST CUSTOMS AUTOMOTIVE INC",,"1040","BRONX RIVER AVE",,"BRONX","NY","10472-5502","Bronx","Enrolled",,"209","17","43","2037090015","2023324","1016638","239573","40.824189","-73.882976","52","Soundview-Bruckner","POINT (-73.882976 40.824189)"
"0833071-DCA","Active","D MACARTHUR AUTO BODY LTD",,"12319","197TH ST",,"SPRINGFIELD GARDENS","NY","11413-1119","Queens","Enrolled","Enrolled","412","27","113","4127330094","4458735","1053326","189394","40.68625","-73.750932","376","St. Albans","POINT (-73.750932 40.68625)"
"1435372-DCA","Active","QUEENS VILLAGE TOWING INC.",,"18510","MERRICK BLVD",,"SPRINGFIELD GARDENS","NY","11413-1404","Queens","Enrolled","Enrolled","412","27","113","4129990193","4000000","1051807","187061","40.679662","-73.756927","352","St. Albans","POINT (-73.756927 40.679662)"
"0914360-DCA","Active","BOSCAINO COLLISION & TOWING CORP",,"766","ROCKAWAY PKWY",,"BROOKLYN","NY","11236-1830","Brooklyn","Enrolled","Not Enrolled","317","42","67","3081220051","3228505","1009504","176475","40.651024","-73.90899","960","Canarsie","POINT (-73.90899 40.651024)"
"1455396-DCA","Active","JYD TOWING LLC",,"18506","MERRICK BLVD",,"SPRINGFIELD GARDENS","NY","11413-1404","Queens","Enrolled","Not Enrolled","412","27","113","4129990190","4000000","1051638","186972","40.679615","-73.757042","352","St. Albans","POINT (-73.757042 40.679615)"
"1162956-DCA","Active","ON POINT COLLISION & TOWING SERVICES, INC.",,"14610","GUY R BREWER BLVD",,"JAMAICA","NY","11434-5326","Queens","Enrolled","Enrolled","413","31","105","4133100069","4285465","1048500","180936","40.663071","-73.768413","320","Springfield Gardens South-Brookville","POINT (-73.768413 40.663071)"
"2094830-DCA","Active","COMPETITION AUTO WORKS INC",,"1867","42ND ST",,"ASTORIA","NY","11105-1026","Queens",,,"401","22","114","4007910007","4430658","1012750","222729","40.77797","-73.897096","12301","Steinway","POINT (-73.897096 40.77797)"
"1434803-DCA","Active","HENRY J'S TOWING INC.",,"60","WINANT PL",,"STATEN ISLAND","NY","10309-1313","Staten Island","Enrolled","Not Enrolled","503","51","123","5074080025","5086884","917697","134910","40.536723","-74.239434","226","Charleston-Richmond Valley-Tottenville","POINT (-74.239434 40.536723)"
"1384669-DCA","Active","BEAR TRANSPORTATION LLC",,"953","COLGATE AVE",,"BRONX","NY","10473-4901","Bronx","Enrolled","Enrolled","209","17","43","2036480019","2127183","1017308","238865","40.822243","-73.880559","28","Soundview-Castle Hill-Clason Point-Harding Park","POINT (-73.880559 40.822243)"
"0832844-DCA","Active","CASINO TOWING SERVICE INC",,"7105A","AMSTEL BLVD",,"ARVERNE","NY","11692-1034","Queens","Enrolled","Not Enrolled","414","31","100","4160760001","4439004","1039769","155241","40.592603","-73.800095","954","Hammels-Arverne-Edgemere","POINT (-73.800095 40.592603000000004)"
"2086078-DCA","Active","ELITE FORCE TOWING, INC.",,"2757","STILLWELL AVE",,"BROOKLYN","NY","11224-2721","Brooklyn",,,"313","47","60","3072470177","3196280","989213","150686","40.580273","-73.982133","348","Seagate-Coney Island","POINT (-73.982133 40.580273)"
"2040002-DCA","Active","SUPER FAST AUTOMOTIVE INC",,"3824","24TH ST",,"LONG ISLAND CITY","NY","11101-3620","Queens",,,"401","26","114","4003890027","4004732","1001731","214669","40.755876","-73.936903","33","Queensbridge-Ravenswood-Long Island City","POINT (-73.936903 40.755876)"
"0883295-DCA","Active","DAVIDOVITZ, MICHAEL","RISHON TOWING","1060","MCDONALD AVE",,"BROOKLYN","NY","11230-1080","Brooklyn","Not Enrolled","Not Enrolled","312","44","66","3054520039","3129125","990744","167961","40.627689","-73.976605","476","Borough Park","POINT (-73.976605 40.627689)"
"0885811-DCA","Active","TRIANGLE AUTOMOTIVE INC.",,"5960","DECATUR ST",,"RIDGEWOOD","NY","11385-5943","Queens","Enrolled","Not Enrolled","405","34","104","4035900105","4458766","1013037","194251","40.699804","-73.896181","557","Ridgewood","POINT (-73.896181 40.699804)"
"2013489-DCA","Active","CLASSIC TOWING INC",,"314","MCGUINNESS BLVD",,"BROOKLYN","NY","11222-1821","Brooklyn",,,"301","33","94","3025340007","3064360","997528","206370","40.733105","-73.95209","579","Greenpoint","POINT (-73.95209 40.733105)"
"0929938-DCA","Active","B & M ELECTRONIC DIAGNOSTIC REPAIR SERVICE INC","B & M TOWING","6202","ALMEDA AVE",,"ARVERNE","NY","11692-1347","Queens","Enrolled","Enrolled","414","31","100","4160060006","4448983","1041880","156932","40.597231","-73.79248","964","Hammels-Arverne-Edgemere","POINT (-73.79248 40.597231)"
"2029230-DCA","Active","NAUGHTY DOG TOWING INC",,"3203","BOSTON RD",,"BRONX","NY","10469-3800","Bronx",,,"212","12","47","2046130001","2056667","1024096","256776","40.871376","-73.855927","348","Allerton-Pelham Gardens","POINT (-73.855927 40.871376)"
"1089002-DCA","Active","PLATINUM TOWING INC.",,"211","62ND ST",,"BROOKLYN","NY","11220-4409","Brooklyn","Enrolled","Enrolled","307","38","72","3057890069","3143675","977734","173192","40.642047","-74.023479","22","Sunset Park West","POINT (-74.023479 40.642047)"
"2049416-DCA","Active","NAD AUTO REPAIR CORP.",,"21620","HEMPSTEAD AVE",,"QUEENS VILLAGE","NY","11429-1224","Queens",,,"413","27","105","4110830100","4238784","1055597","199977","40.71528","-73.742631","540","Queens Village","POINT (-73.742631 40.71528)"
"0833175-DCA","Active","J & J TOWING INC.",,"141A","ANDROS AVE",,"STATEN ISLAND","NY","10303-2040","Staten Island","Enrolled","Enrolled","501","49","121",,,"939164","170624","40.634886","-74.162442","31902","Mariner's Harbor-Arlington-Port Ivory-Graniteville","POINT (-74.162442 40.634886)"
"2015542-DCA","Active","Emergency Tow America Corp","ETA","1908","PATTERSON AVE",,"BRONX","NY","10473-3033","Bronx",,,"209","18","43","2034740031","2020498","1023883","235681","40.813477","-73.856822","4","Soundview-Castle Hill-Clason Point-Harding Park","POINT (-73.856822 40.813477)"
"2047575-DCA","Active","Split Second Autobody LTD",,"1960","41ST ST",,"ASTORIA","NY","11105-1024","Queens","Enrolled",,"401","22","114","4008020011","4015668","1012560","222923","40.77671","-73.900004","12301","Steinway","POINT (-73.900004 40.77671)"
"2076617-DCA","Active","N.Y. PLE INC",,"1841","STEINWAY ST",,"ASTORIA","NY","11105-1010","Queens","Enrolled",,"401","22","114","4008020116","4015685","1012466","223229","40.779344","-73.898119","12301","Steinway","POINT (-73.898119 40.779344)"
"0850454-DCA","Active","MOTION TOWING, INC.",,"3504","HEATHCOTE AVE",,"BRONX","NY","10475-1208","Bronx","Not Enrolled","Enrolled","212","12","47","2052860036","2072576","1032769","261989","40.88564","-73.82453","46202","Co-op City","POINT (-73.82453 40.88564)"
"0921249-DCA","Active","FINEST TOWING & AUTO BODY INC.",,"11","BRICK CT",,"STATEN ISLAND","NY","10309-1963","Staten Island","Enrolled","Not Enrolled","503","51","123","5074000100","5151534","917196","135712","40.53892","-74.241244","226","Charleston-Richmond Valley-Tottenville","POINT (-74.241244 40.53892)"
"1025395-DCA","Active","ALL ISLAND T COLLISION & TOWING INC.",,"8611","LIBERTY AVE",,"OZONE PARK","NY","11417-1325","Queens","Enrolled","Not Enrolled","410","32","106","4091070005","4189444","1025271","186987","40.679818","-73.852104","54","Ozone Park","POINT (-73.852104 40.679818)"
"1418653-DCA","Active","J&J TOWING AND RECOVERY INC",,"30","GRILLE CT",,"STATEN ISLAND","NY","10309-1400","Staten Island","Not Enrolled","Not Enrolled","503","51","123","5071200160","5111438","920787","138288","40.546017","-74.228349","226","Charleston-Richmond Valley-Tottenville","POINT (-74.228349 40.546017)"
"2084955-DCA","Active","FIVE J'S AUTO WORKS INC",,"5914","BEACH CHANNEL DR",,"ARVERNE","NY","11692-1436","Queens",,,"414","31","100","4160110105","4302403","1042858","155805","40.594131","-73.788968","97203","Hammels-Arverne-Edgemere","POINT (-73.788968 40.594131)"
"0855295-DCA","Active","BRIGHTON COLLISION, INC.",,"1672","MCDONALD AVE",,"BROOKLYN","NY","11230-6311","Brooklyn","Enrolled","Not Enrolled","311","44","62","3065820043","3173471","991574","162265","40.612054","-73.973621","440","Ocean Parkway South","POINT (-73.973621 40.612054)"
"1157741-DCA","Active","JOHN'S TOWING, INC",,"12761","WILLETS POINT BLVD",,"CORONA","NY","11368-1500","Queens","Not Enrolled","Not Enrolled","407","21","110","4018310035","4520460","1028244","216124","40.759778","-73.841195","38301","park-cemetery-etc-Queens","POINT (-73.841195 40.759778)"
"0833070-DCA","Active","BREEN BROS. TOWING, INC.",,"566","INDUSTRIAL LOOP",,"STATEN ISLAND","NY","10309-1121","Staten Island","Enrolled","Enrolled","503","51","123","5072060037","5092982","920210","138590","40.546851","-74.23041","226","Charleston-Richmond Valley-Tottenville","POINT (-74.23041 40.546851)"
"0991107-DCA","Active","BRYAN'S AUTO EAST, LTD.",,"8715","BEACH CHANNEL DR",,"ROCKAWAY BEACH","NY","11693-1415","Queens","Enrolled","Not Enrolled","414","32","100","4161190071","4303399","1036047","154426","40.590389","-73.813503","94202","Hammels-Arverne-Edgemere","POINT (-73.813503 40.59038900000001)"
"2008453-DCA","Active","BLUE WRENCH AUTO & TOWING SERVICE INC.",,"1819","W FARMS RD",,"BRONX","NY","10460-6026","Bronx","Enrolled",,"203","17","42","2030150085","2094597","1016863","244117","40.836786","-73.882152","161","Crotona Park East","POINT (-73.882152 40.836786)"
"0945325-DCA","Active","KENBEN INDUSTRIES LTD.",,"364","MASPETH AVE",,"BROOKLYN","NY","11211-1704","Brooklyn","Not Enrolled","Not Enrolled","301","34","90","3029280001","3338349","1003830","201092","40.718606","-73.929366","449","East Williamsburg","POINT (-73.929366 40.718606)"
"2052440-DCA","Active","GRAND AUTO REPAIR SERVICES, INC.",,"475","SENECA AVE",,"RIDGEWOOD","NY","11385-1644","Queens",,,"405","34","104","4034310012","4437706","1008438","196437","40.705818","-73.91276","545","Ridgewood","POINT (-73.91276 40.705818)"
"1277702-DCA","Active","SOUTH ROAD TOWING INC.",,"14729","SOUTH ROAD",,"JAMAICA","NY","11435-5107","Queens","Enrolled","Not Enrolled","412","28","103","4100600018","4215054","1039163","192428","40.694677","-73.801975","204","Jamaica","POINT (-73.801975 40.694677)"
"2028247-DCA","Active","SPRAY CITY COLLISION INC",,"1316","CASTLETON AVE",,"STATEN ISLAND","NY","10310-1741","Staten Island","Enrolled",,"501","49","120","5002150029","5005722","949088","170211","40.633797","-74.126684","13302","West New Brighton-New Brighton-St. George","POINT (-74.126684 40.633797)"
"2067714-DCA","Active","MUKTI TOWING INC",,"7910","SPRINGFIELD BLVD",,"OAKLAND GARDENS","NY","11364-3651","Queens",,,"411","23","111","4077800001","4164475","1054196","207927","40.737112","-73.747602","129104","Oakland Gardens","POINT (-73.747602 40.737112)"
"2047096-DCA","Active","SHOWTIME RECOVERY CORP",,"1346","BLONDELL AVE",,"BRONX","NY","10461-2619","Bronx","Enrolled",,"211","13","49","2041340001","2045728","1027925","246058","40.84194","-73.842152","284","Van Nest-Morris Park-Westchester Square","POINT (-73.842152 40.84194)"
"1411998-DCA","Active","MIDBRONX TOWING, LLC",,"454","E 183RD ST",,"BRONX","NY","10458-7902","Bronx","Enrolled","Not Enrolled","206","15","48","2030380187","2129348","1013607","250994","40.855547","-73.893878","385","Claremont-Bathgate","POINT (-73.893878 40.855547)"
"2093017-DCA","Active","N.Y. CONFIDENTIAL TOWING INC","N.Y. CONFIDENTIAL TOWING","773","BERGEN ST",,"BROOKLYN","NY","11238-3601","Brooklyn","Enrolled",,"308","35","77","3011400044","3027975","994582","186396","40.678285","-73.96275","203","Prospect Heights","POINT (-73.96275 40.678285)"
"1261507-DCA","Active","LOUIE TOWING INC.",,"490","3RD AVE",,"BROOKLYN","NY","11215-3807","Brooklyn","Not Enrolled","Not Enrolled","306","39","78","3010140051","3022437","986520","183566","40.670523","-73.991817","121","Park Slope-Gowanus","POINT (-73.991817 40.670523)"
"1196757-DCA","Active","RUNWAY TOWING CORP.",,"12420","S CONDUIT AVE",,"SOUTH OZONE PARK","NY","11420-4250","Queens","Enrolled","Enrolled","410","28","106","4118930019","4442273","1035168","181664","40.665156","-73.816462","84602","South Ozone Park","POINT (-73.816462 40.665156)"
"0832915-DCA","Active","GULLOTTA'S AUTO REPAIR, INC.",,"2454","47TH ST",,"ASTORIA","NY","11103-1010","Queens","Enrolled","Not Enrolled","401","22","114","4007320022","4013579","1010432","218412","40.7662","-73.905424","141","Astoria","POINT (-73.905424 40.7662)"
"0895626-DCA","Active","FORRESTER'S TOWING INC.",,"723","UTICA AVE",,"BROOKLYN","NY","11203-2211","Brooklyn","Not Enrolled","Not Enrolled","317","41","67","3046370033","3327580","1003450","178195","40.65576","-73.930802","868","Rugby-Remsen Village","POINT (-73.930802 40.65576)"
"1348334-DCA","Active","PAWAR BROS CORP.",,"7435","GRAND AVE",,"ELMHURST","NY","11373-4126","Queens","Enrolled","Not Enrolled","405","30","104","4024920078","4058130","1015538","205364","40.730298","-73.88711","499","Elmhurst","POINT (-73.88711 40.730298)"
"2087575-DCA","Active","KWIK AUTOMOTIVE LLC",,"5435","48TH ST",,"MASPETH","NY","11378-1005","Queens","Enrolled",,"402","30","108","4025570080","4437452","1006672","205230","40.729957","-73.9191","205","Hunters Point-Sunnyside-West Maspeth","POINT (-73.9191 40.729957)"
"1380502-DCA","Active","AUTORINO MOTORSPORTS, INC.",,"13814","101ST AVE",,"JAMAICA","NY","11435-4623","Queens","Revoked","Not Enrolled","412","28","103","4100180005","4214341","1036829","192313","40.694376","-73.810392","206","Jamaica","POINT (-73.810392 40.694376)"
"2003452-DCA","Active","BLUE BLOOD TOWING CORP",,"4301","94TH ST",,"ELMHURST","NY","11373-2872","Queens","Enrolled","Not Enrolled","404","25","110","4016010001","4039978","1020052","210544","40.744499","-73.870796","463","Elmhurst","POINT (-73.870796 40.744499)"
"2089906-DCA","Active","D & M AUTO REPAIRS, INC.","5 Star Auto Mall","1261","ZEREGA AVE",,"BRONX","NY","10462-5419","Bronx",,,"209","18","43","2038320037","2094876","1027063","243273","40.8343","-73.845285","96","Westchester-Unionport","POINT (-73.845285 40.8343)"
"1314213-DCA","Active","7 DAYS TOWING INC.",,"4519","BROADWAY",,"NEW YORK","NY","10040-2456","Manhattan","Enrolled","Not Enrolled","112","10","34","1021800652","1064478","1003171","252153","40.858757","-73.931599","279","Washington Heights North","POINT (-73.931599 40.858757)"
"1093889-DCA","Active","RICHMOND TOWING INC.",,"10616","148TH ST",,"JAMAICA","NY","11435-5102","Queens","Enrolled","Enrolled","412","28","103","4100600016","4215052","1039205","192804","40.695709","-73.80182","204","Jamaica","POINT (-73.80182 40.695709)"
"2022043-DCA","Active","TOWFESSIONAL AUTO REPAIR LLC",,"21785","98TH AVE",,"QUEENS VILLAGE","NY","11429-1230","Queens","Enrolled",,"413","27","105","4107590186","4230660","1056826","200421","40.716489","-73.738193","568","Queens Village","POINT (-73.738193 40.716489)"
"2082056-DCA","Active","Snap Towing Inc",,"1908","PARK AVE",,"NEW YORK","NY","10035-1152","Manhattan",,,"111","9","25","1017540040","1088156","1001708","233639","40.807944","-73.936936","206","Central Harlem North-Polo Grounds","POINT (-73.936936 40.807944)"
"1388687-DCA","Active","KOEPPEL NISSAN, INC.",,"7415","NORTHERN BLVD",,"JACKSON HEIGHTS","NY","11372-1146","Queens","Not Enrolled","Not Enrolled","403","25","115","4011700038","4026557","1014012","214293","40.754811","-73.892576","30903","Jackson Heights","POINT (-73.892576 40.754811)"
"1437956-DCA","Active","AA'S TOWING & COLLISION INC.",,"79","14TH ST",,"BROOKLYN","NY","11215-4607","Brooklyn","Enrolled","Not Enrolled","306","39","78","3010320060","3023332","985618","183085","40.669203","-73.995069","117","Park Slope-Gowanus","POINT (-73.99506900000002 40.669203)"
"1457231-DCA","Active","BEN & NINO AUTO REPAIR INC.",,"2603","STILLWELL AVE",,"BROOKLYN","NY","11223-5828","Brooklyn","Enrolled","Enrolled","313","47","60","3072250090","3329395","988997","152178","40.584369","-73.98291","308","Gravesend","POINT (-73.98291 40.584369)"
"0832845-DCA","Active","E & L MOTORS CORP.",,"1062","UTICA AVE",,"BROOKLYN","NY","11203-5306","Brooklyn","Not Enrolled","Not Enrolled","317","45","67","3047340026","3104300","1003706","175020","40.647045","-73.929889","850","East Flatbush-Farragut","POINT (-73.929889 40.647045)"
"1247184-DCA","Active","MASTERMIND TOWING, INC.",,"3628","14TH ST",,"LONG ISLAND CITY","NY","11106-4704","Queens","Not Enrolled","Not Enrolled","401","26","114","4003500031","4004285","1001484","216076","40.759739","-73.937791","43","Queensbridge-Ravenswood-Long Island City","POINT (-73.937791 40.759739)"
"2042652-DCA","Active","I-TOW TOWING INC.",,"8691","18TH AVE",,"BROOKLYN","NY","11214-3733","Brooklyn",,,"311","43","62",,,"982997","159876","40.605488","-74.004494","278","Bensonhurst West","POINT (-74.004494 40.605488)"
"0885845-DCA","Active","CARRIAGE HOUSE RECOVERY CORP",,"6134","FRESH MEADOW LN",,"FRESH MEADOWS","NY","11365-2019","Queens","Enrolled","Not Enrolled","408","24","107","4069010052","4149066","1040829","208066","40.737589","-73.795835","1223","Pomonok-Flushing Heights-Hillcrest","POINT (-73.795835 40.737589)"
"2030122-DCA","Active","A - 1 TOWING & AUTO REPAIR INC",,"528","W 39TH ST",,"NEW YORK","NY","10018-1105","Manhattan",,,"104","3","10","1007100011","1012524","984755","215534","40.758268","-73.998177","117","Hudson Yards-Chelsea-Flatiron-Union Square","POINT (-73.998177 40.758268)"
"2089098-DCA","Active","C & S TOWING INC",,"1112","44TH AVE",,"LONG ISLAND CITY","NY","11101-6916","Queens",,,"402","26","108","4004460034","4005227","998370","212509","40.749954","-73.949039","19","Hunters Point-Sunnyside-West Maspeth","POINT (-73.949039 40.749954)"
"1406714-DCA","Active","AMAZING TOWING INC.",,"14","CLINTON AVE",,"BROOKLYN","NY","11205-1107","Brooklyn","Not Enrolled","Not Enrolled","302","35","88","3018720036","3332259","992671","193307","40.697256","-73.969631","211","Fort Greene","POINT (-73.969631 40.697256)"
"1426317-DCA","Active","JAEWOONG LEE, INC","NEW SAM SUNG TOWING","3125","COLLEGE POINT BLVD",,"FLUSHING","NY","11354-2511","Queens","Not Enrolled","Not Enrolled","407","19","109","4043850024","4100758","1028344","219281","40.768442","-73.840814","907","College Point","POINT (-73.840814 40.768442)"
"2079570-DCA","Active","PHANTOM AUTO COLLISION INC.",,"18122","93RD AVE",,"JAMAICA","NY","11423-2308","Queens",,,"412","27","103","4103220040","4220083","1045503","197253","40.707879","-73.779068","444","Jamaica","POINT (-73.779068 40.707879)"
"2009846-DCA","Active","JUSTIN'S TOWING & STORAGE INC",,"10001","LIBERTY AVE",,"OZONE PARK","NY","11417-1723","Queens","Not Enrolled",,"410","32","106","4095040037","4000000","1028616","187486","40.681172","-73.840041","112","Richmond Hill","POINT (-73.840041 40.681172)"
"0942588-DCA","Active","L.K.J. TOWING CORP.",,"225","UNION AVE",,"BROOKLYN","NY","11211-6506","Brooklyn","Not Enrolled","Not Enrolled","301","34","90","3024520012","3000000","997979","196876","40.707046","-73.950482","527","North Side-South Side","POINT (-73.950482 40.707046)"
"1083661-DCA","Active","ROADWAY TOWING INC",,"80","GEORGIA AVE",,"BROOKLYN","NY","11207-2402","Brooklyn","Enrolled","Not Enrolled","305","37","75","3036840029","3083480","1012368","185209","40.674988","-73.898632","1198","East New York","POINT (-73.898632 40.674988)"
"0833376-DCA","Active","JOHNNY'S AUTO BODY INC.",,"267","BROADWAY",,"STATEN ISLAND","NY","10310-1338","Staten Island","Enrolled","Not Enrolled","501","49","120","5001770004","5004879","951701","170625","40.634943","-74.117272","105","New Brighton-Silver Lake","POINT (-74.117272 40.634943)"
"2016364-DCA","Active","AAA NORTHEAST",,"5870","54TH ST",,"MASPETH","NY","11378-3002","Queens",,,"405","30","104","4026110158","4059008","1007833","200908","40.718092","-73.914926","535","Maspeth","POINT (-73.914926 40.718092)"
"1340796-DCA","Active","SPEED KOREA TOWING CORP.",,"13239","34TH AVE",,"FLUSHING","NY","11354-2705","Queens","Not Enrolled","Not Enrolled","407","20","109","4049440042","4111877","1029778","218145","40.765317","-73.835644","869","Flushing","POINT (-73.835644 40.765317)"
"0959364-DCA","Active","GOLDENBERG, GARY S","A-STAR TOWING","2064","JEROME AVE",,"BRONX","NY","10453-1817","Bronx","Not Enrolled","Not Enrolled","205","14","46","2031790004","2127653","1010010","250537","40.854304","-73.906882","241","Mount Hope","POINT (-73.906882 40.854304)"
"1120129-DCA","Active","FLEET AUTO ENTERPRISE, INC",,"169","2ND AVE",,"BROOKLYN","NY","11215-4616","Brooklyn","Not Enrolled","Not Enrolled","306","39","78","3010320006","3023312","985482","183368","40.66998","-73.995559","117","Park Slope-Gowanus","POINT (-73.995559 40.66998)"
"2083444-DCA","Active","LEGACY TOWING INC.",,"20106","HILLSIDE AVE",,"HOLLIS","NY","11423-2135","Queens",,,"412","23","103","4104950052","4223521","1050063","201578","40.719717","-73.762578","478","Jamaica Estates-Holliswood","POINT (-73.762578 40.719717)"
"2047828-DCA","Active","SHAWN TOWING INC",,"9061","PITKIN AVE",,"OZONE PARK","NY","11417-2706","Queens",,,"410","32","106","4113720046","4448907","1027435","184333","40.672518","-73.844323","58","Ozone Park","POINT (-73.844323 40.672518)"
"2054675-DCA","Active","BEN & NINO AUTOBODY CORP",,"1900","MCDONALD AVE",,"BROOKLYN","NY","11223-1829","Brooklyn","Enrolled","Not Enrolled","311","44","62","3066570006","3177119","991876","160180","40.60633","-73.972536","412","Bensonhurst East","POINT (-73.972536 40.60633)"
"0833108-DCA","Active","LUDLOW GARAGE, INC.",,"151","ATTORNEY ST",,"NEW YORK","NY","10002-1812","Manhattan","Not Enrolled","Not Enrolled","103","2","7","1003500071","1004279","988830","201711","40.720326","-73.983477","2201","Lower East Side","POINT (-73.983477 40.720326)"
"1430158-DCA","Active","SPLIT SECOND COLLISION LTD",,"1856","41ST ST",,"ASTORIA","NY","11105-1025","Queens","Enrolled","Not Enrolled","401","22","114","4008020165","4015688","1012593","222967","40.778624","-73.897662","12301","Steinway","POINT (-73.897662 40.778624)"
"0882789-DCA","Active","A&J AUTOMOTIVE, INC.",,"7006","GARFIELD AVE",,"WOODSIDE","NY","11377-6030","Queens","Enrolled","Not Enrolled","402","30","108","4024400016","4056402","1013629","207811","40.737021","-73.893987","489","Elmhurst-Maspeth","POINT (-73.893987 40.737021)"
"2021876-DCA","Active","BRIELLE AUTOMOTIVE INC",,"1319","CASTLETON AVE",,"STATEN ISLAND","NY","10310-1704","Staten Island","Enrolled",,"501","49","120","5002050079","5005501","949052","170213","40.633802","-74.126814","13302","West New Brighton-New Brighton-St. George","POINT (-74.126814 40.633802)"
"0833046-DCA","Active","KNIGHTS COLLISION EXPERTS, INC.",,"27","CONWAY ST",,"BROOKLYN","NY","11207-1805","Brooklyn","Enrolled","Enrolled","304","37","83","3034740049","3000000","1010927","186836","40.679459","-73.90382","405","Bushwick South","POINT (-73.90382 40.679459)"
"1158820-DCA","Active","TOWTRUCK REPAIR SERVICE, INC.",,"1011","E 46TH ST",,"BROOKLYN","NY","11203-6515","Brooklyn","Enrolled","Not Enrolled","317","45","67","3050230055","3114549","1002949","171091","40.636262","-73.932627","932","East Flatbush-Farragut","POINT (-73.932627 40.636262)"
"2047571-DCA","Active","TOWORKS INC",,"75","BRIDGEWATER ST",,"BROOKLYN","NY","11222-3818","Brooklyn",,,"301","33","94","3026620030","3331524","1001553","204473","40.727875","-73.937521","593","Greenpoint","POINT (-73.937521 40.727875)"
"2004636-DCA","Active","ALLSTAR AUTOMOTIVE CORP.",,"3730","MERRITT AVE",,"BRONX","NY","10466-6117","Bronx","Enrolled",,"212","12","47","2049520060","2097426","1031462","262484","40.887006","-73.829253","484","Eastchester-Edenwald-Baychester","POINT (-73.829253 40.887006)"
"0920090-DCA","Active","RAZ, AVINOAM","LIGHTNING TOWING","2350","MCDONALD AVE",,"BROOKLYN","NY","11223-4740","Brooklyn","Not Enrolled","Not Enrolled","315","47","61","3071460040","3193436","991597","155994","40.594841","-73.973545","398","Gravesend","POINT (-73.973545 40.594841)"
"1352907-DCA","Active","T.J. AUTO DOCTOR INC.",,"3602","21ST ST",,"ASTORIA","NY","11106-4706","Queens","Not Enrolled","Not Enrolled","401","26","114","4003490016","4004274","1001707","216060","40.759694","-73.936986","43","Queensbridge-Ravenswood-Long Island City","POINT (-73.936986 40.759694)"
"1298807-DCA","Active","FRIENDLY EXPRESS TOWING LLC",,"7541","YELLOWSTONE BLVD",,"REGO PARK","NY","11374-5340","Queens","Not Enrolled","Not Enrolled","406","29","112","4031780070","4075320","1023331","199594","40.71443","-73.859026","703","Rego Park","POINT (-73.859026 40.71443)"
"2084642-DCA","Active","HAUL MASTER LLC",,"10518","150TH ST",,"JAMAICA","NY","11435-5018","Queens","Enrolled","Enrolled","412","28","103","4100620027","4000000","1039186","193202","40.696801","-73.801885","204","Jamaica","POINT (-73.801885 40.696801)"
"2092574-DCA","Active","JENSEN TOWING CORP",,"4522","PARK AVE",,"BRONX","NY","10457-1332","Bronx",,,"206","15","48","2030380011","2011333","1013302","250889","40.85526","-73.894981","385","Claremont-Bathgate","POINT (-73.894981 40.85526)"
"1381292-DCA","Active","BUS MAINTENANCE CORP.",,"9714","ATLANTIC AVE",,"OZONE PARK","NY","11416-1620","Queens","Not Enrolled","Not Enrolled","409","32","102","4090420001","4187795","1027159","190393","40.689158","-73.845276","32","Woodhaven","POINT (-73.845276 40.689158)"
"0914305-DCA","Active","FIVE J'S AUTOMOTIVE LTD.",,"809","ZEREGA AVE",,"BRONX","NY","10473-1121","Bronx","Enrolled","Enrolled","209","18","43","2036960032","2023213","1027710","239645","40.824339","-73.842971","98","Westchester-Unionport","POINT (-73.842971 40.824339)"
"0854287-DCA","Active","CARRIAGE HOUSE COLLISION, INC",,"6128","FRESH MEADOW LN",,"FRESH MEADOWS","NY","11365-2019","Queens","Enrolled","Enrolled","408","24","107","4069010048","4149065","1040828","208067","40.737592","-73.795839","1223","Pomonok-Flushing Heights-Hillcrest","POINT (-73.795839 40.737592)"
"2027209-DCA","Active","FINEST AUTOMOTIVE RECOVERY INC",,"249","56TH ST",,"BROOKLYN","NY","11220-2614","Brooklyn",,,"307","38","72","3008290055","3014881","978901","174288","40.64511","-74.019365","22","Sunset Park West","POINT (-74.019365 40.64511)"
"2067474-DCA","Active","STREET SCIENCE AUTOMOTIVE, INC.",,"872","E 149TH ST",,"BRONX","NY","10455-5012","Bronx",,,"201","8","40","2026000202","2004101","1010994","234877","40.811319","-73.903388","31","Mott Haven-Port Morris","POINT (-73.903388 40.811319)"
"0992248-DCA","Active","MARK'S AUTOMOTIVE INC",,"51","GRATTAN ST",,"BROOKLYN","NY","11237-1601","Brooklyn","Enrolled","Enrolled","301","34","90","3030030025","3251793","1003370","196416","40.705773","-73.931039","453","Bushwick North","POINT (-73.93103900000001 40.705773)"
"1412004-DCA","Active","K-SPEED TOWING INC.",,"220","RANDOLPH ST",,"BROOKLYN","NY","11237-1315","Brooklyn","Not Enrolled","Not Enrolled","301","34","90","3029890009","3323443","1005239","197952","40.709985","-73.924293","449","East Williamsburg","POINT (-73.924293 40.709985)"
"2045900-DCA","Active","BULLY BOY TOWING ENTERPRISES INC",,"14920","ROCKAWAY BLVD",,"JAMAICA","NY","11436-1640","Queens","Enrolled",,"412","28","113","4121040022","4262729","1042850","184578","40.673107","-73.788747","788","Baisley Park","POINT (-73.788747 40.673107)"
"2001990-DCA","Active","EMPIRE STATE TOWING INC",,"1403","STORY AVE",,"BRONX","NY","10473-4913","Bronx","Enrolled","Enrolled","209","17","43","2036460001","2022553","1016699","238389","40.820939","-73.882762","28","Soundview-Castle Hill-Clason Point-Harding Park","POINT (-73.882762 40.820939)"
"0851351-DCA","Active","CROWN TOWING SERVICE INC.",,"1615","MCDONALD ST",,"BRONX","NY","10461-2312","Bronx","Enrolled","Enrolled","211","13","49","2042230101","2047121","1028175","250784","40.85491","-73.841218","296","Pelham Parkway","POINT (-73.841218 40.85491)"
"0832942-DCA","Active","FLEET AUTO CARE CENTER INC","BRIGHTON COLLISION","1665","MCDONALD AVE",,"BROOKLYN","NY","11230-6312","Brooklyn","Enrolled","Not Enrolled","312","44","66","3065830071","3173548","991574","162303","40.612158","-73.973621","440","Ocean Parkway South","POINT (-73.973621 40.612158)"
"1196452-DCA","Active","BROOKLYN EXPRESS TOWING INC.",,"4314","FARRAGUT RD",,"BROOKLYN","NY","11203-6520","Brooklyn","Enrolled","Not Enrolled","317","45","67","3050180044","3114515","1002322","171386","40.637065","-73.935044","836","East Flatbush-Farragut","POINT (-73.935044 40.637065)"
"1419298-DCA","Active","YELLOW BIRD AUTO CENTER INC.",,"6302","16TH AVE",,"BROOKLYN","NY","11204-2703","Brooklyn","Enrolled","Not Enrolled","311","38","62","3055370037","3133021","985971","166283","40.623085","-73.9938","250","Bensonhurst West","POINT (-73.9938 40.623085)"
"1015604-DCA","Active","MIKE'S HEAVY DUTY TOWING INC.",,"816","LIBERTY AVE",,"BROOKLYN","NY","11208-2410","Brooklyn","Not Enrolled","Not Enrolled","305","37","75","3039910008","3319649","1017691","185917","40.676913","-73.879438","1192","East New York","POINT (-73.879438 40.676913)"
"2087459-DCA","Active","VMA AUTOMOTIVE LLC",,"5425","FLUSHING AVE",,"MASPETH","NY","11378-3023","Queens","Not Enrolled","Not Enrolled","405","30","104","4026290041","4059053","1008431","199927","40.715397","-73.912772","535","Maspeth","POINT (-73.912772 40.715397)"
"1264145-DCA","Active","ISLAND DETAILING ETC. INC.",,"104","HAWKINS ST",,"BRONX","NY","10464-1455","Bronx","Enrolled","Not Enrolled","210","13","45","2056290223","2082165","1043126","247656","40.846238","-73.7872","516","Pelham Bay-Country Club-City Island","POINT (-73.7872 40.846238)"
"2090432-DCA","Active","EMS AUTOMOTIVE I INC",,"9015","LIBERTY AVE",,"OZONE PARK","NY","11417-1336","Queens",,,"410","32","106","4091100022","4438514","1026256","187066","40.68003","-73.848553","54","Ozone Park","POINT (-73.84855300000001 40.68003)"
"2017181-DCA","Active","BROOKLYN TOWING INC",,"740","CONEY ISLAND AVE",,"BROOKLYN","NY","11218-4333","Brooklyn","Enrolled",,"312","40","66","3053780038","3126328","992890","172274","40.639525","-73.968868","492","Kensington-Ocean Parkway","POINT (-73.968868 40.639525)"
"0885875-DCA","Active","PINILLA, GEORGE","G P TOWING","15016","LIBERTY AVE",,"JAMAICA","NY","11433-1036","Queens","Not Enrolled","Not Enrolled","412","28","103","4101100012","4215659","1039108","193621","40.697952","-73.802163","204","Jamaica","POINT (-73.802163 40.697952)"
"2043586-DCA","Active","OZ TOWING & RECOVERY INC",,"9820","LINDEN BLVD",,"OZONE PARK","NY","11417-2524","Queens",,,"410","32","106","4115190074","4248591","1029494","185140","40.674728","-73.836891","864","South Ozone Park","POINT (-73.836891 40.674728)"
"2011544-DCA","Active","INTERNATIONAL TOWING INC",,"4557","FURMAN AVE",,"BRONX","NY","10470-1601","Bronx","Enrolled",,"212","11","47","2050840061","2071143","1025344","267491","40.900779","-73.851349","434","Woodlawn-Wakefield","POINT (-73.851349 40.900779)"
"0882581-DCA","Active","BIG CITY AUTO BODY & TOWING SERVICE CORP OF NY",,"3724","13TH ST",,"LONG ISLAND CITY","NY","11101-6025","Queens","Enrolled","Not Enrolled","401","26","114","4003620031","4004418","1001022","215712","40.75874","-73.939459","43","Queensbridge-Ravenswood-Long Island City","POINT (-73.939459 40.75874)"
"0966535-DCA","Active","ARENA, ENRICO","HENRY'S SERVICE CENTER","4414","ARTHUR KILL RD",,"STATEN ISLAND","NY","10309-1322","Staten Island","Enrolled","Not Enrolled","503","51","123","5073800070","5086848","918642","134120","40.534562","-74.236027","226","Charleston-Richmond Valley-Tottenville","POINT (-74.236027 40.534562)"
"2076600-DCA","Active","PACHECO EMPIRE GROUP, INC",,"3716","22ND ST",,"LONG ISLAND CITY","NY","11101-3505","Queens","Enrolled",,"401","26","114","4003640035","4004425","1001617","215415","40.757924","-73.937312","33","Queensbridge-Ravenswood-Long Island City","POINT (-73.937312 40.75792400000001)"
"2061825-DCA","Active","KENBEN INDUSTRIES LTD.",,"1870","SHORE PKWY",,"BROOKLYN","NY","11214-6626","Brooklyn",,,"311","43","62","3069430162","3329302","986022","154260","40.590084","-73.99362","314","Gravesend","POINT (-73.99362 40.590084)"
"0838404-DCA","Active","UNIVERSE TOWING INC.",,"1825","GIVAN AVE",,"BRONX","NY","10469-3179","Bronx","Enrolled","Not Enrolled","212","12","47","2047530113","2061544","1028550","258629","40.87644","-73.83981","358","Eastchester-Edenwald-Baychester","POINT (-73.83981 40.87644)"
"2089307-DCA","Active","RATTAN TOWING INC.",,"6515","COOPER AVE",,"GLENDALE","NY","11385-6934","Queens",,,"405","30","104","4036000060","4087254","1015109","193848","40.698691","-73.888711","577","Glendale","POINT (-73.888711 40.698691)"
"1388330-DCA","Active","AL & SELWYN, INC.",,"3755","NOSTRAND AVE",,"BROOKLYN","NY","11235-1907","Brooklyn","Not Enrolled","Not Enrolled","315","48","61","3074220053","3203176","1000824","155097","40.592366","-73.940323","59402","Sheepshead Bay-Gerritsen Beach-Manhattan Beach","POINT (-73.940323 40.592366)"
"0832860-DCA","Active","GENERAL AUTO BODY WORKS, INC.",,"10757","MERRICK BLVD",,"JAMAICA","NY","11433-2416","Queens","Enrolled","Enrolled","412","27","103","4102440217","4218315","1043203","193946","40.698818","-73.787392","414","South Jamaica","POINT (-73.787392 40.698818)"
"1428644-DCA","Active","FELIX BUSHWICK AUTO SALES & REPAIR CORP.",,"940","WYCKOFF AVE",,"BROOKLYN","NY","11237-6118","Brooklyn","Not Enrolled","Not Enrolled","304","37","83","3034070034","3078714","1010345","193085","40.696513","-73.905718","439","Bushwick North","POINT (-73.905718 40.696513)"
"1459771-DCA","Active","SMOKIN ACES INC.",,"476","FENIMORE ST",,"BROOKLYN","NY","11203-1502","Brooklyn","Enrolled","Not Enrolled","309","40","71","3000000000","0","999056","179343","40.65892","-73.946636","810","Prospect Lefferts Gardens-Wingate","POINT (-73.946636 40.65892)"
"1228220-DCA","Active","MOONLIGHT TOWING INC.",,"558","W 44TH ST",,"NEW YORK","NY","10036-3425","Manhattan","Not Enrolled","Not Enrolled","104","3","18","1010720059","1026933","985247","216786","40.761704","-73.996401","129","Clinton","POINT (-73.996401 40.761704)"
"2079897-DCA","Active","POPEYE AUTOMOTIVE CORP",,"1349","DUMONT AVE",,"BROOKLYN","NY","11208-4517","Brooklyn","Enrolled",,"305","42","75","3042830050","3096094","1020847","183463","40.670165","-73.868074","1208","East New York","POINT (-73.868074 40.670165)"
"1334147-DCA","Active","THROOP AUTO REPAIR INC","GUIDO'S AUTO","128","THROOP AVE",,"BROOKLYN","NY","11206-4414","Brooklyn","Enrolled","Not Enrolled","301","33","90","3022740013","3256289","999559","194630","40.700878","-73.944788","507","Bedford","POINT (-73.944788 40.700878)"
"1439775-DCA","Active","5 BOROUGH RECOVERY LLC","CUSTOM TOWING","84","GRANITE AVE",,"STATEN ISLAND","NY","10303-2745","Staten Island","Enrolled","Not Enrolled","501","49","121","5011570031","5026644","943255","170798","40.635383","-74.147703","223","Mariner's Harbor-Arlington-Port Ivory-Graniteville","POINT (-74.147703 40.635383)"
"0941455-DCA","Active","REMCO TRANSMISSIONS, INC.",,"774","ALABAMA AVE",,"BROOKLYN","NY","11207-7717","Brooklyn","Not Enrolled","Not Enrolled","305","42","75","3043430010","3097649","1013988","178707","40.657136","-73.89282","1104","East New York","POINT (-73.89282 40.657136)"
"0833090-DCA","Active","J&J TOWING AND TRANSPORATION INC",,"25","GRILLE CT",,"STATEN ISLAND","NY","10309-1400","Staten Island","Not Enrolled","Not Enrolled","503","51","123","5071200170","5111443","920793","138291","40.546026","-74.228328","226","Charleston-Richmond Valley-Tottenville","POINT (-74.228328 40.546026)"
"2033256-DCA","Active","EPIC TOWING INC",,"3535","STEINWAY ST",,"LONG ISLAND CITY","NY","11101-1415","Queens",,,"401","26","114","4006690008","4010879","1005693","214181","40.754528","-73.922604","157","Astoria","POINT (-73.922604 40.754528)"
"2083613-DCA","Active","J&J PRESTIGE AUTO COLLISION & REPAIR INC.",,"2321","BATHGATE AVE",,"BRONX","NY","10458-7818","Bronx","Enrolled",,"206","15","48","2030530051","2120552","1014351","250898","40.855281","-73.891189","385","Claremont-Bathgate","POINT (-73.891189 40.855281)"
"1120952-DCA","Active","TRI-STATE AUTOMOTIVE  CORP.",,"610","W 45TH ST",,"NEW YORK","NY","10036-1903","Manhattan","Not Enrolled","Not Enrolled","104","3","18","1010920016","1080977","984978","217235","40.762937","-73.997372","129","Clinton","POINT (-73.997372 40.762937)"
"1072377-DCA","Active","DOLPHIN TRANSMISSIONS, INC.",,"8501","FLATLANDS AVE",,"BROOKLYN","NY","11236-3605","Brooklyn","Not Enrolled","Not Enrolled","318","46","69","3080060007","3224527","1009362","171712","40.637951","-73.909519","958","Canarsie","POINT (-73.909519 40.637951)"
"2048564-DCA","Active","XTREME AUTOMOTIVE INC.",,"1453","118TH ST",,"COLLEGE POINT","NY","11356-1561","Queens",,,"407","19","109","4040700046","4098155","1025945","225127","40.7845","-73.849438","929","College Point","POINT (-73.849438 40.7845)"
"1310426-DCA","Active","ALERT TOWING & COLLISION INC.",,"218","48TH ST",,"BROOKLYN","NY","11220-1012","Brooklyn","Not Enrolled","Not Enrolled","307","38","72","3007720014","3012509","980045","176030","40.649838","-74.015154","20","Sunset Park West","POINT (-74.015154 40.649838)"
"1399949-DCA","Active","HCC COLLISION, INC.",,"19212","47TH AVE",,"FLUSHING","NY","11358-3907","Queens","Enrolled","Not Enrolled","411","20","111","4056110001","4126860","1042891","213127","40.751467","-73.78835","1429","Auburndale","POINT (-73.78835 40.751467)"
"1423277-DCA","Active","MIDBRONX AUTOMOTIVE, LLC",,"3112","JEROME AVE",,"BRONX","NY","10468-1346","Bronx","Not Enrolled","Not Enrolled","207","11","52","2033210035","2017631","1015037","258049","40.874906","-73.888676","411","Bedford Park-Fordham North","POINT (-73.888676 40.874906)"
"1274665-DCA","Active","F & S TOWING INC.","SONNY'S COLLISION SPECIALISTS","10612","ATLANTIC AVE",,"OZONE PARK","NY","11416-1830","Queens","Not Enrolled","Not Enrolled","409","28","102","4093880005","4197190","1028927","191057","40.690972","-73.838896","116","Richmond Hill","POINT (-73.838896 40.690972)"
"2091425-DCA","Active","meljohn's auto repair llc",,"6091","60TH ST",,"MASPETH","NY","11378-3550","Queens",,,"405","30","104","4027350001","4061053","1010399","199515","40.714261","-73.905675","601","Maspeth","POINT (-73.905675 40.714261)"
"2094116-DCA","Active","ALLSTAR AUTOMOTIVE II CORP",,"3728","MERRITT AVE",,"BRONX","NY","10466-6117","Bronx","Enrolled",,"212","12","47","2049520060","2097426","1031463","262477","40.886987","-73.82925","484","Eastchester-Edenwald-Baychester","POINT (-73.82925 40.886987)"
"1354438-DCA","Active","EMS TOWING INC.",,"15011","GUINZBERG RD",,"JAMAICA","NY","11433-1502","Queens","Enrolled","Not Enrolled","412","28","103","4101100060","4215661","1039166","193421","40.697403","-73.801956","204","Jamaica","POINT (-73.801956 40.697403)"
