"type","name","location","contact_information","postcode","borough","latitude","longitude","community_board","council_district","census_tract","bin","bbl","nta"
"School Garden","LaGuardia Arts High School","100 Amsterdam Avenue (between West 64th and West 65th Sts)","lmars@schools.nyc.gov","10023","MANHATTAN","40.773629","-73.985273","7","6","151","1030341","1011560030","Lincoln Square                                                             "
"School Garden","MS 131 Dr. Sun Yat Sen Middle School","100 Hester Street (between Forsyth and Eldridge Sts)","PTAM@schools.nyc.gov","10002","MANHATTAN","40.716553","-73.993092","3","1","16","1082489","1003010003","Chinatown                                                                  "
"School Garden","MS 245 - The Computer School","100 West 77th Street (between Columbus and Amsterdam Aves)","hzymeck@schools.nyc.gov","10024","MANHATTAN","40.780822","-73.976855","7","6","161","1030178","1011480014","Upper West Side                                                            "
"School Garden","Murray Hill Academy","111 East 33rd Street (between Park and Lexington Aves)","Amannin3@schools.nyc.gov","10016","MANHATTAN","40.746176","-73.981241","5","2","72","1087537","1008897501","Murray Hill-Kips Bay                                                       "
"School Garden","PS 363 The Neighborhood School","121 East 3rd Street (between 1st Ave and Ave A)","DSpielberg@schools.nyc.gov","10009","MANHATTAN","40.724117","-73.986381","3","2","32","1005760","1004310014","East Village                                                               "
"School Garden","PS 63","121 East 3rd Street (between Ave A and 1st Ave)","DCameron2@schools.nyc.gov","10009","MANHATTAN","40.724117","-73.986381","3","2","32","1005760","1004310014","East Village                                                               "
"School Garden","School of the Future","127 East 22nd Street (at Lexington Ave)","SGOLDST5@schools.nyc.gov","10010","MANHATTAN","40.738952","-73.985479","5","2","68","1018014","1008780016","Gramercy                                                                   "
"School Garden","PS 72","131 East 104th Street (between Lexington and Park Aves)","ahernan7@schools.nyc.gov","10029","MANHATTAN","40.791179","-73.947776","11","8","166","1081340","1016320011","East Harlem South                                                          "
"School Garden","PS 166","132 West 89th Street (between Amsterdam and Columbus Aves)","dmastriano@schools.nyc.gov","10024","MANHATTAN","40.788865","-73.971847","7","6","173","1032308","1012190047","Upper West Side                                                            "
"School Garden","Edward A. Reynolds West Side High School","140 West 102nd Street (between Amsterdam and Columbus Aves)","jmctavi@schools.nyc.gov","10025","MANHATTAN","40.797559","-73.966837","7","7","189","1055911","1018550009","Upper West Side                                                            "
"School Garden","PS 30","144-176 East 128th Street (between Lexington and 3rd Aves)","tstinso@schools.nyc.gov","10035","MANHATTAN","40.805953","-73.935179","11","9","242","1054502","1017760020","East Harlem North                                                          "
"School Garden","H.S. The Urban Assembly for Green Careers","145 West 84th Street (between Columbus and Amsterdam Aves)","kdecker@uagreencareers.org","10024","MANHATTAN","40.785803","-73.974614","7","6","169","1032128","1012150001","Upper West Side                                                            "
"School Garden","PS 333","154 West 93rd Street (between Amsterdam and Columbus Aves)","clowenstein@schools.nyc.gov","10025","MANHATTAN","40.791728","-73.970845","7","6","177","1032522","1012230005","Upper West Side                                                            "
"School Garden","Central Park East 1 Elementary","1573 Madison Ave (between East 106th and East 107th Sts)","luehling@schools.nyc.gov","10029","MANHATTAN","40.793763","-73.949381","11","8","17401","1051515","1016120050","East Harlem South                                                          "
"School Garden","City As High School","16 Clarkson Street (between Hudson and Varick Sts)","acheng3@schools.nyc.gov","10014","MANHATTAN","40.729412","-74.006148","2","3","67","1009757","1005810054","West Village                                                               "
"School Garden","PS 163","163 West 97th Street (between Columbus and Amsterdam Aves)","dlopez17@schools.nyc.gov","10025","MANHATTAN","40.794264","-73.968706","7","7","185","1055908","1018520099","Upper West Side                                                            "
"School Garden","PS 175 Henry High Garnet","175 West 134th Street (between Adam Clayton Powell Jr Blvd and Lenox Ave)","kpereir@schools.nyc.gov","10030","MANHATTAN","40.814422","-73.943664","10","9","228","1058248","1019190006","Central Harlem North-Polo Grounds                                          "
"School Garden","PS 153 Adam Clayton Powell Jr","1750 Amsterdam Ave (between West 146th and West 147th Sts)","KBailey2@schools.nyc.gov","10031","MANHATTAN","40.826295","-73.946845","9","7","233","1081834","1020780019","Hamilton Heights                                                           "
"School Garden","PS 368 Hamilton Heights","1750 Amsterdam Avenue (between West 146th and West 147th Sts)","vvalentine@schools.nyc.gov","10031","MANHATTAN","40.826295","-73.946845","9","7","233","1081834","1020780019","Hamilton Heights                                                           "
"School Garden","PS 964","19 East 103rd St (between 5th and Madison Aves)","nsmith3@schools.nyc.gov","10029","MANHATTAN","40.792122","-73.951961","11","8","168","1051497","1016090007","East Harlem South                                                          "
"School Garden","PS 89 Liberty School","201 Warren Street (at West Street)","vnajjar@schools.nyc.gov","10282","MANHATTAN","40.716668","-74.013542","1","1","31703","1085568","1000160220","Battery Park City-Lower Manhattan                                          "
"Community Garden","City Hall Children's Garden at Tweed Courthouse","52 Chambers (between broadway and Park Row)","718-935-2000",,,,,,,,,,
"School Garden","Alain L. Locke Magnet School for Environmental Leadership","21 West 111th Street (between 5th and Lenox Aves)","SGreen8@schools.nyc.gov","10026","MANHATTAN","40.797874","-73.949699","10","9","186","1051410","1015950015","Central Harlem South                                                       "
"School Garden","Harlem Renaissance High School","22 East 128th Street (between 5th and Madison Aves)","nzeimer@schools.nyc.gov","10035","MANHATTAN","40.807987","-73.940061","11","9","206","1054159","1017520059","Central Harlem North-Polo Grounds                                          "
"School Garden","MS 167","220 East 76th Street (between 2nd and 3rd Aves)","jrehn@schools.nyc.gov","10021","MANHATTAN","40.77205","-73.958066","8","4","134","1044058","1014300005","Lenox Hill-Roosevelt Island                                                "
"School Garden","PS 347","225 East 23rd Street (between 2nd and 3rd Aves)","dbowell@schools.nyc.gov","10010","MANHATTAN","40.738534","-73.982423","6","2","64","1019775","1009040024","Gramercy                                                                   "
"School Garden","PS/MS 165 The Robert E. Simon School","234 West 109th Street (between Broadway and Amsterdam Aves)","acastel@schools.nyc.gov","10025","MANHATTAN","40.802917","-73.965613","7","7","195","1056676","1018800013","Morningside Heights                                                        "
"School Garden","PS 189","2580 Amsterdam Ave (between West 188th and West 189th Sts)","tluger2@schools.nyc.gov","10040","MANHATTAN","40.852631","-73.927604","12","10","277","1076750","1021590051","Washington Heights North                                                   "
"School Garden","Frederick Douglass Academy I","2581 Adam Clayton Powell Jr Blvd (between West 149th and West 150th Sts)","jgates@schools.nyc.gov","10039","MANHATTAN","40.824319","-73.93712","10","9","236","1060198","1020160100","Central Harlem North-Polo Grounds                                          "
"School Garden","PS 199","270 West 70th Street (between West End and Amsterdam Aves)","KRosen2@schools.nyc.gov","10023","MANHATTAN","40.778059","-73.984449","7","6","155","1030351","1011580040","Lincoln Square                                                             "
"School Garden","PS 110","285 Delancey Street (at Broome Street)","KFeuer@schools.nyc.gov","10002","MANHATTAN","40.715915","-73.979893","3","1","12","1004066","1003310140","Lower East Side                                                            "
"School Garden","Harbor Heights Middle School","306 Fort Washington Ave (between West 173rd and West 174th Sts)","MKlehr@schools.nyc.gov","10033","MANHATTAN","40.845469","-73.940468","12","10","263","1063503","1021420154","Washington Heights South                                                   "
"School Garden","PS 102","315 East 113th Street (between 1st and 2nd Aves)","cpinckn2@schools.nyc.gov","10029","MANHATTAN","40.794872","-73.938719","11","8","180","1081366","1016840101","East Harlem North                                                          "
"School Garden","PS 84","32 West 92nd Street (between CPW and Columbus Ave)","rsundic@schools.nyc.gov","10025","MANHATTAN","40.789526","-73.967574","7","6","177","1081042","1012050006","Upper West Side                                                            "
"School Garden","PS 11","320 West 21st Street (between 8th and 9th Aves)","rbender2@schools.nyc.gov","10011","MANHATTAN","40.744349","-74.000253","4","3","89","1013260","1007440024","Hudson Yards-Chelsea-Flatiron-Union Square                                 "
"School Garden","PS 15","333 East 4th Street (between Aves C and D)","isanchez11@schools.nyc.gov","10009","MANHATTAN","40.721807","-73.979022","3","2","2601","1004415","1003740020","Lower East Side                                                            "
"School Garden","Stuyvesant High School","345 Chambers Street (between West Street and River Terrace)","jzhang@schools.nyc.gov","10282","MANHATTAN","40.71759","-74.013748","1","1","31703","1084587","1000160215","Battery Park City-Lower Manhattan                                          "
"School Garden","PS/IS 180 Hugo Newman College Prep","370 West 120th Street (between Morningside and Manhattan Aves)","pmcfarl@schools.nyc.gov","10027","MANHATTAN","40.807843","-73.955569","10","9","257","1059111","1019460001","Central Harlem South                                                       "
"School Garden","MS 328","401 West 164th Street (between Amsterdam and Edgecombe Aves)","oquiles@schools.nyc.gov","10032","MANHATTAN","40.836536","-73.937159","12","10","24301","1062636","1021110024","Washington Heights South                                                   "
"School Garden","PS/MS 18","4124 9th Avenue (at 220th Street)","cmejia4@schools.nyc.gov","10034","MANHATTAN","40.871278","-73.911516","12","10","299","1082045","1022150824","Marble Hill-Inwood                                                         "
"School Garden","East Side Community High School","420 East 12th Street (between 1st Ave and Ave A)","mfederm@schools.nyc.gov","10009","MANHATTAN","40.729589","-73.982555","3","2","34","1005974","1004390017","East Village                                                               "
"School Garden","PS 146","421 East 106th Street (between 1st Ave and FDR Drive)","msilfen@schools.nyc.gov","10029","MANHATTAN","40.789295","-73.939262","11","8","162","1052999","1017000001","East Harlem South                                                          "
"School Garden","P.S./M.S. 278","421 West 219th Street (between Broadway and 9th Avenue)","mguido2@schools.nyc.gov","10034","MANHATTAN","40.871245","-73.912141","12","10","299","1064704","1022150831","Marble Hill-Inwood                                                         "
"School Garden","PS 6 Lillie D. Blake","45 E 81st St, New York, NY 10028","lauren.fontana@ps6nyc.org","10028","MANHATTAN","40.777455","-73.960713","8","4","142","1046668","1014930021","Upper East Side-Carnegie Hill                                              "
"School Garden","Columbia Secondary School for Math, Science, and Engineering","425 West 123rd Street (between Amsterdam and Morningside Aves)","jlevin@theclintonschool.net","10027","MANHATTAN","40.810431","-73.955809","9","7","20901","1059526","1019640012","Morningside Heights                                                        "
"School Garden","PS/IS 50","433 East 100th Street (between 1st Ave and FDR Drive)","crochez@schools.nyc.gov","10029","MANHATTAN","40.785258","-73.941526","11","8","162","1083933","1016940001","East Harlem South                                                          "
"School Garden","PS 48","4360-4378 Broadway (between West 186th and West 187th Sts)","twalsh@schools.nyc.gov","10033","MANHATTAN","40.853466","-73.934048","12","10","271","1076752","1021670029","Washington Heights North                                                   "
"School Garden","PS 94 The Spectrum School","442 East Houston Street (at Baruch Drive)","isanchez11@schools.nyc.gov","10002","MANHATTAN","40.719598","-73.977904","3","2","20","1004349","1003560100","Lower East Side                                                            "
"School Garden","PS 314 Muscota/Amistad","4862 Broadway (between Academy Street and West 204th Street)","marissa.anne.ayala@gmail.com","10034","MANHATTAN","40.866706","-73.923948","12","10","291","1064900","1022340007","Marble Hill-Inwood                                                         "
"School Garden","PS 3 John Melser Charrette School","490 Hudson Street (at Grove St)","Lsiegma@schools.nyc.gov","10014","MANHATTAN","40.732593","-74.006466","2","3","73","1009872","1005850041","West Village                                                               "
"School Garden","PS/MS 210 Twenty First Century Academy for Community Leaders","503 West 152nd Street (between Broadway and Amsterdam Ave)","elinare@schools.nyc.gov","10031","MANHATTAN","40.829848","-73.944826","9","7","237","1087824","1020840129","Hamilton Heights                                                           "
"School Garden","PS 37","508 East 120th Street (at Harlem River Drive)","dcatlin@schools.nyc.gov","10035","MANHATTAN","40.797467","-73.930868","11","8","192","1084005","1018160001","East Harlem North                                                          "
"School Garden","H.S. Law & Public Service","549 Audubon Avenue (between West 192nd and West 193rd Sts)","npoliti@schools.nyc.gov","10040","MANHATTAN","40.855954","-73.927051","12","10","277","1076751","1021600018","Washington Heights North                                                   "
"School Garden","P.S. / M.S. 276","55 Battery Place (between 1st and 2nd Place)","truyter@schools.nyc.gov","10280","MANHATTAN","40.70644","-74.017818","1","1","31704","1087945","1000160040","Battery Park City-Lower Manhattan                                          "
"School Garden","PS 79","55 East 120th Street (at Madison Ave)","gphillips@schools.nyc.gov","10035","MANHATTAN","40.802419","-73.942634","11","9","198","1053968","1017470001","East Harlem North                                                          "
"School Garden","Urban Assembly New York Harbor School","550 Short Avenue, Governor's Island","ebiedermann@schools.nyc.gov","10004","MANHATTAN","40.691214","-74.02024","1","1","5","1086340","1000010010","park-cemetery-etc-Manhattan                                                "
"School Garden","PS 364 The Earth School","600 East 6th Street (at Ave B)","AHAZUT@schools.nyc.gov","10009","MANHATTAN","40.72438","-73.98138","3","2","2601","1004627","1003870001","Lower East Side                                                            "
"School Garden","MS 839 Tompkins Square Middle School","600 East 6th Street (at Ave B)","seSTwic@schools.nyc.gov","10009","MANHATTAN","40.72438","-73.98138","3","2","2601","1004627","1003870001","Lower East Side                                                            "
"School Garden","PS/IS 217","645 Main Street, Roosevelt Island","mbeckma@schools.nyc.gov","10044","MANHATTAN","40.763894","-73.947916","8","5","23802","1084848","1013730001","Lenox Hill-Roosevelt Island                                                "
"School Garden","I.S. 52","650 Academy Street (between Broadway and Vermilyea Ave)","SFernan@schools.nyc.gov","10034","MANHATTAN","40.866053","-73.924835","12","10","291","1076776","1022330020","Marble Hill-Inwood                                                         "
"School Garden","P.S./M.S. 34","730 East 12th Street (between Aves C and D)","rgonzal52@schools.nyc.gov","10009","MANHATTAN","40.726473","-73.975181","3","2","28","1004564","1003810038","Lower East Side                                                            "
"School Garden","H.S. 418 Millenium","75 Broad Street (between Beaver and S Willam Street)","cmcevoy3@schools.nyc.gov","10004","MANHATTAN","40.704487","-74.011556","1","1","9","1000849","1000290070","Battery Park City-Lower Manhattan                                          "
"School Garden","PS 1","8 Henry Street (at Catherine St)","ahom@schools.nyc.gov","10038","MANHATTAN","40.71276","-73.997489","3","1","27","1003375","1002790040","Chinatown                                                                  "
"School Garden","PS 126","80 Catherine Street (between Cherry and Madison Sts)","jgetz@schools.nyc.gov","10038","MANHATTAN","40.710729","-73.996631","3","1","25","1083357","1001110160","Chinatown                                                                  "
"School Garden","Bread and Roses High School","Edgecombe Avenue between West 135th and West 136th Sts","rlofton@schools.nyc.gov",,,,,,,,,,
"School Garden","Midtown West (PS 212)","328 West 48th Street, New York, NY 10036","rbourke@schools.nyc.gov","10036","MANHATTAN","40.761448","-73.988019","4","3","127","1025092","1010380014","Clinton                                                                    "
"School Garden","PS 51 Elias Howe","525 W 44th St New York, NY","nbock@schools.nyc.gov","10036","MANHATTAN","40.761479","-73.995823","4","3","129","1089418","1010730014","Clinton                                                                    "
"School Garden","PS 150 Tribeca Learning Center","334 Greenwich St, New York, NY 10013","jbonnet@ps150.net","10013","MANHATTAN","40.718219","-74.010519","1","1","39","1083240","1001420025","SoHo-TriBeCa-Civic Center-Little Italy                                     "
"School Garden","NEST+m","111 Columbia Street, New York, NY 10002","OLivani@schools.nyc.gov","10002","MANHATTAN","40.718895","-73.979308","3","2","2201","1004070","1003350001","Lower East Side                                                            "
"School Garden","The Hunter College Campus Schools","71 E 94th St, New York, NY 10128","tfisher@hccs.hunter.cuny.edu","10128","MANHATTAN","40.785602","-73.954323","8","4","16001","1047404","1015060021","Upper East Side-Carnegie Hill                                              "
"Senior Center","BRC Neighborhood Senior Center","30 Delancey Street","(212) 533-2020 or kfong@brc.org","10002","MANHATTAN","40.719792","-73.992269","3","1","18","1079081","1004200001","Chinatown                                                                  "
"Senior Center","Find Hamilton Neighborhood Senior Center","141 WEST 73RD STREET","(212) 787 7710 or phall@projectfind.org","10023","MANHATTAN","40.778624","-73.979527","7","6","157","1030011","1011450012","Lincoln Square                                                             "
"Senior Center","Gaylord White Neighborhood Senior Center","2029 SECOND AVENUE","(212)-828-6056 or mlopez@unionsettlement.org","10029","MANHATTAN","40.789473","-73.943288","11","8","170","1080669","1016540011","East Harlem South                                                          "
"Senior Center","Goddard Riverside Neighborhood Senior Center","593 COLUMBUS AVENUE","(212) 873-6600 or slara@goddard.org","10024","MANHATTAN","40.788212","-73.970904","7","6","173","1079511","1012020001","Upper West Side                                                            "
"Senior Center","Good Companions Neighborhood Senior Center","334 MADISON STREET","(212) 477 0455 or slarosa@henrystreet.org","10002","MANHATTAN","40.713266","-73.983237","3","2","202","1077526","1002600001","Lower East Side                                                            "
"Senior Center","Hudson Guild Neighborhood Senior Center","119 NINTH AVENUE","(212) 924-6710 or fmiuzzo@hudsonguild.org","10011","MANHATTAN","40.743172","-74.00376","4","3","83","1078418","1007150010","Hudson Yards-Chelsea-Flatiron-Union Square                                 "
"Senior Center","Independence Plaza Neighborhood Senior Center","310 GREENWICH STREET","(212)-242-4140 ext. 254 director","10013","MANHATTAN","40.717604","-74.010667","1","1","39","1083243","1001420025","SoHo-TriBeCa-Civic Center-Little Italy                                     "
"Senior Center","Jefferson Houses Neighborhood Senior Center","2205 FIRST AVENUE","(212) 828-6098 or jrichardson@unionsettlement.org","10029","MANHATTAN","40.794319","-73.93665","11","8","180","1081091","1016840001","East Harlem North                                                          "
"Senior Center","Risa Neighborhood Senior Center","546 Main Street NY, NY 10044","(212)-980-1888 or risa546@yahoo.com","10044","MANHATTAN","40.761781","-73.949762","8","5","23801","1083202","1013730030","Lenox Hill-Roosevelt Island                                                "
"Senior Center","Stanley Isaac's Neighborhood Senior Center","415 East 93rd Street NY, NY 10128","(212)-360-7620 or gmorris@isaacscenter.org","10128","MANHATTAN","40.780904","-73.945112","8","5","152","1082367","1015730001","Yorkville                                                                  "
"Senior Center","The Center at the Red Oak Neighborhood Senior Center","135 West 106th Street NY, NY 10025","(212) -749-7015","10025","MANHATTAN","40.799919","-73.964459","7","7","193","1055957","1018610010","Morningside Heights                                                        "
"Senior Center","YM YWHA Innovative Senior Center","54 Nagle Avenue NY, NY 10040","(212)-569-6200 or dkatznelson@ywashhts.org","10040","MANHATTAN","40.859993","-73.929129","12","10","285","1064146","1021720064","Washington Heights North                                                   "
"Community Garden","Marian S. Heiskell Garden","315 West 48th Street (between 8th and 9th Aves)","212-788-7900","10036","MANHATTAN","40.761344","-73.987723","4","3","127","1025138","1010390024","Clinton                                                                    "
"Community Garden","El Sitio Feliz at Union Settlement","203 East 104th Street (between 2nd and 3rd Aves)","212-360-8800","10029","MANHATTAN","40.790217","-73.94553","11","8","170","1000000","1016540005","East Harlem South                                                          "
"Community Garden","PS 76 Garden","203 W. 120th Street (between St Nicholas Ave and Adam Clayton Poweel Jr Blvd)","212-788-7900","10027","MANHATTAN","40.80598","-73.951098","10","9","220","1000000","1019260027","Central Harlem South                                                       "
"Community Garden","Fifth Street Slope Children's Garden","626-27 E. 5th Street (between Aves B and C)","212-788-7900","10009","MANHATTAN","40.723433","-73.980995","3","2","2601","1075625","1003870020","Lower East Side                                                            "
"Community Garden","Generation X Cultural Garden","270 East 4th Street (between Aves B and C)","212-788-7900","10009","MANHATTAN","40.722906","-73.981662","3","2","2601","1000000","1003860021","Lower East Side                                                            "
"Community Garden","Randall's Island Urban Farm","inside Icahn Stadium, 20 Randall's Island","212-860-1899",,,,,,,,,,
"Community Garden","Isabella Geriatric Center Garden","515 Audubon Avenue (at 190th Street)","212-342-9200","10040","MANHATTAN","40.854783","-73.927909","12","10","277","1063861","1021600001","Washington Heights North                                                   "
"Community Garden","Dorothy K. McGowan Memorial Garden","509 W. 158th Street (between Amsterdam Ave and Broadway)","212-788-7900","10032","MANHATTAN","40.833733","-73.942141","12","7","245","1062772","1021170044","Washington Heights South                                                   "
"Community Garden","Morris Jumel Community Garden","455-457 W. 162nd Street (between Edgecombe and Amsterdam Aves)","212-788-7900","10032","MANHATTAN","40.835442","-73.939039","12","10","24301","1000000","1021100057","Washington Heights South                                                   "
"Community Garden","William A. Harris Garden","153rd Street & St. Nicholas Ave","212-788-7900",,,,,,,,,,
"Community Garden","Maggie's Garden","564 W. 149th Street (between Broadway and Amsterdam Aves)","646-667-8851 or info@nysomgroup.org","10031","MANHATTAN","40.828472","-73.947418","9","7","233","1000000","1020800058","Hamilton Heights                                                           "
"Community Garden","Margrichantie Memorial Garden","155-159 W. 133rd Street","212-788-7900","10030","MANHATTAN","40.813563","-73.943564","10","9","226","1000000","1019180011","Central Harlem North-Polo Grounds                                          "
"Community Garden","Our Little Green Acres","275-277 West 122nd Street","212-788-7900","10027","MANHATTAN","40.807872","-73.951693","10","9","222","1000000","1019280105","Central Harlem South                                                       "
"Community Garden","Carrie McCracken Garden","215 W. 117th Street (at St. Nicholas Ave)","212-678-1611","10026","MANHATTAN","40.804364","-73.953111","10","9","218","1000000","1019230018","Central Harlem South                                                       "
"Community Garden","Magic Garden","1665 Park Avenue","212-788-7900","10035","MANHATTAN","40.800245","-73.942524","11","8","182","1000000","1016450003","East Harlem North                                                          "
"Community Garden","Pleasant Village Community Garden","342-353 Pleasant Ave. /502 E. 119th St","212-788-7900",,,,,,,,,,
"Community Garden","Rodale Pleasant Park Community Garden","437-39 E. 114th St./448-450 E. 115th St","212-333-2552 or info@nyrp.org",,,,,,,,,,
"Community Garden","Herb Garden","176 E. 111th Street,","212-333-2552 or info@nyrp.org","10029","MANHATTAN","40.795069","-73.943106","11","8","172","1000000","1016380142","East Harlem South                                                          "
"Community Garden","El Sitio Feliz (The Happy Place)","203 E. 104th Street,","212-788-7900","10029","MANHATTAN","40.790217","-73.94553","11","8","170","1000000","1016540005","East Harlem South                                                          "
"Community Garden","West 104th Street Garden","6-10 W. 104th Street/ 14-18 W. 104th Street","212-788-7900",,,,,,,,,,
"Community Garden","La Perla Garden","76 W. 105th","212-788-7900",,,,,,,,,,
"Community Garden","Clinton Community Garden","436 West 48th St","212-788-7900","10036","MANHATTAN","40.762717","-73.991026","4","3","127","1000000","1010570050","Clinton                                                                    "
"Community Garden","LaGuardia Corner Community Gardens","511 LaGuardia Place","sprucehous@aol.com","10012","MANHATTAN","40.727809","-73.999159","2","1","5501","1008242","1005240009","West Village                                                               "
"Community Garden","11th Street Community Garden/Chico West Garden","422 East 11th Street","212-788-7900","10009","MANHATTAN","40.729079","-73.983327","3","2","34","1000000","1004380019","East Village                                                               "
"Community Garden","El Sol Brillante Jr.","537 East 12th Street","212-788-7900","10009","MANHATTAN","40.728694","-73.980372","3","2","34","1000000","1004060046","East Village                                                               "
"Community Garden","103 Street Community Garden","105 East 103rd St","212-333-2552 or info@nyrp.org","10029","MANHATTAN","40.790817","-73.948859","11","8","166","1000000","1016310002","East Harlem South                                                          "
"Community Garden","El Catano Community Garden","171 East 110th St","212-333-2552 or info@nyrp.org","10029","MANHATTAN","40.794331","-73.943259","11","8","172","1000000","1016380032","East Harlem South                                                          "
"Community Garden","Herb Garden","176 East 111th St","212-333-2552 or info@nyrp.org","10029","MANHATTAN","40.795069","-73.943106","11","8","172","1000000","1016380142","East Harlem South                                                          "
"Community Garden","La Casita Community Garden","223 East 119th St","212-788-7900","10035","MANHATTAN","40.799606","-73.937894","11","8","194","1000000","1017840011","East Harlem North                                                          "
"Community Garden","Los Amigos Community Garden","326 Pleasant Ave","212-788-7900","10035","MANHATTAN","40.796043","-73.932422","11","8","178","1076407","1017160050","East Harlem North                                                          "
"Community Garden","Maggie's Garden","564 West 149th St.","646-667-8851 or info@nysomgroup.org","10031","MANHATTAN","40.828472","-73.947418","9","7","233","1000000","1020800058","Hamilton Heights                                                           "
"Community Garden","Target East Harlem Community Garden","415 East 117th St","212-333-2552 or info@nyrp.org","10035","MANHATTAN","40.79645","-73.934347","11","8","178","1000000","1017110008","East Harlem North                                                          "
"Community Garden","Dorothy Strelsin Memorial Community Garden","174 Suffolk St","212-333-2552 or info@nyrp.org","10002","MANHATTAN","40.720933","-73.985083","3","2","3001","1000000","1003500005","Chinatown                                                                  "
"Community Garden","Nueva Esperanza Jardin Garden","2-6 E. 110th Street, New York, NY 10029","212-788-7900","10029","MANHATTAN","40.796617","-73.948671","11","9","17401","1000000","1016157501","East Harlem South                                                          "
"Community Garden","Catano Garden","171 East 110th Street between Lexington and Third Avenues New York, NY","212-333-2552 or info@nyrp.org","10029","MANHATTAN","40.794331","-73.943259","11","8","172","1000000","1016380032","East Harlem South                                                          "
"Community Garden","Magic Garden","1665-71 Park Avenue, New York, NY 10035 United States","212-788-7900","10035","MANHATTAN","40.800245","-73.942524","11","8","182","1000000","1016450003","East Harlem North                                                          "
"Community Garden","La Plaza Cultural","Corner of 9th St & Ave C New York, NY 10009 East Village, Alphabet City","laplazamembers@gmail.com",,,,,,,,,,
"Community Garden","Earth People","8th Street between B&C or, 333-335 East 8th St.","212-788-7900",,,,,,,,,,
"Community Garden","Liz Christy Garden","110 E Houston St
New York, NY 10002
East Village, Alphabet City","Dlogg60798@aol.com","10002","MANHATTAN","40.723832","-73.991576","3","2","3602","1000000","1004560001","East Village                                                               "
"Community Garden","TRUCE community garden","215 W. 117th St.","info@harlemgarden.org","10026","MANHATTAN","40.804364","-73.953111","10","9","218","1000000","1019230018","Central Harlem South                                                       "
"Community Garden","110th Street Block Association Garden","Madison Av bet E 110 St and E 111 St",,,,,,,,,,,
"Community Garden","Jirasol Association","83 East 110th Street, New York, NY 10029","212-788-7900 or conyc@cenyc.org","10029","MANHATTAN","40.795787","-73.946761","11","8","17402","1051616","1016160034","East Harlem South                                                          "
"Community Garden","Pueblo Unido","1659 Madison Avenue, New York, NY 10029","212-788-7900 or conyc@cenyc.org","10029","MANHATTAN","40.796474","-73.9474","11","8","17402","1000000","1016160053","East Harlem South                                                          "
"Community Garden","Little Blue House","1675 Madison Avenue, New York, NY 10029","212-788-7900 or conyc@cenyc.org","10029","MANHATTAN","40.796976","-73.947034","11","8","17402","1000000","1016170122","East Harlem South                                                          "
"Community Garden","Friendly Garden","95 East 111th Street, New York, NY 10029","212-788-7900 or conyc@cenyc.org","10029","MANHATTAN","40.796245","-73.945843","11","8","17402","1000000","1016170035","East Harlem South                                                          "
"Community Garden","Villa Santurce Jardinera","74 E. 112th Street, New York, NY 10029","212-788-7900 or conyc@cenyc.org","10029","MANHATTAN","40.796895","-73.945424","11","8","17402","1000000","1016170038","East Harlem South                                                          "
"Community Garden","Chenchitas' Group","1691-93 Madison Avenue, New York, NY 10029","212-788-7900 or conyc@cenyc.org","10029","MANHATTAN","40.797308","-73.946792","11","8","17402","1000000","1016170051","East Harlem South                                                          "
"Community Garden","Young Devils Community Garden","1753 Madison Ave., New York, NY 10029","212-788-7900 or conyc@cenyc.org","10029","MANHATTAN","40.799549","-73.945154","11","8","184","1088480","1016217502","East Harlem North                                                          "
"Community Garden","La Cuevita Community Garden","71 E. 115th Street, New York, NY 10029","212-788-7900 or conyc@cenyc.org","10029","MANHATTAN","40.798797","-73.944151","11","8","184","1000000","1016210030","East Harlem North                                                          "
"Community Garden","116th St. Block Association","103 East 122nd Street, New York, NY 10035","212-788-7900 or conyc@cenyc.org","10035","MANHATTAN","40.803013","-73.940152","11","9","196","1000000","1017710005","East Harlem North                                                          "
"Community Garden","Sanidad Del Cielo","1881-83 Lexington Ave., New York, NY 10035","212-788-7900 or conyc@cenyc.org","10035","MANHATTAN","40.79944","-73.941011","11","8","182","1088805","1016457502","East Harlem North                                                          "
"Community Garden","El Gallo Social Club Inc.","1891-1895 Lexington Avenue, New York, NY 10035","212-788-7900 or conyc@cenyc.org","10035","MANHATTAN","40.799684","-73.940834","11","8","182","1000000","1016450152","East Harlem North                                                          "
"Community Garden","Mini Barrio Gardeners","1887 Lexington Avenue, New York, NY 10035","212-788-7900 or conyc@cenyc.org","10035","MANHATTAN","40.799588","-73.940903","11","8","182",,,"East Harlem North                                                          "
"Community Garden","Fountain of Living Waters Minister Church","1816-1822 Madison Avenue, New York, NY 10035","212-788-7900 or conyc@cenyc.org","10035","MANHATTAN","40.801486","-73.943766","11","9","184","1088477","1017457503","East Harlem North                                                          "
"Community Garden","United Block Association Garden","54-50 East 131st Street, New York, NY 10037","212-788-7900 or conyc@cenyc.org","10037","MANHATTAN","40.809333","-73.937441","11","9","206","1089072","1017550047","Central Harlem North-Polo Grounds                                          "
"Community Garden","Diamante Garden merged with existing Block and School Association","306-310 E. 118th Street, New York, NY 10035","212-788-7900 or conyc@cenyc.org","10035","MANHATTAN","40.798107","-73.936371","11","8","188","1000000","1016890047","East Harlem North                                                          "
"NYCHA","Campos Plaza Community Center","611 East 13th St. New York, N. Y. 10009","(212) 677-1801 or sansano@universitysettlement.org","10009","MANHATTAN","40.728579","-73.978114","3","2","28","1077502","1003960010","Lower East Side                                                            "
"NYCHA","Chelsea/Elliott Community Center","441 West 26th St New York, N. Y. 10001","(212) 760-9800 or dpaulson@hudsonguild.org","10001","MANHATTAN","40.749196","-74.001815","4","3","97","1012827","1007240010","Hudson Yards-Chelsea-Flatiron-Union Square                                 "
"NYCHA","Clinton Community Center","120 East 110th St New York, N. Y. 10029","(212) 876-1240","10029","MANHATTAN","40.795119","-73.945194","11","8","172","1078931","1016370001","East Harlem South                                                          "
"NYCHA","Corsi Community Center","307 E 116th St New York, N. Y. 10029","212 828-6756","10029","MANHATTAN","40.796935","-73.93759","11","8","188","1079357","1016880045","East Harlem North                                                          "
"NYCHA","Drew Hamilton Community Center","220 West 143rd Street New York, N.Y. 10030","(212) 368-0759","10030","MANHATTAN","40.8208","-73.94113","10","9","232","1086084","1020280016","Central Harlem North-Polo Grounds                                          "
"NYCHA","East River Community Center","404 E 105th St New York, N.Y. 10029","(212) 348-1220 or kburke@scanny.org","10029","MANHATTAN","40.788859","-73.940367","11","8","162","1083941","1016960001","East Harlem South                                                          "
"NYCHA","Grant Community Center","1301 Amsterdam Avenue New York, N. Y. 10027","(646) 387-8849","10027","MANHATTAN","40.811994","-73.957264","9","7","20901","1084095","1019640001","Morningside Heights                                                        "
"NYCHA","Harlem River Community Center","2627 7th Ave New York, N. Y. 10039","(212) 690-4024 or wallace.duprey@nycha.nyc.gov","10039","MANHATTAN","40.825565","-73.936197","10","9","236","1060197","1020160060","Central Harlem North-Polo Grounds                                          "
"NYCHA","Holmes/Isaacs Community Center.","1792 First Avenue New York, NY 10128","(212)360-7620 or gmorris@isaacscenter.org","10128","MANHATTAN","40.781149","-73.946242","8","5","152","1076333","1015730020","Yorkville                                                                  "
"NYCHA","Manhattanville Community Center","530 West 133rd St New York, N. Y. 10027","(212) 491-3377","10027","MANHATTAN","40.818127","-73.954478","9","7","219","1084130","1019840001","Manhattanville                                                             "
"NYCHA","Seward Park Extension Community Center","56 Essex Street New York, N.Y. 10002","(212) 460-8163 or lee.trot@nycha.nyc.gov","10002","MANHATTAN","40.716838","-73.989077","3","1","18","1083429","1003510001","Chinatown                                                                  "
"NYCHA","Smith Community Center","50 Madison Street New York, N. Y. 10038","(212) 349-3724 or vickimehmel@hmhonline.org","10038","MANHATTAN","40.711958","-73.997825","3","1","25","1077420","1001110100","Chinatown                                                                  "
"NYCHA","Washington Community Center","1775 Third Avenue New York, N. Y. 10029","(212) 828-6111 or mac@concretesafaris.org","10029","MANHATTAN","40.786574","-73.948303","11","8","15602","1079203","1016470001","East Harlem South                                                          "
