"business_address","business_name_n_a_if_there","what_indicates_the_storefront","is_the_storefront_boarded","east_or_west_side_of_the","latitude","longitude","community_board","council_district","census_tract","bin","bbl","nta","borough","postcode"
"423 Broadway","N/A","For Rent/For Lease/Retail Space Available","No","West","40.719663","-74.00167","102","1","47","1003012","1002310001","SoHo-TriBeCa-Civic Center-Little Italy","MANHATTAN","10013"
"1 Astor Place","Gap","For Rent/For Lease/Retail Space Available","No","East","40.730054","-73.992629","102","2","57","1008806","1005450059","West Village","MANHATTAN","10003"
"10 Times Square","N/A","For Rent/For Lease/Retail Space Available","No","West","40.754677","-73.986761","105","3","113","1022569","1009930055","Midtown-Midtown South","MANHATTAN","10018"
"11 Broadway","N/A","For Rent/For Lease/Retail Space Available","No","West","40.705354","-74.013731","101","1","13","1000044","1000130005","Battery Park City-Lower Manhattan","MANHATTAN","10004"
"1107 Broadway","Pet Smart","N/A","Yes","West","40.742743","-73.989213","105","3","58","1015602","1008267501","Hudson Yards-Chelsea-Flatiron-Union Square","MANHATTAN","10010"
"111 Broadway","Jos. A. Bank","Permanently Closed","No","West","40.708486","-74.011113","101","1","13","1001029","1000490002","Battery Park City-Lower Manhattan","MANHATTAN","10006"
"1123 Broadway","Broadway Cafe","For Rent/For Lease/Retail Space Available","No","West","40.743254","-73.989123","105","3","58","1015618","1008270028","Hudson Yards-Chelsea-Flatiron-Union Square","MANHATTAN","10010"
"1123 Broadway","Hill Country Chicken","Permanently Closed","No","West","40.743254","-73.989123","105","3","58","1015618","1008270028","Hudson Yards-Chelsea-Flatiron-Union Square","MANHATTAN","10010"
"1130 Broadway","Heyday","N/A","Yes","East","40.743413","-73.989073","105","2","58","1015622","1008270042","Hudson Yards-Chelsea-Flatiron-Union Square","MANHATTAN","10010"
"1134A Broadway","The Abnormal Beauty Company","Closed Until Further Notice","No","East","40.743547","-73.989047","105","2","58","1015624","1008277501","Hudson Yards-Chelsea-Flatiron-Union Square","MANHATTAN","10010"
"1140 Broadway","Vin Sur Vingt","N/A","Yes","East","40.743907","-73.988979","105","2","58","1015649","1008280033","Hudson Yards-Chelsea-Flatiron-Union Square","MANHATTAN","10001"
"1141 Broadway","N/A","Covered Windows","No","West","40.74391","-73.989","105","3","58","1015645","1008280025","Hudson Yards-Chelsea-Flatiron-Union Square","MANHATTAN","10001"
"1147 Broadway","N/A","For Rent/For Lease/Retail Space Available","No","West","40.74408","-73.988968","105","3","58","1015647","1008280028","Hudson Yards-Chelsea-Flatiron-Union Square","MANHATTAN","10001"
"115 Broadway","HSBC Bank","We Moved","No","West","40.708631","-74.010997","101","1","13","1001030","1000500001","Battery Park City-Lower Manhattan","MANHATTAN","10006"
"1165 Broadway","N/A","For Rent/For Lease/Retail Space Available","No","West","40.744719","-73.989062","105","3","58","1015683","1008290022","Hudson Yards-Chelsea-Flatiron-Union Square","MANHATTAN","10001"
"1167 Broadway","N/A","For Rent/For Lease/Retail Space Available","No","West","40.744791","-73.988834","105","3","58","1015683","1008290022","Hudson Yards-Chelsea-Flatiron-Union Square","MANHATTAN","10001"
"1178 Broadway","Dig","Closed Until Further Notice","No","East","40.745309","-73.98852","105","4","76","1015727","1008300028","Midtown-Midtown South","MANHATTAN","10001"
"1184 Broadway","Maxwell’s Chophouse Bar","Permanently Closed","No","East","40.745556","-73.988668","105","4","76","1015725","1008307501","Midtown-Midtown South","MANHATTAN","10001"
"1185 Broadway","N/A","N/A","N/A","West","40.7454","-73.988719","105","3","76","1000000","1008300024","Midtown-Midtown South","MANHATTAN","10001"
"120 Broadway","N/A","For Rent/For Lease/Retail Space Available","No","East","40.708546","-74.011041","101","1","7","1001026","1000477501","Battery Park City-Lower Manhattan","MANHATTAN","10271"
"1200 Broadway","Jollies Jewelry, also signs for S & A Perfumes Inc. and World Phone Hut Inc.","For Rent/For Lease/Retail Space Available","No","East","40.746059","-73.988408","105","4","76","1015759","1008310020","Midtown-Midtown South","MANHATTAN","10001"
"1204 Broadway","New York Style Acxessories","Gated","No","East","40.746264","-73.988538","105","4","76","1015758","1008310019","Midtown-Midtown South","MANHATTAN","10001"
"1212A Broadway","Cleopatra Hair","For Rent/For Lease/Retail Space Available","No","East","40.746501","-73.988495","105","4","76","1080722","1008310061","Midtown-Midtown South","MANHATTAN","10001"
"1226 Broadway","Multiple","For Rent/For Lease/Retail Space Available","No","East","40.747074","-73.988386","105","4","76","1015778","1008320022","Midtown-Midtown South","MANHATTAN","10001"
"1231 Broadway","N/A","For Rent/For Lease/Retail Space Available","No","West","40.746901","-73.98844","105","3","76","1079187","1008320001","Midtown-Midtown South","MANHATTAN","10001"
"1234 Broadway #6","Saher USA Inc.","For Rent/For Lease/Retail Space Available","No","East","40.747307","-73.988339","105","4","76","1078654","1008320066","Midtown-Midtown South","MANHATTAN","10001"
"1268 Broadway","N/A","Covered Windows","Yes","East","40.748606","-73.988108","105","4","76","1083630","1008340011","Midtown-Midtown South","MANHATTAN","10001"
"1282 Broadway","Multiple — shoe stores","Covered Windows","No","East","40.749092","-73.988018","105","4","76","1015859","1008350001","Midtown-Midtown South","MANHATTAN","10001"
"1359 Broadway","N/A","For Rent/For Lease/Retail Space Available","No","West","40.751704","-73.987599","105","3","109","1015240","1008120022","Midtown-Midtown South","MANHATTAN","10018"
"1372 Broadway","N/A","Covered Windows","No","East","40.75227","-73.987454","105","4","109","1080609","1008130023","Midtown-Midtown South","MANHATTAN","10018"
"1410 Broadway","N/A","For Rent/For Lease/Retail Space Available","No","East","40.753497","-73.987111","105","4","113","1015274","1008140052","Midtown-Midtown South","MANHATTAN","10018"
"1412 Broadway","N/A","Covered Windows","No","East","40.753711","-73.987046","105","4","113","1080611","1008150014","Midtown-Midtown South","MANHATTAN","10018"
"1440 Broadway","N/A","Empty","No","East","40.754611","-73.986761","105","4","113","1022563","1009930011","Midtown-Midtown South","MANHATTAN","10018"
"1500 Broadway","N/A","Covered Windows","No","East","40.756856","-73.985973","105","4","119","1022610","1009960001","Midtown-Midtown South","MANHATTAN","10036"
"1530 Broadway","N/A","Empty","No","East","40.757674","-73.985121","105","4","119","1022624","1009970001","Midtown-Midtown South","MANHATTAN","10036"
"1578 Broadway","Money Change","Closed Until Further Notice","No","East","40.759647","-73.985002","105","4","125","1024757","1010197501","Midtown-Midtown South","MANHATTAN","10036"
"1604 Broadway","N/A","Empty","No","East","40.760487","-73.984648","105","4","125","1024779","1010200038","Midtown-Midtown South","MANHATTAN","10019"
"1675 Broadway","N/A","For Rent/For Lease/Retail Space Available","No","West","40.762963","-73.983073","105","3","131","1076199","1010240015","Midtown-Midtown South","MANHATTAN","10019"
"1691 Broadway","Neopolitan Express","For Rent/For Lease/Retail Space Available","No","West","40.763523","-73.982748","105","3","131","1024835","1010250019","Midtown-Midtown South","MANHATTAN","10019"
"1695 Broadway","Hen Penny","Covered Windows","No","West","40.763627","-73.982694","105","3","131","1024835","1010250019","Midtown-Midtown South","MANHATTAN","10019"
"1700 Broadway","N/A","For Rent/For Lease/Retail Space Available","No","East","40.763342","-73.982398","105","4","131","1024836","1010250025","Midtown-Midtown South","MANHATTAN","10019"
"1710 Broadway","Former amalgamated bank","For Rent/For Lease/Retail Space Available","No","West","40.764225","-73.982391","105","4","137","1024850","1010260021","Midtown-Midtown South","MANHATTAN","10019"
"1717 Broadway","Hotel","Closed Until Further Notice","No","West","40.764291","-73.982824","105","3","137","1024849","1010267501","Midtown-Midtown South","MANHATTAN","10019"
"176 Broadway","William Barthman","For Rent/For Lease/Retail Space Available","No","East","40.709932","-74.009869","101","1","1502","1001100","1000650017","Battery Park City-Lower Manhattan","MANHATTAN","10038"
"1792 Broadway","Former Argo Tea","For Rent/For Lease/Retail Space Available","No","East","40.767165","-73.9817","105","4","137","1024922","1010300058","Midtown-Midtown South","MANHATTAN","10019"
"1794 Broadway","Former Patavini","Empty","No","East","40.767192","-73.981697","105","4","137","1024922","1010300058","Midtown-Midtown South","MANHATTAN","10019"
"1800 Broadway","Maison Kayser","Closed Until Further Notice","No","East","40.767269","-73.98169","105","4","137","1024922","1010300058","Midtown-Midtown South","MANHATTAN","10019"
"1865 Broadway","N/A","For Rent/For Lease/Retail Space Available","No","West","40.769995","-73.982137","107","3","145","1090158","1011140009","Lincoln Square","MANHATTAN","10023"
"1886 Broadway","N/A","For Rent/For Lease/Retail Space Available","No","East","40.77084","-73.982136","107","6","149","1027463","1011157503","Lincoln Square","MANHATTAN","10023"
"1888 Broadway","N/A","For Rent/For Lease/Retail Space Available","No","East","40.770911","-73.982136","107","6","149","1027463","1011157503","Lincoln Square","MANHATTAN","10023"
"1889 Broadway","Former lavelier","For Rent/For Lease/Retail Space Available","No","West","40.77095","-73.982158","107","3","149","1027465","1011150057","Lincoln Square","MANHATTAN","10023"
"1980 Broadway","N/A","For Rent/For Lease/Retail Space Available","N/A","East","40.774801","-73.982186","107","6","153","1084564","1011397503","Lincoln Square","MANHATTAN","10023"
"2 Herald Square","Victoria's Secret","N/A","Yes","East","40.750283","-73.987646","105","4","109","1089436","1008100045","Midtown-Midtown South","MANHATTAN","10001"
"2007 Broadway","N/A","For Rent/For Lease/Retail Space Available","No","West","40.775822","-73.982164","107","6","153","1028950","1011407501","Lincoln Square","MANHATTAN","10023"
"2008 Broadway","Former Loew’s","For Rent/For Lease/Retail Space Available","N/A","East","40.77586","-73.982142","107","6","153","1070362","1011407502","Lincoln Square","MANHATTAN","10023"
"2011-2017 Broadway","N/A","For Rent/For Lease/Retail Space Available","No","West","40.775962","-73.98216","107","6","153","1028950","1011407501","Lincoln Square","MANHATTAN","10023"
"2012 Broadway","Former Nanoosh","For Rent/For Lease/Retail Space Available","No","East","40.775986","-73.982139","107","6","153","1028948","1011400046","Lincoln Square","MANHATTAN","10023"
"2032 Broadway","Former Chase","Covered Windows","No","East","40.776788","-73.982106","107","6","153","1029658","1011410051","Lincoln Square","MANHATTAN","10023"
"2052 Broadway","Former Sabon","For Rent/For Lease/Retail Space Available","No","East","40.777551","-73.982059","107","6","157","1029749","1011427502","Lincoln Square","MANHATTAN","10023"
"2061 Broadway","Former Verizon Retailer","For Rent/For Lease/Retail Space Available","No","West","40.778188","-73.982113","107","6","159","1030418","1011630030","Lincoln Square","MANHATTAN","10023"
"2067 Broadway","Former New York City Freshly Bagel","For Rent/For Lease/Retail Space Available","No","West","40.778352","-73.982102","107","6","159","1030419","1011630032","Lincoln Square","MANHATTAN","10023"
"2109 Broadway","N/A","For Rent/For Lease/Retail Space Available","No","West","40.780408","-73.982076","107","6","159","1030544","1011657503","Lincoln Square","MANHATTAN","10023"
"2146 Broadway","Former Jean Louis David salon","For Rent/For Lease/Retail Space Available","No","East","40.781336","-73.981195","107","6","163","1030839","1011677501","Upper West Side","MANHATTAN","10023"
"2148 Broadway","N/A","For Rent/For Lease/Retail Space Available","No","East","40.781385","-73.981177","107","6","163","1088786","1011677502","Upper West Side","MANHATTAN","10023"
"2151 Broadway","Former Art of Shaving","For Rent/For Lease/Retail Space Available","No","West","40.78144","-73.98118","107","6","163","1079377","1011677503","Upper West Side","MANHATTAN","10023"
"2151 Broadway","Former Stuart weitzman shoes","Empty","No","West","40.78144","-73.98118","107","6","163","1079377","1011677503","Upper West Side","MANHATTAN","10023"
"2157 Broadway","Former Papyrus","Empty","No","West","40.781594","-73.98113","107","6","163","1079377","1011677503","Upper West Side","MANHATTAN","10023"
"2161 Broadway","Maison Kayser","Closed Until Further Notice","No","West","40.78186","-73.981036","107","6","163","1030859","1011680010","Upper West Side","MANHATTAN","10024"
"2169 Broadway","N/A","Covered Windows","No","West","40.782085","-73.98096","107","6","163","1030859","1011680010","Upper West Side","MANHATTAN","10024"
"2187 Broadway","N/A","For Rent/For Lease/Retail Space Available","No","West","40.782741","-73.980692","107","6","163","1030881","1011690008","Upper West Side","MANHATTAN","10024"
"2197 Broadway","Former European Bakery","Covered Windows","No","West","40.783007","-73.980559","107","6","163","1030900","1011690057","Upper West Side","MANHATTAN","10024"
"2199 Broadway","Former La Unica Caridad Restaurant","For Rent/For Lease/Retail Space Available","No","West","40.783059","-73.980533","107","6","163","1030900","1011690057","Upper West Side","MANHATTAN","10024"
"2201 Broadway","N/A","For Rent/For Lease/Retail Space Available","No","West","40.783268","-73.980411","107","6","167","1030903","1011707502","Upper West Side","MANHATTAN","10024"
"2205 Broadway","Former Tumi","Closed Until Further Notice","No","West","40.783375","-73.980335","107","6","167","1030903","1011707502","Upper West Side","MANHATTAN","10024"
"2208 Broadway","Former New Wave Cafe","For Rent/For Lease/Retail Space Available","No","East","40.783499","-73.980219","107","6","167","1079386","1011700012","Upper West Side","MANHATTAN","10024"
"2255 Broadway","N/A","For Rent/For Lease/Retail Space Available","No","West","40.784967","-73.979153","107","6","167","1089957","1012287504","Upper West Side","MANHATTAN","10024"
"2265 Broadway","Former City Brows","For Rent/For Lease/Retail Space Available","No","West","40.785354","-73.978868","107","6","167","1032679","1012290008","Upper West Side","MANHATTAN","10024"
"2276 Broadway","Laytner’s Linen & Home","For Rent/For Lease/Retail Space Available","No","East","40.785689","-73.978597","107","6","167","1032695","1012290045","Upper West Side","MANHATTAN","10024"
"2284 Broadway","N/A","For Rent/For Lease/Retail Space Available","No","East","40.786012","-73.978355","107","6","171","1076247","1012307501","Upper West Side","MANHATTAN","10024"
"2286 Broadway","Former Sprint store","For Rent/For Lease/Retail Space Available","No","East","40.786056","-73.978322","107","6","171","1076247","1012307501","Upper West Side","MANHATTAN","10024"
"2290 Broadway","Former Artie’s Delicatessen","Covered Windows","No","East","40.786144","-73.978254","107","6","171","1032769","1012300043","Upper West Side","MANHATTAN","10024"
"2300 Broadway","N/A","For Rent/For Lease/Retail Space Available","No","East","40.786512","-73.977979","107","6","171","1076250","1012317501","Upper West Side","MANHATTAN","10024"
"233 Broadway","N/A","Boarded Up","Yes","West","40.712265","-74.007892","101","1","21","1087167","1001237501","SoHo-TriBeCa-Civic Center-Little Italy","MANHATTAN","10279"
"233 Broadway","N/A","Boarded Up","Yes","West","40.712265","-74.007892","101","1","21","1087167","1001237501","SoHo-TriBeCa-Civic Center-Little Italy","MANHATTAN","10279"
"233 Broadway","N/A","Boarded Up","Yes","West","40.712265","-74.007892","101","1","21","1087167","1001237501","SoHo-TriBeCa-Civic Center-Little Italy","MANHATTAN","10279"
"2350 Broadway","Former Cafe 86","For Rent/For Lease/Retail Space Available","No","East","40.788007","-73.976747","107","6","171","1033133","1012330016","Upper West Side","MANHATTAN","10024"
"2350 Broadway","Former Brothers Apothecary","For Rent/For Lease/Retail Space Available","No","East","40.788007","-73.976747","107","6","171","1033133","1012330016","Upper West Side","MANHATTAN","10024"
"2381 Broadway","Brooks Brothers","For Rent/For Lease/Retail Space Available","No","West","40.789059","-73.97588","107","6","175","1033206","1012350010","Upper West Side","MANHATTAN","10024"
"2393 Broadway","Former Hot & Crusty","For Rent/For Lease/Retail Space Available","No","West","40.789385","-73.975638","107","6","175","1033227","1012357501","Upper West Side","MANHATTAN","10024"
"2395 Broadway","Former Ameritrade","For Rent/For Lease/Retail Space Available","No","West","40.78944","-73.975595","107","6","175","1033227","1012357501","Upper West Side","MANHATTAN","10024"
"2418 Broadway","Cibo e Vino","For Rent/For Lease/Retail Space Available","No","East","40.790112","-73.975078","107","6","175","1033301","1012360044","Upper West Side","MANHATTAN","10024"
"2424 Broadway","Former Dunkin Donuts","Covered Windows","No","East","40.7904","-73.974872","107","6","175","1033308","1012370017","Upper West Side","MANHATTAN","10024"
"2449 Broadway","Pro-Touch Cleaners","For Rent/For Lease/Retail Space Available","No","West","40.791136","-73.974363","107","6","179","1033555","1012380010","Upper West Side","MANHATTAN","10024"
"2459 Broadway","N/A","For Rent/For Lease/Retail Space Available","No","West","40.791377","-73.974186","107","6","179","1033561","1012380052","Upper West Side","MANHATTAN","10024"
"2465 Broadway","N/A","For Rent/For Lease/Retail Space Available","No","West","40.79169","-73.973954","107","6","179","1033599","1012390052","Upper West Side","MANHATTAN","10025"
"2470 Broadway","Former Chamberlain residential showroom","For Rent/For Lease/Retail Space Available","No","East","40.79183","-73.973828","107","6","179","1033598","1012390044","Upper West Side","MANHATTAN","10025"
"2485 Broadway","Former Cleopatra’s Needle","Closed Until Further Notice","No","West","40.792368","-73.973459","107","6","179","1033611","1012400010","Upper West Side","MANHATTAN","10025"
"2485 Broadway","Former Cleopatra’s Needle","Closed Until Further Notice","No","West","40.792368","-73.973459","107","6","179","1033611","1012400010","Upper West Side","MANHATTAN","10025"
"2496 Broadway","N/A","For Rent/For Lease/Retail Space Available","No","East","40.792579","-73.973279","107","6","179","1033616","1012407502","Upper West Side","MANHATTAN","10025"
"250 West 57th street","Former Walgreens","For Rent/For Lease/Retail Space Available","No","West","40.766391","-73.982119","105","3","137","1024899","1010280056","Midtown-Midtown South","MANHATTAN","10107"
"2514 Broadway","N/A","For Rent/For Lease/Retail Space Available","No","East","40.793167","-73.972856","107","6","179","1033652","1012410046","Upper West Side","MANHATTAN","10025"
"2519 Broadway","N/A","For Rent/For Lease/Retail Space Available","No","West","40.793285","-73.972795","107","6","179","1033653","1012410052","Upper West Side","MANHATTAN","10025"
"2528 Broadway","Former West Side Gourmet","Surveyor Knowledge","No","East","40.793661","-73.972498","107","6","183","1033683","1012420039","Upper West Side","MANHATTAN","10025"
"2542 Broadway","N/A","For Rent/For Lease/Retail Space Available","No","East","40.794171","-73.972126","107","6","183","1071159","1012437501","Upper West Side","MANHATTAN","10025"
"255 Broadway","Willner Chemists","For Rent/For Lease/Retail Space Available","No","West","40.713347","-74.006998","101","1","21","1082757","1001347501","SoHo-TriBeCa-Civic Center-Little Italy","MANHATTAN","10007"
"2567 Broadway","Lenwich","Permanently Closed","No","West","40.794934","-73.971588","107","6","183","1056068","1018687501","Upper West Side","MANHATTAN","10025"
"257 Broadway","Bolton's","For Rent/For Lease/Retail Space Available","No","West","40.713454","-74.006911","101","1","21","1082756","1001347501","SoHo-TriBeCa-Civic Center-Little Italy","MANHATTAN","10007"
"2571 Broadway","N/A","For Rent/For Lease/Retail Space Available","No","West","40.795052","-73.971501","107","6","183","1056068","1018687501","Upper West Side","MANHATTAN","10025"
"2575 Broadway","Walgreens","Permanently Closed","No","West","40.79517","-73.971414","107","6","183","1056068","1018687501","Upper West Side","MANHATTAN","10025"
"2594 Broadway","Szechuan Garden","For Rent/For Lease/Retail Space Available","No","East","40.795779","-73.970944","107","7","183","1056383","1018690044","Upper West Side","MANHATTAN","10025"
"2601 Broadway","N/A","For Rent/For Lease/Retail Space Available","No","West","40.796056","-73.970771","107","6","187","1056414","1018707501","Upper West Side","MANHATTAN","10025"
"2621 Broadway","Great Thread Beauty Salon","For Rent/For Lease/Retail Space Available","No","West","40.796693","-73.970312","107","6","187","1056456","1018710010","Upper West Side","MANHATTAN","10025"
"2625 Broadway","Mandee Boutique","Empty","No","West","40.796789","-73.97024","107","6","187","1087548","1018717501","Upper West Side","MANHATTAN","10025"
"2626 Broadway","Metro Theatre","For Rent/For Lease/Retail Space Available","Yes","East","40.796847","-73.970175","107","7","187","1056460","1018710022","Upper West Side","MANHATTAN","10025"
"2633 Broadway","N/A","Empty","No","West","40.796981","-73.970099","107","6","187","1087548","1018717501","Upper West Side","MANHATTAN","10025"
"2642 Broadway","Empire","For Rent/For Lease/Retail Space Available","No","East","40.797393","-73.96977","107","7","187","1056482","1018720020","Upper West Side","MANHATTAN","10025"
"2649 Broadway","N/A","For Rent/For Lease/Retail Space Available","No","West","40.797533","-73.969694","107","6","187","1056486","1018720052","Upper West Side","MANHATTAN","10025"
"2659 Broadway","N/A","Covered Windows","No","West","40.797936","-73.969398","107","6","187","1056504","1018730010","Upper West Side","MANHATTAN","10025"
"2663 Broadway","N/A","For Rent/For Lease/Retail Space Available","No","West","40.798035","-73.969325","107","6","187","1056504","1018730010","Upper West Side","MANHATTAN","10025"
"2665 Broadway","N/A","For Rent/For Lease/Retail Space Available","No","West","40.798084","-73.969293","107","6","187","1056504","1018730010","Upper West Side","MANHATTAN","10025"
"2673 Broadway","N/A","For Rent/For Lease/Retail Space Available","No","West","40.798282","-73.969152","107","6","187","1056518","1018730052","Upper West Side","MANHATTAN","10025"
"2675 Broadway","Xi'an Famous Foods","Empty","No","West","40.798331","-73.969116","107","6","187","1056518","1018730052","Upper West Side","MANHATTAN","10025"
"2681 Broadway","N/A","For Rent/For Lease/Retail Space Available","No","West","40.798587","-73.968931","107","6","191","1056558","1018747501","Upper West Side","MANHATTAN","10025"
"2702 Broadway","N/A","For Rent/For Lease/Retail Space Available","No","East","40.799399","-73.968378","107","7","191","1056563","1018757501","Upper West Side","MANHATTAN","10025"
"2708 Broadway","N/A","For Rent/For Lease/Retail Space Available","No","East","40.79952","-73.968321","107","7","191","1056581","1018750146","Upper West Side","MANHATTAN","10025"
"2710 Broadway","N/A","Covered Windows","No","East","40.799558","-73.968299","107","7","191","1056574","1018750046","Upper West Side","MANHATTAN","10025"
"2721 Broadway","N/A","Closed Until Further Notice","No","West","40.799945","-73.968158","107","6","191","1056583","1018760007","Upper West Side","MANHATTAN","10025"
"2724 Broadway","Nut Box","Empty","No","East","40.800041","-73.968107","107","7","191","1056586","1018760020","Upper West Side","MANHATTAN","10025"
"2727 Broadway","AT&T","Empty","No","West","40.800096","-73.968111","107","6","191","1056583","1018760007","Upper West Side","MANHATTAN","10025"
"2742 Broadway","Sneaker Pawb","For Rent/For Lease/Retail Space Available","No","East","40.800639","-73.967948","107","7","191","1056628","1018770059","Upper West Side","MANHATTAN","10025"
"2744 Broadway","Blondi's Hair Salon III","For Rent/For Lease/Retail Space Available","No","East","40.8007","-73.967941","107","7","191","1056608","1018770015","Upper West Side","MANHATTAN","10025"
"2749 Broadway","Marcel Cleaners","Empty","No","West","40.800933","-73.967933","107","6","191","1056630","1018770063","Upper West Side","MANHATTAN","10025"
"2751 Broadway","Smoke","Boarded Up","Yes","West","40.80112","-73.967912","107","6","191","1056630","1018770063","Upper West Side","MANHATTAN","10025"
"2753 Broadway","The UPS Store","For Rent/For Lease/Retail Space Available","No","West","40.801216","-73.967901","107","6","191","1056629","1018770061","Upper West Side","MANHATTAN","10025"
"2758 Broadway","N/A","For Rent/For Lease/Retail Space Available","No","East","40.801309","-73.967868","107","7","191","1056626","1018770051","Upper West Side","MANHATTAN","10025"
"2764 Broadway","N/A","For Rent/For Lease/Retail Space Available","No","East","40.801614","-73.967843","107","7","195","1056631","1018780012","Morningside Heights","MANHATTAN","10025"
"2787 Broadway","107 West","For Rent/For Lease/Retail Space Available","No","West","40.802522","-73.967998","107","6","195","1085321","1018920046","Morningside Heights","MANHATTAN","10025"
"2800 Broadway","The Manchester Diner","Covered Windows","No","East","40.803022","-73.967499","107","7","195","1056673","1018800001","Morningside Heights","MANHATTAN","10025"
"2818 Broadway","N/A","For Rent/For Lease/Retail Space Available","No","East","40.803469","-73.967195","107","7","195","1056690","1018800061","Morningside Heights","MANHATTAN","10025"
"2853 Broadway","Starbucks","We Moved","No","West","40.804643","-73.966364","109","7","199","1075440","1018947501","Morningside Heights","MANHATTAN","10025"
"2877 Broadway","N/A","For Rent/For Lease/Retail Space Available","No","West","40.805313","-73.965876","109","7","199","1057330","1018940052","Morningside Heights","MANHATTAN","10025"
"2878 Broadway","Liberty House","For Rent/For Lease/Retail Space Available","No","East","40.805354","-73.965822","109","7","199","1056988","1018830059","Morningside Heights","MANHATTAN","10025"
"2886 Broadway","E's Bar","Boarded Up","Yes","East","40.805662","-73.965601","109","7","199","1056989","1018840001","Morningside Heights","MANHATTAN","10025"
"29 Broadway","N/A","For Rent/For Lease/Retail Space Available","No","West","40.70601","-74.01315","101","1","13","1000802","1000200001","Battery Park City-Lower Manhattan","MANHATTAN","10006"
"2911 Broadway","Aerosoles","For Rent/For Lease/Retail Space Available","No","West","40.806452","-73.965048","109","7","199","1057350","1018950055","Morningside Heights","MANHATTAN","10025"
"2929 Broadway","N/A","For Rent/For Lease/Retail Space Available","No","West","40.806962","-73.964672","109","7","205","1057368","1018960023","Morningside Heights","MANHATTAN","10025"
"3068 Broadway","Columbia Cleaners","We Moved","No","East","40.81149","-73.96135","109","7","203","1059648","1019760001","Morningside Heights","MANHATTAN","10027"
"3141 Broadway","La Salle Dumpling Room","We Moved","No","West","40.813918","-73.959596","109","7","211","1059849","1019930073","Morningside Heights","MANHATTAN","10027"
"317 Broadway","N/A","Empty","Yes","West","40.715686","-74.00505","101","1","33","1001656","1001510028","SoHo-TriBeCa-Civic Center-Little Italy","MANHATTAN","10007"
"3202 Broadway","N/A","Covered Windows","No","East","40.815976","-73.958071","109","7","219",,,"Manhattanville","MANHATTAN","10027"
"3289 Broadway","N/A","Gated","No","West","40.818493","-73.956263","109","7","219","1059939","1019990033","Manhattanville","MANHATTAN","10027"
"3291 Broadway","N/A","For Rent/For Lease/Retail Space Available","No","West","40.818537","-73.95623","109","7","219","1059940","1019990036","Manhattanville","MANHATTAN","10027"
"3295 Broadway","N/A","For Rent/For Lease/Retail Space Available","No","West","40.818624","-73.956165","109","7","219","1059940","1019990036","Manhattanville","MANHATTAN","10027"
"3316 Broadway","N/A","For Rent/For Lease/Retail Space Available","Yes","East","40.819297","-73.955648","109","7","219","1059728","1019870001","Manhattanville","MANHATTAN","10031"
"3338 Broadway","Eliscer Guzman MD and associates","For Rent/For Lease/Retail Space Available","No","East","40.820224","-73.954972","109","7","22301",,,"Manhattanville","MANHATTAN","10031"
"3341 Broadway","Laith deli","For Rent/For Lease/Retail Space Available","No","West","40.820202","-73.955011","109","7","22301","1059958","1020020033","Manhattanville","MANHATTAN","10031"
"335 Broadway","HSBC Bank","We Moved","No","West","40.716344","-74.004495","101","1","33","1001883","1001737504","SoHo-TriBeCa-Civic Center-Little Italy","MANHATTAN","10013"
"3413 Broadway","N/A","For Rent/For Lease/Retail Space Available","No","West","40.822408","-73.953402","109","7","225","1062301","1020870034","Hamilton Heights","MANHATTAN","10031"
"342 Broadway","The UPS Store","Permanently Closed","No","East","40.716539","-74.0043","101","1","31","1085786","1001700001","SoHo-TriBeCa-Civic Center-Little Italy","MANHATTAN","10013"
"3435 Broadway","Heights wines and liquors","For Rent/For Lease/Retail Space Available","No","West","40.823177","-73.952838","109","7","225","1062311","1020870097","Hamilton Heights","MANHATTAN","10031"
"3453 Broadway","N/A","For Rent/For Lease/Retail Space Available","No","West","40.823679","-73.952469","109","7","225","1062321","1020880036","Hamilton Heights","MANHATTAN","10031"
"3458 Broadway","Broadway cleaners","For Rent/For Lease/Retail Space Available","No","East","40.823978","-73.95223","109","7","225","1061777","1020730001","Hamilton Heights","MANHATTAN","10031"
"3495 Broadway","N/A","For Rent/For Lease/Retail Space Available","No","West","40.824949","-73.951543","109","7","229","1062347","1020890033","Hamilton Heights","MANHATTAN","10031"
"35 Union Square West","N/A","N/A","Yes","West","40.736765","-73.9906","105","2","52","1016086","1008440021","Hudson Yards-Chelsea-Flatiron-Union Square","MANHATTAN","10003"
"3500 Broadway","Winhealth pharmacy","For Rent/For Lease/Retail Space Available","No","East","40.825226","-73.951315","109","7","229","1061879","1020750001","Hamilton Heights","MANHATTAN","10031"
"352 Broadway","N/A","For Rent/For Lease/Retail Space Available","No","East","40.71702","-74.003885","101","1","31","1001838","1001717503","SoHo-TriBeCa-Civic Center-Little Italy","MANHATTAN","10013"
"3530 Broadway","N/A","For Rent/For Lease/Retail Space Available","Yes","East","40.826118","-73.950664","109","7","229","1061896","1020760001","Hamilton Heights","MANHATTAN","10031"
"3547 Broadway","N/A","For Rent/For Lease/Retail Space Available","No","West","40.826661","-73.950292","109","7","229","1062380","1020920026","Hamilton Heights","MANHATTAN","10031"
"356 Broadway","N/A","For Rent/For Lease/Retail Space Available","No","East","40.717154","-74.003773","101","1","31","1001843","1001717501","SoHo-TriBeCa-Civic Center-Little Italy","MANHATTAN","10013"
"3560 Broadway","The old Hamilton theater I believe it was called?","For Rent/For Lease/Retail Space Available","No","East","40.827194","-73.949879","109","7","233","1081831","1020780001","Hamilton Heights","MANHATTAN","10031"
"3569 Broadway","Apollo pharmacy","For Rent/For Lease/Retail Space Available","No","West","40.827325","-73.949807","109","7","233","1062398","1020930029","Hamilton Heights","MANHATTAN","10031"
"3571 Broadway","N/A","For Rent/For Lease/Retail Space Available","No","West","40.827388","-73.949764","109","7","233","1062399","1020930034","Hamilton Heights","MANHATTAN","10031"
"3579 Broadway","Aden deli","For Rent/For Lease/Retail Space Available","No","West","40.827641","-73.949583","109","7","233","1062399","1020930034","Hamilton Heights","MANHATTAN","10031"
"358 Broadway","NYC Best Deal","Boarded Up","Yes","East","40.717223","-74.003716","101","1","31","1001840","1001710005","SoHo-TriBeCa-Civic Center-Little Italy","MANHATTAN","10013"
"3587 Broadway","Hunter Roberts construction group field office","Empty","No","West","40.82797","-73.94934","109","7","233","1083037","1020940032","Hamilton Heights","MANHATTAN","10031"
"359 Broadway","Blood Manor","Boarded up","Yes","West","40.71725","-74.003716","101","1","33","1001906","1001740033","SoHo-TriBeCa-Civic Center-Little Italy","MANHATTAN","10013"
"3596 Broadway","Food plaza inc","For Rent/For Lease/Retail Space Available","No","East","40.828203","-73.949145","109","7","233","1062006","1020790061","Hamilton Heights","MANHATTAN","10031"
"35th/36th on east side of Broadway","HSBC","Permanently Closed","No","East",,,,,,,,,,
"3600 Broadway","N/A","For Rent/For Lease/Retail Space Available","No","East","40.828439","-73.948971","109","7","233","1062014","1020800001","Hamilton Heights","MANHATTAN","10031"
"3619 Broadway","Chase bank","For Rent/For Lease/Retail Space Available","No","West","40.828884","-73.948671","109","7","233","1062439","1020950033","Hamilton Heights","MANHATTAN","10031"
"3640 Broadway","N/A","We Moved","No","East","40.82969","-73.94806","109","7","237","1062137","1020820001","Hamilton Heights","MANHATTAN","10031"
"3641 Broadway","Raffis fashion","For Rent/For Lease/Retail Space Available","No","West","40.829468","-73.948248","109","7","233","1062444","1020960034","Hamilton Heights","MANHATTAN","10031"
"3642 Broadway","N/A","Empty","No","East","40.829745","-73.94802","109","7","237","1062137","1020820001","Hamilton Heights","MANHATTAN","10031"
"3644 Broadway","N/A","Empty","No","East","40.829797","-73.94798","109","7","237","1062137","1020820001","Hamilton Heights","MANHATTAN","10031"
"3646 Broadway","N/A","Empty","No","East","40.829852","-73.94794","109","7","237","1062137","1020820001","Hamilton Heights","MANHATTAN","10031"
"3646A Broadway","N/A","Empty","No","East","40.829852","-73.94794","109","7","237","1062137","1020820001","Hamilton Heights","MANHATTAN","10031"
"3648 Broadway","N/A","For Rent/For Lease/Retail Space Available","No","East","40.829907","-73.947901","109","7","237","1062137","1020820001","Hamilton Heights","MANHATTAN","10031"
"3649 Broadway","Hi-end electronics","For Rent/For Lease/Retail Space Available","No","West","40.829822","-73.947987","109","7","237","1062449","1020970027","Hamilton Heights","MANHATTAN","10031"
"3649 Broadway","Vapor viper","For Rent/For Lease/Retail Space Available","No","West","40.829822","-73.947987","109","7","237","1062449","1020970027","Hamilton Heights","MANHATTAN","10031"
"3668 Broadway","Manny's restaurant and lounge","For Rent/For Lease/Retail Space Available","No","East","40.830555","-73.947427","109","7","237","1062209","1020830064","Hamilton Heights","MANHATTAN","10031"
"371 Broadway","N/A","For Rent/For Lease/Retail Space Available","No","West","40.717744","-74.003297","101","1","33","1001937","1001757506","SoHo-TriBeCa-Civic Center-Little Italy","MANHATTAN","10013"
"373 Broadway","Shane Townley Gallery","For Rent/For Lease/Retail Space Available","No","West","40.717799","-74.00325","101","1","33","1001936","1001750029","SoHo-TriBeCa-Civic Center-Little Italy","MANHATTAN","10013"
"376 Broadway","Harley-Davidson of New York City","Covered Windows","No","East","40.717906","-74.003135","101","1","31","1001866","1001727501","SoHo-TriBeCa-Civic Center-Little Italy","MANHATTAN","10013"
"1369 Broadway","V & S Gallery","For Rent/For Lease/Retail Space Available","No","West","40.752171","-73.987793","105","3","109","1015245","1008120056","Midtown-Midtown South","MANHATTAN","10018"
"1369 Broadway","N/A","Covered Windows","No","West","40.752171","-73.987793","105","3","109","1015245","1008120056","Midtown-Midtown South","MANHATTAN","10018"
"1359 Broadway","Wolfgang’s","Covered Windows","No","West","40.751704","-73.987599","105","3","109","1015240","1008120022","Midtown-Midtown South","MANHATTAN","10018"
"3801 Broadway","Coal diner","For Rent/For Lease/Retail Space Available","No","West","40.83478","-73.944366","112","7","247","1063301","1021360001","Washington Heights South","MANHATTAN","10032"
"381 Broadway","N/A","For Rent/For Lease/Retail Space Available","No","West","40.71812","-74.00298","101","1","33","1002220","1001930050","SoHo-TriBeCa-Civic Center-Little Italy","MANHATTAN","10013"
"3820 Broadway","Selena's wireless","Permanently Closed","No","East","40.8354","-73.943889","112","7","245","1062783","1021180001","Washington Heights South","MANHATTAN","10032"
"384 Broadway","Empire Apparel","Permanently Closed","No","East","40.718205","-74.002882","101","1","31","1002318","1001950002","SoHo-TriBeCa-Civic Center-Little Italy","MANHATTAN","10013"
"3843 Broadway","El millon fashion","For Rent/For Lease/Retail Space Available","Yes","West","40.836078","-73.943418","112","7","245","1063350","1021370011","Washington Heights South","MANHATTAN","10032"
"3845 Broadway","Brothers fish market","For Rent/For Lease/Retail Space Available","No","West","40.836127","-73.943382","112","7","245","1063350","1021370011","Washington Heights South","MANHATTAN","10032"
"3849 Broadway","N/A","For Rent/For Lease/Retail Space Available","Yes","West","40.836226","-73.94331","112","7","245","1063350","1021370011","Washington Heights South","MANHATTAN","10032"
"3852 Broadway","Claudia's Fashion Bazaar, inc","For Rent/For Lease/Retail Space Available","No","East","40.836328","-73.943208","112","7","245","1062823","1021190005","Washington Heights South","MANHATTAN","10032"
"3856 Broadway","N/A","For Rent/For Lease/Retail Space Available","No","East","40.836415","-73.943143","112","7","245","1062823","1021190005","Washington Heights South","MANHATTAN","10032"
"3880 Broadway","N/A","For Rent/For Lease/Retail Space Available","Yes","East","40.837269","-73.942521","112","7","245","1062922","1021220048","Washington Heights South","MANHATTAN","10032"
"3889 Broadway","New Alps cleaners","Empty","No","West","40.837494","-73.94238","112","7","245","1063363","1021370080","Washington Heights South","MANHATTAN","10032"
"3898 Broadway","Penny Jo's Uptown","Empty","Yes","East","40.837705","-73.942199","112","7","245","1062923","1021220052","Washington Heights South","MANHATTAN","10032"
"1385 Broadway","Cava","Closed Until Further Notice","No","West","40.752613","-73.987389","105","3","109","1015262","1008130055","Midtown-Midtown South","MANHATTAN","10018"
"1410 Broadway","Hale and Hearty","Closed Until Further Notice","No","East","40.753497","-73.987111","105","4","113","1015274","1008140052","Midtown-Midtown South","MANHATTAN","10018"
"1412 Broadway","Stub Hub","Closed Until Further Notice","No","East","40.753711","-73.987046","105","4","113","1080611","1008150014","Midtown-Midtown South","MANHATTAN","10018"
"1407 Broadway","Luke’s Lobster","Closed Until Further Notice","No","West","40.753439","-73.987151","105","3","113","1015265","1008140015","Midtown-Midtown South","MANHATTAN","10018"
"1407 Broadway","N/A","For Rent/For Lease/Retail Space Available","No","West","40.753439","-73.987151","105","3","113","1015265","1008140015","Midtown-Midtown South","MANHATTAN","10018"
"1407 Broadway","Mighty Quinn’s BBQ","Closed Until Further Notice","No","West","40.753439","-73.987151","105","3","113","1015265","1008140015","Midtown-Midtown South","MANHATTAN","10018"
"1407 Broadway","Abigael’s on Broadway","Closed Until Further Notice","No","West","40.753439","-73.987151","105","3","113","1015265","1008140015","Midtown-Midtown South","MANHATTAN","10018"
"4 Broadway","N/A","For Rent/For Lease/Retail Space Available","No","East","40.704297","-74.013215","101","1","9","1000029","1000110001","Battery Park City-Lower Manhattan","MANHATTAN","10004"
"4 Times Square","N/A","Covered Windows","No","East","40.756181","-73.986244","105","4","119","1085682","1009950005","Midtown-Midtown South","MANHATTAN","10036"
"4015 Broadway","Coogans","Surveyor Knowledge","No","West","40.841403","-73.939547","112","10","251","1063383","1021380102","Washington Heights South","MANHATTAN","10032"
"4021 Broadway","N/A","Empty","N/A","West","40.841796","-73.939333","112","10","253","1063394","1021380165","Washington Heights South","MANHATTAN","10032"
"4023 Broadway","N/A","Empty","No","West","40.841853","-73.939326","112","10","253","1081867","1021380159","Washington Heights South","MANHATTAN","10032"
"4027 Broadway","Uptown pharmacy and surgicals inc","Empty","N/A","West","40.841972","-73.939315","112","10","253","1081867","1021380159","Washington Heights South","MANHATTAN","10032"
"4029 Broadway","N/A","Empty","N/A","West","40.842029","-73.939308","112","10","253","1081867","1021380159","Washington Heights South","MANHATTAN","10032"
"4031 Broadway","N/A","Empty","No","West","40.84209","-73.9393","112","10","253","1081867","1021380159","Washington Heights South","MANHATTAN","10032"
"4031 Broadway","N/A","Empty","No","West","40.84209","-73.9393","112","10","253","1081867","1021380159","Washington Heights South","MANHATTAN","10032"
"4032 Broadway","N/A","Empty","No","West","40.842045","-73.938961","112","10","253","1063014","1021260001","Washington Heights South","MANHATTAN","10032"
"4035 Broadway","Gristedes","Empty","No","West","40.842205","-73.939289","112","10","253","1081867","1021380159","Washington Heights South","MANHATTAN","10032"
"4035 Broadway","N/A","Empty","No","West","40.842205","-73.939289","112","10","253","1081867","1021380159","Washington Heights South","MANHATTAN","10032"
"4039 Broadway","Gristedes","Empty","No","West","40.842323","-73.939275","112","10","253","1081866","1021380159","Washington Heights South","MANHATTAN","10032"
"404 Broadway","Origins NYC","We Moved","Yes","East","40.718826","-74.002359","101","1","31","1002337","1001960003","SoHo-TriBeCa-Civic Center-Little Italy","MANHATTAN","10013"
"4051 Broadway","N/A","Empty","No","West","40.842861","-73.939224","112","10","253","1063475","1021420030","Washington Heights South","MANHATTAN","10032"
"4055 Broadway","Cocina - Bar","Empty","No","West","40.842984","-73.939209","112","10","253","1063475","1021420030","Washington Heights South","MANHATTAN","10032"
"406 Broadway","OMG","For Rent/For Lease/Retail Space Available","No","East","40.718886","-74.002309","101","1","31","1002337","1001960003","SoHo-TriBeCa-Civic Center-Little Italy","MANHATTAN","10013"
"4062 Broadway","N/A","For Rent/For Lease/Retail Space Available","No","East","40.843385","-73.939129","112","10","253","1063460","1021410013","Washington Heights South","MANHATTAN","10032"
"1450 Broadway","Paris Baguette","Covered Windows","No","East","40.754927","-73.98666","105","4","113","1022568","1009930047","Midtown-Midtown South","MANHATTAN","10018"
"1440 Broadway","N/A","For Rent/For Lease/Retail Space Available","No","East","40.754611","-73.986761","105","4","113","1022563","1009930011","Midtown-Midtown South","MANHATTAN","10018"
"4103 Broadway","N/A","For Rent/For Lease/Retail Space Available","No","West","40.844861","-73.938824","112","10","263","1063500","1021420130","Washington Heights South","MANHATTAN","10033"
"412 Broadway","N/A","Empty","No","East","40.71907","-74.00215","101","1","31","1002339","1001960007","SoHo-TriBeCa-Civic Center-Little Italy","MANHATTAN","10013"
"4121 Broadway","Julie's Pharmacy","For Rent/For Lease/Retail Space Available","No","West","40.845608","-73.938639","112","10","263","1063518","1021420244","Washington Heights South","MANHATTAN","10033"
"4123 Broadway","Ivory Cleaners","Empty","No","West","40.84566","-73.938625","112","10","263","1063518","1021420244","Washington Heights South","MANHATTAN","10033"
"4124 Broadway","N/A","For Rent/For Lease/Retail Space Available","No","East","40.845668","-73.938599","112","10","263","1063528","1021430026","Washington Heights South","MANHATTAN","10033"
"4130 Broadway","Vixius","For Rent/For Lease/Retail Space Available","No","East","40.845844","-73.938545","112","10","263","1063529","1021430029","Washington Heights South","MANHATTAN","10033"
"4186 Broadway","N/A","For Rent/For Lease/Retail Space Available","No","East","40.848001","-73.937835","112","10","263","1063562","1021450026","Washington Heights South","MANHATTAN","10033"
"1466 Broadway","N/A","Covered Windows","No","East","40.755569","-73.986465","105","4","113","1022579","1009947502","Midtown-Midtown South","MANHATTAN","10036"
"6 Times Square","Jake’s Roasters","Closed Until Further Notice","No","East","40.755149","-73.986591","105","4","113","1022579","1009947502","Midtown-Midtown South","MANHATTAN","10036"
"421 Broadway","N/A","Gated","No","West","40.719564","-74.001753","102","1","47","1003013","1002310001","SoHo-TriBeCa-Civic Center-Little Italy","MANHATTAN","10013"
"4232-B Broadway","JH Wine and Liquor","We Moved","No","East",,,,,,,,,,
"4240 Broadway","N/A","Empty","Yes","East","40.84963","-73.936293","112","10","271","1063921","1021630044","Washington Heights North","MANHATTAN","10033"
"4240 Broadway","N/A","Empty","Yes","East","40.84963","-73.936293","112","10","271","1063921","1021630044","Washington Heights North","MANHATTAN","10033"
"4240 Broadway","N/A","Empty","Yes","East","40.84963","-73.936293","112","10","271","1063921","1021630044","Washington Heights North","MANHATTAN","10033"
"4250 Broadway","N/A","For Rent/For Lease/Retail Space Available","Yes","East","40.849905","-73.936011","112","10","271","1081880","1021630053","Washington Heights North","MANHATTAN","10033"
"428 Broadway","N/A","Boarded Up","Yes","East","40.719753","-74.001569","102","1","45","1002680","1002090005","SoHo-TriBeCa-Civic Center-Little Italy","MANHATTAN","10013"
"4290 Broadway","Social security administration","For Rent/For Lease/Retail Space Available","No","East","40.8512","-73.935193","112","10","271","1063925","1021640016","Washington Heights North","MANHATTAN","10033"
"Times Square Tower","The Counter","Closed Until Further Notice","No","West","40.756582","-73.989637","105","3","113","1000000","1009950001","Midtown-Midtown South","MANHATTAN","10036"
"433 Broadway","N/A","For Rent/For Lease/Retail Space Available","No","West","40.720077","-74.00132","102","1","47","1090587","1002310014","SoHo-TriBeCa-Civic Center-Little Italy","MANHATTAN","10013"
"441 Broadway","G-Star Raw","For Rent/For Lease/Retail Space Available","No","West","40.720258","-74.001165","102","1","47","1003024","1002310040","SoHo-TriBeCa-Civic Center-Little Italy","MANHATTAN","10013"
"446 Broadway","N/A","For Rent/For Lease/Retail Space Available","No","East","40.72036","-74.001053","102","1","45","1003029","1002320006","SoHo-TriBeCa-Civic Center-Little Italy","MANHATTAN","10013"
"447 Broadway","N/A","For Rent/For Lease/Retail Space Available","No","West","40.720393","-74.001053","102","1","47","1003022","1002310037","SoHo-TriBeCa-Civic Center-Little Italy","MANHATTAN","10013"
"4470 Broadway","N/A","Empty","Yes","East","40.857127","-73.932404","112","10","283","1076754","1021700070","Washington Heights North","MANHATTAN","10040"
"449 Broadway","N/A","For Rent/For Lease/Retail Space Available","No","West","40.720437","-74.001014","102","1","47","1003021","1002310036","SoHo-TriBeCa-Civic Center-Little Italy","MANHATTAN","10013"
"4490 Broadway","Shape fair fresh","Empty","No","East","40.857618","-73.932146","112","10","283","1064057","1021700078","Washington Heights North","MANHATTAN","10040"
"1516 Broadway","Old Navy","Closed Until Further Notice","No","East","40.757424","-73.985742","105","4","119","1022624","1009970001","Midtown-Midtown South","MANHATTAN","10036"
"452 Broadway","Roozee Australia","For Rent/For Lease/Retail Space Available","No","East","40.720506","-74.000931","102","1","45","1003031","1002320009","SoHo-TriBeCa-Civic Center-Little Italy","MANHATTAN","10013"
"454 Broadway","Mystique Boutique NYC","N/A","Yes","East","40.720555","-74.000891","102","1","45","1003032","1002320010","SoHo-TriBeCa-Civic Center-Little Italy","MANHATTAN","10013"
"456 Broadway","Saga America","Covered Windows","No","East","40.720602","-74.000848","102","1","45","1003033","1002320011","SoHo-TriBeCa-Civic Center-Little Italy","MANHATTAN","10013"
"1515 Broadway","T + Tissot","Empty","No","West","40.757636","-73.985804","105","3","119","1024714","1010160036","Midtown-Midtown South","MANHATTAN","10036"
"1515 Broadway","NY Line Friends","Closed Until Further Notice","No","West","40.757636","-73.985804","105","3","119","1024714","1010160036","Midtown-Midtown South","MANHATTAN","10036"
"463 Broadway","Wells Fargo","N/A","Yes","West","40.720989","-74.000548","102","1","47","1087559","1004747506","SoHo-TriBeCa-Civic Center-Little Italy","MANHATTAN","10013"
"4660 Broadway","N/A","Empty","Yes","East","40.863095","-73.930011","112","10","287","1064218","1021750001","Washington Heights North","MANHATTAN","10040"
"1535 Broadway","Invicta","Closed Until Further Notice","No","West","40.758267","-73.985468","105","3","119","1024727","1010177501","Midtown-Midtown South","MANHATTAN","10036"
"47 Broadway","China Chalet","For Rent/For Lease/Retail Space Available","No","West","40.706443","-74.01279","101","1","13","1000805","1000200012","Battery Park City-Lower Manhattan","MANHATTAN","10006"
"47 Broadway","TGI Fridays","For Rent/For Lease/Retail Space Available","No","West","40.706443","-74.01279","101","1","13","1000805","1000200012","Battery Park City-Lower Manhattan","MANHATTAN","10006"
"4732 Broadway","Debut","For Rent/For Lease/Retail Space Available","No","East","40.864922","-73.928383","112","10","287","1064225","1021750039","Washington Heights North","MANHATTAN","10040"
"4740 Broadway","N/A","For Rent/For Lease/Retail Space Available","No","East","40.8651","-73.92805","112","10","287","1064226","1021750045","Washington Heights North","MANHATTAN","10040"
"4768 Broadway","N/A","For Rent/For Lease/Retail Space Available","No","East","40.865709","-73.926748","112","10","291","1064892","1022330005","Marble Hill-Inwood","MANHATTAN","10034"
"4791 Broadway","Dr. Jose Roberto Perez Diaz Salud Paratodos","For Rent/For Lease/Retail Space Available","No","West","40.866408","-73.92581","112","10","295","1064947","1022370059","Marble Hill-Inwood","MANHATTAN","10034"
"1565 Broadway","Swarovski","Boarded Up","Yes","West","40.759192","-73.985186","105","3","125","1024749","1010180139","Midtown-Midtown South","MANHATTAN","10036"
"1580-82 Broadway","N/A","Covered Windows","No","East","40.759691","-73.984984","105","4","125","1024757","1010197501","Midtown-Midtown South","MANHATTAN","10036"
"4869 Broadway","Vape Shack","Empty","No","West","40.866835","-73.923637","112","10","295","1064955","1022380023","Marble Hill-Inwood","MANHATTAN","10034"
"1585 Broadway","Fossil","Closed Until Further Notice","No","West","40.760216","-73.985334","105","3","125","1076193","1010197502","Midtown-Midtown South","MANHATTAN","10036"
"1606 Broadway","Sbarro","For Rent/For Lease/Retail Space Available","No","East","40.760556","-73.984615","105","4","125","1024779","1010200038","Midtown-Midtown South","MANHATTAN","10019"
"4927 Broadway","New Kennedy Gyro","For Rent/For Lease/Retail Space Available","No","West","40.867514","-73.921738","112","10","295","1064984","1022410024","Marble Hill-Inwood","MANHATTAN","10034"
"1605 Broadway","The Harrison Restaurant","Closed Until Further Notice","No","West","40.760537","-73.984644","105","3","125","1076195","1010200046","Midtown-Midtown South","MANHATTAN","10019"
"1605 Broadway","Crown Plaza Hotel","Closed Until Further Notice","No","West","40.760537","-73.984644","105","3","125","1076195","1010200046","Midtown-Midtown South","MANHATTAN","10019"
"1626 Broadway","Caroline’s","Closed Until Further Notice","No","East","40.761228","-73.984178","105","4","125","1024795","1010210026","Midtown-Midtown South","MANHATTAN","10019"
"1626 Broadway","Juniors","Closed Until Further Notice","No","East","40.761228","-73.984178","105","4","125","1024795","1010210026","Midtown-Midtown South","MANHATTAN","10019"
"5009 Broadway","Mara mana","Empty","No","West","40.869158","-73.917072","112","10","303","1065002","1022430030","Marble Hill-Inwood","MANHATTAN","10034"
"5009 Broadway","H and R Block","For Rent/For Lease/Retail Space Available","No","West","40.869158","-73.917072","112","10","303","1065002","1022430030","Marble Hill-Inwood","MANHATTAN","10034"
"5025 Broadway","N/A","For Rent/For Lease/Retail Space Available","No","West","40.869396","-73.916616","112","10","303","1065009","1022430241","Marble Hill-Inwood","MANHATTAN","10034"
"5025 Broadway","N/A","For Rent/For Lease/Retail Space Available","No","West","40.869396","-73.916616","112","10","303","1065009","1022430241","Marble Hill-Inwood","MANHATTAN","10034"
"5025 Broadway","Guacamole Taqueria","For Sale","No","West","40.869396","-73.916616","112","10","303","1065009","1022430241","Marble Hill-Inwood","MANHATTAN","10034"
"1619 Broadway","N/A","Covered Windows","No","West","40.761058","-73.98433","105","3","125","1024793","1010210019","Midtown-Midtown South","MANHATTAN","10019"
"1625 Broadway","Green Apple Gourmet Food","Covered Windows","No","West","40.761223","-73.984207","105","3","125","1024801","1010210043","Midtown-Midtown South","MANHATTAN","10019"
"1619 Broadway","The Brill at W. 49th St.","For Rent/For Lease/Retail Space Available","No","West","40.761058","-73.98433","105","3","125","1024793","1010210019","Midtown-Midtown South","MANHATTAN","10019"
"1634 Broadway","Winter Garden Theatre","Closed Until Further Notice","No","East","40.761566","-73.983944","105","4","131","1024810","1010220026","Midtown-Midtown South","MANHATTAN","10019"
"1650 Broadway","Iridium","Closed Until Further Notice","No","East","40.761964","-73.983684","105","4","131","1024811","1010220035","Midtown-Midtown South","MANHATTAN","10019"
"1650 Broadway","Stardust Diner","Closed Until Further Notice","No","East","40.761964","-73.983684","105","4","131","1024811","1010220035","Midtown-Midtown South","MANHATTAN","10019"
"205 W 50th St","Applebees","Closed Until Further Notice","No","East","40.761382","-73.983926","105","4","131","1024810","1010220026","Midtown-Midtown South","MANHATTAN","10019"
"510 Broadway","Stance","For Rent/For Lease/Retail Space Available","No","East","40.722446","-73.999286","102","1","45","1007233","1004830010","SoHo-TriBeCa-Civic Center-Little Italy","MANHATTAN","10012"
"518 Broadway","Dune London","For Rent/For Lease/Retail Space Available","No","East","40.722619","-73.999141","102","1","45","1007236","1004830014","SoHo-TriBeCa-Civic Center-Little Italy","MANHATTAN","10012"
"1675 Broadway","N/A","For Rent/For Lease/Retail Space Available","No","East","40.762963","-73.983073","105","3","131","1076199","1010240015","Midtown-Midtown South","MANHATTAN","10019"
"1675 Broadway","Starbucks","Permanently Closed","No","West","40.762963","-73.983073","105","3","131","1076199","1010240015","Midtown-Midtown South","MANHATTAN","10019"
"1674 Broadway","Sapphire Gentleman’s Club","Covered Windows","No","East","40.762861","-73.983109","105","4","131","1024831","1010240131","Midtown-Midtown South","MANHATTAN","10019"
"1680 Broadway","Bank of America","Closed Until Further Notice","No","East","40.763034","-73.983005","105","4","131","1024828","1010240038","Midtown-Midtown South","MANHATTAN","10019"
"1681 Broadway","Broadway Theatre","Closed Until Further Notice","No","West","40.763117","-73.982979","105","3","131","1080865","1010240046","Midtown-Midtown South","MANHATTAN","10019"
"1675 Broadway","Apes and Peacocks Coffee Shop","Empty","No","West","40.762963","-73.983073","105","3","131","1076199","1010240015","Midtown-Midtown South","MANHATTAN","10019"
"1708 Broadway","N/A","Covered Windows","No","East","40.764181","-73.982405","105","4","137","1024850","1010260021","Midtown-Midtown South","MANHATTAN","10019"
"1701 Broadway","N/A","For Rent/For Lease/Retail Space Available","No","West","40.763781","-73.982611","105","3","131","1024839","1010250044","Midtown-Midtown South","MANHATTAN","10019"
"1706 Broadway","N/A","Covered Windows","No","East","40.764137","-73.982423","105","4","137","1024850","1010260021","Midtown-Midtown South","MANHATTAN","10019"
"54th/55th on Broadway","N/A","Covered Windows","No","East",,,,,,,,,,
"1723 Broadway","99 Cent Fresh Pizza","Covered Windows","No","East","40.764522","-73.982304","105","3","137","1078860","1010267502","Midtown-Midtown South","MANHATTAN","10019"
"1710 Broadway","Bad Boy World","Covered Windows","No","East","40.764225","-73.982391","105","4","137","1024850","1010260021","Midtown-Midtown South","MANHATTAN","10019"
"54th/55th on Broadway","N/A","Covered Windows","No","East",,,,,,,,,,
"1717 Broadway","N/A","For Rent/For Lease/Retail Space Available","No","West","40.764291","-73.982824","105","3","137","1024849","1010267501","Midtown-Midtown South","MANHATTAN","10019"
"565 Broadway","Pink Victoria's Secret","N/A","Yes","West","40.724013","-73.997987","102","1","49","1007573","1004980005","SoHo-TriBeCa-Civic Center-Little Italy","MANHATTAN","10012"
"600 Houston St","Gilly Hicks","For Rent/For Lease/Retail Space Available","No","East",,,,,,,,,,
"611 Broadway","Crate & Barrel","N/A","No","West","40.725699","-73.996558","102","1","5501","1008240","1005230048","West Village","MANHATTAN","10012"
"637 Broadway","Cariloha","For Rent/For Lease/Retail Space Available","No","West","40.726286","-73.99606","102","1","5501","1008236","1005230038","West Village","MANHATTAN","10012"
"643 Broadway","Sweetwater Social","For Rent/For Lease/Retail Space Available","No","West","40.726634","-73.995768","102","1","5501","1008622","1005320025","West Village","MANHATTAN","10012"
"659 Broadway","Blades","N/A","Yes","West","40.72706","-73.995411","102","1","5501","1077826","1005320020","West Village","MANHATTAN","10012"
"670 Broadway","Bandier","N/A","Yes","East","40.727299","-73.995183","102","1","5502","1008467","1005300001","West Village","MANHATTAN","10012"
"670 Broadway","Barbara Sturm","N/A","Yes","East","40.727299","-73.995183","102","1","5502","1008467","1005300001","West Village","MANHATTAN","10012"
"687 Broadway","Infinity Shoes","N/A","Yes","West","40.728032","-73.994584","102","1","5501","1008629","1005357501","West Village","MANHATTAN","10012"
"753 Broadway","Papyrus","For Rent/For Lease/Retail Space Available","No","West","40.730461","-73.992535","102","1","57","1080855","1005487501","West Village","MANHATTAN","10003"
"870 Broadway","Roast Kitchen","For Rent/For Lease/Retail Space Available","No","East","40.737619","-73.990167","105","2","52","1016134","1008460054","Hudson Yards-Chelsea-Flatiron-Union Square","MANHATTAN","10003"
"881 Broadway","N/A","For Rent/For Lease/Retail Space Available","No","West","40.738173","-73.990044","105","2","52","1080756","1008470062","Hudson Yards-Chelsea-Flatiron-Union Square","MANHATTAN","10003"
"890 Broadway","N/A","Empty","No","East","40.738604","-73.989911","105","2","52","1016163","1008487502","Hudson Yards-Chelsea-Flatiron-Union Square","MANHATTAN","10003"
"893 Broadway","N/A","For Rent/For Lease/Retail Space Available","No","West","40.738865","-73.98986","105","2","52","1016162","1008480014","Hudson Yards-Chelsea-Flatiron-Union Square","MANHATTAN","10003"
"900 Broadway","Tender Greens","For Rent/For Lease/Retail Space Available","No","East","40.739109","-73.989773","105","2","52","1016184","1008480061","Hudson Yards-Chelsea-Flatiron-Union Square","MANHATTAN","10003"
"901 Broadway","Brooks Brothers Red Fleece Cafe","For Rent/For Lease/Retail Space Available","No","West","40.739112","-73.989795","105","2","52","1016185","1008480068","Hudson Yards-Chelsea-Flatiron-Union Square","MANHATTAN","10003"
"902 Broadway","Safavieh Home","We Moved","No","East","40.739279","-73.989726","105","2","52","1016201","1008490016","Hudson Yards-Chelsea-Flatiron-Union Square","MANHATTAN","10010"
"909 Broadway","N/A","For Rent/For Lease/Retail Space Available","No","West","40.739463","-73.989701","105","2","52","1080763","1008490010","Hudson Yards-Chelsea-Flatiron-Union Square","MANHATTAN","10010"
"91 Leonard","N/A","For Rent/For Lease/Retail Space Available","No","West",,,,,,,,,,
"915 Broadway","N/A","For Rent/For Lease/Retail Space Available","No","West","40.739644","-73.989654","105","2","52","1016226","1008490070","Hudson Yards-Chelsea-Flatiron-Union Square","MANHATTAN","10010"
"931 Broadway","Le Pain Quotidien","For Rent/For Lease/Retail Space Available","No","West","40.740259","-73.989488","105","2","56","1080766","1008500011","Hudson Yards-Chelsea-Flatiron-Union Square","MANHATTAN","10010"
"935 Broadway","N/A","For Rent/For Lease/Retail Space Available","Yes","West","40.740372","-73.989459","105","2","56","1016266","1008500075","Hudson Yards-Chelsea-Flatiron-Union Square","MANHATTAN","10010"
"938 Broadway","N/A","For Rent/For Lease/Retail Space Available","No","East","40.740481","-73.989409","105","2","56","1016277","1008507502","Hudson Yards-Chelsea-Flatiron-Union Square","MANHATTAN","10010"
"949 Broadway","Argo Tea","For Rent/For Lease/Retail Space Available","Yes","West","40.740975","-73.989268","105","2","56","1016278","1008510001","Hudson Yards-Chelsea-Flatiron-Union Square","MANHATTAN","10010"
"958 Sixth Avenue","Desigual","Closed Until Further Notice","No","East","40.750351","-73.987353","105","4","76","1015882","1008360083","Midtown-Midtown South","MANHATTAN","10001"
"684 Broadway","N/A","N/A","Yes","East","40.727905","-73.994667","102","1","5502","1008506","1005310001","West Village","MANHATTAN","10012"
"688 Broadway","N/A","N/A","Yes","East","40.728073","-73.994527","102","1","5502","1090586","1005317505","West Village","MANHATTAN","10012"
"704 Broadway","N/A","For Rent/For Lease/Retail Space Available","No","East","40.728682","-73.994011","102","2","57","1008790","1005457502","West Village","MANHATTAN","10003"
"642 Broadway","N/A","N/A","Yes","East","40.726366","-73.995966","102","1","5502",,,"West Village","MANHATTAN","10012"
"641 Broadway","N/A","For Rent/For Lease/Retail Space Available","No","West","40.726376","-73.995984","102","1","5501","1008236","1005230038","West Village","MANHATTAN","10012"
"646 Broadway","N/A","For Rent/For Lease/Retail Space Available","No","East","40.726665","-73.995714","102","1","5502","1008418","1005290001","West Village","MANHATTAN","10012"
"652 Broadway","N/A","For Rent/For Lease/Retail Space Available","No","East","40.726785","-73.995613","102","1","5502","1008421","1005290005","West Village","MANHATTAN","10012"
"666 Broadway","N/A","For Rent/For Lease/Retail Space Available","No","East","40.727065","-73.995378","102","1","5502","1008455","1005297501","West Village","MANHATTAN","10012"
"518 Broadway","N/A","For Rent/For Lease/Retail Space Available","No","West","40.722619","-73.999141","102","1","45","1007236","1004830014","SoHo-TriBeCa-Civic Center-Little Italy","MANHATTAN","10012"
"815 Broadway","N/A","For Rent/For Lease/Retail Space Available","No","West","40.732983","-73.991174","102","2","61","1009135","1005630033","West Village","MANHATTAN","10003"
"809 Broadway","N/A","For Rent/For Lease/Retail Space Available","No","West","40.732804","-73.991214","102","2","61","1009137","1005637503","West Village","MANHATTAN","10003"
"830 Broadway","N/A","For Rent/For Lease/Retail Space Available","No","East","40.73348","-73.991044","102","2","61","1077828","1005640036","West Village","MANHATTAN","10003"
"761 Broadway","Walgreens","For Rent/For Lease/Retail Space Available","No","West","40.730817","-73.992232","102","2","59","1009092","1005607503","West Village","MANHATTAN","10003"
"470 Broadway","N/A","For Rent/For Lease/Retail Space Available","No","East","40.7212","-74.000343","102","1","45","1007011","1004730005","SoHo-TriBeCa-Civic Center-Little Italy","MANHATTAN","10013"
"479 Broadway","N/A","For Rent/For Lease/Retail Space Available","No","West","40.721433","-74.00017","102","1","47","1007050","1004740033","SoHo-TriBeCa-Civic Center-Little Italy","MANHATTAN","10013"
"620 Broadway","N/A","For Rent/For Lease/Retail Space Available","No","East","40.725924","-73.996342","102","1","5502","1008210","1005220004","West Village","MANHATTAN","10012"
"598 Broadway","N/A","For Rent/For Lease/Retail Space Available","No","East","40.725045","-73.997085","102","1","43","1007945","1005110015","SoHo-TriBeCa-Civic Center-Little Italy","MANHATTAN","10012"
"597 Broadway","N/A","For Rent/For Lease/Retail Space Available","No","West","40.724979","-73.997168","102","1","49","1075999","1005127503","SoHo-TriBeCa-Civic Center-Little Italy","MANHATTAN","10012"
"590 Broadway","N/A","For Rent/For Lease/Retail Space Available","No","East","40.724872","-73.997233","102","1","43","1079998","1005110008","SoHo-TriBeCa-Civic Center-Little Italy","MANHATTAN","10012"
"583 Broadway","N/A","For Rent/For Lease/Retail Space Available","No","West","40.724694","-73.99741","102","1","49","1007955","1005127501","SoHo-TriBeCa-Civic Center-Little Italy","MANHATTAN","10012"
"591 Broadway","N/A","Permanently Closed","No","East","40.724859","-73.997273","102","1","49","1007951","1005120015","SoHo-TriBeCa-Civic Center-Little Italy","MANHATTAN","10012"
"580 Broadway","N/A","For Rent/For Lease/Retail Space Available","No","East","40.724658","-73.997413","102","1","43","1007943","1005110006","SoHo-TriBeCa-Civic Center-Little Italy","MANHATTAN","10012"
"544 Broadway","N/A","For Rent/For Lease/Retail Space Available","No","East","40.72353","-73.998369","102","1","43","1007563","1004977503","SoHo-TriBeCa-Civic Center-Little Italy","MANHATTAN","10012"
"534 Broadway","N/A","For Rent/For Lease/Retail Space Available","No","East","40.723294","-73.998571","102","1","43","1007560","1004970001","SoHo-TriBeCa-Civic Center-Little Italy","MANHATTAN","10012"
"545 Broadway","Muji","For Rent/For Lease/Retail Space Available","No","West","40.723566","-73.998366","102","1","49","1007578","1004980016","SoHo-TriBeCa-Civic Center-Little Italy","MANHATTAN","10012"
"547 Broadway","N/A","For Rent/For Lease/Retail Space Available","No","West","40.723613","-73.998326","102","1","49","1007577","1004980015","SoHo-TriBeCa-Civic Center-Little Italy","MANHATTAN","10012"
"Spring and Prince on Broadway","N/A","For Rent/For Lease/Retail Space Available","No","West",,,,,,,,,,
"710 Broadway and 722 Broadway","N/A","For Rent/For Lease/Retail Space Available","No","East","40.728822","-73.993892","102","2","57","1008791","1005450007","West Village","MANHATTAN","10003"
"734 Broadway and 736 Broadway","N/A","For Rent/For Lease/Retail Space Available","No","East","40.729708","-73.993141","102","2","57","1008798","1005450021","West Village","MANHATTAN","10003"
"873 Broadway","Duane Reade","For Rent/For Lease/Retail Space Available","No","West","40.737901","-73.990109","105","2","52","1080750","1008470016","Hudson Yards-Chelsea-Flatiron-Union Square","MANHATTAN","10003"
"1282 Broadway","N/A","Permanently Closed","No","East","40.749092","-73.988018","105","4","76","1015859","1008350001","Midtown-Midtown South","MANHATTAN","10001"
"2211 Broadway","N/A","For Rent/For Lease/Retail Space Available","No","West","40.783534","-73.980219","107","6","167","1030903","1011707502","Upper West Side","MANHATTAN","10024"
"1372 Broadway","N/A","Empty","No","East","40.75227","-73.987454","105","4","109","1080609","1008130023","Midtown-Midtown South","MANHATTAN","10018"
"100 W 33rd St","Manhattan Mall","Empty","N/A","West","40.7493","-73.988675","105","3","101","1015190","1008080040","Midtown-Midtown South","MANHATTAN","10001"
"1204 Broadway","N/A","Empty","No","East","40.746264","-73.988538","105","4","76","1015758","1008310019","Midtown-Midtown South","MANHATTAN","10001"
"2021 Broadway","Former Duane Reade","For Rent/For Lease/Retail Space Available","No","West","40.776486","-73.982142","107","6","153","1076231","1011417502","Lincoln Square","MANHATTAN","10023"
"2325 Broadway","Former Origins","For Rent/For Lease/Retail Space Available","No","West","40.787272","-73.977405","107","6","171","1033104","1012327501","Upper West Side","MANHATTAN","10024"
"222 W 80","N/A","For Rent/For Lease/Retail Space Available","No","East",,,,,,,,,,
"2321 Broadway","Former Aldo","For Rent/For Lease/Retail Space Available","Yes","West","40.787187","-73.977481","107","6","171","1033104","1012327501","Upper West Side","MANHATTAN","10024"
"251 W 86th St","Former Banana Republic","Surveyor Knowledge","No","West","40.78851","-73.976942","107","6","175","1076251","1012347501","Upper West Side","MANHATTAN","10024"
"15 Union Square West","N/A","For Rent/For Lease/Retail Space Available","No","West","40.735791","-73.991297","105","2","52","1016065","1008427502","Hudson Yards-Chelsea-Flatiron-Union Square","MANHATTAN","10003"
"19 Union Square West Suite 2235","N/A","For Sale","No","West","40.736065","-73.991098","105","2","52","1016074","1008430020","Hudson Yards-Chelsea-Flatiron-Union Square","MANHATTAN","10003"
"2280 Broadway","N/A","For Rent/For Lease/Retail Space Available","No","East","40.785922","-73.97842","107","6","171","1076247","1012307501","Upper West Side","MANHATTAN","10024"
"2322 Broadway","Former GameStop","For Rent/For Lease/Retail Space Available","No","East","40.787181","-73.977455","107","6","171","1033105","1012320014","Upper West Side","MANHATTAN","10024"
"251 W 86th St","Former Banana Republic","For Rent/For Lease/Retail Space Available","No","East","40.78851","-73.976942","107","6","175","1076251","1012347501","Upper West Side","MANHATTAN","10024"
"2261 Broadway","N/A","Empty","No","West","40.785255","-73.97894","107","6","167","1032679","1012290008","Upper West Side","MANHATTAN","10024"
"2401 Broadway","(Former Duane Reade)","For Rent/For Lease/Retail Space Available","No","West","40.789731","-73.975382","107","6","175","1033291","1012360010","Upper West Side","MANHATTAN","10024"
