"_10_digit_bbl","borocode","block","lot","streetnumber","street_address","postcode","dof_square_footage","borough","latitude","longitude","community_board","council_district","census_tract","bin","nta"
"1015317501","1","1531","7501","205","EAST   85 STREET","10028","303383","MANHATTAN","40.777977","-73.954079","108","5","14601","1087920","Yorkville"
"1015320001","1","1532","1","203","EAST   86 STREET","10028","256810","MANHATTAN","40.778674","-73.953613","108","5","14602","1048787","Yorkville"
"1015320004","1","1532","4","1533","3 AVENUE","10028","222000","MANHATTAN","40.779061","-73.953797","108","5","14602","1077854","Yorkville"
"1015320015","1","1532","15","1740","BROADWAY","10028","57745","MANHATTAN","40.765098","-73.982095","105","4","137","1024877","Midtown-Midtown South"
"1015320016","1","1532","16","230","E 85TH ST","10028","104440","MANHATTAN","40.777787","-73.953672","108","5","14601","1048745","Yorkville"
"1015320022","1","1532","22","4","PARK AVE","10028","363388","MANHATTAN","40.746752","-73.981598","105","2","74","1017084","Midtown-Midtown South"
"1015327501","1","1532","7501","225","EAST   86 STREET","10028","64921","MANHATTAN","40.778525","-73.953259","108","5","14602","1048792","Yorkville"
"1015330001","1","1533","1","201","EAST   87 STREET","10128","510307","MANHATTAN","40.779363","-73.953151","108","5","14602","1048809","Yorkville"
"1015330022","1","1533","22","1740","BROADWAY","10128","169507","MANHATTAN","40.765098","-73.982095","105","4","137","1024877","Midtown-Midtown South"
"1015330032","1","1533","32","9","E 38TH ST","10128","130500","MANHATTAN","40.750628","-73.981918","105","4","82","1017229","Murray Hill-Kips Bay"
"1015330122","1","1533","122","770","LEXINGTON AVE","10128","148031","MANHATTAN","40.763097","-73.967562","108","4","11402","1041920","Upper East Side-Carnegie Hill"
"1015340012","1","1534","12","640","FIFTH AVENUE, 3RD F","10128","120555","MANHATTAN","40.759432","-73.977122","105","4","104","1034516","Midtown-Midtown South"
"1015347501","1","1534","7501","200","EAST   89 STREET","10128","266776","MANHATTAN","40.780606","-73.952243","108","5","14602","1073221","Yorkville"
"1015350003","1","1535","3","4","PARK AVE","10128","192445","MANHATTAN","40.746752","-73.981598","105","2","74","1017084","Midtown-Midtown South"
"1015367501","1","1536","7501","1601","3 AVENUE","10128","1968872","MANHATTAN","40.781476","-73.952044","108","5","154","1086170","Yorkville"
"1015370022","1","1537","22","1619","3RD AVE","10128","693459","MANHATTAN","40.781868","-73.951751","108","5","154","1086171","Yorkville"
"1015377501","1","1537","7501","1623","3 AVENUE","10128","1968872","MANHATTAN","40.782098","-73.951581","108","5","154","1086172","Yorkville"
"1015380001","1","1538","1","1779","2ND AVE","10128","51746","MANHATTAN","40.782097","-73.948682","108","5","154","1078601","Yorkville"
"1015380021","1","1538","21","1769","2ND AVE","10128","759187","MANHATTAN","40.781875","-73.948841","108","5","154","1078601","Yorkville"
"1015390001","1","1539","1","1663","3 AVENUE","10128","486484","MANHATTAN","40.783407","-73.95062","108","5","154","1048916","Yorkville"
"1015390010","1","1539","10","225","E 93RD ST","10128","109913","MANHATTAN","40.782968","-73.950017","108","5","154","1048917","Yorkville"
"1015397501","1","1539","7501","675","3RD AVE","10128","445989","MANHATTAN","40.750791","-73.973963","106","4","88","1037549","Turtle Bay-East Midtown"
"1015410001","1","1541","1","390","PARK AVE","10128","329850","MANHATTAN","40.75942","-73.972361","105","4","102","1035732","Midtown-Midtown South"
"1015420014","1","1542","14","325","EAST   79 STREET","10075","129350","MANHATTAN","40.773025","-73.954289","108","5","138","1049250","Yorkville"
"1015420019","1","1542","19","18","E 64TH ST","10075","431000","MANHATTAN","40.767014","-73.969856","108","4","122","1041050","Upper East Side-Carnegie Hill"
"1015420033","1","1542","33","201","E 42ND ST","10075","92854","MANHATTAN","40.750714","-73.974295","106","4","88","1037549","Turtle Bay-East Midtown"
"1015427501","1","1542","7501","301","E 79TH ST","10075","485961","MANHATTAN","40.773193","-73.954693","108","5","138","1049261","Yorkville"
"1015430009","1","1543","9","37","W 19TH ST","10075","54684","MANHATTAN","40.739647","-73.992678","105","3","54","1015466","Hudson Yards-Chelsea-Flatiron-Union Square"
"1015437501","1","1543","7501","101","PARK AVE","10075","377823","MANHATTAN","40.750992","-73.978485","105","4","80","1036144","Murray Hill-Kips Bay"
"1015440019","1","1544","19","345","EAST   81 STREET","10028","217720","MANHATTAN","40.774183","-73.952952","108","5","138","1049854","Yorkville"
"1015447501","1","1544","7501","390","PARK AVE","10028","254708","MANHATTAN","40.75942","-73.972361","105","4","102","1035732","Midtown-Midtown South"
"1015460001","1","1546","1","9200","E PANORAMA CIR","10028","268750",,,,,,,,
"1015460023","1","1546","23","351","E 83RD ST","10028","267771","MANHATTAN","40.775426","-73.951962","108","5","138","1049931","Yorkville"
"1015460035","1","1546","35","20","W 55TH ST","10028","52900","MANHATTAN","40.762042","-73.975829","105","4","104","1034807","Midtown-Midtown South"
"1015470023","1","1547","23","300","E 34TH ST","10028","261150","MANHATTAN","40.744731","-73.975788","106","2","70","1078843","Murray Hill-Kips Bay"
"1015470049","1","1547","49","1632","2 AVENUE","10028","218170","MANHATTAN","40.77695","-73.952408","108","5","14601","1078565","Yorkville"
"1015480036","1","1548","36","334","EAST   86 STREET","10028","62990","MANHATTAN","40.777476","-73.950819","108","5","14601","1050007","Yorkville"
"1015487502","1","1548","7502","305","EAST   85 STREET","10028","110487","MANHATTAN","40.777024","-73.951813","108","5","14601","1088093","Yorkville"
"1015490018","1","1549","18","201","E 42ND ST","10028","154185","MANHATTAN","40.750714","-73.974295","106","4","88","1037549","Turtle Bay-East Midtown"
"1015500001","1","1550","1","1682","2 AVENUE","10128","138304","MANHATTAN","40.778643","-73.951169","108","5","14602","1050044","Yorkville"
"1015500007","1","1550","7","50","W 17TH ST","10128","113000","MANHATTAN","40.738585","-73.99384","105","3","54","1015405","Hudson Yards-Chelsea-Flatiron-Union Square"
"1015507501","1","1550","7501","5","E 43RD ST 14 FL","10128","276771","MANHATTAN","40.753965","-73.979921","105","4","94","1035356","Midtown-Midtown South"
"1015510005","1","1551","5","305","EAST   88 STREET","10128","73878","MANHATTAN","40.779046","-73.950454","108","5","14602","1078637","Yorkville"
"1015520023","1","1552","23","389","EAST   89 STREET","10128","209730","MANHATTAN","40.779037","-73.948489","108","5","154","1050118","Yorkville"
"1015530027","1","1553","27","1749","1 AVENUE","10128","164384","MANHATTAN","40.77981","-73.947247","108","5","154","1087664","Yorkville"
"1015540032","1","1554","32","342","EAST   92 STREET","10128","93200","MANHATTAN","40.781232","-73.947899","108","5","154","1081267","Yorkville"
"1015547501","1","1554","7501","666","BROADWAY","10128","185321","MANHATTAN","40.727065","-73.995378","102","1","5502","1008455","West Village"
"1015550023","1","1555","23","675","3RD AVE","10128","301851","MANHATTAN","40.750791","-73.973963","106","4","88","1037549","Turtle Bay-East Midtown"
"1015557501","1","1555","7501","415","MADISON AVE","10128","224509","MANHATTAN","40.756808","-73.976343","105","4","94","1035439","Midtown-Midtown South"
"1015560017","1","1556","17","1249","PARK AVE","10128","54450","MANHATTAN","40.78696","-73.952239","111","5","15802","1051717","East Harlem South"
"1015560023","1","1556","23","1740","BROADWAY","10128","340068","MANHATTAN","40.765098","-73.982095","105","4","137","1024877","Midtown-Midtown South"
"1015560040","1","1556","40","1","GUSTAVE L LEVY PL","10128","56700","MANHATTAN","40.790443","-73.953793","111","8","168","1083923","East Harlem South"
"1015570025","1","1557","25","345","EAST   94 STREET","10128","207037","MANHATTAN","40.782486","-73.946934","108","5","15601","1087329","Yorkville"
"1015577502","1","1557","7502","301","E 94TH ST","10128","121305","MANHATTAN","40.782799","-73.947678","108","5","15601","1050324","Yorkville"
"1015580003","1","1558","3","1844","2ND AVE","10128","102750","MANHATTAN","40.783785","-73.94741","108","5","15601","1087822","Yorkville"
"1015580040","1","1558","40","1249","PARK AVE","10128","149485","MANHATTAN","40.78696","-73.952239","111","5","15802","1051717","East Harlem South"
"1015580050","1","1558","50","1852","2 AVENUE","10128","62500","MANHATTAN","40.784021","-73.94724","108","5","15601","1050342","Yorkville"
"1015590005","1","1559","5","409","EAST   79 STREET","10075","130935","MANHATTAN","40.772155","-73.952213","108","5","136","1081274","Yorkville"
"1015590010","1","1559","10","9","E 38TH ST","10075","184816","MANHATTAN","40.750628","-73.981918","105","4","82","1017229","Murray Hill-Kips Bay"
"1015590019","1","1559","19","417","5TH AVE","10075","277073","MANHATTAN","40.750691","-73.982907","105","4","82","1017224","Murray Hill-Kips Bay"
"1015590033","1","1559","33",,"PO BOX 87407 19270","10075","137238",,,,,,,,
"1015600001","1","1560","1","110","E 59TH ST","10028","302049","MANHATTAN","40.762631","-73.969157","105","4","11203","1037165","Turtle Bay-East Midtown"
"1015600021","1","1560","21","7","PENN PLZ","10028","223798","MANHATTAN","40.74969","-73.993431","105","3","101","1014343","Midtown-Midtown South"
"1015600031","1","1560","31","44O","EAST   81 STREET","10028","56064","MANHATTAN","40.777444","-73.960731","108","4","142",,"Upper East Side-Carnegie Hill"
"1015610001","1","1561","1","1562","1ST AVE","10028","210428","MANHATTAN","40.773801","-73.951606","108","5","136","1050385","Yorkville"
"1015610021","1","1561","21","1533","YORK AVENUE","10028","502595","MANHATTAN","40.772807","-73.949415","108","5","136","1050396","Yorkville"
"1015627501","1","1562","7501","450","EAST   83 STREET","10028","198774","MANHATTAN","40.77444","-73.949663","108","5","136","1087459","Yorkville"
"1015630004","1","1563","4","1608","1 AVENUE","10028","302854","MANHATTAN","40.775266","-73.950539","108","5","136","1085139","Yorkville"
"1015630020","1","1563","20","449","EAST   83 STREET","10028","54482","MANHATTAN","40.774467","-73.949684","108","5","136","1050459","Yorkville"
"1015630032","1","1563","32","415","MADISON AVE","10028","112037","MANHATTAN","40.756808","-73.976343","105","4","94","1035439","Midtown-Midtown South"
"1015640047","1","1564","47","8","W 38TH ST","10028","207546","MANHATTAN","40.751215","-73.983354","105","4","84","1075696","Midtown-Midtown South"
"2033190029","2","3319","29","2830","MORRIS AVE","10468","58962","BRONX","40.870826","-73.893589","207","14","40303","2017537","Van Cortlandt Village"
"2033190050","2","3319","50","111","BROOK ST","10468","58232",,,,,,,,
"2033190064","2","3319","64",,"PO BOX 300449","10468","82500",,,,,,,,
"2033190072","2","3319","72","2914","JEROME AVE","10468","124492","BRONX","40.871924","-73.890225","207","14","40701","2017597","Van Cortlandt Village"
"2033190083","2","3319","83","2074","STEINWAY ST","10468","95000",,,,,,,,
"2033190103","2","3319","103","2895","GRAND CONCOURSE","10468","54000","BRONX","40.870974","-73.889601","207","14","40701","2017602","Van Cortlandt Village"
"2033190107","2","3319","107",,"PO BOX 771","10468","75560",,,,,,,,
"2033200013","2","3320","13","6","FURLER ST","10468","81700",,,,,,,,
"2033200044","2","3320","44","145","HUGUENOT ST  SUITE #","10458","71250",,,,,,,,
"2033200052","2","3320","52","2927","VALENTINE AVENUE","10458","59320","BRONX","40.870969","-73.887471","207","11","40702","2092517","Bedford Park-Fordham North"
"2033200060","2","3320","60","2922","GRAND CONCOURSE","10458","66469","BRONX","40.871519","-73.888627","207","11","40702","2017622","Bedford Park-Fordham North"
"2033210050","2","3321","50","3081","VILLA AVE","10468","76340","BRONX","40.874128","-73.888005","207","11","411","2017637","Bedford Park-Fordham North"
"2033220057","2","3322","57","3121","VILLA AVENUE","10468","106586","BRONX","40.875146","-73.887529","207","11","411","2116616","Bedford Park-Fordham North"
"2033230022","2","3323","22","3235","GRAND CONCOURSE","10468","105000","BRONX","40.877488","-73.885258","207","11","411","2017667","Bedford Park-Fordham North"
"2033240011","2","3324","11","75","W MOSHOLU PARKWAY N","10467","93242","BRONX","40.882876","-73.885111","207","11","421","2017672","Norwood"
"2033240013","2","3324","13","66","WEST GUN HILL ROAD","10467","51450","BRONX","40.883207","-73.884279","207","11","421","2017673","Norwood"
"2033240014","2","3324","14","POBOX11","WOODLAWN STATION","10467","64400",,,,,,,,
"2033240030","2","3324","30","2751","GRAND CONCOURSE","10467","53900","BRONX","40.868185","-73.89278","207","14","40303","2017431","Van Cortlandt Village"
"2033240063","2","3324","63","3475","KNOX PLACE","10467","60879","BRONX","40.882536","-73.882801","207","11","421","2017689","Norwood"
"2033240070","2","3324","70","3451","KNOX PLACE","10467","56000","BRONX","40.882212","-73.883178","207","11","421","2017691","Norwood"
"2033240082","2","3324","82","3425","KNOX PLACE","10467","68500","BRONX","40.881864","-73.883587","207","11","421","2017694","Norwood"
"2033240099","2","3324","99","15","W MOSHOLU PARKWAY N","10467","53041","BRONX","40.881019","-73.884138","207","11","421","2017698","Norwood"
"2033240123","2","3324","123","15","KIMBALL AVE","10467","82501",,,,,,,,
"2033240130","2","3324","130","3472","KNOX PLACE","10467","54000","BRONX","40.882497","-73.882819","207","11","421","2017707","Norwood"
"2033260001","2","3326","1","115","E MOSHOLU PARKWAY N","10467","92000","BRONX","40.877386","-73.882051","207","11","419","2017719","Norwood"
"2033260045","2","3326","45","N/A","N/A","10467","56000",,,,,,,,
"2033260064","2","3326","64","314","MCDONALD AVE","10467","61500",,,,,,,,
"2033260100","2","3326","100","1601","BRONXDALE AVE","10467","51540","BRONX","40.843548","-73.856945","211","13","238","2043253","Van Nest-Morris Park-Westchester Square"
"2033260105","2","3326","105","45","E MOSHOLU PARKWAY N","10467","70650","BRONX","40.879437","-73.88323","207","11","419","2017751","Norwood"
"2033260150","2","3326","150","55","EAST  208 STREET","10467","54775","BRONX","40.879634","-73.882311","207","11","419","2017762","Norwood"
"2033260155","2","3326","155","145","HUGUENOT ST  SUITE #","10467","58001",,,,,,,,
"2033270001","2","3327","1","111","E 210TH ST","10467","895256","BRONX","40.879885","-73.880481","207","11","421","2096399","Norwood"
"2033270067","2","3327","67","3424","DEKALB AVENUE","10467","65000","BRONX","40.880756","-73.882096","207","11","421","2017766","Norwood"
"2033270119","2","3327","119","1303","53RD ST","10467","55680",,,,,,,,
"2033270132","2","3327","132","287","E GUN HILL RD","10467","89250","BRONX","40.8793","-73.874819","207","11","431","2018623","Norwood"
"2033270142","2","3327","142","1510","SAINT PETERS AVE","10467","52500","BRONX","40.839951","-73.846674","210","13","200","2041877","Van Nest-Morris Park-Westchester Square"
"2033280010","2","3328","10","40","WORTH ST","10467","78600",,,,,,,,
"2033280039","2","3328","39","6485","BROADWAY","10467","88200","BRONX","40.905352","-73.896457","208","11","345","2091886","North Riverdale-Fieldston-Riverdale"
"2033280050","2","3328","50","20","W 55TH ST","10467","89250",,,,,,,,
"2033280064","2","3328","64","1601","BRONXDALE AVE","10467","60301","BRONX","40.843548","-73.856945","211","13","238","2043253","Van Nest-Morris Park-Westchester Square"
"2033280075","2","3328","75",,"PO BOX 5027","10467","70200",,,,,,,,
"2033280085","2","3328","85",,"PO BOX 599","10467","61000",,,,,,,,
"2033280090","2","3328","90","5600A","BROADWAY","10467","106550","BRONX","40.879534","-73.904345","208","11","283","2000000","Spuyten Duyvil-Kingsbridge"
"2033280097","2","3328","97","1601","BRONXDALE AVE","10467","52001","BRONX","40.843548","-73.856945","211","13","238","2043253","Van Nest-Morris Park-Westchester Square"
"2033280102","2","3328","102","3563","BAINBRIDGE AVE","10467","50075","BRONX","40.882871","-73.877918","207","11","431","2017809","Norwood"
"2033280108","2","3328","108","3555","BAINBRIDGE AVE","10467","66300","BRONX","40.882352","-73.878079","207","11","431","2017810","Norwood"
"2033280143","2","3328","143","210","W 90TH ST","10467","52001",,,,,,,,
"2033280171","2","3328","171","3535","ROCHAMBEAU AVENUE","10467","85094","BRONX","40.882408","-73.879058","207","11","431","2017831","Norwood"
"2033290010","2","3329","10","3572","DEKALB AVENUE","10467","66600","BRONX","40.884277","-73.878885","207","11","431","2017835","Norwood"
"2033290020","2","3329","20","3576","DEKALB AVENUE","10467","66600","BRONX","40.884346","-73.878834","207","11","431","2017836","Norwood"
"2033290064","2","3329","64","1601","BRONXDALE AVE","10467","60300","BRONX","40.843548","-73.856945","211","13","238","2043253","Van Nest-Morris Park-Westchester Square"
"2033290085","2","3329","85","315","HUDSON ST","10467","79275",,,,,,,,
"2033300073","2","3330","73","3156","PERRY AVE","10467","53000","BRONX","40.873707","-73.877932","207","11","425","2018304","Norwood"
"2033310001","2","3331","1","349","E 149TH ST","10467","69336","BRONX","40.81667","-73.919959","201","17","65","2000933","Melrose South-Mott Haven North"
"2033310020","2","3331","20","3060","DECATUR AVENUE","10467","52800","BRONX","40.870993","-73.879025","207","11","425","2017883","Norwood"
"2033320021","2","3332","21","145","HUGUENOT ST","10467","56000",,,,,,,,
"2033320042","2","3332","42",,"PO BOX 1847","10467","64740",,,,,,,,
"2033320072","2","3332","72","3055","DECATUR AVENUE","10467","55200","BRONX","40.870941","-73.879155","207","11","425","2017933","Norwood"
"2033320081","2","3332","81","375","E MOSHOLU PARKWAY N","10467","62118","BRONX","40.870662","-73.880049","207","11","425","2017934","Norwood"
"2033330001","2","3333","1","323","E MOSHOLU PARKWAY N","10467","61620","BRONX","40.871942","-73.880408","207","11","425","2017936","Norwood"
"2033340053","2","3334","53","1085","E 12TH ST","10467","75600",,,,,,,,
"2033350005","2","3335","5",,"PO BOX 1920","10467","73000",,,,,,,,
"2033350050","2","3335","50","3240","E TREMONT AVE","10467","87930","BRONX","40.835727","-73.833129","210","13","194","2095188","Schuylerville-Throgs Neck-Edgewater Park"
"2033350060","2","3335","60",,"PO BOX 139","10467","174705",,,,,,,,
"2033350118","2","3335","118","825","E 233RD ST","10467","75610","BRONX","40.892227","-73.853672","212","12","430","2068259","Woodlawn-Wakefield"
"2033350128","2","3335","128","3171","ROCHAMBEAU AVENUE","10467","50410","BRONX","40.875243","-73.880482","207","11","419","2018010","Norwood"
"2033350150","2","3335","150","3200","ROCHAMBEAU AVENUE","10467","55600","BRONX","40.876232","-73.880603","207","11","419","2018018","Norwood"
"2033350193","2","3335","193","3186","ROCHAMBEAU AVENUE","10467","70000","BRONX","40.875845","-73.880546","207","11","419","2018036","Norwood"
"2033360001","2","3336","1",,"PO BOX 1393","10467","69960",,,,,,,,
"2033360011","2","3336","11","3810","14TH AVE","10467","105060",,,,,,,,
"2033360027","2","3336","27","156A","E 83RD ST","10467","59000",,,,,,,,
"2033370035","2","3337","35","111","E 210TH ST","10467","312490","BRONX","40.879885","-73.880481","207","11","421","2096399","Norwood"
"2033380035","2","3338","35","111","E 210TH ST","10467","53500","BRONX","40.879885","-73.880481","207","11","421","2096399","Norwood"
"2033410034","2","3341","34","287","E GUN HILL RD","10467","68000","BRONX","40.8793","-73.874819","207","11","431","2018623","Norwood"
"2033410057","2","3341","57","312","E 206TH ST","10467","63000","BRONX","40.87487","-73.877886","207","11","423","2018120","Norwood"
"2033420001","2","3342","1","1919","WILLIAMSBRIDGE RD","10467","71000","BRONX","40.852799","-73.853325","211","13","250","2048553","Pelham Parkway"
"2028879100","2","2887","9100","110","WILLIAM ST","10456","100434",,,,,,,,
"2028910042","2","2891","42","308","EAST  175 STREET","10457","54100","BRONX","40.846622","-73.904381","205","15","231","2100983","Mount Hope"
"2028920011","2","2892","11","1325","CASTLE HILL AVE 2ND","10457","64032","BRONX","40.835129","-73.851954","209","18","222","2029046","Parkchester"
"2028920024","2","2892","24","320","EAST  176 STREET","10457","69145","BRONX","40.847472","-73.903216","205","15","231","2009375","Mount Hope"
"2028950001","2","2895","1","1402","WEBSTER AVE","10456","753113","BRONX","40.836389","-73.907294","203","16","14702","2092078","Claremont-Bathgate"
"2028970127","2","2897","127","1735","PARK AVE","10457","56700",,,,,,,,
"2029010001","2","2901","1","250","BROADWAY","10458","572187",,,,,,,,
"2029020036","2","2902","36","250","BROADWAY","10458","339386",,,,,,,,
"2029100001","2","2910","1","250","BROADWAY","10456","582125",,,,,,,,
"2029110001","2","2911","1","250","BROADWAY","10456","473722",,,,,,,,
"2029140001","2","2914","1","515","EASTERN AVE","10457","76000",,,,,,,,
"2029150001","2","2915","1","515","EASTERN AVE","10457","118400",,,,,,,,
"2029170017","2","2917","17","42","W 39TH 14TH FLOOR","10457","122650",,,,,,,,
"2029190005","2","2919","5","1574","BATHGATE AVE","10457","58954","BRONX","40.838844","-73.901515","203","16","167","2009582","Claremont-Bathgate"
"2029190043","2","2919","43","49","W 37TH ST","10457","78300",,,,,,,,
"2029200002","2","2920","2","1628","BATHGATE AVENUE","10457","57000","BRONX","40.840303","-73.900697","203","16","167","2086675","Claremont-Bathgate"
"2029210001","2","2921","1","515","EASTERN AVE","10457","110000",,,,,,,,
"2029230026","2","2923","26","52","CHAMBERS ST","10457","156422",,,,,,,,
"2029250042","2","2925","42","550","EAST  170 STREET","10456","102897","BRONX","40.834802","-73.90266","203","16","14701","2009616","Claremont-Bathgate"
"2029250050","2","2925","50","42","WEST 39TH ST, 14TH F","10456","53664",,,,,,,,
"2029260002","2","2926","2","420","MADISON AVE","10456","56135",,,,,,,,
"2029280028","2","2928","28","250","BROADWAY","10457","66990",,,,,,,,
"2029280030","2","2928","30","1511","FULTON AVE","10457","55200","BRONX","40.836743","-73.900492","203","16","169","2009646","Claremont-Bathgate"
"2029290008","2","2929","8","3872","3 AVENUE","10457","67625","BRONX","40.83889","-73.900662","203","16","167","2113141","Claremont-Bathgate"
"2029290028","2","2929","28","902","BROADWAY","10457","50088",,,,,,,,
"2029290031","2","2929","31","902","BROADWAY","10457","50600",,,,,,,,
"2029290074","2","2929","74","902","BROADWAY","10457","50760",,,,,,,,
"2029290082","2","2929","82","1625","FULTON AVENUE","10457","87413","BRONX","40.839561","-73.898912","203","16","167","2009658","Claremont-Bathgate"
"2029297501","2","2929","7501","3960","3 AVENUE","10457","292853","BRONX","40.840621","-73.899413","203","16","167","2119684","Claremont-Bathgate"
"2029300001","2","2930","1","52","CHAMBERS ST","10457","89873",,,,,,,,
"2029310073","2","2931","73","2","WASHINGTON ST","10456","56376",,,,,,,,
"2029310086","2","2931","86","250","BROADWAY","10456","89110",,,,,,,,
"2029320004","2","2932","4","595","EAST  170 STREET","10456","78300","BRONX","40.834386","-73.9009","203","16","149","2009719","Morrisania-Melrose"
"2033430042","2","3343","42","277","EAST  207 STREET","10467","75000","BRONX","40.875578","-73.877433","207","11","423","2018160","Norwood"
"2033430060","2","3343","60","3288","RESERVIOR OVAL EAST","10467","106351","BRONX","40.876296","-73.876922","207","11","423","2018163","Norwood"
"2033430100","2","3343","100","245","E 207TH ST","10467","51940","BRONX","40.875631","-73.878134","207","11","423","2018174","Norwood"
"2033430126","2","3343","126","3320","RESERVOIR OVAL EAST","10467","75821","BRONX","40.877026","-73.87606","207","11","423","2018185","Norwood"
"2033430180","2","3343","180","1919","WILLIAMSBRIDGE RD","10467","55000","BRONX","40.852799","-73.853325","211","13","250","2048553","Pelham Parkway"
"2033430204","2","3343","204",,"PO BOX 541168","10467","100829",,,,,,,,
"2033430212","2","3343","212","287","E GUN HILL RD","10467","59000","BRONX","40.8793","-73.874819","207","11","431","2018623","Norwood"
"2033430227","2","3343","227",,"PO BOX 40211","10467","55001",,,,,,,,
"2033430245","2","3343","245","206","EAST GUN HILL ROAD","10467","673920","BRONX","40.880532","-73.877369","207","11","421","2018225","Norwood"
"2033430260","2","3343","260","5683","RIVERDALE AVENUE SUI","10467","148000","BRONX","40.906451","-73.904219","208","11","323","2086317","North Riverdale-Fieldston-Riverdale"
"2033430283","2","3343","283","111","E 210TH ST","10467","434650","BRONX","40.879885","-73.880481","207","11","421","2096399","Norwood"
"2033430300","2","3343","300","111","E 210TH ST","10467","115776","BRONX","40.879885","-73.880481","207","11","421","2096399","Norwood"
"1015680021","1","1568","21","1200","UNION TPKE","10128","315710",,,,,,,,
"2033430359","2","3343","359","5676-78","RIVERDALE AVE","10467","77700","BRONX","40.906226","-73.904259","208","11","337","2085164","North Riverdale-Fieldston-Riverdale"
"2033440001","2","3344","1","3206","OXFORD AVE","10467","54000","BRONX","40.884053","-73.909491","208","11","295","2091878","Spuyten Duyvil-Kingsbridge"
"2033440005","2","3344","5","3510","BAINBRIDGE AVE","10467","56500","BRONX","40.881313","-73.878395","207","11","431","2018255","Norwood"
"2033440012","2","3344","12","19","CEDAR LN","10467","71827",,,,,,,,
"2033440014","2","3344","14","3153","PERRY AVE","10467","61000","BRONX","40.873783","-73.877881","207","11","425","2018108","Norwood"
"2033440036","2","3344","36",,"PO BOX 1920","10467","124896",,,,,,,,
"2033440052","2","3344","52","3530","WAYNE AVE","10467","80724","BRONX","40.881144","-73.877444","207","11","431","2018271","Norwood"
"2033440076","2","3344","76","3333","NEW HYDE PARK RD","10467","87606",,,,,,,,
"2033440086","2","3344","86","11","BALINT DR","10467","53700",,,,,,,,
"2033440102","2","3344","102","2","HAMILTON AVE","10467","160000",,,,,,,,
"2033450019","2","3345","19","3156","PERRY AVE","10467","55000","BRONX","40.873707","-73.877932","207","11","425","2018304","Norwood"
"2033460010","2","3346","10","3210","PERRY AVENUE","10467","57500","BRONX","40.874921","-73.876906","207","11","42901","2018333","Norwood"
"2033470001","2","3347","1","3250","PERRY AVENUE","10467","60000","BRONX","40.875818","-73.876243","207","11","42902","2018348","Norwood"
"2033470010","2","3347","10","3260","PERRY AVENUE","10467","52800","BRONX","40.876018","-73.876091","207","11","42902","2018349","Norwood"
"2033470029","2","3347","29","3288","PERRY AVENUE","10467","56685","BRONX","40.8768","-73.87551","207","11","42902","2018358","Norwood"
"2033480054","2","3348","54","825","E 233RD ST","10467","54375","BRONX","40.892227","-73.853672","212","12","430","2068259","Woodlawn-Wakefield"
"2033480060","2","3348","60","145","HUGUENOT ST","10467","50400",,,,,,,,
"2033480071","2","3348","71","3810","14TH AVE","10467","54000",,,,,,,,
"2033490027","2","3349","27","5676","RIVERDALE AVE","10467","78300","BRONX","40.906226","-73.904259","208","11","337","2085164","North Riverdale-Fieldston-Riverdale"
"2033500034","2","3350","34","733","YONKERS AVE","10467","71400",,,,,,,,
"2033520012","2","3352","12","20","W 55TH ST","10467","52000",,,,,,,,
"2033520045","2","3352","45","111","BROOK ST","10467","61000",,,,,,,,
"2033530033","2","3353","33","3176","DECATUR AVE","10467","59000","BRONX","40.873032","-73.876259","207","11","425","2018546","Norwood"
"2033540009","2","3354","9","3212","DECATUR AVENUE","10467","51250","BRONX","40.874203","-73.875284","207","11","42901","2018556","Norwood"
"2033540026","2","3354","26","301","MCLEAN AVE","10467","63340",,,,,,,,
"2033540047","2","3354","47","1601","BRONXDALE AVE","10467","82500","BRONX","40.843548","-73.856945","211","13","238","2043253","Van Nest-Morris Park-Westchester Square"
"2033550104","2","3355","104","3366","DECATUR AVE","10467","64000","BRONX","40.877681","-73.872884","207","11","42902","2018610","Norwood"
"2033560003","2","3356","3","275","E GUN HILL RD","10467","96443","BRONX","40.879456","-73.875115","207","11","431","2018624","Norwood"
"2033560028","2","3356","28","263","E GUN HILL RD","10467","50652","BRONX","40.879696","-73.875585","207","11","431","2018626","Norwood"
"2033560107","2","3356","107","733","YONKERS AVE","10467","67500",,,,,,,,
"2033560120","2","3356","120",,"PO BOX 190165","10467","86421",,,,,,,,
"2033560122","2","3356","122",,"PO BOX 541168","10467","53010",,,,,,,,
"2033560140","2","3356","140","5676","RIVERSIDE AVE","10467","63790",,,,,,,,
"2033560146","2","3356","146","5600A","BROADWAY","10467","92988","BRONX","40.879534","-73.904345","208","11","283","2000000","Spuyten Duyvil-Kingsbridge"
"2033560164","2","3356","164",,"PO BOX 29","10467","85680",,,,,,,,
"2033560180","2","3356","180","3530","DECATUR AVENUE","10467","66000","BRONX","40.879286","-73.872306","207","11","431","2018651","Norwood"
"2033560185","2","3356","185","3540","DECATUR AVENUE","10467","67000","BRONX","40.879393","-73.872262","207","11","431","2018652","Norwood"
"2033570248","2","3357","248","415","EAST  204 STREET","10467","50760","BRONX","40.870785","-73.876505","207","11","425","2018686","Norwood"
"1015647502","1","1564","7502","401","E 84TH ST","10028","107790","MANHATTAN","40.775428","-73.949994","108","5","14401","1073786","Yorkville"
"1015650001","1","1565","1","9","E 38TH ST","10028","193836","MANHATTAN","40.750628","-73.981918","105","4","82","1017229","Murray Hill-Kips Bay"
"1015650009","1","1565","9","505","8TH AVE","10028","86612","MANHATTAN","40.753047","-73.99285","104","3","111","1013575","Hudson Yards-Chelsea-Flatiron-Union Square"
"1015650028","1","1565","28","446","EAST   86 STREET","10028","82430","MANHATTAN","40.776105","-73.94756","108","5","14401","1050542","Yorkville"
"1015650029","1","1565","29","800","CENTRAL BLVD","10028","384646",,,,,,,,
"1015650035","1","1565","35","271","MADISON AVE","10028","205967","MANHATTAN","40.75124","-73.980416","106","4","82","1017589","Murray Hill-Kips Bay"
"1015657501","1","1565","7501","136","GLENWOOD RD","10028","51750",,,,,,,,
"1015660001","1","1566","1","622","3RD AVE","10028","184745","MANHATTAN","40.749581","-73.975324","106","4","80","1089024","Murray Hill-Kips Bay"
"1015660010","1","1566","10","425","E 86TH ST","10028","112332","MANHATTAN","40.77647","-73.948387","108","5","14402","1050548","Yorkville"
"1015660017","1","1566","17","770","LEXINGTON AVE","10028","153347","MANHATTAN","40.763097","-73.967562","108","4","11402","1041920","Upper East Side-Carnegie Hill"
"1015667501","1","1566","7501","675","3RD AVE","10028","174648","MANHATTAN","40.750791","-73.973963","106","4","88","1037549","Turtle Bay-East Midtown"
"1015680001","1","1568","1","640","5TH AVE","10128","227259","MANHATTAN","40.759432","-73.977122","105","4","104","1034516","Midtown-Midtown South"
"1015690010","1","1569","10","417","E 89TH ST","10128","55220","MANHATTAN","40.778517","-73.947251","108","5","152","1050633","Yorkville"
"1015690016","1","1569","16","4","PARK AVE","10128","391194","MANHATTAN","40.746752","-73.981598","105","2","74","1017084","Midtown-Midtown South"
"1015697501","1","1569","7501","9","E 38TH ST","10128","109500","MANHATTAN","40.750628","-73.981918","105","4","82","1017229","Murray Hill-Kips Bay"
"1015697502","1","1569","7502","770","LEXINGTON AVE","10128","196806","MANHATTAN","40.763097","-73.967562","108","4","11402","1041920","Upper East Side-Carnegie Hill"
"1015697503","1","1569","7503","400","EAST   90 STREET","10128","123982","MANHATTAN","40.779286","-73.947175","108","5","152","1087460","Yorkville"
"1015700012","1","1570","12","152","W 57TH ST","10128","50676","MANHATTAN","40.765185","-73.979279","105","4","137","1084455","Midtown-Midtown South"
"1015700021","1","1570","21","1200","UNION TPKE","10128","279945",,,,,,,,
"1015710022","1","1571","22","1200","UNION TPKE","10128","346325",,,,,,,,
"1015710049","1","1571","49",,"PO BOX 1368","10128","194212",,,,,,,,
"1015717501","1","1571","7501","P.O.BOX","130156","10128","124009",,,,,,,,
"1015730020","1","1573","20","250","BROADWAY","10128","386322","MANHATTAN","40.712982","-74.007301","101","1","21","1001408","SoHo-TriBeCa-Civic Center-Little Italy"
"1015730022","1","1573","22","1200","UNION TPKE","10128","347118",,,,,,,,
"1015760001","1","1576","1","201","E 42ND ST","10075","215732","MANHATTAN","40.750714","-73.974295","106","4","88","1037549","Turtle Bay-East Midtown"
"1015760005","1","1576","5","1133","BROADWAY","10075","260000","MANHATTAN","40.743523","-73.989073","105","3","58","1015625","Hudson Yards-Chelsea-Flatiron-Union Square"
"1015760014","1","1576","14","201","E 42ND ST","10075","232400","MANHATTAN","40.750714","-73.974295","106","4","88","1037549","Turtle Bay-East Midtown"
"1015760023","1","1576","23","2","EAST END AVENUE","10075","147991","MANHATTAN","40.7705","-73.948009","108","5","136","1050767","Yorkville"
"1015760027","1","1576","27","18","E 64TH ST","10075","230473","MANHATTAN","40.767014","-73.969856","108","4","122","1041050","Upper East Side-Carnegie Hill"
"1015760037","1","1576","37",,"PO BOX 20605","10075","62767",,,,,,,,
"1015767501","1","1576","7501","770","LEXINGTON AVE","10075","91800","MANHATTAN","40.763097","-73.967562","108","4","11402","1041920","Upper East Side-Carnegie Hill"
"1015770001","1","1577","1","1200","UNION TPKE","10028","281902",,,,,,,,
"1015770008","1","1577","8","235","PARK AVE S","10075","154780","MANHATTAN","40.737813","-73.988103","105","2","50","1017906","Gramercy"
"1015770027","1","1577","27","98","CUTTERMILL RD","10028","109723",,,,,,,,
"1015777501","1","1577","7501","1116","BEVERLY RD","10028","111108",,,,,,,,
"1015777502","1","1577","7502","770","LEXINGTON AVE","10075","152729","MANHATTAN","40.763097","-73.967562","108","4","11402","1041920","Upper East Side-Carnegie Hill"
"1015780001","1","1578","1","1540","YORK AVENUE","10028","309204","MANHATTAN","40.772996","-73.949252","108","5","136","1051129","Yorkville"
"1015787501","1","1578","7501","352","PARK AVE S","10028","121052","MANHATTAN","40.74176","-73.98523","105","2","56","1016745","Hudson Yards-Chelsea-Flatiron-Union Square"
"1015790015","1","1579","15","525","E 82ND ST","10028","94727","MANHATTAN","40.773031","-73.948248","108","5","136","1051163","Yorkville"
"1015790023","1","1579","23","60","E END AVE","10028","345242","MANHATTAN","40.772501","-73.946559","108","5","136","1051164","Yorkville"
"1015790049","1","1579","49","260","MADISON AVE","10028","255420","MANHATTAN","40.750707","-73.980828","105","4","82","1017230","Murray Hill-Kips Bay"
"1015800023","1","1580","23","205","E 42ND ST","10028","182000","MANHATTAN","40.750643","-73.974126","106","4","88","1037550","Turtle Bay-East Midtown"
"1015807501","1","1580","7501","90","EAST END AVENUE","10028","127680","MANHATTAN","40.773401","-73.945901","108","5","136","1082303","Yorkville"
"1015810023","1","1581","23","100","E END AVE","10028","130918","MANHATTAN","40.773763","-73.945634","108","5","14401","1081314","Yorkville"
"1015810030","1","1581","30","276","RIVERSIDE DR","10028","150754","MANHATTAN","40.79839","-73.972955","107","6","187","1057094","Upper West Side"
"1015810045","1","1581","45","780","3RD AVE","10028","77768","MANHATTAN","40.754757","-73.971554","106","4","92","1036228","Turtle Bay-East Midtown"
"1015810049","1","1581","49","1200","UNION TPKE","10028","241983",,,,,,,,
"1015820005","1","1582","5","1740","BROADWAY","10028","81215","MANHATTAN","40.765098","-73.982095","105","4","137","1024877","Midtown-Midtown South"
"1015820023","1","1582","23","201","E 42ND ST","10028","211270","MANHATTAN","40.750714","-73.974295","106","4","88","1037549","Turtle Bay-East Midtown"
"1015820030","1","1582","30","130","EAST END AVENUE","10028","94409","MANHATTAN","40.774698","-73.944951","108","5","14401","1051246","Yorkville"
"1015820031","1","1582","31","345","PARK AVE","10028","74396","MANHATTAN","40.758171","-73.973246","105","4","100","1036460","Turtle Bay-East Midtown"
"1015820034","1","1582","34","18","E 64TH ST","10028","120835","MANHATTAN","40.767014","-73.969856","108","4","122","1041050","Upper East Side-Carnegie Hill"
"1015820040","1","1582","40","520","E 86TH ST","10028","114640","MANHATTAN","40.775558","-73.946264","108","5","14401","1051249","Yorkville"
"1015820046","1","1582","46","415","MADISON AVE","10028","123333","MANHATTAN","40.756808","-73.976343","105","4","94","1035439","Midtown-Midtown South"
"1015830012","1","1583","12","201","E 42ND ST","10028","223473","MANHATTAN","40.750714","-73.974295","106","4","88","1037549","Turtle Bay-East Midtown"
"1015830015","1","1583","15","201","E 42ND ST","10028","320600","MANHATTAN","40.750714","-73.974295","106","4","88","1037549","Turtle Bay-East Midtown"
"1015830050","1","1583","50","1654","YORK AVENUE","10028","121501","MANHATTAN","40.776483","-73.946704","108","5","14402","1051311","Yorkville"
"1015840001","1","1584","1","9","W 57TH ST","10128","202322","MANHATTAN","40.763255","-73.974633","105","4","11201","1035071","Midtown-Midtown South"
"2030060067","2","3006","67","15","W 39TH ST","10459","88511",,,,,,,,
"1015847501","1","1584","7501","170","EAST END AVENUE","10128","300000","MANHATTAN","40.776035","-73.943978","108","5","14402","1087742","Yorkville"
"1015850001","1","1585","1","150","E 58TH ST","10128","67425","MANHATTAN","40.761398","-73.968183","106","4","11203","1036915","Turtle Bay-East Midtown"
"1015850023","1","1585","23","211","E 46TH ST","10128","416668","MANHATTAN","40.753118","-73.972085","106","4","90","1037599","Turtle Bay-East Midtown"
"1015860001","1","1586","1","370","7TH AVE","10128","135098","MANHATTAN","40.74879","-73.992244","105","3","101","1014343","Midtown-Midtown South"
"1015860005","1","1586","5","515","EAST   89 STREET","10128","71000","MANHATTAN","40.777586","-73.945042","108","5","152","1051369","Yorkville"
"1015860021","1","1586","21","18","E 64TH ST","10128","254928","MANHATTAN","40.767014","-73.969856","108","4","122","1041050","Upper East Side-Carnegie Hill"
"1015860035","1","1586","35","530","EAST   90 STREET","10128","71000","MANHATTAN","40.778118","-73.944406","108","5","152","1051372","Yorkville"
"1015860043","1","1586","43","504","EAST   90 STREET","10128","71000","MANHATTAN","40.778302","-73.944843","108","5","152","1051373","Yorkville"
"1015890002","1","1589","2","770","LEXINGTON AVE","10075","115835","MANHATTAN","40.763097","-73.967562","108","4","11402","1041920","Upper East Side-Carnegie Hill"
"1015890019","1","1589","19","25","EAST END AVENUE","10028","89264","MANHATTAN","40.771318","-73.947394","108","5","136","1051377","Yorkville"
"1015890023","1","1589","23","9","E 38TH ST","10028","89400","MANHATTAN","40.750628","-73.981918","105","4","82","1017229","Murray Hill-Kips Bay"
"1015890034","1","1589","34","45","EAST END AVENUE","10028","195000","MANHATTAN","40.771938","-73.946942","108","5","136","1051379","Yorkville"
"1015890041","1","1589","41","307","7TH AVE","10028","210000","MANHATTAN","40.746869","-73.993616","105","3","95","1015061","Midtown-Midtown South"
"1015900007","1","1590","7","415","MADISON AVE","10028","222200","MANHATTAN","40.756808","-73.976343","105","4","94","1035439","Midtown-Midtown South"
"1015900008","1","1590","8","1740","BROADWAY","10028","296940","MANHATTAN","40.765098","-73.982095","105","4","137","1024877","Midtown-Midtown South"
"1015900019","1","1590","19","610","E 83RD ST","10028","117180","MANHATTAN","40.772879","-73.945963","108","5","136","1051383","Yorkville"
"1015900030","1","1590","30","200","MADISON AVE","10028","230940","MANHATTAN","40.748528","-73.982413","105","4","82","1017122","Murray Hill-Kips Bay"
"1015900036","1","1590","36","85","E END AVE","10028","169386","MANHATTAN","40.773195","-73.946028","108","5","136","1051386","Yorkville"
"1015900042","1","1590","42","1","GRACIE SQ","10028","53736","MANHATTAN","40.773538","-73.945558","108","5","136","1051388","Yorkville"
"1015900044","1","1590","44","770","LEXINGTON AVE","10028","87869","MANHATTAN","40.763097","-73.967562","108","4","11402","1041920","Upper East Side-Carnegie Hill"
"1015940002","1","1594","2","55","CENTRAL PARK NORTH","10026","56643","MANHATTAN","40.797834","-73.951465","110","9","186","1051391","Central Harlem South"
"1015940007","1","1594","7","270","W 123RD ST","10026","53136","MANHATTAN","40.808448","-73.951158","110","9","222","1058592","Central Harlem South"
"1015940017","1","1594","17","693","3RD AVE","10026","69645","MANHATTAN","40.751793","-73.973689","106","4","88","1037555","Turtle Bay-East Midtown"
"1015940042","1","1594","42","8","WEST  111 STREET","10026","50536","MANHATTAN","40.797732","-73.949399","110","9","186","1078798","Central Harlem South"
"1015950001","1","1595","1","15","W 39TH ST","10026","142639","MANHATTAN","40.751923","-73.983073","105","4","84","1016044","Midtown-Midtown South"
"1015950031","1","1595","31","1330","5 AVENUE","10026","113070","MANHATTAN","40.797811","-73.948558","110","9","186","1084511","Central Harlem South"
"1015960001","1","1596","1","250","BROADWAY","10026","599600","MANHATTAN","40.712982","-74.007301","101","1","21","1001408","SoHo-TriBeCa-Civic Center-Little Italy"
"1015997501","1","1599","7501","1400","5 AVENUE","10026","214870","MANHATTAN","40.800159","-73.94684","110","9","190","1086518","Central Harlem South"
"1015997502","1","1599","7502","40","WEST  116 STREET","10026","484897","MANHATTAN","40.801283","-73.947945","110","9","190","1087782","Central Harlem South"
"1016000021","1","1600","21","5","WEST  116 STREET","10026","106008","MANHATTAN","40.800818","-73.946804","110","9","190","1051430","Central Harlem South"
"1016007501","1","1600","7501","130","LENOX AVENUE","10026","376441","MANHATTAN","40.802359","-73.949425","110","9","190","1085936","Central Harlem South"
"1016010027","1","1601","27","174","E 104TH ST","10026","162530","MANHATTAN","40.790536","-73.94631","111","8","166","1051932","East Harlem South"
"1016020001","1","1602","1","415","MADISON AVE","10128","163969","MANHATTAN","40.756808","-73.976343","105","4","94","1035439","Midtown-Midtown South"
"1016020009","1","1602","9","1740","BROADWAY","10128","73125","MANHATTAN","40.765098","-73.982095","105","4","137","1024877","Midtown-Midtown South"
"1016020013","1","1602","13","1740","BROADWAY","10128","85290","MANHATTAN","40.765098","-73.982095","105","4","137","1024877","Midtown-Midtown South"
"1016020020","1","1602","20","10915","14TH AVE","10029","141058",,,,,,,,
"1016020060","1","1602","60","675","3RD AVE","10029","121369","MANHATTAN","40.750791","-73.973963","106","4","88","1037549","Turtle Bay-East Midtown"
"1016020069","1","1602","69","1158","5 AVENUE","10029","157824","MANHATTAN","40.788352","-73.954993","111","4","16002","1051458","East Harlem South"
"1016027501","1","1602","7501","65","EAST   96 STREET","10128","112700","MANHATTAN","40.78685","-73.953243","111","4","16002","1051446","East Harlem South"
"1016030001","1","1603","1","524","NORTH AVE","10029","88349",,,,,,,,
"1016030039","1","1603","39","42","EAST   98 STREET","10029","240000","MANHATTAN","40.788417","-73.952956","111","4","16002","1051470","East Harlem South"
"1016030060","1","1603","60","1","UNION SQ W","10029","52000","MANHATTAN","40.735319","-73.99165","105","2","52","1016063","Hudson Yards-Chelsea-Flatiron-Union Square"
"1016030063","1","1603","63","4","E 98TH ST","10029","58306","MANHATTAN","40.789071","-73.954516","111","4","16002","1051479","East Harlem South"
"1016030069","1","1603","69","770","LEXINGTON AVE","10029","155979","MANHATTAN","40.763097","-73.967562","108","4","11402","1041920","Upper East Side-Carnegie Hill"
"1016040001","1","1604","1","1170","5 AVENUE","10029","153064","MANHATTAN","40.789156","-73.954433","111","8","168","1051482","East Harlem South"
"1016040006","1","1604","6","1","GUSTAVE L LEVY PL","10029","2215000","MANHATTAN","40.790443","-73.953793","111","8","168","1083923","East Harlem South"
"1016040013","1","1604","13","1","GUSTAVE L LEVY PL","10029","59918","MANHATTAN","40.790443","-73.953793","111","8","168","1083923","East Harlem South"
"1016040023","1","1604","23","1","GUSTAVE L LEVY PL","10029","914600","MANHATTAN","40.790443","-73.953793","111","8","168","1083923","East Harlem South"
"1016050024","1","1605","24","250","BROADWAY","10029","484479","MANHATTAN","40.712982","-74.007301","101","1","21","1001408","SoHo-TriBeCa-Civic Center-Little Italy"
"1016070003","1","1607","3","3","EAST  101 STREET","10029","64000","MANHATTAN","40.790973","-73.953146","111","8","168","1051487","East Harlem South"
"1016077501","1","1607","7501","1200","5TH AVE","10029","122755","MANHATTAN","40.791138","-73.953388","111","8","168","1051486","East Harlem South"
"1016077502","1","1607","7502","1212","5 AVENUE","10029","123753","MANHATTAN","40.791505","-73.95312","111","8","168","1051490","East Harlem South"
"1016080001","1","1608","1","770","LEXINGTON AVE","10029","124081","MANHATTAN","40.763097","-73.967562","108","4","11402","1041920","Upper East Side-Carnegie Hill"
"1016080005","1","1608","5","1","GUSTAVE L LEVY PL","10029","160915","MANHATTAN","40.790443","-73.953793","111","8","168","1083923","East Harlem South"
"1016080023","1","1608","23","250","BROADWAY","10029","310551","MANHATTAN","40.712982","-74.007301","101","1","21","1001408","SoHo-TriBeCa-Civic Center-Little Italy"
"1016080069","1","1608","69","1216","5TH AVE","10029","98099","MANHATTAN","40.792101","-73.952174","111","8","168","1051496","East Harlem South"
"1016100023","1","1610","23","250","BROADWAY","10029","405000","MANHATTAN","40.712982","-74.007301","101","1","21","1001408","SoHo-TriBeCa-Civic Center-Little Italy"
"1016110001","1","1611","1","5","AVE & 106 ST","10029","488783",,,,,,,,
"1016110015","1","1611","15","1249","5TH AVE","10029","85182","MANHATTAN","40.794181","-73.951175","111","8","168","1051513","East Harlem South"
"1016120001","1","1612","1","60","E 42ND ST","10029","532700","MANHATTAN","40.752532","-73.978662","105","4","82","1035335","Murray Hill-Kips Bay"
"1016130006","1","1613","6","15","W 39TH STREET, 7TH F","10029","245000","MANHATTAN","40.751923","-73.983073","105","4","84","1016044","Midtown-Midtown South"
"1016130023","1","1613","23","250","BROADWAY","10029","170612","MANHATTAN","40.712982","-74.007301","101","1","21","1001408","SoHo-TriBeCa-Civic Center-Little Italy"
"1016130070","1","1613","70","1261","5TH AVE","10029","130000","MANHATTAN","40.795237","-73.950409","111","9","17401","1085970","East Harlem South"
"1016137501","1","1613","7501","415","MADISON AVE","10029","79832","MANHATTAN","40.756808","-73.976343","105","4","94","1035439","Midtown-Midtown South"
"1016140001","1","1614","1","1270","5 AVENUE","10029","212000","MANHATTAN","40.795745","-73.950029","111","9","17401","1051578","East Harlem South"
"1016140069","1","1614","69","888","7TH AVE","10029","56670","MANHATTAN","40.765015","-73.980416","105","4","137","1024895","Midtown-Midtown South"
"1016150014","1","1615","14","1632","MADISON AVENUE","10029","59280","MANHATTAN","40.795585","-73.948065","111","9","17401","1051601","East Harlem South"
"1016150023","1","1615","23","250","BROADWAY","10029","312560","MANHATTAN","40.712982","-74.007301","101","1","21","1001408","SoHo-TriBeCa-Civic Center-Little Italy"
"1016150060","1","1615","60","174","EAST 104TH STREET GROUND FL","10029","57512","MANHATTAN","40.790536","-73.94631","111","8","166","1051932","East Harlem South"
"1016157501","1","1615","7501","1280","5 AVENUE","10029","243228","MANHATTAN","40.796304","-73.949614","111","9","17401","1089046","East Harlem South"
"1016160001","1","1616","1","1307","5 AVENUE","10029","680000","MANHATTAN","40.797287","-73.948916","111","9","17402","1078884","East Harlem South"
"1016170001","1","1617","1","1321","5 AVENUE","10029","102811","MANHATTAN","40.797577","-73.948706","111","9","17402","1086046","East Harlem South"
"1016170007","1","1617","7","15","W 39TH ST","10029","130000","MANHATTAN","40.751923","-73.983073","105","4","84","1016044","Midtown-Midtown South"
"1016200023","1","1620","23","250","BROADWAY","10029","662000","MANHATTAN","40.712982","-74.007301","101","1","21","1001408","SoHo-TriBeCa-Civic Center-Little Italy"
"1016217501","1","1621","7501","1405","5 AVENUE","10029","103600","MANHATTAN","40.800187","-73.946797","111","9","184","1088766","East Harlem North"
"1016217502","1","1621","7502","23","E 115TH ST","10029","72801","MANHATTAN","40.799415","-73.945645","111","9","184","1074184","East Harlem North"
"1016220005","1","1622","5","200","W 57TH ST","10029","75840","MANHATTAN","40.765628","-73.980315","105","4","137","1024896","Midtown-Midtown South"
"1016220017","1","1622","17","250","BROADWAY","10035","122000","MANHATTAN","40.712982","-74.007301","101","1","21","1001408","SoHo-TriBeCa-Civic Center-Little Italy"
"1016220020","1","1622","20","1","N MACQUESTEN PKWY","10029","96446",,,,,,,,
"1016220037","1","1622","37","1","N MACQUESTEN PKWY","10035","70300",,,,,,,,
"1016220043","1","1622","43","62","EAST  117 STREET","10035","63882","MANHATTAN","40.800397","-73.943748","111","8","184","1086216","East Harlem North"
"1016220073","1","1622","73","413","E 120TH ST","10035","53681","MANHATTAN","40.798371","-73.932987","111","8","192","1054888","East Harlem North"
"1016237501","1","1623","7501","1787","MADISON AVENUE","10035","123475","MANHATTAN","40.800833","-73.944218","111","9","184","1086215","East Harlem North"
"1016240001","1","1624","1","1249","PARK AVE","10128","212482","MANHATTAN","40.78696","-73.952239","111","5","15802","1051717","East Harlem South"
"1016240015","1","1624","15","1490","LEXINGTON AVE","10029","186100","MANHATTAN","40.78604","-73.950813","111","5","15802","1086030","East Harlem South"
"1016240033","1","1624","33","1710","3 AVENUE","10029","509090","MANHATTAN","40.785301","-73.949268","111","5","15802","1082901","East Harlem South"
"1016240045","1","1624","45","1500","LEXINGTON AVE","10029","133370","MANHATTAN","40.786377","-73.950567","111","5","15802","1086030","East Harlem South"
"2030060084","2","3006","84","15","W 39TH ST","10459","98190",,,,,,,,
"1016240069","1","1624","69","1249","PARK AVE","10029","126605","MANHATTAN","40.78696","-73.952239","111","5","15802","1051717","East Harlem South"
"1016250016","1","1625","16","1500","LEXINGTON AVE","10029","303547","MANHATTAN","40.786377","-73.950567","111","5","15802","1086030","East Harlem South"
"1016250033","1","1625","33","512","7TH AVE","10029","247615","MANHATTAN","40.753283","-73.98897","105","3","109","1014460","Midtown-Midtown South"
"1016260001","1","1626","1","250","BROADWAY","10029","193950","MANHATTAN","40.712982","-74.007301","101","1","21","1001408","SoHo-TriBeCa-Civic Center-Little Italy"
"1016260021","1","1626","21","250","BROADWAY","10029","200300","MANHATTAN","40.712982","-74.007301","101","1","21","1001408","SoHo-TriBeCa-Civic Center-Little Italy"
"1016280037","1","1628","37","527","3 AVENUE","10029","84206","MANHATTAN","40.746535","-73.97752","106","4","78","1020178","Murray Hill-Kips Bay"
"1016290020","1","1629","20","1595","LEXINGTON AVENUE","10029","54777","MANHATTAN","40.789291","-73.94842","111","8","166","1085680","East Harlem South"
"1016300041","1","1630","41","1085","E 12TH ST","10029","65019",,,,,,,,
"1016320001","1","1632","1","250","BROADWAY","10029","124100","MANHATTAN","40.712982","-74.007301","101","1","21","1001408","SoHo-TriBeCa-Civic Center-Little Italy"
"1016330020","1","1633","20","50","WEBSTER AVE","10029","70837",,,,,,,,
"1016350017","1","1635","17","405","PARK AVE","10029","108000","MANHATTAN","40.759826","-73.972036","105","4","100","1036476","Turtle Bay-East Midtown"
"1016360001","1","1636","1","1481","PARK AVENUE","10029","257548","MANHATTAN","40.79425","-73.946925","111","8","172",,"East Harlem South"
"1016370001","1","1637","1","250","BROADWAY","10029","267988","MANHATTAN","40.712982","-74.007301","101","1","21","1001408","SoHo-TriBeCa-Civic Center-Little Italy"
"1016370028","1","1637","28","174","E 104TH ST","10029","59400","MANHATTAN","40.790536","-73.94631","111","8","166","1051932","East Harlem South"
"1016380001","1","1638","1","8714","116TH ST","10029","71856",,,,,,,,
"1016380008","1","1638","8","5401","254TH ST","10029","60720",,,,,,,,
"1016387501","1","1638","7501","161","EAST  110 STREET","10029","85511","MANHATTAN","40.794509","-73.943685","111","8","172","1087779","East Harlem South"
"1016400021","1","1640","21","250","BROADWAY","10029","502522","MANHATTAN","40.712982","-74.007301","101","1","21","1001408","SoHo-TriBeCa-Civic Center-Little Italy"
"1016440059","1","1644","59","136","EAST  117 STREET","10035","55725","MANHATTAN","40.799498","-73.941615","111","8","182","1052315","East Harlem North"
"1016467502","1","1646","7502","215","EAST   96 STREET","10128","490807","MANHATTAN","40.784795","-73.948369","111","5","15602","1086570","East Harlem South"
"1016470001","1","1647","1","250","BROADWAY","10029","395000","MANHATTAN","40.712982","-74.007301","101","1","21","1001408","SoHo-TriBeCa-Civic Center-Little Italy"
"1016490001","1","1649","1","250","BROADWAY","10029","575000","MANHATTAN","40.712982","-74.007301","101","1","21","1001408","SoHo-TriBeCa-Civic Center-Little Italy"
"1016490009","1","1649","9","52","CHAMBERS ST","10029","77000","MANHATTAN","40.713814","-74.00557","101","1","31","1079146","SoHo-TriBeCa-Civic Center-Little Italy"
"1016540011","1","1654","11","250","BROADWAY","10029","180319","MANHATTAN","40.712982","-74.007301","101","1","21","1001408","SoHo-TriBeCa-Civic Center-Little Italy"
"1016550015","1","1655","15","3092","HULL AVE","10029","52520",,,,,,,,
"1016620001","1","1662","1","250","BROADWAY","10029","557872","MANHATTAN","40.712982","-74.007301","101","1","21","1001408","SoHo-TriBeCa-Civic Center-Little Italy"
"1016620016","1","1662","16","250","BROADWAY","10029","95284","MANHATTAN","40.712982","-74.007301","101","1","21","1001408","SoHo-TriBeCa-Civic Center-Little Italy"
"1016710031","1","1671","31","326","EAST  100 STREET","10029","84180","MANHATTAN","40.786226","-73.943869","111","8","164","1082387","East Harlem South"
"1016710039","1","1671","39","250","BROADWAY","10029","112171","MANHATTAN","40.712982","-74.007301","101","1","21","1001408","SoHo-TriBeCa-Civic Center-Little Italy"
"1016720001","1","1672","1","15","W 39TH ST","10029","93939","MANHATTAN","40.751923","-73.983073","105","4","84","1016044","Midtown-Midtown South"
"1016720017","1","1672","17","5420","13TH AVE","10029","250090",,,,,,,,
"1016730006","1","1673","6","250","BROADWAY","10029","286777","MANHATTAN","40.712982","-74.007301","101","1","21","1001408","SoHo-TriBeCa-Civic Center-Little Italy"
"1016737501","1","1673","7501","325","EAST  101 STREET","10029","51774","MANHATTAN","40.787181","-73.944132","111","8","164","1052654","East Harlem South"
"1016740010","1","1674","10","250","BROADWAY","10029","294167","MANHATTAN","40.712982","-74.007301","101","1","21","1001408","SoHo-TriBeCa-Civic Center-Little Italy"
"1016747501","1","1674","7501","1200","UNION TPKE","10029","424623",,,,,,,,
"1016760011","1","1676","11","325","E 104TH ST","10029","101375","MANHATTAN","40.788997","-73.942628","111","8","170","1052712","East Harlem South"
"1016770014","1","1677","14","177","E 104TH ST","10029","82500","MANHATTAN","40.790476","-73.946126","111","8","166","1051963","East Harlem South"
"1016780001","1","1678","1","2086","2ND AVE","10029","992000","MANHATTAN","40.791363","-73.941885","111","8","170","1081081","East Harlem South"
"1016830013","1","1683","13","10","ST & AVE A","10029","56646",,,,,,,,
"1016830018","1","1683","18","250","BROADWAY","10029","54971","MANHATTAN","40.712982","-74.007301","101","1","21","1001408","SoHo-TriBeCa-Civic Center-Little Italy"
"1016840001","1","1684","1","250","BROADWAY","10029","733050","MANHATTAN","40.712982","-74.007301","101","1","21","1001408","SoHo-TriBeCa-Civic Center-Little Italy"
"1016910001","1","1691","1","125","WORTH ST","10029","103950","MANHATTAN","40.715428","-74.002673","101","1","31","1001831","SoHo-TriBeCa-Civic Center-Little Italy"
"1016940003","1","1694","3","455","EAST  102 STREET","10029","175885","MANHATTAN","40.786238","-73.939958","111","8","162","1083942","East Harlem South"
"1016940005","1","1694","5","1962","1 AVENUE","10029","412985","MANHATTAN","40.786516","-73.942305","111","8","162","1083931","East Harlem South"
"2030070036","2","3007","36","250","BROADWAY","10459","86796",,,,,,,,
"1016940007","1","1694","7","1940","1 AVENUE","10029","412985","MANHATTAN","40.786071","-73.942634","111","8","162","1083932","East Harlem South"
"1016960001","1","1696","1","250","BROADWAY","10029","810774","MANHATTAN","40.712982","-74.007301","101","1","21","1001408","SoHo-TriBeCa-Civic Center-Little Italy"
"1016990001","1","1699","1","250","BROADWAY","10029","448226","MANHATTAN","40.712982","-74.007301","101","1","21","1001408","SoHo-TriBeCa-Civic Center-Little Italy"
"1017040001","1","1704","1","2138","1 AVENUE","10029","257400","MANHATTAN","40.792278","-73.938114","111","8","162","1081440","East Harlem South"
"1017090016","1","1709","16","448","E 116TH ST","10029","334463","MANHATTAN","40.795325","-73.933821","111","8","178","1081444","East Harlem North"
"1017100012","1","1710","12","8714","116TH ST","10029","51003",,,,,,,,
"1017110033","1","1711","33","434","E 118TH ST","10035","70210","MANHATTAN","40.796928","-73.933574","111","8","178","1079411","East Harlem North"
"1017150022","1","1715","22","517","EAST  116 STREET","10029","617062","MANHATTAN","40.794693","-73.932279","111","8","178","1081374","East Harlem North"
"1017160008","1","1716","8","300","ROBBINS LN","10035","507265",,,,,,,,
"1017170033","1","1717","33","1200","ZEREGA AVE","10035","79352",,,,,,,,
"1017170069","1","1717","69","8714","116TH ST","10026","68750",,,,,,,,
"1017180037","1","1718","37","2","WEST  120 STREET","10027","77093","MANHATTAN","40.803323","-73.944851","110","9","200","1053262","Central Harlem South"
"1017210056","1","1721","56","270","W 123RD ST","10027","50500","MANHATTAN","40.808448","-73.951158","110","9","222","1058592","Central Harlem South"
"1017220007","1","1722","7","63","W 124TH ST","10027","52074","MANHATTAN","40.806677","-73.94496","110","9","200","1086521","Central Harlem South"
"1017260069","1","1726","69","1946","CONEY ISLAND AVE","10027","62244",,,,,,,,
"1017277501","1","1727","7501","380","LENOX AVENUE","10027","152983","MANHATTAN","40.810379","-73.94357","110","9","208","1081375","Central Harlem North-Polo Grounds"
"1017280057","1","1728","57","1200","ZEREGA AVE","10037","79989",,,,,,,,
"1017300009","1","1730","9","135","E 57TH ST","10037","267008","MANHATTAN","40.761055","-73.969411","105","4","11203","1036904","Turtle Bay-East Midtown"
"1017300025","1","1730","25","135","E 57TH ST","10037","267008","MANHATTAN","40.761055","-73.969411","105","4","11203","1036904","Turtle Bay-East Midtown"
"1017300036","1","1730","36","135","E 57TH ST","10037","267008","MANHATTAN","40.761055","-73.969411","105","4","11203","1036904","Turtle Bay-East Midtown"
"1017300045","1","1730","45","135","E 57TH ST","10037","267008","MANHATTAN","40.761055","-73.969411","105","4","11203","1036904","Turtle Bay-East Midtown"
"1017300064","1","1730","64","135","E 57TH ST","10037","267008","MANHATTAN","40.761055","-73.969411","105","4","11203","1036904","Turtle Bay-East Midtown"
"1017300075","1","1730","75","135","E 57TH ST","10037","267008","MANHATTAN","40.761055","-73.969411","105","4","11203","1036904","Turtle Bay-East Midtown"
"1017350040","1","1735","40","10","W 138TH ST","10037","63284","MANHATTAN","40.815149","-73.937381","110","9","212","1053920","Central Harlem North-Polo Grounds"
"1017350047","1","1735","47","30","W 138TH ST","10037","69803","MANHATTAN","40.815347","-73.937854","110","9","212","1053921","Central Harlem North-Polo Grounds"
"1017360001","1","1736","1","560","LENOX AVE","10037","384164","MANHATTAN","40.816237","-73.939288","110","9","212","1083987","Central Harlem North-Polo Grounds"
"1017360027","1","1736","27","5925","BROADWAY","10037","253722",,,,,,,,
"1017367501","1","1736","7501","34","WEST  139 STREET","10037","176100","MANHATTAN","40.815761","-73.936831","110","9","212","1087516","Central Harlem North-Polo Grounds"
"1017370001","1","1737","1","620","LENOX AVENUE","10037","185318","MANHATTAN","40.817647","-73.938264","110","9","214","1053936","Central Harlem North-Polo Grounds"
"1017370015","1","1737","15","3110","37TH AVE","10037","185318",,,,,,,,
"1017370025","1","1737","25","3110","37TH AVE","10037","555954",,,,,,,,
"1017370059","1","1737","59","9","PARK PL","10037","185318","MANHATTAN","40.712792","-74.008217","101","1","21","1001399","SoHo-TriBeCa-Civic Center-Little Italy"
"1017370069","1","1737","69","630","LENOX AVENUE","10037","185318","MANHATTAN","40.818095","-73.937938","110","9","214","1053940","Central Harlem North-Polo Grounds"
"1017390022","1","1739","22","309","E 94TH ST","10037","93855","MANHATTAN","40.782744","-73.947544","108","5","15601","1050309","Yorkville"
"1017400009","1","1740","9","51","WEST  142 STREET","10037","115350","MANHATTAN","40.818009","-73.93645","110","9","214","1081459","Central Harlem North-Polo Grounds"
"1017400017","1","1740","17","1","CENTRE ST","10037","152421","MANHATTAN","40.713001","-74.004181","101","1","29","1001394","Chinatown"
"1017457501","1","1745","7501","330","HULL AVE","10035","112576",,,,,,,,
"1017457502","1","1745","7502","1465","5 AVENUE","10035","75488","MANHATTAN","40.802206","-73.945325","111","9","184","1088264","East Harlem North"
"1017460002","1","1746","2","1832","MADISON AVENUE","10035","167900","MANHATTAN","40.802019","-73.943379","111","9","198","1087193","East Harlem North"
"1017460021","1","1746","21","450","7TH AVE","10035","138050","MANHATTAN","40.751359","-73.990367","105","3","109","1014408","Midtown-Midtown South"
"1017467501","1","1746","7501","1485","5 AVENUE","10035","455211","MANHATTAN","40.802736","-73.944938","111","9","198","1087768","East Harlem North"
"1017480001","1","1748","1","2534","7TH AVE","10035","168963","MANHATTAN","40.822709","-73.938306","110","9","234","1084143","Central Harlem North-Polo Grounds"
"1017480035","1","1748","35","521","W 122ND ST","10035","194030","MANHATTAN","40.810973","-73.959064","109","7","211","1059670","Morningside Heights"
"1017490010","1","1749","10","250","BROADWAY","10035","57960","MANHATTAN","40.712982","-74.007301","101","1","21","1001408","SoHo-TriBeCa-Civic Center-Little Italy"
"1017530027","1","1753","27","45","E 135TH ST","10035","53334","MANHATTAN","40.811838","-73.935437","111","9","210","1082615","East Harlem North"
"1017550033","1","1755","33","118","PROSPECT ST","10037","106596",,,,,,,,
"1017550047","1","1755","47","54","EAST  131 STREET","10037","52000","MANHATTAN","40.809333","-73.937441","111","9","206","1089072","Central Harlem North-Polo Grounds"
"1017560024","1","1756","24","1200","ZEREGA AVE","10037","62169",,,,,,,,
"1017560039","1","1756","39","1261","5TH AVE","10037","60520","MANHATTAN","40.795237","-73.950409","111","9","17401","1085970","East Harlem South"
"1017570001","1","1757","1","250","BROADWAY","10037","360000","MANHATTAN","40.712982","-74.007301","101","1","21","1001408","SoHo-TriBeCa-Civic Center-Little Italy"
"1017570020","1","1757","20","250","BROADWAY","10037","449600","MANHATTAN","40.712982","-74.007301","101","1","21","1001408","SoHo-TriBeCa-Civic Center-Little Italy"
"1017600001","1","1760","1","2225","5 AVENUE","10037","716400","MANHATTAN","40.813058","-73.937387","111","9","210","1081109","East Harlem North"
"1017600101","1","1760","101","45","EAST  135 STREET","10037","232414","MANHATTAN","40.811838","-73.935437","111","9","210","1082615","East Harlem North"
"1017630001","1","1763","1","2289","5TH AVE","10037","370814","MANHATTAN","40.814945","-73.936012","111","9","210","1054344","East Harlem North"
"1017640001","1","1764","1","2289","5TH AVE","10037","449973","MANHATTAN","40.814945","-73.936012","111","9","210","1054344","East Harlem North"
"1017670005","1","1767","5","42","W 39TH 14TH FLOOR","10035","66900",,,,,,,,
"1017670016","1","1767","16","1900","LEXINGTON AVENUE","10035","201276","MANHATTAN","40.800055","-73.940585","111","9","182","1054347","East Harlem North"
"1017670028","1","1767","28","2180","3RD AVE","10035","147000","MANHATTAN","40.799799","-73.938663","111","8","182","1089075","East Harlem North"
"1017670030","1","1767","30","165","E 118TH ST","10035","65000","MANHATTAN","40.799563","-73.939762","111","8","182","1088293","East Harlem North"
"1017680012","1","1768","12","1940","LEXINGTON AVE","10035","113535","MANHATTAN","40.80073","-73.940093","111","9","196","1054368","East Harlem North"
"1017690005","1","1769","5","250","BROADWAY","10035","157569","MANHATTAN","40.712982","-74.007301","101","1","21","1001408","SoHo-TriBeCa-Civic Center-Little Italy"
"1017690021","1","1769","21","100","WILLIAM ST","10035","120368","MANHATTAN","40.708497","-74.007477","101","1","1502","1001116","Battery Park City-Lower Manhattan"
"1017697501","1","1769","7501",,"PO BOX 935","10035","78087",,,,,,,,
"1017700158","1","1770","158","1982","LEXINGTON AVENUE","10035","358400","MANHATTAN","40.801915","-73.939229","111","9","196","1054407","East Harlem North"
"1017730007","1","1773","7","14125","CLAYTON RD","10035","127000",,,,,,,,
"1017730020","1","1773","20","2","PARAGON DR","10035","64363",,,,,,,,
"1017740001","1","1774","1","1825","PARK AVE","10035","112500","MANHATTAN","40.805258","-73.938875","111","9","196","1054472","East Harlem North"
"1017740030","1","1774","30","300","ROBBINS LN","10035","122944",,,,,,,,
"1017740056","1","1774","56","2080","LEXINGTON AVE","10035","58948","MANHATTAN","40.804716","-73.937182","111","9","196","1087087","East Harlem North"
"1017750045","1","1775","45","1200","ZEREGA AVE","10035","73354",,,,,,,,
"1017750165","1","1775","165","112","E 128TH ST","10035","195842","MANHATTAN","40.806676","-73.936941","111","9","242","1054499","East Harlem North"
"1017770005","1","1777","5","250","BROADWAY","10035","199884","MANHATTAN","40.712982","-74.007301","101","1","21","1001408","SoHo-TriBeCa-Civic Center-Little Italy"
"1017780006","1","1778","6","123","EAST  129 STREET","10035","106332","MANHATTAN","40.807082","-73.935929","111","9","242","1054510","East Harlem North"
"1017830012","1","1783","12","500","TRINITY AVE","10035","76941",,,,,,,,
"1017860009","1","1786","9","95","PINE ST","10035","62791","MANHATTAN","40.705085","-74.005879","101","1","7","1000873","Battery Park City-Lower Manhattan"
"1017870001","1","1787","1","2243","3 AVENUE","10035","285185","MANHATTAN","40.801859","-73.937148","111","8","194","1054626","East Harlem North"
"1017870060","1","1787","60","134","BROADWAY","10035","247156","MANHATTAN","40.708958","-74.010698","101","1","7",,"Battery Park City-Lower Manhattan"
"1017870070","1","1787","70","134","BROADWAY","10035","297425","MANHATTAN","40.708958","-74.010698","101","1","7",,"Battery Park City-Lower Manhattan"
"1017890001","1","1789","1","2283","3 AVENUE","10035","50908","MANHATTAN","40.802964","-73.935912","111","8","242","1087527","East Harlem North"
"1017890021","1","1789","21","551","5TH AVE","10035","208526","MANHATTAN","40.755617","-73.979318","105","4","94","1035389","Midtown-Midtown South"
"1017890046","1","1789","46","340","PEMBERWICK RD","10035","54013",,,,,,,,
"1017920005","1","1792","5","207","E 127TH ST","10035","91256","MANHATTAN","40.804822","-73.93444","111","8","242","1087849","East Harlem North"
"1017920019","1","1792","19","2485","2 AVENUE","10035","137456","MANHATTAN","40.80422","-73.932566","111","8","242","1054700","East Harlem North"
"1017950035","1","1795","35","342","EAST  119 STREET","10035","59411","MANHATTAN","40.798309","-73.934905","111","8","188","1076488","East Harlem North"
"1017960020","1","1796","20","110","WILLIAM ST","10035","98107","MANHATTAN","40.708782","-74.007196","101","1","1502","1001186","Battery Park City-Lower Manhattan"
"1017970001","1","1797","1","250","BROADWAY","10035","542155","MANHATTAN","40.712982","-74.007301","101","1","21","1001408","SoHo-TriBeCa-Civic Center-Little Italy"
"1018070030","1","1807","30","250","BROADWAY","10035","51546","MANHATTAN","40.712982","-74.007301","101","1","21","1001408","SoHo-TriBeCa-Civic Center-Little Italy"
"1018080001","1","1808","1","250","BROADWAY","10035","630078","MANHATTAN","40.712982","-74.007301","101","1","21","1001408","SoHo-TriBeCa-Civic Center-Little Italy"
"1018190040","1","1819","40","9","METROTECH CTR","10035","94875",,,,,,,,
"1018200061","1","1820","61","1200","ZEREGA AVE","10026","51456",,,,,,,,
"1018207503","1","1820","7503","45","ROCKEFELLER PLZ","10026","103659","MANHATTAN","40.759204","-73.978335","105","4","104","1083860","Midtown-Midtown South"
"1018220029","1","1822","29","45","LENOX AVENUE","10026","65681","MANHATTAN","40.799519","-73.9515","110","9","216","1084006","Central Harlem South"
"1018230010","1","1823","10","73","W 108TH ST","10026","57516","MANHATTAN","40.800291","-73.961295","107","7","193","1055708","Morningside Heights"
"1018230018","1","1823","18","1200","ZEREGA AVE","10026","65048",,,,,,,,
"1018237501","1","1823","7501","66","SAINT NICHOLAS AVE","10026","58429","MANHATTAN","40.801109","-73.952521","110","9","216","1055030","Central Harlem South"
"1018240003","1","1824","3","850","BRONX RIVER RD","10026","50760",,,,,,,,
"1018240016","1","1824","16","60","E 42ND ST","10026","154962","MANHATTAN","40.752532","-73.978662","105","4","82","1035335","Murray Hill-Kips Bay"
"1018240055","1","1824","55","92","SAINT NICHOLAS AVE","10026","64869","MANHATTAN","40.802102","-73.952567","110","9","218","1055039","Central Harlem South"
"1018250036","1","1825","36","102","W 116TH ST","10026","75600","MANHATTAN","40.802302","-73.950364","110","9","218","1055048","Central Harlem South"
"1018250059","1","1825","59","21702","JAMAICA AVE","10026","76300",,,,,,,,
"1018257501","1","1825","7501","106","WEST  116 STREET","10026","60290","MANHATTAN","40.802329","-73.950433","110","9","218","1087943","Central Harlem South"
"1018260008","1","1826","8","235","CENTRAL PARK NORTH","10026","86124","MANHATTAN","40.799941","-73.956477","110","9","216","1085302","Central Harlem South"
"1018260013","1","1826","13","372","MCLEAN AVE","10026","53098",,,,,,,,
"1018260036","1","1826","36","423","W 55TH ST","10026","65286","MANHATTAN","40.766993","-73.987531","104","3","139","1026842","Clinton"
"1018270001","1","1827","1","134","BROADWAY","10026","105273","MANHATTAN","40.708958","-74.010698","101","1","7",,"Battery Park City-Lower Manhattan"
"2029400001","2","2940","1","3154","ALBANY CRESCENT 2 FL","10460","75978","BRONX","40.8794","-73.902475","208","14","277","2096014","Van Cortlandt Village"
"2029400006","2","2940","6","3154","ALBANY CRESCENT 2 FL","10460","64300","BRONX","40.8794","-73.902475","208","14","277","2096014","Van Cortlandt Village"
"2029400011","2","2940","11","494","8TH AVE","10460","101262",,,,,,,,
"2029400019","2","2940","19","1762","BOSTON RD","10460","51306","BRONX","40.837777","-73.887079","203","17","161","2010683","Crotona Park East"
"2029400058","2","2940","58","1180","WELSH RD","10460","82524",,,,,,,,
"2029400065","2","2940","65","1180","WELSH RD","10460","82500",,,,,,,,
"2029400072","2","2940","72","3154","ALBANY CRESCENT","10460","76800","BRONX","40.8794","-73.902475","208","14","277","2096014","Van Cortlandt Village"
"2029440001","2","2944","1","90","CHURCH ST","10457","286346",,,,,,,,
"2029460001","2","2946","1","885","BRUCKNER BLVD","10457","72044","BRONX","40.817403","-73.893595","202","17","89","2102966","Hunts Point"
"2029470009","2","2947","9","1","STONE PL","10457","52882",,,,,,,,
"2029470014","2","2947","14","1910","ARTHUR AVE","10457","65181","BRONX","40.845391","-73.8935","206","17","36901","2009910","East Tremont"
"2029490025","2","2949","25","2881","MIDDLETOWN RD","10457","57659","BRONX","40.843525","-73.833449","210","13","26602","2045854","Pelham Bay-Country Club-City Island"
"2029490075","2","2949","75","1815","PROSPECT AVE","10457","54126","BRONX","40.841986","-73.891218","206","17","36902","2009958","East Tremont"
"2029600028","2","2960","28","866","ELSMERE PLACE","10460","76800","BRONX","40.842379","-73.886743","206","17","36502","2010152","East Tremont"
"2029640029","2","2964","29","1735","PARK AVE","10459","77768",,,,,,,,
"2029650051","2","2965","51","1490","BOSTON ROAD","10460","94061","BRONX","40.83457","-73.894461","203","17","153","2010271","Crotona Park East"
"2029650100","2","2965","100","850","JENNINGS STREET","10459","114409","BRONX","40.832299","-73.893391","203","17","153","2010275","Crotona Park East"
"2029750013","2","2975","13","3092","HULL AVE","10459","67986","BRONX","40.872113","-73.878676","207","11","425","2017920","Norwood"
"2029750037","2","2975","37","1601","BRONXDALE AVE","10459","167409","BRONX","40.843548","-73.856945","211","13","238","2043253","Van Nest-Morris Park-Westchester Square"
"2029760001","2","2976","1","1762","BOSTON RD","10459","63100","BRONX","40.837777","-73.887079","203","17","161","2010683","Crotona Park East"
"2029760007","2","2976","7","50","E 168TH ST","10459","185149","BRONX","40.836725","-73.919292","204","16","197","2101464","West Concourse"
"2029760082","2","2976","82","1357","SOUTHERN BOULEVARD","10459","86500","BRONX","40.831339","-73.891347","203","17","123","2100759","Crotona Park East"
"2029760092","2","2976","92","1327","SOUTHERN BOULEVARD","10459","61736","BRONX","40.8311","-73.891485","203","17","123","2010493","Crotona Park East"
"2029767501","2","2976","7501","1334","LOUIS NINE BOULEVARD","10459","174820","BRONX","40.831535","-73.892337","203","17","123","2118405","Crotona Park East"
"2029767502","2","2976","7502","870","JENNINGS STREET","10459","108050","BRONX","40.832452","-73.892426","203","17","123","2118406","Crotona Park East"
"1018270053","1","1827","53","8714","116TH ST","10026","54000",,,,,,,,
"1018287506","1","1828","7506","261","WEST  112 STREET","10026","66215","MANHATTAN","40.801492","-73.956346","110","9","216","1088153","Central Harlem South"
"1018290029","1","1829","29","1864","7TH AVE","10026","55917","MANHATTAN","40.801395","-73.953868","110","9","216","1055157","Central Harlem South"
"1018290033","1","1829","33","1878","A.C.POWELL JR.BLVD","10026","61710",,,,,,,,
"1018297501","1","1829","7501","2098","FREDRICK DOUGLASS BL","10026","91601","MANHATTAN","40.802798","-73.95654","110","9","216","1087078","Central Harlem South"
"1018307502","1","1830","7502","2110","FREDRICK DOUGLASS BL","10026","50128","MANHATTAN","40.803251","-73.956211","110","9","218","1087928","Central Harlem South"
"1018320001","1","1832","1","1230","PENNSYLVANIA AVE","10025","303585",,,,,,,,
"1018320010","1","1832","10","1740","BROADWAY","10025","93857","MANHATTAN","40.765098","-73.982095","105","4","137","1024877","Midtown-Midtown South"
"1018320016","1","1832","16","155","RIVERSIDE DR","10025","133915","MANHATTAN","40.791033","-73.97918","107","6","175","1033994","Upper West Side"
"1018320025","1","1832","25","4","PARK AVE","10025","100316","MANHATTAN","40.746752","-73.981598","105","2","74","1017084","Midtown-Midtown South"
"1018320036","1","1832","36","300","W 55TH ST","10025","84612","MANHATTAN","40.765142","-73.984253","104","3","139","1025416","Clinton"
"1018320043","1","1832","43","156","WILLIAM ST","10025","342540","MANHATTAN","40.709944","-74.006045","101","1","1501","1001281","Battery Park City-Lower Manhattan"
"1018337501","1","1833","7501","382","CENTRAL PARK WEST","10025","390628","MANHATTAN","40.79348","-73.965673","107","7","185","1074358","Upper West Side"
"1018337502","1","1833","7502","371","CENTRAL PARK WEST","10025","390628","MANHATTAN","40.792261","-73.964261","107","7","181",,"Upper West Side"
"1018337503","1","1833","7503","392","CENTRAL PARK W","10025","390628","MANHATTAN","40.793779","-73.963159","107","7","185","1055287","Upper West Side"
"1018337504","1","1833","7504","6","EAST 43 STREET","10025","390628","MANHATTAN","40.753979","-73.979997","105","4","94","1035347","Midtown-Midtown South"
"1018337505","1","1833","7505","775","COLUMBUS AVENUE","10025","92431","MANHATTAN","40.794049","-73.966644","107","7","185","1088481","Upper West Side"
"1018337506","1","1833","7506","795","COLUMBUS AVENUE","10025","232452","MANHATTAN","40.794559","-73.966272","107","7","185","1088631","Upper West Side"
"1018337507","1","1833","7507","805","COLUMBUS AVENUE","10025","129297","MANHATTAN","40.794987","-73.965957","107","7","185","1088152","Upper West Side"
"1018360001","1","1836","1","250","BROADWAY","10025","689340","MANHATTAN","40.712982","-74.007301","101","1","21","1001408","SoHo-TriBeCa-Civic Center-Little Italy"
"1018360036","1","1836","36","1740","BROADWAY","10025","100530","MANHATTAN","40.765098","-73.982095","105","4","137","1024877","Midtown-Midtown South"
"1018370029","1","1837","29","413","CENTRAL PARK WEST","10025","132877","MANHATTAN","40.794929","-73.962317","107","7","189","1055309","Upper West Side"
"1018377501","1","1837","7501","418","CENTRAL PARK WEST","10025","88060","MANHATTAN","40.795346","-73.962013","107","7","189","1055310","Upper West Side"
"1018390029","1","1839","29","431","CENTRAL PARK W","10025","115776","MANHATTAN","40.796298","-73.961319","107","7","189","1055480","Upper West Side"
"1018400029","1","1840","29","201","E 42ND ST","10025","201723","MANHATTAN","40.750714","-73.974295","106","4","88","1037549","Turtle Bay-East Midtown"
"1018407501","1","1840","7501","250","PARK AVE S","10025","87732","MANHATTAN","40.738231","-73.987818","105","2","52","1016176","Hudson Yards-Chelsea-Flatiron-Union Square"
"1018417503","1","1841","7503","455","CENTRAL PARK WEST","10025","214358","MANHATTAN","40.797939","-73.960115","107","7","189","1081578","Upper West Side"
"1018420029","1","1842","29","463","CENTRAL PARK W","10025","71216","MANHATTAN","40.798383","-73.959794","107","7","193","1055658","Morningside Heights"
"1018420042","1","1842","42","4225","21ST ST","10025","68200",,,,,,,,
"1018427501","1","1842","7501","50","W 17TH ST","10025","115824","MANHATTAN","40.738585","-73.99384","105","3","54","1015405","Hudson Yards-Chelsea-Flatiron-Union Square"
"1018430020","1","1843","20","15","W 39TH ST","10025","75164","MANHATTAN","40.751923","-73.983073","105","4","84","1016044","Midtown-Midtown South"
"1018440001","1","1844","1","981","COLUMBUS AVENUE","10025","79340","MANHATTAN","40.800684","-73.9618","107","7","193","1055708","Morningside Heights"
"1018440020","1","1844","20","200","W 57TH ST","10025","112493","MANHATTAN","40.765628","-73.980315","105","4","137","1024896","Midtown-Midtown South"
"1018440033","1","1844","33","42","RIVER ST","10025","54824",,,,,,,,
"1018457501","1","1845","7501","301","CATHERAL PARKWAY","10026","623043",,,,,,,,
"1018457502","1","1845","7502","352","CATHEDRAL PARKWAY","10025","102999","MANHATTAN","40.801263","-73.959907","107","7","193","1055748","Morningside Heights"
"1018460031","1","1846","31","134","BROADWAY","10026","56598","MANHATTAN","40.708958","-74.010698","101","1","7",,"Battery Park City-Lower Manhattan"
"2029830042","2","2983","42","317","MADISON AVE","10460","53568",,,,,,,,
"2029850031","2","2985","31","1932","CROTONA PARKWAY","10460","50392","BRONX","40.841909","-73.88541","206","17","359","2115777","East Tremont"
"2029850038","2","2985","38","3092","HULL AVE","10460","76268","BRONX","40.872113","-73.878676","207","11","425","2017920","Norwood"
"2029857501","2","2985","7501","1926","CROTONA PARKWAY","10460","102885","BRONX","40.841488","-73.885121","206","17","359","2010621","East Tremont"
"2029870025","2","2987","25","2751","GRAND CONCOURSE","10460","105000","BRONX","40.868185","-73.89278","207","14","40303","2017431","Van Cortlandt Village"
"2029880004","2","2988","4","1468","HOE AVENUE","10460","83481","BRONX","40.832493","-73.889538","203","17","157","2117123","Crotona Park East"
"2029890011","2","2989","11","1544","HOE AVENUE","10460","63675","BRONX","40.83424","-73.888491","203","17","157","2092191","Crotona Park East"
"2029900001","2","2990","1","494","8TH AVE","10460","52000",,,,,,,,
"2029900011","2","2990","11","250","BROADWAY","10460","55608",,,,,,,,
"2029910030","2","2991","30","1762","BOSTON RD","10460","70666","BRONX","40.837777","-73.887079","203","17","161","2010683","Crotona Park East"
"2029910034","2","2991","34","1776","HOE AVE","10460","58962","BRONX","40.837738","-73.886407","203","17","161","2010685","Crotona Park East"
"2029920043","2","2992","43","1950","DALY AVENUE","10460","64440","BRONX","40.841589","-73.884015","206","17","359","2010702","East Tremont"
"2029920052","2","2992","52","1945","VYSE AVE","10460","54494","BRONX","40.840814","-73.883092","206","17","359","2113077","East Tremont"
"2029970030","2","2997","30","250","BROADWAY","10460","63905",,,,,,,,
"2029980002","2","2998","2","150","E 58TH ST","10460","134000",,,,,,,,
"2030020025","2","3002","25","494","8TH AVE","10460","82530",,,,,,,,
"2030050007","2","3005","7","1904","VYSE AVENUE","10460","98524","BRONX","40.840134","-73.883479","206","17","359","2113158","East Tremont"
"2030050065","2","3005","65","8714","116TH ST","10460","108132",,,,,,,,
"2030060053","2","3006","53","15","W 39TH ST","10459","107444",,,,,,,,
"1018467501","1","1846","7501","250","PARK AVE S","10026","623043","MANHATTAN","40.738231","-73.987818","105","2","52","1016176","Hudson Yards-Chelsea-Flatiron-Union Square"
"1018470021","1","1847","21","21702","JAMAICA AVE","10026","54675",,,,,,,,
"1018480036","1","1848","36",,"PO BOX 467","10026","69000",,,,,,,,
"1018480042","1","1848","42","138","ATLANTIC AVE","10026","62000",,,,,,,,
"1018487503","1","1848","7503","2131","FREDRICK DOUGLASS BL","10026","152991","MANHATTAN","40.803893","-73.955766","110","9","20102","1088733","Central Harlem South"
"1018490023","1","1849","23",,"PO BOX 1175","10026","55458",,,,,,,,
"1018510005","1","1851","5","145","W 96TH ST","10025","96000","MANHATTAN","40.793421","-73.96884","107","7","181","1055892","Upper West Side"
"1018510008","1","1851","8","888","7TH AVE","10025","503511","MANHATTAN","40.765015","-73.980416","105","4","137","1024895","Midtown-Midtown South"
"1018510012","1","1851","12","127","WEST   96 STREET","10025","121713","MANHATTAN","40.793267","-73.968475","107","7","181","1055893","Upper West Side"
"1018517501","1","1851","7501","750","COLUMBUS AVENUE","10025","360660","MANHATTAN","40.793278","-73.967233","107","7","181","1079308","Upper West Side"
"1018520001","1","1852","1","9777","QUEENS BLVD","10025","204468",,,,,,,,
"1018520012","1","1852","12","107","WEST   97 STREET","10025","257760","MANHATTAN","40.793791","-73.967561","107","7","185","1089696","Upper West Side"
"1018520020","1","1852","20","790","COLUMBUS AVENUE","10025","257760","MANHATTAN","40.794568","-73.96629","107","7","185","1055902","Upper West Side"
"1018520031","1","1852","31","120","WEST  100 STREET","10025","257760","MANHATTAN","40.796069","-73.967119","107","7","185","1055905","Upper West Side"
"1018527501","1","1852","7501","156","WILLIAM ST","10025","632743","MANHATTAN","40.709944","-74.006045","101","1","1501","1001281","Battery Park City-Lower Manhattan"
"1018527502","1","1852","7502","801","AMSTERDAM AVENUE","10025","137551","MANHATTAN","40.796199","-73.968788","107","7","185","1088438","Upper West Side"
"1018550001","1","1855","1","250","BROADWAY","10025","700175","MANHATTAN","40.712982","-74.007301","101","1","21","1001408","SoHo-TriBeCa-Civic Center-Little Italy"
"1018550050","1","1855","50","8401","COLESVILLE RD","10025","83500",,,,,,,,
"1018590039","1","1859","39","1","PENN PLZ","10025","55590","MANHATTAN","40.751098","-73.992926","105","3","101","1014387","Midtown-Midtown South"
"1018597501","1","1859","7501","123","WEST  104 STREET","10025","64105","MANHATTAN","40.79844","-73.965038","107","7","189","1081580","Upper West Side"
"1018610010","1","1861","10","200","W 57TH ST","10025","170050","MANHATTAN","40.765628","-73.980315","105","4","137","1024896","Midtown-Midtown South"
"1018610040","1","1861","40","100","WASHINGTON ST","10025","113886","MANHATTAN","40.708494","-74.014291","101","1","13","1088750","Battery Park City-Lower Manhattan"
"1018627501","1","1862","7501","171","WEST  107 STREET","10025","56290","MANHATTAN","40.800701","-73.964217","107","7","193","1055986","Morningside Heights"
"1018630029","1","1863","29","15","W 39TH STREET, 7TH F","10025","67535","MANHATTAN","40.751923","-73.983073","105","4","84","1016044","Midtown-Midtown South"
"1018640009","1","1864","9","424","CATHEDERAL PARKWAY","10025","362400",,,,,,,,
"1018640036","1","1864","36","11835","QUEENS BLVD","10025","117276",,,,,,,,
"1018640039","1","1864","39","155","RIVERSIDE DR","10025","86819","MANHATTAN","40.791033","-73.97918","107","6","175","1033994","Upper West Side"
"1018650001","1","1865","1","1021","AMSTERDAM AVENUE","10025","13435076","MANHATTAN","40.803092","-73.963764","109","7","19701","1082828","Morningside Heights"
"1018650040","1","1865","40","671","N GLEBE RD, SUITE 80","10025","358800",,,,,,,,
"1018660001","1","1866","1","1111","AMSTERDAM AVE","10025","577649","MANHATTAN","40.805841","-73.961751","109","7","20101","1056035","Morningside Heights"
"1018670001","1","1867","1","1111","AMSTERDAM AVE","10025","148067","MANHATTAN","40.805841","-73.961751","109","7","20101","1056035","Morningside Heights"
"1018670005","1","1867","5","1111","AMSTERDAM AVE","10025","280560","MANHATTAN","40.805841","-73.961751","109","7","20101","1056035","Morningside Heights"
"1018670042","1","1867","42","1125","AMSTERDAM AVENUE","10025","83170","MANHATTAN","40.806355","-73.961378","109","7","20101","1085710","Morningside Heights"
"1018670067","1","1867","67","400","W 119TH ST","10027","55067","MANHATTAN","40.808088","-73.958054","109","7","20701","1059506","Morningside Heights"
"1018680001","1","1868","1","740","W END AVE","10025","135463","MANHATTAN","40.795352","-73.973126","107","6","183","1056059","Upper West Side"
"1018680020","1","1868","20","129","E 29TH ST","10025","53305","MANHATTAN","40.74317","-73.981765","106","2","72","1018253","Murray Hill-Kips Bay"
"1018680044","1","1868","44","421","7TH AVE","10025","57300","MANHATTAN","40.750503","-73.990966","105","3","101","1015192","Midtown-Midtown South"
"1018680061","1","1868","61","4611","12TH AVE","10025","198248",,,,,,,,
"2030100004","2","3010","4","1670","LONGFELLOW AVE","10460","66258","BRONX","40.834879","-73.885021","203","17","161","2010933","Crotona Park East"
"2030100012","2","3010","12","494","8TH AVE","10460","73500",,,,,,,,
"2030140015","2","3014","15","853","BROADWAY","10460","65850",,,,,,,,
"2030150034","2","3015","34","594","BROADWAY","10460","65324",,,,,,,,
"2030220001","2","3022","1","1085","E 12TH ST","10458","66960",,,,,,,,
"2030220010","2","3022","10","1325","CUSTER HILL AVE 2ND","10458","56448",,,,,,,,
"2030220031","2","3022","31","2405","MARION AVENUE","10458","61572","BRONX","40.858962","-73.895083","205","15","39902","2010993","Bedford Park-Fordham North"
"2030220050","2","3022","50",,"PO BOX 579","10458","51900",,,,,,,,
"2030220058","2","3022","58","1995","BROADWAY","10458","67570",,,,,,,,
"2030220073","2","3022","73","1995","BROADWAY","10458","132756",,,,,,,,
"2030240069","2","3024","69","495","BROADWAY","10458","143000",,,,,,,,
"2030240080","2","3024","80","385","EAST  184 STREET","10458","124888","BRONX","40.856893","-73.895636","205","15","38302","2102071","Fordham South"
"2030250013","2","3025","13","2421","WEBSTER AVENUE","10458","98922","BRONX","40.859444","-73.893517","205","15","39902","2011060","Bedford Park-Fordham North"
"2030260005","2","3026","5","4403","15TH AVE","10458","56160",,,,,,,,
"2030260020","2","3026","20",,"PO BOX 300381","10458","50800",,,,,,,,
"2030290015","2","3029","15","2044","WEBSTER AVENUE","10457","55986","BRONX","40.851171","-73.898837","206","15","379","2011117","Mount Hope"
"2030310021","2","3031","21","2751","GRAND CONCOURSE","10458","70808","BRONX","40.868185","-73.89278","207","14","40303","2017431","Van Cortlandt Village"
"2030310069","2","3031","69","1274","49TH ST","10458","52547",,,,,,,,
"2030330004","2","3033","4","573","E FORDHAM RD","10458","58931","BRONX","40.85877","-73.885782","206","15","397","2016264","Belmont"
"2030370025","2","3037","25","1919","WILLIAMSBRIDGE RD","10457","84300","BRONX","40.852799","-73.853325","211","13","250","2048553","Pelham Parkway"
"2030380029","2","3038","29","15","VERBENA AVENUE SUITE","10457","111767",,,,,,,,
"2030400003","2","3040","3","155","6TH AVE","10458","80658",,,,,,,,
"2030430001","2","3043","1","1920","WASHINGTON AVENUE","10457","74746","BRONX","40.847563","-73.897751","206","15","395","2115978","Claremont-Bathgate"
"2030440017","2","3044","17","1180","WELSH RD","10457","90994",,,,,,,,
"2030440040","2","3044","40","495","E 178TH ST","10457","55137","BRONX","40.848136","-73.896756","206","15","395","2011445","Claremont-Bathgate"
"2030500010","2","3050","10",,"BAD LOCATION ADDRESS","0","54365",,,,,,,,
"2030500070","2","3050","70","155","AVENUE OF THE AMERIC","10457","81676",,,,,,,,
"2030510001","2","3051","1","885","BRUCKNER BLVD","10457","69498","BRONX","40.817403","-73.893595","202","17","89","2102966","Hunts Point"
"2030510045","2","3051","45","4422","3RD AVE","10457","67815","BRONX","40.853346","-73.891611","206","15","37504","2094217","East Tremont"
"2030530055","2","3053","55","277","NORTHERN BLVD","10458","73905",,,,,,,,
"2030570011","2","3057","11","61","BROADWAY","10458","148500",,,,,,,,
"2030610005","2","3061","5","902","BROADWAY","10457","92291",,,,,,,,
"2030610026","2","3061","26","2019","MONTEREY AVENUE","10457","66033","BRONX","40.848257","-73.894327","206","15","37504","2011837","East Tremont"
"2030610036","2","3061","36","551","EAST  178 STREET","10457","60000","BRONX","40.847528","-73.894599","206","15","37504","2011842","East Tremont"
"2030610042","2","3061","42","2018","MONTEREY AVE","10457","55272","BRONX","40.848433","-73.894196","206","15","37504","2011843","East Tremont"
"2030610068","2","3061","68","2007","LA FONTAINE AVENUE","10457","98363","BRONX","40.847562","-73.89371","206","15","37504","2113159","East Tremont"
"2030620021","2","3062","21","250","BROADWAY","10457","208560",,,,,,,,
"1018687501","1","1868","7501","241","WEST   96 STREET","10025","454038","MANHATTAN","40.794786","-73.972082","107","6","183",,"Upper West Side"
"1018690001","1","1869","1","148","W 37TH ST","10025","94455","MANHATTAN","40.752465","-73.988237","105","3","109","1015249","Midtown-Midtown South"
"1018690029","1","1869","29","155","RIVERSIDE DR","10025","64650","MANHATTAN","40.791033","-73.97918","107","6","175","1033994","Upper West Side"
"1018690044","1","1869","44","250","W 57TH ST","10025","170928","MANHATTAN","40.766391","-73.982119","105","3","137","1024899","Midtown-Midtown South"
"1018697501","1","1869","7501","2576","BROADWAY","10025","88242","MANHATTAN","40.795417","-73.971208","107","7","183","1075313","Upper West Side"
"1018697502","1","1869","7502","148","W 37TH ST","10025","98950","MANHATTAN","40.752465","-73.988237","105","3","109","1015249","Midtown-Midtown South"
"1018697503","1","1869","7503","276","RIVERSIDE DR","10025","283522","MANHATTAN","40.79839","-73.972955","107","6","187","1057094","Upper West Side"
"1018700001","1","1870","1","666","LEXINGTON AVE","10025","53971","MANHATTAN","40.759944","-73.969863","105","4","100","1036528","Turtle Bay-East Midtown"
"1018700004","1","1870","4","770","LEXINGTON AVE","10025","166617","MANHATTAN","40.763097","-73.967562","108","4","11402","1041920","Upper East Side-Carnegie Hill"
"1018700056","1","1870","56","111","N CENTRAL AVE","10025","54520",,,,,,,,
"1018707501","1","1870","7501","263","W 38TH ST","10025","59780","MANHATTAN","40.75423","-73.990468","105","3","113","1014474","Midtown-Midtown South"
"1018707502","1","1870","7502","2600","BROADWAY","10025","173686","MANHATTAN","40.796048","-73.970749","107","7","187","1082691","Upper West Side"
"1018710001","1","1871","1","808","W END AVE","10025","107120","MANHATTAN","40.797234","-73.971323","107","6","187","1056451","Upper West Side"
"1018710020","1","1871","20","233","WEST   99 STREET","10025","94674","MANHATTAN","40.796397","-73.969886","107","7","187","1056459","Upper West Side"
"1018710042","1","1871","42","2632","BROADWAY","10025","87305","MANHATTAN","40.797011","-73.970055","107","7","187","1056464","Upper West Side"
"1018710052","1","1871","52","2637","BROADWAY","10025","111883","MANHATTAN","40.797077","-73.97003","107","6","187","1056466","Upper West Side"
"1018710061","1","1871","61","808","W END AVE","10025","107869","MANHATTAN","40.797234","-73.971323","107","6","187","1056451","Upper West Side"
"1018717501","1","1871","7501","245","WEST   99 STREET","10025","171664","MANHATTAN","40.796754","-73.970727","107","6","187","1087548","Upper West Side"
"1018717502","1","1871","7502","2628","BROADWAY","10025","134627","MANHATTAN","40.796902","-73.970135","107","7","187","1056465","Upper West Side"
"1018720029","1","1872","29","250","BROADWAY","10025","149500","MANHATTAN","40.712982","-74.007301","101","1","21","1001408","SoHo-TriBeCa-Civic Center-Little Italy"
"1018720043","1","1872","43","50","W 17TH ST","10025","259607","MANHATTAN","40.738585","-73.99384","105","3","54","1015405","Hudson Yards-Chelsea-Flatiron-Union Square"
"1018720061","1","1872","61","521","5TH AVE","10025","108377","MANHATTAN","40.754078","-73.979935","105","4","94","1035355","Midtown-Midtown South"
"1018730020","1","1873","20","4","MCKENNEY CT","10025","95400",,,,,,,,
"1018730027","1","1873","27","204","W 101ST ST","10025","54800","MANHATTAN","40.797409","-73.968448","107","7","187","1056484","Upper West Side"
"1018730031","1","1873","31","417FIFTH","AVE. 4TH FLR.","10025","82172","MANHATTAN","40.750691","-73.982907","105","4","82","1017224","Murray Hill-Kips Bay"
"1018730052","1","1873","52","1536","3RD AVE","10025","61400","MANHATTAN","40.779086","-73.953808","108","5","14802","1047964","Upper East Side-Carnegie Hill"
"1018740029","1","1874","29","250","BROADWAY","10025","147550","MANHATTAN","40.712982","-74.007301","101","1","21","1001408","SoHo-TriBeCa-Civic Center-Little Italy"
"1018740052","1","1874","52","2345","BROADWAY","10025","168140","MANHATTAN","40.787931","-73.976838","107","6","171","1081052","Upper West Side"
"1018740058","1","1874","58","1740","BROADWAY","10025","77465","MANHATTAN","40.765098","-73.982095","105","4","137","1024877","Midtown-Midtown South"
"1018740061","1","1874","61","878","W END AVE","10025","61779","MANHATTAN","40.799498","-73.970101","107","6","191","1056551","Upper West Side"
"1018747501","1","1874","7501","2681","BROADWAY","10025","242330","MANHATTAN","40.798587","-73.968931","107","6","191","1056558","Upper West Side"
"1018750001","1","1875","1","250","W 57TH ST","10025","94328","MANHATTAN","40.766391","-73.982119","105","3","137","1024899","Midtown-Midtown South"
"1018750036","1","1875","36","640","5TH AVE","10025","59096","MANHATTAN","40.759432","-73.977122","105","4","104","1034516","Midtown-Midtown South"
"1018750061","1","1875","61","6","E 43 ST","10025","114330","MANHATTAN","40.753979","-73.979997","105","4","94","1035347","Midtown-Midtown South"
"1018757501","1","1875","7501","2700","BROADWAY","10025","135625","MANHATTAN","40.798924","-73.967851","107","7","191","1056563","Upper West Side"
"1018760001","1","1876","1","155","RIVERSIDE DR","10025","172176","MANHATTAN","40.791033","-73.97918","107","6","175","1033994","Upper West Side"
"1018760007","1","1876","7","8475","MAIN ST","10025","145625",,,,,,,,
"1018760046","1","1876","46","148","W 37TH ST","10025","112541","MANHATTAN","40.752465","-73.988237","105","3","109","1015249","Midtown-Midtown South"
"1018760061","1","1876","61","145","HUGUENOT ST","10025","120542",,,,,,,,
"1018770001","1","1877","1","18","E 64TH ST","10025","160764","MANHATTAN","40.767014","-73.969856","108","4","122","1041050","Upper East Side-Carnegie Hill"
"1018770042","1","1877","42","238","W 106TH ST","10025","66492","MANHATTAN","40.800922","-73.966875","107","7","191","1056622","Upper West Side"
"1018780012","1","1878","12","225","W 106TH ST","10025","249756","MANHATTAN","40.801119","-73.967298","107","7","195","1056631","Morningside Heights"
"1018780021","1","1878","21",,"PO BOX 574","10025","106149",,,,,,,,
"1018780025","1","1878","25",,"PO BOX 574","10025","108052",,,,,,,,
"1018780037","1","1878","37","729","SEVENTH AVE","10025","53250","MANHATTAN","40.760103","-73.983973","105","4","125","1022699","Midtown-Midtown South"
"1018780042","1","1878","42","729","SEVENTH AVE","10025","50820","MANHATTAN","40.760103","-73.983973","105","4","125","1022699","Midtown-Midtown South"
"1018787501","1","1878","7501","2770","BROADWAY","10025","121068","MANHATTAN","40.801811","-73.967825","107","7","195","1056646","Morningside Heights"
"1018790001","1","1879","1","675","THIRD AVENUE","10025","197170","MANHATTAN","40.750791","-73.973963","106","4","88","1037549","Turtle Bay-East Midtown"
"1018790036","1","1879","36",,"PO BOX 401","10025","100961",,,,,,,,
"1018800001","1","1880","1","675","3RD AVE","10025","121922","MANHATTAN","40.750791","-73.973963","106","4","88","1037549","Turtle Bay-East Midtown"
"1018800029","1","1880","29","976","AMSTERDAM AVENUE","10025","51080","MANHATTAN","40.801841","-73.9647","107","7","195","1056681","Morningside Heights"
"1018807501","1","1880","7501","1","UNION SQ W","10025","51411","MANHATTAN","40.735319","-73.99165","105","2","52","1016063","Hudson Yards-Chelsea-Flatiron-Union Square"
"1018810004","1","1881","4","400","W 119TH ST","10025","167038","MANHATTAN","40.808088","-73.958054","109","7","20701","1059506","Morningside Heights"
"1018817501","1","1881","7501","504","W 110TH ST","10025","107102","MANHATTAN","40.803276","-73.964606","107","7","195","1084036","Morningside Heights"
"1018817502","1","1881","7502","50","W 17TH ST","10025","59769","MANHATTAN","40.738585","-73.99384","105","3","54","1015405","Hudson Yards-Chelsea-Flatiron-Union Square"
"1018817503","1","1881","7503","514","CATHEDRAL PARKWAY","10025","50868","MANHATTAN","40.803474","-73.965079","107","7","195","1056715","Morningside Heights"
"1018820008","1","1882","8","1981","MARCUS AVE","10025","150429",,,,,,,,
"1018820020","1","1882","20","515","CATHEDRAL PARKWAY","10025","83471","MANHATTAN","40.803336","-73.964707","109","7","199","1056906","Morningside Heights"
"1018820024","1","1882","24","509","CATHEDRAL PKWY","10025","83519","MANHATTAN","40.803251","-73.964501","109","7","199","1056907","Morningside Heights"
"1018820028","1","1882","28","1020","AMSTERDAM AVENUE","10025","88930","MANHATTAN","40.8031","-73.963782","109","7","199","1056908","Morningside Heights"
"1018820036","1","1882","36","1","DUPONT ST","10025","55868",,,,,,,,
"1018820051","1","1882","51","279","W 231ST ST","10025","53085",,,,,,,,
"1018820054","1","1882","54","279","W 231ST ST","10025","53093",,,,,,,,
"1018827501","1","1882","7501","527","CATHEDRAL PKWY","10025","70493","MANHATTAN","40.803512","-73.965118","109","7","199","1056918","Morningside Heights"
"1018827502","1","1882","7502","545","CATHEDRAL PARKWAY","10025","117370","MANHATTAN","40.803996","-73.966274","109","7","199","1088200","Morningside Heights"
"1018830036","1","1883","36","1050","AMSTERDAM AVENUE","10025","67536","MANHATTAN","40.804096","-73.963052","109","7","199","1078616","Morningside Heights"
"1018830059","1","1883","59","400","W 119TH ST","10025","123205","MANHATTAN","40.808088","-73.958054","109","7","20701","1059506","Morningside Heights"
"1018837501","1","1883","7501","2860","BROADWAY","10025","160658","MANHATTAN","40.804962","-73.966107","109","7","199","1075433","Morningside Heights"
"1018837502","1","1883","7502","148","W 37TH ST","10025","67313","MANHATTAN","40.752465","-73.988237","105","3","109","1015249","Midtown-Midtown South"
"1018840001","1","1884","1","400","W 119TH ST","10025","59018","MANHATTAN","40.808088","-73.958054","109","7","20701","1059506","Morningside Heights"
"1018840011","1","1884","11","400","W 119TH ST","10025","75569","MANHATTAN","40.808088","-73.958054","109","7","20701","1059506","Morningside Heights"
"1018840015","1","1884","15","400","W 119TH ST","10025","54567","MANHATTAN","40.808088","-73.958054","109","7","20701","1059506","Morningside Heights"
"1018840029","1","1884","29","1060","AMSTERDAM AVE","10025","125992","MANHATTAN","40.804357","-73.962864","109","7","199","1056997","Morningside Heights"
"1018840048","1","1884","48","400","W 119TH ST","10025","56780","MANHATTAN","40.808088","-73.958054","109","7","20701","1059506","Morningside Heights"
"1018840061","1","1884","61","400","W 119TH ST","10025","91116","MANHATTAN","40.808088","-73.958054","109","7","20701","1059506","Morningside Heights"
"1018850029","1","1885","29","555","W 57TH ST","10025","89365","MANHATTAN","40.770125","-73.990927","104","6","135","1027072","Clinton"
"1018850036","1","1885","36","555","W 57 ST","10025","149348","MANHATTAN","40.770125","-73.990927","104","6","135","1027072","Clinton"
"1018850040","1","1885","40","400","W 119TH ST","10025","57300","MANHATTAN","40.808088","-73.958054","109","7","20701","1059506","Morningside Heights"
"1018850043","1","1885","43","400","W 119TH ST","10025","57430","MANHATTAN","40.808088","-73.958054","109","7","20701","1059506","Morningside Heights"
"1018897501","1","1889","7501","825","WEST END AVENUE","10025","198628","MANHATTAN","40.798027","-73.971196","107","6","187","1057135","Upper West Side"
"1018897502","1","1889","7502","845","WEST END AVENUE","10025","217469","MANHATTAN","40.798689","-73.970716","107","6","187","1057155","Upper West Side"
"1018900001","1","1890","1","4","PARK AVE","10025","190890","MANHATTAN","40.746752","-73.981598","105","2","74","1017084","Midtown-Midtown South"
"1018900015","1","1890","15","865","WEST END AVENUE","10025","143604","MANHATTAN","40.79927","-73.970293","107","6","191","1057181","Upper West Side"
"1018900024","1","1890","24","1740","BROADWAY","10025","158615","MANHATTAN","40.765098","-73.982095","105","4","137","1024877","Midtown-Midtown South"
"1018900028","1","1890","28","770","LEXINGTON AVE","10025","63550","MANHATTAN","40.763097","-73.967562","108","4","11402","1041920","Upper East Side-Carnegie Hill"
"1018900036","1","1890","36","155","RIVERSIDE DR","10025","126785","MANHATTAN","40.791033","-73.97918","107","6","175","1033994","Upper West Side"
"1018900040","1","1890","40","1740","BROADWAY","10025","204463","MANHATTAN","40.765098","-73.982095","105","4","137","1024877","Midtown-Midtown South"
"1018900053","1","1890","53","260","MADISON AVE","10025","97857","MANHATTAN","40.750707","-73.980828","105","4","82","1017230","Murray Hill-Kips Bay"
"1018900061","1","1890","61","895","W END AVE","10025","119228","MANHATTAN","40.800159","-73.969642","107","6","191","1057198","Upper West Side"
"1018900064","1","1890","64","306","WEST  104 STREET","10025","51414","MANHATTAN","40.800445","-73.969801","107","6","191","1057200","Upper West Side"
"1018900073","1","1890","73","314","RIVERSIDE DRIVE","10025","128461","MANHATTAN","40.800646","-73.971224","107","6","191","1057207","Upper West Side"
"1018910001","1","1891","1","300","W 55TH ST","10025","165372","MANHATTAN","40.765142","-73.984253","104","3","139","1025416","Clinton"
"1018910011","1","1891","11","42","RIVER ST","10025","62605",,,,,,,,
"1018910026","1","1891","26","850","W 176TH ST","10025","118591","MANHATTAN","40.847577","-73.941728","112","10","255","1063454","Washington Heights South"
"1018910035","1","1891","35","250","PARK AVE S","10025","74899","MANHATTAN","40.738231","-73.987818","105","2","52","1016176","Hudson Yards-Chelsea-Flatiron-Union Square"
"1018910062","1","1891","62","310","W 106TH ST","10025","93293","MANHATTAN","40.801883","-73.969183","107","6","191","1057245","Upper West Side"
"1018917502","1","1891","7502","9777","QUEENS BLVD","10025","132377",,,,,,,,
"1018920001","1","1892","1","340","RIVERSIDE DR","10025","124351","MANHATTAN","40.8023","-73.969728","107","6","195","1057257","Morningside Heights"
"1018920006","1","1892","6","1740","BROADWAY","10025","95175","MANHATTAN","40.765098","-73.982095","105","4","137","1024877","Midtown-Midtown South"
"1018920013","1","1892","13","941","WEST END AVENUE","10025","75524","MANHATTAN","40.801779","-73.9685","107","6","195","1057263","Morningside Heights"
"1018920016","1","1892","16","949","W END AVE","10025","83805","MANHATTAN","40.801842","-73.968457","107","6","195","1057264","Morningside Heights"
"1018920032","1","1892","32","148","W 37TH ST","10025","75600","MANHATTAN","40.752465","-73.988237","105","3","109","1015249","Midtown-Midtown South"
"1018920049","1","1892","49","50","W 17TH ST","10025","109845","MANHATTAN","40.738585","-73.99384","105","3","54","1015405","Hudson Yards-Chelsea-Flatiron-Union Square"
"1018920064","1","1892","64","50","W 17TH ST","10025","61344","MANHATTAN","40.738585","-73.99384","105","3","54","1015405","Hudson Yards-Chelsea-Flatiron-Union Square"
"1018930001","1","1893","1","360","RIVERSIDE DRIVE","10025","53297","MANHATTAN","40.80356","-73.968832","107","6","195","1057298","Morningside Heights"
"1018930003","1","1893","3","400","W 119TH ST","10025","124458","MANHATTAN","40.808088","-73.958054","109","7","20701","1059506","Morningside Heights"
"1018930025","1","1893","25","312","WEST  109 STREET","10025","51885","MANHATTAN","40.803889","-73.967921","107","6","195","1057311","Morningside Heights"
"1018930032","1","1893","32","1740","BROADWAY","10025","132981","MANHATTAN","40.765098","-73.982095","105","4","137","1024877","Midtown-Midtown South"
"1018930035","1","1893","35",,"PO BOX 560","10025","145480",,,,,,,,
"1018937501","1","1893","7501","745","5TH AVE","10025","179106","MANHATTAN","40.763326","-73.973695","105","4","11202","1036079","Midtown-Midtown South"
"1018937502","1","1893","7502","590","56TH ST","10025","103749",,,,,,,,
"1018940001","1","1894","1","42","RIVER ST","10025","187588",,,,,,,,
"1018940011","1","1894","11","601","W 110TH ST","10025","164315","MANHATTAN","40.804287","-73.966985","109","7","199","1057320","Morningside Heights"
"1018940031","1","1894","31","51","E 42ND ST","10025","157300","MANHATTAN","40.752568","-73.978702","105","4","94","1090825","Midtown-Midtown South"
"1018940036","1","1894","36","505","8 ST","10025","50658",,,,,,,,
"1018940056","1","1894","56","610","W 112TH ST","10025","212000","MANHATTAN","40.805626","-73.966197","109","7","199","1057331","Morningside Heights"
"1018940067","1","1894","67","51","E 42ND ST","10025","151912","MANHATTAN","40.752568","-73.978702","105","4","94","1090825","Midtown-Midtown South"
"1018947501","1","1894","7501","1740","BROADWAY","10025","206780","MANHATTAN","40.765098","-73.982095","105","4","137","1024877","Midtown-Midtown South"
"1018950001","1","1895","1","400","RIVERSIDE DR","10025","78701","MANHATTAN","40.806334","-73.967295","109","7","199","1057333","Morningside Heights"
"1018950016","1","1895","16","400","W 119TH ST","10025","59131","MANHATTAN","40.808088","-73.958054","109","7","20701","1059506","Morningside Heights"
"1018950023","1","1895","23","400","W 119TH ST","10025","88332","MANHATTAN","40.808088","-73.958054","109","7","20701","1059506","Morningside Heights"
"1018950038","1","1895","38","404","RIVERSIDE DR","10025","102951","MANHATTAN","40.806535","-73.96723","109","7","199","1057344","Morningside Heights"
"1018950039","1","1895","39","400","W 119TH ST","10025","108401","MANHATTAN","40.808088","-73.958054","109","7","20701","1059506","Morningside Heights"
"1018950055","1","1895","55","2901","BROADWAY","10025","178897","MANHATTAN","40.80618","-73.965251","109","7","199","1057350","Morningside Heights"
"1018950076","1","1895","76","417","RIVERSIDE DRIVE","10025","69485","MANHATTAN","40.807446","-73.966926","109","7","199","1057358","Morningside Heights"
"1018960001","1","1896","1","300","W 55TH ST","10025","138633","MANHATTAN","40.765142","-73.984253","104","3","139","1025416","Clinton"
"1018960009","1","1896","9","611","WEST  114 STREET","10025","116103","MANHATTAN","40.807152","-73.965886","109","7","205","1081598","Morningside Heights"
"1018960014","1","1896","14","74","LAFAYETTE AVE","10025","76500",,,,,,,,
"1018960043","1","1896","43","155","RIVERSIDE DR","10025","263040","MANHATTAN","40.791033","-73.97918","107","6","175","1033994","Upper West Side"
"1018960047","1","1896","47","431","RIVERSIDE DRIVE","10025","60158","MANHATTAN","40.808423","-73.96629","109","7","205","1057373","Morningside Heights"
"1018960057","1","1896","57","609","WEST  115 STREET","10025","115000","MANHATTAN","40.807739","-73.965329","109","7","205","1075443","Morningside Heights"
"1018960065","1","1896","65","400","W 119TH ST","10025","126478","MANHATTAN","40.808088","-73.958054","109","7","20701","1059506","Morningside Heights"
"1018960072","1","1896","72","3009","BROADWAY","10025","92348","MANHATTAN","40.809086","-73.963121","109","7","205","1082351","Morningside Heights"
"1018960074","1","1896","74","400","W 119TH ST","10027","73800","MANHATTAN","40.808088","-73.958054","109","7","20701","1059506","Morningside Heights"
"1018960080","1","1896","80","606","W 120TH ST","10027","63500","MANHATTAN","40.810708","-73.962503","109","7","205","1059816","Morningside Heights"
"1018960083","1","1896","83","3009","BROADWAY","10027","62250","MANHATTAN","40.809086","-73.963121","109","7","205","1082351","Morningside Heights"
"1018960087","1","1896","87","400","W 119TH ST","10025","61819","MANHATTAN","40.808088","-73.958054","109","7","20701","1059506","Morningside Heights"
"1018967501","1","1896","7501","360","MERRICK RD","10025","69280",,,,,,,,
"1019010001","1","1901","1","1651","CONEY ISLAND AVE","10026","205030",,,,,,,,
"1019017501","1","1901","7501","106","WEST  117 STREET","10026","51671","MANHATTAN","40.802845","-73.949554","110","9","218","1086531","Central Harlem South"
"1019027501","1","1902","7501","101","WEST  117 STREET","10026","51671","MANHATTAN","40.802768","-73.949331","110","9","218","1057433","Central Harlem South"
"1019090001","1","1909","1","2081","ADAM C POWELL BLVD","10027","60000","MANHATTAN","40.808394","-73.948737","110","9","222","1057817","Central Harlem South"
"1019107501","1","1910","7501","105","WEST  125 STREET","10027","292132","MANHATTAN","40.807946","-73.945866","110","9","222","1085673","Central Harlem South"
"1019120001","1","1912","1","2143","ADAM C POWELL BLVD","10027","50326","MANHATTAN","40.810351","-73.947305","110","9","224","1079496","Central Harlem North-Polo Grounds"
"1019120043","1","1912","43","128","WEST  128 STREET","10027","77891","MANHATTAN","40.810108","-73.945088","110","9","224","1089103","Central Harlem North-Polo Grounds"
"1019147503","1","1914","7503","902","BROADWAY","10027","64066","MANHATTAN","40.739279","-73.989726","105","2","52","1016201","Hudson Yards-Chelsea-Flatiron-Union Square"
"1019150001","1","1915","1","2201","ADAM C POWELL BLVD","10027","57266","MANHATTAN","40.812233","-73.945935","110","9","226","1087837","Central Harlem North-Polo Grounds"
"1000047501","1","4","7501","1","WATER STREET","10004","2621563","MANHATTAN","40.702444","-74.012742","101","1","9","1000005","Battery Park City-Lower Manhattan"
"1000050010","1","5","10",,"P O B0X 2680","10004","1016406",,,,,,,,
"1000157502","1","15","7502","20","WEST STREET","10004","259076","MANHATTAN","40.706358","-74.016151","101","1","13","1087243","Battery Park City-Lower Manhattan"
"1000160015","1","16","15","50","BATTERY PL","10280","239165","MANHATTAN","40.706284","-74.017904","101","1","31704","1085938","Battery Park City-Lower Manhattan"
"1000160020","1","16","20","400","W 59TH ST","10280","230766","MANHATTAN","40.769397","-73.985198","104","3","145","1085140","Lincoln Square"
"1000160100","1","16","100","345","S END AVE","10280","1881621","MANHATTAN","40.710733","-74.016131","101","1","31704","1083378","Battery Park City-Lower Manhattan"
"1000160120","1","16","120","200","LIBERTY STREET","10281","1501878","MANHATTAN","40.711425","-74.015442","101","1","31704","1000057","Battery Park City-Lower Manhattan"
"1000160125","1","16","125","200","VESEY ST","10280","2267925","MANHATTAN","40.714447","-74.015493","101","1","31703","1000059","Battery Park City-Lower Manhattan"
"1000160140","1","16","140","200","VESEY ST","10281","2249866","MANHATTAN","40.714447","-74.015493","101","1","31703","1000059","Battery Park City-Lower Manhattan"
"1000160150","1","16","150","250","VESEY PLACE","10282","2084079",,,,,,,,
"1000160180","1","16","180","20","RIVER TERRACE","10007","356786","MANHATTAN","40.716942","-74.016298","101","1","31703","1086174","Battery Park City-Lower Manhattan"
"1000160185","1","16","185","211","NORTH END AVENUE","10282","278142","MANHATTAN","40.71622","-74.015075","101","1","31703","1086547","Battery Park City-Lower Manhattan"
"1000160190","1","16","190","666","5TH AVE","10282","331500","MANHATTAN","40.760549","-73.976421","105","4","104","1034520","Midtown-Midtown South"
"1000160195","1","16","195","325","NORTH END AVENUE","10282","356483","MANHATTAN","40.716637","-74.014754","101","1","31703","1086507","Battery Park City-Lower Manhattan"
"1000160200","1","16","200","200","LIBERTY STREET","10282","484000","MANHATTAN","40.711425","-74.015442","101","1","31704","1000057","Battery Park City-Lower Manhattan"
"1000160205","1","16","205","455","NORTH END AVENUE","10282","239185","MANHATTAN","40.717384","-74.014166","101","1","31703","1085815","Battery Park City-Lower Manhattan"
"1000160210","1","16","210","666","5TH AVE","10282","357000","MANHATTAN","40.760549","-73.976421","105","4","104","1034520","Midtown-Midtown South"
"1000160220","1","16","220","110","WILLIAM ST","10282","105177","MANHATTAN","40.708782","-74.007196","101","1","1502","1001186","Battery Park City-Lower Manhattan"
"1000160225","1","16","225","1","NORTH END AVENUE","10281","502000","MANHATTAN","40.714082","-74.01673","101","1","31703","1085502","Battery Park City-Lower Manhattan"
"1000160260","1","16","260","200","WEST STREET","10282","2152863","MANHATTAN","40.713846","-74.013812","101","1","31703","1087239","Battery Park City-Lower Manhattan"
"1019190026","1","1919","26","485","LENOX AVE","10037","157728","MANHATTAN","40.813661","-73.941194","110","9","228","1058249","Central Harlem North-Polo Grounds"
"1019210001","1","1921","1","2321","ADAM C POWELL BLVD","10030","94680","MANHATTAN","40.816066","-73.943135","110","9","228","1058309","Central Harlem North-Polo Grounds"
"1019220024","1","1922","24","1328","NEW YORK AVE","10026","55230",,,,,,,,
"1019230001","1","1923","1","55","BROAD ST","10026","224000","MANHATTAN","40.705189","-74.011505","101","1","9","1000821","Battery Park City-Lower Manhattan"
"1019230029","1","1923","29","250","BROADWAY","10026","76307","MANHATTAN","40.712982","-74.007301","101","1","21","1001408","SoHo-TriBeCa-Civic Center-Little Italy"
"1019240021","1","1924","21",,"PO BOX 1565","10026","156986",,,,,,,,
"1019247501","1","1924","7501","263","W 38TH ST","10026","74087","MANHATTAN","40.75423","-73.990468","105","3","113","1014474","Midtown-Midtown South"
"1019247502","1","1924","7502","37","W 65TH ST","10026","60888","MANHATTAN","40.772281","-73.980363","107","6","149","1028160","Lincoln Square"
"1019250036","1","1925","36","1990","ADAM C POWELL BLVD","10026","52680","MANHATTAN","40.805491","-73.95088200000001","110","9","220","1058449","Central Harlem South"
"1019250050","1","1925","50","188","ST NICHOLAS AVENUE","10026","64058","MANHATTAN","40.806242","-73.952817","110","9","220","1058455","Central Harlem South"
"1000167501","1","16","7501","335","MADISON AVE","10280","220821","MANHATTAN","40.753715","-73.9786","105","4","94","1035360","Midtown-Midtown South"
"1000167502","1","16","7502","1619","3RD AVE","10280","150855","MANHATTAN","40.781868","-73.951751","108","5","154","1086171","Yorkville"
"1000167503","1","16","7503","1619","3RD AVE","10280","106052","MANHATTAN","40.781868","-73.951751","108","5","154","1086171","Yorkville"
"1000167504","1","16","7504","1619","3RD AVE","10280","91774","MANHATTAN","40.781868","-73.951751","108","5","154","1086171","Yorkville"
"1000167505","1","16","7505","335","MADISON AVE","10280","257092","MANHATTAN","40.753715","-73.9786","105","4","94","1035360","Midtown-Midtown South"
"1000167506","1","16","7506","335","MADISON AVE","10280","106631","MANHATTAN","40.753715","-73.9786","105","4","94","1035360","Midtown-Midtown South"
"1000167507","1","16","7507","300","RECTOR PLACE","10280","129176","MANHATTAN","40.709097","-74.017104","101","1","31704","1065321","Battery Park City-Lower Manhattan"
"1000167508","1","16","7508","335","MADISON AVE","10280","590974","MANHATTAN","40.753715","-73.9786","105","4","94","1035360","Midtown-Midtown South"
"1000167509","1","16","7509","335","MADISON AVE","10280","237270","MANHATTAN","40.753715","-73.9786","105","4","94","1035360","Midtown-Midtown South"
"1000167510","1","16","7510","335","MADISON AVE","10280","348953","MANHATTAN","40.753715","-73.9786","105","4","94","1035360","Midtown-Midtown South"
"1000167511","1","16","7511","335","MADISON AVE","10280","189273","MANHATTAN","40.753715","-73.9786","105","4","94","1035360","Midtown-Midtown South"
"1000167512","1","16","7512","102","NORTH END AVENUE","10282","641681","MANHATTAN","40.714812","-74.016153","101","1","31703","1085867","Battery Park City-Lower Manhattan"
"1000167513","1","16","7513","10","LITTLE WEST STREET","10280","562340","MANHATTAN","40.705551","-74.0171","101","1","31704","1085789","Battery Park City-Lower Manhattan"
"1000167514","1","16","7514","30","LITTLE WEST STREET","10280","434680","MANHATTAN","40.706171","-74.016862","101","1","31704","1087238","Battery Park City-Lower Manhattan"
"1000167515","1","16","7515","225","RECTOR PLACE","10280","287819","MANHATTAN","40.70927","-74.016487","101","1","31704","1000053","Battery Park City-Lower Manhattan"
"1000167517","1","16","7517","70","BATTERY PLACE","10280","508458","MANHATTAN","40.707047","-74.017439","101","1","31704","1085778","Battery Park City-Lower Manhattan"
"1000167518","1","16","7518","333","RECTOR PLACE","10280","262021","MANHATTAN","40.709448","-74.017252","101","1","31704","1000055","Battery Park City-Lower Manhattan"
"1000167519","1","16","7519","300","NORTH END AVENUE","10282","273018","MANHATTAN","40.716525","-74.014815","101","1","31703","1087848","Battery Park City-Lower Manhattan"
"1000167520","1","16","7520","200","NORTH END AVENUE","10282","425407","MANHATTAN","40.71619","-74.015071","101","1","31703","1087847","Battery Park City-Lower Manhattan"
"1000170045","1","17","45","1","CENTRE ST","10006","112000","MANHATTAN","40.713001","-74.004181","101","1","29","1001394","Chinatown"
"1019257501","1","1925","7501","37","W 65TH ST","10026","60888","MANHATTAN","40.772281","-73.980363","107","6","149","1028160","Lincoln Square"
"1019260029","1","1926","29","2006","ADAM C POWELL BLVD","10027","58037","MANHATTAN","40.805939","-73.950553","110","9","220","1079501","Central Harlem South"
"1019270033","1","1927","33","2030","ADAM C POWELL BLVD","10027","68456","MANHATTAN","40.806707","-73.949992","110","9","220","1058515","Central Harlem South"
"1000187501","1","18","7501","712","5TH AVE","10006","366993","MANHATTAN","40.762495","-73.975193","105","4","104","1077363","Midtown-Midtown South"
"1000190013","1","19","13","1","SYMS WAY","10006","62089",,,,,,,,
"1000200001","1","20","1",,"P O BOX 185","10006","316150",,,,,,,,
"1000200004","1","20","4","39","BROADWAY","10006","447452","MANHATTAN","40.706251","-74.012952","101","1","13","1000803","Battery Park City-Lower Manhattan"
"1000200009","1","20","9","45","BROADWAY","10006","368315","MANHATTAN","40.706397","-74.012829","101","1","13","1000804","Battery Park City-Lower Manhattan"
"1000200016","1","20","16","55","BROADWAY","10006","309381","MANHATTAN","40.706638","-74.012631","101","1","13","1000807","Battery Park City-Lower Manhattan"
"1000210001","1","21","1","61","BROADWAY","10006","650740","MANHATTAN","40.706995","-74.012335","101","1","13","1000808","Battery Park City-Lower Manhattan"
"1000210004","1","21","4","352","7TH AVE","10006","335184","MANHATTAN","40.748208","-73.992663","105","3","95","1014291","Midtown-Midtown South"
"1000220017","1","22","17","45","BROADWAY","10004","143000","MANHATTAN","40.706397","-74.012829","101","1","13","1000804","Battery Park City-Lower Manhattan"
"1000220020","1","22","20","605","3RD AVE","10004","389927","MANHATTAN","40.749076","-73.975682","106","4","88","1082153","Turtle Bay-East Midtown"
"1000220024","1","22","24","50","BROADWAY","10004","300676","MANHATTAN","40.706449","-74.012761","101","1","9","1000813","Battery Park City-Lower Manhattan"
"1000220028","1","22","28","52","BROADWAY","10004","720400","MANHATTAN","40.706493","-74.012725","101","1","9","1000814","Battery Park City-Lower Manhattan"
"1000230019","1","23","19","11","WALL ST","10004","240279","MANHATTAN","40.707399","-74.011105","101","1","7","1078982","Battery Park City-Lower Manhattan"
"1000230050","1","23","50","210","ROUTE 4 EAST","10004","466820",,,,,,,,
"1000240001","1","24","1",,"PO BOX 56607","10004","974958",,,,,,,,
"1000240029","1","24","29","30","BROAD ST","10004","370000","MANHATTAN","40.70618","-74.01125","101","1","9","1000819","Battery Park City-Lower Manhattan"
"1000240036","1","24","36","50","BROAD STREET","10004","205940","MANHATTAN","40.705689","-74.011455","101","1","9","1000820","Battery Park City-Lower Manhattan"
"1000247501","1","24","7501","40","BROAD STREET","10004","319910","MANHATTAN","40.706021","-74.011332","101","1","9","1078985","Battery Park City-Lower Manhattan"
"1000250001","1","25","1","345","PARK AVE","10004","406025","MANHATTAN","40.758171","-73.973246","105","4","100","1036460","Turtle Bay-East Midtown"
"1000270009","1","27","9","20","EXCHANGE PL","10005","400531","MANHATTAN","40.705634","-74.009378","101","1","7","1000830","Battery Park City-Lower Manhattan"
"1000270017","1","27","17","67","WALL STREET","10005","303175","MANHATTAN","40.705749","-74.008342","101","1","7","1000829","Battery Park City-Lower Manhattan"
"1000277501","1","27","7501","55","WALL STREET","10005","274516","MANHATTAN","40.706191","-74.009165","101","1","7","1000827","Battery Park City-Lower Manhattan"
"1000277502","1","27","7502","20","EXCHANGE PL","10004","786942","MANHATTAN","40.705634","-74.009378","101","1","7","1000830","Battery Park City-Lower Manhattan"
"1000280001","1","28","1","3","HANOVER SQUARE","10004","239121","MANHATTAN","40.704808","-74.009623","101","1","7","1000831","Battery Park City-Lower Manhattan"
"1000280005","1","28","5","110","WILLIAM STREET-1ST F","10004","292466",,,,,,,,
"1000280012","1","28","12","855","LEXINGTON AVE","10005","94850","MANHATTAN","40.765704","-73.965636","108","4","120","1042407","Upper East Side-Carnegie Hill"
"1000287501","1","28","7501","622","3RD AVE","10005","108373","MANHATTAN","40.749581","-73.975324","106","4","80","1089024","Murray Hill-Kips Bay"
"1000290001","1","29","1","91","BROAD STREET","10004","993569","MANHATTAN","40.703954","-74.01157","101","1","9","1066031","Battery Park City-Lower Manhattan"
"1000290036","1","29","36","1","WILLIAM ST","10004","105000","MANHATTAN","40.704827","-74.009792","101","1","9","1078995","Battery Park City-Lower Manhattan"
"1000290086","1","29","86","160","BROADWAY","10004","87775","MANHATTAN","40.709493","-74.01024","101","1","1502","1079040","Battery Park City-Lower Manhattan"
"1000297501","1","29","7501","48","BEAVER STREET","10004","65396","MANHATTAN","40.70509","-74.010607","101","1","9","1078997","Battery Park City-Lower Manhattan"
"1000300005","1","30","5","80","PEARL ST","10004","85472","MANHATTAN","40.703971","-74.010239","101","1","9","1000854","Battery Park City-Lower Manhattan"
"1000300019","1","30","19","7","HANOVER SQ","10004","782883","MANHATTAN","40.70447","-74.009406","101","1","9","1000855","Battery Park City-Lower Manhattan"
"1000317501","1","31","7501","75","WALL STREET","10005","679316","MANHATTAN","40.705486","-74.007874","101","1","7","1085950","Battery Park City-Lower Manhattan"
"1000327501","1","32","7501","55","WATER ST","10004","3678000","MANHATTAN","40.703597","-74.009781","101","1","9","1083346","Battery Park City-Lower Manhattan"
"1000330001","1","33","1","77","WATER STREET","10005","541569","MANHATTAN","40.704275","-74.008681","101","1","7","1000863","Battery Park City-Lower Manhattan"
"1000330022","1","33","22","1316","MADISON AVE","10005","91358","MANHATTAN","40.785446","-73.955475","108","4","16001","1047115","Upper East Side-Carnegie Hill"
"1000350010","1","35","10","111","WALL STREET","10005","990205","MANHATTAN","40.704553","-74.006636","101","1","7","1000868","Battery Park City-Lower Manhattan"
"1000360012","1","36","12","110","WILLIAM ST","0","320800","MANHATTAN","40.708782","-74.007196","101","1","1502","1001186","Battery Park City-Lower Manhattan"
"1000360018","1","36","18","40","WORTH ST","0","199625","MANHATTAN","40.717363","-74.006897","101","1","33","1001622","SoHo-TriBeCa-Civic Center-Little Italy"
"1000360025","1","36","25","110","WILLIAM ST","0","202275","MANHATTAN","40.708782","-74.007196","101","1","1502","1001186","Battery Park City-Lower Manhattan"
"1000360030","1","36","30","110","WILLIAM ST","0","169425","MANHATTAN","40.708782","-74.007196","101","1","1502","1001186","Battery Park City-Lower Manhattan"
"1000370008","1","37","8","345","PARK AVE","10005","295376","MANHATTAN","40.758171","-73.973246","105","4","100","1036460","Turtle Bay-East Midtown"
"1000370023","1","37","23","530","5TH AVE","10005","1079361","MANHATTAN","40.754879","-73.979877","105","4","96","1034227","Midtown-Midtown South"
"1000377501","1","37","7501","120","WALL STREET","10005","582412","MANHATTAN","40.70438","-74.006427","101","1","7","1000871","Battery Park City-Lower Manhattan"
"1000380001","1","38","1","100","WALL STREET","10005","463664","MANHATTAN","40.70497","-74.007084","101","1","7","1000875","Battery Park City-Lower Manhattan"
"1000380017","1","38","17","88","PINE ST","10005","566858","MANHATTAN","40.70536","-74.00629","101","1","7","1000876","Battery Park City-Lower Manhattan"
"1000390001","1","39","1","80","WALL ST","10005","53253","MANHATTAN","40.705456","-74.007794","101","1","7","1000878","Battery Park City-Lower Manhattan"
"1000390004","1","39","4","80","WALL ST","10005","50044","MANHATTAN","40.705456","-74.007794","101","1","7","1000878","Battery Park City-Lower Manhattan"
"1000390012","1","39","12","345","PARK AVE","10005","1075808","MANHATTAN","40.758171","-73.973246","105","4","100","1036460","Turtle Bay-East Midtown"
"1000430005","1","43","5","30","WALL STREET","10005","108663","MANHATTAN","40.706839","-74.010218","101","1","7","1001019","Battery Park City-Lower Manhattan"
"1000440001","1","44","1","1","CHASE MANHATTAN PLZ","10005","2239000","MANHATTAN","40.708362","-74.009591","101","1","7","1001021","Battery Park City-Lower Manhattan"
"1000460001","1","46","1","200","MADISON AVE","10005","173159","MANHATTAN","40.748528","-73.982413","105","4","82","1017122","Murray Hill-Kips Bay"
"1000460003","1","46","3","100","BROADWAY","10005","364390","MANHATTAN","40.70814","-74.011373","101","1","7","1001024","Battery Park City-Lower Manhattan"
"1000477501","1","47","7501","120","BROADWAY","10005","1736513","MANHATTAN","40.708546","-74.011041","101","1","7","1001026","Battery Park City-Lower Manhattan"
"1000480001","1","48","1","140","BROADWAY","10005","1141266","MANHATTAN","40.709043","-74.010626","101","1","7","1001027","Battery Park City-Lower Manhattan"
"1000490002","1","49","2","111","BROADWAY","10006","432093","MANHATTAN","40.708486","-74.011113","101","1","13","1001029","Battery Park City-Lower Manhattan"
"1000500001","1","50","1","115","BROADWAY","10006","396607","MANHATTAN","40.708631","-74.010997","101","1","13","1001030","Battery Park City-Lower Manhattan"
"1000510001","1","51","1","156","WILLIAM ST","10006","400294","MANHATTAN","40.709944","-74.006045","101","1","1501","1001281","Battery Park City-Lower Manhattan"
"1000510007","1","51","7","74","TRINITY PL","10006","63271","MANHATTAN","40.708387","-74.012563","101","1","13","1000000","Battery Park City-Lower Manhattan"
"1000510017","1","51","17","74","TRINITY PL","10006","182836","MANHATTAN","40.708387","-74.012563","101","1","13","1000000","Battery Park City-Lower Manhattan"
"1000520021","1","52","21","120","LIBERTY STREET","10006","57945","MANHATTAN","40.71002","-74.012408","101","1","13","1001040","Battery Park City-Lower Manhattan"
"1000527502","1","52","7502","114","LIBERTY STREET","10006","74409","MANHATTAN","40.709938","-74.012235","101","1","13","1001041","Battery Park City-Lower Manhattan"
"1000530033","1","53","33","110","GREENWICH STREET","10006","57941","MANHATTAN","40.70856","-74.013349","101","1","13","1001051","Battery Park City-Lower Manhattan"
"1000537501","1","53","7501","120","GREENWICH STREET","10006","66872","MANHATTAN","40.709089","-74.013118","101","1","13","1001050","Battery Park City-Lower Manhattan"
"1000537502","1","53","7502","123","WASHINGTON STREET","10006","396477","MANHATTAN","40.709139","-74.01402","101","1","13","1088442","Battery Park City-Lower Manhattan"
"1000550014","1","55","14","820","MORRIS TPKE","10006","250472",,,,,,,,
"1000550016","1","55","16","85","WEST ST","10006","420322","MANHATTAN","40.709676","-74.014929","101","1","13",,"Battery Park City-Lower Manhattan"
"1000557501","1","55","7501","40","RECTOR STREET","10006","449355","MANHATTAN","40.708356","-74.014814","101","1","13","1088750","Battery Park City-Lower Manhattan"
"1000560001","1","56","1","49","W 45TH ST","10006","181297","MANHATTAN","40.756087","-73.981072","105","4","96","1034242","Midtown-Midtown South"
"1000560004","1","56","4","885","3RD AVE","10006","357001","MANHATTAN","40.757989","-73.969174","106","4","98","1038549","Turtle Bay-East Midtown"
"1000627501","1","62","7501","1","LIBERTY PLAZA","10006","2139035","MANHATTAN","40.70943","-74.011102","101","1","13","1001068","Battery Park City-Lower Manhattan"
"1000630003","1","63","3","100","HENRY ST","10007","647875","MANHATTAN","40.713141","-73.992858","103","1","8","1003286","Chinatown"
"1000630012","1","63","12","5","DEY ST","10007","66686","MANHATTAN","40.71058","-74.009862","101","1","13","1000000","Battery Park City-Lower Manhattan"
"1000640008","1","64","8","6","E 43RD ST","10005","167448","MANHATTAN","40.753979","-73.979997","105","4","94","1035347","Midtown-Midtown South"
"1000640012","1","64","12","150","BROADWAY","10038","279669","MANHATTAN","40.70932","-74.010392","101","1","1502","1001087","Battery Park City-Lower Manhattan"
"1000640015","1","64","15","160","BROADWAY","10038","150000","MANHATTAN","40.709493","-74.01024","101","1","1502","1079040","Battery Park City-Lower Manhattan"
"1000650007","1","65","7","15","MAIDEN LN","10038","124910","MANHATTAN","40.709482","-74.009356","101","1","1502","1001097","Battery Park City-Lower Manhattan"
"1000650010","1","65","10","9","MAIDEN LANE","10038","58354","MANHATTAN","40.709606","-74.009555","101","1","1502","1001098","Battery Park City-Lower Manhattan"
"1000650017","1","65","17","217","BROADWAY","10038","168176","MANHATTAN","40.71156","-74.008469","101","1","21","1001232","SoHo-TriBeCa-Civic Center-Little Italy"
"1000660001","1","66","1","33","LIBERTY ST","10005","640000","MANHATTAN","40.708157","-74.00879","101","1","1502","1001108","Battery Park City-Lower Manhattan"
"1000680007","1","68","7","83","MAIDEN LN","10038","155450","MANHATTAN","40.707443","-74.007607","101","1","1502","1001111","Battery Park City-Lower Manhattan"
"1000680011","1","68","11","352","7TH AVE","10038","155026","MANHATTAN","40.748208","-73.992663","105","3","95","1014291","Midtown-Midtown South"
"1001490030","1","149","30","1","N WACKER DR","10007","141345",,,,,,,,
"1000680016","1","68","16","84","WILLIAM STREET","10038","111184","MANHATTAN","40.708028","-74.007939","101","1","1502","1001113","Battery Park City-Lower Manhattan"
"1000680028","1","68","28","3","BETHESDA METRO CENTE","10038","71539",,,,,,,,
"1000680036","1","68","36","1251","AVENUE OF THE AMERIC","10038","377120",,,,,,,,
"1000687501","1","68","7501","100","RING RD W","10038","149564",,,,,,,,
"1000687502","1","68","7502","90","WILLIAM STREET","10038","126430","MANHATTAN","40.708184","-74.007787","101","1","1502","1087755","Battery Park City-Lower Manhattan"
"1000690006","1","69","6","387","PARK AVE S","10038","222000","MANHATTAN","40.742795","-73.98445","105","2","68","1018162","Gramercy"
"1000690018","1","69","18","387","PARK AVE S","10038","627330","MANHATTAN","40.742795","-73.98445","105","2","68","1018162","Gramercy"
"1000697502","1","69","7502","90","JOHN STREET","10038","372364","MANHATTAN","40.708173","-74.006464","101","1","1502","1001127","Battery Park City-Lower Manhattan"
"1000707501","1","70","7501","125","MAIDEN LANE","10038","343424","MANHATTAN","40.706397","-74.006341","101","1","1502","1087484","Battery Park City-Lower Manhattan"
"1000710001","1","71","1","156","FRONT STREET","10038","52969","MANHATTAN","40.705829","-74.005482","101","1","1502","1001136","Battery Park City-Lower Manhattan"
"1000717501","1","71","7501","175","WATER ST","10038","580000","MANHATTAN","40.706699","-74.005208","101","1","1502","1001137","Battery Park City-Lower Manhattan"
"1000720013","1","72","13","163","WATER ST","10038","58500","MANHATTAN","40.706477","-74.005529","101","1","1502","1001137","Battery Park City-Lower Manhattan"
"1000720027","1","72","27","512","7TH AVE","10038","52005","MANHATTAN","40.753283","-73.98897","105","3","109","1014460","Midtown-Midtown South"
"1000730002","1","73","2","110","WILLIAM ST","10038","164325","MANHATTAN","40.708782","-74.007196","101","1","1502","1001186","Battery Park City-Lower Manhattan"
"1000747501","1","74","7501","199","WATER STREET","10038","985010","MANHATTAN","40.70727","-74.004314","101","1","1502","1001162","Battery Park City-Lower Manhattan"
"1000750001","1","75","1","127","JOHN STREET","10038","541000","MANHATTAN","40.707218","-74.005316","101","1","1502","1001163","Battery Park City-Lower Manhattan"
"1000750021","1","75","21","40","FULTON STREET","10038","234553","MANHATTAN","40.707904","-74.004411","101","1","1502","1075618","Battery Park City-Lower Manhattan"
"1000750030","1","75","30","160","BROADWAY","10038","296076","MANHATTAN","40.709493","-74.01024","101","1","1502","1079040","Battery Park City-Lower Manhattan"
"1000760024","1","76","24","4052","75TH ST","10038","62028",,,,,,,,
"1000767501","1","76","7501","387","PARK AVE S","10038","158477","MANHATTAN","40.742795","-73.98445","105","2","68","1018162","Gramercy"
"1000767502","1","76","7502","99","JOHN STREET","10038","472059","MANHATTAN","40.708006","-74.006164","101","1","1502","1087867","Battery Park City-Lower Manhattan"
"1000770001","1","77","1","300","E 34TH ST","10038","160000","MANHATTAN","40.744731","-73.975788","106","2","70","1078843","Murray Hill-Kips Bay"
"1000770015","1","77","15","29","VAN BUREN DR","10038","107124",,,,,,,,
"1000770024","1","77","24","82","FULTON STREET","10038","159000","MANHATTAN","40.709191","-74.005728","101","1","1502","1077403","Battery Park City-Lower Manhattan"
"1000780004","1","78","4","352","7TH AVE","10038","493039","MANHATTAN","40.748208","-73.992663","105","3","95","1014291","Midtown-Midtown South"
"1000780020","1","78","20","235","ELM RD TIAD HOUSE","10038","74863",,,,,,,,
"1000787507","1","78","7507","45","BROADWAY","10038","97798","MANHATTAN","40.706397","-74.012829","101","1","13","1000804","Battery Park City-Lower Manhattan"
"1000787508","1","78","7508","45","JOHN STREET","10038","81199","MANHATTAN","40.709241","-74.008","101","1","1502","1001199","Battery Park City-Lower Manhattan"
"1000790010","1","79","10","20","EXCHANGE PL","10038","107243","MANHATTAN","40.705634","-74.009378","101","1","7","1000830","Battery Park City-Lower Manhattan"
"1019287506","1","1928","7506",,"BAD LOCATION ADDRESS","10027","128517",,,,,,,,
"1019290057","1","1929","57","4","W 125TH ST","10027","76191","MANHATTAN","40.806531","-73.942555","110","9","200","1053467","Central Harlem South"
"1019297504","1","1929","7504","2300","FREDRICK DOUGLASS BL","10027","139130","MANHATTAN","40.809197","-73.951865","110","9","222","1090411","Central Harlem South"
