"bbl_10","street_no_property","street_1_property","street_2_property","city_property","postcode","addr_state_property","borough","latitude","longitude","community_board","council_district","census_tract","bin","nta"
"5035857501","100","COLFAX AVENUE",,"STATEN ISLAND","10306","NY","STATEN IS","40.579906","-74.107779","502","50","11402","5095450","New Dorp-Midland Beach"
"5038510001",,"FR CAPODANNO BLVD",,"STATEN ISLAND","0","NY",,,,,,,,
"5039010017","2424","HYLAN BOULEVARD",,"STATEN ISLAND","10306","NY","STATEN IS","40.571986","-74.10822","502","50","11202","5055347","New Dorp-Midland Beach"
"5039690001","2660","HYLAN BOULEVARD",,"STATEN ISLAND","10306","NY","STATEN IS","40.566994","-74.113237","502","50","12804",,"New Dorp-Midland Beach"
"5039690031","107","MILL ROAD",,"STATEN ISLAND","10306","NY","STATEN IS","40.566291","-74.108585","502","50","12804","5000000","New Dorp-Midland Beach"
"5039830001","655","TYSENS LANE",,"STATEN ISLAND","10306","NY","STATEN IS","40.5625","-74.113985","503","50","12806","5105551","Oakwood-Oakwood Beach"
"5039830013","2712","HYLAN BOULEVARD",,"STATEN ISLAND","10306","NY","STATEN IS","40.566288","-74.113955","502","50","12806","5107585","Oakwood-Oakwood Beach"
"5039830045","245","MILL ROAD",,"STATEN ISLAND","10306","NY","STATEN IS","40.563124","-74.11106","503","50","12806","5105549","Oakwood-Oakwood Beach"
"5039830065","26","EBBITTS STREET",,"STATEN ISLAND","10306","NY","STATEN IS","40.564817","-74.110994","503","50","12806","5105546","Oakwood-Oakwood Beach"
"5039830130","2754","HYLAN BOULEVARD",,"STATEN ISLAND","10306","NY","STATEN IS","40.56467","-74.11559","502","50","12806","5107591","Oakwood-Oakwood Beach"
"5040010001","2838","HYLAN BOULEVARD",,"STATEN ISLAND","10306","NY","STATEN IS","40.563618","-74.116344","503","50","12806","5109697","Oakwood-Oakwood Beach"
"5042570001",,"AMBOY ROAD",,"STATEN ISLAND","0","NY",,,,,,,,
"5042570001","2900","AMBOY ROAD",,"STATEN ISLAND","10306","NY","STATEN IS","40.5684","-74.125714","503","50","13201","5107624","Oakwood-Oakwood Beach"
"5045007501","3465","AMBOY ROAD",,"STATEN ISLAND","10306","NY","STATEN IS","40.557052","-74.138757","503","51","14606","5061307","Great Kills"
"5046450415","100","GREAVES LANE",,"STATEN ISLAND","10308","NY","STATEN IS","40.553993","-74.144198","503","51","14606","5151095","Great Kills"
"5051907501","1","MANSION AVENUE",,"STATEN ISLAND","10308","NY","STATEN IS","40.546455","-74.137824","503","51","15603",,"Great Kills"
"5052360031","3939","RICHMOND AVENUE",,"STATEN ISLAND","10312","NY","STATEN IS","40.542105","-74.163076","503","51","15601","5128445","Great Kills"
"5054917501","119","CORTELYOU AVENUE",,"STATEN ISLAND","10312","NY","STATEN IS","40.556747","-74.164152","503","51","14607","5112283","Great Kills"
"5054970007","4343","AMBOY ROAD",,"STATEN ISLAND","10312","NY","STATEN IS","40.545344","-74.160569","503","51","14604","5073190","Great Kills"
"5055330058",,"RICHMOND AVENUE",,"STATEN ISLAND","0","NY",,,,,,,,
"5055330058","3231","RICHMOND AVENUE",,"STATEN ISLAND","10312","NY","STATEN IS","40.5604","-74.169765","503","51","14607","5073738","Great Kills"
"5059000036","1527","ARTHUR KILL ROAD",,"STATEN ISLAND","10312","NY","STATEN IS","40.562764","-74.190595","503","51","228","5153773","New Springville-Bloomfield-Travis"
"5059650084",,"ARTHUR KILL ROAD",,"STATEN ISLAND","0","NY",,,,,,,,
"5059650084","7A","ARDEN AVENUE",,"STATEN ISLAND","10309","NY","STATEN IS","40.559391","-74.19824","503","51","228","5153792","New Springville-Bloomfield-Travis"
"5060177501",,"ROLLING HILL GREEN",,"STATEN ISLAND","10312","NY",,,,,,,,
"5060177505",,"RUSSEK DRIVE",,"STATEN ISLAND","10312","NY",,,,,,,,
"5060250035",,"ARTHUR KILL ROAD",,"STATEN ISLAND","0","NY",,,,,,,,
"5060250035","230","ARDEN AVENUE",,"STATEN ISLAND","10312","NY","STATEN IS","40.553519","-74.19218","503","51","17010","5107723","Arden Heights"
"5063320006","5371","AMBOY ROAD",,"STATEN ISLAND","10312","NY","STATEN IS","40.533329","-74.188734","503","51","17005","5114315","Annadale-Huguenot-Prince's Bay-Eltingville"
"5064750001","5150","HYLAN BOULEVARD",,"STATEN ISLAND","10312","NY","STATEN IS","40.526742","-74.178161","503","51","176","5107747","Annadale-Huguenot-Prince's Bay-Eltingville"
"5066700001","375","SEGUINE AVENUE",,"STATEN ISLAND","10309","NY","STATEN IS","40.516725","-74.19688","503","51","198","5082757","Annadale-Huguenot-Prince's Bay-Eltingville"
"5070407501",,"WIRT AVENUE",,"STATEN ISLAND","10309","NY",,,,,,,,
"5070487501",,"HAMPTON PLACE",,"STATEN ISLAND","10309","NY",,,,,,,,
"5070487502","5","WIRT AVENUE",,"STATEN ISLAND","10309","NY","STATEN IS","40.548408","-74.214367","503","51","20801","5086195","Rossville-Woodrow"
"5070547501","3","BOWER COURT",,"STATEN ISLAND","10309","NY","STATEN IS","40.550652","-74.214716","503","51","20801","5086258","Rossville-Woodrow"
"5070547501","3","BOWER COURT",,"STATEN ISLAND","10309","NY","STATEN IS","40.550652","-74.214716","503","51","20801","5086258","Rossville-Woodrow"
"5070547502","6","HAMPTON PLACE",,"STATEN ISLAND","10309","NY","STATEN IS","40.550548","-74.214734","503","51","20801","5086316","Rossville-Woodrow"
"5070547502","6","HAMPTON PLACE",,"STATEN ISLAND","10309","NY","STATEN IS","40.550548","-74.214734","503","51","20801","5086316","Rossville-Woodrow"
"5070557502",,"GRAFE STREET",,"STATEN ISLAND","0","NY",,,,,,,,
"5070557503","37","AZALEA COURT",,"STATEN ISLAND","10309","NY","STATEN IS","40.550622","-74.213201","503","51","20801","5117215","Rossville-Woodrow"
"5070557504","29","MEADOW COURT",,"STATEN ISLAND","10309","NY","STATEN IS","40.548695","-74.213451","503","51","20801","5117647","Rossville-Woodrow"
"5070670117",,"VETERANS ROAD WEST",,"STATEN ISLAND","0","NY",,,,,,,,
"5070670117","275","VETERANS ROAD WEST",,"STATEN ISLAND","10309","NY","STATEN IS","40.553672","-74.215985","503","51","20801","5145951","Rossville-Woodrow"
"5070920039","644","BLOOMINGDALE ROAD",,"STATEN ISLAND","10309","NY","STATEN IS","40.541555","-74.217932","503","51","226","5158758","Charleston-Richmond Valley-Tottenville"
"5071000028","2730","ARTHUR KILL ROAD",,"STATEN ISLAND","10309","NY","STATEN IS","40.549457","-74.222604","503","51","226","5133353","Charleston-Richmond Valley-Tottenville"
"5071870001","2911","ARTHUR KILL ROAD",,"STATEN ISLAND","10309","NY","STATEN IS","40.548258","-74.225183","503","51","226","5086719","Charleston-Richmond Valley-Tottenville"
"5074460100","2720","VETERANS ROAD WEST",,"STATEN ISLAND","10309","NY","STATEN IS","40.527628","-74.229423","503","51","226","5148060","Charleston-Richmond Valley-Tottenville"
"5074690200",,"VETERANS ROAD WEST",,"STATEN ISLAND","10309","NY",,,,,,,,
"5074690200","2750","VETERANS ROAD WEST",,"STATEN ISLAND","10309","NY","STATEN IS","40.527654","-74.229887","503","51","226","5149741","Charleston-Richmond Valley-Tottenville"
"5074810001","2900","VETERANS ROAD WEST",,"STATEN ISLAND","10309","NY","STATEN IS","40.527705","-74.230733","503","51","226","5149742","Charleston-Richmond Valley-Tottenville"
"5074870100","4700","ARTHUR KILL ROAD",,"STATEN ISLAND","10309","NY","STATEN IS","40.530427","-74.23926","503","51","226","5169957","Charleston-Richmond Valley-Tottenville"
"5075110001",,"RICHMOND PARKWAY",,"STATEN ISLAND","10309","NY",,,,,,,,
"5075110001",,"RICHMOND PARKWAY",,"STATEN ISLAND","0","NY",,,,,,,,
"5075110001","2935-2965","VETERANS ROAD WEST",,"STATEN ISLAND","10309","NY","STATEN IS","40.527736","-74.231492","503","51","226","5150928","Charleston-Richmond Valley-Tottenville"
"5075110001","2935-2965","VETERANS ROAD WEST",,"STATEN ISLAND","10309","NY","STATEN IS","40.527736","-74.231492","503","51","226","5150928","Charleston-Richmond Valley-Tottenville"
"5077020001","6420","AMBOY ROAD",,"STATEN ISLAND","10309","NY","STATEN IS","40.52136","-74.217143","503","51","226","5155571","Charleston-Richmond Valley-Tottenville"
"5079710250","236","RICHMOND VALLEY ROAD",,"STATEN ISLAND","10309","NY","STATEN IS","40.5211","-74.236562","503","51","248","5107860","Charleston-Richmond Valley-Tottenville"
"5079910100","99","ELLIS STREET",,"STATEN ISLAND","10307","NY","STATEN IS","40.516065","-74.243582","503","51","248","5088569","Charleston-Richmond Valley-Tottenville"
"1000010010","1","GOVERNORS ISLAND",,"NEW YORK","10004","NY","MANHATTAN","40.690096","-74.012866","101","1","5","1086389","park-cemetery-etc-Manhattan"
"1000047501","1","WATER STREET",,"NEW YORK","10004","NY","MANHATTAN","40.702444","-74.012742","101","1","9","1000005","Battery Park City-Lower Manhattan"
"1000050010","115","BROAD STREET",,"NEW YORK","10004","NY","MANHATTAN","40.702486","-74.011357","101","1","9","1000007","Battery Park City-Lower Manhattan"
"1000057501","125","BROAD STREET",,"NEW YORK","10004","NY","MANHATTAN","40.702112","-74.011249","101","1","9","1000006","Battery Park City-Lower Manhattan"
"1000087501","39","WHITEHALL STREET",,"NEW YORK","10004","NY","MANHATTAN","40.703037","-74.012969","101","1","9","1087700","Battery Park City-Lower Manhattan"
"1000090001","34","WHITEHALL STREET",,"NEW YORK","10004","NY","MANHATTAN","40.703034","-74.012991","101","1","9","1000018","Battery Park City-Lower Manhattan"
"1000090014","17","STATE STREET",,"NEW YORK","10004","NY","MANHATTAN","40.702798","-74.014246","101","1","9","1000020","Battery Park City-Lower Manhattan"
"1000090029","24","WHITEHALL STREET",,"NEW YORK","10004","NY","MANHATTAN","40.703446","-74.013092","101","1","9","1000021","Battery Park City-Lower Manhattan"
"1000100014","33","WHITEHALL STREET",,"NEW YORK","10004","NY","MANHATTAN","40.703312","-74.013038","101","1","9","1000023","Battery Park City-Lower Manhattan"
"1000100016","90","BROAD STREET",,"NEW YORK","10004","NY","MANHATTAN","40.703954","-74.011592","101","1","9","1000025","Battery Park City-Lower Manhattan"
"1000100023","1","WHITEHALL STREET",,"NEW YORK","10004","NY","MANHATTAN","40.703973","-74.013164","101","1","9","1000027","Battery Park City-Lower Manhattan"
"1000110001","2","BROADWAY",,"NEW YORK","10004","NY","MANHATTAN","40.704119","-74.013186","101","1","9","1000029","Battery Park City-Lower Manhattan"
"1000110014","26","BEAVER STREET",,"NEW YORK","10004","NY","MANHATTAN","40.704959","-74.011902","101","1","9","1085816","Battery Park City-Lower Manhattan"
"1000110021","80","BROAD STREET",,"NEW YORK","10004","NY","MANHATTAN","40.704322","-74.011581","101","1","9","1000038","Battery Park City-Lower Manhattan"
"1000130001","1","BROADWAY",,"NEW YORK","10004","NY","MANHATTAN","40.704785","-74.014099","101","1","13","1000043","Battery Park City-Lower Manhattan"
"1000130005","11","BROADWAY",,"NEW YORK","10004","NY","MANHATTAN","40.705354","-74.013731","101","1","13","1000044","Battery Park City-Lower Manhattan"
"1000150022","21","WEST STREET",,"NEW YORK","10004","NY","MANHATTAN","40.706451","-74.016119","101","1","13","1000047","Battery Park City-Lower Manhattan"
"1000157501","17","BATTERY PLACE",,"NEW YORK","10004","NY","MANHATTAN","40.704884","-74.015927","101","1","13","1082634","Battery Park City-Lower Manhattan"
"1000157502","20","WEST STREET",,"NEW YORK","10004","NY","MANHATTAN","40.706358","-74.016151","101","1","13","1087243","Battery Park City-Lower Manhattan"
"1000160015","50","BATTERY PLACE",,"NEW YORK","10280","NY","MANHATTAN","40.706284","-74.017904","101","1","31704","1085938","Battery Park City-Lower Manhattan"
"1000160020","70","BATTERY PLACE",,"NEW YORK","10280","NY","MANHATTAN","40.707047","-74.017439","101","1","31704","1085778","Battery Park City-Lower Manhattan"
"1000160100","345","SOUTH END AVENUE",,"NEW YORK","10280","NY","MANHATTAN","40.710733","-74.016131","101","1","31704","1083378","Battery Park City-Lower Manhattan"
"1000160120","200","LIBERTY STREET",,"NEW YORK","10281","NY","MANHATTAN","40.711425","-74.015442","101","1","31704","1000057","Battery Park City-Lower Manhattan"
"1000160125","225","LIBERTY STREET",,"NEW YORK","10280","NY","MANHATTAN","40.711537","-74.015673","101","1","31703","1000058","Battery Park City-Lower Manhattan"
"1000160140","200","VESEY STREET",,"NEW YORK","10281","NY","MANHATTAN","40.714447","-74.015493","101","1","31703","1000059","Battery Park City-Lower Manhattan"
"1000160140","200","VESEY STREET",,"NEW YORK","10281","NY","MANHATTAN","40.714447","-74.015493","101","1","31703","1000059","Battery Park City-Lower Manhattan"
"1000160150","250","VESEY PLACE",,"NEW YORK","10282","NY",,,,,,,,
"1000160180","20","RIVER TERRACE",,"NEW YORK","10282","NY","MANHATTAN","40.716942","-74.016298","101","1","31703","1086174","Battery Park City-Lower Manhattan"
"1000160185","211","NORTH END AVENUE",,"NEW YORK","10282","NY","MANHATTAN","40.71622","-74.015075","101","1","31703","1086547","Battery Park City-Lower Manhattan"
"1000160190","22","RIVER TERRACE",,"NEW YORK","10282","NY","MANHATTAN","40.717375","-74.016035","101","1","31703","1085929","Battery Park City-Lower Manhattan"
"1000160195","325","NORTH END AVENUE",,"NEW YORK","10282","NY","MANHATTAN","40.716637","-74.014754","101","1","31703","1086507","Battery Park City-Lower Manhattan"
"1000160200","400","CHAMBERS STREET",,"NEW YORK","10282","NY","MANHATTAN","40.717774","-74.014206","101","1","31703","1085774","Battery Park City-Lower Manhattan"
"1000160205","455","NORTH END AVENUE",,"NEW YORK","10282","NY","MANHATTAN","40.717384","-74.014166","101","1","31703","1085815","Battery Park City-Lower Manhattan"
"1000160210","399","CHAMBERS STREET",,"NEW YORK","10282","NY","MANHATTAN","40.718073","-74.014855","101","1","31703","1085486","Battery Park City-Lower Manhattan"
"1000160221","201","WARREN STREET",,"NEW YORK","10282","NY","MANHATTAN","40.716668","-74.013542","101","1","31703","1085568","Battery Park City-Lower Manhattan"
"1000160225","1","NORTH END AVENUE",,"NEW YORK","10281","NY","MANHATTAN","40.714082","-74.01673","101","1","31703","1085502","Battery Park City-Lower Manhattan"
"1000160260","200","WEST STREET",,"NEW YORK","10282","NY","MANHATTAN","40.713846","-74.013812","101","1","31703","1087239","Battery Park City-Lower Manhattan"
"1000167501","377","RECTOR PLACE",,"NEW YORK","10280","NY","MANHATTAN","40.709506","-74.018002","101","1","31704","1000061","Battery Park City-Lower Manhattan"
"1000167502","320","ALBANY STREET",,"NEW YORK","10280","NY","MANHATTAN","40.710165","-74.016751","101","1","31704","1000301","Battery Park City-Lower Manhattan"
"1000167503","250","SOUTH END AVENUE",,"NEW YORK","10280","NY","MANHATTAN","40.709709","-74.01656","101","1","31704","1065089","Battery Park City-Lower Manhattan"
"1000167504","300","ALBANY STREET",,"NEW YORK","10280","NY","MANHATTAN","40.710118","-74.016574","101","1","31704","1000436","Battery Park City-Lower Manhattan"
"1000167505","380","RECTOR PLACE",,"NEW YORK","10280","NY","MANHATTAN","40.709311","-74.017764","101","1","31704","1000544","Battery Park City-Lower Manhattan"
"1000167506","280","RECTOR PLACE",,"NEW YORK","10280","NY","MANHATTAN","40.708921","-74.016505","101","1","31704","1065199","Battery Park City-Lower Manhattan"
"1000167507","300","RECTOR PLACE",,"NEW YORK","10280","NY","MANHATTAN","40.709097","-74.017104","101","1","31704","1065321","Battery Park City-Lower Manhattan"
"1000167508","200","RECTOR PLACE",,"NEW YORK","10280","NY","MANHATTAN","40.708809","-74.016116","101","1","31704","1065475","Battery Park City-Lower Manhattan"
"1000167509","21","SOUTH END AVENUE",,"NEW YORK","10280","NY","MANHATTAN","40.708114","-74.01763","101","1","31704","1075698","Battery Park City-Lower Manhattan"
"1000167510","99","BATTERY PLACE",,"NEW YORK","10280","NY","MANHATTAN","40.707977","-74.016729","101","1","31704","1080815","Battery Park City-Lower Manhattan"
"1000167511","2","SOUTH END AVENUE",,"NEW YORK","10280","NY","MANHATTAN","40.708037","-74.017656","101","1","31704","1082813","Battery Park City-Lower Manhattan"
"1000167512","102","NORTH END AVENUE",,"NEW YORK","10282","NY","MANHATTAN","40.714812","-74.016153","101","1","31703","1085867","Battery Park City-Lower Manhattan"
"1000167513","10","LITTLE WEST STREET",,"NEW YORK","10280","NY","MANHATTAN","40.705551","-74.0171","101","1","31704","1085789","Battery Park City-Lower Manhattan"
"1000167514","30","LITTLE WEST STREET",,"NEW YORK","10280","NY","MANHATTAN","40.706171","-74.016862","101","1","31704","1087238","Battery Park City-Lower Manhattan"
"1000167515","225","RECTOR PLACE",,"NEW YORK","10280","NY","MANHATTAN","40.70927","-74.016487","101","1","31704","1000053","Battery Park City-Lower Manhattan"
"1000167517","70","BATTERY PLACE",,"NEW YORK","10280","NY","MANHATTAN","40.707047","-74.017439","101","1","31704","1085778","Battery Park City-Lower Manhattan"
"1000167520","200","NORTH END AVENUE",,"NEW YORK","10282","NY","MANHATTAN","40.71619","-74.015071","101","1","31703","1087847","Battery Park City-Lower Manhattan"
"1000169002","2","WEST STREET","HOTL","NEW YORK","10004","NY","MANHATTAN","40.705523","-74.01711","101","1","31704","1085789","Battery Park City-Lower Manhattan"
"1000180100","56","GREENWICH STREET",,"NEW YORK","10006","NY","MANHATTAN","40.706921","-74.014074","101","1","13","1078977","Battery Park City-Lower Manhattan"
"1000187501","13","RECTOR STREET",,"NEW YORK","10006","NY","MANHATTAN","40.707997","-74.013713","101","1","13","1000794","Battery Park City-Lower Manhattan"
"1000190013","42","TRINITY PLACE",,"NEW YORK","10006","NY","MANHATTAN","40.707437","-74.013194","101","1","13","1000797","Battery Park City-Lower Manhattan"
"1000200001","29","BROADWAY",,"NEW YORK","10006","NY","MANHATTAN","40.70601","-74.01315","101","1","13","1000802","Battery Park City-Lower Manhattan"
"1000200004","39","BROADWAY",,"NEW YORK","10006","NY","MANHATTAN","40.706251","-74.012952","101","1","13","1000803","Battery Park City-Lower Manhattan"
"1000200009","45","BROADWAY",,"NEW YORK","10006","NY","MANHATTAN","40.706397","-74.012829","101","1","13","1000804","Battery Park City-Lower Manhattan"
"1000200016","55","BROADWAY",,"NEW YORK","10006","NY","MANHATTAN","40.706638","-74.012631","101","1","13","1000807","Battery Park City-Lower Manhattan"
"1000210001","61","BROADWAY",,"NEW YORK","10006","NY","MANHATTAN","40.706995","-74.012335","101","1","13","1000808","Battery Park City-Lower Manhattan"
"1000210004","65","BROADWAY",,"NEW YORK","10006","NY","MANHATTAN","40.707113","-74.012234","101","1","13","1000809","Battery Park City-Lower Manhattan"
"1000210006","69","BROADWAY",,"NEW YORK","10006","NY","MANHATTAN","40.707234","-74.012137","101","1","13","1000810","Battery Park City-Lower Manhattan"
"1000220017","32","BROADWAY",,"NEW YORK","10004","NY","MANHATTAN","40.706045","-74.013096","101","1","9","1078979","Battery Park City-Lower Manhattan"
"1000220024","50","BROADWAY",,"NEW YORK","10004","NY","MANHATTAN","40.706449","-74.012761","101","1","9","1000813","Battery Park City-Lower Manhattan"
"1000220028","52","BROADWAY",,"NEW YORK","10004","NY","MANHATTAN","40.706493","-74.012725","101","1","9","1000814","Battery Park City-Lower Manhattan"
"1000230019","2","BROAD STREET",,"NEW YORK","10004","NY","MANHATTAN","40.706993","-74.010763","101","1","7","1078982","Battery Park City-Lower Manhattan"
"1000230050","20","BROAD STREET",,"NEW YORK","10004","NY","MANHATTAN","40.706553","-74.011033","101","1","7","1000816","Battery Park City-Lower Manhattan"
"1000240001","60","BROAD STREET",,"NEW YORK","10004","NY","MANHATTAN","40.705351","-74.011502","101","1","9","1000817","Battery Park City-Lower Manhattan"
"1000240029","30","BROAD STREET",,"NEW YORK","10004","NY","MANHATTAN","40.70618","-74.01125","101","1","9","1000819","Battery Park City-Lower Manhattan"
"1000240036","50","BROAD STREET",,"NEW YORK","10004","NY","MANHATTAN","40.705689","-74.011455","101","1","9","1000820","Battery Park City-Lower Manhattan"
"1000247501","40","BROAD STREET",,"NEW YORK","10004","NY","MANHATTAN","40.706021","-74.011332","101","1","9","1078985","Battery Park City-Lower Manhattan"
"1000250001","55","BROAD STREET",,"NEW YORK","10004","NY","MANHATTAN","40.705189","-74.011505","101","1","9","1000821","Battery Park City-Lower Manhattan"
"1000250010","41","BROAD STREET",,"NEW YORK","10004","NY","MANHATTAN","40.705576","-74.011448","101","1","9","1000823","Battery Park City-Lower Manhattan"
"1000250019","25","BROAD STREET",,"NEW YORK","10004","NY","MANHATTAN","40.706114","-74.01126","101","1","9","1000824","Battery Park City-Lower Manhattan"
"1000250027","40","EXCHANGE PLACE",,"NEW YORK","10005","NY","MANHATTAN","40.705939","-74.010283","101","1","9","1000825","Battery Park City-Lower Manhattan"
"1000257501","15","WILLIAM STREET",,"NEW YORK","10004","NY","MANHATTAN","40.705209","-74.009998","101","1","9","1087954","Battery Park City-Lower Manhattan"
"1000260014","37","WALL STREET",,"NEW YORK","10005","NY","MANHATTAN","40.70674","-74.010095","101","1","7","1078992","Battery Park City-Lower Manhattan"
"1000260021","45","WALL STREET",,"NEW YORK","10005","NY","MANHATTAN","40.706595","-74.009861","101","1","7","1000826","Battery Park City-Lower Manhattan"
"1000267501","15","BROAD STREET",,"NEW YORK","10005","NY","MANHATTAN","40.706531","-74.011022","101","1","7","1078988","Battery Park City-Lower Manhattan"
"1000270009","63","WALL STREET",,"NEW YORK","10005","NY","MANHATTAN","40.705843","-74.008516","101","1","7","1000828","Battery Park City-Lower Manhattan"
"1000270017","67","WALL STREET",,"NEW YORK","10005","NY","MANHATTAN","40.705749","-74.008342","101","1","7","1000829","Battery Park City-Lower Manhattan"
"1000277501","55","WALL STREET",,"NEW YORK","10005","NY","MANHATTAN","40.706191","-74.009165","101","1","7","1000827","Battery Park City-Lower Manhattan"
"1000277502","20","EXCHANGE PLACE",,"NEW YORK","10005","NY","MANHATTAN","40.705634","-74.009378","101","1","7","1000830","Battery Park City-Lower Manhattan"
"1000280001","3","HANOVER SQUARE",,"NEW YORK","10004","NY","MANHATTAN","40.704808","-74.009623","101","1","7","1000831","Battery Park City-Lower Manhattan"
"1000280012","76","BEAVER STREET",,"NEW YORK","10005","NY","MANHATTAN","40.705324","-74.008873","101","1","7","1000833","Battery Park City-Lower Manhattan"
"1000287501","82","BEAVER STREET",,"NEW YORK","10005","NY","MANHATTAN","40.70536","-74.008602","101","1","7","1000835","Battery Park City-Lower Manhattan"
"1000290001","91","BROAD STREET",,"NEW YORK","10004","NY","MANHATTAN","40.703954","-74.01157","101","1","9","1066031","Battery Park City-Lower Manhattan"
"1000290036","1","WILLIAM STREET",,"NEW YORK","10004","NY","MANHATTAN","40.704827","-74.009792","101","1","9","1078995","Battery Park City-Lower Manhattan"
"1000290036","1","WILLIAM STREET",,"NEW YORK","10004","NY","MANHATTAN","40.704827","-74.009792","101","1","9","1078995","Battery Park City-Lower Manhattan"
"1000290070","75","BROAD STREET",,"NEW YORK","10004","NY","MANHATTAN","40.704541","-74.011552","101","1","9","1000849","Battery Park City-Lower Manhattan"
"1000290086","14","SOUTH WILLIAM STREET",,"NEW YORK","10004","NY","MANHATTAN","40.704624","-74.010568","101","1","9","1000851","Battery Park City-Lower Manhattan"
"1000297501","48","BEAVER STREET",,"NEW YORK","10004","NY","MANHATTAN","40.70509","-74.010607","101","1","9","1078997","Battery Park City-Lower Manhattan"
"1000300005","80","PEARL STREET",,"NEW YORK","10004","NY","MANHATTAN","40.703971","-74.010239","101","1","9","1000854","Battery Park City-Lower Manhattan"
"1000300019","7","HANOVER SQUARE",,"NEW YORK","10004","NY","MANHATTAN","40.70447","-74.009406","101","1","9","1000855","Battery Park City-Lower Manhattan"
"1000310001","10","HANOVER SQUARE",,"NEW YORK","10005","NY","MANHATTAN","40.704328","-74.00923","101","1","7","1000859","Battery Park City-Lower Manhattan"
"1000317501","75","WALL STREET",,"NEW YORK","10005","NY","MANHATTAN","40.705486","-74.007874","101","1","7","1085950","Battery Park City-Lower Manhattan"
"1000327501","43","WATER STREET",,"NEW YORK","10004","NY","MANHATTAN","40.703383","-74.010138","101","1","9","1083346","Battery Park City-Lower Manhattan"
"1000330001","77","WATER STREET",,"NEW YORK","10005","NY","MANHATTAN","40.704275","-74.008681","101","1","7","1000863","Battery Park City-Lower Manhattan"
"1000330011","95","WALL STREET",,"NEW YORK","10005","NY","MANHATTAN","40.704932","-74.007488","101","1","7","1000864","Battery Park City-Lower Manhattan"
"1000330022","99","WALL STREET",,"NEW YORK","10005","NY","MANHATTAN","40.705","-74.007156","101","1","7","1000865","Battery Park City-Lower Manhattan"
"1000350001","77","FRONT STREET",,"NEW YORK","10005","NY","MANHATTAN","40.70388","-74.00822","101","1","7","1000867","Battery Park City-Lower Manhattan"
"1000350010","111","WALL STREET",,"NEW YORK","10005","NY","MANHATTAN","40.704553","-74.006636","101","1","7","1000868","Battery Park City-Lower Manhattan"
"1000360012",,"PIER 9",,"NEW YORK","0","NY",,,,,,,,
"1000360018","1","PIER   11",,"NEW YORK","10005","NY","MANHATTAN","40.703611","-74.006611","101","1","7","1087760","Battery Park City-Lower Manhattan"
"1000360025","13","SOUTH STREET",,"NEW YORK","10004","NY","MANHATTAN","40.701761","-74.01131","101","1","9","1000005","Battery Park City-Lower Manhattan"
"1000360030","PIER14","SOUTH STREET",,"NEW YORK","0","NY",,,,,,,,
"1000370008","110","WALL STREET",,"NEW YORK","10005","NY","MANHATTAN","40.704638","-74.006694","101","1","7","1000872","Battery Park City-Lower Manhattan"
"1000370023","180","MAIDEN LANE",,"NEW YORK","10005","NY","MANHATTAN","40.705308","-74.004873","101","1","7","1000874","Battery Park City-Lower Manhattan"
"1000377501","120","WALL STREET",,"NEW YORK","10005","NY","MANHATTAN","40.70438","-74.006427","101","1","7","1000871","Battery Park City-Lower Manhattan"
"1000380001","100","WALL STREET",,"NEW YORK","10005","NY","MANHATTAN","40.70497","-74.007084","101","1","7","1000875","Battery Park City-Lower Manhattan"
"1000380017","88","PINE STREET",,"NEW YORK","10005","NY","MANHATTAN","40.70536","-74.00629","101","1","7","1000876","Battery Park City-Lower Manhattan"
"1000390001","82","WALL STREET",,"NEW YORK","10005","NY","MANHATTAN","40.705415","-74.007729","101","1","7","1000877","Battery Park City-Lower Manhattan"
"1000390012","110","MAIDEN LANE",,"NEW YORK","10005","NY","MANHATTAN","40.7066","-74.006633","101","1","7","1000880","Battery Park City-Lower Manhattan"
"1000397501","130","WATER STREET",,"NEW YORK","10005","NY","MANHATTAN","40.705522","-74.006929","101","1","7","1000884","Battery Park City-Lower Manhattan"
"1000400003","60","WALL STREET",,"NEW YORK","10005","NY","MANHATTAN","40.705914","-74.008609","101","1","7","1001004","Battery Park City-Lower Manhattan"
"1000400014","48","WALL STREET",,"NEW YORK","10005","NY","MANHATTAN","40.706331","-74.009396","101","1","7","1001005","Battery Park City-Lower Manhattan"
"1000400016","52","WILLIAM STREET",,"NEW YORK","10005","NY","MANHATTAN","40.706773","-74.009143","101","1","7","1001006","Battery Park City-Lower Manhattan"
"1000417503","56","PINE STREET",,"NEW YORK","10005","NY","MANHATTAN","40.706606","-74.008404","101","1","7","1001009","Battery Park City-Lower Manhattan"
"1000420001","100","MAIDEN LANE",,"NEW YORK","10038","NY","MANHATTAN","40.706867","-74.00699","101","1","7","1001014","Battery Park City-Lower Manhattan"
"1000420022","10","LIBERTY STREET",,"NEW YORK","10005","NY","MANHATTAN","40.707641","-74.008155","101","1","7","1086256","Battery Park City-Lower Manhattan"
"1000420031","80","MAIDEN LANE",,"NEW YORK","10038","NY","MANHATTAN","40.707116","-74.007329","101","1","7","1001015","Battery Park City-Lower Manhattan"
"1000430001","44","WALL STREET",,"NEW YORK","10005","NY","MANHATTAN","40.70654","-74.009738","101","1","7","1001017","Battery Park City-Lower Manhattan"
"1000430002","40","WALL STREET",,"NEW YORK","10005","NY","MANHATTAN","40.706625","-74.009875","101","1","7","1001018","Battery Park City-Lower Manhattan"
"1000430005","30","WALL STREET",,"NEW YORK","10005","NY","MANHATTAN","40.706839","-74.010218","101","1","7","1001019","Battery Park City-Lower Manhattan"
"1000447501","18","PINE STREET",,"NEW YORK","10005","NY","MANHATTAN","40.707665","-74.010135","101","1","7","1001022","Battery Park City-Lower Manhattan"
"1000460001","2","WALL STREET",,"NEW YORK","10005","NY","MANHATTAN","40.707725","-74.011632","101","1","7","1001023","Battery Park City-Lower Manhattan"
"1000460009","14","WALL STREET",,"NEW YORK","10005","NY","MANHATTAN","40.707347","-74.010997","101","1","7","1001025","Battery Park City-Lower Manhattan"
"1000477501","120","BROADWAY",,"NEW YORK","10005","NY","MANHATTAN","40.708546","-74.011041","101","1","7","1001026","Battery Park City-Lower Manhattan"
"1000480001","140","BROADWAY",,"NEW YORK","10005","NY","MANHATTAN","40.709043","-74.010626","101","1","7","1001027","Battery Park City-Lower Manhattan"
"1000490002","111","BROADWAY",,"NEW YORK","10006","NY","MANHATTAN","40.708486","-74.011113","101","1","13","1001029","Battery Park City-Lower Manhattan"
"1000500001","115","BROADWAY",,"NEW YORK","10006","NY","MANHATTAN","40.708631","-74.010997","101","1","13","1001030","Battery Park City-Lower Manhattan"
"1000510007","68","TRINITY PLACE",,"NEW YORK","10006","NY","MANHATTAN","40.708258","-74.012649","101","1","13","1090830","Battery Park City-Lower Manhattan"
"1000510013","78","TRINITY PLACE",,"NEW YORK","10006","NY","MANHATTAN","40.708472","-74.012505","101","1","13","1001033","Battery Park City-Lower Manhattan"
"1000510017","74","TRINITY PLACE",,"NEW YORK","10006","NY","MANHATTAN","40.708387","-74.012563","101","1","13","1000000","Battery Park City-Lower Manhattan"
"1000520021","120","LIBERTY STREET",,"NEW YORK","10006","NY","MANHATTAN","40.71002","-74.012408","101","1","13","1001040","Battery Park City-Lower Manhattan"
"1000527502","114","LIBERTY STREET",,"NEW YORK","10006","NY","MANHATTAN","40.709938","-74.012235","101","1","13","1001041","Battery Park City-Lower Manhattan"
"1000530002","99","WASHINGTON STREET",,"NEW YORK","10006","NY","MANHATTAN","40.708351","-74.014323","101","1","13","1088967","Battery Park City-Lower Manhattan"
"1000530033","110","GREENWICH STREET",,"NEW YORK","10006","NY","MANHATTAN","40.70856","-74.013349","101","1","13","1001051","Battery Park City-Lower Manhattan"
"1000537501","120","GREENWICH STREET",,"NEW YORK","10006","NY","MANHATTAN","40.709089","-74.013118","101","1","13","1001050","Battery Park City-Lower Manhattan"
"1000550014","71","WEST STREET",,"NEW YORK","10006","NY","MANHATTAN","40.70904","-74.015117","101","1","13","1001060","Battery Park City-Lower Manhattan"
"1000550016","80","WEST STREET",,"NEW YORK","10006","NY","MANHATTAN","40.709493","-74.014976","101","1","13","1001061","Battery Park City-Lower Manhattan"
"1000560001","140","WASHINGTON STREET",,"NEW YORK","10006","NY","MANHATTAN","40.709729","-74.013818","101","1","13","1001063","Battery Park City-Lower Manhattan"
"1000560004","90","WEST STREET",,"NEW YORK","10006","NY","MANHATTAN","40.710105","-74.014789","101","1","13","1001064","Battery Park City-Lower Manhattan"
"1000627501","1","LIBERTY PLAZA",,"NEW YORK","10006","NY","MANHATTAN","40.70943","-74.011102","101","1","13","1001068","Battery Park City-Lower Manhattan"
"1000630003","22","CORTLANDT STREET",,"NEW YORK","10007","NY","MANHATTAN","40.710223","-74.010897","101","1","13","1001069","Battery Park City-Lower Manhattan"
"1000630012","5","DEY STREET",,"NEW YORK","10007","NY","MANHATTAN","40.71058","-74.009862","101","1","13","1000000","Battery Park City-Lower Manhattan"
"1000640008","53","LIBERTY STREET",,"NEW YORK","10005","NY","MANHATTAN","40.708642","-74.009407","101","1","1502","1001084","Battery Park City-Lower Manhattan"
"1000640012","150","BROADWAY",,"NEW YORK","10038","NY","MANHATTAN","40.70932","-74.010392","101","1","1502","1001087","Battery Park City-Lower Manhattan"
"1000640015","160","BROADWAY",,"NEW YORK","10038","NY","MANHATTAN","40.709493","-74.01024","101","1","1502","1079040","Battery Park City-Lower Manhattan"
"1000640016","170","BROADWAY",,"NEW YORK","10038","NY","MANHATTAN","40.709669","-74.010092","101","1","1502","1001088","Battery Park City-Lower Manhattan"
"1000650007","15","MAIDEN LANE",,"NEW YORK","10038","NY","MANHATTAN","40.709482","-74.009356","101","1","1502","1001097","Battery Park City-Lower Manhattan"
"1000650010","9","MAIDEN LANE",,"NEW YORK","10038","NY","MANHATTAN","40.709606","-74.009555","101","1","1502","1001098","Battery Park City-Lower Manhattan"
"1000650017","176","BROADWAY",,"NEW YORK","10038","NY","MANHATTAN","40.709932","-74.009869","101","1","1502","1001100","Battery Park City-Lower Manhattan"
"1000650024","24","JOHN STREET",,"NEW YORK","10038","NY","MANHATTAN","40.709765","-74.008765","101","1","1502","1001105","Battery Park City-Lower Manhattan"
"1000660001","19","LIBERTY STREET",,"NEW YORK","10005","NY","MANHATTAN","40.707899","-74.008473","101","1","1502","1001108","Battery Park City-Lower Manhattan"
"1000670001","66","JOHN STREET",,"NEW YORK","10038","NY","MANHATTAN","40.708933","-74.007614","101","1","1502","1079043","Battery Park City-Lower Manhattan"
"1000670023",,"NASSAU STREET",,"NEW YORK","10038","NY",,,,,,,,
"1000670023","56","NASSAU STREET",,"NEW YORK","10038","NY","MANHATTAN","40.709114","-74.008812","101","1","1502","1001109","Battery Park City-Lower Manhattan"
"1000680007","83","MAIDEN LANE",,"NEW YORK","10038","NY","MANHATTAN","40.707443","-74.007607","101","1","1502","1001111","Battery Park City-Lower Manhattan"
"1000680011","75","MAIDEN LANE",,"NEW YORK","10038","NY","MANHATTAN","40.707657","-74.007758","101","1","1502","1001112","Battery Park City-Lower Manhattan"
"1000680028","15","GOLD STREET",,"NEW YORK","10038","NY","MANHATTAN","40.707753","-74.006918","101","1","1502","1085948","Battery Park City-Lower Manhattan"
"1000687501","80","JOHN STREET",,"NEW YORK","10038","NY","MANHATTAN","40.708445","-74.006886","101","1","1502","1001115","Battery Park City-Lower Manhattan"
"1000687502","90","WILLIAM STREET",,"NEW YORK","10038","NY","MANHATTAN","40.708184","-74.007787","101","1","1502","1087755","Battery Park City-Lower Manhattan"
"1000690006","211","PEARL STREET",,"NEW YORK","10038","NY","MANHATTAN","40.707023","-74.006388","101","1","1502","1087832","Battery Park City-Lower Manhattan"
"1000690018","2","GOLD STREET",,"NEW YORK","10038","NY","MANHATTAN","40.707295","-74.007336","101","1","1502","1087146","Battery Park City-Lower Manhattan"
"1000690032","116","JOHN STREET",,"NEW YORK","10038","NY","MANHATTAN","40.707605","-74.00572","101","1","1502","1001126","Battery Park City-Lower Manhattan"
"1000697502","90","JOHN STREET",,"NEW YORK","10038","NY","MANHATTAN","40.708173","-74.006464","101","1","1502","1001127","Battery Park City-Lower Manhattan"
"1000700043","160","WATER STREET",,"NEW YORK","10038","NY","MANHATTAN","40.706452","-74.005594","101","1","1502","1001135","Battery Park City-Lower Manhattan"
"1000707501","125","MAIDEN LANE",,"NEW YORK","10038","NY","MANHATTAN","40.706397","-74.006341","101","1","1502","1087484","Battery Park City-Lower Manhattan"
"1000710001","156","FRONT STREET",,"NEW YORK","10038","NY","MANHATTAN","40.705829","-74.005482","101","1","1502","1001136","Battery Park City-Lower Manhattan"
"1000717501","175","WATER STREET",,"NEW YORK","10038","NY","MANHATTAN","40.706699","-74.005208","101","1","1502","1001137","Battery Park City-Lower Manhattan"
"1000720012","161","FRONT STREET",,"NEW YORK","10038","NY","MANHATTAN","40.706051","-74.0051","101","1","1502","1089746","Battery Park City-Lower Manhattan"
"1000720013","163","FRONT STREET",,"NEW YORK","10038","NY","MANHATTAN","40.706084","-74.005049","101","1","1502","1001139","Battery Park City-Lower Manhattan"
"1000720027","85","SOUTH STREET",,"NEW YORK","10038","NY","MANHATTAN","40.705618","-74.004162","101","1","1502","1001142","Battery Park City-Lower Manhattan"
"1000730002","PIER-15","SOUTH STREET",,"NEW YORK","10038","NY",,,,,,,,
"1000747501","199","WATER STREET",,"NEW YORK","10038","NY","MANHATTAN","40.70727","-74.004314","101","1","1502","1001162","Battery Park City-Lower Manhattan"
"1000750001","127","JOHN STREET",,"NEW YORK","10038","NY","MANHATTAN","40.707218","-74.005316","101","1","1502","1001163","Battery Park City-Lower Manhattan"
"1000750021","40","FULTON STREET",,"NEW YORK","10038","NY","MANHATTAN","40.707904","-74.004411","101","1","1502","1075618","Battery Park City-Lower Manhattan"
"1000750030","111","JOHN STREET",,"NEW YORK","10038","NY","MANHATTAN","40.707671","-74.005764","101","1","1502","1001167","Battery Park City-Lower Manhattan"
"1000760024","40","GOLD STREET",,"NEW YORK","10038","NY","MANHATTAN","40.708774","-74.005872","101","1","1502","1088484","Battery Park City-Lower Manhattan"
"1000767501","15","CLIFF STREET",,"NEW YORK","10038","NY","MANHATTAN","40.708143","-74.00545","101","1","1502","1085931","Battery Park City-Lower Manhattan"
"1000767502","99","JOHN STREET",,"NEW YORK","10038","NY","MANHATTAN","40.708006","-74.006164","101","1","1502","1087867","Battery Park City-Lower Manhattan"
"1000770001","87","JOHN STREET",,"NEW YORK","10038","NY","MANHATTAN","40.708338","-74.006684","101","1","1502","1001185","Battery Park City-Lower Manhattan"
"1000770008","110","WILLIAM STREET",,"NEW YORK","10038","NY","MANHATTAN","40.708782","-74.007196","101","1","1502","1001186","Battery Park City-Lower Manhattan"
"1000770015","130","WILLIAM STREET",,"NEW YORK","10038","NY","MANHATTAN","40.709235","-74.006741","101","1","1502","1090562","Battery Park City-Lower Manhattan"
"1000770024","82","FULTON STREET",,"NEW YORK","10038","NY","MANHATTAN","40.709191","-74.005728","101","1","1502","1077403","Battery Park City-Lower Manhattan"
"1000780001","135","WILLIAM STREET",,"NEW YORK","10038","NY","MANHATTAN","40.709359","-74.006648","101","1","1502","1001192","Battery Park City-Lower Manhattan"
"1000780011","55","JOHN STREET",,"NEW YORK","10038","NY","MANHATTAN","40.708988","-74.007654","101","1","1502","1079064","Battery Park City-Lower Manhattan"
"1000780020","106","FULTON STREET",,"NEW YORK","10038","NY","MANHATTAN","40.709729","-74.006792","101","1","1502","1001195","Battery Park City-Lower Manhattan"
"1000787507","111","WILLIAM STREET",,"NEW YORK","10038","NY","MANHATTAN","40.708876","-74.007127","101","1","1502","1001193","Battery Park City-Lower Manhattan"
"1000787508","45","JOHN STREET",,"NEW YORK","10038","NY","MANHATTAN","40.709241","-74.008","101","1","1502","1001199","Battery Park City-Lower Manhattan"
"1000790010","17","JOHN STREET",,"NEW YORK","10038","NY","MANHATTAN","40.709916","-74.008949","101","1","1502","1001216","Battery Park City-Lower Manhattan"
"1000790015","200","BROADWAY",,"NEW YORK","10038","NY","MANHATTAN","40.710533","-74.009353","101","1","1502","1089384","Battery Park City-Lower Manhattan"
"1000797502","130","FULTON STREET",,"NEW YORK","10038","NY","MANHATTAN","40.710372","-74.008062","101","1","1502","1087245","Battery Park City-Lower Manhattan"
"1000797503","71","NASSAU STREET",,"NEW YORK","10038","NY","MANHATTAN","40.709639","-74.008325","101","1","1502","1001215","Battery Park City-Lower Manhattan"
"1000800004","55","CHURCH STREET",,"NEW YORK","10007","NY","MANHATTAN","40.711453","-74.010504","101","1","13","1075702","Battery Park City-Lower Manhattan"
"1000840036","7","WORLD TRADE CENTER",,"NEW YORK","10007","NY","MANHATTAN","40.71322","-74.011709","101","1","21","1086510","SoHo-TriBeCa-Civic Center-Little Italy"
"1000860001","90","CHURCH STREET",,"NEW YORK","10007","NY","MANHATTAN","40.712586","-74.009775","101","1","21","1001230","SoHo-TriBeCa-Civic Center-Little Italy"
"1000880001",,"BROADWAY",,"NEW YORK","10007","NY",,,,,,,,
"1000880001","217","BROADWAY",,"NEW YORK","10007","NY","MANHATTAN","40.71156","-74.008469","101","1","21","1001232","SoHo-TriBeCa-Civic Center-Little Italy"
"1000880005","20","VESEY STREET",,"NEW YORK","10007","NY","MANHATTAN","40.711843","-74.009562","101","1","21","1001235","SoHo-TriBeCa-Civic Center-Little Italy"
"1000880010","30","VESEY STREET",,"NEW YORK","10007","NY","MANHATTAN","40.711977","-74.009865","101","1","21","1001237","SoHo-TriBeCa-Civic Center-Little Italy"
"1000880014","12","BARCLAY STREET",,"NEW YORK","10007","NY","MANHATTAN","40.712224","-74.008617","101","1","21","1087947","SoHo-TriBeCa-Civic Center-Little Italy"
"1000880018","225","BROADWAY",,"NEW YORK","10007","NY","MANHATTAN","40.71187","-74.008217","101","1","21","1001241","SoHo-TriBeCa-Civic Center-Little Italy"
"1000890001","99","NASSAU STREET",,"NEW YORK","10038","NY","MANHATTAN","40.710531","-74.007441","101","1","1501","1001242","Battery Park City-Lower Manhattan"
"1000890012","212","BROADWAY",,"NEW YORK","10038","NY","MANHATTAN","40.710959","-74.008982","101","1","1501","1001245","Battery Park City-Lower Manhattan"
"1000900014","3","BEEKMAN STREET",,"NEW YORK","10038","NY","MANHATTAN","40.711456","-74.006731","101","1","1501","1079072","Battery Park City-Lower Manhattan"
"1000907501","15","PARK ROW",,"NEW YORK","10038","NY","MANHATTAN","40.711508","-74.007679","101","1","1501","1001249","Battery Park City-Lower Manhattan"
"1000917502","111","FULTON STREET",,"NEW YORK","10038","NY","MANHATTAN","40.709749","-74.006792","101","1","1501","1001263","Battery Park City-Lower Manhattan"
"1000920005","161","WILLIAM STREET",,"NEW YORK","10038","NY","MANHATTAN","40.710059","-74.005955","101","1","1501","1001269","Battery Park City-Lower Manhattan"
"1000920014","49","ANN STREET",,"NEW YORK","10038","NY","MANHATTAN","40.710306","-74.006828","101","1","1501","1089326","Battery Park City-Lower Manhattan"
"1000920024","110","NASSAU STREET",,"NEW YORK","10038","NY","MANHATTAN","40.710759","-74.007117","101","1","1501","1079094","Battery Park City-Lower Manhattan"
"1000930034","57","BEEKMAN STREET",,"NEW YORK","10038","NY","MANHATTAN","40.709858","-74.00505","101","1","1501","1001288","Battery Park City-Lower Manhattan"
"1000940001","80","GOLD STREET",,"NEW YORK","10038","NY","MANHATTAN","40.709938","-74.004498","101","1","1501","1083354","Battery Park City-Lower Manhattan"
"1000950027","49","FULTON STREET",,"NEW YORK","10038","NY","MANHATTAN","40.708179","-74.00462","101","1","1501","1001290","Battery Park City-Lower Manhattan"
"1001000001","52","BEEKMAN STREET",,"NEW YORK","10038","NY","MANHATTAN","40.709982","-74.005151","101","1","1501","1001352","Battery Park City-Lower Manhattan"
"1001000026","138","NASSAU STREET",,"NEW YORK","10038","NY","MANHATTAN","40.711266","-74.00641","101","1","1501","1001354","Battery Park City-Lower Manhattan"
"1001007501","150","NASSAU STREET",,"NEW YORK","10038","NY","MANHATTAN","40.711541","-74.006027","101","1","1501","1087756","Battery Park City-Lower Manhattan"
"1001010001","36","PARK ROW",,"NEW YORK","10038","NY","MANHATTAN","40.711763","-74.006857","101","1","1501","1001355","Battery Park City-Lower Manhattan"
"1001010002","39","PARK ROW",,"NEW YORK","10038","NY","MANHATTAN","40.711835","-74.006558","101","1","1501","1001356","Battery Park City-Lower Manhattan"
"1001060009","1","PECK SLIP",,"NEW YORK","10038","NY","MANHATTAN","40.708766","-74.002406","101","1","1501","1001363","Battery Park City-Lower Manhattan"
"1001110100","20","MADISON STREET",,"NEW YORK","10038","NY","MANHATTAN","40.711774","-73.999683","103","1","25","1077417","Chinatown"
"1001137501","375","PEARL STREET",,"NEW YORK","10038","NY","MANHATTAN","40.710207","-74.001125","101","1","29","1001389","Chinatown"
"1001170001","185","PARK ROW",,"NEW YORK","10038","NY","MANHATTAN","40.713141","-74.000115","103","1","27","1077407","Chinatown"
"1001237501","233","BROADWAY",,"NEW YORK","10007","NY","MANHATTAN","40.712265","-74.007892","101","1","21","1087167","SoHo-TriBeCa-Civic Center-Little Italy"
"1001240004","9","PARK PLACE",,"NEW YORK","10007","NY","MANHATTAN","40.712792","-74.008217","101","1","21","1001399","SoHo-TriBeCa-Civic Center-Little Italy"
"1001240024","250","BROADWAY",,"NEW YORK","10007","NY","MANHATTAN","40.712982","-74.007301","101","1","21","1001408","SoHo-TriBeCa-Civic Center-Little Italy"
"1001250020","100","CHURCH STREET",,"NEW YORK","10007","NY","MANHATTAN","40.712968","-74.00949","101","1","21","1001409","SoHo-TriBeCa-Civic Center-Little Italy"
"1001260013",,"PARK PLACE",,"NEW YORK","10007","NY",,,,,,,,
"1001260013","53","PARK PLACE",,"NEW YORK","10007","NY","MANHATTAN","40.713764","-74.010356","101","1","21","1001412","SoHo-TriBeCa-Civic Center-Little Italy"
"1001260027","38","MURRAY STREET",,"NEW YORK","10007","NY","MANHATTAN","40.713937","-74.009159","101","1","21","1001410","SoHo-TriBeCa-Civic Center-Little Italy"
"1001280002","123","BARCLAY STREET",,"NEW YORK","10007","NY","MANHATTAN","40.714153","-74.012788","101","1","21","1001416","SoHo-TriBeCa-Civic Center-Little Italy"
"1001280026","125","BARCLAY STREET",,"NEW YORK","10007","NY","MANHATTAN","40.714181","-74.012845","101","1","21","1001417","SoHo-TriBeCa-Civic Center-Little Italy"
"1001327501","275","GREENWICH STREET",,"NEW YORK","10007","NY","MANHATTAN","40.715221","-74.01124","101","1","21","1081076","SoHo-TriBeCa-Civic Center-Little Italy"
"1001327503","71","MURRAY STREET",,"NEW YORK","10007","NY","MANHATTAN","40.714582","-74.010569","101","1","21","1001421","SoHo-TriBeCa-Civic Center-Little Italy"
"1001340025","258","BROADWAY",,"NEW YORK","10007","NY","MANHATTAN","40.713764","-74.006648","101","1","31","1077426","SoHo-TriBeCa-Civic Center-Little Italy"
"1001347505","25","MURRAY STREET",,"NEW YORK","10007","NY","MANHATTAN","40.713588","-74.008361","101","1","21","1001451","SoHo-TriBeCa-Civic Center-Little Italy"
"1001357501","261","BROADWAY",,"NEW YORK","10007","NY","MANHATTAN","40.713696","-74.00672","101","1","21","1001473","SoHo-TriBeCa-Civic Center-Little Italy"
"1001357504","270","BROADWAY",,"NEW YORK","10007","NY","MANHATTAN","40.714022","-74.006442","101","1","21","1079153","SoHo-TriBeCa-Civic Center-Little Italy"
"1001367502","38","WARREN STREET",,"NEW YORK","10007","NY","MANHATTAN","40.714489","-74.008643","101","1","21","1079156","SoHo-TriBeCa-Civic Center-Little Italy"
"1001367505","85","WEST BROADWAY",,"NEW YORK","10007","NY","MANHATTAN","40.715205","-74.009476","101","1","21","1088224","SoHo-TriBeCa-Civic Center-Little Italy"
"1001370001","68","WARREN STREET",,"NEW YORK","10007","NY","MANHATTAN","40.715013","-74.009801","101","1","21","1082034","SoHo-TriBeCa-Civic Center-Little Italy"
"1001370005","76","WARREN STREET",,"NEW YORK","10007","NY","MANHATTAN","40.715103","-74.010003","101","1","21","1001488","SoHo-TriBeCa-Civic Center-Little Italy"
"1001377502","295","GREENWICH STREET",,"NEW YORK","10007","NY","MANHATTAN","40.716009","-74.011017","101","1","21","1066187","SoHo-TriBeCa-Civic Center-Little Italy"
"1001400005","147","CHAMBERS STREET",,"NEW YORK","10007","NY","MANHATTAN","40.715817","-74.00987","101","1","21","1085521","SoHo-TriBeCa-Civic Center-Little Italy"
"1001407501","165","CHAMBERS STREET",,"NEW YORK","10007","NY","MANHATTAN","40.716124","-74.010551","101","1","21","1066317","SoHo-TriBeCa-Civic Center-Little Italy"
"1001407502","311","GREENWICH STREET",,"NEW YORK","10013","NY","MANHATTAN","40.716745","-74.010862","101","1","21","1075706","SoHo-TriBeCa-Civic Center-Little Italy"
"1001407505","157","CHAMBERS STREET",,"NEW YORK","10007","NY","MANHATTAN","40.715987","-74.010248","101","1","21","1001505","SoHo-TriBeCa-Civic Center-Little Italy"
"1001417504","166","DUANE STREET",,"NEW YORK","10013","NY","MANHATTAN","40.717036","-74.009354","101","1","39","1001531","SoHo-TriBeCa-Civic Center-Little Italy"
"1001427501","270","GREENWICH STREET",,"NEW YORK","10007","NY","MANHATTAN","40.71532","-74.011229","101","1","21","1087715","SoHo-TriBeCa-Civic Center-Little Italy"
"1001427502","200","CHAMBERS STREET",,"NEW YORK","10007","NY","MANHATTAN","40.716863","-74.012207","101","1","21","1087716","SoHo-TriBeCa-Civic Center-Little Italy"
"1001430001","47","HUDSON STREET",,"NEW YORK","10013","NY","MANHATTAN","40.717316","-74.009062","101","1","39","1001543","SoHo-TriBeCa-Civic Center-Little Italy"
"1001430004","55","HUDSON STREET",,"NEW YORK","10013","NY","MANHATTAN","40.717648","-74.009004","101","1","39","1001544","SoHo-TriBeCa-Civic Center-Little Italy"
"1001430021","335","GREENWICH STREET",,"NEW YORK","10013","NY","MANHATTAN","40.717939","-74.010559","101","1","39","1001553","SoHo-TriBeCa-Civic Center-Little Italy"
"1001440040","56","HUDSON STREET",,"NEW YORK","10013","NY","MANHATTAN","40.717722","-74.008968","101","1","33","1001572","SoHo-TriBeCa-Civic Center-Little Italy"
"1001457501","105","CHAMBERS STREET",,"NEW YORK","10007","NY","MANHATTAN","40.715049","-74.008185","101","1","21","1001591","SoHo-TriBeCa-Civic Center-Little Italy"
"1001477509","137","DUANE STREET",,"NEW YORK","10013","NY","MANHATTAN","40.716281","-74.007691","101","1","33","1001607","SoHo-TriBeCa-Civic Center-Little Italy"
"1001480010","63","THOMAS STREET",,"NEW YORK","10013","NY","MANHATTAN","40.716863","-74.007366","101","1","33","1001621","SoHo-TriBeCa-Civic Center-Little Italy"
"1001480015","40","WORTH STREET",,"NEW YORK","10013","NY","MANHATTAN","40.717363","-74.006897","101","1","33","1001622","SoHo-TriBeCa-Civic Center-Little Italy"
"1001490012","97","CHAMBERS STREET",,"NEW YORK","10007","NY","MANHATTAN","40.71475","-74.007536","101","1","21","1001630","SoHo-TriBeCa-Civic Center-Little Italy"
"1001490033","277","BROADWAY",,"NEW YORK","10007","NY","MANHATTAN","40.714349","-74.006172","101","1","21","1001635","SoHo-TriBeCa-Civic Center-Little Italy"
"1001500031","299","BROADWAY",,"NEW YORK","10007","NY","MANHATTAN","40.715046","-74.005591","101","1","33","1001648","SoHo-TriBeCa-Civic Center-Little Italy"
"1001500038","291","BROADWAY",,"NEW YORK","10007","NY","MANHATTAN","40.714824","-74.005779","101","1","33","1001649","SoHo-TriBeCa-Civic Center-Little Italy"
"1001507501","70","READE STREET",,"NEW YORK","10007","NY","MANHATTAN","40.715095","-74.006782","101","1","33","1001640","SoHo-TriBeCa-Civic Center-Little Italy"
"1001510001","101","DUANE STREET",,"NEW YORK","10007","NY","MANHATTAN","40.715477","-74.005927","101","1","33","1001650","SoHo-TriBeCa-Civic Center-Little Italy"
"1001510010","117","DUANE STREET",,"NEW YORK","10007","NY","MANHATTAN","40.715809","-74.006659","101","1","33","1001652","SoHo-TriBeCa-Civic Center-Little Italy"
"1001510032","305","BROADWAY",,"NEW YORK","10007","NY","MANHATTAN","40.715318","-74.00536","101","1","33","1001659","SoHo-TriBeCa-Civic Center-Little Italy"
"1001531001","280","BROADWAY",,"NEW YORK","10007","NY","MANHATTAN","40.714417","-74.006089","101","1","31","1079215","SoHo-TriBeCa-Civic Center-Little Italy"
"1001540001","290","BROADWAY",,"NEW YORK","10007","NY","MANHATTAN","40.714807","-74.005764","101","1","31","1083094","SoHo-TriBeCa-Civic Center-Little Italy"
"1001550003","52","DUANE STREET",,"NEW YORK","10007","NY","MANHATTAN","40.714387","-74.003773","101","1","31","1001673","SoHo-TriBeCa-Civic Center-Little Italy"
"1001580001","27","DUANE STREET",,"NEW YORK","10007","NY","MANHATTAN","40.713122","-74.002936","101","1","29","1001675","Chinatown"
"1001590040","128","PARK ROW",,"NEW YORK","10007","NY","MANHATTAN","40.71282","-74.001782","101","1","29","1001678","Chinatown"
"1001590060","100","PARK ROW",,"NEW YORK","10007","NY","MANHATTAN","40.712669","-74.002438","101","1","29","1001680","Chinatown"
"1001600001","464","PEARL STREET",,"NEW YORK","10038","NY","MANHATTAN","40.712793","-74.000877","103","1","27","1087763","Chinatown"
"1001610001","196","PARK ROW",,"NEW YORK","10038","NY","MANHATTAN","40.713273","-73.99947","103","1","29","1077438","Chinatown"
"1001610003",,"PARK ROW",,"NEW YORK","0","NY",,,,,,,,
"1001700001","336","BROADWAY",,"NEW YORK","10013","NY","MANHATTAN","40.716336","-74.004477","101","1","31","1085786","SoHo-TriBeCa-Civic Center-Little Italy"
"1001700020","95","WORTH STREET",,"NEW YORK","10013","NY","MANHATTAN","40.716182","-74.004304","101","1","31","1085786","SoHo-TriBeCa-Civic Center-Little Italy"
"1001710001","350","BROADWAY",,"NEW YORK","10013","NY","MANHATTAN","40.716954","-74.003943","101","1","31","1001838","SoHo-TriBeCa-Civic Center-Little Italy"
"1001720001","364","BROADWAY",,"NEW YORK","10013","NY","MANHATTAN","40.71747","-74.003503","101","1","31","1001862","SoHo-TriBeCa-Civic Center-Little Italy"
"1001720020","76","LAFAYETTE STREET",,"NEW YORK","10013","NY","MANHATTAN","40.716968","-74.001883","101","1","31","1001870","SoHo-TriBeCa-Civic Center-Little Italy"
"1001727501","374","BROADWAY",,"NEW YORK","10013","NY","MANHATTAN","40.717849","-74.003182","101","1","31","1001866","SoHo-TriBeCa-Civic Center-Little Italy"
"1001727504","50","FRANKLIN STREET",,"NEW YORK","10013","NY","MANHATTAN","40.716951","-74.0025","101","1","31","1088222","SoHo-TriBeCa-Civic Center-Little Italy"
"1001730027","343","BROADWAY",,"NEW YORK","10013","NY","MANHATTAN","40.716619","-74.004257","101","1","33","1087082","SoHo-TriBeCa-Civic Center-Little Italy"
"1001737501","66","LEONARD STREET",,"NEW YORK","10013","NY","MANHATTAN","40.717549","-74.005523","101","1","33","1001877","SoHo-TriBeCa-Civic Center-Little Italy"
"1001737502","65","WORTH STREET",,"NEW YORK","10013","NY","MANHATTAN","40.716926","-74.005905","101","1","33","1079275","SoHo-TriBeCa-Civic Center-Little Italy"
"1001737504","335","BROADWAY",,"NEW YORK","10013","NY","MANHATTAN","40.716344","-74.004495","101","1","33","1001883","SoHo-TriBeCa-Civic Center-Little Italy"
"1001750031","371","BROADWAY",,"NEW YORK","10013","NY","MANHATTAN","40.717744","-74.003297","101","1","33","1001937","SoHo-TriBeCa-Civic Center-Little Italy"
"1001750033","365","BROADWAY",,"NEW YORK","10013","NY","MANHATTAN","40.717478","-74.003521","101","1","33","1001939","SoHo-TriBeCa-Civic Center-Little Italy"
"1001757501","377","BROADWAY",,"NEW YORK","10013","NY","MANHATTAN","40.717914","-74.003153","101","1","33","1001940","SoHo-TriBeCa-Civic Center-Little Italy"
"1001757504","90","FRANKLIN STREET",,"NEW YORK","10013","NY","MANHATTAN","40.718137","-74.005004","101","1","33","1001924","SoHo-TriBeCa-Civic Center-Little Italy"
"1001760001","57","WORTH STREET",,"NEW YORK","10013","NY","MANHATTAN","40.717231","-74.006565","101","1","33","1001957","SoHo-TriBeCa-Civic Center-Little Italy"
"1001760018","40","LEONARD STREET",,"NEW YORK","10013","NY","MANHATTAN","40.718172","-74.006869","101","1","33","1001967","SoHo-TriBeCa-Civic Center-Little Italy"
"1001760026","56","LEONARD STREET",,"NEW YORK","10013","NY","MANHATTAN","40.717898","-74.006273","101","1","33","1088646","SoHo-TriBeCa-Civic Center-Little Italy"
"1001790017","84","HUDSON STREET",,"NEW YORK","10013","NY","MANHATTAN","40.718584","-74.00882","101","1","33","1001994","SoHo-TriBeCa-Civic Center-Little Italy"
"1001790032","176","WEST BROADWAY",,"NEW YORK","10013","NY","MANHATTAN","40.717887","-74.00737","101","1","33","1002002","SoHo-TriBeCa-Civic Center-Little Italy"
"1001790032","176","WEST BROADWAY",,"NEW YORK","10013","NY","MANHATTAN","40.717887","-74.00737","101","1","33","1002002","SoHo-TriBeCa-Civic Center-Little Italy"
"1001790056","100","HUDSON STREET",,"NEW YORK","10013","NY","MANHATTAN","40.71919","-74.008705","101","1","33","1002012","SoHo-TriBeCa-Civic Center-Little Italy"
"1001790066","139","FRANKLIN STREET",,"NEW YORK","10013","NY","MANHATTAN","40.719177","-74.007547","101","1","33","1002017","SoHo-TriBeCa-Civic Center-Little Italy"
"1001797506","14","LEONARD STREET",,"NEW YORK","10013","NY","MANHATTAN","40.71874","-74.008124","101","1","33","1001998","SoHo-TriBeCa-Civic Center-Little Italy"
"1001817503","6","HARRISON STREET",,"NEW YORK","10013","NY","MANHATTAN","40.718691","-74.009253","101","1","39","1066447","SoHo-TriBeCa-Civic Center-Little Italy"
"1001817504","93","HUDSON STREET",,"NEW YORK","10013","NY","MANHATTAN","40.718856","-74.008791","101","1","39","1075728","SoHo-TriBeCa-Civic Center-Little Italy"
"1001860001","107","NORTH MOORE STREET",,"NEW YORK","10013","NY","MANHATTAN","40.72028","-74.011696","101","1","39","1082816","SoHo-TriBeCa-Civic Center-Little Italy"
"1001870016","377","GREENWICH STREET",,"NEW YORK","10013","NY","MANHATTAN","40.719783","-74.010227","101","1","39","1087575","SoHo-TriBeCa-Civic Center-Little Italy"
"1001870030","105","HUDSON STREET",,"NEW YORK","10013","NY","MANHATTAN","40.719396","-74.00869","101","1","39","1083366","SoHo-TriBeCa-Civic Center-Little Italy"
"1001877501","375","GREENWICH STREET",,"NEW YORK","10013","NY","MANHATTAN","40.719704","-74.010242","101","1","39","1002114","SoHo-TriBeCa-Civic Center-Little Italy"
"1001887503","53","NORTH MOORE STREET",,"NEW YORK","10013","NY","MANHATTAN","40.720006","-74.009008","101","1","39","1002127","SoHo-TriBeCa-Civic Center-Little Italy"
"1001887505","48","BEACH STREET",,"NEW YORK","10013","NY","MANHATTAN","40.720634","-74.008831","101","1","39","1002125","SoHo-TriBeCa-Civic Center-Little Italy"
"1001890030","20","NORTH MOORE STREET",,"NEW YORK","10013","NY","MANHATTAN","40.719811","-74.007229","101","1","33","1002147","SoHo-TriBeCa-Civic Center-Little Italy"
"1001897501","220","WEST BROADWAY",,"NEW YORK","10013","NY","MANHATTAN","40.719246","-74.006313","101","1","33","1002154","SoHo-TriBeCa-Civic Center-Little Italy"
"1001897502","104","HUDSON STREET",,"NEW YORK","10013","NY","MANHATTAN","40.719394","-74.008669","101","1","33",,"SoHo-TriBeCa-Civic Center-Little Italy"
"1001907503","31","NORTH MOORE STREET",,"NEW YORK","10013","NY","MANHATTAN","40.719868","-74.007652","101","1","33","1002161","SoHo-TriBeCa-Civic Center-Little Italy"
"1001907504","27","NORTH MOORE STREET",,"NEW YORK","10013","NY","MANHATTAN","40.719855","-74.007486","101","1","33","1002167","SoHo-TriBeCa-Civic Center-Little Italy"
"1001907505","25","NORTH MOORE STREET",,"NEW YORK","10013","NY","MANHATTAN","40.719847","-74.007403","101","1","33","1002160","SoHo-TriBeCa-Civic Center-Little Italy"
"1001910001","2","AVENUE OF THE AMER",,"NEW YORK","10013","NY","MANHATTAN","40.719128","-74.005166","101","1","33","1088221","SoHo-TriBeCa-Civic Center-Little Italy"
"1001920001","16","WALKER STREET",,"NEW YORK","10013","NY","MANHATTAN","40.719753","-74.004978","101","1","33","1002192","SoHo-TriBeCa-Civic Center-Little Italy"
"1001937501","395","BROADWAY",,"NEW YORK","10013","NY","MANHATTAN","40.71845","-74.002702","101","1","33","1002221","SoHo-TriBeCa-Civic Center-Little Italy"
"1001940042","60","WALKER STREET",,"NEW YORK","10013","NY","MANHATTAN","40.718859","-74.003023","101","1","33","1002310","SoHo-TriBeCa-Civic Center-Little Italy"
"1001950007","396","BROADWAY",,"NEW YORK","10013","NY","MANHATTAN","40.718488","-74.002644","101","1","31","1002323","SoHo-TriBeCa-Civic Center-Little Italy"
"1001950017","91","WALKER STREET",,"NEW YORK","10013","NY","MANHATTAN","40.718046","-74.00127","101","1","31","1002329","SoHo-TriBeCa-Civic Center-Little Italy"
"1001960005","408","BROADWAY",,"NEW YORK","10013","NY","MANHATTAN","40.718946","-74.002255","101","1","31","1002338","SoHo-TriBeCa-Civic Center-Little Italy"
"1001970007","101","LAFAYETTE STREET",,"NEW YORK","10013","NY","MANHATTAN","40.717783","-74.001111","101","1","31","1002356","SoHo-TriBeCa-Civic Center-Little Italy"
"1001977502","139","CENTRE STREET",,"NEW YORK","10013","NY","MANHATTAN","40.717217","-74.000602","101","1","31","1002357","SoHo-TriBeCa-Civic Center-Little Italy"
"1001980126","125","WALKER STREET",,"NEW YORK","10013","NY","MANHATTAN","40.717451","-73.99982","101","1","29","1084583","Chinatown"
"1002027501","2","ELIZABETH STREET",,"NEW YORK","10013","NY","MANHATTAN","40.715529","-73.997601","103","1","29","1002434","Chinatown"
"1002047501","158","HESTER STREET",,"NEW YORK","10013","NY","MANHATTAN","40.717711","-73.996681","102","1","41","1087278","SoHo-TriBeCa-Civic Center-Little Italy"
"1002067501","123","BAXTER STREET",,"NEW YORK","10013","NY","MANHATTAN","40.718161","-73.998918","102","1","41","1086548","SoHo-TriBeCa-Civic Center-Little Italy"
"1002087501","129","LAFAYETTE STREET",,"NEW YORK","10013","NY","MANHATTAN","40.718897","-74.000094","102","1","45","1002673","SoHo-TriBeCa-Civic Center-Little Italy"
"1002090019","138","LAFAYETTE STREET",,"NEW YORK","10013","NY","MANHATTAN","40.719084","-73.999953","102","1","45","1002687","SoHo-TriBeCa-Civic Center-Little Italy"
"1002090028","261","CANAL STREET",,"NEW YORK","10013","NY","MANHATTAN","40.718721","-74.000924","102","1","45","1002692","SoHo-TriBeCa-Civic Center-Little Italy"
"1002120007","30","VARICK STREET",,"NEW YORK","10013","NY","MANHATTAN","40.720626","-74.006652","101","1","33","1002733","SoHo-TriBeCa-Civic Center-Little Italy"
"1002120018","52","VARICK STREET",,"NEW YORK","10013","NY","MANHATTAN","40.721222","-74.006548","101","1","33","1002735","SoHo-TriBeCa-Civic Center-Little Italy"
"1002120045","2","YORK STREET",,"NEW YORK","10013","NY","MANHATTAN","40.721068","-74.005758","101","1","33","1002738","SoHo-TriBeCa-Civic Center-Little Italy"
"1002127501","260","WEST BROADWAY",,"NEW YORK","10013","NY","MANHATTAN","40.720404","-74.00544","101","1","33","1002740","SoHo-TriBeCa-Civic Center-Little Italy"
"1002127503","1","YORK STREET",,"NEW YORK","10013","NY","MANHATTAN","40.721085","-74.005754","101","1","33","1002736","SoHo-TriBeCa-Civic Center-Little Italy"
"1002147502","145","HUDSON STREET",,"NEW YORK","10013","NY","MANHATTAN","40.721073","-74.008398","101","1","39","1002803","SoHo-TriBeCa-Civic Center-Little Italy"
"1002147503","7","HUBERT STREET",,"NEW YORK","10013","NY","MANHATTAN","40.721367","-74.008911","101","1","39","1086551","SoHo-TriBeCa-Civic Center-Little Italy"
"1002157502","161","HUDSON STREET",,"NEW YORK","10013","NY","MANHATTAN","40.721798","-74.008272","101","1","39","1086556","SoHo-TriBeCa-Civic Center-Little Italy"
"1002157504","415","GREENWICH STREET",,"NEW YORK","10013","NY","MANHATTAN","40.721562","-74.009885","101","1","39","1002807","SoHo-TriBeCa-Civic Center-Little Italy"
"1002157505","157","HUDSON STREET",,"NEW YORK","10013","NY","MANHATTAN","40.721647","-74.008298","101","1","39","1088445","SoHo-TriBeCa-Civic Center-Little Italy"
"1002160001","235","WEST STREET",,"NEW YORK","10013","NY","MANHATTAN","40.72107","-74.012017","101","1","39","1002108","SoHo-TriBeCa-Civic Center-Little Italy"
"1002170014","401","WASHINGTON STREET",,"NEW YORK","10013","NY","MANHATTAN","40.721759","-74.010628","101","1","39","1002818","SoHo-TriBeCa-Civic Center-Little Italy"
"1002170017","422","GREENWICH STREET",,"NEW YORK","10013","NY","MANHATTAN","40.722026","-74.009802","101","1","39","1090481","SoHo-TriBeCa-Civic Center-Little Italy"
"1002177501","79","LAIGHT STREET",,"NEW YORK","10013","NY","MANHATTAN","40.72221","-74.010722","101","1","39","1002815","SoHo-TriBeCa-Civic Center-Little Italy"
"1002180024","260","WEST STREET",,"NEW YORK","10013","NY","MANHATTAN","40.722728","-74.011646","101","1","39","1002831","SoHo-TriBeCa-Civic Center-Little Italy"
"1002187501","92","LAIGHT STREET",,"NEW YORK","10013","NY","MANHATTAN","40.722275","-74.011195","101","1","39","1002832","SoHo-TriBeCa-Civic Center-Little Italy"
"1002197501","429","GREENWICH STREET",,"NEW YORK","10013","NY","MANHATTAN","40.722221","-74.009741","101","1","39","1002836","SoHo-TriBeCa-Civic Center-Little Italy"
"1002200031","174","HUDSON STREET",,"NEW YORK","10013","NY","MANHATTAN","40.722374","-74.00815","101","1","33","1002850","SoHo-TriBeCa-Civic Center-Little Italy"
"1002207502","28","LAIGHT STREET",,"NEW YORK","10013","NY","MANHATTAN","40.721858","-74.007082","101","1","33","1066500","SoHo-TriBeCa-Civic Center-Little Italy"
"1002207503","38","LAIGHT STREET",,"NEW YORK","10013","NY","MANHATTAN","40.721916","-74.007634","101","1","33","1086557","SoHo-TriBeCa-Civic Center-Little Italy"
"1002210030","200","HUDSON STREET",,"NEW YORK","10013","NY","MANHATTAN","40.722992","-74.008031","101","1","33","1002854","SoHo-TriBeCa-Civic Center-Little Italy"
"1002220001","443","GREENWICH STREET",,"NEW YORK","10013","NY","MANHATTAN","40.722882","-74.009625","101","1","39","1002856","SoHo-TriBeCa-Civic Center-Little Italy"
"1002227501","28","VESTRY STREET",,"NEW YORK","10013","NY","MANHATTAN","40.72266","-74.008348","101","1","39","1002859","SoHo-TriBeCa-Civic Center-Little Italy"
"1002240001","450","WASHINGTON STREET",,"NEW YORK","10013","NY","MANHATTAN","40.72392","-74.010282","101","1","39","1087707","SoHo-TriBeCa-Civic Center-Little Italy"
"1002250008","111","WATTS STREET",,"NEW YORK","10013","NY","MANHATTAN","40.72401","-74.008691","101","1","39","1002933","SoHo-TriBeCa-Civic Center-Little Italy"
"1002257501","465","GREENWICH STREET",,"NEW YORK","10013","NY","MANHATTAN","40.72381","-74.009459","101","1","39","1002929","SoHo-TriBeCa-Civic Center-Little Italy"
"1002260001","431","CANAL STREET",,"NEW YORK","10013","NY","MANHATTAN","40.722726","-74.006534","102","1","37","1002934","SoHo-TriBeCa-Civic Center-Little Italy"
"1002270028","306","WEST BROADWAY",,"NEW YORK","10013","NY","MANHATTAN","40.721634","-74.004412","102","1","47","1087764","SoHo-TriBeCa-Civic Center-Little Italy"
"1002280020","325","WEST BROADWAY",,"NEW YORK","10013","NY","MANHATTAN","40.722045","-74.004041","102","1","47","1090164","SoHo-TriBeCa-Civic Center-Little Italy"
"1002287502","311","WEST BROADWAY",,"NEW YORK","10013","NY","MANHATTAN","40.72173","-74.004308","102","1","47","1087488","SoHo-TriBeCa-Civic Center-Little Italy"
"1002310026","107","GRAND STREET",,"NEW YORK","10013","NY","MANHATTAN","40.721183","-74.001335","102","1","47","1003017","SoHo-TriBeCa-Civic Center-Little Italy"
"1002310035","451","BROADWAY",,"NEW YORK","10013","NY","MANHATTAN","40.720484","-74.000974","102","1","47","1003020","SoHo-TriBeCa-Civic Center-Little Italy"
"1002317501","443","BROADWAY",,"NEW YORK","10013","NY","MANHATTAN","40.720302","-74.001129","102","1","47","1003023","SoHo-TriBeCa-Civic Center-Little Italy"
"1002330026","12","HOWARD STREET",,"NEW YORK","10013","NY","MANHATTAN","40.719281","-74.000014","102","1","45","1003051","SoHo-TriBeCa-Civic Center-Little Italy"
"1002330030","22","HOWARD STREET",,"NEW YORK","10013","NY","MANHATTAN","40.719421","-74.000317","102","1","45","1003052","SoHo-TriBeCa-Civic Center-Little Italy"
"1002377501","132","MULBERRY STREET",,"NEW YORK","10013","NY","MANHATTAN","40.718392","-73.997774","102","1","41","1066508","SoHo-TriBeCa-Civic Center-Little Italy"
"1002387501","128","MOTT STREET",,"NEW YORK","10013","NY","MANHATTAN","40.718362","-73.996793","102","1","41","1087662","SoHo-TriBeCa-Civic Center-Little Italy"
"1002397501","80","ELIZABETH STREET",,"NEW YORK","10013","NY","MANHATTAN","40.718046","-73.996035","102","1","41","1003115","SoHo-TriBeCa-Civic Center-Little Italy"
"1002430056","645","WATER STREET",,"NEW YORK","10002","NY","MANHATTAN","40.711383","-73.98265","103","1","202","1077586","Lower East Side"
"1002440019","605","WATER STREET",,"NEW YORK","10002","NY","MANHATTAN","40.711249","-73.98445","103","1","202","1003141","Lower East Side"
"1002440040","621","WATER STREET",,"NEW YORK","10002","NY","MANHATTAN","40.711307","-73.983761","103","1","202","1078940","Lower East Side"
"1002450001","286","SOUTH STREET",,"NEW YORK","10002","NY","MANHATTAN","40.710478","-73.986571","103","1","201","1003142","Lower East Side"
"1002470001","251","CHERRY STREET",,"NEW YORK","10002","NY","MANHATTAN","40.711162","-73.990225","103","1","6","1000000","Lower East Side"
"1002480015","82","RUTGERS SLIP",,"NEW YORK","10002","NY","MANHATTAN","40.710591","-73.989864","103","1","6","1085945","Lower East Side"
"1002480070","80","RUTGERS SLIP",,"NEW YORK","10002","NY","MANHATTAN","40.710632","-73.989871","103","1","6","1084418","Lower East Side"
"1002500001","220","SOUTH STREET",,"NEW YORK","10002","NY","MANHATTAN","40.709452","-73.99433","103","1","8","1003205","Chinatown"
"1002530001","2","MONROE STREET",,"NEW YORK","10002","NY","MANHATTAN","40.711418","-73.995978","103","1","8","1077585","Chinatown"
"1002550001","45","PIKE STREET",,"NEW YORK","10002","NY","MANHATTAN","40.712301","-73.992371","103","1","6","1077508","Lower East Side"
"1002560001","300","CHERRY STREET",,"NEW YORK","10002","NY","MANHATTAN","40.711458","-73.987639","103","1","6","1077517","Lower East Side"
"1002560014","272","CHERRY STREET",,"NEW YORK","10002","NY","MANHATTAN","40.711357","-73.988674","103","1","6",,"Lower East Side"
"1002580001","318","CHERRY STREET",,"NEW YORK","10002","NY","MANHATTAN","40.711565","-73.986546","103","1","201",,"Lower East Side"
"1002590001","604","WATER STREET",,"NEW YORK","10002","NY","MANHATTAN","40.71126","-73.984533","103","1","202","1003212","Lower East Side"
"1002590071","35","MONTGOMERY STREET",,"NEW YORK","10002","NY","MANHATTAN","40.713053","-73.985045","103","1","202","1003215","Lower East Side"
"1002600001","636","WATER STREET",,"NEW YORK","10002","NY","MANHATTAN","40.711397","-73.98265","103","2","202","1077528","Lower East Side"
"1002600075","668","WATER STREET",,"NEW YORK","10002","NY","MANHATTAN","40.711477","-73.98155","103","2","202","1083388","Lower East Side"
"1002630001","14","JACKSON STREET",,"NEW YORK","10002","NY","MANHATTAN","40.713516","-73.980839","103","2","202","1083396","Lower East Side"
"1002630008","453","F D R DRIVE",,"NEW YORK","10002","NY","MANHATTAN","40.712862","-73.977798","103","2","202","1083400","Lower East Side"
"1002670001","305","MADISON STREET",,"NEW YORK","10002","NY","MANHATTAN","40.713129","-73.984637","103","1","202","1083402","Lower East Side"
"1002670037","371","MADISON STREET",,"NEW YORK","10002","NY","MANHATTAN","40.713414","-73.982126","103","2","202","1003221","Lower East Side"
"1002747502","148","MADISON STREET",,"NEW YORK","10002","NY","MANHATTAN","40.712411","-73.992991","103","1","8","1084603","Chinatown"
"1002777501","25","MARKET STREET",,"NEW YORK","10002","NY","MANHATTAN","40.71285","-73.994449","103","1","8","1077812","Chinatown"
"1002797502","11","EAST BROADWAY",,"NEW YORK","10038","NY","MANHATTAN","40.713435","-73.997533","103","1","27","1003379","Chinatown"
"1002820044","88","EAST BROADWAY",,"NEW YORK","10002","NY","MANHATTAN","40.713745","-73.994091","103","1","8","1066526","Chinatown"
"1002830018","143","HENRY STREET",,"NEW YORK","10002","NY","MANHATTAN","40.71335","-73.990611","103","1","6","1003567","Lower East Side"
"1002830024","10","RUTGERS STREET",,"NEW YORK","10002","NY","MANHATTAN","40.713797","-73.990174","103","1","6","1086071","Lower East Side"
"1002847503","173","EAST BROADWAY",,"NEW YORK","10002","NY","MANHATTAN","40.714099","-73.989611","103","1","6","1003623","Lower East Side"
"1002899001","1","BOWERY",,"NEW YORK","10002","NY","MANHATTAN","40.714146","-73.997432","103","1","16","1086088","Chinatown"
"1002940008","56","CANAL STREET",,"NEW YORK","10002","NY","MANHATTAN","40.714947","-73.992082","103","1","16","1003795","Chinatown"
"1003030015","91","BOWERY",,"NEW YORK","10002","NY","MANHATTAN","40.717132","-73.995505","103","1","16","1082490","Chinatown"
"1003070001","45","ALLEN STREET",,"NEW YORK","10002","NY","MANHATTAN","40.716605","-73.991714","103","1","16","1075792","Chinatown"
"1003070024","59","ALLEN STREET",,"NEW YORK","10002","NY","MANHATTAN","40.717104","-73.991458","103","1","16","1082491","Chinatown"
"1003110013","357","GRAND STREET",,"NEW YORK","10002","NY","MANHATTAN","40.716662","-73.989041","103","1","1401","1077604","Lower East Side"
"1003150001","409","GRAND STREET",,"NEW YORK","10002","NY","MANHATTAN","40.716001","-73.986905","103","1","1401","1077606","Lower East Side"
"1003210001","570","GRAND STREET",,"NEW YORK","10002","NY","MANHATTAN","40.713724","-73.979136","103","1","1001","1083419","Lower East Side"
"1003230001","288","DELANCEY STREET",,"NEW YORK","10002","NY","MANHATTAN","40.715917","-73.97985","103","2","1002","1078038","Lower East Side"
"1003250001","140","BARUCH PLACE",,"NEW YORK","10002","NY","MANHATTAN","40.71856","-73.976638","103","2","1002","1077594","Lower East Side"
"1003310001","504","GRAND STREET",,"NEW YORK","10002","NY","MANHATTAN","40.714672","-73.982328","103","1","12","1004064","Lower East Side"
"1003310065","484","GRAND STREET",,"NEW YORK","10002","NY","MANHATTAN","40.714927","-73.983284","103","1","12","1004065","Lower East Side"
"1003310120","530","GRAND STREET",,"NEW YORK","10002","NY","MANHATTAN","40.714413","-73.981437","103","1","12","1076783","Lower East Side"
"1003310200","275","DELANCEY STREET",,"NEW YORK","10002","NY","MANHATTAN","40.716118","-73.980553","103","1","12","1004067","Lower East Side"
"1003330001","87","DELANCEY STREET",,"NEW YORK","10002","NY","MANHATTAN","40.718957","-73.989571","103","1","18","1005288","Chinatown"
"1003360005","16","BIALYSTOKER PLACE",,"NEW YORK","10002","NY","MANHATTAN","40.715654","-73.982956","103","1","12",,"Lower East Side"
"1003380001","60","PITT STREET",,"NEW YORK","10002","NY","MANHATTAN","40.717872","-73.982702","103","2","2201","1082687","Lower East Side"
"1003410001","444","GRAND STREET",,"NEW YORK","10002","NY","MANHATTAN","40.715397","-73.984842","103","1","12","1004075","Lower East Side"
"1003410058","410","GRAND STREET",,"NEW YORK","10002","NY","MANHATTAN","40.715916","-73.98657","103","1","1402","1083423","Lower East Side"
"1003410070","131","BROOME STREET",,"NEW YORK","10002","NY","MANHATTAN","40.71622","-73.983991","103","1","12","1077598","Lower East Side"
"1003430043","80","RIDGE STREET",,"NEW YORK","10002","NY","MANHATTAN","40.717771","-73.983795","103","1","12","1086094","Lower East Side"
"1003430050","203","RIVINGTON STREET",,"NEW YORK","10002","NY","MANHATTAN","40.718465","-73.983077","103","1","12","1004081","Lower East Side"
"1003437501","78","RIDGE STREET",,"NEW YORK","10002","NY","MANHATTAN","40.717707","-73.983828","103","1","12","1075794","Lower East Side"
"1003450048","115","PITT STREET",,"NEW YORK","10002","NY","MANHATTAN","40.719697","-73.981822","103","2","2201","1004151","Lower East Side"
"1003460001","50","NORFOLK STREET",,"NEW YORK","10002","NY","MANHATTAN","40.717025","-73.988063","103","1","1402","1004154","Lower East Side"
"1003470080","150","BROOME STREET",,"NEW YORK","10002","NY","MANHATTAN","40.716415","-73.984575","103","1","1402","1004158","Lower East Side"
"1003497501","130","SUFFOLK STREET",,"NEW YORK","10002","NY","MANHATTAN","40.719692","-73.985718","103","1","3001","1086070","Chinatown"
"1003510001","62","ESSEX STREET",,"NEW YORK","10002","NY","MANHATTAN","40.717093","-73.988943","103","1","18",,"Chinatown"
"1003530054","114","NORFOLK STREET",,"NEW YORK","10002","NY","MANHATTAN","40.719088","-73.986988","103","1","1402","1004301","Lower East Side"
"1003537501","103","NORFOLK STREET",,"NEW YORK","10002","NY","MANHATTAN","40.718822","-73.987147","103","1","18","1087502","Chinatown"
"1003560001","10","AVENUE D",,"NEW YORK","10009","NY","MANHATTAN","40.720364","-73.978438","103","2","20","1078045","Lower East Side"
"1003620001","134","AVENUE D",,"NEW YORK","10009","NY","MANHATTAN","40.724447","-73.975464","103","2","24","1077504","Lower East Side"
"1003620010","132","AVENUE D",,"NEW YORK","10009","NY","MANHATTAN","40.72437","-73.975518","103","2","24","1077504","Lower East Side"
"1003670001","152","AVENUE D",,"NEW YORK","10009","NY","MANHATTAN","40.725076","-73.975009","103","2","24","1077543","Lower East Side"
"1003720041","9","AVENUE D",,"NEW YORK","10009","NY","MANHATTAN","40.720295","-73.978513","103","2","2202",,"Lower East Side"
"1003720060","274","EAST    2 STREET",,"NEW YORK","10009","NY","MANHATTAN","40.720767","-73.980476","103","2","2202","1086167","Lower East Side"
"1003750001","72","AVENUE C",,"NEW YORK","10009","NY","MANHATTAN","40.722947","-73.979674","103","2","2601","1075623","Lower East Side"
"1003760058","709","EAST    6 STREET",,"NEW YORK","10009","NY","MANHATTAN","40.723394","-73.978992","103","2","2602","1075828","Lower East Side"
"1003780001","126","AVENUE C",,"NEW YORK","10009","NY","MANHATTAN","40.724783","-73.978335","103","2","2602","1075834","Lower East Side"
"1003780017","720","EAST    9 STREET",,"NEW YORK","10009","NY","MANHATTAN","40.724958","-73.977217","103","2","2602","1084876","Lower East Side"
"1003790027","436","EAST   10 STREET",,"NEW YORK","10009","NY","MANHATTAN","40.725147","-73.975813","103","2","28","1004551","Lower East Side"
"1003820001","188","AVENUE C",,"NEW YORK","10009","NY","MANHATTAN","40.726797","-73.976837","103","2","28","1083146","Lower East Side"
"1003820100","162","AVENUE C",,"NEW YORK","10009","NY","MANHATTAN","40.725963","-73.977458","103","2","28","1078025","Lower East Side"
"1003857501","254","EAST    2 STREET",,"NEW YORK","10009","NY","MANHATTAN","40.721237","-73.981569","103","2","2202","1079679","Lower East Side"
"1003860033","274","EAST    4 STREET",,"NEW YORK","10009","NY","MANHATTAN","40.722862","-73.981561","103","2","2601","1004617","Lower East Side"
"1003870049","271","EAST    4 STREET",,"NEW YORK","10009","NY","MANHATTAN","40.722856","-73.981503","103","2","2601","1004651","Lower East Side"
"1003900011","308","EAST    8 STREET",,"NEW YORK","10009","NY","MANHATTAN","40.725178","-73.979583","103","2","2602","1085478","Lower East Side"
"1003907502","338","EAST    8 STREET",,"NEW YORK","10009","NY","MANHATTAN","40.724862","-73.978826","103","2","2602","1004715","Lower East Side"
"1003920010","350","EAST   10 STREET",,"NEW YORK","10009","NY","MANHATTAN","40.726605","-73.979302","103","2","28","1079685","Lower East Side"
"1003927501","143","AVENUE B",,"NEW YORK","10009","NY","MANHATTAN","40.726468","-73.980185","103","2","28","1004784","Lower East Side"
"1003940036","189","AVENUE C",,"NEW YORK","10009","NY","MANHATTAN","40.726835","-73.976834","103","2","28","1004910","Lower East Side"
"1003950009","606","EAST   13 STREET",,"NEW YORK","10009","NY","MANHATTAN","40.728636","-73.978294","103","2","28",,"Lower East Side"
"1003950012","620","EAST   13 STREET",,"NEW YORK","10009","NY","MANHATTAN","40.728458","-73.977865","103","2","28","1004927","Lower East Side"
"1003950022",,,,"NEW YORK","0","NY",,,,,,,,
"1003950022","205","AVENUE C",,"NEW YORK","10009","NY","MANHATTAN","40.727362","-73.976458","103","2","28","1082803","Lower East Side"
"1003960010","604","EAST   14 STREET",,"NEW YORK","10009","NY","MANHATTAN","40.729292","-73.977713","103","2","28","1077502","Lower East Side"
"1003960020","626","EAST   14 STREET",,"NEW YORK","10009","NY","MANHATTAN","40.728847","-73.976667","103","2","28","1004936","Lower East Side"
"1003970063","250","EAST HOUSTON STREET",,"NEW YORK","10002","NY","MANHATTAN","40.721937","-73.985321","103","2","3002","1004960","East Village"
"1003980008","156","EAST    3 STREET",,"NEW YORK","10009","NY","MANHATTAN","40.723417","-73.984754","103","2","3002","1004966","East Village"
"1003980035","24","AVENUE B",,"NEW YORK","10009","NY","MANHATTAN","40.722272","-73.983271","103","2","3002","1004976","East Village"
"1004000001","58","AVENUE A",,"NEW YORK","10009","NY","MANHATTAN","40.724344","-73.984768","103","2","32","1005010","East Village"
"1004000031","542","EAST    5 STREET",,"NEW YORK","10009","NY","MANHATTAN","40.724416","-73.983365","103","2","32","1005026","East Village"
"1004100048","107","RIVINGTON STREET",,"NEW YORK","10002","NY","MANHATTAN","40.719967","-73.988023","103","1","18","1075676","Chinatown"
"1004107501","101","LUDLOW STREET",,"NEW YORK","10002","NY","MANHATTAN","40.719111","-73.988864","103","1","18","1005320","Chinatown"
"1004120005","180","ORCHARD STREET",,"NEW YORK","10002","NY","MANHATTAN","40.721853","-73.988304","103","1","3001","1090121","Chinatown"
"1004120048","180","LUDLOW STREET",,"NEW YORK","10002","NY","MANHATTAN","40.721811","-73.987467","103","1","3001","1087953","Chinatown"
"1004120053",,"EAST HOUSTON STREET",,"NEW YORK","10002","NY",,,,,,,,
"1004120053","207","EAST HOUSTON STREET",,"NEW YORK","10002","NY","MANHATTAN","40.722401","-73.986904","103","1","3001","1087955","Chinatown"
"1004170001","224","ELDRIDGE STREET",,"NEW YORK","10002","NY","MANHATTAN","40.722092","-73.989938","103","1","3601","1005537","Chinatown"
"1004177501","190","ALLEN STREET",,"NEW YORK","10002","NY","MANHATTAN","40.722248","-73.988899","103","1","3001","1087667","Chinatown"
"1004200040","140","FORSYTH STREET",,"NEW YORK","10002","NY","MANHATTAN","40.720165","-73.991934","103","1","18","1087549","Chinatown"
"1004200047","41","RIVINGTON STREET",,"NEW YORK","10002","NY","MANHATTAN","40.720928","-73.991201","103","1","18","1005601","Chinatown"
"1004200062","169","ELDRIDGE STREET",,"NEW YORK","10002","NY","MANHATTAN","40.72017","-73.990949","103","1","18","1005602","Chinatown"
"1004257502","199","BOWERY",,"NEW YORK","10002","NY","MANHATTAN","40.72115","-73.993701","103","1","18","1087253","Chinatown"
"1004260005","223","BOWERY",,"NEW YORK","10002","NY","MANHATTAN","40.721949","-73.993402","103","1","3601",,"Chinatown"
"1004260006","225","BOWERY",,"NEW YORK","10002","NY","MANHATTAN","40.722009","-73.993376","103","1","3601","1089461","Chinatown"
"1004260012","235","BOWERY",,"NEW YORK","10002","NY","MANHATTAN","40.722424","-73.993225","103","1","3601","1005709","Chinatown"
"1004260029","195","CHRYSTIE STREET",,"NEW YORK","10002","NY","MANHATTAN","40.721922","-73.991904","103","1","3601","1005719","Chinatown"
"1004290021","117","EAST    2 STREET",,"NEW YORK","10009","NY","MANHATTAN","40.723466","-73.986893","103","2","3002","1005743","East Village"
"1004300001","40","1 AVENUE",,"NEW YORK","10009","NY","MANHATTAN","40.724315","-73.987669","103","2","3002","1005758","East Village"
"1004300010","112","EAST    3 STREET",,"NEW YORK","10009","NY","MANHATTAN","40.724334","-73.98694","103","2","3002",,"East Village"
"1004310001","60","1 AVENUE",,"NEW YORK","10009","NY","MANHATTAN","40.724905","-73.987243","103","2","32","1005759","East Village"
"1004310025","51","AVENUE A",,"NEW YORK","10009","NY","MANHATTAN","40.723988","-73.985053","103","2","32","1005761","East Village"
"1004310031","43","AVENUE A",,"NEW YORK","10009","NY","MANHATTAN","40.723746","-73.985226","103","2","32","1005762","East Village"
"1004320001","66","1 AVENUE",,"NEW YORK","10009","NY","MANHATTAN","40.725047","-73.987138","103","2","32",,"East Village"
"1004370001","150","1 AVENUE",,"NEW YORK","10009","NY","MANHATTAN","40.728261","-73.984785","103","2","34","1005894","East Village"
"1004410023","432","EAST   14 STREET",,"NEW YORK","10009","NY","MANHATTAN","40.730846","-73.981328","103","2","34","1000000","East Village"
"1004417503","421","EAST   13 STREET",,"NEW YORK","10009","NY","MANHATTAN","40.730388","-73.982418","103","2","34","1087654","East Village"
"1004430005","28","2 AVENUE",,"NEW YORK","10003","NY","MANHATTAN","40.7246","-73.990569","103","2","3602","1006080","East Village"
"1004450014","88","EAST    4 STREET",,"NEW YORK","10003","NY","MANHATTAN","40.726082","-73.989202","103","2","38","1085556","East Village"
"1004467502","99","EAST    3 STREET",,"NEW YORK","10003","NY","MANHATTAN","40.724732","-73.987842","103","2","38","1006183","East Village"
"1004520002","162","2 AVENUE",,"NEW YORK","10003","NY","MANHATTAN","40.729933","-73.986683","103","2","40","1006434","East Village"
"1004520006","170","2 AVENUE",,"NEW YORK","10003","NY","MANHATTAN","40.730216","-73.986484","103","2","40","1006435","East Village"
"1004530011","304","EAST   12 STREET",,"NEW YORK","10003","NY","MANHATTAN","40.730833","-73.985492","103","2","40","1082513","East Village"
"1004550001","222","2 AVENUE",,"NEW YORK","10003","NY","MANHATTAN","40.732","-73.985185","103","2","40","1006510","East Village"
"1004550005","224","2 AVENUE",,"NEW YORK","10003","NY","MANHATTAN","40.732082","-73.985127","103","2","40","1006511","East Village"
"1004550052","327","EAST   13 STREET",,"NEW YORK","10003","NY","MANHATTAN","40.73133","-73.984644","103","2","40","1006535","East Village"
"1004560007","285","BOWERY",,"NEW YORK","10003","NY","MANHATTAN","40.724307","-73.992532","103","2","3602","1087255","East Village"
"1004567501","11","2 AVENUE",,"NEW YORK","10003","NY","MANHATTAN","40.724101","-73.990948","103","2","3602","1088698","East Village"
"1004570009","1","EAST    2 STREET",,"NEW YORK","10003","NY","MANHATTAN","40.725465","-73.991879","103","2","3602","1086133","East Village"
"1004570028","21","2 AVENUE",,"NEW YORK","10003","NY","MANHATTAN","40.724427","-73.990721","103","2","3602","1087698","East Village"
"1004580006","339","BOWERY",,"NEW YORK","10003","NY","MANHATTAN","40.726162","-73.991868","103","2","3602","1006545","East Village"
"1004600001","1","COOPER SQUARE",,"NEW YORK","10003","NY","MANHATTAN","40.727153","-73.991518","103","2","38","1006580","East Village"
"1004620001","41","COOPER SQUARE",,"NEW YORK","10003","NY","MANHATTAN","40.728361","-73.99076","103","2","38","1006642","East Village"
"1004620004","3","TARAS SHEVCHENKO PL",,"NEW YORK","10003","NY","MANHATTAN","40.728328","-73.990049","103","2","38",,"East Village"
"1004620007","6","TARAS SHEVCHENKO PL",,"NEW YORK","10003","NY","MANHATTAN","40.728602","-73.989847","103","2","38","1006644","East Village"
"1004620035","223","EAST    6 STREET",,"NEW YORK","10003","NY","MANHATTAN","40.727759","-73.989378","103","2","38","1084755","East Village"
"1004627501","24","EAST    7 STREET",,"NEW YORK","10003","NY","MANHATTAN","40.728446","-73.989234","103","2","38","1084906","East Village"
"1004649006","29","3 AVENUE",,"NEW YORK","10003","NY","MANHATTAN","40.729793","-73.989703","103","2","38","1006737","East Village"
"1004650001","31","3 AVENUE",,"NEW YORK","10003","NY","MANHATTAN","40.729807","-73.989692","103","2","38","1006764","East Village"
"1004670001","67","3 AVENUE",,"NEW YORK","10003","NY","MANHATTAN","40.731415","-73.988533","103","2","40","1006826","East Village"
"1004670022","226","EAST   12 STREET",,"NEW YORK","10003","NY","MANHATTAN","40.731484","-73.987032","103","2","40","1006834","East Village"
"1004670025","232","EAST   12 STREET",,"NEW YORK","10003","NY","MANHATTAN","40.731454","-73.986957","103","2","40","1006835","East Village"
"1004670031","181","2 AVENUE",,"NEW YORK","10003","NY","MANHATTAN","40.730647","-73.986192","103","2","40","1006836","East Village"
"1004680001","87","3 AVENUE",,"NEW YORK","10003","NY","MANHATTAN","40.732055","-73.988075","103","2","40","1006851","East Village"
"1004690030","223","2 AVENUE",,"NEW YORK","10003","NY","MANHATTAN","40.732129","-73.98512","103","2","40","1006906","East Village"
"1004697502","105","3 AVENUE",,"NEW YORK","10003","NY","MANHATTAN","40.732502","-73.987743","103","2","40","1066698","East Village"
"1004697505","123","3 AVENUE",,"NEW YORK","10003","NY","MANHATTAN","40.732977","-73.986841","103","2","40","1088500","East Village"
"1004697506","214","EAST   14 STREET",,"NEW YORK","10003","NY","MANHATTAN","40.733051","-73.986628","103","2","40","1089710","East Village"
"1004730001","462","BROADWAY",,"NEW YORK","10013","NY","MANHATTAN","40.720978","-74.00053","102","1","45","1079877","SoHo-TriBeCa-Civic Center-Little Italy"
"1004730010","478","BROADWAY",,"NEW YORK","10013","NY","MANHATTAN","40.721422","-74.000152","102","1","45","1079887","SoHo-TriBeCa-Civic Center-Little Italy"
"1004730051","134","GRAND STREET",,"NEW YORK","10013","NY","MANHATTAN","40.720382","-73.99974","102","1","45","1084588","SoHo-TriBeCa-Civic Center-Little Italy"
"1004737501","476","BROADWAY",,"NEW YORK","10013","NY","MANHATTAN","40.721367","-74.000198","102","1","45","1007013","SoHo-TriBeCa-Civic Center-Little Italy"
"1004737502","30","CROSBY STREET",,"NEW YORK","10013","NY","MANHATTAN","40.720785","-73.999582","102","1","45","1079134","SoHo-TriBeCa-Civic Center-Little Italy"
"1004740029","487","BROADWAY",,"NEW YORK","10013","NY","MANHATTAN","40.721656","-73.999982","102","1","47","1007047","SoHo-TriBeCa-Civic Center-Little Italy"
"1004740030","483","BROADWAY",,"NEW YORK","10013","NY","MANHATTAN","40.721543","-74.000076","102","1","47","1007048","SoHo-TriBeCa-Civic Center-Little Italy"
"1004740033","479","BROADWAY",,"NEW YORK","10013","NY","MANHATTAN","40.721433","-74.00017","102","1","47","1007050","SoHo-TriBeCa-Civic Center-Little Italy"
"1004747506","40","MERCER STREET",,"NEW YORK","10013","NY","MANHATTAN","40.721447","-74.00127","102","1","47","1087559","SoHo-TriBeCa-Civic Center-Little Italy"
"1004757505","42","WOOSTER STREET",,"NEW YORK","10013","NY","MANHATTAN","40.722279","-74.002717","102","1","47","1079905","SoHo-TriBeCa-Civic Center-Little Italy"
"1004760007","100","AVENUE OF THE AMER",,"NEW YORK","10013","NY","MANHATTAN","40.723324","-74.004903","102","1","47","1007098","SoHo-TriBeCa-Civic Center-Little Italy"
"1004770001","80","VARICK STREET",,"NEW YORK","10013","NY","MANHATTAN","40.723214","-74.006205","102","1","37","1007118","SoHo-TriBeCa-Civic Center-Little Italy"
"1004770011","57","WATTS STREET",,"NEW YORK","10013","NY","MANHATTAN","40.723681","-74.005491","102","1","37","1007119","SoHo-TriBeCa-Civic Center-Little Italy"
"1004770068","52","WATTS STREET",,"NEW YORK","10013","NY","MANHATTAN","40.723687","-74.005372","102","3","37","1087915","SoHo-TriBeCa-Civic Center-Little Italy"
"1004777501","121","AVENUE OF THE AMER",,"NEW YORK","10013","NY","MANHATTAN","40.723903","-74.00469","102","3","37","1083493","SoHo-TriBeCa-Civic Center-Little Italy"
"1004787501","354","BROOME STREET",,"NEW YORK","10013","NY","MANHATTAN","40.71983","-73.995141","102","1","41","1007129","SoHo-TriBeCa-Civic Center-Little Italy"
"1004810001",,"CLEVELAND PLACE",,"NEW YORK","10012","NY",,,,,,,,
"1004810001","400","CLEVELAND PLACE",,"NEW YORK","10012","NY",,,,,,,,
"1004817502","225","LAFAYETTE STREET",,"NEW YORK","10012","NY","MANHATTAN","40.721576","-73.997348","102","1","41","1007197","SoHo-TriBeCa-Civic Center-Little Italy"
"1004820016","72","SPRING STREET",,"NEW YORK","10012","NY","MANHATTAN","40.722506","-73.99763","102","1","45","1007214","SoHo-TriBeCa-Civic Center-Little Italy"
"1004827501","406","BROOME STREET",,"NEW YORK","10013","NY","MANHATTAN","40.720876","-73.997731","102","1","45","1066733","SoHo-TriBeCa-Civic Center-Little Italy"
"1004830007","504","BROADWAY",,"NEW YORK","10012","NY","MANHATTAN","40.722317","-73.999398","102","1","45","1079922","SoHo-TriBeCa-Civic Center-Little Italy"
"1004830013","514","BROADWAY",,"NEW YORK","10012","NY","MANHATTAN","40.722534","-73.999214","102","1","45","1007235","SoHo-TriBeCa-Civic Center-Little Italy"
"1004830017","524","BROADWAY",,"NEW YORK","10012","NY","MANHATTAN","40.722748","-73.999033","102","1","45","1007238","SoHo-TriBeCa-Civic Center-Little Italy"
"1004837502","56","CROSBY STREET",,"NEW YORK","10012","NY","MANHATTAN","40.722018","-73.998539","102","1","45","1007234","SoHo-TriBeCa-Civic Center-Little Italy"
"1004840001","84","MERCER STREET",,"NEW YORK","10012","NY","MANHATTAN","40.722841","-74.000087","102","1","49","1083498","SoHo-TriBeCa-Civic Center-Little Italy"
"1004840017","511","BROADWAY",,"NEW YORK","10012","NY","MANHATTAN","40.722482","-73.999282","102","1","49","1007251","SoHo-TriBeCa-Civic Center-Little Italy"
"1004840024","495","BROADWAY",,"NEW YORK","10012","NY","MANHATTAN","40.722117","-73.999589","102","1","49","1007252","SoHo-TriBeCa-Civic Center-Little Italy"
"1004840026","491","BROADWAY",,"NEW YORK","10012","NY","MANHATTAN","40.722026","-73.999668","102","1","49","1007253","SoHo-TriBeCa-Civic Center-Little Italy"
"1004860011","84","WOOSTER STREET",,"NEW YORK","10012","NY","MANHATTAN","40.723783","-74.001436","102","1","49","1007286","SoHo-TriBeCa-Civic Center-Little Italy"
"1004870010","379","WEST BROADWAY",,"NEW YORK","10012","NY","MANHATTAN","40.723816","-74.00254","102","1","47","1007309","SoHo-TriBeCa-Civic Center-Little Italy"
"1004870012","383","WEST BROADWAY",,"NEW YORK","10012","NY","MANHATTAN","40.723914","-74.00246","102","1","47","1007310","SoHo-TriBeCa-Civic Center-Little Italy"
"1004870016","391","WEST BROADWAY",,"NEW YORK","10012","NY","MANHATTAN","40.724109","-74.002295","102","1","47","1007312","SoHo-TriBeCa-Civic Center-Little Italy"
"1004880003","58","THOMPSON STREET",,"NEW YORK","10012","NY","MANHATTAN","40.724137","-74.003236","102","1","47","1087362","SoHo-TriBeCa-Civic Center-Little Italy"
"1004890001","55","SULLIVAN STREET",,"NEW YORK","10012","NY","MANHATTAN","40.724274","-74.004185","102","3","47","1088605","SoHo-TriBeCa-Civic Center-Little Italy"
"1004910046","151","AVENUE OF THE AMER",,"NEW YORK","10013","NY","MANHATTAN","40.725136","-74.004438","102","3","37","1007385","SoHo-TriBeCa-Civic Center-Little Italy"
"1004917502","145","AVENUE OF THE AMER",,"NEW YORK","10013","NY","MANHATTAN","40.724971","-74.004477","102","3","37","1087061","SoHo-TriBeCa-Civic Center-Little Italy"
"1004917503","246","SPRING STREET",,"NEW YORK","10013","NY","MANHATTAN","40.725616","-74.005253","102","3","37","1088431","SoHo-TriBeCa-Civic Center-Little Italy"
"1004930041","13","SPRING STREET",,"NEW YORK","10012","NY","MANHATTAN","40.721365","-73.994812","102","1","43","1007484","SoHo-TriBeCa-Civic Center-Little Italy"
"1004950002","237","LAFAYETTE STREET",,"NEW YORK","10012","NY","MANHATTAN","40.722635","-73.996977","102","1","43","1007521","SoHo-TriBeCa-Civic Center-Little Italy"
"1004950011","255","LAFAYETTE STREET",,"NEW YORK","10012","NY","MANHATTAN","40.723127","-73.996782","102","1","43","1007524","SoHo-TriBeCa-Civic Center-Little Italy"
"1004950033","229","MULBERRY STREET",,"NEW YORK","10012","NY","MANHATTAN","40.722542","-73.996046","102","1","43","1007530","SoHo-TriBeCa-Civic Center-Little Italy"
"1004960036","71","SPRING STREET",,"NEW YORK","10012","NY","MANHATTAN","40.722506","-73.997586","102","1","43","1079952","SoHo-TriBeCa-Civic Center-Little Italy"
"1004960040","75","SPRING STREET",,"NEW YORK","10012","NY","MANHATTAN","40.722581","-73.99776","102","1","43","1007556","SoHo-TriBeCa-Civic Center-Little Italy"
"1004970004","536","BROADWAY",,"NEW YORK","10012","NY","MANHATTAN","40.723341","-73.998528","102","1","43","1007561","SoHo-TriBeCa-Civic Center-Little Italy"
"1004970009","546","BROADWAY",,"NEW YORK","10012","NY","MANHATTAN","40.723577","-73.99833","102","1","43","1007564","SoHo-TriBeCa-Civic Center-Little Italy"
"1004970012","552","BROADWAY",,"NEW YORK","10012","NY","MANHATTAN","40.72372","-73.998211","102","1","43","1079955","SoHo-TriBeCa-Civic Center-Little Italy"
"1004970018","560","BROADWAY",,"NEW YORK","10012","NY","MANHATTAN","40.723909","-73.998048","102","1","43","1007567","SoHo-TriBeCa-Civic Center-Little Italy"
"1004980005","565","BROADWAY",,"NEW YORK","10012","NY","MANHATTAN","40.724013","-73.997987","102","1","49","1007573","SoHo-TriBeCa-Civic Center-Little Italy"
"1004980007","561","BROADWAY",,"NEW YORK","10012","NY","MANHATTAN","40.723925","-73.998063","102","1","49","1007574","SoHo-TriBeCa-Civic Center-Little Italy"
"1004980009","557","BROADWAY",,"NEW YORK","10012","NY","MANHATTAN","40.723835","-73.998138","102","1","49","1088114","SoHo-TriBeCa-Civic Center-Little Italy"
"1004980011","549","BROADWAY",,"NEW YORK","10012","NY","MANHATTAN","40.723656","-73.99829","102","1","49","1007576","SoHo-TriBeCa-Civic Center-Little Italy"
"1004990007","104","GREENE STREET",,"NEW YORK","10012","NY","MANHATTAN","40.724373","-73.999867","102","1","49","1007605","SoHo-TriBeCa-Civic Center-Little Italy"
"1004997505","92","GREENE STREET",,"NEW YORK","10012","NY","MANHATTAN","40.724074","-74.000119","102","1","49","1087557","SoHo-TriBeCa-Civic Center-Little Italy"
"1005000005","108","WOOSTER STREET",,"NEW YORK","10012","NY","MANHATTAN","40.724694","-74.000667","102","1","49","1007639","SoHo-TriBeCa-Civic Center-Little Italy"
"1005000011","120","WOOSTER STREET",,"NEW YORK","10012","NY","MANHATTAN","40.724996","-74.000415","102","1","49","1079963","SoHo-TriBeCa-Civic Center-Little Italy"
"1005010015","130","PRINCE STREET",,"NEW YORK","10012","NY","MANHATTAN","40.725465","-74.000289","102","1","49","1007712","SoHo-TriBeCa-Civic Center-Little Italy"
"1005010020","115","WOOSTER STREET",,"NEW YORK","10012","NY","MANHATTAN","40.724872","-74.000545","102","1","49","1079974","SoHo-TriBeCa-Civic Center-Little Italy"
"1005017501","105","WOOSTER STREET",,"NEW YORK","10012","NY","MANHATTAN","40.724636","-74.000743","102","1","49","1007713","SoHo-TriBeCa-Civic Center-Little Italy"
"1005040005","176","AVENUE OF THE AMER",,"NEW YORK","10013","NY","MANHATTAN","40.725877","-74.003871","102","3","49","1088982","SoHo-TriBeCa-Civic Center-Little Italy"
"1005050001","150","VARICK STREET",,"NEW YORK","10013","NY","MANHATTAN","40.726143","-74.005693","102","3","37","1007817","SoHo-TriBeCa-Civic Center-Little Italy"
"1005050031","161","AVENUE OF THE AMER",,"NEW YORK","10013","NY","MANHATTAN","40.725677","-74.003976","102","3","37","1007822","SoHo-TriBeCa-Civic Center-Little Italy"
"1005050036","233","SPRING STREET",,"NEW YORK","10013","NY","MANHATTAN","40.725583","-74.004737","102","3","37","1007824","SoHo-TriBeCa-Civic Center-Little Italy"
"1005060027","2","CHARLTON STREET",,"NEW YORK","10014","NY","MANHATTAN","40.72698","-74.003763","102","3","37","1007832","SoHo-TriBeCa-Civic Center-Little Italy"
"1005067501","160","VARICK STREET",,"NEW YORK","10013","NY","MANHATTAN","40.726615","-74.005617","102","3","37","1007825","SoHo-TriBeCa-Civic Center-Little Italy"
"1005080025","65","EAST HOUSTON STREET",,"NEW YORK","10012","NY","MANHATTAN","40.724543","-73.993787","102","1","43","1007894","SoHo-TriBeCa-Civic Center-Little Italy"
"1005087502","262","MOTT STREET",,"NEW YORK","10012","NY","MANHATTAN","40.723692","-73.99461","102","1","43","1007888","SoHo-TriBeCa-Civic Center-Little Italy"
"1005100001","63","PRINCE STREET",,"NEW YORK","10012","NY","MANHATTAN","40.723769","-73.996652","102","1","43","1007929","SoHo-TriBeCa-Civic Center-Little Italy"
"1005110001","75","PRINCE STREET",,"NEW YORK","10012","NY","MANHATTAN","40.72409","-73.99742","102","1","43","1007942","SoHo-TriBeCa-Civic Center-Little Italy"
"1005110006","580","BROADWAY",,"NEW YORK","10012","NY","MANHATTAN","40.724658","-73.997413","102","1","43","1007943","SoHo-TriBeCa-Civic Center-Little Italy"
"1005110008","584","BROADWAY",,"NEW YORK","10012","NY","MANHATTAN","40.724743","-73.997341","102","1","43","1079998","SoHo-TriBeCa-Civic Center-Little Italy"
"1005110012","592","BROADWAY",,"NEW YORK","10012","NY","MANHATTAN","40.724916","-73.997193","102","1","43","1007944","SoHo-TriBeCa-Civic Center-Little Italy"
"1005110015","598","BROADWAY",,"NEW YORK","10012","NY","MANHATTAN","40.725045","-73.997085","102","1","43","1007945","SoHo-TriBeCa-Civic Center-Little Italy"
"1005110016","600","BROADWAY",,"NEW YORK","10012","NY","MANHATTAN","40.725089","-73.997049","102","1","43","1007946","SoHo-TriBeCa-Civic Center-Little Italy"
"1005120015","593","BROADWAY",,"NEW YORK","10012","NY","MANHATTAN","40.7249","-73.997236","102","1","49","1007950","SoHo-TriBeCa-Civic Center-Little Italy"
"1005120020","579","BROADWAY",,"NEW YORK","10012","NY","MANHATTAN","40.724612","-73.997478","102","1","49","1007953","SoHo-TriBeCa-Civic Center-Little Italy"
"1005120023","569","BROADWAY",,"NEW YORK","10012","NY","MANHATTAN","40.724406","-73.997651","102","1","49","1080019","SoHo-TriBeCa-Civic Center-Little Italy"
"1005127501","583","BROADWAY",,"NEW YORK","10012","NY","MANHATTAN","40.724694","-73.99741","102","1","49","1007955","SoHo-TriBeCa-Civic Center-Little Italy"
"1005127502","599","BROADWAY",,"NEW YORK","10012","NY","MANHATTAN","40.725021","-73.997132","102","1","49","1007956","SoHo-TriBeCa-Civic Center-Little Italy"
"1005130035","93","PRINCE STREET",,"NEW YORK","10012","NY","MANHATTAN","40.724697","-73.998694","102","1","49","1007983","SoHo-TriBeCa-Civic Center-Little Italy"
"1005137503","19","WEST HOUSTON STREET",,"NEW YORK","10012","NY","MANHATTAN","40.725847","-73.997731","102","1","49","1086552","SoHo-TriBeCa-Civic Center-Little Italy"
"1005150031","141","WOOSTER STREET",,"NEW YORK","10012","NY","MANHATTAN","40.725825","-73.99974","102","1","49","1008015","SoHo-TriBeCa-Civic Center-Little Italy"
"1005157502","149","WOOSTER STREET",,"NEW YORK","10012","NY","MANHATTAN","40.726044","-73.999553","102","1","49","1008013","SoHo-TriBeCa-Civic Center-Little Italy"
"1005160007","140","THOMPSON STREET",,"NEW YORK","10012","NY","MANHATTAN","40.726643","-74.001151","102","1","49","1008024","SoHo-TriBeCa-Civic Center-Little Italy"
"1005160026","474","WEST BROADWAY",,"NEW YORK","10012","NY","MANHATTAN","40.726492","-74.000303","102","1","49","1008028","SoHo-TriBeCa-Civic Center-Little Italy"
"1005190070","180","VARICK STREET",,"NEW YORK","10014","NY","MANHATTAN","40.72748","-74.00548","102","3","37","1008117","SoHo-TriBeCa-Civic Center-Little Italy"
"1005200001","200","VARICK STREET",,"NEW YORK","10014","NY","MANHATTAN","40.728347","-74.005343","102","3","37","1008118","SoHo-TriBeCa-Civic Center-Little Italy"
"1005210001","298","MULBERRY STREET",,"NEW YORK","10012","NY","MANHATTAN","40.725243","-73.994754","102","1","5502","1008180","West Village"
"1005210009","304","MULBERRY STREET",,"NEW YORK","10012","NY","MANHATTAN","40.725402","-73.994675","102","1","5502","1008181","West Village"
"1005210011","32","BLEECKER STREET",,"NEW YORK","10012","NY","MANHATTAN","40.725668","-73.99387","102","1","5502","1008182","West Village"
"1005210045","303","ELIZABETH STREET",,"NEW YORK","10012","NY","MANHATTAN","40.724746","-73.99334","102","1","5502","1084825","West Village"
"1005220001",,"BROADWAY",,"NEW YORK","10003","NY",,,,,,,,
"1005220001","610","BROADWAY",,"NEW YORK","10012","NY","MANHATTAN","40.725723","-73.996511","102","1","5502","1008209","West Village"
"1005220005","622","BROADWAY",,"NEW YORK","10012","NY","MANHATTAN","40.725965","-73.996309","102","1","5502","1080049","West Village"
"1005220008","628","BROADWAY",,"NEW YORK","10012","NY","MANHATTAN","40.726086","-73.996205","102","1","5502","1008211","West Village"
"1005220010","632","BROADWAY",,"NEW YORK","10012","NY","MANHATTAN","40.726165","-73.996136","102","1","5502","1008212","West Village"
"1005220012","636","BROADWAY",,"NEW YORK","10012","NY","MANHATTAN","40.726247","-73.996067","102","1","5502","1008213","West Village"
"1005230038","88","BLEECKER STREET",,"NEW YORK","10012","NY","MANHATTAN","40.726824","-73.996461","102","1","5501","1008236","West Village"
"1005230044","627","BROADWAY",,"NEW YORK","10012","NY","MANHATTAN","40.726058","-73.996255","102","1","5501","1008237","West Village"
"1005230046","625","BROADWAY",,"NEW YORK","10012","NY","MANHATTAN","40.726014","-73.996291","102","1","5501","1008238","West Village"
"1005230048","18","WEST HOUSTON STREET",,"NEW YORK","10012","NY","MANHATTAN","40.725751","-73.997478","102","1","5501","1008240","West Village"
"1005240001","501","LA GUARDIA PLACE",,"NEW YORK","10012","NY","MANHATTAN","40.727573","-73.999361","102","1","5501","1008241","West Village"
"1005240066","100","BLEECKER STREET",,"NEW YORK","10012","NY","MANHATTAN","40.727153","-73.997124","102","1","5501","1087825","West Village"
"1005257501","156","BLEECKER STREET",,"NEW YORK","10012","NY","MANHATTAN","40.728474","-73.999798","102","3","65","1083503","West Village"
"1005257506","184","THOMPSON STREET",,"NEW YORK","10012","NY","MANHATTAN","40.727988","-74.000032","102","1","65","1008266","West Village"
"1005270027","10","DOWNING STREET",,"NEW YORK","10014","NY","MANHATTAN","40.729596","-74.002825","102","3","67","1008350","West Village"
"1005280001","182","WEST HOUSTON STREET",,"NEW YORK","10014","NY","MANHATTAN","40.728441","-74.003511","102","3","67","1008380","West Village"
"1005280012","214","WEST HOUSTON STREET",,"NEW YORK","10014","NY","MANHATTAN","40.728526","-74.00442","102","3","67","1088511","West Village"
"1005287501","63","DOWNING STREET",,"NEW YORK","10014","NY","MANHATTAN","40.729025","-74.004734","102","3","67","1066793","West Village"
"1005290001","644","BROADWAY",,"NEW YORK","10012","NY","MANHATTAN","40.726626","-73.99575","102","1","5502","1008418","West Village"
"1005290072","65","BLEECKER STREET",,"NEW YORK","10012","NY","MANHATTAN","40.726204","-73.995173","102","1","5502","1008454","West Village"
"1005297501","656","BROADWAY",,"NEW YORK","10012","NY","MANHATTAN","40.726865","-73.995548","102","1","5502","1008455","West Village"
"1005297504","1","BOND STREET",,"NEW YORK","10012","NY","MANHATTAN","40.726887","-73.994646","102","1","5502","1008423","West Village"
"1005297508","25","BOND STREET",,"NEW YORK","10012","NY","MANHATTAN","40.726365","-73.993582","102","1","5502","1087669","West Village"
"1005300001","670","BROADWAY",,"NEW YORK","10012","NY","MANHATTAN","40.727299","-73.995183","102","1","5502","1008467","West Village"
"1005307505","40","BOND STREET",,"NEW YORK","10012","NY","MANHATTAN","40.726165","-73.993127","102","1","5502","1008495","West Village"
"1005310001","684","BROADWAY",,"NEW YORK","10012","NY","MANHATTAN","40.727905","-73.994667","102","1","5502","1008506","West Village"
"1005317501","14","EAST    4 STREET",,"NEW YORK","10012","NY","MANHATTAN","40.72807","-73.993578","102","1","5502","1008529","West Village"
"1005320008","246","MERCER STREET",,"NEW YORK","10012","NY","MANHATTAN","40.728281","-73.995501","102","1","5501","1066869","West Village"
"1005320015","661","BROADWAY",,"NEW YORK","10012","NY","MANHATTAN","40.727115","-73.995364","102","1","5501","1008619","West Village"
"1005320020","77","BLEECKER STREET",,"NEW YORK","10012","NY","MANHATTAN","40.726634","-73.996042","102","1","5501","1084761","West Village"
"1005330001","1","WASHINGTON SQ VLLGE",,"NEW YORK","10012","NY","MANHATTAN","40.729113","-73.997507","102","1","5501","1077833","West Village"
"1005350001","44","WEST    4 STREET",,"NEW YORK","10012","NY","MANHATTAN","40.729341","-73.996157","102","1","5501","1078952","West Village"
"1005350008","567","LA GUARDIA PLACE",,"NEW YORK","10012","NY","MANHATTAN","40.729451","-73.997756","102","1","5501","1008626","West Village"
"1005350036","17","WEST    3 STREET",,"NEW YORK","10012","NY","MANHATTAN","40.728347","-73.995898","102","1","5501","1008627","West Village"
"1005357501","14","WEST    4 STREET",,"NEW YORK","10012","NY","MANHATTAN","40.728745","-73.994945","102","1","5501","1008629","West Village"
"1005380040","566","LA GUARDIA PLACE",,"NEW YORK","10012","NY","MANHATTAN","40.729409","-73.997817","102","1","65","1008662","West Village"
"1005390001","209","SULLIVAN STREET",,"NEW YORK","10012","NY","MANHATTAN","40.729212","-74.000072","102","1","65","1089865","West Village"
"1005390031","211","THOMPSON STREET",,"NEW YORK","10012","NY","MANHATTAN","40.728852","-73.999325","102","1","65","1008680","West Village"
"1005400014","130","MAC DOUGAL STREET",,"NEW YORK","10012","NY","MANHATTAN","40.730236","-74.000274","102","1","65","1087045","West Village"
"1005400030","214","SULLIVAN STREET",,"NEW YORK","10012","NY","MANHATTAN","40.729248","-74.000065","102","1","65","1008707","West Village"
"1005410001","40","WASHINGTON SQUARE S",,"NEW YORK","10012","NY","MANHATTAN","40.73098","-73.999495","102","1","65","1008716","West Village"
"1005410018","51","WASHINGTON SQUARE S",,"NEW YORK","10012","NY","MANHATTAN","40.730625","-73.998784","102","1","65","1082207","West Village"
"1005417501","89","WEST    3 STREET",,"NEW YORK","10012","NY","MANHATTAN","40.729912","-73.999044","102","1","65","1086188","West Village"
"1005418001","40","WASHINGTON SQUARE S",,"NEW YORK","10012","NY","MANHATTAN","40.73098","-73.999495","102","1","65","1008716","West Village"
"1005420025",,"6 AVENUE",,"NEW YORK","10014","NY",,,,,,,,
"1005420025","290","AVENUE OF THE AMER",,"NEW YORK","10014","NY","MANHATTAN","40.730162","-74.001916","102","1","65","1008725","West Village"
"1005440001","393","LAFAYETTE STREET",,"NEW YORK","10003","NY","MANHATTAN","40.72816","-73.992878","102","2","57","1080084","West Village"
"1005440045","34","COOPER SQUARE",,"NEW YORK","10003","NY","MANHATTAN","40.728155","-73.990933","103","2","42","1082210","East Village"
"1005440048","30","COOPER SQUARE",,"NEW YORK","10003","NY","MANHATTAN","40.728059","-73.991002","103","2","42","1008779","East Village"
"1005440050","16","COOPER SQUARE",,"NEW YORK","10003","NY","MANHATTAN","40.727587","-73.991345","102","2","57","1008780","West Village"
"1005440065","2","COOPER SQUARE",,"NEW YORK","10003","NY","MANHATTAN","40.727159","-73.991539","102","2","57","1088207","West Village"
"1005440076","7","EAST    7 STREET",,"NEW YORK","10003","NY","MANHATTAN","40.728967","-73.990432","103","2","42","1008788","East Village"
"1005447501","56","COOPER SQUARE",,"NEW YORK","10003","NY","MANHATTAN","40.728926","-73.991016","102","2","57","1008776","West Village"
"1005447502","443","LAFAYETTE STREET",,"NEW YORK","10003","NY","MANHATTAN","40.729365","-73.991846","102","2","57","1087152","West Village"
"1005447503","46","COOPER SQUARE",,"NEW YORK","10003","NY","MANHATTAN","40.728701","-73.991092","102","2","57","1082213","West Village"
"1005450006","708","BROADWAY",,"NEW YORK","10003","NY","MANHATTAN","40.728775","-73.993931","102","2","57","1080089","West Village"
"1005450011","718","BROADWAY",,"NEW YORK","10003","NY","MANHATTAN","40.729146","-73.993617","102","2","57","1008793","West Village"
"1005450015","726","BROADWAY",,"NEW YORK","10003","NY","MANHATTAN","40.729376","-73.993423","102","2","57","1008796","West Village"
"1005450026","740","BROADWAY",,"NEW YORK","10003","NY","MANHATTAN","40.729884","-73.992993","102","2","57","1080092","West Village"
"1005450059","752","BROADWAY",,"NEW YORK","10003","NY","MANHATTAN","40.730419","-73.992542","102","2","57","1008806","West Village"
"1005457501","696","BROADWAY",,"NEW YORK","10003","NY","MANHATTAN","40.728498","-73.994166","102","2","57","1008789","West Village"
"1005457502","704","BROADWAY",,"NEW YORK","10003","NY","MANHATTAN","40.728682","-73.994011","102","2","57","1008790","West Village"
"1005457503","21","ASTOR PLACE",,"NEW YORK","10003","NY","MANHATTAN","40.729991","-73.992221","102","2","57","1008807","West Village"
"1005460010","18","WASHINGTON PLACE",,"NEW YORK","10003","NY","MANHATTAN","40.729827","-73.995429","102","1","59","1008810","West Village"
"1005460011","35","WEST    4 STREET",,"NEW YORK","10012","NY","MANHATTAN","40.729245","-73.995919","102","1","59","1008811","West Village"
"1005460015","14","WASHINGTON PLACE",,"NEW YORK","10003","NY","MANHATTAN","40.729651","-73.995068","102","1","59","1008812","West Village"
"1005460021","8","WASHINGTON PLACE",,"NEW YORK","10003","NY","MANHATTAN","40.729456","-73.994667","102","1","59","1080098","West Village"
"1005460026","21","WEST    4 STREET",,"NEW YORK","10012","NY","MANHATTAN","40.728978","-73.995378","102","1","59","1008814","West Village"
"1005460031","4","WASHINGTON PLACE",,"NEW YORK","10003","NY","MANHATTAN","40.729201","-73.994155","102","1","57","1008816","West Village"
"1005460033","713","BROADWAY",,"NEW YORK","10003","NY","MANHATTAN","40.728924","-73.993834","102","1","57","1008817","West Village"
"1005460035","707","BROADWAY",,"NEW YORK","10003","NY","MANHATTAN","40.728745","-73.993985","102","1","57","1008818","West Village"
"1005460040","699","BROADWAY",,"NEW YORK","10003","NY","MANHATTAN","40.728506","-73.994188","102","1","57","1008819","West Village"
"1005470001","32","WAVERLY PLACE",,"NEW YORK","10003","NY","MANHATTAN","40.730546","-73.995237","102","1","59","1008820","West Village"
"1005470005","24","WAVERLY PLACE",,"NEW YORK","10003","NY","MANHATTAN","40.730398","-73.994938","102","1","59","1008822","West Village"
"1005470008","23","WASHINGTON PLACE",,"NEW YORK","10003","NY","MANHATTAN","40.72984","-73.995418","102","1","59","1008823","West Village"
"1005470020","15","WASHINGTON PLACE",,"NEW YORK","10003","NY","MANHATTAN","40.729618","-73.994963","102","1","59","1008828","West Village"
"1005470030","715","BROADWAY",,"NEW YORK","10003","NY","MANHATTAN","40.729099","-73.993682","102","1","57","1008831","West Village"
"1005480001","1","UNIVERSITY PLACE",,"NEW YORK","10003","NY","MANHATTAN","40.730785","-73.995486","102","1","59","1008832","West Village"
"1005480004","5","UNIVERSITY PLACE",,"NEW YORK","10003","NY","MANHATTAN","40.730925","-73.995364","102","1","59","1080105","West Village"
"1005480009","13","UNIVERSITY PLACE",,"NEW YORK","10003","NY","MANHATTAN","40.731265","-73.99506","102","1","59","1008833","West Village"
"1005480028","50","EAST    8 STREET",,"NEW YORK","10003","NY","MANHATTAN","40.731119","-73.993686","102","1","59","1008837","West Village"
"1005480040","11","WAVERLY PLACE",,"NEW YORK","10003","NY","MANHATTAN","40.730041","-73.994173","102","1","59","1008838","West Village"
"1005480045","15","WAVERLY PLACE",,"NEW YORK","10003","NY","MANHATTAN","40.730129","-73.99435","102","1","59","1008839","West Village"
"1005480070","300","MERCER STREET",,"NEW YORK","10003","NY","MANHATTAN","40.730458","-73.99365","102","1","57","1008840","West Village"
"1005487501","60","EAST    8 STREET",,"NEW YORK","10003","NY","MANHATTAN","40.730886","-73.99313","102","1","57","1080855","West Village"
"1005500022","1","5 AVENUE",,"NEW YORK","10003","NY","MANHATTAN","40.731913","-73.996587","102","1","59","1008847","West Village"
"1005510001","2","5 AVENUE",,"NEW YORK","10011","NY","MANHATTAN","40.731921","-73.996608","102","1","63","1008850","West Village"
"1005520022","33","WASHINGTON SQUARE W",,"NEW YORK","10011","NY","MANHATTAN","40.731545","-73.999192","102","1","65","1008875","West Village"
"1005520026","37","WASHINGTON SQUARE W",,"NEW YORK","10011","NY","MANHATTAN","40.73127","-73.999423","102","1","65","1008877","West Village"
"1005520060","29","WASHINGTON SQUARE W",,"NEW YORK","10011","NY","MANHATTAN","40.731822","-73.998957","102","1","65","1008892","West Village"
"1005520062","32","WASHINGTON SQUARE W",,"NEW YORK","10011","NY","MANHATTAN","40.731817","-73.999271","102","1","65","1008894","West Village"
"1005527501","360","AVENUE OF THE AMER",,"NEW YORK","10011","NY","MANHATTAN","40.732451","-74.000401","102","1","65","1008904","West Village"
"1005537501","103","WAVERLY PLACE",,"NEW YORK","10011","NY","MANHATTAN","40.73236","-73.998889","102","1","63","1080117","West Village"
"1005540001","756","BROADWAY",,"NEW YORK","10003","NY","MANHATTAN","40.730675","-73.992326","102","2","57",,"West Village"
"1005540035","10","3 AVENUE",,"NEW YORK","10003","NY","MANHATTAN","40.729673","-73.989818","103","2","42","1008788","East Village"
"1005550001","772","BROADWAY",,"NEW YORK","10003","NY","MANHATTAN","40.731248","-73.991842","102","2","57","1008954","West Village"
"1005550001","772","BROADWAY",,"NEW YORK","10003","NY","MANHATTAN","40.731248","-73.991842","102","2","57","1008954","West Village"
"1005550028","30","3 AVENUE",,"NEW YORK","10003","NY","MANHATTAN","40.730263","-73.989381","103","2","42","1008962","East Village"
"1005560001","85","4 AVENUE",,"NEW YORK","10003","NY","MANHATTAN","40.731704","-73.990276","103","2","42","1008968","East Village"
"1005560015","112","EAST   11 STREET",,"NEW YORK","10003","NY","MANHATTAN","40.73183","-73.989836","103","2","42","1090241","East Village"
"1005560048","120","EAST   12 STREET",,"NEW YORK","10003","NY","MANHATTAN","40.732491","-73.989428","103","2","42","1087924","East Village"
"1005560065","66","3 AVENUE",,"NEW YORK","10003","NY","MANHATTAN","40.731424","-73.988555","103","2","42","1008982","East Village"
"1005577501","806","BROADWAY",,"NEW YORK","10003","NY","MANHATTAN","40.732563","-73.991243","102","2","61","1009006","West Village"
"1005580037","131","EAST   12 STREET",,"NEW YORK","10003","NY","MANHATTAN","40.732475","-73.989345","103","2","42","1076070","East Village"
"1005587501","114","EAST   13 STREET",,"NEW YORK","10003","NY","MANHATTAN","40.733287","-73.989327","103","2","42","1009030","East Village"
"1005587502","113","4 AVENUE",,"NEW YORK","10003","NY","MANHATTAN","40.73287","-73.989998","103","2","42","1066890","East Village"
"1005587503","125","EAST   12 STREET",,"NEW YORK","10003","NY","MANHATTAN","40.732508","-73.989424","103","2","42","1009014","East Village"
"1005590009","137","4 AVENUE",,"NEW YORK","10003","NY","MANHATTAN","40.733663","-73.989864","103","2","42","1077569","East Village"
"1005590012","106","EAST   14 STREET",,"NEW YORK","10003","NY","MANHATTAN","40.734122","-73.989179","103","2","42","1009072","East Village"
"1005590022","126","EAST   14 STREET",,"NEW YORK","10003","NY","MANHATTAN","40.733801","-73.988407","103","2","42","1000000","East Village"
"1005590055","113","EAST   13 STREET",,"NEW YORK","10003","NY","MANHATTAN","40.733315","-73.989348","103","2","42","1084305","East Village"
"1005597501","108","3 AVENUE",,"NEW YORK","10003","NY","MANHATTAN","40.732766","-73.987577","103","2","42","1087620","East Village"
"1005607501","30","EAST   90 STREET",,"NEW YORK","10128","NY","MANHATTAN","40.783591","-73.957394","108","4","15002","1046978","Upper East Side-Carnegie Hill"
"1005607502","40","EAST    9 STREET",,"NEW YORK","10003","NY","MANHATTAN","40.731808","-73.993473","102","2","59","1009091","West Village"
"1005607503","60","EAST    9 STREET",,"NEW YORK","10003","NY","MANHATTAN","40.731476","-73.992679","102","2","59","1009092","West Village"
"1005610014","38","EAST   10 STREET",,"NEW YORK","10003","NY","MANHATTAN","40.732294","-73.992798","102","2","59","1009098","West Village"
"1005610037","47","EAST    9 STREET",,"NEW YORK","10003","NY","MANHATTAN","40.73169","-73.993144","102","2","59","1009100","West Village"
"1005610045","35","EAST    9 STREET",,"NEW YORK","10003","NY","MANHATTAN","40.731888","-73.993621","102","2","59","1009101","West Village"
"1005617501","63","EAST    9 STREET",,"NEW YORK","10003","NY","MANHATTAN","40.731424","-73.992509","102","2","59","1009099","West Village"
"1005617502","28","EAST   10 STREET",,"NEW YORK","10003","NY","MANHATTAN","40.732489","-73.99326","102","2","59","1009095","West Village"
"1005620001","63","UNIVERSITY PLACE",,"NEW YORK","10003","NY","MANHATTAN","40.732862","-73.993689","102","2","61","1082677","West Village"
"1005620024","797","BROADWAY",,"NEW YORK","10003","NY","MANHATTAN","40.732261","-73.991337","102","2","61","1009108","West Village"
"1005620030","787","BROADWAY",,"NEW YORK","10003","NY","MANHATTAN","40.731847","-73.991441","102","2","61","1009112","West Village"
"1005630001","83","UNIVERSITY PLACE",,"NEW YORK","10003","NY","MANHATTAN","40.73348","-73.993159","102","2","61","1009127","West Village"
"1005630031","817","BROADWAY",,"NEW YORK","10003","NY","MANHATTAN","40.733043","-73.99116","102","2","61","1009134","West Village"
"1005630037","801","BROADWAY",,"NEW YORK","10003","NY","MANHATTAN","40.732566","-73.991265","102","2","61","1009138","West Village"
"1005630046","57","EAST   11 STREET",,"NEW YORK","10003","NY","MANHATTAN","40.732925","-73.992397","102","2","61","1009141","West Village"
"1005640001","31","EAST   12 STREET",,"NEW YORK","10003","NY","MANHATTAN","40.733823","-73.992538","102","2","61","1009195","West Village"
"1005640007","113","UNIVERSITY PLACE",,"NEW YORK","10003","NY","MANHATTAN","40.734375","-73.99239","102","2","61","1009197","West Village"
"1005640026","39","EAST   12 STREET",,"NEW YORK","10003","NY","MANHATTAN","40.733642","-73.992109","102","2","61","1009204","West Village"
"1005640031","35","EAST   12 STREET",,"NEW YORK","10003","NY","MANHATTAN","40.733732","-73.992322","102","2","61","1009206","West Village"
"1005640034","826","BROADWAY",,"NEW YORK","10003","NY","MANHATTAN","40.733326","-73.991077","102","2","61","1009208","West Village"
"1005640039","836","BROADWAY",,"NEW YORK","10003","NY","MANHATTAN","40.733707","-73.990994","102","2","61","1009209","West Village"
"1005640054","120","4 AVENUE",,"NEW YORK","10003","NY","MANHATTAN","40.732873","-73.99002","102","2","61","1009212","West Village"
"1005650011","44","EAST   14 STREET",,"NEW YORK","10003","NY","MANHATTAN","40.735094","-73.991427","102","2","61","1009216","West Village"
"1005650015","849","BROADWAY",,"NEW YORK","10003","NY","MANHATTAN","40.734512","-73.990838","102","2","61","1080133","West Village"
"1005650021","842","BROADWAY",,"NEW YORK","10003","NY","MANHATTAN","40.734108","-73.990903","102","2","61","1009217","West Village"
"1005659021","842","BROADWAY",,"NEW YORK","10003","NY","MANHATTAN","40.734108","-73.990903","102","2","61","1009217","West Village"
"1005660001","9","5 AVENUE",,"NEW YORK","10003","NY","MANHATTAN","40.732338","-73.996276","102","2","59","1009222","West Village"
"1005660018","20","UNIVERSITY PLACE",,"NEW YORK","10003","NY","MANHATTAN","40.731688","-73.994725","102","2","59","1009223","West Village"
"1005670007","33","5 AVENUE",,"NEW YORK","10003","NY","MANHATTAN","40.733345","-73.995544","102","2","59","1009226","West Village"
"1005670019","40","UNIVERSITY PLACE",,"NEW YORK","10003","NY","MANHATTAN","40.7323","-73.994198","102","2","59","1009238","West Village"
"1005677501","23","5 AVENUE",,"NEW YORK","10003","NY","MANHATTAN","40.732934","-73.995843","102","2","59","1009224","West Village"
"1005680001","35","5 AVENUE",,"NEW YORK","10003","NY","MANHATTAN","40.733521","-73.995414","102","2","61","1009250","West Village"
"1005680004","39","5 AVENUE",,"NEW YORK","10003","NY","MANHATTAN","40.733801","-73.995208","102","2","61","1009251","West Village"
"1005680006","41","5 AVENUE",,"NEW YORK","10003","NY","MANHATTAN","40.733804","-73.99475","102","2","61","1009252","West Village"
"1005680024","60","UNIVERSITY PLACE",,"NEW YORK","10003","NY","MANHATTAN","40.732865","-73.993711","102","2","61","1009265","West Village"
"1005690001","43","5 AVENUE",,"NEW YORK","10003","NY","MANHATTAN","40.734125","-73.99497","102","2","61","1009272","West Village"
"1005690005","49","5 AVENUE",,"NEW YORK","10003","NY","MANHATTAN","40.734462","-73.994725","102","2","61","1009275","West Village"
"1005690024","88","UNIVERSITY PLACE",,"NEW YORK","10003","NY","MANHATTAN","40.733617","-73.993065","102","2","61","1009283","West Village"
"1005697501","10","EAST   12 STREET",,"NEW YORK","10003","NY","MANHATTAN","40.734413","-73.993985","102","2","61","1009294","West Village"
"1005697503","16","EAST   12 STREET",,"NEW YORK","10003","NY","MANHATTAN","40.734309","-73.993736","102","2","61","1009333","West Village"
"1005700032","114","UNIVERSITY PLACE",,"NEW YORK","10003","NY","MANHATTAN","40.734391","-73.992401","102","2","61","1009386","West Village"
"1005700042","7","EAST   12 STREET",,"NEW YORK","10003","NY","MANHATTAN","40.734454","-73.994043","102","2","61","1009390","West Village"
"1005707501","55","5 AVENUE",,"NEW YORK","10003","NY","MANHATTAN","40.734877","-73.994422","102","2","61","1009373","West Village"
"1005710025","120","UNIVERSITY PLACE",,"NEW YORK","10003","NY","MANHATTAN","40.734685","-73.992159","102","2","61","1009400","West Village"
"1005717501","7","EAST   13 STREET",,"NEW YORK","10003","NY","MANHATTAN","40.735102","-73.993592","102","2","61","1009403","West Village"
"1005717502","22","EAST   14 STREET",,"NEW YORK","10003","NY","MANHATTAN","40.735555","-73.992556","102","2","61","1009394","West Village"
"1005720038","20","5 AVENUE",,"NEW YORK","10011","NY","MANHATTAN","40.732893","-73.996323","102","3","63","1009429","West Village"
"1005730039","28","5 AVENUE",,"NEW YORK","10011","NY","MANHATTAN","40.733148","-73.99571","102","3","63","1009481","West Village"
"1005730043","24","5 AVENUE",,"NEW YORK","10011","NY","MANHATTAN","40.733011","-73.995811","102","3","63","1009482","West Village"
"1005730075","61","WEST    9 STREET",,"NEW YORK","10011","NY","MANHATTAN","40.73393","-73.99847","102","3","63","1009501","West Village"
"1005737502","422","AVENUE OF THE AMER",,"NEW YORK","10011","NY","MANHATTAN","40.734281","-73.999069","102","3","63","1009504","West Village"
"1005740039","40","5 AVENUE",,"NEW YORK","10011","NY","MANHATTAN","40.734114","-73.995508","102","3","63","1009539","West Village"
"1005740067","45","WEST   10 STREET",,"NEW YORK","10011","NY","MANHATTAN","40.73407","-73.996983","102","3","63","1009558","West Village"
"1005750017","66","WEST   12 STREET",,"NEW YORK","10011","NY","MANHATTAN","40.735744","-73.997139","102","3","63","1083136","West Village"
"1005750048","12","WEST   12 STREET",,"NEW YORK","10011","NY","MANHATTAN","40.734902","-73.995143","102","3","63","1083138","West Village"
"1005750057","13","WEST   11 STREET",,"NEW YORK","10011","NY","MANHATTAN","40.734361","-73.995804","102","3","63","1009584","West Village"
"1005750077","55","WEST   11 STREET",,"NEW YORK","10011","NY","MANHATTAN","40.734767","-73.996771","102","3","63","1009599","West Village"
"1005760001","486","AVENUE OF THE AMER",,"NEW YORK","10011","NY","MANHATTAN","40.736167","-73.997698","102","3","63","1009609","West Village"
"1005760025","37","WEST   12 STREET",,"NEW YORK","10011","NY","MANHATTAN","40.735217","-73.995847","102","3","63","1077930","West Village"
"1005760036","2","WEST   13 STREET",,"NEW YORK","10011","NY","MANHATTAN","40.735511","-73.994605","102","3","63","1009617","West Village"
"1005760046","60","5 AVENUE",,"NEW YORK","10011","NY","MANHATTAN","40.734773","-73.994523","102","3","63","1009620","West Village"
"1005760049","13","WEST   12 STREET",,"NEW YORK","10011","NY","MANHATTAN","40.734948","-73.995212","102","3","63","1009622","West Village"
"1005760066","49","WEST   12 STREET",,"NEW YORK","10011","NY","MANHATTAN","40.735349","-73.996164","102","3","63","1009632","West Village"
"1005767501","60","WEST   13 STREET",,"NEW YORK","10011","NY","MANHATTAN","40.736085","-73.995969","102","3","63","1009636","West Village"
"1005767502","59","WEST   12 STREET",,"NEW YORK","10011","NY","MANHATTAN","40.73564","-73.99685","102","3","63","1066992","West Village"
"1005770015","48","WEST   14 STREET",,"NEW YORK","10011","NY","MANHATTAN","40.736656","-73.995186","102","3","63","1080154","West Village"
"1005770024","22","WEST   14 STREET",,"NEW YORK","10011","NY","MANHATTAN","40.7364","-73.994577","102","3","63","1083516","West Village"
"1005770030","18","WEST   14 STREET",,"NEW YORK","10011","NY","MANHATTAN","40.736359","-73.994483","102","3","63","1009714","West Village"
"1005770039","80","5 AVENUE",,"NEW YORK","10011","NY","MANHATTAN","40.735807","-73.993772","102","3","63","1009717","West Village"
"1005770042","74","5 AVENUE",,"NEW YORK","10011","NY","MANHATTAN","40.735519","-73.993981","102","3","63","1009719","West Village"
"1005770071","55","WEST   13 STREET",,"NEW YORK","10011","NY","MANHATTAN","40.736046","-73.99584","102","3","63","1009722","West Village"
"1005777502","65","WEST   13 STREET",,"NEW YORK","10011","NY","MANHATTAN","40.736145","-73.99607","102","3","63","1009706","West Village"
"1005780047","250","HUDSON STREET",,"NEW YORK","10013","NY","MANHATTAN","40.724658","-74.007753","102","3","37","1009723","SoHo-TriBeCa-Civic Center-Little Italy"
"1005780067","119","VARICK STREET",,"NEW YORK","10013","NY","MANHATTAN","40.724787","-74.00596","102","3","37","1009728","SoHo-TriBeCa-Civic Center-Little Italy"
"1005790030","131","VARICK STREET",,"NEW YORK","10013","NY","MANHATTAN","40.725397","-74.005841","102","3","37","1009740","SoHo-TriBeCa-Civic Center-Little Italy"
"1005790047","304","HUDSON STREET",,"NEW YORK","10013","NY","MANHATTAN","40.726009","-74.007519","102","3","37","1009742","SoHo-TriBeCa-Civic Center-Little Italy"
"1005790070","137","VARICK STREET",,"NEW YORK","10013","NY","MANHATTAN","40.725789","-74.005773","102","3","37","1009745","SoHo-TriBeCa-Civic Center-Little Italy"
"1005800001","330","HUDSON STREET",,"NEW YORK","10013","NY","MANHATTAN","40.726862","-74.007382","102","3","37","1009746","SoHo-TriBeCa-Civic Center-Little Italy"
"1005800022","157","VARICK STREET",,"NEW YORK","10013","NY","MANHATTAN","40.726547","-74.00565","102","3","37","1080159","SoHo-TriBeCa-Civic Center-Little Italy"
"1005800039","348","HUDSON STREET",,"NEW YORK","10014","NY","MANHATTAN","40.727493","-74.007284","102","3","37","1009750","SoHo-TriBeCa-Civic Center-Little Italy"
"1005800060","183","VARICK STREET",,"NEW YORK","10014","NY","MANHATTAN","40.727645","-74.005477","102","3","37","1009752","SoHo-TriBeCa-Civic Center-Little Italy"
"1005800063","181","VARICK STREET",,"NEW YORK","10014","NY","MANHATTAN","40.727581","-74.005488","102","3","37","1088514","SoHo-TriBeCa-Civic Center-Little Italy"
"1005800065","171","VARICK STREET",,"NEW YORK","10014","NY","MANHATTAN","40.727266","-74.005538","102","3","37","1009754","SoHo-TriBeCa-Civic Center-Little Italy"
"1005810063","207","VARICK STREET",,"NEW YORK","10014","NY","MANHATTAN","40.728644","-74.005318","102","3","67","1009758","West Village"
"1005847501","442","HUDSON STREET",,"NEW YORK","10014","NY","MANHATTAN","40.731139","-74.006697","102","3","67","1077817","West Village"
"1005860020","240","BLEECKER STREET",,"NEW YORK","10014","NY","MANHATTAN","40.730614","-74.002652","102","3","67","1009904","West Village"
"1005897501","2","CORNELIA STREET",,"NEW YORK","10014","NY","MANHATTAN","40.731671","-74.001429","102","3","67","1010086","West Village"
"1005907502","9","BARROW STREET",,"NEW YORK","10014","NY","MANHATTAN","40.732695","-74.002508","102","3","67","1076078","West Village"
"1005910026","194","WEST    4 STREET",,"NEW YORK","10014","NY","MANHATTAN","40.733057","-74.00232","102","3","73","1010188","West Village"
"1005920066","375","AVENUE OF THE AMER",,"NEW YORK","10014","NY","MANHATTAN","40.732679","-74.00026","102","3","71","1010249","West Village"
"1005947501","479","GREENWICH STREET",,"NEW YORK","10013","NY","MANHATTAN","40.72479","-74.009294","102","3","37","1010288","SoHo-TriBeCa-Civic Center-Little Italy"
"1005947503","505","GREENWICH STREET",,"NEW YORK","10013","NY","MANHATTAN","40.725635","-74.009142","102","3","37","1086554","SoHo-TriBeCa-Civic Center-Little Italy"
"1005947505","255","HUDSON STREET",,"NEW YORK","10013","NY","MANHATTAN","40.724842","-74.007742","102","3","37","1087494","SoHo-TriBeCa-Civic Center-Little Italy"
"1005950016","466","WASHINGTON STREET",,"NEW YORK","10013","NY","MANHATTAN","40.724581","-74.010163","101","1","39","1010327","SoHo-TriBeCa-Civic Center-Little Italy"
"1005957501","490","GREENWICH STREET",,"NEW YORK","10013","NY","MANHATTAN","40.72507","-74.009265","102","3","37","1076084","SoHo-TriBeCa-Civic Center-Little Italy"
"1005957504","330","SPRING STREET",,"NEW YORK","10013","NY","MANHATTAN","40.726044","-74.009705","102","3","37","1087495","SoHo-TriBeCa-Civic Center-Little Italy"
"1005960001","305","WEST STREET",,"NEW YORK","10014","NY","MANHATTAN","40.726708","-74.010899","102","3","37","1089625","SoHo-TriBeCa-Civic Center-Little Italy"
"1005960092",,"SPRING STREET",,"NEW YORK","0","NY",,,,,,,,
"1005960092",,"SPRING STREET",,"NEW YORK","0","NY",,,,,,,,
"1005960092","319","SPRING STREET",,"NEW YORK","10013","NY","MANHATTAN","40.726","-74.009157","102","3","37","1010357","SoHo-TriBeCa-Civic Center-Little Italy"
"1005970001","515","GREENWICH STREET",,"NEW YORK","10013","NY","MANHATTAN","40.726099","-74.009067","102","3","37","1010358","SoHo-TriBeCa-Civic Center-Little Italy"
"1005970005","523","GREENWICH STREET",,"NEW YORK","10013","NY","MANHATTAN","40.726365","-74.009023","102","3","37","1089705","SoHo-TriBeCa-Civic Center-Little Italy"
"1005970012","78","VANDAM STREET",,"NEW YORK","10013","NY","MANHATTAN","40.726615","-74.007663","102","3","37","1010362","SoHo-TriBeCa-Civic Center-Little Italy"
"1005970039","537","GREENWICH STREET",,"NEW YORK","10013","NY","MANHATTAN","40.72698","-74.008919","102","3","37","1000000","SoHo-TriBeCa-Civic Center-Little Italy"
"1005970055","333","HUDSON STREET",,"NEW YORK","10013","NY","MANHATTAN","40.72703","-74.007378","102","3","37","1010374","SoHo-TriBeCa-Civic Center-Little Italy"
"1005970062","323","HUDSON STREET",,"NEW YORK","10013","NY","MANHATTAN","40.726711","-74.007425","102","3","37","1010375","SoHo-TriBeCa-Civic Center-Little Italy"
"1005980058","341","HUDSON STREET",,"NEW YORK","10014","NY","MANHATTAN","40.727439","-74.007313","102","3","37","1010378","SoHo-TriBeCa-Civic Center-Little Italy"
"1005990064","363","HUDSON STREET",,"NEW YORK","10014","NY","MANHATTAN","40.72816","-74.007194","102","3","37","1010379","SoHo-TriBeCa-Civic Center-Little Italy"
"1006007501","395","HUDSON STREET",,"NEW YORK","10014","NY","MANHATTAN","40.729135","-74.007043","102","3","69","1010382","West Village"
"1006010013","584","WASHINGTON STREET",,"NEW YORK","10014","NY","MANHATTAN","40.729601","-74.00924","102","3","69",,"West Village"
"1006010026","585","WASHINGTON STREET",,"NEW YORK","10014","NY","MANHATTAN","40.729813","-74.009175","102","3","69","1080184","West Village"
"1006010047","120","LEROY STREET",,"NEW YORK","10014","NY","MANHATTAN","40.730299","-74.007729","102","3","69","1010393","West Village"
"1006010052","112","LEROY STREET",,"NEW YORK","10014","NY","MANHATTAN","40.730274","-74.007462","102","3","69","1010394","West Village"
"1006017501","421","HUDSON STREET",,"NEW YORK","10014","NY","MANHATTAN","40.730063","-74.006891","102","3","69","1067116","West Village"
"1006020010","600","WASHINGTON STREET",,"NEW YORK","10014","NY","MANHATTAN","40.730545","-74.00906","102","3","69","1086101","West Village"
"1006020036","611","WASHINGTON STREET",,"NEW YORK","10014","NY","MANHATTAN","40.730902","-74.008966","102","3","69","1010398","West Village"
"1006020058","627","GREENWICH STREET",,"NEW YORK","10014","NY","MANHATTAN","40.730815","-74.008064","102","3","69","1080188","West Village"
"1006020068","423","HUDSON STREET",,"NEW YORK","10014","NY","MANHATTAN","40.730117","-74.006884","102","3","69","1010402","West Village"
"1006027501","1","MORTON SQUARE",,"NEW YORK","10014","NY","MANHATTAN","40.731166","-74.009139","102","3","69","1086104","West Village"
"1006030001","371","WEST STREET",,"NEW YORK","10014","NY","MANHATTAN","40.731341","-74.010446","102","3","69","1083160","West Village"
"1006030028","617","WASHINGTON STREET",,"NEW YORK","10014","NY","MANHATTAN","40.731262","-74.008894","102","3","69","1010404","West Village"
"1006030037","644","GREENWICH STREET",,"NEW YORK","10014","NY","MANHATTAN","40.731399","-74.007927","102","3","69","1010405","West Village"
"1006030046",,"GREENWICH STREET",,"NEW YORK","0","NY",,,,,,,,
"1006030046","636","GREENWICH STREET",,"NEW YORK","10014","NY","MANHATTAN","40.731177","-74.007988","102","3","69","1010406","West Village"
"1006030049","633","GREENWICH STREET",,"NEW YORK","10014","NY","MANHATTAN","40.731174","-74.007967","102","3","69","1010407","West Village"
"1006040033","633","WASHINGTON STREET",,"NEW YORK","10014","NY","MANHATTAN","40.73194","-74.008757","102","3","69","1010421","West Village"
"1006047501","130","BARROW STREET",,"NEW YORK","10014","NY","MANHATTAN","40.731926","-74.009277","102","3","69","1010422","West Village"
"1006070001","1","7 AVENUE",,"NEW YORK","10011","NY","MANHATTAN","40.736658","-74.001018","102","3","71","1089806","West Village"
"1006070038","475","AVENUE OF THE AMER",,"NEW YORK","10011","NY","MANHATTAN","40.735742","-73.998033","102","3","71","1010577","West Village"
"1006080039","101","WEST   12 STREET",,"NEW YORK","10011","NY","MANHATTAN","40.736222","-73.998228","102","3","71","1010619","West Village"
"1006087501","175","WEST   12 STREET",,"NEW YORK","10011","NY","MANHATTAN","40.736853","-73.999726","102","3","71","1067315","West Village"
"1006090001","41","7 AVENUE",,"NEW YORK","10011","NY","MANHATTAN","40.737965","-74.000101","102","3","71","1010632","West Village"
"1006090007","154","WEST   14 STREET",,"NEW YORK","10011","NY","MANHATTAN","40.737992","-73.998369","102","3","71","1010633","West Village"
"1006090023","120","WEST   14 STREET",,"NEW YORK","10011","NY","MANHATTAN","40.737704","-73.997676","102","3","71","1010639","West Village"
"1006090047","509","AVENUE OF THE AMER",,"NEW YORK","10011","NY","MANHATTAN","40.736826","-73.99724","102","3","71","1010653","West Village"
"1006097502","116","WEST   14 STREET",,"NEW YORK","10011","NY","MANHATTAN","40.737668","-73.997597","102","3","71","1010640","West Village"
"1006097503","138","WEST   14 STREET",,"NEW YORK","10011","NY","MANHATTAN","40.737855","-73.998044","102","3","71","1010637","West Village"
"1006100060","1","CHRISTOPHER STREET",,"NEW YORK","10014","NY","MANHATTAN","40.734065","-73.999762","102","3","71","1010692","West Village"
"1006107501","45","CHRISTOPHER STREET",,"NEW YORK","10014","NY","MANHATTAN","40.733757","-74.001894","102","3","73","1010699","West Village"
"1006110065","23","GREENWICH AVENUE",,"NEW YORK","10014","NY","MANHATTAN","40.734776","-74.00004","102","3","71","1010852","West Village"
"1006127504","15","CHARLES STREET",,"NEW YORK","10014","NY","MANHATTAN","40.735209","-74.001086","102","3","71","1010899","West Village"
"1006150036","87","GREENWICH AVENUE",,"NEW YORK","10014","NY","MANHATTAN","40.73724","-74.001516","102","3","77","1011018","West Village"
"1006150086","245","WEST   12 STREET",,"NEW YORK","10014","NY","MANHATTAN","40.737638","-74.002493","102","3","77","1011053","West Village"
"1006160001","42","8 AVENUE",,"NEW YORK","10014","NY","MANHATTAN","40.738445","-74.003789","102","3","77","1011064","West Village"
"1006160011","54","8 AVENUE",,"NEW YORK","10014","NY","MANHATTAN","40.738613","-74.003598","102","3","77","1011066","West Village"
"1006167501","2","HORATIO STREET",,"NEW YORK","10014","NY","MANHATTAN","40.738753","-74.002504","102","3","77","1067567","West Village"
"1006170055","20","7 AVENUE",,"NEW YORK","10011","NY","MANHATTAN","40.737328","-74.000585","102","3","77","1011094","West Village"
"1006180024","214","WEST   14 STREET",,"NEW YORK","10011","NY","MANHATTAN","40.738846","-74.000397","102","3","77","1011106","West Village"
"1006180033","48","7 AVENUE",,"NEW YORK","10011","NY","MANHATTAN","40.738116","-74.000014","102","3","77","1011112","West Village"
"1006187501","222","WEST   14 STREET",,"NEW YORK","10011","NY","MANHATTAN","40.738915","-74.000559","102","3","77","1067572","West Village"
"1006187504","122","GREENWICH AVENUE",,"NEW YORK","10011","NY","MANHATTAN","40.738961","-74.002515","102","3","77","1011095","West Village"
"1006190033","330","BLEECKER STREET",,"NEW YORK","10014","NY","MANHATTAN","40.733483","-74.00433","102","3","73","1011145","West Village"
"1006200019","350","BLEECKER STREET",,"NEW YORK","10014","NY","MANHATTAN","40.734106","-74.004601","102","3","73","1011189","West Village"
"1006207501","534","HUDSON STREET",,"NEW YORK","10014","NY","MANHATTAN","40.734273","-74.006195","102","3","73","1011185","West Village"
"1006240001","771","GREENWICH STREET",,"NEW YORK","10014","NY","MANHATTAN","40.73651","-74.006593","102","3","79","1011368","West Village"
"1006247503","302","WEST   12 STREET",,"NEW YORK","10014","NY","MANHATTAN","40.737539","-74.004561","102","3","77","1067716","West Village"
"1006247504","419","BLEECKER STREET",,"NEW YORK","10014","NY","MANHATTAN","40.736661","-74.005322","102","3","77","1011377","West Village"
"1006257501","299","WEST   12 STREET",,"NEW YORK","10014","NY","MANHATTAN","40.737556","-74.005041","102","3","77","1011455","West Village"
"1006260012","631","HUDSON STREET",,"NEW YORK","10014","NY","MANHATTAN","40.738522","-74.005543","102","3","79","1011645","West Village"
"1006270043","320","WEST   13 STREET",,"NEW YORK","10014","NY","MANHATTAN","40.739403","-74.005164","102","3","77","1000000","West Village"
"1006280004","10","9 AVENUE",,"NEW YORK","10014","NY","MANHATTAN","40.739919","-74.006106","102","3","79","1087054","West Village"
"1006280017","652","HUDSON STREET",,"NEW YORK","10014","NY","MANHATTAN","40.739502","-74.005366","102","3","77","1011690","West Village"
"1006290044","305","WEST   13 STREET",,"NEW YORK","10014","NY","MANHATTAN","40.739205","-74.003349","102","3","77","1011714","West Village"
"1006297503","345","WEST   13 STREET",,"NEW YORK","10014","NY","MANHATTAN","40.739889","-74.004947","102","3","77","1011692","West Village"
"1006310001","669","WASHINGTON STREET",,"NEW YORK","10014","NY","MANHATTAN","40.733565","-74.00853","102","3","75","1011743","West Village"
"1006310030","697","GREENWICH STREET",,"NEW YORK","10014","NY","MANHATTAN","40.733694","-74.007307","102","3","75","1011753","West Village"
"1006317502","677","WASHINGTON STREET",,"NEW YORK","10014","NY","MANHATTAN","40.733806","-74.008505","102","3","75","1011761","West Village"
"1006320017","726","GREENWICH STREET",,"NEW YORK","10014","NY","MANHATTAN","40.734737","-74.007062","102","3","75","1011843","West Village"
"1006340047","337","WEST   11 STREET",,"NEW YORK","10014","NY","MANHATTAN","40.735588","-74.007845","102","3","75","1011908","West Village"
"1006350026","772","GREENWICH STREET",,"NEW YORK","10014","NY","MANHATTAN","40.736513","-74.006614","102","3","79","1011938","West Village"
"1006360022","650","WASHINGTON STREET",,"NEW YORK","10014","NY","MANHATTAN","40.732824","-74.008627","102","3","75","1011980","West Village"
"1006360070","150","CHARLES STREET",,"NEW YORK","10014","NY","MANHATTAN","40.734034","-74.008811","102","3","75","1089743","West Village"
"1006370081","167","PERRY STREET",,"NEW YORK","10014","NY","MANHATTAN","40.734676","-74.009483","102","3","75","1012011","West Village"
"1006377502","366","WEST   11 STREET",,"NEW YORK","10014","NY","MANHATTAN","40.735368","-74.009367","102","3","75","1067886","West Village"
"1006377505","165","CHARLES STREET",,"NEW YORK","10014","NY","MANHATTAN","40.733949","-74.009461","102","3","75","1087065","West Village"
"1006380001","427","WEST STREET",,"NEW YORK","10014","NY","MANHATTAN","40.735412","-74.010082","102","3","75","1012044","West Village"
"1006380004","433","WEST STREET",,"NEW YORK","10014","NY","MANHATTAN","40.735593","-74.010064","102","3","75","1078335","West Village"
"1006380019","720","WEST 11 STREET",,"NEW YORK","10019","NY",,,,,,,,
"1006390001","445","WEST STREET",,"NEW YORK","10014","NY","MANHATTAN","40.736109","-74.010013","102","3","79","1012047","West Village"
"1006400012","380","WEST   12 STREET",,"NEW YORK","10014","NY","MANHATTAN","40.73755","-74.008769","102","3","79","1012049","West Village"
"1006400021","756","WASHINGTON STREET",,"NEW YORK","10014","NY","MANHATTAN","40.737051","-74.008256","102","3","79","1087474","West Village"
"1006407501","400","WEST   12 STREET",,"NEW YORK","10014","NY","MANHATTAN","40.737556","-74.009573","102","3","79","1012048","West Village"
"1006410010","128","JANE STREET",,"NEW YORK","10014","NY","MANHATTAN","40.738137","-74.009047","102","3","79","1012075","West Village"
"1006410017","379","WEST   12 STREET",,"NEW YORK","10014","NY","MANHATTAN","40.737564","-74.008671","102","3","79","1000000","West Village"
"1006420004","114","HORATIO STREET",,"NEW YORK","10014","NY","MANHATTAN","40.738736","-74.009061","102","3","79","1012127","West Village"
"1006427502","99","JANE STREET",,"NEW YORK","10014","NY","MANHATTAN","40.738151","-74.008462","102","3","79","1085734","West Village"
"1006430001","521","WEST STREET",,"NEW YORK","10014","NY","MANHATTAN","40.738771","-74.009866","102","3","79","1012154","West Village"
"1006450011",,"WASHINGTON STREET",,"NEW YORK","0","NY",,,,,,,,
"1006450011","848","WASHINGTON STREET",,"NEW YORK","10014","NY","MANHATTAN","40.740624","-74.007719","102","3","79","1012203","West Village"
"1006450029","416","WEST   13 STREET",,"NEW YORK","10014","NY","MANHATTAN","40.740569","-74.006615","102","3","79","1080266","West Village"
"1006467501","415","WEST   13 STREET",,"NEW YORK","10014","NY","MANHATTAN","40.74058","-74.006597","102","3","79","1086105","West Village"
"1006510011","46","MARGINAL STREET",,"NEW YORK","10014","NY",,,,,,,,
"1006510056",,"PIER   56",,"NEW YORK","10011","NY","MANHATTAN","40.742447","-74.009303","104","3","99",,"Hudson Yards-Chelsea-Flatiron-Union Square"
"1006620002",,"MARGINAL STREET",,"NEW YORK","0","NY",,,,,,,,
"1006620010","163","12 AVENUE",,"NEW YORK","10001","NY","MANHATTAN","40.75053","-74.008334","104","3","99","1012254","Hudson Yards-Chelsea-Flatiron-Union Square"
"1006620011","111A","11 AVENUE",,"NEW YORK","10011","NY","MANHATTAN","40.746515","-74.008023","104","3","99","1012256","Hudson Yards-Chelsea-Flatiron-Union Square"
"1006620016","111B","11 AVENUE",,"NEW YORK","10011","NY","MANHATTAN","40.746515","-74.008023","104","3","99","1012255","Hudson Yards-Chelsea-Flatiron-Union Square"
"1006620019","111C","11 AVENUE",,"NEW YORK","10011","NY","MANHATTAN","40.746515","-74.008023","104","3","99","1085935","Hudson Yards-Chelsea-Flatiron-Union Square"
"1006650010",,"12 AVENUE",,"NEW YORK","0","NY",,,,,,,,
"1006650010",,"12 AVENUE",,"NEW YORK","0","NY",,,,,,,,
"1006650010",,"12 AVENUE",,"NEW YORK","0","NY",,,,,,,,
"1006650010",,"12 AVENUE",,"NEW YORK","0","NY",,,,,,,,
"1006650010",,"MARGINAL STREET",,"NEW YORK","0","NY",,,,,,,,
"1006700001","201","11 AVENUE",,"NEW YORK","10001","NY","MANHATTAN","40.749652","-74.006471","104","3","99","1012266","Hudson Yards-Chelsea-Flatiron-Union Square"
"1006700070","231","11 AVENUE",,"NEW YORK","10001","NY","MANHATTAN","40.750489","-74.005858","104","3","99","1012267","Hudson Yards-Chelsea-Flatiron-Union Square"
"1006720001","601","WEST   26 STREET",,"NEW YORK","10001","NY","MANHATTAN","40.750934","-74.005955","104","3","99","1012268","Hudson Yards-Chelsea-Flatiron-Union Square"
"1006730001","261","11 AVENUE",,"NEW YORK","10001","NY","MANHATTAN","40.751502","-74.005118","104","3","99","1079184","Hudson Yards-Chelsea-Flatiron-Union Square"
"1006750012","613","WEST   29 STREET",,"NEW YORK","10001","NY","MANHATTAN","40.752921","-74.004916","104","3","99","1067972","Hudson Yards-Chelsea-Flatiron-Union Square"
"1006800001",,,,"NEW YORK","0","NY",,,,,,,,
"1006800001",,,,"NEW YORK","0","NY",,,,,,,,
"1006800001",,,,"NEW YORK","0","NY",,,,,,,,
"1006800001",,,,"NEW YORK","0","NY",,,,,,,,
"1006800001","360","WEST STREET",,"NEW YORK","10014","NY","MANHATTAN","40.730458","-74.010514","102","3","69",,"West Village"
"1006850042","608","WEST   40 STREET",,"NEW YORK","10018","NY","MANHATTAN","40.759766","-73.99983","104","3","117","1000000","Hudson Yards-Chelsea-Flatiron-Union Square"
"1006870029","85","10 AVENUE",,"NEW YORK","10011","NY","MANHATTAN","40.743059","-74.007546","104","3","99","1012277","Hudson Yards-Chelsea-Flatiron-Union Square"
"1006887501","99","10 AVENUE",,"NEW YORK","10011","NY","MANHATTAN","40.743597","-74.007156","104","3","99","1012278","Hudson Yards-Chelsea-Flatiron-Union Square"
"1006900012","555","WEST   18 STREET",,"NEW YORK","10011","NY","MANHATTAN","40.745134","-74.007525","104","3","99","1012280","Hudson Yards-Chelsea-Flatiron-Union Square"
"1006907501","520","WEST   19 STREET",,"NEW YORK","10011","NY","MANHATTAN","40.745601","-74.006853","104","3","99","1012282","Hudson Yards-Chelsea-Flatiron-Union Square"
"1006910001","112","11 AVENUE",,"NEW YORK","10011","NY","MANHATTAN","40.746545","-74.007994","104","3","99","1012284","Hudson Yards-Chelsea-Flatiron-Union Square"
"1006910029","153","10 AVENUE",,"NEW YORK","10011","NY","MANHATTAN","40.745321","-74.005904","104","3","99","1090162","Hudson Yards-Chelsea-Flatiron-Union Square"
"1006910043","516","WEST   20 STREET",,"NEW YORK","10011","NY","MANHATTAN","40.746213","-74.006493","104","3","99","1012290","Hudson Yards-Chelsea-Flatiron-Union Square"
