"site_id","site_name","initial_submission_a_","gf_permit_appl_id","gf_doitt_submitted_to_cb_a","gf_cb_comment_period_ends_a","street_address","cross_street_1","cross_street_2","longitude","latitude","postcode","cb","council_district","zoningnumb","greenfield_in_bid_location","bid","ppt_id","historic_district","neighborhood_tabulation_area_nta","bin","bbl","census_tract","borough","location_1"
"bk-16-GF34603","CityBridge - GF34603","2021-08-31T00:00:00.000","90020","2021-09-23T00:00:00.000","2021-11-22T00:00:00.000","1220 EAST NEW YORK AVENUE","UNION STREET","RALPH AVENUE","-73.9220364387041","40.66732983925425","11212","316","41","C8-2","No",,"GF34603","0","Baisley Park","4261995","4120640036","QU-790","Queens","(40.66732983925425, -73.9220364387041)"
"qu-12-GF44643","CityBridge - GF44643","2021-10-08T00:00:00.000","90082","2021-10-28T00:00:00.000","2021-12-27T00:00:00.000","122-01 MERRICK BOULEVARD","SUNBURY ROAD","BAISLEY BOULEVARD","-73.7691067","40.6835596","11434","412","27","C1-3","No",,"GF44643","0","Mount Hope",,"2031560034","BX-235.02","Bronx","(40.6835596, -73.7691067)"
"bx-07-GF22259","CityBridge -GF22259","2021-12-21T00:00:00.000","90110","2022-02-10T00:00:00.000","2022-04-12T00:00:00.000","2861 WEBSTER AVENUE","EAST 199 STREET","BEDFORD PARK BOULEVARD","-73.88433501666603","40.86700955610328","10458","207","15","C2-4","No",,"GF22259","0","Jamaica",,"4097580021","446.01","Queens","(40.86700955610328, -73.88433501666603)"
"BK-02-GF34811","CityBridge - GF34811","2022-04-21T00:00:00.000","90190","2022-06-29T00:00:00.000","2022-08-29T00:00:00.000","153 PIERREPONT STREET","Cadman Plaza West","Clinton Street","-73.99117531356728","40.694739634541804","11201","302","33","C6-4","No",,"GF34811","0","Ocean Hill","3039059","3014520051","303","Brooklyn","(40.694739634541804, -73.99117531356728)"
"bx-02-GF22613","CityBridge - GF22613","2021-11-30T00:00:00.000","90098","2022-02-10T00:00:00.000","2022-04-12T00:00:00.000","895 REV JAMES POLITE AVE","WESTCHESTER AVENUE","DAWSON STREET","-73.89899256994056","40.82083037018064","10459","202","17","C1-4","No",,"GF22613","0","Springfield Gardens North",,"4130240095","QN-330","Queens","(40.82083037018064, -73.89899256994056)"
"qu-14-GF44724","CityBridge - GF44724","2021-10-08T00:00:00.000","90051","2021-10-28T00:00:00.000","2021-12-27T00:00:00.000","1400 BRUNSWICK AVENUE","WHEATLEY AVENUE","MINTON STREET","-73.749884","40.608905","11691","414","31","M1-1","No",,"GF44724",,,,,,"Queens","(40.608905, -73.749884)"
"MN-12-GF0844","CityBridge - GF0844","2022-04-09T00:00:00.000","90189","2022-04-09T00:00:00.000","2022-06-09T00:00:00.000","302 DYCKMAN STREET","STAFF STREET","HENSHA WEST STREET","-73.9299091","40.867637","10034","112","10","C8-3","No",,"GF0844","0","St. Albans",,"4127110015","QN-352","Queens","(40.867637, -73.9299091)"
"MN-12-GF0370","CityBridge - GF0370","2022-04-09T00:00:00.000","90182","2022-04-09T00:00:00.000","2022-06-09T00:00:00.000","5030 BROADWAY","10 AVENUE","BROADWAY","-73.915961","40.868953","10034","112","10","C6-2","No",,"GF0370","0","Longwood",,"2027150049","BX-129.01","Bronx","(40.868953, -73.915961)"
"bk-01-GF34839","CityBridge - GF34839","2022-06-16T00:00:00.000","90214","2022-06-29T00:00:00.000","2022-08-29T00:00:00.000","135 HAVEMEYER STREET","SOUTH 1ST STREET","SOUTH 2ND STREET","-73.95716","40.712118","11211","301","34","C1-3",,,"GF34839","0","North Side-South Side",,,,"Brooklyn","(40.712118, -73.95716)"
"QU-03-GF44726","CityBridge - GF44726","2022-04-21T00:00:00.000","90196","2022-05-06T00:00:00.000","2022-07-06T00:00:00.000","69-02 NORTHERN BOULEVARD","70th Street","69th Street","-73.8966898687172","40.7542720449326","11377","403","25","C2-2","No",,"GF44726","0","Bedford Park-Fordham North","2016419","2032790050","2040702","Bronx","(40.7542720449326, -73.8966898687172)"
"bk-01-GF34849","CityBridge - GF34849","2022-06-16T00:00:00.000","90215","2022-06-29T00:00:00.000","2022-08-29T00:00:00.000","202 BEDFORD AVENUE","NORTH 6TH STREET","NORTH 5TH STREET","-73.95849","40.7171885","11249","301","33","C1-4","No",,"GF34849","0","North Side-South Side","3062188","3023350021","BK-553","Brooklyn","(40.7171885, -73.95849)"
"bk-09-GF34701","CityBridge - GF34701","2021-08-31T00:00:00.000","90022","2021-09-23T00:00:00.000","2021-11-22T00:00:00.000","506 UTICA AVENUE","RUTLAND ROAD","MIDWOOD ST","-73.9314637","40.6607504","11203","309","41","C8-2","No",,"GF34701","0","Bushwick North","3076617","3033520001","435","Brooklyn","(40.6607504, -73.9314637)"
"qu-12-GF44664","CityBridge - GF44664","2021-10-08T00:00:00.000","90078","2021-10-28T00:00:00.000","2021-12-27T00:00:00.000","129-01 GUY R BREWER BOULEVARD","129TH AVENUE","130 AVENUE","-73.7784409","40.6772265","11434","412","28","C2-2","No",,"GF44664",,"Bushwick North","3323455","3031670029","BK-447","Brooklyn","(40.6772265, -73.7784409)"
"qu-12-GF44702","CityBridge - GF44702","2021-10-08T00:00:00.000","90067","2021-11-22T00:00:00.000","2022-01-21T00:00:00.000","132-05 MERRICK BOULEVARD","BELKNAP STREET","180TH STREET","-73.7596836","40.6790498","11434","412","27","M1-1","No",,"GF44702",,"Brownsville","3082166","3035940016","BK-894","Brooklyn","(40.6790498, -73.7596836)"
"si-01-GF55185","CityBridge - GF55185","2021-11-30T00:00:00.000","90135","2022-02-10T00:00:00.000","2022-04-12T00:00:00.000","364 FOREST AVENUE","OAKWOOD AVENUE","REVERE STREET","-74.1016256","40.6309916","10301","501","49","C1-2","Yes","Forest Avenue BID","GF55185",,"Port Richmond, Stapleton & Mariner's Harbor",,,,"Staten Island","(40.6309916, -74.1016256)"
"si-01-GF55242","CityBridge - GF55242","2021-11-30T00:00:00.000","90145","2022-02-10T00:00:00.000","2022-04-12T00:00:00.000","700 RICHMOND TERRACE","LAFAYETTE AVENUE","FRANKLIN AVENUE","-74.095462","40.644829","10301","501","49","M3-1","No",,"GF55242",,"Port Richmond, Stapleton & Mariner's Harbor",,,,"Staten Island","(40.644829, -74.095462)"
"bk-09-GF34610","CityBridge - GF34610","2021-08-31T00:00:00.000","90018","2021-09-23T00:00:00.000","2021-11-22T00:00:00.000","145 MONTGOMERY STREET","MONTGOMERY STREET","CROWN STREET","-73.95958748220903","40.66641182469612","11225","309","35","C2-4","No",,"GF34610","0","Brownsville","3080741","3034980001","924","Brooklyn","(40.66641182469612, -73.95958748220903)"
"bk-04-GF34566","CityBridge - GF34566","2021-08-31T00:00:00.000","90004","2021-09-23T00:00:00.000","2021-11-22T00:00:00.000","1715 BUSHWICK AVENUE","ABERDEEN STREET","FURMAN AVENUE","-73.9057214343586","40.68251301218302","11207","304","37","C8-1","No",,"GF34566","0","Bushwick South","3325657","3032760001","421","Brooklyn","(40.68251301218302, -73.9057214343586)"
"BK-04-GF34707","CityBridge - GF34707","2022-04-09T00:00:00.000","90157","2022-04-09T00:00:00.000","2022-06-09T00:00:00.000","12 WILSON AVENUE","NOLL STREET","FLUSHING AVENUE","-73.930797","40.70352838","11206","304","34","M1-1","No",,"GF34707","0","Crown Heights South","3034461","3013070001","323","Brooklyn","(40.70352838, -73.930797)"
"bk-04-GF34567","CityBridge - GF34567","2021-08-31T00:00:00.000","90032","2021-09-23T00:00:00.000","2021-11-22T00:00:00.000","150 STANHOPE STREET","Wilson Ave","DEKALB AVENUE","-73.922190","40.698857","11221","304","37","C2-3","No",,"GF34567","0","Prospect Lefferts Gardens-Wingate","3114995","3050330010","800","Brooklyn","(40.698857, -73.92219)"
"bk-09-GF34626","CityBridge - GF34626","2021-08-31T00:00:00.000","90015","2021-09-23T00:00:00.000","2021-11-22T00:00:00.000","1578 UNION STREET","UNION STREET","PRESIDENT STREET","-73.93686516872168","40.6679473381461","11213","309","35","C1-3","No",,"GF34626","0","Crown Heights South","3032886","3012670001","323","Brooklyn","(40.6679473381461, -73.93686516872168)"
"bk-04-GF33193","CityBridge - GF33193","2021-08-31T00:00:00.000","90093","2021-09-23T00:00:00.000","2021-11-22T00:00:00.000","1493 MYRTLE AVENUE","MYRTLE AVE","IRVING AVE","-73.91593190917175","40.69922809575336","11237","304","37","C2-3","No",,"GF33193","0","Prospect Lefferts Gardens-Wingate","3115441","3050390001","802","Brooklyn","(40.69922809575336, -73.91593190917175)"
"si-01-GF55241","CityBridge - GF55241","2021-11-30T00:00:00.000","90144","2022-02-10T00:00:00.000","2022-04-12T00:00:00.000","514 RICHMOND TERRACE","YORK AVENUE","FRANKLIN AVENUE","-74.0895128","40.6463165","10301","501","49","M3-1","No",,"GF55241",,"Port Richmond, Stapleton & Mariner's Harbor",,,,"Staten Island","(40.6463165, -74.0895128)"
"MN-12-GF0377","CityBridge - GF0377","2022-04-09T00:00:00.000","90184","2022-04-09T00:00:00.000","2022-06-09T00:00:00.000","408 WEST 207 STREET","9 AVENUE","10 AVENUE","-73.917292","40.863691","10034","112","10","C2-4","No",,"GF0377","0","Longwood",,"2026960030","BX-87","Bronx","(40.863691, -73.917292)"
"QU-03-GF44732","CityBridge - GF44732","2022-04-21T00:00:00.000","90201","2022-05-06T00:00:00.000","2022-07-06T00:00:00.000","91-01 NORTHERN BOULEVARD","91st Street","92nd Street","-73.87686507116395","40.7565601749673","11372","403","25","C8-1","No",,"GF44732","0","New Brighton-Silver Lake",,"5001350001",,"Queens","(40.7565601749673, -73.87686507116395)"
"qu-12-GF44711","CityBridge - GF44711","2021-10-08T00:00:00.000","90063","2021-10-28T00:00:00.000","2021-12-27T00:00:00.000","187-07 HENDERSON AVENUE","187TH STREET","188TH STREET","-73.7705514","40.7079772","11423","412","27","M1-1","No",,"GF44711",,"Brownsville","3081156","3035260327","BK-906","Brooklyn","(40.7079772, -73.7705514)"
"bk-04-GF34557","CityBridge - GF34557","2021-08-31T00:00:00.000","90046","2021-09-23T00:00:00.000","2021-11-22T00:00:00.000","471 WILSON AVENUE","JEFFERSON AVENUE","CORNELIA STREET","-73.9118864988559","40.69290662804231","11221","304","37","C2-3","No",,"GF34557","0","Prospect Lefferts Gardens-Wingate","3115868","3050500001","802","Brooklyn","(40.69290662804231, -73.9118864988559)"
"bk-09-GF34616","CityBridge - GF34616","2021-08-31T00:00:00.000","90009","2021-09-23T00:00:00.000","2021-11-22T00:00:00.000","635 ROGERS AVENUE","Rogers Avenue","WINTHROP STREET","-73.952844","40.656065","11225","309","40","C2-3","No",,"GF34616","0","Bushwick North","3251946","3033540001","439","Brooklyn","(40.656065, -73.952844)"
"bx-02-GF22672","CityBridge - GF22672","2021-11-30T00:00:00.000","90159","2022-02-10T00:00:00.000","2022-04-12T00:00:00.000","1280 OAK POINT AVENUE","Oak Point Ave","Randall Ave","-73.8864215","40.8103697","10474","202","17","M3-1","No",,"GF22672","0","St. Albans",,"4124800001","QN-368","Queens","(40.8103697, -73.8864215)"
"qu-12-GF44701","CityBridge - GF44701","2021-10-08T00:00:00.000","90068","2021-10-28T00:00:00.000","2021-12-27T00:00:00.000","182-46 HILLSIDE AVENUE","HILLSIDE AVENUE","89TH AVENUE","-73.7788574","40.713634","11423","412","27","C2-4","No",,"GF44701",,"Brownsville","3082397","3036070008","BK-896","Brooklyn","(40.713634, -73.7788574)"
"bk-16-GF33571","CityBridge - GF33571","2021-08-31T00:00:00.000","90001","2021-09-23T00:00:00.000","2021-11-22T00:00:00.000","354 SARATOGA AVENUE","SAINT MARKS AVENUE","BERGEN STREET","-73.91684504553871","40.67353500191869","11233","316","41","C2-3","No",,"GF33571","0","Bushwick North","3077622","3033840001","435","Brooklyn","(40.67353500191869, -73.91684504553871)"
"BK-16-GF34726","CityBridge - GF34726","2022-04-09T00:00:00.000","90177","2022-04-09T00:00:00.000","2022-06-09T00:00:00.000","345 EAST 98 STREET","RIVERDALE AVENUE","LEGION STREET","-73.9168243","40.6596099","11212","316","42","C1-3","No",,"GF34726","0","St. Albans","4273590","4126970020","QU-352","Queens","(40.6596099, -73.9168243)"
"bk-04-GF34577","CityBridge - GF34577","2021-08-31T00:00:00.000","90039","2021-09-23T00:00:00.000","2021-11-22T00:00:00.000","1507 BROADWAY","BROADWAY","BUSHWICK AVENUE","-73.91750433058269","40.68710566537269","11221","304","37","C1-3","No",,"GF34577","0","Crown Heights South","3330786","3011900029","213","Brooklyn","(40.68710566537269, -73.91750433058269)"
"qu-14-GF44682","CityBridge - GF44682","2021-10-08T00:00:00.000","90056","2021-10-28T00:00:00.000","2021-12-27T00:00:00.000","66-03 BEACH CHANNEL DRIVE","BEACH CHANNEL DRIVE","ROCKAWAY FREEWAY","-73.7952052","40.5927124","11692","414","31","C1-3","No",,"GF44682",,"Washington Heights South",,"1021420244","MH-263","Manhattan","(40.5927124, -73.7952052)"
"si-01-GF55210","CityBridge - GF55210","2021-11-30T00:00:00.000","90140","2022-02-10T00:00:00.000","2022-04-12T00:00:00.000","45 HYATT STREET","ST MARKS PLACE","CENTRAL AVE","-74.0777303","40.6415749","10301","501","49","C4-2","No",,"GF55210",,"Port Richmond, Stapleton & Mariner's Harbor",,,,"Staten Island","(40.6415749, -74.0777303)"
"mn-03-GF0905","CityBridge - GF0905","2022-04-21T00:00:00.000","90211","2022-05-06T00:00:00.000","2022-07-06T00:00:00.000","41 COOPER SQUARE","3RD AVENUE","TARAS SHEVCHENKO PLACE","-73.9905435","40.7282972","10003","103","2","C6-1","No",,"GF0905","0","Longwood",,"2027290001","BX-85","Bronx","(40.7282972, -73.9905435)"
"QU-03-GF44727","CityBridge - GF44727","2022-04-21T00:00:00.000","90197","2022-05-06T00:00:00.000","2022-07-06T00:00:00.000","76-02 NORTHERN BOULEVARD","Northern Boulevard","34th Avenue","-73.890845","40.754722","11372","403","25","C8-1","No",,"GF44727","0","Bedford Park-Fordham North",,"2032780033","BX-405.02","Bronx","(40.754722, -73.890845)"
"bx-02-GF22604","CityBridge - GF22604","2021-11-30T00:00:00.000","90153","2022-02-10T00:00:00.000","2022-04-12T00:00:00.000","928 LONGWOOD AVENUE","LONGWOOD AVENUE","E 156TH STREET","-73.8994941","40.8180506","10455","202","17","C1-4","No",,"GF22604","0","Jamaica",,"4097650032","QU-446.02","Queens","(40.8180506, -73.8994941)"
"qu-12-GF44693","CityBridge - GF44693","2021-10-08T00:00:00.000","90073","2021-10-28T00:00:00.000","2021-12-27T00:00:00.000","87-89 PARSONS BOULEVARD","88 AVENUE","HILLSIDE AVENUE","-73.80222609079588","40.70693617901463","11432","412","24","C2-4","No",,"GF44693",,"Brownsville","3083426","3036780010","BK-908","Brooklyn","(40.70693617901463, -73.80222609079588)"
"bk-16-GF33586","CityBridge - GF33586","2021-08-31T00:00:00.000","90007","2021-09-23T00:00:00.000","2021-11-22T00:00:00.000","1845 STERLING PLACE","SARATOGA AVE","HOWARD AVENUE","-73.91734555704309","40.670796122972085","11233","316","41","C2-3","No",,"GF33586","0","Brownsville","3080899","3035120050","900","Brooklyn","(40.670796122972085, -73.91734555704309)"
"qu-12-GF44618","CityBridge - GF44618","2021-10-08T00:00:00.000","90087","2021-10-28T00:00:00.000","2021-12-27T00:00:00.000","106-17 153rd STREET","153RD STREET","154TH STREET","-73.800417","40.695875","11433","412","28","C2-3","No",,"GF44618","0","West New Brighton-New Brighton-St. George","5001475","5000620106",,"Queens","(40.695875, -73.800417)"
"bx-02-GF22615","CityBridge - GF22615","2021-11-30T00:00:00.000","90099","2022-02-10T00:00:00.000","2022-04-12T00:00:00.000","540 SOUTHERN BOULEVARD","E 149TH STREET","TIMPSON PLACE","-73.90386131017546","40.812127995312906","10455","202","8","C1-4","No",,"GF22615","0","Springfield Gardens North",,"4124950002","QN-334.02","Queens","(40.812127995312906, -73.90386131017546)"
"qu-12-GF44628","CityBridge - GF44628","2021-10-08T00:00:00.000","90086","2021-10-28T00:00:00.000","2021-12-27T00:00:00.000","107-17 MERRICK BOULEVARD","MERRICK BOULEVARD","169TH STREET","-73.78807199936945","40.699730929502486","11433","412","27","C2-4","No",,"GF44628","0","West New Brighton-New Brighton-St. George","5001672","5000670107",,"Queens","(40.699730929502486, -73.78807199936945)"
"QU-02-GF44750","CityBridge - GF44750","2022-04-21T00:00:00.000","90192","2022-05-06T00:00:00.000","2022-07-06T00:00:00.000","49-01 43 AVENUE","43rd Avenue","Skillman Avenue","-73.9154838","40.7447104","11377","402","26","C1-4","No",,"GF44750","0","Hunts Point","2006893","2027720041","BX-93","Bronx","(40.7447104, -73.9154838)"
"BK-03-GF34814","CityBridge - GF34814","2022-04-21T00:00:00.000","90191","2022-06-29T00:00:00.000","2022-08-29T00:00:00.000","1100 BEDFORD AVENUE","Lexington Avenue","Quincy Street","-73.9547514","40.6870953","11216","303","36","C2-4","No",,"GF34814","0","Crown Heights South","3034693","3013120053","331","Brooklyn","(40.6870953, -73.9547514)"
"BK-16-GF34721","CityBridge - GF34721","2022-04-09T00:00:00.000","90173","2022-04-09T00:00:00.000","2022-06-09T00:00:00.000","508 JUNIUS STREET","JUNIUS STREET","POWELL STREET","-73.9012034","40.6620513","11212","316","42","M1-1","No",,"GF34721","0","St. Albans","4220603","4103530085","QU-404","Queens","(40.6620513, -73.9012034)"
"bk-03-GF34840","CityBridge - GF34840","2022-06-16T00:00:00.000","90216","2022-06-29T00:00:00.000","2022-08-29T00:00:00.000","1184 BEDFORD AVENUE","BEDFORD AVENUE","FRANKLIN AVENUE","-73.9541609","40.6836056","11216","303","3","C2-4",,,"GF34840","0","Clinton Hill",,,,"Brooklyn","(40.6836056, -73.9541609)"
"bk-16-GF33579","CityBridge - GF33579","2021-05-14T00:00:00.000","90040","2021-09-23T00:00:00.000","2021-11-22T00:00:00.000","1771 PITKIN AVENUE","WATKINS STREET","MOTHER GASTON BOULEVARD","-73.90780171280895","40.67020607726487","11212","316","37","C2-3","Yes","Pitkin Avenue","GF33579","0","Prospect Lefferts Gardens-Wingate","3251162","3014300034","880","Brooklyn","(40.67020607726487, -73.90780171280895)"
"QU-02-GF44752","CityBridge - GF44752","2022-04-21T00:00:00.000","90193","2022-05-06T00:00:00.000","2022-07-06T00:00:00.000","52-19 QUEENS BOULEVARD","53rd Street","52nd Street","-73.91203518304091","40.742645837812994","11377","402","26","C2-3","No",,"GF44752","0","Hunts Point","2007012","2027770196","BX-93","Bronx","(40.742645837812994, -73.91203518304091)"
"bx-02-GF22606","CityBridge - GF22606","2021-11-30T00:00:00.000","90095","2022-02-10T00:00:00.000","2022-04-12T00:00:00.000","700 SOUTHERN BOULEVARD","SOUTHERN BOULEVARD","BRUCKNER BOULEVARD","-73.898891","40.813456","10455","202","8","C8-3","No",,"GF22606","0","Baisley Park",,"4123540001","QN-284","Queens","(40.813456, -73.898891)"
"bx-07-GF22646","CityBridge - GF22646","2021-12-21T00:00:00.000","90155","2022-02-10T00:00:00.000","2022-04-12T00:00:00.000","2571 WEBSTER AVENUE","E 193RD STREET","E FORDHAM ROAD","-73.8903344","40.8625999","10458","207","15","C2-4","No",,"GF22646","0","Jamaica",,"4099070049","470","Queens","(40.8625999, -73.8903344)"
"bk-04-GF34573","CityBridge - GF34573","2021-08-31T00:00:00.000","90006","2021-09-23T00:00:00.000","2021-11-22T00:00:00.000","143 CENTRAL AVENUE","CENTRAL AVENUE","WILSON AVE","-73.92747","40.699585","11221","304","34","C1-3","No",,"GF34573","0","Bushwick North","3075072","3032870001","431","Brooklyn","(40.699585, -73.92747)"
"BK-04-GF34709","CityBridge - GF34709","2022-04-09T00:00:00.000","90158","2022-04-09T00:00:00.000","2022-06-09T00:00:00.000","1224 FLUSHING AVENUE","FLUSHING AVENUE","JEFFERSON STREET","-73.9240759","40.7072641","11237","304","34","M1-1","No",,"GF34709","0","Bushwick South","3392298","3033330031","417","Brooklyn","(40.7072641, -73.9240759)"
"qu-12-GF44714","CityBridge - GF44714","2021-10-08T00:00:00.000","90060","2021-10-28T00:00:00.000","2021-12-27T00:00:00.000","104-20 DUNKIRK STREET","DUNKIRK STREET","183RD STREET","-73.7752534","40.7052061","11412","412","27","M1-1","No",,"GF44714",,"Marble Hill-Inwood",,"1022030021","MH-299","Manhattan","(40.7052061, -73.7752534)"
"bk-16-GF34604","CityBridge - GF34604","2021-08-31T00:00:00.000","90030","2021-09-23T00:00:00.000","2021-11-22T00:00:00.000","38 SUTTER AVENUE","SUTTER AVENUE","BLAKE AVENUE","-73.92141589773874","40.665354723751825","11212","316","41","C1-3","No",,"GF34604","0","Jamaica","4213862","4099840017","QU-212","Queens","(40.665354723751825, -73.92141589773874)"
"bk-04-GF34562","CityBridge - GF34562","2021-08-31T00:00:00.000","90033","2021-09-23T00:00:00.000","2021-11-22T00:00:00.000","1785 BROADWAY","BROADWAY","BUSHWICK AVENUE","-73.90911783822614","40.68231900008221","11207","304","37","C2-3","No",,"GF34562","0","Crown Heights South","3000000","3034200004","355","Brooklyn","(40.68231900008221, -73.90911783822614)"
"qu-12-GF44642","CityBridge - GF44642","2021-10-08T00:00:00.000","90103","2021-11-22T00:00:00.000","2022-01-21T00:00:00.000","185-07 MERRICK BOULEVARD","MONTAUK STREET","PINEVILLE LANE","-73.75702884110453","40.679753838320764","11422","412","27","C8-1","No",,"GF44642","0","Longwood",,"2026950025","BX-85","Bronx","(40.679753838320764, -73.75702884110453)"
"qu-14-GF44683","CityBridge - GF44683","2021-10-08T00:00:00.000","90055","2021-10-28T00:00:00.000","2021-12-27T00:00:00.000","67-19 ROCKAWAY BEACH BOULEVARD","ROCKAWAY BEACH BOULEVARD","OCEAN AVENUE NORTH","-73.7959967","40.5905701","11692","414","31","C2-4","No",,"GF44683",,"Washington Heights North",,"1022460020","MH-287","Manhattan","(40.5905701, -73.7959967)"
"bk-04-GF34584","CityBridge - GF34584","2021-08-31T00:00:00.000","90008","2021-09-23T00:00:00.000","2021-11-22T00:00:00.000","544 BUSHWICK AVENUE","BEAVER STREET","NOLL STREET","-73.93587393260465","40.699448242669135","11206","304","34","C2-4","No",,"GF34584","0","Prospect Lefferts Gardens-Wingate","3099204","3045900038","880","Brooklyn","(40.699448242669135, -73.93587393260465)"
"bx-02-GF22622","CityBridge - GF22622","2021-11-30T00:00:00.000","90102","2022-02-10T00:00:00.000","2022-04-12T00:00:00.000","1020 KELLY STREET","KELLY STREET","TIFFANY STREET","-73.89567145950718","40.823960122457954","10459","202","17","C1-4","No",,"GF22622","0","Baisley Park",,"4123800021","QN-284","Queens","(40.823960122457954, -73.89567145950718)"
"bk-16-GF34591","CityBridge - GF34591","2021-08-31T00:00:00.000","90028","2021-09-23T00:00:00.000","2021-11-22T00:00:00.000","59 ROCKAWAY AVENUE","SUMPTER STREET","MARION STREET","-73.91133234626521","40.68112260546273","11233","316","37","C2-3","No",,"GF34591","0","Hammels-Arverne-Edgemere",,"4160810045","QU-954","Queens","(40.68112260546273, -73.91133234626521)"
"bx-02-GF22687","CityBridge - GF22687","2021-11-30T00:00:00.000","90107","2022-02-10T00:00:00.000","2022-04-12T00:00:00.000","350 MANIDA STREET","E Bay Ave","Oak Point Ave","-73.886923","40.808637","10474","202","17","M3-1","No",,"GF22687","0","South Jamaica",,"4102440001","QN-414","Queens","(40.808637, -73.886923)"
"qu-12-GF44710","CityBridge - GF44710","2021-10-08T00:00:00.000","90064","2021-10-28T00:00:00.000","2021-12-27T00:00:00.000","99-20 189 STREET","189TH STREET","188TH STREET","-73.7689418","40.7082458","11423","412","27","M1-1","No",,"GF44710",,"Brownsville","3326502","3035130001","BK-900","Brooklyn","(40.7082458, -73.7689418)"
"bk-14-GF34843","CityBridge - GF34843","2022-06-16T00:00:00.000","90220","2022-06-29T00:00:00.000","2022-08-29T00:00:00.000","1490 FLATBUSH AVENUE","GLENWOOD ROAD","EAST 29TH STREET","-73.9494182","40.6343361","11210","314","4","C2-4","Yes","Flatbush-Nostrand Junction BID","GF34843","0","Flatbush",,,,"Brooklyn","(40.6343361, -73.9494182)"
"si-01-GF55248","CityBridge - GF55248","2021-11-30T00:00:00.000","90148","2022-02-10T00:00:00.000","2022-04-12T00:00:00.000","1970 VICTORY BOULEVARD","VICTORY BOULEVARD","PURDY AVENUE","-74.13014236441803","40.61226551485434","10314","501","50","C1-1","No",,"GF55248",,"Port Richmond, Stapleton & Mariner's Harbor",,,,"Staten Island","(40.61226551485434, -74.13014236441803)"
"bk-09-GF34698","CityBridge - GF34698","2021-08-31T00:00:00.000","90044","2021-09-23T00:00:00.000","2021-11-22T00:00:00.000","301 UTICA AVENUE","UNION ST","PRESIDENT STREET","-73.9311537","40.6677","11213","309","41","C4-3","No",,"GF34698","0","Bushwick South","3326376","3032930001","395","Brooklyn","(40.6677, -73.9311537)"
"qu-14-GF44722","CityBridge - GF44722","2021-10-08T00:00:00.000","90052","2021-10-28T00:00:00.000","2021-12-27T00:00:00.000","112-01 BEACH CHANNEL DRIVE","BEACH CHANNEL DRIVE","BEACH 116TH STREET","-73.8345133","40.5826968","11694","414","32","M2-1","No",,"GF44722",,,,,,"Queens","(40.5826968, -73.8345133)"
"qu-12-GF44659","CityBridge - GF44659","2021-10-08T00:00:00.000","90079","2021-10-28T00:00:00.000","2021-12-27T00:00:00.000","175-06 HILLSIDE AVENUE","175TH STREET","Hillside Ave","-73.7877015","40.7116113","11432","412","27","C2-4","No",,"GF44659",,"Bushwick South","3071856","3031480035","BK-425","Brooklyn","(40.7116113, -73.7877015)"
"MN-12-GF0372","CityBridge - GF0372","2022-04-09T00:00:00.000","90183","2022-04-09T00:00:00.000","2022-06-09T00:00:00.000","500 WEST 211TH STREET","10 AVENUE","VERMILYEA AVENUE","-73.917315","40.867083","10034","112","10","C4-4","No",,"GF0372","0","Morrisania-Melrose",,"2026940024","BX-151","Bronx","(40.867083, -73.917315)"
"QU-03-GF44731","CityBridge - GF44731","2022-04-21T00:00:00.000","90200","2022-05-06T00:00:00.000","2022-07-06T00:00:00.000","87-10 NORTHERN BOULEVARD","Northern Boulevard","34th Avenue","-73.87982212883605","40.75595960000002","11372","403","25","C1-2","No",,"GF44731","0","Port Richmond, Stapleton & Mariner's Harbor",,"5010530124",,"Queens","(40.75595960000002, -73.87982212883605)"
"BK-16-GF34725","CityBridge - GF34725","2022-04-09T00:00:00.000","90176","2022-04-09T00:00:00.000","2022-06-09T00:00:00.000","12 NEWPORT STREET","NEWPORT STREET","EAST 98TH STREET","-73.9147426","40.6583704","11212","316","42","C1-3","No",,"GF34725","0","St. Albans","4279930","4129990044","QU-352","Queens","(40.6583704, -73.9147426)"
"bx-02-GF22686","CityBridge - GF22686","2021-11-30T00:00:00.000","90106","2022-02-10T00:00:00.000","2022-04-12T00:00:00.000","1380 RANDALL AVENUE","HALLECK STREET","DRAKE STREET","-73.8814031","40.812791","10474","202","17","M1-2","No",,"GF22686","0","St. Albans",,"4123530424","QN-282","Queens","(40.812791, -73.8814031)"
"si-01-GF55184","CityBridge - GF55184","2021-11-30T00:00:00.000","90134","2022-02-10T00:00:00.000","2022-04-12T00:00:00.000","450 FOREST AVENUE","FORREST AVENUE","DELAFIELD AVENUE","-74.1046661","40.6308407","10301","501","49","C1-1","Yes","Forest Avenue BID","GF55184",,"Port Richmond, Stapleton & Mariner's Harbor",,,,"Staten Island","(40.6308407, -74.1046661)"
"BK-02-GF34807","CityBridge - GF34807","2022-04-21T00:00:00.000","90204","2022-05-06T00:00:00.000","2022-07-06T00:00:00.000","248 DEKALB AVENUE","Vanderbilt Avenue","Clermont Avenue","-73.96928313603327","40.68940040236144","11205","302","35","C2-4","No",,"GF34807","0","Bushwick South","3319554","3031310001","389","Brooklyn","(40.68940040236144, -73.96928313603327)"
"qu-12-GF44595","CityBridge - GF44595","2021-10-08T00:00:00.000","90089","2021-10-28T00:00:00.000","2021-12-27T00:00:00.000","190-50 99 AVENUE","99TH AVENUE","100TH AVENUE","-73.7661947","40.70992","11423","412","27","C2-3","No",,"GF44595","0","Port Richmond, Stapleton & Mariner's Harbor",,"5010220001",,"Queens","(40.70992, -73.7661947)"
"BK-04-GF34714","CityBridge - GF34714","2022-04-09T00:00:00.000","90161","2022-04-09T00:00:00.000","2022-06-09T00:00:00.000","427 TROUTMAN STREET","ST NICHOLAS AVENUE","WYCKOFF AVENUE","-73.92195823","40.70755708","11237","304","34","M1-1","No",,"GF34714","0","Brownsville","3393303","3035310030","900","Brooklyn","(40.70755708, -73.92195823)"
"qu-12-GF44632","CityBridge - GF44632","2021-10-08T00:00:00.000","90085","2021-10-28T00:00:00.000","2021-12-27T00:00:00.000","116-02 MERRICK BOULEVARD","116TH AVENUE","FOCH BOULEVARD","-73.77667079770832","40.68824064780581","11434","412","27","C2-3","No",,"GF44632","0","West New Brighton-New Brighton-St. George","5001742","5000700020",,"Queens","(40.68824064780581, -73.77667079770832)"
"BK-16-GF34720","CityBridge - GF34720","2022-04-09T00:00:00.000","90172","2022-04-09T00:00:00.000","2022-06-09T00:00:00.000","455 DUMONT AVENUE","JUNIUS STREET","POWELL STREET","-73.9020349","40.6652168","11212","316","42","M1-1","No",,"GF34720","0","Jamaica","4533758","4102170048","QU-444","Queens","(40.6652168, -73.9020349)"
"qu-12-GF44592","CityBridge - GF44592","2021-10-08T00:00:00.000","90090","2021-10-28T00:00:00.000","2021-12-27T00:00:00.000","160-10 89 AVENUE","89TH AVENUE","90TH AVENUE","-73.79994672374272","40.70624695869236","11432","412","24","C4-5X","No",,"GF44592","0","West New Brighton-New Brighton-St. George",,"5000060021",,"Queens","(40.70624695869236, -73.79994672374272)"
"mn-03-GF0900","CityBridge - GF0900","2022-04-21T00:00:00.000","90210","2022-05-06T00:00:00.000","2022-07-06T00:00:00.000","94 HESTER STREET","ELDRIDGE STREET","ALLEN STREET","-73.99268584764266","40.71639249930754","10002","103","1","C6-1G","Yes","Chinatown","GF0900","0","Longwood","2005456","2027030025","2008700","Bronx","(40.71639249930754, -73.99268584764266)"
"QU-06-GF44743","CityBridge - GF44743","2022-04-21T00:00:00.000","90202","2022-06-29T00:00:00.000","2022-08-29T00:00:00.000","92-24 QUEENS BOULEVARD","Eliot Avenue","62nd Avenue","-73.86821","40.732402","11374","406","29","C1-2","No",,"GF44743","0","New Brighton-Silver Lake",,"5002520013",,"Queens","(40.732402, -73.86821)"
"qu-14-GF44684","CityBridge - GF44684","2021-10-08T00:00:00.000","90054","2021-10-28T00:00:00.000","2021-12-27T00:00:00.000","7219 ROCKAWAY BEACH BLVD","BEACH 73 STREET","BEACH CHANNEL DRIVE","-73.800655","40.589357","11692","414","31","C2-4","No",,"GF44684",,,,,,"Queens","(40.589357, -73.800655)"
"bk-04-GF34583","CityBridge - GF34583","2021-08-31T00:00:00.000","90038","2021-09-23T00:00:00.000","2021-11-22T00:00:00.000","1741 BROADWAY","BROADWAY","CHAUNCEY STREET","-73.91060827498379","40.68317106142229","11207","304","37","C2-3","No",,"GF34583","0","Brownsville","3081392","3035390027","902","Brooklyn","(40.68317106142229, -73.91060827498379)"
"bk-04-GF34685","CityBridge - GF34685","2021-08-31T00:00:00.000","90017","2021-09-23T00:00:00.000","2021-11-22T00:00:00.000","219 HARMAN STREET","MYRTLE AVENUE","WILSON AVENUE","-73.9201946","40.6984865","11237","304","37","C2-3","No",,"GF34685","0","Brownsville","3080779","3035080012","900","Brooklyn","(40.6984865, -73.9201946)"
"qu-12-GF44695","CityBridge - GF44695","2021-10-08T00:00:00.000","90072","2021-10-28T00:00:00.000","2021-12-27T00:00:00.000","145-07 JAMAICA AVENUE","145TH STREET","146TH STREET","-73.80960712880136","40.70200929455737","11435","412","24","C2-4","No",,"GF44695",,"Brownsville","3084427","3037800044","BK-910","Brooklyn","(40.70200929455737, -73.80960712880136)"
"bk-09-GF34615","CityBridge - GF34615","2021-08-31T00:00:00.000","90026","2021-09-23T00:00:00.000","2021-11-22T00:00:00.000","157 EMPIRE BOULEVARD","BEDFORD AVENUE","RODGERS AVENUE","-73.95701374662706","40.66362610935025","11225","309","35","C8-2","No",,"GF34615","0","Bushwick North","3076185","3033280036","441","Brooklyn","(40.66362610935025, -73.95701374662706)"
"qu-12-GF44717","CityBridge - GF44717","2021-10-08T00:00:00.000","90059","2021-10-28T00:00:00.000","2021-12-27T00:00:00.000","143-11 ARCHER AVENUE","143RD STREET","144TH PLACE","-73.8104745","40.6996756","11435","412","24","C4-4","No",,"GF44717",,"Marble Hill-Inwood",,"1022000005","MH-299","Manhattan","(40.6996756, -73.8104745)"
"bk-16-GF34589","CityBridge - GF34589","2021-08-31T00:00:00.000","90021","2021-09-23T00:00:00.000","2021-11-22T00:00:00.000","155 HERZL STREET","AMBOY STREET","Sutter Ave","-73.9147","40.666322","11212","316","41","C1-3","No",,"GF34589","0","Hammels-Arverne-Edgemere",,"4161310001","QU-942.03","Queens","(40.666322, -73.9147)"
"si-01-GF55216","CityBridge - GF55216","2021-11-30T00:00:00.000","90131","2022-02-10T00:00:00.000","2022-04-12T00:00:00.000","176 PORT RICHMOND AVENUE","HARRISON AVENUE","NEW STREET","-74.13427022944775","40.63684973359265","10302","501","49","C4-2","No",,"GF55216",,"Port Richmond, Stapleton & Mariner's Harbor",,,,"Staten Island","(40.63684973359265, -74.13427022944775)"
"bk-04-GF34548","CityBridge - GF34548","2021-08-31T00:00:00.000","90029","2021-09-23T00:00:00.000","2021-11-22T00:00:00.000","87 MELROSE STREET","STANWIX STREET","JEFFERSON STREET","-73.93420776074791","40.69907886935168","11206","304","34","C2-4","No",,"GF34548","0","Bushwick South","3325272","3031960001","423","Brooklyn","(40.69907886935168, -73.93420776074791)"
"qu-12-GF44696","CityBridge - GF44696","2021-10-08T00:00:00.000","90071","2021-10-28T00:00:00.000","2021-12-27T00:00:00.000","166-18 HILLSIDE AVENUE","167TH STREET","MERRICK BOULEVARD","-73.795575","40.709665","11432","412","27","C2-4","No",,"GF44696",,"Brownsville","3085323","3038310025","BK-918","Brooklyn","(40.709665, -73.795575)"
"si-01-GF55190","CityBridge - GF55190","2021-11-30T00:00:00.000","90137","2022-02-10T00:00:00.000","2022-04-12T00:00:00.000","1670 VICTORY BOULEVARD","VICTORY BOULEVARD","WINDSOR ROAD","-74.1192291","40.6131775","10314","501","49","C1-1","No",,"GF55190",,"Port Richmond, Stapleton & Mariner's Harbor",,,,"Staten Island","(40.6131775, -74.1192291)"
"bk-04-GF34563","CityBridge - GF34563","2021-08-31T00:00:00.000","90043","2021-09-23T00:00:00.000","2021-11-22T00:00:00.000","1695 BROADWAY","BUSHWICK AVENUE","BROADWAY","-73.91211747823306","40.68406096212592","11207","304","37","C1-3","No",,"GF34563","0","Brownsville","3000000","3035200001","924","Brooklyn","(40.68406096212592, -73.91211747823306)"
"bk-09-GF34613","CityBridge - GF34613","2021-08-31T00:00:00.000","90036","2021-09-23T00:00:00.000","2021-11-22T00:00:00.000","1671 BEDFORD AVENUE","BEDFORD AVENUE","SULLIVAN PLACE","-73.95668549317783","40.665651439720534","11225","309","35","C2-3","No",,"GF34613","0","Bushwick South","3080294","3034560009","403","Brooklyn","(40.665651439720534, -73.95668549317783)"
"bk-16-GF33575","CityBridge - GF33575","2021-05-14T00:00:00.000","90031","2021-09-23T00:00:00.000","2021-11-22T00:00:00.000","1642 PITKIN AVENUE","BRISTOL STREET","CHESTER STREET","-73.91241791225876","40.66937191454778","11212","316","41","C4-3","Yes","Pitkin Avenue","GF33575","0","Bushwick South","3391647","3034140009","401","Brooklyn","(40.66937191454778, -73.91241791225876)"
"QU-02-GF44757","CityBridge - GF44757","2022-04-21T00:00:00.000","90194","2022-05-06T00:00:00.000","2022-07-06T00:00:00.000","50-15 ROOSEVELT AVENUE","51st Street","50th Street","-73.9140299","40.7443387","11377","402","26","C1-4","No",,"GF44757","0","Hunts Point","2097267","2027690193","BX-117","Bronx","(40.7443387, -73.9140299)"
"bk-04-GF34572","CityBridge - GF34572","2021-08-31T00:00:00.000","90034","2021-09-23T00:00:00.000","2021-11-22T00:00:00.000","260 WYCKOFF AVENUE","WYCKOFF AVENUE","MYRTLE AVENUE","-73.91273599999998","40.70029153559324","11237","304","37","C2-3","No",,"GF34572","0","Crown Heights South","3034430","3013050009","321","Brooklyn","(40.70029153559324, -73.91273599999998)"
"BK-16-GF34717","CityBridge - GF34717","2022-04-09T00:00:00.000","90170","2022-04-09T00:00:00.000","2022-06-09T00:00:00.000","91 JUNIUS STREET","JUNIUS STREET","VAN SINDEREN AVENUE","-73.9034668","40.6721211","11207","316","37","M1-4","Yes","East Brooklyn BID","GF34717","0","Jamaica","4220270","4103430070","QU-444","Queens","(40.6721211, -73.9034668)"
"bk-14-GF34848","CityBridge - GF34848","2022-06-16T00:00:00.000","90222","2022-06-29T00:00:00.000","2022-08-29T00:00:00.000","2186 BEDFORD ROAD","CHURCH AVENUE","MARTENESE STREET","-73.955928","40.650701","11226","314","40","C4-4A","No",,"GF34848","0","Flatbush","3116870","3050890048","BK-796.02","Brooklyn","(40.650701, -73.955928)"
"bk-09-GF34699","CityBridge - GF34699","2021-08-31T00:00:00.000","90010","2021-09-23T00:00:00.000","2021-11-22T00:00:00.000","381 UTICA AVENUE","CROWN STREET","MONTGOMERY STREET","-73.931588","40.665119","11213","309","41","C1-3","No",,"GF34699","0","Bushwick South","3397960","3034320008","403","Brooklyn","(40.665119, -73.931588)"
"qu-12-GF44669","CityBridge - GF44669","2021-10-08T00:00:00.000","90076","2021-10-28T00:00:00.000","2021-12-27T00:00:00.000","136-09 FARMERS BOULEVARD","FARMERS BLVD","136TH AVE","-73.76341396906517","40.6746274131185","11434","412","27","C1-3","No",,"GF44669",,"Bushwick North","3072636","3031900037","BK-447","Brooklyn","(40.6746274131185, -73.76341396906517)"
"bk-09-GF34620","CityBridge - GF34620","2021-08-31T00:00:00.000","90016","2021-09-23T00:00:00.000","2021-11-22T00:00:00.000","319 ROGERS AVENUE","MONTGOMERY STREET","SULLIVAN PLACE","-73.95363516769007","40.66542590707134","11225","309","35","C1-3","No",,"GF34620","0","Bushwick South","3397023","3034440005","403","Brooklyn","(40.66542590707134, -73.95363516769007)"
"si-01-GF55218","CityBridge - GF55218","2021-11-30T00:00:00.000","90141","2022-02-10T00:00:00.000","2022-04-12T00:00:00.000","139 PORT RICHMOND AVENUE","VREELAND STREET","BENNETT STREET","-74.13352403052636","40.63769391566714","10302","501","49","C4-2","No",,"GF55218",,"Port Richmond, Stapleton & Mariner's Harbor",,,,"Staten Island","(40.63769391566714, -74.13352403052636)"
"bx-02-GF22608","CityBridge - GF22608","2021-11-30T00:00:00.000","90158","2022-02-10T00:00:00.000","2022-04-12T00:00:00.000","995 WESTCHESTER AVENUE","E 165TH STREET","WESTCHESTER AVENUE","-73.8939572","40.8238672","10459","202","17","C1-4","No",,"GF22608","0","Springfield Gardens North",,"4125820031","QN-334.02","Queens","(40.8238672, -73.8939572)"
"qu-12-GF44713","CityBridge - GF44713","2021-10-08T00:00:00.000","90061","2021-10-28T00:00:00.000","2021-12-27T00:00:00.000","177-01 LIBERTY AVENUE","LIBERTY AVENUE","93RD AVENUE","-73.7826493","40.7056732","11433","412","27","M1-1","No",,"GF44713",,"Marble Hill-Inwood",,"1022290032","MH-303","Manhattan","(40.7056732, -73.7826493)"
"si-01-GF55247","CityBridge - GF55247","2021-11-30T00:00:00.000","90147","2022-02-10T00:00:00.000","2022-04-12T00:00:00.000","175 LYNHURST AVENUE","TOMPKINS AVENUE","DITSON STREET","-74.07404527801182","40.617025950074364","10305","501","49","M3-1","No",,"GF55247",,"Port Richmond, Stapleton & Mariner's Harbor",,,,"Staten Island","(40.617025950074364, -74.07404527801182)"
"si-01-GF55180","CityBridge - GF55180","2021-11-30T00:00:00.000","90133","2022-02-10T00:00:00.000","2022-04-12T00:00:00.000","1465 FOREST AVENUE","LIVERMORE AVENUE","MARIANNE STREET","-74.1373726","40.6243176","10302","501","49","C4-1","No",,"GF55180",,"Port Richmond, Stapleton & Mariner's Harbor",,,,"Staten Island","(40.6243176, -74.1373726)"
"MN-12-GF0828","CityBridge - GF0828","2022-04-09T00:00:00.000","90187","2022-04-09T00:00:00.000","2022-06-09T00:00:00.000","401 West 203rd Street","9 AVENUE","10 AVENUE","-73.9190991","40.8612733","10034","112","10","C2-4","No",,"GF0828","0","Longwood",,"2027290090","BX-85","Bronx","(40.8612733, -73.9190991)"
"BK-16-GF34736","CityBridge - GF34736","2022-04-09T00:00:00.000","90180","2022-04-09T00:00:00.000","2022-06-09T00:00:00.000","105 SUTTER AVENUE","SUTTER AVENUE","PITKIN AVENUE","-73.9177065","40.6661595","11212","316","41","C1-3","No",,"GF34736","0","Jamaica","4310519","4098250021","QU-460","Queens","(40.6661595, -73.9177065)"
"BK-16-GF34724","CityBridge - GF34724","2022-04-09T00:00:00.000","90175","2022-04-09T00:00:00.000","2022-06-09T00:00:00.000","9829 DITMAS AVENUE","BRISTOL STREET","CHESTER STREET","-73.90799647","40.65256017","11236","316","42","M1-1","No",,"GF34724","0","St. Albans","4280066","4129990160","QU-352","Queens","(40.65256017, -73.90799647)"
"bk-06-GF34829","CityBridge - GF34829","2022-06-16T00:00:00.000","90217","2022-06-29T00:00:00.000","2022-08-29T00:00:00.000","252 3RD AVENUE","3RD AVENUE","NEVINS STREET","-73.9856123","40.678353","11217","306","39","M1-2",,,"GF34829","0","Park Slope-Gowanus",,,,"Brooklyn","(40.678353, -73.9856123)"
"BK-04-GF34710","CityBridge - GF34710","2022-04-09T00:00:00.000","90159","2022-04-09T00:00:00.000","2022-06-09T00:00:00.000","1300 FLUSHING AVENUE","CYPRESS AVENUE","SCOTT AVENUE","-73.92195375","40.70925228","11237","304","34","M1-1","No",,"GF34710","0","Ocean Hill","3041419","3015220070","369","Brooklyn","(40.70925228, -73.92195375)"
"bx-05-GF22634","CityBridge - GF22634","2021-11-30T00:00:00.000","90154","2022-02-10T00:00:00.000","2022-04-12T00:00:00.000","219 EAST BURNSIDE AVENUE","EAST BURNSIDE AVENUE","ANTHONY AVENUE","-73.90265545337294","40.85202589194878","10457","205","15","C1-4","No",,"GF22634","0","South Jamaica",,"4101210058","QN-254","Queens","(40.85202589194878, -73.90265545337294)"
"bx-07-GF22647","CityBridge - GF22647","2021-12-21T00:00:00.000","90111","2022-02-10T00:00:00.000","2022-04-12T00:00:00.000","2737 WEBSTER AVENUE","E 197TH STREET","DECATUR AVENUE","-73.8870181","40.8653853","10458","207","15","C2-4","No",,"GF22647","0","Briarwood-Jamaica Hills",,"4096830036","214","Queens","(40.8653853, -73.8870181)"
"qu-12-GF44657","CityBridge - GF44657","2021-10-08T00:00:00.000","90080","2021-10-28T00:00:00.000","2021-12-27T00:00:00.000","153-21 ROCKAWAY BOULEVARD","ROCKAWAY BOULEVARD","135TH AVENUE","-73.7829417","40.6701425","11434","412","28","C2-2","Yes","Greater JFK","GF44657","0","Hammels-Arverne-Edgemere",,"4161270016","QU-942.02","Queens","(40.6701425, -73.7829417)"
"bx-02-GF22619","CityBridge - GF22619","2021-11-30T00:00:00.000","90101","2022-02-10T00:00:00.000","2022-04-12T00:00:00.000","751 BRUCKNER BOULEVARD","SOUTHERN BLVD","BRUCKNER BLVD","-73.8968079","40.8145707","10455","202","8","C8-3","No",,"GF22619","0","Springfield Gardens North",,"4122920001","QN-294","Queens","(40.8145707, -73.8968079)"
"bk-16-GF34593","CityBridge - GF34593","2021-08-31T00:00:00.000","90050","2021-09-23T00:00:00.000","2021-11-22T00:00:00.000","1525 PITKIN AVENUE","PITKIN AVENUE","SUTTER AVENUE","-73.9172705","40.6688766","11212","316","41","C1-3","Yes","Pitkin Avenue BID","GF34593","0","Hammels-Arverne-Edgemere",,"4159390104","QU-954","Queens","(40.6688766, -73.9172705)"
"qu-12-GF44706","CityBridge - GF44706","2021-10-08T00:00:00.000","90065","2021-10-28T00:00:00.000","2021-12-27T00:00:00.000","136-39 SPRINGFIELD BLVD","137TH AVENUE","CARSON STREET","-73.7556471","40.6766698","11413","412","27","M1-1","No",,"GF44706",,"Brownsville","3081986","3035810027","BK-894","Brooklyn","(40.6766698, -73.7556471)"
"qu-12-GF44600","CityBridge - GF44600","2021-10-08T00:00:00.000","90096","2021-11-22T00:00:00.000","2022-01-21T00:00:00.000","204-01 HOLLIS AVENUE","HOLLIS AVENUE","109TH AVENUE","-73.7539205","40.7068697","11412","412","27","C2-3","No",,"GF44600","0","West New Brighton-New Brighton-St. George",,"5000080070",,"Queens","(40.7068697, -73.7539205)"
"qu-12-GF44633","CityBridge - GF44633","2021-10-08T00:00:00.000","90084","2021-10-28T00:00:00.000","2021-12-27T00:00:00.000","118-02 MERRICK BOULEVARD","MERRICK BOULEVARD","FOCH BOULEVARD","-73.774479","40.686614","11434","412","27","C1-3","No",,"GF44633","0","Stapleton-Rosebank","5042517","5028430001",,"Queens","(40.686614, -73.774479)"
"QU-08-GF44755","CityBridge - GF44755","2022-04-21T00:00:00.000","90203","2022-06-29T00:00:00.000","2022-08-29T00:00:00.000","139-01 QUEENS BOULEVARD","87th Avenue","Hillside Avenue","-73.8164896","40.7063798","11435","408","24","C4-3","No",,"GF44755","0","Westerleigh",,"5007080018",,"Queens","(40.7063798, -73.8164896)"
"BK-16-GF34733","CityBridge - GF34733","2022-04-09T00:00:00.000","90179","2022-04-09T00:00:00.000","2022-06-09T00:00:00.000","285 GRAFTON STREET","LIVONIA AVENUE","EAST 98TH STREET","-73.9172621","40.6611472","11212","316","41","C2-3","No",,"GF34733","0","Jamaica","4214020","4100000024","QU-208","Queens","(40.6611472, -73.9172621)"
"qu-14-GF44687","CityBridge - GF44687","2021-10-08T00:00:00.000","90053","2021-10-28T00:00:00.000","2021-12-27T00:00:00.000","88-07 ROCKAWAY BEACH BOULEVARD","BEACH 90 STREET","BEACH 84 STREET","-73.81305","40.5863282","11693","414","32","C1-2","No",,"GF44687",,,,,,"Queens","(40.5863282, -73.81305)"
"bk-04-GF34686","CityBridge - GF34686","2021-08-31T00:00:00.000","90042","2021-09-23T00:00:00.000","2021-11-22T00:00:00.000","1250 BROADWAY","BROADWAY","Bushwick Ave","-73.9254135","40.6916061","11221","304","34","C4-3","No",,"GF34686","0","Prospect Lefferts Gardens-Wingate","3107065","3048040040","810","Brooklyn","(40.6916061, -73.9254135)"
"qu-12-GF44725","CityBridge - GF44725","2021-10-08T00:00:00.000","90058","2021-10-28T00:00:00.000","2021-12-27T00:00:00.000","145-52 ROCKAWAY BOULEVARD","ROCKAWAY BOULEVARD","SUTTER AVENUE","-73.7917962","40.6732715","11436","412","28","C2-3","No",,"GF44725",,"Washington Heights North",,"1021550086","MH-269","Manhattan","(40.6732715, -73.7917962)"
"MN-12-GF0827","CityBridge - GF0827","2022-04-09T00:00:00.000","90186","2022-04-09T00:00:00.000","2022-06-09T00:00:00.000","2500 AMSTERDAM AVENUE","WEST 184 STREET","WEST 183 STREET","-73.9297652","40.8498293","10033","112","10","C2-4","No",,"GF0827","0","Longwood",,"2026930001","BX-131","Bronx","(40.8498293, -73.9297652)"
"QU-03-GF44729","CityBridge - GF44729","2022-04-21T00:00:00.000","90199","2022-05-06T00:00:00.000","2022-07-06T00:00:00.000","81-20 NORTHERN BOULEVARD","82nd Street","81st Street","-73.8855731","40.7554412","11372","403","25","C1-2","No",,"GF44729","0","Mariner's Harbor-Arlington-Port Ivory-Graniteville",,"5012000001",,"Queens","(40.7554412, -73.8855731)"
"qu-12-GF44670","CityBridge - GF44670","2021-10-08T00:00:00.000","90075","2021-10-28T00:00:00.000","2021-12-27T00:00:00.000","138-02 FARMERS BOULEVARD","138TH AVENUE","139TH ROAD","-73.7641875","40.6726912","11434","412","31","C1-3","No",,"GF44670",,"Bushwick North","3072422","3031770025","BK-447","Brooklyn","(40.6726912, -73.7641875)"
"bk-09-GF34618","CityBridge - GF34618","2021-08-31T00:00:00.000","90014","2021-09-23T00:00:00.000","2021-11-22T00:00:00.000","222 MAPLE STREET","RODGERS AVENUE","NOSTRAND AVENUE","-73.9533006909184","40.66060698984876","11225","309","40","C2-3","No",,"GF34618","0","Brownsville","3252309","3035220001","906","Brooklyn","(40.66060698984876, -73.9533006909184)"
"bk-16-GF34588","CityBridge - GF34588","2021-08-31T00:00:00.000","90011","2021-09-23T00:00:00.000","2021-11-22T00:00:00.000","177 BRISTOL STREET","SUTTER AVENUE","PITKIN AVENUE","-73.911928","40.66702","11212","316","41","C1-3","No",,"GF34588","0","Breezy Point-Belle Harbor-Rockaway Park-Broad Channel","4529496","4161660426","QU-938","Queens","(40.66702, -73.911928)"
"bk-04-GF34550","CityBridge - GF34550","2021-08-31T00:00:00.000","90027","2021-09-23T00:00:00.000","2021-11-22T00:00:00.000","338 WILSON AVENUE","WILSON AVENUE","CENTRAL AVENUE","-73.91711","40.695661","11221","304","37","C2-3","No",,"GF34550","0","Ocean Hill","3039392","3014680001","363","Brooklyn","(40.695661, -73.91711)"
"qu-12-GF44697","CityBridge - GF44697","2021-10-08T00:00:00.000","90070","2021-10-28T00:00:00.000","2021-12-27T00:00:00.000","169-28 HILLSIDE AVENUE","HILLSIDE AVENUE","88th AVENUE","-73.7919889","40.7109","11432","412","27","C2-4","No",,"GF44697",,"Brownsville","3421599","3038630039","BK-920","Brooklyn","(40.7109, -73.7919889)"
"bx-02-GF22684","CityBridge - GF22684","2021-11-30T00:00:00.000","90105","2022-02-10T00:00:00.000","2022-04-12T00:00:00.000","1200 RANDALL AVENUE","Tiffany St","Casanova St","-73.890248","40.811476","10474","202","17","M1-2","No",,"GF22684","0","St. Albans",,"4123670234","QN-282","Queens","(40.811476, -73.890248)"
"bk-09-GF34622","CityBridge - GF34622","2021-08-31T00:00:00.000","90002","2021-09-23T00:00:00.000","2021-11-22T00:00:00.000","468 ALBANY AVENUE","EMPIRE BOULEVARD","MONTGOMERY STREET","-73.9399885","40.6640708","11213","309","35","C1-3","No",,"GF34622","0","Bushwick South","3400898","3033800001","397","Brooklyn","(40.6640708, -73.9399885)"
"bk-16-GF34599","CityBridge - GF34599","2021-08-31T00:00:00.000","90025","2021-09-23T00:00:00.000","2021-11-22T00:00:00.000","1412 EASTERN PARKWAY","EASTERN PARKWAY","HOWARD AVENUE","-73.92141825359627","40.668541603727874","11233","316","41","C2-4","No",,"GF34599","0","Hammels-Arverne-Edgemere",,"4159130070","QU-964","Queens","(40.668541603727874, -73.92141825359627)"
"si-01-GF55201","CityBridge - GF55201","2021-11-30T00:00:00.000","90138","2022-02-10T00:00:00.000","2022-04-12T00:00:00.000","355 FRONT STREET","WATER STREET","CANAL STREET","-74.0741254","40.6272193","10304","501","49","C4-2","No",,"GF55201",,"Port Richmond, Stapleton & Mariner's Harbor",,,,"Staten Island","(40.6272193, -74.0741254)"
"si-01-GF55221","CityBridge - GF55221","2021-11-30T00:00:00.000","90142","2022-02-10T00:00:00.000","2022-04-12T00:00:00.000","130 STUYVESANT PLACE","SCHUYLER STREET","HYATT STREET","-74.07707082418717","40.64308722034716","10301","501","49","C4-2","No",,"GF55221",,"Port Richmond, Stapleton & Mariner's Harbor",,,,"Staten Island","(40.64308722034716, -74.07707082418717)"
"bk-04-GF33287","CityBridge - GF33287","2021-05-14T00:00:00.000","90012","2021-09-23T00:00:00.000","2021-11-22T00:00:00.000","217 KNICKERBOCKER AVENUE","TROUTMAN STREET","STARR STREET","-73.92596317","40.70319909","11237","304","34","C1-3","No",,"GF33287","0","Bushwick South","3325694","3032970001","419","Brooklyn","(40.70319909, -73.92596317)"
"qu-12-GF44591","CityBridge - GF44591","2021-10-08T00:00:00.000","90091","2021-10-28T00:00:00.000","2021-12-27T00:00:00.000","185-01 JAMAICA AVENUE","186TH ST","186TH STREET","-73.7739538","40.7097955","11423","412","27","C2-4","No",,"GF44591","0","Stapleton-Rosebank",,"5028530001",,"Queens","(40.7097955, -73.7739538)"
"bk-04-GF34582","CityBridge - GF34582","2021-08-31T00:00:00.000","90000","2021-09-23T00:00:00.000","2021-11-22T00:00:00.000","789 BROADWAY","BROADWAY","BEAVER STREET","-73.94036356631136","40.700029916949106","11206","304","34","C4-3","No",,"GF34582","0","Brownsville","3393291","3035090036","900","Brooklyn","(40.700029916949106, -73.94036356631136)"
"qu-12-GF44705","CityBridge - GF44705","2021-10-08T00:00:00.000","90066","2021-10-28T00:00:00.000","2021-12-27T00:00:00.000","132-20 BELKNAP STREET","137TH AVENUE","136TH AVENUE","-73.7579126","40.6762848","11434","412","27","M1-1","No",,"GF44705",,"Brownsville","3405082","3036760030","BK-908","Brooklyn","(40.6762848, -73.7579126)"
"bk-14-GF34847","CityBridge - GF34847","2022-06-16T00:00:00.000","90221","2022-06-29T00:00:00.000","2022-08-29T00:00:00.000","1634 CHURCH AVENUE","EAST 17TH STREET","BUCKINGHAM ROAD","-73.9641036","40.6489654","11226","314","40","C2-4","Yes","Church Avenue BID","GF34847","0","Flatbush","3255284","3050970076","BK-512","Brooklyn","(40.6489654, -73.9641036)"
"BK-16-GF34718","CityBridge - GF34718","2022-04-09T00:00:00.000","90171","2022-04-09T00:00:00.000","2022-06-09T00:00:00.000","5 JUNIUS STREET","EAST NEW YORK AVENUE","LIBERTY AVENUE","-73.9044","40.6749545","11212","316","37","M1-4","Yes","East Brooklyn BID","GF34718","0","Jamaica","4220099","4103290007","QU-444","Queens","(40.6749545, -73.9044)"
"si-01-GF55189","CityBridge - GF55189","2021-11-30T00:00:00.000","90136","2022-02-10T00:00:00.000","2022-04-12T00:00:00.000","1910 VICTORY BOULEVARD","VICTORY BOULEVARD","PURDY AVENUE","-74.1277281","40.6125453","10314","501","50","C2-1","No",,"GF55189",,"Port Richmond, Stapleton & Mariner's Harbor",,,,"Staten Island","(40.6125453, -74.1277281)"
"qu-12-GF44668","CityBridge - GF44668","2021-10-08T00:00:00.000","90077","2021-11-22T00:00:00.000","2022-01-21T00:00:00.000","185-11 140 AVENUE","SOUTHGATE PLAZA","WESTGATE ST","-73.75918672202612","40.67259097960433","11413","412","27","C1-3","No",,"GF44668",,"Bushwick North","3072166","3031690017","BK-447","Brooklyn","(40.67259097960433, -73.75918672202612)"
"bk-09-GF34611","CityBridge - GF34611","2021-08-31T00:00:00.000","90041","2021-09-23T00:00:00.000","2021-11-22T00:00:00.000","402 EASTERN PARKWAY","EASTERN PARKWAY","UNION STREET","-73.95529384662703","40.66978283853585","11225","309","35","C8-2","No",,"GF34611","0","Bushwick South","3073789","3032450001","421","Brooklyn","(40.66978283853585, -73.95529384662703)"
"bx-05-GF22638","CityBridge - GF22638","2021-11-30T00:00:00.000","90108","2022-02-10T00:00:00.000","2022-04-12T00:00:00.000","2010 VALENTINE AVENUE","E 179TH STREET","E 178TH STREET","-73.89948937055227","40.85037694071267","10457","205","15","C2-4","No",,"GF22638","0","St. Albans",,"4103150096","424","Queens","(40.85037694071267, -73.89948937055227)"
"bx-02-GF22610","CityBridge - GF22610","2021-11-30T00:00:00.000","90097","2022-02-10T00:00:00.000","2022-04-12T00:00:00.000","1251 REV JAMES POLITE AVE","E 169TH STREET","HOME STREET","-73.89656975873808","40.82870102032429","10459","202","17","C2-4","No",,"GF22610","0","Springfield Gardens North",,"4130220065","QN-330","Queens","(40.82870102032429, -73.89656975873808)"
"mn-03-GF0890","CityBridge - GF0890","2022-04-21T00:00:00.000","90209","2022-05-06T00:00:00.000","2022-07-06T00:00:00.000","184 EAST 7 STREET","EAST 7TH STREET","EAST 6TH STREET","-73.9812214","40.7249557","10009","103","2","C1-5","No",,"GF0890","0","Bushwick North","3398663","3033180008","433","Brooklyn","(40.7249557, -73.9812214)"
"BK-04-GF34711","CityBridge - GF34711","2022-04-09T00:00:00.000","90160","2022-04-09T00:00:00.000","2022-06-09T00:00:00.000","321 STARR STREET","CYPRESS AVENUE","ST NICHOLAS AVENUE","-73.92012758","40.70818728","11237","304","34","M1-1","No",,"GF34711","0","Bushwick South","3396904","3031517503","391","Brooklyn","(40.70818728, -73.92012758)"
"bk-04-GF34571","CityBridge - GF34571","2021-08-31T00:00:00.000","90013","2021-09-23T00:00:00.000","2021-11-22T00:00:00.000","251 CENTRAL AVENUE","HIMROD STREET","HARMAN STREET","-73.92285379734001","40.69685811548587","11221","304","37","C1-3","No",,"GF34571","0","Crown Heights South","3037671","3014000042","335","Brooklyn","(40.69685811548587, -73.92285379734001)"
"qu-12-GF44712","CityBridge - GF44712","2021-10-08T00:00:00.000","90062","2021-10-28T00:00:00.000","2021-12-27T00:00:00.000","168-11 DOUGLAS AVENUE","DOUGLAS AVENUE","93rd AVENUE","-73.790839","40.703756","11433","412","27","M1-1","No",,"GF44712",,"Marble Hill-Inwood",,"1022310001","MH-303","Manhattan","(40.703756, -73.790839)"
"si-01-GF55245","CityBridge - GF55245","2021-11-30T00:00:00.000","90146","2022-02-10T00:00:00.000","2022-04-12T00:00:00.000","814 RICHMOND TERRACE","TYSEN STREET","CLINTON AVENUE","-74.099475","40.644719","10301","501","49","M1-1","No",,"GF55245",,"Port Richmond, Stapleton & Mariner's Harbor",,,,"Staten Island","(40.644719, -74.099475)"
"bk-09-GF34700","CityBridge - GF34700","2021-08-31T00:00:00.000","90049","2021-09-23T00:00:00.000","2021-11-22T00:00:00.000","846 EMPIRE BOULEVARD","EAST NEW YORK AVENUE","EMPIRE BLVD","-73.9317385","40.6633361","11203","309","41","C8-2","No",,"GF34700","0","Crown Heights North","3037792","3014030007","349","Brooklyn","(40.6633361, -73.9317385)"
"MN-12-GF0841","CityBridge - GF0841","2022-04-09T00:00:00.000","90188","2022-04-09T00:00:00.000","2022-06-09T00:00:00.000","4119 BROADWAY","BROADWAY","FORT WASHINGTON AVENUE","-73.9388995","40.8455308","10033","112","10","C1-4","No",,"GF0841","0","Longwood",,"2027160001","BX-131","Bronx","(40.8455308, -73.9388995)"
"si-01-GF55178","CityBridge - GF55178","2021-11-30T00:00:00.000","90132","2022-02-10T00:00:00.000","2022-04-12T00:00:00.000","1973 FOREST AVENUE","FORREST AVENUE","NETHERLAND AVENUE","-74.1545524","40.6259344","10303","501","49","C8-1","No",,"GF55178",,"Port Richmond, Stapleton & Mariner's Harbor",,,,"Staten Island","(40.6259344, -74.1545524)"
"qu-12-GF44655","CityBridge - GF44655","2021-10-08T00:00:00.000","90081","2021-10-28T00:00:00.000","2021-12-27T00:00:00.000","122-01 GUY R BREWER BLVD","GUY R. BREWER BOULEVARD","BAISLEY BOULEVARD","-73.7798943","40.6792769","11434","412","27","C1-3","No",,"GF44655","0","Belmont",,"2032750108","BX-397","Bronx","(40.6792769, -73.7798943)"
"bk-04-GF34565","CityBridge - GF34565","2021-08-31T00:00:00.000","90005","2021-09-23T00:00:00.000","2021-11-22T00:00:00.000","289 CENTRAL AVENUE","BLEECKER STREET","GREENE AVENUE","-73.920856","40.695704","11221","304","37","C1-3","No",,"GF34565","0","Bushwick North","3072541","3031870008","427","Brooklyn","(40.695704, -73.920856)"
"bk-14-GF34841","CityBridge - GF34841","2022-06-16T00:00:00.000","90219","2022-06-29T00:00:00.000","2022-08-29T00:00:00.000","1424 FLATBUSH AVENUE","FARRAGUT ROAD","GLENWOOD ROAD","-73.9510726","40.6358976","11210","314","4","C2-4","Yes","Flatbush-Nostrand Junction BID","GF34841","0","Flatbush",,,,"Brooklyn","(40.6358976, -73.9510726)"
"BK-16-GF34722","CityBridge - GF34722","2022-04-09T00:00:00.000","90174","2022-04-09T00:00:00.000","2022-06-09T00:00:00.000","130 NEW LOTS AVENUE","JUNIUS STREET","POWELL STREET","-73.9003436","40.65854","11212","316","42","M1-1","No",,"GF34722","0","St. Albans","4220604","4103530110","QU-404","Queens","(40.65854, -73.9003436)"
"QU-02-GF44758","CityBridge - GF44758","2022-04-21T00:00:00.000","90195","2022-05-06T00:00:00.000","2022-07-06T00:00:00.000","43-06 46th STREET","46th Street (Bliss Street)","45th Street","-73.91853782761268","40.74487038760692","11104","402","26","C1-3","No",,"GF44758","0","Hunts Point","2006950","2027740281","BX-93","Bronx","(40.74487038760692, -73.91853782761268)"
"bk-16-GF33573","CityBridge - GF33573","2021-05-14T00:00:00.000","90047","2021-09-23T00:00:00.000","2021-11-22T00:00:00.000","268 SARATOGA AVENUE","PACIFIC STREET","ATLANTIC AVENUE","-73.916609","40.675984","11233","316","41","C2-3","No",,"GF33573","0","Ocean Hill","3038527","3014320028","303","Brooklyn","(40.675984, -73.916609)"
"BK-16-GF34737","CityBridge - GF34737","2022-04-09T00:00:00.000","90181","2022-04-09T00:00:00.000","2022-06-09T00:00:00.000","460 MOTHER GASTON BOULEVARD","MOTHER GASTON BOULEVADE","ROCKAWAY AVENUE","-73.90672661","40.66773487","11212","316","41","C2-3","No",,"GF34737","0","Jamaica","4210082","4098180062","QU-460","Queens","(40.66773487, -73.90672661)"
"qu-12-GF44698","CityBridge - GF44698","2021-10-08T00:00:00.000","90069","2021-10-28T00:00:00.000","2021-12-27T00:00:00.000","94-12 150 STREET","150TH STREET","149TH STREET","-73.803352","40.6996088","11435","412","27","M1-4","No",,"GF44698",,"Brownsville","3083057","3036420001","BK-922","Brooklyn","(40.6996088, -73.803352)"
"bk-04-GF34695","CityBridge - GF34695","2021-08-31T00:00:00.000","90035","2021-09-23T00:00:00.000","2021-11-22T00:00:00.000","454 WYCKOFF AVENUE","RIDGEWOOD PLACE","WYCKOFF AVE","-73.90949629938832","40.69761881728893","11237","304","37","C2-3","No",,"GF34695","0","Ocean Hill","3039551","3014750035","361","Brooklyn","(40.69761881728893, -73.90949629938832)"
"qu-14-GF44688","CityBridge - GF44688","2021-10-08T00:00:00.000","90156","2022-02-10T00:00:00.000","2022-04-12T00:00:00.000","92-02 ROCKAWAY BEACH BLVD","BEACH 92 STREET","BEACH 94 STREET","-73.8156456","40.5864257","11693","414","32","C2-3","No",,"GF44688",,,,,,"Queens","(40.5864257, -73.8156456)"
"qu-12-GF44672","CityBridge - GF44672","2021-10-08T00:00:00.000","90074","2021-10-28T00:00:00.000","2021-12-27T00:00:00.000","118-37 GUY R BREWER BLVD","GUY R. BREWER BOULEVARD","164TH STREET","-73.7818589","40.6826704","11434","412","27","C1-3","No",,"GF44672",,"Brownsville","3326809","3036967501","BK-908","Brooklyn","(40.6826704, -73.7818589)"
"bk-04-GF34580","CityBridge - GF34580","2021-08-31T00:00:00.000","90048","2021-09-23T00:00:00.000","2021-11-22T00:00:00.000","1621 BROADWAY","Broadway","BUSHWICK AVENUE","-73.914371","40.685343","11207","304","37","C8-2","No",,"GF34580","0","Bushwick South","3071870","3031500005","389","Brooklyn","(40.685343, -73.914371)"
"bk-09-GF34623","CityBridge - GF34623","2021-08-31T00:00:00.000","90024","2021-09-23T00:00:00.000","2021-11-22T00:00:00.000","621 RUTLAND ROAD","ALBANY AVENUE","KINGSTON AVENUE","-73.93998","40.660112","11203","309","41","C1-3","No",,"GF34623","0","Brownsville","3080766","3035070001","906","Brooklyn","(40.660112, -73.93998)"
"si-01-GF55222","CityBridge - GF55222","2021-11-30T00:00:00.000","90143","2022-02-10T00:00:00.000","2022-04-12T00:00:00.000","15 RICHMOND TERRACE","RICHMOND TERRACE","STUYVESANT PLACE","-74.07549915889548","40.64221512391746","10301","501","49","C4-2","No",,"GF55222",,"Port Richmond, Stapleton & Mariner's Harbor",,,,"Staten Island","(40.64221512391746, -74.07549915889548)"
"bk-04-GF34551","CityBridge - GF34551","2021-08-31T00:00:00.000","90045","2021-09-23T00:00:00.000","2021-11-22T00:00:00.000","222 PALMETTO STREET","WILSON AVENUE","KNICKERBOCKER AVENUE","-73.915434","40.694991","11221","304","37","C2-3","No",,"GF34551","0","Bushwick South","3000000","3031370001","389","Brooklyn","(40.694991, -73.915434)"
"mn-03-GF0907","CityBridge - GF0907","2022-04-21T00:00:00.000","90212","2022-05-06T00:00:00.000","2022-07-06T00:00:00.000","36 RIVINGTON STREET","RIVINGTON STREET","STANTON STREET","-73.9913815","40.7210977","10002","103","1","C4-4A","No",,"GF0907","0","Hollis",,"4109070030","508","Queens","(40.7210977, -73.9913815)"
"bk-01-GF34834","CityBridge - GF34834","2022-06-16T00:00:00.000","90213","2022-06-29T00:00:00.000","2022-08-29T00:00:00.000","326 ROEBLING STREET","SOUTH 9TH STREET","SOUTH 8TH STREET","-73.961073","40.708501","11211","301","34","C1-3",,,"GF34834","0","North Side-South Side",,,,"Brooklyn","(40.708501, -73.961073)"
"qu-12-GF44584","CityBridge - GF44584","2021-10-08T00:00:00.000","90092","2021-10-28T00:00:00.000","2021-12-27T00:00:00.000","139-01 89 AVENUE","139TH STREET","144TH STREET","-73.81305327361069","40.702729394329076","11435","412","24","C2-4","No",,"GF44584","0","Stapleton-Rosebank",,"5004870005",,"Queens","(40.702729394329076, -73.81305327361069)"
"qu-12-GF44636","CityBridge - GF44636","2021-10-08T00:00:00.000","90083","2021-10-28T00:00:00.000","2021-12-27T00:00:00.000","145-50 LIBERTY AVENUE","PRINCETON STREET","LIVERPOOL STREET","-73.80690030992167","40.69403238575976","11435","412","28","C2-4","No",,"GF44636","0","Westerleigh","5018255","5007220001",,"Queens","(40.69403238575976, -73.80690030992167)"
"BK-16-GF34731","CityBridge - GF34731","2022-04-09T00:00:00.000","90178","2022-04-09T00:00:00.000","2022-06-09T00:00:00.000","121 LIBERTY AVENUE","LIBERTY AVENUE","NEW YORK AVENUE","-73.90585625","40.67313716","11212","316","37","M1-4","No",,"GF34731","0","Jamaica","4212432","4099190034","QU-470","Queens","(40.67313716, -73.90585625)"
"bx-02-GF22675","CityBridge - GF22675","2021-11-30T00:00:00.000","90104","2022-02-10T00:00:00.000","2022-04-12T00:00:00.000","250 COSTER STREET","VIELE AVENUE","FAILE STREET","-73.8852214","40.8066192","10474","202","17","M3-1","No",,"GF22675","0","Jamaica",,"4100490001","QN-204","Queens","(40.8066192, -73.8852214)"
"qu-12-GF44611","CityBridge - GF44611","2021-10-08T00:00:00.000","90088","2021-10-28T00:00:00.000","2021-12-27T00:00:00.000","180-01 LINDEN BOULEVARD","180TH STREET","NEWBURG STREET","-73.76655175130493","40.69232713854906","11434","412","27","C2-2","No",,"GF44611","0","West New Brighton-New Brighton-St. George",,"5000070001",,"Queens","(40.69232713854906, -73.76655175130493)"
"bk-09-GF34617","CityBridge - GF34617","2021-08-31T00:00:00.000","90003","2021-09-23T00:00:00.000","2021-11-22T00:00:00.000","547 ROGERS AVEENUE","FENIMORE STREET","RUTLAND ROAD","-73.95322760570988","40.6586399507838","11225","309","40","C2-3","No",,"GF34617","0","Crown Heights South","3034360","3013040018","323","Brooklyn","(40.6586399507838, -73.95322760570988)"
"bk-04-GF33249","CityBridge - GF33249","2021-08-31T00:00:00.000","90019","2021-09-23T00:00:00.000","2021-11-22T00:00:00.000","927 BROADWAY","BROADWAY","STOCKTON STREET","-73.93580888651354","40.69751079080427","11206","304","34","C2-3","No",,"GF33249","0","Bushwick South","3398643","3034670005","405","Brooklyn","(40.69751079080427, -73.93580888651354)"
"qu-14-GF44680","CityBridge - GF44680","2021-10-08T00:00:00.000","90057","2021-10-28T00:00:00.000","2021-12-27T00:00:00.000","32-11 BEACH CHANNEL DRIVE","BAY 32 STREET","FAR ROCKAWAY BOULEVARD","-73.7661345","40.5985802","11691","414","31","C2-2","No",,"GF44680",,"Marble Hill-Inwood",,"1022000021","MH-299","Manhattan","(40.5985802, -73.7661345)"
"bk-16-GF34601","CityBridge - GF34601","2021-08-31T00:00:00.000","90023","2021-09-23T00:00:00.000","2021-11-22T00:00:00.000","1146 EAST NEW YORK AVENUE","E 98TH STREET","PORTAL STREET","-73.92420747858309","40.66637916328466","11212","316","41","C8-2","No",,"GF34601","0","Hammels-Arverne-Edgemere",,"4157470001","QU-992","Queens","(40.66637916328466, -73.92420747858309)"
"bk-16-GF33595","CityBridge - GF33595","2021-08-31T00:00:00.000","90037","2021-09-23T00:00:00.000","2021-11-22T00:00:00.000","18 BELMONT AVENUE","Thatford Ave","ROCKAWAY AVE","-73.909647","40.668501","11212","316","41","C4-3","No",,"GF33595","0","Far Rockaway-Bayswater","4458193","4155290143","QU-1032","Queens","(40.668501, -73.909647)"
"si-01-GF55204","CityBridge - GF55204","2021-11-30T00:00:00.000","90139","2022-02-10T00:00:00.000","2022-04-12T00:00:00.000","255 HYLAN BOULEVARD","HYLAN BOULEVARD","CLIFTON AVENUE","-74.0708455","40.6120756","10305","501","49","C1-1","No",,"GF55204",,"Port Richmond, Stapleton & Mariner's Harbor",,,,"Staten Island","(40.6120756, -74.0708455)"
"bx-02-GF22618","CityBridge - GF22618","2021-11-30T00:00:00.000","90100","2022-02-10T00:00:00.000","2022-04-12T00:00:00.000","1190 PROSPECT AVENUE","REV JAMES A POLITE AVENUE","PROSPECT AVENUE","-73.89857277423972","40.82646288544036","10459","202","17","C2-4","No",,"GF22618","0","Jamaica",,"4098340010","QN-462","Queens","(40.82646288544036, -73.89857277423972)"
"MN-12-GF0826","CityBridge - GF0826","2022-04-09T00:00:00.000","90185","2022-04-09T00:00:00.000","2022-06-09T00:00:00.000","3809 10 AVENUE","10 AVENUE","9 AVENUE","-73.9201678","40.8624323","10034","112","10","C2-4","No",,"GF0826","0","Longwood",,"2026037501","BX-83","Bronx","(40.8624323, -73.9201678)"
"QU-03-GF44728","CityBridge - GF44728","2022-04-21T00:00:00.000","90198","2022-05-06T00:00:00.000","2022-07-06T00:00:00.000","78-02 NORTHERN BOULEVARD","Northern Boulevard","34th Avenue","-73.8881897582838","40.75507748810017","11372","403","25","C1-2","No",,"GF44728","0","Port Richmond, Stapleton & Mariner's Harbor",,"5010770053",,"Queens","(40.75507748810017, -73.8881897582838)"
"bx-02-GF22151","CityBridge - GF22151","2021-11-30T00:00:00.000","90094","2022-02-10T00:00:00.000","2022-04-12T00:00:00.000","944A INTERVALE AVENUE","EAST 163 STREET","WESTCHESTER AVENUE","-73.89676006233677","40.821337442643646","10459","202","17","C1-4","No",,"GF22151","0","Jamaica","4206733","4096750038","QU-240","Queens","(40.821337442643646, -73.89676006233677)"
"bx-05-GF22644","CityBridge - GF22644","2021-11-30T00:00:00.000","90109","2022-02-10T00:00:00.000","2022-04-12T00:00:00.000","2102 GRAND CONCOURSE","GRAND CONCOURSE","ANTHONY AVENUE","-73.9015429","40.8544802","10457","205","15","C1-4","No",,"GF22644","0","Hollis",,"4108390033","502.01","Queens","(40.8544802, -73.9015429)"
