"iowa_company_number","naic_number","phone","company_name","address","city","state","zip","geocoded_column"
"2237","41483",,"Farmington Casualty Company","One Tower Square","HARTFORD","CT","06183",
"2001","24678",,"Arrowood Indemnity Company","3600 Arco Corporate Drive","CHARLOTTE","NC","28273","POINT (-80.946656 35.149733)"
"2642","27847",,"Insurance Company of the West","PO BOX 509039","SAN DIEGO","CA","92150-9039",
"2861","42447",,"National General Assurance Company","PO Box 3199","WINSTON-SALEM","NC","27102",
"2889","28860","844-890-6640","Clear Blue Insurance Company","B7 Tabonuco Street Suite 912","GUAYNABO","PR","00968",
"0892","25976",,"Utica Mutual Insurance Company","PO BOX 530","UTICA","NY","13503",
"0419","13773",,"Farm Bureau Property & Casualty Insurance Company","5400 UNIVERSITY AVENUE","WEST DES MOINES","IA","50266-5997","POINT (-93.779306 41.600454)"
"3154","18961",,"Crestbrook Insurance Company","One Nationwide Blvd, FSSC-RR","COLUMBUS","OH","43215",
"3227","16024",,"Federated Reserve Insurance Company","121 East Park Square","OWATONNA","MN","55060","POINT (-93.225466 44.084027)"
"0516","21849",,"American Automobile Insurance Company","225 W. Washington St., Suite 1800","CHICAGO","IL","60606","POINT (-87.634988 41.883208)"
"2778","33006",,"American Physicians Assurance Corporation","1301 N. Hagadorn Road","EAST LANSING","MI","48823","POINT (-84.462341 42.748911)"
"3011","26794",,"Plans' Liability Insurance Company","265 Franklin Street, 9th Floor","BOSTON","MA","02110","POINT (-71.053555 42.356801)"
"1302","25879",,"Fidelity and Guaranty Insurance Underwriters, Inc.","One Tower Square","HARTFORD","CT","06183",
"2027","36463",,"Discover Property & Casualty Insurance Company","One Tower Square","HARTFORD","CT","06183",
"1844","23450","800-543-2644","American Family Home Insurance Company","PO BOX 5323","CINCINNATI","OH","45201-5323",
"2380","40649","800-422-4272","Economy Premier Assurance Company","700 Quaker Lane","WARWICK","RI","02886","POINT (-71.500068 41.678771)"
"3243","10288",,"Integrity Select Insurance Company","671 S. High Street","COLUMBUS","OH","43206","POINT (-82.998044 39.948796)"
"2841","29017",,"Professionals Advocate Insurance Company","225 International Circle","HUNT VALLEY","MD","21030","POINT (-76.665423 39.498843)"
"1105","22063",,"Government Employees Insurance Company","GEICO Plaza","WASHINGTON","DC","20076",
"1803","28401",,"American National Property and Casualty Company","1949 E. Sunshine, Corporate Ctr.","SPRINGFIELD","MO","65899",
"0908","38245",,"BCS Insurance Company","2 Mid America Plaza, Suite 200","OAKBROOK TERRACE","IL","60181","POINT (-87.958747 41.849891)"
"2548","33600",,"LM Insurance Corporation","175 Berkeley Street","BOSTON","MA","02116","POINT (-71.072373 42.349909)"
"1365","15571","800-445-3726","Illinois Casualty Company","PO BOX 5018","ROCK ISLAND","IL","61204-5018",
"2329","22950",,"ACSTAR Insurance Company","30 South Road","FARMINGTON","CT","06032","POINT (-72.800651 41.725873)"
"3006","10051","800-888-2738","Lyndon Southern Insurance Company","10751 Deerwood Park Blvd, Suite 200","JACKSONVILLE","FL","32256","POINT (-81.532878 30.247812)"
"1211","19216","800-777-2249","Southern Insurance Company","PO Box 809076","DALLAS","TX","75380-9076",
"2102","40517","888-595-8750","WCF National Insurance Company","PO Box 571918","SALT LAKE CITY","UT","84157-1918",
"1816","32352",,"LM Property and Casualty Insurance Company","175 Berkeley Street","BOSTON","MA","02116","POINT (-71.072373 42.349909)"
"2908","25585",,"Watford Insurance Company","445 South St., Suite 220","MORRISTOWN","NJ","07962","POINT (-74.467138 40.775805)"
"2649","39136",,"Finial Reinsurance Company","1314 Douglas Street, Suite 1400","OMAHA","NE","68102-1944","POINT (-95.93386 41.25863)"
"2993","10758",,"Colonial Surety Company","123 Tice Boulevard, Suite 250","WOODCLIFF LAKE","NJ","07677","POINT (-74.07781 41.043523)"
"2794","12572",,"Selective Insurance Company of America","40 Wantage Avenue","BRANCHVILLE","NJ","07890","POINT (-74.74656 41.152318)"
"2774","10054",,"Securian Casualty Company","400 Robert Street North","ST. PAUL","MN","55101","POINT (-93.091919 44.94853)"
"2069","40509",,"EMC Reinsurance Company","PO BOX 712","DES MOINES","IA","50306-0712",
"1188","12416",,"Protective Insurance Company","111 Congressional Blvd., Suite 500","CARMEL","IN","46032","POINT (-86.153469 39.958281)"
"0765","25364",,"Swiss Reinsurance America Corporation","175 King Street","ARMONK","NY","10504","POINT (-73.727832 41.100545)"
"3237","36226",,"United Casualty and Surety Insurance Company","233 Needham Street, Suite 440","NEWTON","MA","02464","POINT (-71.214558 42.309839)"
"2648","43974","800-245-2425","21st Century Indemnity Insurance Company","21st Century Plaza, 3 Beaver Valley Road","WILMINGTON","DE","19803",
"1784","13056",,"RLI Insurance Company","9025 North Lindbergh Drive","PEORIA","IL","61614","POINT (-89.609221 40.796768)"
"3149","10127",,"Allied Insurance Company of America","One Nationwide Blvd, FSSC-RR","COLUMBUS","OH","43215",
"1959","22241","800 356-6886","MEDMARC Casualty Insurance Company","4795 Meadow Wood Lane Suite 335 West","CHANTILLY","VA","20151","POINT (-77.440938 38.87114)"
"0918","21687",,"Mid-Century Insurance Company","Farmers Ins Group, Regulatory Affairs Dept.","GRAND RAPIDS","MI","49501",
"1656","20044",,"Berkshire Hathaway Homestate Insurance Company","1314 Douglas Street, Suite 1300","OMAHA","NE","68102-1944","POINT (-95.93386 41.25863)"
"2673","15580","800-423-7675","Scottsdale Indemnity Company","One Nationwide Blvd, FSSC-RR","COLUMBUS","OH","43215",
"2474","29580",,"Berkley Regional Insurance Company","PO BOX 9190","DES MOINES","IA","50306",
"0678","23817",,"Illinois National Insurance Co.","1271 Ave of the Americas, FL 37","NEW YORK","NY","10020-1304","POINT (-73.980137 40.760305)"
"2730","14516","(800) 347-7930","Harleysville Lake States Insurance Company","One West Nationwide Blvd, FSSC-RR","COLUMBUS","OH","43215",
"2978","39551",,"Continental Heritage Insurance Company","200 Park Avenue, Suite 400","ORANGE VILLAGE","OH","44122","POINT (-81.486484 41.453774)"
"0779","24074",,"Ohio Casualty Insurance Company (The)","175 Berkeley Street","BOSTON","MA","02116","POINT (-71.072373 42.349909)"
"3140","14958",,"Peninsula Insurance Company","1195 River Road, P.O. Box 302","MARIETTA","PA","17547-0302","POINT (-76.549013 40.062676)"
"3318","11090",,"Incline Casualty Company","13215 Bee Cave Parkway, Suite B-150","AUSTIN","TX","73783","POINT (-97.945246 30.314051)"
"3248","16203",,"CM Select Insurance Company","3000 Schuster Lane, PO Box 357","MERRILL","WI","54452",
"3052","29033",,"Atain Insurance Company","30833 Northwestern Highway, Suite 220","FARMINGTON HILLS","MI","48334","POINT (-83.330994 42.513329)"
"3244","16116",,"JM Specialty Insurance Company","24 Jewelers Park Drive","NEENAH","WI","54956","POINT (-88.484679 44.162411)"
"3280","11089",,"Rock Ridge Insurance Company","B-& Tobonuco Street, Suite 912","GUAYNABO","PR","00968",
"2856","10642","800-201-0450","Cherokee Insurance Company","34200 Mound Road","STERLING HEIGHTS","MI","48310","POINT (-83.047894 42.544945)"
"2109","32700","888-841-6472","Owners Insurance Company","5925 Council St., NE, Suite 100","CEDAR RAPIDS","IA","52402","POINT (-91.658313 42.037165)"
"2834","11014",,"BHHC Special Risks Insurance Company","1314 DOUGLAS STREET, SUITE 1300","OMAHA","NE","68102-1944","POINT (-95.93386 41.25863)"
"0910","24740",,"SAFECO Insurance Company of America","175 Berkeley St.","BOSTON","MA","02116","POINT (-71.072373 42.349909)"
"2837","31380","800-969-1827","American Surety Company","250 East 96th Street, Suite 202","INDIANAPOLIS","IN","46240","POINT (-86.154067 39.927067)"
"1325","25151",,"State Farm General Insurance Company","One State Farm Plaza","BLOOMINGTON","IL","61710-0001",
"2917","10322","800-422-0550","Grange Indemnity Insurance Company","671 S. High Street","COLUMBUS","OH","43206","POINT (-82.998044 39.948796)"
"2222","40169","800-422-4272","Farmers Casualty Insurance Company","700 Quaker Lane","WARWICK","RI","02886-6669","POINT (-71.500068 41.678771)"
"1888","16608",,"New York Marine and General Insurance Company","412 Mt. Kemble Avenue, Suite 300C","MORRISTOWN","NJ","07960","POINT (-74.505603 40.772131)"
"2736","22179",,"Republic Indemnity Company of America","4500 Park Granada Blvd, Suite 300","CALABASAS","CA","91302","POINT (-118.64626 34.149926)"
"0854","12750",,"Evergreen National Indemnity Company","6150 Oak Tree Blvd., Suite 440","INDEPENDENCE","OH","44131","POINT (-81.660268 41.395847)"
"2015","14303",,"Integrity Insurance Company","671 S. High Street","COLUMBUS","OH","43206","POINT (-82.998044 39.948796)"
"2799","25895",,"United States Liability Insurance Company","1190 Devon Park Drive, PO Box 6700","WAYNE","PA","19087-2191","POINT (-75.396673 40.080739)"
"3336","16379","800-438-1162","Jet Insurance Company","11440 Carmel Commons Blvd, Suite 207","CHARLOTTE","NC","28226","POINT (-80.843361 35.085299)"
"2119","25984",,"Graphic Arts Mutual Insurance Company","PO BOX 530","UTICA","NY","13503",
"0706","16691",,"Great American Insurance Company","301 E. Fourth Street","CINCINNATI","OH","45202-4201","POINT (-84.507797 39.100703)"
"1922","25054",,"Hudson Insurance Company","100 William Street, 5th Floor","NEW YORK","NY","10038","POINT (-74.007486 40.708511)"
"2973","38865",,"California Insurance Company","PO Box 3646","OMAHA","NE","68103-0646",
"2435","29459",,"Twin City Fire Insurance Company","One Hartford Plaza","HARTFORD","CT","06115",
"3330","17181",,"Intrepid Specialty Insurance Company","7400 COLLEGE BLVD., SUITE 350","OVERLAND PARK","KS","66210","POINT (-94.672213 38.92757)"
"0681","14265",,"Indiana Lumbermens Mutual Insurance Company","2005 Market Street, Sutie 1200","PHILADELPHIA","PA","19103-7008","POINT (-75.174679 39.953762)"
"2227","10669",,"Church Insurance Company (The)","19 East 34th Street","NEW YORK","NY","10016","POINT (-73.983745 40.748101)"
"2192","38660",,"MIC General Insurance Corporation","5630 University Parkway, Mail Code 4A05","WINSTON-SALEM","NC","27105","POINT (-80.275533 36.176772)"
"0855","12777",,"Chubb Indemnity Insurance Company","202B Hall's Mill Road","WHITEHOUSE STATION","NJ","08889","POINT (-74.765041 40.644972)"
"2749","27871",,"Western Agricultural Insurance Company","5400 UNIVERSITY AVENUE","WEST DES MOINES","IA","50266-5997","POINT (-93.779306 41.600454)"
"2020","37907",,"Allstate Vehicle and Property Insurance Company","3075 Sanders Rd., Suite G4E","NORTHBROOK","IL","60065","POINT (-87.873947 42.093908)"
"3053","10916",,"SureTec Insurance Company","2103 City West Blvd # 1300","HOUSTON","TX","77042",
"3004","20516",,"Euler Hermes North America Insurance Company","800 Red Brook Blvd.","OWINGS MILLS","MD","21117","POINT (-76.809074 39.413084)"
"1376","22306",,"Massachusetts Bay Insurance Company","440 Lincoln Street","WORCESTER","MA","01653","POINT (-71.780784 42.291928)"
"2780","10357","866-752-8731","Renaissance Reinsurance U.S. Inc.","140 Broadway, 42nd Floor","NEW YORK","NY","10005","POINT (-74.010646 40.709042)"
"1431","11630",,"Jefferson Insurance Company","9950 Maryland Drive","RICHMOND","VA","23233","POINT (-77.575934 37.64221)"
"1454","22004",,"CIM Insurance Corporation","500 Woodward Ave, 14th Floor","DETROIT","MI","48226","POINT (-83.04504 42.329525)"
"1503","20702",,"ACE Fire Underwriters Insurance Company","PO Box 1000","PHILADELPHIA","PA","19106",
"1962","32220","800-245-2425","21st Century North America Insurance Company","3 Beaver Valley Road","WILMINGTON","DE","19803","POINT (-75.545273 39.829049)"
"2658","40258",,"AIG Assurance Company","1271 Ave of the Americas, FL 37","NEW YORK","NY","10020-1304","POINT (-73.980137 40.760305)"
"2727","27120",,"Trumbull Insurance Company","One Hartford Plaza","HARTFORD","CT","06155",
"3084","36927",,"Colony Specialty Insurance Company","PO Box 469011","SAN ANTONIO","TX","78246-9011",
"2573","26069",,"Wausau Business Insurance Company","175 Berkeley Street","BOSTON","MA","02116","POINT (-71.072373 42.349909)"
"1760","31003","800-235-2942","Tri-State Insurance Company of Minnesota","PO BOX 1594","DES MOINES","IA","50306-1594",
"2785","27740",,"North Pointe Insurance Company","One General Drive","SUN PRAIRIE","WI","53596",
"2954","32301",,"TNUS Insurance Company","Three Bala Plaza East, Suite 400","BALA","PA","19004",
"2945","21113",,"United States Fire Insurance Company","PO Box 1973","MORRISTOWN","NJ","07962",
"0547","21865",,"WCF Select Insurance Company","100 West Towne Ridge Parkway","SANDY","UT","84070","POINT (-111.89365 40.57551)"
"1558","25666",,"Travelers Indemnity Company of America (The)","One Tower Square","HARTFORD","CT","06183",
"0696","23043",,"Liberty Mutual Insurance Company","175 Berkeley Street","BOSTON","MA","02116","POINT (-71.072373 42.349909)"
"1148","19941",,"American Commerce Insurance Company","3590 Twin Creeks Drive","COLUMBUS","OH","43204","POINT (-83.101307 39.980119)"
"2981","10069",,"Housing Authority Property Insurance, A Mutual Company","189 Commerce Court","CHESHIRE","CT","06410-0189","POINT (-72.895856 41.542635)"
"2754","38954",,"ProAssurance Casualty Company","100 Brookwood Place","BIRMINGHAM","AL","35209","POINT (-86.772904 33.465808)"
"3096","31325","800-773-4300","Acadia Insurance Company","PO BOX 9010","WESTBROOK","ME","04092",
"2590","36170",,"Travelers Casualty Company of Connecticut","One Tower Square","HARTFORD","CT","06183",
"3337","40550","877-546-7155","Lio Insurance Company","300 Four Falls Corporate Center","WEST CONSHOHOCKEN","PA","19428",
"2476","10030",,"Westchester Fire Insurance Company","PO Box 1000","PHILADELPHIA","PA","19106",
"2995","12305","866-206-5851","Accident Fund National Insurance Company","PO Box 40790","LANSING","MI","48901-7990",
"2639","25127",,"State Auto Property & Casualty Insurance Company","518 EAST BROAD ST.","COLUMBUS","OH","43215","POINT (-82.986563 39.963871)"
"0723","24767",,"St. Paul Fire and Marine Insurance Company","One Tower Square","HARTFORD","CT","06183",
"0413","13897",,"Farmers Mutual Hail Insurance Company of Iowa","6785 WESTOWN PARKWAY","WEST DES MOINES","IA","50266","POINT (-93.802226 41.595104)"
"3000","12758",,"CUMIS Specialty Insurance Company, Inc.","PO BOX 1084","MADISON","WI","53701",
"2581","10324",,"Addison Insurance Company","118 2ND AVENUE SE","CEDAR RAPIDS","IA","52407-3909","POINT (-91.668096 41.977646)"
"1568","21482",,"Factory Mutual Insurance Company","PO BOX 7500","JOHNSTON","RI","02919",
"2790","26379","800-432-2799","Accredited Surety and Casualty Company, Inc.","PO Box 140855","ORLANDO","FL","32814-0855",
"3245","42617",,"MAG Mutual Insurance Company","3535 Piedmont Rd. Building 14, Suite 1000","ATLANTA","GA","30305-1518","POINT (-84.378524 33.850483)"
"0746","11991","800 423-7675","National Casualty Company","One Nationwide Blvd, FSSC-RR","COLUMBUS","OH","43215",
"0530","19380",,"American Home Assurance Company","1271 Ave of the Americas, FL 37","NEW YORK","NY","10020-1304","POINT (-73.980137 40.760305)"
"3081","11206",,"Housing Enterprise Insurance Company, Inc.","189 Commerce Court","CHESHIRE","CT","06410","POINT (-72.895856 41.542635)"
"1432","13439",,"Partners Mutual Insurance Company","20935 Swenson Drive","WAUKESHA","WI","53186-2057","POINT (-88.174034 43.031998)"
"0717","11843",,"Medical Protective Company (The)","5814 Reed Road","FT. WAYNE","IN","46835","POINT (-85.081556 41.132093)"
"0621","23787",,"Nationwide Mutual Insurance Company","One Nationwide Blvd, FSSC-RR","COLUMBUS","OH","43215",
"0668","11452",,"Hartford Steam Boiler Inspection & Insurance Company (The)","One State St.","HARTFORD","CT","06102",
"2959","28535","800-894-5020","Triangle Insurance Company, Inc.","PO Box 1189","ENID","OK","73702-1189",
"1990","32786","800-776-4737","Progressive Specialty Insurance Company","6300 Wilson Mills Road","MAYFIELD VILLAGE","OH","44143-2182","POINT (-81.450826 41.538891)"
"1858","20222",,"All America Insurance Company","800 South Washington St.","VAN WERT","OH","45891","POINT (-84.582962 40.861021)"
"2578","37621",,"Toyota Motor Insurance Company","6565 HEADQUARTERS DRIVE, PM351","PLANO","TX","75024-5965","POINT (-96.840857 33.080384)"
"1773","23515",,"Midwestern Indemnity Company (The)","175 Berkeley Street","BOSTON","MA","02116","POINT (-71.072373 42.349909)"
"1957","31089",,"Repwest Insurance Company","2721 North Central Avenue","PHOENIX","AZ","85004","POINT (-112.073711 33.478425)"
"1253","19631",,"American Road Insurance Company (The)","One American Road, MD 7600","DEARBORN","MI","48126-2701",
"1961","35157",,"Fair American Insurance and Reinsurance Company","One Liberty Plaza","NEW YORK","NY","10006",
"0619","13722","888-333-8198","KnightBrook Insurance Company","4751 Wilshire Blvd., Suite 111","LOS ANGELES","CA","90010","POINT (-118.333824 34.062024)"
"1711","10952","800-625-4212","Transamerica Casualty Insurance Company","6400 C STREET SW","CEDAR RAPIDS","IA","52499","POINT (-91.637236 41.915311)"
"2401","20982",,"Country Casualty Insurance Company","PO BOX 2020","BLOOMINGTON","IL","61702-2020",
"1168","21407",,"EMCASCO Insurance Company","PO BOX 712","DES MOINES","IA","50306-0712",
"2857","20141","800 226-3224","National Trust Insurance Company","6300 University Parkway","SARASOTA","FL","34240-8424","POINT (-82.435703 27.386349)"
"1920","31968","800-523-3796","Merastar Insurance Company","200 East Randolph Street, Suite 3300","CHICAGO","IL","60601","POINT (-87.621611 41.884472)"
"3031","11551",,"Endurance Assurance Corporation","4 Manhattanville Road, 3rd Floor","PURCHASE","NY","10577","POINT (-73.71799 41.02335)"
"0518","10111",,"American Bankers Insurance Company of Florida","11222 Quail Roost Drive","MIAMI","FL","33157","POINT (-80.373759 25.59497)"
"2731","42331",,"GuideOne America Insurance Company","1111 ASHWORTH ROAD","WEST DES MOINES","IA","50265-3538","POINT (-93.719132 41.584614)"
"2450","37206",,"Contractors Bonding and Insurance Company","9025 N. Lindbergh Drive","PEORIA","IL","61615","POINT (-89.609221 40.796768)"
"2713","19992",,"American Select Insurance Company","PO BOX 5001","WESTFIELD CENTER","OH","44251-5001",
"2829","10957",,"Alamance Insurance Company","CityPlace II. 185 Asylum Street. 7th Floor","HARTFORD","CT","06103-3408",
"2428","15563",,"Clear Spring Property and Casualty Company","227 West Monroe, Suite 3950","CHICAGO","IL","60606","POINT (-87.63472 41.880635)"
"2689","35602","800-421-2368","Obsidian Insurance Company","57 West 57th Street","NEW YORK","NY","10019","POINT (-73.976913 40.764204)"
"1902","35882",,"GEICO General Insurance Company","One Geico Plaza","WASHINGTON","DC","20076",
"2994","12304","866-206-5851","Accident Fund General Insurance Company","PO Box 40790","LANSING","MI","48901-7990",
"0609","21296",,"Pinnacle National Insurance Company","1900 L. Don Dodson Drive","BEDFORD","TX","76021","POINT (-97.14012 32.84179)"
"3238","16109",,"Starr Specialty Insurance Company","399 Park Avenue 3rd floor","NEW YORK","NY","10022","POINT (-73.972266 40.759324)"
"1195","23388",,"Shelter Mutual Insurance Company","1817 West Broadway","COLUMBIA","MO","65218","POINT (-92.36717 38.953504)"
"2341","26085",,"Warner Insurance Company","200 East Randolph Street, Suite 3300","CHICAGO","IL","60601","POINT (-87.621611 41.884472)"
"1172","11371",,"Great West Casualty Company","1100 West 29th St.","SOUTH SIOUX CITY","NE","68776-0277","POINT (-96.427251 42.462514)"
"2990","41998","800-543-2644","American Southern Home Insurance Company","PO Box 5323","CINCINNATI","OH","45201-5323",
"1864","35386",,"Fidelity and Guaranty Insurance Company","ONE TOWER SQUARE","HARTFORD","CT","06183",
"2589","36153","800-872-3862","Aetna Insurance Company of Connecticut","151 Farmington Avenue","HARTFORD","CT","06156","POINT (-72.688425 41.768046)"
"0503","20699",,"ACE Property and Casualty Insurance Company","PO Box 1000","PHILADELPHIA","PA","19106",
"2843","25780",,"Williamsburg National Insurance Company","26255 American Drive","SOUTHFIELD","MI","48034","POINT (-83.303427 42.490651)"
"2350","17221",,"Homesite Insurance Company","One Federal Street, Suite 400","BOSTON","MA","02110",
"1904","42439",,"Toa Reinsurance Company of America (The)","177 Madison Ave., CN 1930","MORRISTOWN","NJ","07962","POINT (-74.457714 40.789131)"
"2582","10006",,"Cerity Insurance Company","PO Box 1389","AUSTIN","TX","78767",
"2591","21830",,"New England Insurance Company","100 High Street","BOSTON","MA","02110","POINT (-71.055169 42.354179)"
"2105","28665",,"Cincinnati Casualty Company (The)","PO BOX 145496","CINCINNATI","OH","45250-5496",
"3334","10671",,"Gray Casualty & Surety Company, The","PO BOX 6202","METAIRIE","LA","70009",
"2236","37478",,"Hartford Insurance Company of the Midwest","One Hartford Plaza","HARTFORD","CT","06155-0001",
"2283","15725","800-326-6511","Cameron Mutual Insurance Company","PO Box 768","CAMERON","MO","64429",
"2019","36455",,"Allstate Northbrook Indemnity Company","3075 Sanders Rd., Suite G4E","NORTHBROOK","IL","60062-7127","POINT (-87.873947 42.093908)"
"3216","11932",,"White Pine Insurance Company","550 West Merrill Street, Suite 200","BIRMINGHAM","MI","48009","POINT (-83.219743 42.545051)"
"1434","23795","800-245-2425","21st Century Pacific Insurance Company","21st Century Plaza, 3 Beaver Valley Road","WILMINGTON","DE","19803-1115",
"3120","36064",,"Hanover American Insurance Company (The)","440 Lincoln St.","WORCESTER","MA","01653-0002","POINT (-71.780784 42.291928)"
"2968","10799","(800) 324-6020","GeoVera Insurance Company","1455 Oliver Road","FAIRFIELD","CA","94534","POINT (-122.068912 38.259063)"
"3327","15474",,"National Summit Insurance Company","PO BOX 130059","DALLAS","TX","75313",
"2690","28932","(800) 431-1270","Markel American Insurance Company","4521 Highwoods Parkway","GLEN ALLEN","VA","23060","POINT (-77.578358 37.662433)"
"0669","21873",,"Fireman's Fund Insurance Company","225 W Washington Street, Suite 1800","CHICAGO","IL","60606","POINT (-87.634988 41.883208)"
"2251","14249",,"Founders Insurance Company","1350 East Touhy Avenue, Suite 200W","DES PLAINES","IL","60018","POINT (-87.890105 42.009572)"
"2378","13137",,"Viking Insurance Company of Wisconsin","1800 North Point Drive","STEVENS POINT","WI","54481","POINT (-89.572644 44.541214)"
"0508","20273",,"Cedar Insurance Company","PO BOX 40310","BROOKLYN","NY","11024",
"2174","21180",,"Sentry Select Insurance Company","1800 North Point Drive","STEVENS POINT","WI","54481-1283","POINT (-89.572644 44.541214)"
"0597","25623",,"Phoenix Insurance Company (The)","One Tower Square","HARTFORD","CT","06183",
"2870","10166","866-206-5851","Accident Fund Insurance Company of America","PO Box 40790","LANSING","MI","48901-7990",
"2164","36447",,"LM General Insurance Company","175 Berkeley Street","BOSTON","MA","02116","POINT (-71.072373 42.349909)"
"2310","16624",,"Allied World Specialty Insurance Company","1690 New Britain Avenue, Suite 101","FARMINGTON","CT","06032","POINT (-72.860203 41.708039)"
"2984","12528","800-274-3531","Wadena Insurance Company","PO BOX 1336","DES MOINES","IA","50306-1336",
"0553","18988",,"Auto-Owners Insurance Company","PO BOX 30660","LANSING","MI","48909",
"1724","22683",,"Teachers Insurance Company","1 Horace Mann Plaza","SPRINGFIELD","IL","62715","POINT (-89.64359 39.80163)"
"2367","41211","800-316-5607","Triton Insurance Company","3001 Meacham Blvd. Suite 100","FT. WORTH","TX","76137","POINT (-97.303333 32.824393)"
"0663","24988",,"Sentry Insurance Company","1800 North Point Drive","STEVENS POINT","WI","54481","POINT (-89.572644 44.541214)"
"2950","42897",,"American Service Insurance Company, Inc.","953 American Lane, 3rd Floor","SCHAUMBURG","IL","60173","POINT (-88.055765 42.048352)"
"0444","13021",,"United Fire & Casualty Company","PO BOX 73909","CEDAR RAPIDS","IA","52407-3909",
"1889","32077",,"Vantage Risk Assurance Company","444 W. Lake St. River Point, 17th Floor","CHICAGO","IL","60606",
"3340","10891",,"Concert Insurance Company","1701 Golf Road, Suite 1-1110","Rolling Meadows","IL","60008","POINT (-87.999508 42.051235)"
"3219","15756",,"Radnor Specialty Insurance Company","1170 Devon Park Drive","WAYNE","PA","19087","POINT (-75.396484 40.080593)"
"2302","43044",,"Response Insurance Company","200 East Randolph Street, Ste 3300","CHICAGO","IL","60601","POINT (-87.621611 41.884472)"
"3226","38997",,"Sompo America Fire & Marine Insurance Company","1221 Avenue of the Americas, 18th Floor","NEW YORK","NY","10020","POINT (-73.981102 40.758957)"
"3299","11162","800-888-2738","Insurance Company of the South","10751 Deerwood Park Blvd., Suite 200","JACKSONVILLE","FL","32256","POINT (-81.532878 30.247812)"
"2220","41769",,"Travelers Casualty Company (The)","One Tower Square","HARTFORD","CT","06183",
"2635","28207",,"Anthem Insurance Companies, Inc.","220 Virginia Avenue","INDIANAPOLIS","IN","46204","POINT (-86.1514 39.762993)"
"1208","23418","800-722-4994","Mid-Continent Casualty Company","PO BOX 1409","TULSA","OK","74101",
"1805","31887",,"Coface North America Insurance Company","275 Grove Street 2-400","NEWTON","MA","02466","POINT (-71.251417 42.33864)"
"2862","13307",,"Lexon Insurance Company","10002 Shelbyville Road, Suite 100","LOUISVILLE","KY","40223","POINT (-85.568089 38.245721)"
"2849","10239",,"SECURA Supreme Insurance Company","PO Box 819","APPLETON","WI","54912-0819",
"1598","22233",,"Select Insurance Company","One Tower Square","HARTFORD","CT","06183",
"1745","28223","800-228-6700","Nationwide Agribusiness Insurance Company","ONE NATIONWIDE BLVD, FSSC-RR","COLUMBUS","OH","43215",
"3323","11110",,"Allstate North American Insurance Company","3075 Sanders Road, Suite G4E","NORTHBROOK","IL","60062","POINT (-87.873947 42.093908)"
"2864","11000",,"Sentinel Insurance Company, Ltd.","One Hartford Plaza","HARTFORD","CT","06115",
"2891","10984",,"Ansur America Insurance Company","One Mutual Avenue","FRANKENMUTH","MI","48787-0001",
"0872","25712","800-343-7262","Esurance Insurance Company","3075 Sanders Road, Suite G4E","NORTHBROOK","IL","60062-7127","POINT (-87.873947 42.093908)"
"2500","32603","800 866-2308","Berkley Insurance Company","475 Steamboat Road, 1st Floor","GREENWICH","CT","06830","POINT (-73.62342 41.01857)"
"2583","29530",,"Digital Affect Insurance Company","76 St. Paul Street, Suite 500","BURLINGTON","VT","05401","POINT (-73.214146 44.477724)"
"2972","22985",,"Sequoia Insurance Company","PO Box 1510","MONTEREY","CA","93942",
"2781","38237",,"American Country Insurance Company","953 American Lane, 3rd Floor","SCHAUMBURG","IL","60173","POINT (-88.055765 42.048352)"
"1637","19062",,"Automobile Insurance Company of Hartford, Connecticut (The)","One Tower Square","HARTFORD","CT","06183",
"2466","25011",,"Wesco Insurance Company","59 Maiden Lane, 43rd Floor","NEW YORK","NY","10038","POINT (-74.008478 40.708501)"
"2536","27065",,"Rockford Mutual Insurance Company","527 Colman Center Dr., P. O. Box 5626","ROCKFORD","IL","61125-0626","POINT (-88.962663 42.267047)"
"2550","37931",,"YCI, Inc.","PO Box 24000","OKLAHOMA CITY","OK","73124-4000",
"2605","11800",,"Foremost Property and Casualty Insurance Company","Farmers Ins Group, Regulatory Affairs Dept.","GRAND RAPIDS","MI","49501",
"1249","25186",,"EMC Property & Casualty Company","PO BOX 712","DES MOINES","IA","50306-0712",
"3142","38300",,"Samsung Fire & Marine Insurance Co., Ltd. (U.S. Branch)","105 Challenger Road, 5th Floor","RIDGEFIELD PARK","NJ","07660","POINT (-74.011917 40.853011)"
"0743","23647",,"Ironshore Indemnity Inc.","175 Berkeley Street","BOSTON","MA","02116","POINT (-71.072373 42.349909)"
"0582","25615",,"Charter Oak Fire Insurance Company (The)","One Tower Square","HARTFORD","CT","06115",
"0550","13412",,"Austin Mutual Insurance Company","55 West Street","KEENE","NH","03431","POINT (-72.280416 42.933382)"
"2859","34940","866-300-6433","Omni Indemnity Company","1400 Union Meeting Road, Suite 250","BLUE BELL","PA","19422","POINT (-75.285084 40.148645)"
"1596","22276",,"Berkshire Hathaway Specialty Insurance Company","1314 Douglas Street, Suite 1400","OMAHA","NE","68102-1944","POINT (-95.93386 41.25863)"
"2424","29157","800-258-2667","United Wisconsin Insurance Company","PO Box 40790","LANSING","MI","48901-7990",
"0196","14257","800-274-3531","IMT Insurance Company","PO BOX 1336","DES MOINES","IA","50306-1336",
"2701","15954","800-925-1887","AmTrust Insurance Company","PO BOX 650771","DALLAS","TX","75265-0771",
"2722","23442",,"Patriot General Insurance Company","1800 North Point Drive","STEVENS POINT","WI","54481","POINT (-89.572644 44.541214)"
"2683","43460",,"Aspen American Insurance Company","400 Capital Boulevard","ROCKY HILL","CT","06067","POINT (-72.66316 41.647032)"
"2666","23876",,"Mapfre Insurance Company","211 Main Street","WEBSTER","MA","01570","POINT (-71.88297 42.049256)"
"2103","39306",,"Fidelity and Deposit Company of Maryland (The)","1299 Zurich Way","SCHAUMBURG","IL","60196-1056","POINT (-88.046361 42.063664)"
"2522","22551","800-388-1802","Mitsui Sumitomo Insurance USA Inc.","15 Independence Blvd","WARREN","NJ","07059","POINT (-74.573779 40.651745)"
"2092","25321","800-422-4272","Farmers Direct Property and Casualty Insurance Company","700 Quacker Lane","WARWICK","RI","02886-6669","POINT (-71.500068 41.678771)"
"2688","13984",,"GuideOne Property & Casualty Insurance Company","1111 ASHWORTH ROAD","WEST DES MOINES","IA","50265-3538","POINT (-93.719132 41.584614)"
"0789","19399",,"AIU Insurance Company","1271 Ave of the Americas, FL 37","NEW YORK","NY","10020-1304","POINT (-73.980137 40.760305)"
"2187","37915",,"Essentia Insurance Company","10275 W. Higgins Road, Suite 750","ROSEMONT","IL","60018","POINT (-87.882896 41.997814)"
"0728","23396",,"Amerisure Mutual Insurance Company","PO BOX 2060","FARMINGTON HILLS","MI","48333-2060",
"3100","39462",,"Berkley Assurance Company","7233 E. BUTHERUS DRIVE","SCOTTSDALE","AZ","85260","POINT (-111.923907 33.622658)"
"3215","11134",,"Rural Trust Insurance Company","1700 East Douglas","WICHITA","KS","67214","POINT (-97.317031 37.68615)"
"1663","24260","800-776-4737","Progressive Casualty Insurance Company","6300 Wilson Mills Road","MAYFIELD VILLAGE","OH","44143-2182","POINT (-81.450826 41.538891)"
"2609","33723",,"Great American Spirit Insurance Company","301 E. Fourth Street","CINCINNATI","OH","45202-4201","POINT (-84.507797 39.100703)"
"0814","26344",,"Great American Assurance Company","301 E. Fourth Street","CINCINNATI","OH","45202-4201","POINT (-84.507797 39.100703)"
"2764","10212",,"Allmerica Financial Alliance Insurance Company","440 Lincoln Street","WORCESTER","MA","01653","POINT (-71.780784 42.291928)"
"0618","11967",,"General Star National Insurance Company","120 Long Ridge Road","STAMFORD","CT","06902","POINT (-73.553308 41.077632)"
"0896","15350",,"West Bend Mutual Insurance Company","1900 South 18th Ave.","WEST BEND","WI","53095","POINT (-88.200952 43.398724)"
"0617","25682",,"Travelers Indemnity Company of Connecticut (The)","One Tower Square","HARTFORD","CT","06183",
"0862","19453",,"Transatlantic Reinsurance Company","One Liberty Plaza","NEW YORK","NY","10006",
"2463","29793","800-242-7611","Pacific Star Insurance Company","PO Box 509020","SAN DIEGO","CA","92150-9020",
"2734","34690",,"Property and Casualty Insurance Company of Hartford","One Hartford Plaza","HARTFORD","CT","06155-0001",
"1907","22772",,"Integon Indemnity Corporation","5630 University Parkway, Mail Code 4A05","WINSTON-SALEM","NC","27105","POINT (-80.275533 36.176772)"
"3201","13587",,"First Chicago Insurance Company","6540 South Cicero Avenue","BEDFORD PARK","IL","60638-5838","POINT (-87.742242 41.773943)"
"2243","40118","800-422-0550","Trustgard Insurance Company","671 S. High Street","COLUMBUS","OH","43206","POINT (-82.998044 39.948796)"
"2543","24066",,"American Fire and Casualty Company","175 Berkeley Street","BOSTON","MA","02116","POINT (-71.072373 42.349909)"
"0406","13714","800-247-5690","Pharmacists Mutual Insurance Company","PO BOX 370","ALGONA","IA","50511",
"0531","19518","203-964-5200","Catlin Insurance Company, Inc.","70 Seaview Avenue","STANFORD","CT","06902","POINT (-73.523237 41.041676)"
"2814","28339","800 444-0512","Gateway Insurance Company","953 American Lane, 3rd Floor","SCHAUMBURG","IL","60173","POINT (-88.055765 42.048352)"
"2674","26433",,"Harco National Insurance Company","4200 Six Forks Rd., Suite 1400","RALEIGH","NC","27609","POINT (-78.639427 35.835675)"
"2141","15385",,"Bureau Veritas Inspection and Insurance Company","1601 Sawgrass Corporate Pkwy, Suite 400","FORT LAUDERDALE","FL","33323","POINT (-80.340459 26.143778)"
"1741","26662",,"Milford Casualty Insurance Company","PO Box 650771","DALLAS","TX","75265-0771",
"2806","19720",,"American Alternative Insurance Corporation","555 College Road East","PRINCETON","NJ","08543","POINT (-74.593587 40.351455)"
"2517","40444",,"Old Republic Surety Company","PO BOX 1635","MILWAUKEE","WI","53201",
"0624","19275","800-692-6326","American Family Mutual Insurance Company, S.I.","6000 American Parkway","MADISON","WI","53783","POINT (-89.285375 43.155727)"
"2351","43575",,"Indemnity Insurance Company of North America","PO Box 1000","PHILADELPHIA","PA","19106",
"3095","31534",,"Citizens Insurance Company of America","440 Lincoln Street","WORCESTER","MA","01653","POINT (-71.780784 42.291928)"
"2746","40150",,"MGA Insurance Company, Inc.","PO Box 199023","DALLAS","TX","75219-9023",
"2832","22454","800-422-0794","Mendakota Insurance Company","3343 Perimeter Hill, Suite 214","NASHVILLE","TN","37211","POINT (-86.694558 36.084899)"
"1992","26042",,"Wausau Underwriters Insurance Company","175 Berkeley Street","BOSTON","MA","02116","POINT (-71.072373 42.349909)"
"2325","27855",,"Zurich American Insurance Company of Illinois","1299 Zurich Way, 5th Floor","SCHAUMBURG","IL","60196","POINT (-88.046361 42.063664)"
"1167","19100",,"AMCO Insurance Company","ONE NATIONWIDE BLVD, FSSC-RR","COLUMBUS","OH","43215",
"1404","24228",,"Pekin Insurance Company","2505 Court St.","PEKIN","IL","61558","POINT (-89.60973 40.554442)"
"1652","21628",,"Farmers Insurance Company, Inc.","Farmers Ins Group, Regulatory Affairs Dept.","GRAND RAPIDS","MI","49501",
"0781","24104",,"Ohio Farmers Insurance Company","PO BOX 5001","WESTFIELD CENTER","OH","44251-5001",
"2684","28886",,"TransGuard Insurance Company of America, Inc.","4200 Six Forks Rd., Suite 1400","RALEIGH","NC","27609","POINT (-78.639427 35.835675)"
"0922","26077",,"Lancer Insurance Company","PO Box 9004","LONG BEACH","NY","11561-9004",
"0739","22012",,"Motors Insurance Corporation","500 Woodward Ave, 14th Floor","DETROIT","MI","48226","POINT (-83.04504 42.329525)"
"1856","11177",,"First Financial Insurance Company","185 Asylum Street, 7th Floor","HARTFORD","CT","06103","POINT (-72.676492 41.76727)"
"3016","42376",,"Technology Insurance Company, Inc.","59 Maiden Lane, 43rd Floor","NEW YORK","NY","10038","POINT (-74.008478 40.708501)"
"2452","23680",,"Odyssey Reinsurance Company","300 First Stamford Place","STAMFORD","CT","06902","POINT (-73.546921 41.045519)"
"0745","20796","800-245-2425","21st Century Premier Insurance Company","21st Century Plaza, 3 Beaver Valley Road","WILMINGTON","DE","19803",
"0844","19070",,"Standard Fire Insurance Company (The)","One Tower Square","HARTFORD","CT","06183",
"2447","18287",,"Assured Guaranty Municipal Corp.","1633 Broadway","NEW YORK","NY","10019","POINT (-73.983786 40.761828)"
"3139","39900",,"Peninsula Indemnity Company","1195 River Road, P.O. Box 302","MARIETTA","PA","17547-0302","POINT (-76.549013 40.062676)"
"2285","39942",,"American National General Insurance Company","1949 E. Sunshine, Corporate Ctr.","SPRINGFIELD","MO","65899",
"1887","35300","800-421-0504","Allianz Global Risks US Insurance Company","225 W. Washington St., #1800","CHICAGO","IL","60606","POINT (-87.634988 41.883208)"
"1177","19801",,"Argonaut Insurance Company","PO Box 469011","SAN ANTONIO","TX","78246-9011",
"2359","39152",,"Service American Indemnity Company","PO Box 26850","AUSTIN","TX","78755",
"3110","24503",,"Root Property & Casualty Insurance Company","80 E Rich Street, Suite 500","COLUMBUS","OH","43215","POINT (-82.99772 39.95774)"
"3039","41343",,"HDI Global Insurance Company","161 N. Clark Street, 48th Floor","CHICAGO","IL","60601","POINT (-87.630937 41.884708)"
"3281","16070",,"Cronus Insurance Company","370 Las Colinas Blvd. W., Suite 108","IRVING","TX","75039","POINT (-96.943724 32.874582)"
"2100","11835",,"PartnerRe America Insurance Company","200 First Stamford Place, Suite 400","STAMFORD","CT","06902","POINT (-73.547826 41.045218)"
"2162","40827",,"Virginia Surety Company, Inc.","175 W Jackson","CHICAGO","IL","60604","POINT (-87.62843 41.878193)"
"2654","25224",,"Great Divide Insurance Company","PO Box 1594","DES MOINES","IA","50306",
"1273","13528",,"Brotherhood Mutual Insurance Company","PO BOX 2227","FT. WAYNE","IN","46801",
"0532","21857","(888) 466-7883","American Insurance Company (The)","225 W Washington Street, Suite 1800","CHICAGO","IL","60606","POINT (-87.634988 41.883208)"
"3054","28649","800-897-2299","Eastern Atlantic Insurance Company","5300 Derry Street","HARRISBURG","PA","17111","POINT (-76.7956 40.259419)"
"3170","35416",,"U.S. Underwriters Insurance Company","1190 Devon Park","WAYNE","PA","19087","POINT (-75.396673 40.080739)"
"2553","42404",,"Liberty Insurance Corporation","175 Berkeley Street","BOSTON","MA","02116","POINT (-71.072373 42.349909)"
"1807","10391",,"Berkshire Hathaway Direct Insurance Company","1314 Douglas Street, Suite 1400","OMAHA","NE","68102-1944","POINT (-95.93386 41.25863)"
"3300","16510",,"Beazley American Insurance Company, Inc.","30 Batterson Park Road","FARMINGTON","CT","06032","POINT (-72.797843 41.708977)"
"2860","30120",,"ZNAT Insurance Company","21233 Califa Street","WOODLAND HILLS","CA","91367","POINT (-118.594565 34.177089)"
"0752","19445",,"National Union Fire Insurance Company of Pittsburgh, Pa.","1271 Ave of the Americas, FL 37","NEW YORK","NY","10020-1304","POINT (-73.980137 40.760305)"
"1926","30945",,"Plaza Insurance Company","518 EAST BROAD STREET","COLUMBUS","OH","43215","POINT (-82.986563 39.963871)"
"0511","19232",,"Allstate Insurance Company","3075 Sanders Rd., Suite G4E","NORTHBROOK","IL","60062","POINT (-87.873947 42.093908)"
"0426","14338",,"Iowa Mutual Insurance Company","471 East Broad Street","COLUMBUS","OH","43215","POINT (-82.987911 39.963716)"
"2831","40045","800 866-2308","StarNet Insurance Company","PO BOX 9190","DES MOINES","IA","50306",
"2326","30058",,"Scor Reinsurance Company","28 Liberty Street, Suite 5400","NEW YORK","NY","10005","POINT (-74.008711 40.708067)"
"0568","10243","800-776-4737","National Continental Insurance Company","6300 Wilson Mills Road","MAYFIELD VILLAGE","OH","44113-2182","POINT (-81.450826 41.538891)"
"0445","10804",,"Continental Western Insurance Company","PO BOX 1594","DES MOINES","IA","50306",
"3326","25798",,"Sutton National Insurance Company","1855 Griffin Road, Suite B390","DANIA BEACH","FL","33004","POINT (-80.161551 26.062727)"
"2822","18694","800-829-8165","Great Midwest Insurance Company","800 Gessner, Suite 600","HOUSTON","TX","77024-1206","POINT (-95.544376 29.776003)"
"2420","15105","888-995-5300","Safety National Casualty Corporation","1832 Schuetz Road","ST. LOUIS","MO","63146","POINT (-90.428235 38.694215)"
"1322","25453","800-882-2822","Nationwide Insurance Company of America","One Nationwide Blvd, FSSC-RR","COLUMBUS","OH","43215",
"2331","37877",,"Nationwide Property and Casualty Insurance Company","One Nationwide Blvd, FSSC-RR","COLUMBUS","OH","43215",
"0554","13420",,"Badger Mutual Insurance Company","1134 North 9th Street , Suite 150","MILWAUKEE","WI","53233","POINT (-87.922916 43.044661)"
"3129","15911",,"Berkley Casualty Company","3490 INDEPENDENCE DR.","BIRMINGHAM","AL","35209","POINT (-86.782392 33.471521)"
"3098","22586",,"Atlantic States Insurance Company","1195 River Road, P.O. Box 302","MARIETTA","PA","17547-0302","POINT (-76.549013 40.062676)"
"3018","10351","800-732-1486","First Dakota Indemnity Company","PO Box 89310","SIOUX FALLS","SD","57106",
"2163","24120",,"Westfield National Insurance Company","One Park Circle, P. O. Box 5001","WESTFIELD CENTER","OH","44251-5001",
"0685","22713",,"Insurance Company of North America","PO Box 1000","PHILADELPHIA","PA","19106",
"2873","11127","800-321-7015","Professional Solutions Insurance Company","PO BOX 9118","DES MOINES","IA","50306-9118",
"0917","11185",,"Foremost Insurance Company","Farmers Ins Group, Regulatory Affairs Dept.","GRAND RAPIDS","MI","49501",
"1390","22578",,"Horace Mann Insurance Company","1 Horace Mann Plaza","SPRINGFIELD","IL","62715","POINT (-89.64359 39.80163)"
"3030","35505","800-837-9062","Rockwood Casualty Insurance Company","654 Main Street","ROCKWOOD","PA","15557","POINT (-79.153292 39.914795)"
"0903","13188","800-331-6053","Western Surety Company","151 N. Franklin St.","CHICAGO","IL","60606","POINT (-87.635367 41.884568)"
"2817","10178","800 226-3224","FCCI Insurance Company","6300 University Parkway","SARASOTA","FL","34240-8424","POINT (-82.435703 27.386349)"
"1282","19690",,"American Economy Insurance Company","175 Berkeley St.","BOSTON","MA","02116","POINT (-71.072373 42.349909)"
"2735","43753",,"Republic Indemnity Company of California","4500 Park Granada Blvd Suite 300","CALABASAS","CA","91302","POINT (-118.64626 34.149926)"
"2421","40282",,"Travelers Commercial Casualty Company","One Tower Square","HARTFORD","CT","06183",
"2593","42552",,"NOVA Casualty Company","440 Lincoln Street","WORCESTER","MA0165","06095","POINT (-72.797644 41.653285)"
"2449","10340",,"Stonington Insurance Company","One General Drive","SUN PRAIRIE","WI","53596",
"2866","27987",,"Northfield Insurance Company","ONE TOWER SQUARE","HARTFORD","CT","06183",
"2566","36234",,"Preferred Professional Insurance Company","11605 Miracle Hills Drive, #200","OMAHA","NE","68154-4467","POINT (-96.095591 41.268098)"
"2901","22608","800-877-4567","National Specialty Insurance Company","1900 L. Don Dodson Drive","BEDFORD","TX","76021","POINT (-97.14012 32.84179)"
"1509","21423",,"Union Insurance Company of Providence","PO BOX 712","DES MOINES","IA","50306-0712",
"1631","11255","800-248-4228","Caterpillar Insurance Company","2120 West End Avenue","NASHVILLE","TN","37203-0001","POINT (-86.802881 36.149639)"
"2008","38318",,"Starr Indemnity & Liability Company","399 Park Avenue, 3rd Floor","NEW YORK","NY","10022","POINT (-73.972266 40.759324)"
"0407","23132","800-369-4784","R.V.I. America Insurance Company","177 Broad Street, 9th Floor","STAMFORD","CT","06901","POINT (-73.540808 41.055505)"
"2265","42978","800-852-2244","American Security Insurance Company","260 Interstate North Circle, SE","ATLANTA","GA","30339","POINT (-84.463625 33.898602)"
"2012","37214",,"American States Preferred Insurance Company","175 Berkeley Street","BOSTON","MA","02116","POINT (-71.072373 42.349909)"
"0416","21741",,"Esurance Insurance Company of New Jersey","3075 Sanders Road, Suite G4E","NORTHBROOK","IL","60062-7127","POINT (-87.873947 42.093908)"
"1810","27138",,"Midvale Indemnity Company","6000 American Parkway","MADISON","WI","53783","POINT (-89.285375 43.155727)"
"1980","20052","866-720-7861","National Liability & Fire Insurance Company","1314 Douglas Street, Suite 1400","OMAHA","NE","68102-1944","POINT (-95.93386 41.25863)"
"0924","21326",,"Empire Fire and Marine Insurance Company","1299 Zurich Way","SCHAUMBURG","IL","60196","POINT (-88.046361 42.063664)"
"2638","12831","800-877-4567","State National Insurance Company, Inc.","1900 L. Don Dodson Drive","BEDFORD","TX","76021","POINT (-97.14012 32.84179)"
"1555","24961",,"Everspan Insurance Company","One World Trade Center  41st Floor","NEW YORK","NY","10007",
"1754","31577",,"Iowa American Insurance Company","471 East Broad Street","COLUMBUS","OH","43215","POINT (-82.987911 39.963716)"
"2353","18619","800 475-4450","Platte River Insurance Company","PO Box 5900","MADISON","WI","53705-0900",
"1722","25844","800-235-2942","Union Insurance Company","PO BOX 1594","URBANDALE","IA","50306-1594",
"2198","41653",,"Milbank Insurance Company","518 E. BROAD STREET","COLUMBUS","OH","43215","POINT (-82.986563 39.963871)"
"2879","20176",,"Celina Mutual Insurance Company (The)","1 Insurance Square","CELINA","OH","45822-1690",
"2876","14702",,"EastGUARD Insurance Company","PO Box AH","WILKES-BARRE","PA","18703-0020",
"2613","18058",,"Philadelphia Indemnity Insurance Company","One Bala Plaza, Suite 100","BALA CYNWYD","PA","19004",
"2422","36781",,"FMH Ag Risk Insurance Company","6785 WESTOWN PARKWAY","WEST DES MOINES","IA","50266","POINT (-93.802226 41.595104)"
"3115","11595",,"Merchants National Bonding, Inc.","PO BOX 14498","DES MOINES","IA","50306-3498",
"3048","12986",,"Integrity Property & Casualty Insurance Company","671 S. High Street","COLUMBUS","OH","43206","POINT (-82.998044 39.948796)"
"3202","44768",,"Vantapro Specialty Insurance Company","1690 New Britain Avenue, Suite 101","FARMINGTON","CT","06032","POINT (-72.860203 41.708039)"
"2587","36137",,"Travelers Commercial Insurance Company","One Tower Square","HARTFORD","CT","06183",
"2821","10819",,"American Equity Specialty Insurance Company","One Tower Square","HARTFORD","CT","06183",
"1915","10936",,"Seneca Insurance Company, Inc.","199 Water ST, 20th Floor","NEW YORK","NY","10038","POINT (-74.004621 40.707097)"
"2492","38156","800-456-1919","Alpha Property & Casualty Insurance Company","8360 LBJ Freeway, Suite 400","DALLAS","TX","75243",
"0607","22926","800-422-4272","Economy Fire & Casualty Company","700 Quaker Lane","WARWICK","RI","02886","POINT (-71.500068 41.678771)"
"3263","12319",,"Bondsman Insurance Company","350 10th Avenue Suite 1450","SAN DIEGO","CA","92101","POINT (-117.155556 32.708841)"
"2457","42889","614-249-1545","Victoria Fire & Casualty Company","One Nationwide Blvd, FSSC-RR","COLUMBUS","OH","43215",
"0830","20931",,"Wellfleet New York Insurance Company","5814 Reed Road","FORT WAYNE","IN","46835","POINT (-85.081556 41.132093)"
"2848","33391",,"ProAssurance Indemnity Company, Inc.","PO Box 590009","BIRMINGHAM","AL","35259-0009",
"1934","10677",,"Cincinnati Insurance Company (The)","PO BOX 145496","CINCINNATI","OH","45214",
"2909","10071","800-588-7400","Encompass Insurance Company of America","3075 Sanders Road, Suite G4E","NORTHBROOK","IL","60062","POINT (-87.873947 42.093908)"
"0600","20443","877-262-2727","Continental Casualty Company","151 N. Franklin St.","CHICAGO","IL","60606","POINT (-87.635367 41.884568)"
"3086","19488",,"Amerisure Insurance Company","PO Box 2060","FARMINGTON HILLS","MI","48333-2060",
"1400","23264",,"Inland Insurance Company","PO BOX 80468","LINCOLN","NE","68501",
"2791","23574",,"Midwest Family Mutual Insurance Company","4401 WESTOWN PARKWAY STE 305","WEST DES MOINES","IA","50266","POINT (-93.764289 41.595501)"
"1565","20710",,"Century Indemnity Company","PO Box 1000","PHILADELPHIA","PA","19106",
"1327","23760",,"Nationwide General Insurance Company","One Nationwide Blvd, FSSC-RR","COLUMBUS","OH","43215",
"0889","25933",,"Universal Surety Company","601 S. 12th St., P. O. Box 80468","LINCOLN","NE","68501","POINT (-96.704092 40.807721)"
"2531","23280",,"Cincinnati Indemnity Company (The)","PO BOX 145496","CINCINNATI","OH","45250-5496",
"1954","35769","800 950-6060","Protective Property & Casualty Insurance Company","14755 N. Outer Forty Drive, #400","ST. LOUIS","MO","63017",
"2971","10784","866-387-4500","Maxum Casualty Insurance Company","3655 NorthPoint Parkway","ALPHARETTA","GA","30005","POINT (-84.441797 34.039643)"
"2599","18821",,"General Casualty Insurance Company","One General Drive","SUN PRAIRIE","WI","53596",
"2046","22640",,"Consolidated Insurance Company","175 Berkeley Street","BOSTON","MA","02116","POINT (-71.072373 42.349909)"
"2659","32190",,"Constitution Insurance Company","PO Box 8424","OMAHA","NE","68108-8424",
"0810","24295",,"Providence Washington Insurance Company","One World Trade Center, 41st Floor","NEW YORK","NY","10007",
"1698","21881",,"National Surety Corporation","225 W. Washington St., Suite 1800","CHICAGO","IL","60606","POINT (-87.634988 41.883208)"
"2670","40975","800-733-0635","Dentists Insurance Company (The)","PO BOX 1582","SACRAMENTO","CA","95812",
"0899","26093","800-421-3535","Nationwide Affinity Insurance Company of America","One Nationwide Blvd, FSSC-RR","COLUMBUS","OH","43215",
"2557","21229","800-222-6424","MemberSelect Insurance Company","One Auto Club Drive","DEARBORN","MI","48126",
"0942","24147",,"Old Republic Insurance Company","631 Excel Drive, Suite 200","MT. PLEASANT","PA","15666","POINT (-79.584838 40.191805)"
"1839","41840",,"Allmerica Financial Benefit Insurance Company","440 Lincoln Street","WORCESTER","MA","01653","POINT (-71.780784 42.291928)"
"3067","12294",,"Southwest Marine and General Insurance Company","412 Mt. Kemble Avenue, Suite 300C","MORRISTOWN","NJ","07960","POINT (-74.505603 40.772131)"
"2363","11770","800-776-4737","United Financial Casualty Company","6300 Wilson Mills Road","MAYFIELD VILLAGE","OH","44143-2182","POINT (-81.450826 41.538891)"
"0626","13935",,"Federated Mutual Insurance Company","121 East Park Square","OWATONNA","MN","55060","POINT (-93.225466 44.084027)"
"3089","12260",,"CampMed Casualty & Indemnity Company, Inc.","440 Lincoln Street","WORCESTER","MA","20190","POINT (-71.780784 42.291928)"
"2915","32905",,"Property-Owners Insurance Company","PO Box 30660","LANSING","MI","48909-8160",
"1886","10227",,"Munich Reinsurance America, Inc.","555 College Road East, PO Box 5241","PRINCETON","NJ","08543","POINT (-74.593587 40.351455)"
"0644","24732",,"General Insurance Company of America","175 Berkeley St.","BOSTON","MA","02116","POINT (-71.072373 42.349909)"
"3257","16356",,"Chiron Insurance Company","PO BOX 370","ALGONA","IA","50511",
"0431","14559",,"GuideOne Specialty Insurance Company","1111 ASHWORTH ROAD","WEST DES MOINES","IA","50265-3538","POINT (-93.719132 41.584614)"
"0525","20613","877-772-7824","SPARTA Insurance Company","5 Batterson Park Road, 3rd Floor","FARMINGTON","CT","06032","POINT (-72.798263 41.708558)"
"0915","20397",,"Vigilant Insurance Company","202B Hall's Mill Road","WHITEHOUSE STATION","NJ","08889","POINT (-74.765041 40.644972)"
"2413","31232",,"Work First Casualty Company","1100 East 6600 South, Suite 260","SALT LAKE CITY","UT","84121","POINT (-111.861196 40.631575)"
"2637","42234","800-422-1370","Minnesota Lawyers Mutual Insurance Company","333 South 7th Street, #2200","MINNEAPOLIS","MN","55402","POINT (-93.26724 44.974787)"
"2294","22268","800-852-8208","Infinity Insurance Company","2201 4th Avenue North","BIRMINGHAM","AL","35203","POINT (-86.804285 33.518757)"
"2567","33162","800-627-0000","Bankers Insurance Company","11101 Roosevelt Blvd. N","ST. PETERSBURG","FL","33716","POINT (-82.651772 27.873606)"
"1735","41394","800-283-0622","Benchmark Insurance Company","150 Lake Street W","WAYZATA","MN","55391","POINT (-93.525229 44.970808)"
"0919","10510",,"Carolina Casualty Insurance Company","5011 GATE PARKWAY, BUILDING 200, SUITE 200","JACKSONVILLE","FL","32256","POINT (-81.535737 30.246241)"
"1815","20060",,"National Indemnity Company of Mid-America","1314 DOUGLAS STREET, SUITE 1400","OMAHA","NE","68102-1944","POINT (-95.93386 41.25863)"
"1687","24775",,"St. Paul Guardian Insurance Company","One Tower Square","HARTFORD","CT","06183",
"1328","23248",,"Occidental Fire & Casualty Company of North Carolina","4200 Six Forks Rd., Suite 1400","RALEIGH","NC","27609","POINT (-78.639427 35.835675)"
"3073","43494","800-866-0047","American Hallmark Insurance Company of Texas","5420 Lyndon B. Johnson Frwy, Ste 1100","DALLAS","TX","75240-2345","POINT (-96.817518 32.923085)"
"2200","38601",,"MIC Property and Casualty Insurance Corporation","500 Woodward Ave, 14th Floor","DETRPOT","MI","48226","POINT (-83.04504 42.329525)"
"1314","24139",,"Old Republic General Insurance Corporation","307 North Michigan Ave.","CHICAGO","IL","60601","POINT (-87.624455 41.887503)"
"1664","22543","800-558-3405","SECURA Insurance Company","PO BOX 819","APPLETON","WI","54912-0819",
"2933","18333",,"Peerless Indemnity Insurance Company","175 Berkeley Street","BOSTON","MA","02116","POINT (-71.072373 42.349909)"
"1995","22594","800-558-9900","MGIC Assurance Corporation","PO BOX 756","MILWAUKEE","WI","53201-0756",
"2776","24376",,"Spinnaker Insurance Company","1 Pluckemin Way, Suite 102","BEDMINISTER TOWNSHIP","NJ","07921","POINT (-74.643272 40.649455)"
"3261","40088",,"American Inter-Fidelity Exchange","9223 Broadway, Suite A","MERRILLVILLE","IN","46410","POINT (-87.33635 41.459628)"
"3306","22225",,"Trisura Insurance Company","210 Park Avenue, Suite 1300","OKLAHOMA CITY","OK","73102","POINT (-97.517325 35.468792)"
"0576","20230",,"Central Mutual Insurance Company","800 South Washington St.","VAN WERT","OH","45891","POINT (-84.582962 40.861021)"
"2965","27154",,"Atlantic Specialty Insurance Company","605 Highwat 169 North, Suite 800","PLYMOUTH","MN","55441",
"1287","19240",,"Allstate Indemnity Company","3075 Sanders Rd., Suite G4E","NORTHBROOK","IL","60065","POINT (-87.873947 42.093908)"
"3250","16262","(800) 225-5636","Midwest Family Advantage Insurance Company","4401 WESTOWN PARKWAY STE 305","WEST DES MOINES","IA","50266","POINT (-93.764289 41.595501)"
"0836","20583","800-622-1840","XL Reinsurance America Inc.","Seaview House, 70 Seaview Ave.","STAMFORD","CT","06902-6040",
"2434","29424",,"Hartford Casualty Insurance Company","One Hartford Plaza","HARTFORD","CT","06115",
"3235","16045",,"Everest Premier Insurance Company","PO Box 830","LIBERTY CORNER","NJ","07938-0830",
"0441","15032",,"GuideOne Insurance Company","1111 ASHWORTH RD","WEST DES MOINES","IA","50265-3538","POINT (-93.719132 41.584614)"
"2680","35955",,"California Casualty General Insurance Company of Oregon","P. O. Box M","SAN MATEO","CA","94402-0080",
"2018","38067","800-422-4272","Economy Preferred Insurance Company","700 Quaker Lane","WARWICK","RI","02886","POINT (-71.500068 41.678771)"
"2921","19530",,"Hallmark National Insurance Company","5420 Lyndon B. Johnson Frwy","DALLAS","TX","75240-2345","POINT (-96.817518 32.923085)"
"3268","12356",,"CM Regent Insurance Company","300 Sterling Parkway, Suite 1400","MECHANICSBURG","PA","17050","POINT (-77.027741 40.241884)"
"2085","39845",,"Westport Insurance Corporation","1200 Main Street, Suite 800","KANSAS CITY","MO","64105","POINT (-94.583196 39.09961)"
"2339","13234","800-525-7486","Wilshire Insurance Company","4200 Six Forks Road, Suite 1400","RALEIGH","NC","27609","POINT (-78.639427 35.835675)"
"2372","17230",,"Allstate Property and Casualty Insurance Company","3075 Sanders Rd., Suite G4E","NORTHBROOK","IL","60062","POINT (-87.873947 42.093908)"
"1141","25496",,"StarStone National Insurance Company","201 E Fifth St","Cincinnati","OH","45202","POINT (-84.508891 39.101776)"
"2930","10749",,"Intrepid Insurance Company","10851 MASTIN BLVD., SUITE 200","OVERLAND PARK","KS","66210","POINT (-94.702318 38.931811)"
"0664","13331",,"Motorists Commercial Mutual Insurance Company","471 East Broad Street","COLUMBUS","OH","43215","POINT (-82.987911 39.963716)"
"2527","29742",,"Integon National Insurance Company","5630 University Parkway, Mail Code 4A05","WINSTON-SALEM","NC","27105","POINT (-80.275533 36.176772)"
"0780","24112",,"Westfield Insurance Company","PO BOX 5001","WESTFIELD CENTER","OH","44251-5001",
"2247","42587",,"Depositors Insurance Company","ONE NATIONWIDE BLVD, FSSC-RR","COLUMBUS","OH","43215",
"1833","26832",,"Great American Alliance Insurance Company","301 E. Fourth Street","CINCINNATI","OH","45202-4201","POINT (-84.507797 39.100703)"
"2643","40029",,"Explorer Insurance Company","PO Box 509039","SAN DIEGO","CA","92150-9039",
"2878","44318",,"Admiral Indemnity Company","301 Route 17 North, Suite 900","RUTHERFORD","NJ","07070",
"1627","12297",,"Petroleum Casualty Company","22777 Springwoods Village Parkway","SPRING","TX","77389","POINT (-95.444355 30.099623)"
"2083","36552",,"Coliseum Reinsurance Company","3 West 35th Street, 11th Floor","NEW YORK","NY","10001","POINT (-73.984747 40.74939)"
"0967","21253",,"Garrison Property and Casualty Insurance Company","9800 Fredericksburg Road","SAN ANTONIO","TX","78288","POINT (-98.57653 29.537142)"
"0867","20494",,"Transportation Insurance Company","151 N. Franklin St.","CHICAGO","IL","60606","POINT (-87.635367 41.884568)"
"2241","38776",,"SiriusPoint America Insurance Company","One World Trade Center","NEW YORK","NY","10007",
"2805","31895","800-256-9052","American Interstate Insurance Company","2301 Highway 190 West","DERIDDER","LA","70634-6005","POINT (-93.320071 30.846871)"
"2183","37257",,"Praetorian Insurance Company","One General Drive","SUN PRAIRIE","WI","53596",
"2610","28258",,"Continental Indemnity Company","PO Box 3646","OMAHA","NE","68103-0646",
"2233","42757",,"Agri General Insurance Company","9200 NORTHPARK DRIVE, #350","JOHNSTON","IA","50131-3007","POINT (-93.74791 41.655109)"
"0574","20532",,"Clarendon National Insurance Company","411 5th Avenue, Floor 5","NEW YORK","NY","10016","POINT (-73.983082 40.750509)"
"3328","16498",,"MTAW Insurance Company","PO BOX 1973","MORRISTOWN","NJ","07960-1973",
"2761","16322","800-776-4737","Progressive Direct Insurance Company","6300 Wilson Mills Road","MAYFIELD VILLAGE","OH","44143-2182","POINT (-81.450826 41.538891)"
"2442","37141",,"Southern General Insurance Company","PO BOX 28155","ATLANTA","GA","30358",
"1237","22322",,"Greenwich Insurance Company","70 Seaview Avenue","STAMFORD","CT","06902","POINT (-73.523237 41.041676)"
"2280","11592",,"International Fidelity Insurance Company","4200 Six Forks Rd., Suite 1400","RALEIGH","NC","27609","POINT (-78.639427 35.835675)"
"3078","20184","800-552-5181","National Mutual Insurance Company (The)","1 Insurance Square","CELINA","OH","45822-1690",
"2854","24279","800-776-4737","Progressive Max Insurance Company","6300 Wilson Mills Road, W33","MAYFIELD VILLAGE","OH","44143-2182","POINT (-81.450826 41.538891)"
"2803","36650",,"Guarantee Company of North America USA (The)","One Towne Square, Suite 1470","SOUTHFIELD","MI","48706",
"1880","16810","800-503-3724","American Mercury Insurance Company","PO BOX 728847","OKLAHOMA CITY","OK","73172-8847",
"2664","37885",,"XL Specialty Insurance Company","70 Seaview Avenue","STAMFORD","CT","06902","POINT (-73.523237 41.041676)"
"2556","34738",,"ARAG Insurance Company","500 GRAND AVENUE, SUITE 100","DES MOINES","IA","50309","POINT (-93.624136 41.588011)"
"2732","10226",,"Unitrin Direct Insurance Company","200 East Randolph Street, Suite 3300","CHICAGO","IL","60601","POINT (-87.621611 41.884472)"
"0885","25887",,"United States Fidelity and Guaranty Company","One Tower Square","HARTFORD","CT","06183",
"0926","15377",,"Western National Mutual Insurance Company","Edina Corporate Center","EDINA","MN","55435-4818",
"1275","14990",,"Pennsylvania National Mutual Casualty Insurance Company","Two North Second Street","HARRISBURG","PA","17105",
"2569","22730","800-294-9242","Allied World Insurance Company","199 Water Street, 16th Floor","NEW YORK","NY","10038","POINT (-74.004621 40.707097)"
"0559","20109","800-475-4477","BITCO National Insurance Company","3700 MARKET SQUARE CIRCLE","DAVENPORT","IA","52807-2309",
"3032","38911",,"Berkley National Insurance Company","PO BOX 1594","DES MOINES","IA","50306-1594",
"0682","21776",,"Previsor Insurance Company","101 N. Keene Street Suite C","COLUMBIA","MO","65201","POINT (-92.290578 38.950606)"
"1284","23361",,"Shelter General Insurance Company","1817 West Broadway","COLUMBIA","MO","65218","POINT (-92.36717 38.953504)"
"1626","23752",,"Ascot Insurance Company","55 West 46th Street, 26th Floor","NEW YORK","NY","10036","POINT (-73.981129 40.756921)"
"0887","25909",,"Unitrin Preferred Insurance Company","12926 Gran Bay Parkway","JACKSONVILLE","FL","32258",
"2017","37540",,"Beazley Insurance Company, Inc.","30 Batterson Park Road","FARMINGTON","CT","06032","POINT (-72.797843 41.708977)"
"0436","12718",,"Developers Surety and Indemnity Company","PO BOX 19725","IRVINE","CA","92623-9725",
"1108","15199","800-526-0332","Standard Property and Casualty Insurance Company","PO Box 3199","WINSTON-SALEM","NC","27102",
"2304","26700",,"Insurance Company of Illinois","175 Berkeley St.","BOSTON","MA","02116","POINT (-71.072373 42.349909)"
"2375","16217","800-347-1961","National Farmers Union Property and Casualty Company","PO Box 3199","WINSTON-SALEM","NC","27102",
"3236","16044",,"Everest Denali Insurance Company","Warren Corporate Center","WARREN","NJ","07059",
"2943","14788",,"NGM Insurance Company","4601 Touchton Road East, Suite 3400","JACKSONVILLE","FL","32245-3600","POINT (-81.549085 30.262286)"
"1670","21261",,"Electric Insurance Company","75 Sam Fonzo Drive","BEVERLY","MA","01915","POINT (-70.904727 42.579308)"
"1870","35424","800-331-3780","Old Republic Security Assurance Company","307 North Michigan Avenue","CHICAGO","IL","60601","POINT (-87.624455 41.887503)"
"1479","24813","800-854-6115","Tesla Insurance Company","45500 Fremont Blvd","FREMONT","CA","94538","POINT (-121.948262 37.496314)"
"2622","31135",,"Great American Security Insurance Company","301 E. Fourth Street","CINCINNATI","OH","45202-4201","POINT (-84.507797 39.100703)"
"2218","42498",,"Cameron National Insurance Company","PO Box 768","CAMERON","MO","64429",
"2682","33898",,"Aegis Security Insurance Company","PO BOX 3153","HARRISBURG","PA","17105-3153",
"1768","36919",,"Hawkeye-Security Insurance Company","175 Berkeley Street","BOSTON","MA","02116","POINT (-71.072373 42.349909)"
"2694","13200",,"Universal Surety of America","400 Capital Boulevard","ROCKY HILL","CT","06067","POINT (-72.66316 41.647032)"
"0939","11231",,"Generali (United States Branch)","7 World Trade Center, 33rd Floor","NEW YORK","NY","10007",
"1877","33499",,"Dorinco Reinsurance Company","2211 H.H. Dow Way Sylvia Stoesser Center","MIDLAND","MI","48674",
"2739","36307",,"Gray Insurance Company (The)","PO BOX 6202","METAIRIE","LA","70009-6202",
"2875","42390",,"AmGUARD Insurance Company","PO Box AH","WILKES-BARRE","PA","18703-0020",
"0529","26247",,"American Guarantee & Liability Insurance Company","1299 Zurich Way","SCHAUMBURG","IL","60196","POINT (-88.046361 42.063664)"
"2809","10829",,"Markel Global Reinsurance Company","10275 W. Higgins Rd. Suite 750","ROSEMONT","IL","60018","POINT (-87.882896 41.997814)"
"2888","10220",,"Accelerant National Insurance Company","400 Northridge Road, Suite 800","SANDY SPRINGS","GA","30350","POINT (-84.346189 33.981907)"
"2165","19917",,"Liberty Insurance Underwriters Inc.","175 Berkeley Street","BOSTON","MA","02116","POINT (-71.072373 42.349909)"
"0788","22748",,"Pacific Employers Insurance Company","PO Box 1000","PHILADELPHIA","PA","19106",
"0666","19682",,"Hartford Fire Insurance Company","One Hartford Plaza","HARTFORD","CT","06155",
"1678","13889",,"Farmers Mutual Insurance Company of Nebraska","501 S. 13th St","LINCOLN","NE","68508-2703","POINT (-96.702656 40.808842)"
"1859","12262",,"Pennsylvania Manufacturers' Association Insurance Company","380 Sentry Parkway","BLUE BELL","PA","19422-2328","POINT (-75.270995 40.132519)"
"0557","19402",,"AIG Property Casualty Company","1271 Ave of the Americas, FL 37","NEW YORK","NY","10020-1304","POINT (-73.980137 40.760305)"
"1368","24082",,"Ohio Security Insurance Company","175 Berkeley Street","BOSTON","MA","02116","POINT (-71.072373 42.349909)"
"0502","19038",,"Travelers Casualty and Surety Company","One Tower Square","HARTFORD","CT","06183",
"2882","11123","888-372-7512","Safety First Insurance Company","1832 Schuetz Rd.","ST. LOUIS","MO","63146","POINT (-90.428235 38.694215)"
"2328","25240","800-942-6557","NAU Country Insurance Company","7333 Sunwood Drive","RAMSEY","MN","55303","POINT (-93.453281 45.232366)"
"1710","26220",,"Yosemite Insurance Company","221 Dawson Rd, 2nd Floor","COLUMBIA","SC","29223","POINT (-80.939735 34.073365)"
"2245","38970","800-431-1270","Markel Insurance Company","4521 Highwoods Parkway","GLEN ALLEN","VA","23060","POINT (-77.578358 37.662433)"
"1715","22292",,"Hanover Insurance Company (The)","440 Lincoln Street","WORCESTER","MA","01653","POINT (-71.780784 42.291928)"
"0790","20346",,"Pacific Indemnity Company","202B Hall's Mill Road","WHITEHOUSE STATION","NJ","08889","POINT (-74.765041 40.644972)"
"3121","14167",,"GuideOne National Insurance Company","1111 ASHWORTH ROAD","WEST DES MOINES","IA","50265-3538","POINT (-93.719132 41.584614)"
"2274","39322",,"General Security National Insurance Company","199 Water Street, 21st Floor","NEW YORK","NY","10038","POINT (-74.004621 40.707097)"
"2620","33022",,"AXA Insurance Company","3 West 35 Street, 11th Floor","NEW YORK","NY","10001","POINT (-73.984747 40.74939)"
"2494","18023","800-482-2726","Star Insurance Company","26255 American Drive","SOUTHFIELD","MI","48034","POINT (-83.303427 42.490651)"
"1792","31208",,"Oakwood Insurance Company","One World Trade Center","New York","NY","10007",
"3285","10946",,"Arch Property Casualty Insurance Company","Harborside 3, 210 Hudson Street, Suite 300","JERSEY CITY","NJ","07311-1107",
"2813","26492",,"Courtesy Insurance Company","500 Jim Moran Blvd.","DEERFIELD BEACH","FL","33442","POINT (-80.119188 26.323406)"
"2126","24171",,"Netherlands Insurance Company (The)","175 Berkeley Street","BOSTON","MA","02116","POINT (-71.072373 42.349909)"
"1882","32808",,"Illinois EMCASCO Insurance Company","PO BOX 712","DES MOINES","IA","50306-0712",
"2477","34347",,"Colonial American Casualty and Surety Company","1299 Zurich Way","SCHAUMBURG","IL","60196-1056","POINT (-88.046361 42.063664)"
"2762","19984",,"ACIG Insurance Company","2600 N Central Expressway, Suite 800","RICHARDSON","TX","75080","POINT (-96.709248 32.992667)"
"1694","23469","800-759-9008","American Modern Home Insurance Company","PO BOX 5323","CINCINNATI","OH","45201-5323",
"3172","21075",,"Transverse Insurance Company","15 Independence Blvd., Suite 430","Warren","NJ","07059","POINT (-74.573779 40.651745)"
"0936","19615",,"American Reliable Insurance Company","8667 East Hartford Drive, Suite 225","SCOTTSDALE","AZ","85255","POINT (-111.893721 33.641916)"
"1689","21989",,"Compass Insurance Company","3116 W. Montgomery Road, Ste C, Box 305","MAINEVILLE","OH","45039",
"0520","20427",,"American Casualty Company of Reading, Pennsylvania","151 N. Franklin St.","CHICAGO","IL","60606","POINT (-87.635367 41.884568)"
"3284","30279",,"Ascot Surety & Casualty Company","55 West 46th Street, 26th Floor","NEW YORK","NY","10036","POINT (-73.981129 40.756921)"
"2057","27812",,"Columbia Insurance Company","1314 Douglas Street, Suite 1400","OMAHA","NE","68102-1944","POINT (-95.93386 41.25863)"
"2983","42706",,"Roche Surety and Casualty Company, Inc.","4107 North Himes Avenue, 2nd Floor","TAMPA","FL","33607","POINT (-82.501358 27.976816)"
"2800","13986",,"Frankenmuth Mutual Insurance Company","One Mutual Avenue","FRANKENMUTH","MI","48787-0001",
"2055","21911",,"Allianz Reinsurance America, Inc.","PO Box 750039","PETALUMA","CA","94975-0039",
"2792","19623","800-749-6419","American Summit Insurance Company","PO Box 130059","DALLAS","TX","75313",
"2852","12866",,"T.H.E. Insurance Company","70 Searview Avenue","STAMFORD","CT","06902","POINT (-73.523237 41.041676)"
"0408","21415",,"Employers Mutual Casualty Company","PO BOX 712","DES MOINES","IA","50306-0712",
"2529","38733",,"Alaska National Insurance Company","7001 Jewell Lake Road","ANCHORAGE","AK","99502","POINT (-149.951735 61.157045)"
"2423","38962",,"Genesis Insurance Company","120 Long Ridge Road","STAMFORD","CT","06902","POINT (-73.553308 41.077632)"
"1876","13927",,"Homesite Insurance Company of the Midwest","One Federal Street, Suite 400","BOSTON","MA","02110",
"2672","35181",,"Executive Risk Indemnity Inc.","202B Hall's Mill Road","WHITEHOUSE","NJ","08889",
"3082","10641",,"Endurance American Insurance Company","4 Manhattanville Road, 3rd Floor","PURCHASE","NY","10577","POINT (-73.71799 41.02335)"
"0625","20281",,"Federal Insurance Company","202B Hall's Mill Road","WHITEHOUSE STATION","NJ","08889","POINT (-74.765041 40.644972)"
"0856","20370",,"AXIS Reinsurance Company","11680 Great Oaks Way, Suite 500","ALPHARETTA","GA","30022","POINT (-84.269624 34.062147)"
"1121","21164",,"Dairyland Insurance Company","1800 North Point Drive","STEVENS POINT","WI","54481","POINT (-89.572644 44.541214)"
"2877","31470",,"NorGUARD Insurance Company","PO Box AH","WILKES-BARRE","PA","18703-0020",
"0665","22357",,"Hartford Accident and Indemnity Company","One Hartford Plaza","HARTFORD","CT","06115",
"2769","23507",,"Mid-American Fire & Casualty Co.","175 Berkeley Street","BOSTON","MA","02116","POINT (-71.072373 42.349909)"
"2418","16578","888-333-2490","Stillwater Property and Casualty Insurance Company","4905 Belfort Rd., Suite 110","JACKSONVILLE","FL","32256","POINT (-81.58308 30.245403)"
"2947","37940","800-951-2663","Lexington National Insurance Corporation","PO Box 6098","LUTHERVILLE","MD","21094",
"1756","31925","800-852-8208","Falls Lake National Insurance Company","PO Box 97488","RALEIGH","NC","27624",
"1709","25674",,"Travelers Property Casualty Company of America","One Tower Square","HARTFORD","CT","06183",
"2364","38628","800-776-4737","Progressive Northern Insurance Company","6300 Wilson Mills Road","CLEVELAND","OH","44143-2109","POINT (-81.450826 41.538891)"
"2572","29700",,"Swiss Re Corporate Solutions Elite Insurance Corporation","1200 Main Street Suite 800","KANSAS CITY","MO","64105","POINT (-94.583196 39.09961)"
"0654","23809",,"Granite State Insurance Company","1271 Ave of the Americas, FL 37","NEW YORK","NY","10020-1304","POINT (-73.980137 40.760305)"
"2158","35408",,"Imperium Insurance Company","800 Gessner, Suite 600","HOUSTON","TX","77024","POINT (-95.544397 29.777413)"
"3259","18468",,"Indemnity National Insurance Company","238 Bedford Way","FRANKLIN","TN","37064","POINT (-86.837247 35.907053)"
"2696","11851","800-776-4737","Progressive Advanced Insurance Company","6300 Wilson Mills Rd.","MAYFIELD VILLAGE","OH","44143-2182","POINT (-81.450826 41.538891)"
"2260","38636",,"Partner Reinsurance Company of the U.S.","200 First Stamford Place, Suite 400","STAMFORD","CT","06902","POINT (-73.547826 41.045218)"
"3049","25180",,"Stillwater Insurance Company","4905 Belfort Rd., Suite 110","JACKSONVILLE","FL","32256","POINT (-81.58308 30.245403)"
"1862","24821","800 854-6115","Tesla Property & Casualty, Inc.","45500 FREMONT BLVD","FREMONT","CA","94538","POINT (-121.948262 37.496314)"
"2881","17558",,"Old Guard Insurance Company","PO Box 5001","WESTFIELD CENTER","OH","44251-5001",
"2563","40398",,"Ashmere Insurance Company","401 E. Las Olas Blvd, Suite 1540","FORT LAUDERDALE","FL","33301","POINT (-80.139316 26.119172)"
"0850","25178",,"State Farm Mutual Automobile Insurance Company","One State Farm Plaza","BLOOMINGTON","IL","61701-0001",
"2824","10216",,"American Contractors Indemnity Company","801 South Figueroa Street, Suite 700","LOS ANGELES","CA","90017","POINT (-118.261568 34.047533)"
"2194","33480",,"Clermont Insurance Company","301 ROUTE 17 NORTH, SUITE 900","RUTHERFORD","NJ","07070",
"3071","10690",,"Allied World National Assurance Company","199 Water Street, 24th Floor","NEW YORK","NY","10038","POINT (-74.004621 40.707097)"
"0533","10200",,"Hiscox Insurance Company Inc.","104 S Michigan Ave., Suite 600","CHICAGO","IL","60603","POINT (-87.624435 41.880701)"
"1316","23779",,"Nationwide Mutual Fire Insurance Company","One Nationwide Blvd, FSSC-RR","COLUMBUS","OH","43215",
"2219","41750",,"Travelers Constitution State Insurance Company","One Tower Squar","HARTFORD","CT","06183",
"2802","40843",,"Universal Underwriters of Texas Insurance Company","1299 Zurich Way","SCHAUMBURG","IL","60196","POINT (-88.046361 42.063664)"
"2750","10019","877-514-3542","Greystone Insurance Company","300 First Stamford Place","STAMFORD","CT","06902","POINT (-73.546921 41.045519)"
"0849","25143",,"State Farm Fire and Casualty Company","One State Farm Plaza","BLOOMINGTON","IL","61710-0001",
"1448","10499","800-782-9164","CorePointe Insurance Company","800 Superior Ave E, 21st Fl","CLEVELAND","OH","44141","POINT (-81.689017 41.502022)"
"0517","20508",,"Valley Forge Insurance Company","151 N. Franklin St","CHICAGO","IL","60606","POINT (-87.635367 41.884568)"
"2093","34789","800-245-2425","21st Century Centennial Insurance Company","21st Century Plaza, 3 Beaver Valley Road","WILMINGTON","DE","19803",
"2223","42579",,"Allied Property and Casualty Insurance Company","ONE NATIONWIDE BLVD, FSSC-RR","COLUMBUS","OH","43215",
"3092","13126","800-374-7798","Midwest Builders' Casualty Mutual Company","1100 Walnut Street, Suite 3010","KANSAS CITY","MO","64106","POINT (-94.582039 39.100542)"
"2741","28304",,"Federated Service Insurance Company","121 East Park Square","OWATONNA","MN","55060","POINT (-93.225466 44.084027)"
"2108","40371",,"Columbia Mutual Insurance Company","PO BOX 618","COLUMBIA","MO","65205",
"0871","19887",,"Trinity Universal Insurance Company","12926 Gran Bay Parkway West","JACKSONVILLE","FL","32258","POINT (-81.528251 30.13344)"
"2356","42994","800-776-4737","Progressive Classic Insurance Company","6300 Wilson Mills Road","MAYFIELD VILLAGE","OH","44143-2182","POINT (-81.450826 41.538891)"
"2246","42803",,"GuideOne Elite Insurance Company","1111 ASHWORTH ROAD","WEST DES MOINES","IA","50265-3538","POINT (-93.719132 41.584614)"
"0658","20303",,"Great Northern Insurance Company","202B Hall's Mill Road","WHITEHOUSE STATION","NJ","08889","POINT (-74.765041 40.644972)"
"2382","10120","8002696660","Everest National Insurance Company","Warren Corporate Center","WARREN","NJ","07059",
"3138","10945",,"Tokio Marine America Insurance Company","Three Bala Plaza East, Suite 400","BALA CYNWYD","PA","19004-1403",
"1604","23434",,"Middlesex Insurance Company","1800 North Point Drive","STEVENS POINT","WI","54481","POINT (-89.572644 44.541214)"
"2368","11150",,"Arch Insurance Company","210 Hudson Street, Suite 300","JERSEY CITY","NJ","07311-1107","POINT (-74.033948 40.719019)"
"1993","26050",,"Response Worldwide Insurance Company","200 East Randolph Street, Suite 3300","CHICAGO","IL","60601","POINT (-87.621611 41.884472)"
"1492","22667",,"ACE American Insurance Company","PO Box 1000","PHILADELPHIA","PA","19106",
"2892","10985",,"Fortuity Insurance Company","One Mutual Avenue","FRANKENMUTH","MI","48787-0001",
"0770","24015",,"Northland Insurance Company","One Tower Square","HARTFORD","CT","06183",
"3265","32506",,"Monroe Guaranty Insurance Company","6300 University Parkway","SARASOTA","FL","34240","POINT (-82.435703 27.386349)"
"0747","20478",,"National Fire Insurance Company of Hartford","151 N. Franklin St.","CHICAGO","IL","60606","POINT (-87.635367 41.884568)"
"0558","20095","800-475-4477","BITCO General Insurance Corporation","3700 MARKET SQUARE CIRCLE","DAVENPORT","IA","52807-2309",
"2042","29688",,"Allstate Fire and Casualty Insurance Company","3075 Sanders Road, Suite G4E","NORTHBROOK","IL","60062","POINT (-87.873947 42.093908)"
"2936","10348",,"Arch Reinsurance Company","PO Box 1988","MORRISTOWN","NJ","07962-1988",
"2409","14060","800-422-0550","Grange Insurance Company","671 S. High Street","COLUMBUS","OH","43216-1218","POINT (-82.998044 39.948796)"
"0930","24554","800-327-1414","XL Insurance America, Inc.","70 Seaview Avenue","STAMFORD","CT","06902","POINT (-73.523237 41.041676)"
"2869","17965",,"American Sentinel Insurance Company","PO Box 61140","HARRISBURG","PA","17106-1140",
"2718","13269",,"Zenith Insurance Company","21255 Califa St.","WOODLAND HILLS","CA","91367","POINT (-118.594837 34.177133)"
"2904","20362","800-388-1802","Mitsui Sumitomo Insurance Company of America","15 Independence Blvd","WARREN","NJ","07059","POINT (-74.573779 40.651745)"
"2313","16144","800-362-2041","Grinnell Select Insurance Company","4215 HIGHWAY 146, P.O. BOX 790","GRINNELL","IA","50112-0790","POINT (-92.727228 41.684603)"
"2483","26654","800-776-3386","Great Northwest Insurance Company","445 Minnesota Street, Suite 730","ST PAUL","MN","55101","POINT (-93.093857 44.948695)"
"0584","18767",,"Church Mutual Insurance Company, S.I.","3000 Schuster Lane","MERRILL","WI","54452",
"2912","41106",,"Triumphe Casualty Company","3250 Interstate Drive","RICHFIELD","OH","44286","POINT (-81.630498 41.225274)"
"3041","21903","(800) 878-7389","ProCentury Insurance Company","550 Polaris Parkway, Suite 300","WESTERVILLE","OH","43082","POINT (-82.947516 40.1459)"
"3343","23337",,"American European Insurance Company","2250 Chapel Avenue West","Cherry Hill","NJ","08002","POINT (-75.015946 39.928837)"
"0725","24899",,"Alea North America Insurance Company","5 Batterson Park Rd, 3rd Floor","FARMINGTON","CT","06032","POINT (-72.798263 41.708558)"
"0539","22136",,"Great American Insurance Company of New York","301 E. Fourth Street","CINCINNATI","OH","45202-4201","POINT (-84.507797 39.100703)"
"1931","23833",,"AtHome Insurance Company","581 Main Street, Suite 400","WOODBRIDGE","NJ","07095","POINT (-74.301039 40.544961)"
"2779","10358",,"Encompass Insurance Company","3075 Sanders Road, Suite G4E","NORTHBROOK","IL","60062","POINT (-87.873947 42.093908)"
"2759","34037","800-486-5616","Hallmark Insurance Company","5420 Lyndon B. Johnson Frwy, Suite 1100","DALLAS","TX","75240-2345","POINT (-96.817518 32.923085)"
"1733","26611",,"Blackboard Insurance Company","1271 Ave of theAmericas, FL 37","NEW YORK","NY","10020-1304","POINT (-73.980137 40.760305)"
"1638","22039",,"General Reinsurance Corporation","120 Long Ridge Road","STAMFORD","CT","06902","POINT (-73.553308 41.077632)"
"1199","10464",,"Canal Insurance Company","PO BOX 7","GREENVILLE","SC","29602",
"2286","39217",,"QBE Insurance Corporation","One General Drive","SUN PRAIRIE","WI","53596",
"0695","23035",,"Liberty Mutual Fire Insurance Company","175 Berkeley St.","BOSTON","MA","02116","POINT (-71.072373 42.349909)"
"2482","30104",,"Hartford Underwriters Insurance Company","One Hartford Plaza","HARTFORD","CT","06155",
"1109","13978",,"Florists' Mutual Insurance Company","1 Horticultural Lane","EDWARDSVILLE","IL","62025","POINT (-89.88847 38.794216)"
"2504","42048",,"Diamond State Insurance Company","Three Bala Plaza East, Suite 300","BALA CYNWYD","PA","19004",
"0799","14982",,"Penn Millers Insurance Company","436 Walnut Street","PHILADELPHIA","PA","19106","POINT (-75.148957 39.947451)"
"2715","19259","800-777-9656","Selective Insurance Company of South Carolina","40 Wantage Avenue","BRANCHVILLE","NJ","07890","POINT (-74.74656 41.152318)"
"0504","10014",,"Affiliated FM Insurance Company","PO Box 7500","JOHNSTON","RI","02919",
"0414","14117","800-362-2041","Grinnell Mutual Reinsurance Company","4215 HIGHWAY 146, P.O. BOX 790","GRINNELL","IA","50112-0790","POINT (-92.727228 41.684603)"
"1725","26298","800-422-4272","Farmers Property and Casualty Insurance Company","700 Quaker Lane","WARWICK","RI","02886-6669","POINT (-71.500068 41.678771)"
"2996","26310","800-440-5953","Granite Re, Inc.","14001 Quailbrook Drive","OKLAHOMA CITY","OK","73134","POINT (-97.599768 35.612352)"
"2575","40460",,"Sagamore Insurance Company","111 Congressional Blvd., Suite 500","CARMEL","IN","46032","POINT (-86.153469 39.958281)"
"2867","29513","800-843-2277","Bar Plan Mutual Insurance Company (The)","622 Emerson Road","ST. LOUIS","MO","63141","POINT (-90.447335 38.66764)"
"0759","23841",,"New Hampshire Insurance Company","1271 Ave of the Americas, FL 37","NEW YORK","NY","10020-1304","POINT (-73.980137 40.760305)"
"2789","16063",,"Unitrin Auto and Home Insurance Company","12926 Gran Bay Parkway West","JACKSONVILLE","FL","32258","POINT (-81.528251 30.13344)"
"2167","11126",,"Sompo America Insurance Company","1221 Avenue of the Americas, 18th Floor","NEW YORK","NY","10020","POINT (-73.981102 40.758957)"
"2744","34630",,"Oak River Insurance Company","1314 Douglas Street, Suite 1300","OMAHA","NE","68102","POINT (-95.93386 41.25863)"
"2010","27928","623-492-3110","AMEX Assurance Company","20022 N 31st Ave","PHOENIX","AZ","85027","POINT (-112.125943 33.666918)"
"1921","34339","800-422-4272","Farmers Group Property and Casualty Insurance Company","700 Quaker Lane","WARWICK","RI","02886-6669","POINT (-71.500068 41.678771)"
"3279","34711",,"Digital Advantage Insurance Company","76 St. Paul Street, Suite 500","BURLINGTON","VT","05401","POINT (-73.214146 44.477724)"
"0642","24414",,"General Casualty Company of Wisconsin","One General Drive","SUN PRAIRIE","WI","53596",
"2953","32867","800-874-8742","Universal Fire & Casualty Insurance Company","3214 Chicago Drive","HUDSONVILLE","MI","49426","POINT (-85.861941 42.870197)"
"1392","22187",,"Greater New York Mutual Insurance Company","200 Madison Ave.","NEW YORK","NY","10016","POINT (-73.982261 40.748763)"
"3181","24465",,"Western National Assurance Company","4700 W 77th Street","EDINA","MN","55435-4818","POINT (-93.344951 44.863179)"
"2189","41181",,"Universal Underwriters Insurance Company","1299 Zurich Way","SCHAUMBURG","IL","60196","POINT (-88.046361 42.063664)"
"2627","33650",,"Mendota Insurance Company","3343 Perimeter Hill Dr., Suite 214","NASHVILLE","TN","37211","POINT (-86.694558 36.084899)"
"1279","10847",,"CUMIS Insurance Society, Inc.","PO BOX 1084","MADISON","WI","53701",
"1204","19410",,"Commerce and Industry Insurance Company","1271 Ave of the Americas, FL 37","NEW YORK","NY","10020-1304","POINT (-73.980137 40.760305)"
"2716","39926",,"Selective Insurance Company of the Southeast","40 Wantage Avenue","BRANCHVILLE","NJ","07890","POINT (-74.74656 41.152318)"
"2681","32620","800-929-1500","National Interstate Insurance Company","3250 Interstate Drive","RICHFIELD","OH","44286-9000","POINT (-81.630498 41.225274)"
"3119","16764",,"Miami Mutual Insurance Company","1 Insurance Square","CELINA","OH","45822-1690",
"2851","20990",,"Country Mutual Insurance Company","PO Box 2020","BLOOMINGTON","IL","61702-2020",
"3234","35629",,"Association Casualty Insurance Company","PO BOX 618","COLUMBIA","MO","65205",
"2345","37834","800-776-4737","Progressive Preferred Insurance Company","6300 Wilson Mills Road","MAYFIELD VILLAGE","OH","44143-2182","POINT (-81.450826 41.538891)"
"3312","16651",,"Pekin Select Insurance Company","2505 Court Street","PEKIN","IL","61558","POINT (-89.60973 40.554442)"
"1896","34649",,"Centre Insurance Company","4 World Trade Center, 53rd Floor","NEW YORK","NY","10007-2366",
"2651","44393",,"West American Insurance Company","175 Berkeley Street","BOSTON","MA","02116","POINT (-71.072373 42.349909)"
"2706","40193",,"XL Insurance Company of New York, Inc.","70 Seaview Ave.","STAMFORD","CT","06902-6040","POINT (-73.523237 41.041676)"
"2216","42765",,"Centurion Casualty Company","9800 Health Care Lane, MN006-W500","MINNETONKA","MN","55343","POINT (-93.403887 44.895294)"
"2495","42749",,"Traders Insurance Company","PO BOX 5374","KANSAS CITY","MO","64131",
"2588","36161",,"Travelers Property Casualty Insurance Company","One Tower Square","HARTFORD","CT","06183",
"2710","36684","800-449-7707","Riverport Insurance Company","PO BOX 1594","DES MOINES","IA","50306-1594",
"2571","19780",,"Specialty Risk of America","401 Fayette Avenue","SPRINGFIELD","IL","62704","POINT (-89.659143 39.791567)"
"1913","31194",,"Travelers Casualty and Surety Company of America","One Tower Square","HARTFORD","CT","06183",
"1336","21172","800-325-3619","Vanliner Insurance Company","National Interstate Companies","RICHFIELD","OH","44286-9000",
"2928","35246","800-395-5934","Illinois Insurance Company","PO Box 3646","OMAHA","NE","68103-0646",
"3107","39608",,"Nutmeg Insurance Company","One Hartford Plaza","HARTFORD","CT","06155-0001",
"2136","39950","800-422-4272","Metropolitan General Insurance Company","700 Quaker Lane","WARWICK","RI","02886-6669","POINT (-71.500068 41.678771)"
"2897","13285",,"Allegheny Casualty Company","4200 Six Forks Rd., Suite 1400","RALEIGH","NC","27609","POINT (-78.639427 35.835675)"
"0798","14974","800-752-1895","Pennsylvania Lumbermens Mutual Insurance Company","One Commerce Square","PHILADELPHIA","PA","19103-7008",
"0615","21458",,"Employers Insurance Company of Wausau","175 Berkeley Street","BOSTON","MA","02116","POINT (-71.072373 42.349909)"
"1660","19828",,"Argonaut-Midwest Insurance Company","PO Box 469011","SAN ANTONIO","TX","78246-9011",
"0622","19194",,"Farmers Alliance Mutual Insurance Company","1122 North Main St.","MCPHERSON","KS","67460","POINT (-97.666945 38.381188)"
"2516","19640",,"Columbia National Insurance Company","PO BOX 618","COLUMBIA","MO","65205",
"1996","14184",,"ACUITY, A Mutual Insurance Company","2800 S. Taylor Drive","SHEBOYGAN","WI","53081","POINT (-87.755254 43.726244)"
"1605","30830",,"Arch Indemnity Insurance Company","300 Plaza Three, 3rd Floor","JERSEY CITY","NJ","07311-1107",
"2240","41491",,"GEICO Casualty Company","One Geico Plaza","WASHINGTON","DC","20047-0001",
"1281","19704",,"American States Insurance Company","175 Berkeley St.","BOSTON","MA","02116","POINT (-71.072373 42.349909)"
"2253","22837",,"AGCS Marine Insurance Company","225 W. Washington Street, Suite 1800","CHICAGO","IL","60606","POINT (-87.634988 41.883208)"
"2559","23612","877-975-2667","Midwest Employers Casualty Company","14755 North Outer Forty Drive, #300","CHESTERFIELD","MO","63017",
"0635","24724",,"First National Insurance Company of America","175 Berkeley St.","BOSTON","MA","02116","POINT (-71.072373 42.349909)"
"3013","13692",,"Donegal Mutual Insurance Company","1195 River Road, P.O. Box 302","MARIETTA","PA","17547-0302","POINT (-76.549013 40.062676)"
"2712","19879","800-926-1887","Security National Insurance Company","PO BOX 650771","DALLAS","TX","75265-0771",
"2858","39098",,"Omni Insurance Company","1400 Union Meeting Road, Suite 250","BLUE BELL","PA","19422","POINT (-75.285084 40.148645)"
"2505","26565","800-628-8581","Ohio Indemnity Company","250 East Broad St., 7th Floor","COLUMBUS","OH","43215-3708","POINT (-82.994232 39.96299)"
"2788","28460",,"Sentry Casualty Company","1800 North Point Drive","STEVENS POINT","WI","54481","POINT (-89.572644 44.541214)"
"1344","21008",,"Country Preferred Insurance Company","PO Box 2020","BLOOMINGTON","IL","61702-2020",
"3010","35696",,"Harleysville Preferred Insurance Company","One Nationwide Blvd, FSSC-RR","COLUMBUS","OH","43215",
"2439","42307","(855) 628-4467","Navigators Insurance Company","One Hartford Plaza","HARTFORD","CT","06155",
"0686","19429",,"Insurance Company of the State of Pennsylvania (The)","1271 Ave of the Americas, FL 37","NEW YORK","NY","10020-1304","POINT (-73.980137 40.760305)"
"3036","14850","507-423-6262","North Star Mutual Insurance Company","PO Box 48","COTTONWOOD","MN","56229",
"3017","10909",,"Sun Surety Insurance Company","PO Box 2373","RAPID CITY","SD","57709",
"0736","23582",,"Harleysville Insurance Company","One Nationwide Blvd, FSSC-RR","COLUMBUS","OH","43215",
"1893","35289",,"Continental Insurance Company (The)","151 N. Franklin Street","CHICAGO","IL","60606","POINT (-87.635367 41.884568)"
"3186","21210",,"Auto Club Group Insurance Company","1 Auto Club Drive","DEARBORN","MI","48126-4213","POINT (-83.220018 42.32354)"
"2796","21962",,"Pennsylvania Insurance Company","PO BOX 3646","OMAHA","NE","68103-0646",
"2346","42919","800-776-4737","Progressive Northwestern Insurance Company","6300 Wilson Mills Road","MAYFIELD VILLAGE","OH","44143-2182","POINT (-81.450826 41.538891)"
"1321","22810",,"Chicago Insurance Company","225 W. Washington St., Suite 1800","CHICAGO","IL","60606","POINT (-87.634988 41.883208)"
"0869","25658",,"Travelers Indemnity Company (The)","One Tower Square","HARTFORD","CT","06183",
"3055","35009","877-737-2245","Financial Casualty & Surety, Inc.","3131 Eastside St., Suite 600","HOUSTON","TX","77098","POINT (-95.42479 29.7373)"
"1763","19046",,"Travelers Casualty Insurance Company of America","One Tower Square","HARTFORD","CT","06183",
"1293","19283",,"American Standard Insurance Company of Wisconsin","6000 American Parkway","MADISON","WI","53783","POINT (-89.285375 43.155727)"
"2061","22659",,"Indiana Insurance Company","175 Berkeley Street","BOSTON","MA","02116","POINT (-71.072373 42.349909)"
"2134","40142",,"American Zurich Insurance Company","1400 American Lane, Tower 1, 19th Floor","SCHAUMBURG","IL","60196-1056","POINT (-88.04366 42.047412)"
"1584","19860",,"Argonaut Great Central Insurance Company","PO Box 469011","SAN ANTONIO","TX","78246-9011",
"2816","16535",,"Zurich American Insurance Company","1299 Zurich Way","SCHAUMBURG","IL","60196","POINT (-88.046361 42.063664)"
"3008","21784",,"Firemen's Insurance Company of Washington, D.C.","PO Box 61038","RICHMOND","VA","23261",
"2770","10052",,"Chubb National Insurance Company","202B Hall's Mill Road","WHITHOUSE STATION","NJ","08889",
"0510","19224",,"St. Paul Protective Insurance Company","One Tower Square","HARTFORD","CT","06183",
"1928","18279",,"Bankers Standard Insurance Company","PO Box 1000","PHILADELPHIA","PA","19106",
"3298","16561",,"Digital Edge Insurance Company","76 St. Paul Street, Suite 500","BURLINGTON","VT","05401","POINT (-73.214146 44.477724)"
"2266","42986",,"Standard Guaranty Insurance Company","260 Interstate North Circle, SE","ATLANTA","GA","30339-2110","POINT (-84.463625 33.898602)"
"2404","20133",,"Response Worldwide Direct Auto Insurance Company","200 East Randolph Street, Ste. 3300","CHICAGO","IL","60601",
"2502","40436",,"Stratford Insurance Company","300 Kimball Drive, suite 500","PARSIPPANY","NJ","07054","POINT (-74.407587 40.859509)"
"3304","17043",,"Everett Cash Mutual Insurance Co.","10591 Lincoln Highway","EVERETT","PA","15537","POINT (-78.427478 40.023887)"
"2914","26638",,"Home-Owners Insurance Company","PO Box 30660","LANSING","MI","48909-8160",
"0599","21032",,"GLOBAL Reinsurance Corporation of America","Two Logan Square, Suite 600","PHILADELPHIA","PA","19103",
"2181","41238",,"Trans Pacific Insurance Company","Three Bala Plaza East, Suite 400","BALA CYNWYD","PA","19004",
"3118","11050","800-257-1900","Amerisure Partners Insurance Company","26777 Halsted Road","FARMINGTON HILLS","MI","48331-3586","POINT (-83.416831 42.48971)"
"0748","20087",,"National Indemnity Company","1314 Douglas Street, Suite 1400","OMAHA","NE","68102-1944","POINT (-95.93386 41.25863)"
"3106","10885",,"Key Risk Insurance Company","PO BOX 49129","GREENSBORO","NC","27419",
"2880","11054",,"Fletcher Reinsurance Company","221 Dawson Rd, 2nd Floor","COLUMBIA","SC","29223","POINT (-80.939735 34.073365)"
"2549","33588",,"First Liberty Insurance Corporation (The)","175 Berkeley Street","BOSTON","MA","02116","POINT (-71.072373 42.349909)"
"3190","19526","800-332-7977","UFG Specialty Insurance Company","PO BOX 73909","CEDAR RAPIDS","IA","52407-3909",
"3329","17182",,"Intrepid Casualty Company","7400 COLLEGE BLVDE., SUITE 350","OVERLAND PARK","KS","66210","POINT (-94.672213 38.92757)"
"2840","41335",,"City National Insurance Company","1900 L. Don Dodson Dr.","BEDFORD","TX","76021","POINT (-97.14012 32.84179)"
"1701","21105",,"North River Insurance Company (The)","305 Madison Ave.","MORRISTOWN","NJ","07962","POINT (-74.451166 40.783277)"
"0744","23663",,"National American Insurance Company","PO BOX 9","CHANDLER","OK","74834",
"2855","36560",,"SafePort Insurance Company","4200 Six Forks Rd., Suite 1400","RALEIGH","NC","27609","POINT (-78.639427 35.835675)"
"2252","19712",,"American States Insurance Company of Texas","175 Berkeley Street","BOSTON","MA","98185","POINT (-71.072373 42.349909)"
"1360","24449",,"Regent Insurance Company","One General Drive","SUN PRAIRIE","WI","53596",
"0653","22098","800-258-5310","Grain Dealers Mutual Insurance Company","55 West Street","KEENE","NH","03431","POINT (-72.280416 42.933382)"
"0429","14494",,"Merchants Bonding Company (Mutual)","PO BOX 14498","DES MOINES","IA","50306-3498",
"2944","31348",,"Crum & Forster Indemnity Company","PO Box 1973","MORRISTOWN","NJ","07960-1973",
"3160","31453","800-332-7977","Financial Pacific Insurance Company","PO Box 73909","CEDAR RAPIDS","IA","52407-3909",
"3019","26182",,"Harleysville Worcester Insurance Company","One Nationwide Blvd, FSSC-RR","COLUMBUS","OH","43215",
"2711","36587","800-245-2425","Plymouth Rock Assurance Preferred Corporation","695 Atlantic Avenue","BOSTON","MA","02111","POINT (-71.056018 42.351501)"
"0796","24198",,"Peerless Insurance Company","175 Berkeley Street","BOSTON","MA","02116","POINT (-71.072373 42.349909)"
"0791","25534",,"TIG Insurance Company","250 Commercial Street, Suite 5000","MANCHESTER","NH","03101","POINT (-71.468413 42.990076)"
"2687","32778","800-338-0753","Swiss Re Corporate Solutuions Premier Insurance Corporation","1200 Main Street, Suite 800","KANSAS CITY","MO","64105","POINT (-94.583196 39.09961)"
"1820","26921",,"Everest Reinsurance Company","100 Everest Way","WARREN","NJ","07059",
"3205","15831",,"Grinnell Compass, Inc.","4215 HIGHWAY 146, PO BOX 790","GRINNELL","IA","50112-0790","POINT (-92.727228 41.684603)"
"2459","29599",,"U.S. Specialty Insurance Company","13403 Northwest Freeway","HOUSTON","TX","77040-6094","POINT (-95.508397 29.850147)"
"1777","29874",,"Swiss Re Corporate Solutions America Insurance Corporation","1200 Main Street Suite 800","KANSAS CITY","MO","64105","POINT (-94.583196 39.09961)"
"0727","14508",,"Michigan Millers Mutual Insurance Company","PO BOX 30060","LANSING","MI","48909",
"1307","10472",,"Capitol Indemnity Corporation","PO BOX 5900","MADISON","WI","53705",
"1508","24791",,"St. Paul Mercury Insurance Company","One Tower Square","HARTFORD","CT","06183",
"2634","25135",,"State Automobile Mutual Insurance Company","518 East Broad St.","COLUMBUS","OH","43215","POINT (-82.986563 39.963871)"
"2703","37060",,"Old United Casualty Company","PO BOX 795","SHAWNEE MISSION","KS","66201",
