"store","address","city","state","zip_code","hours","phone","web_link","latitude","longitude"
"NorthGate Market","2323 W. Olympic Blvd","Los Angeles","CA","90006","7 AM to 8 AM (65+, Deshabilitados, Embarazadas)","(213) 249-9173","https://www.northgatemarket.com/","34.052496","-118.283121"
"NorthGate Market","425 S. Soto Street","Los Angeles","CA","90033","7 AM to 8 AM (65+, Deshabilitados, Embarazadas)","(323) 262-0595","https://www.northgatemarket.com/","34.0398","-118.21254"
"NorthGate Market","944 E. Slauson Avenue","Los Angeles","CA","90011","7 AM to 8 AM (65+, Deshabilitados, Embarazadas)","(323) 846-8804","https://www.northgatemarket.com/","33.98912","-118.25799"
"NorthGate Market","2633 Santa Ana Street","South Gate","CA","90280","7 AM to 8 AM (65+, Deshabilitados, Embarazadas)","(323) 277-3000","https://www.northgatemarket.com/","33.964691","-118.223982"
"NorthGate Market","6801 S Atlantic Ave","Bell","CA","90201","7 AM to 8 AM (65+, Deshabilitados, Embarazadas)","(323) 562-2188","https://www.northgatemarket.com/","33.973764","-118.188151"
"NorthGate Market","10801 Prairie Avenue","Inglewood","CA","90303","7 AM to 8 AM (65+, Deshabilitados, Embarazadas)","(310) 419-4091","https://www.northgatemarket.com/","33.938062","-118.343885"
"NorthGate Market","9101 E Telegraph Rd","Pico Rivera","CA","90660","7 AM to 8 AM (65+, Deshabilitados, Embarazadas)","(562) 949-6143","https://www.northgatemarket.com/","33.960172","-118.107755"
"NorthGate Market","4700 Inglewood Blvd","Culver City","CA","90230","7 AM to 8 AM (65+, Deshabilitados, Embarazadas)","(310) 390-9639","https://www.northgatemarket.com/","33.993463","-118.415368"
"NorthGate Market","15107 S Atlantic Avenue","E Rancho Dominguez","CA","90221","7 AM to 8 AM (65+, Deshabilitados, Embarazadas)","(310) 639-1300","https://www.northgatemarket.com/","33.896099","-118.193248"
"NorthGate Market","3930 W Rosecrans Ave","Hawthorne","CA","90250","7 AM to 8 AM (65+, Deshabilitados, Embarazadas)","(310) 973-1079","https://www.northgatemarket.com/","33.900355","-118.343028"
"NorthGate Market","3828 N Peck Rd","El Monte","CA","91732","7 AM to 8 AM (65+, Deshabilitados, Embarazadas)","(626) 442-8200","https://www.northgatemarket.com/","34.075024","-118.021233"
"NorthGate Market","16259 Paramount Blvd","Paramount","CA","90723","7 AM to 8 AM (65+, Deshabilitados, Embarazadas)","(562) 259-9950","https://www.northgatemarket.com/","33.886576","-118.161801"
"NorthGate Market","11660 E. Firestone Blvd","Norwalk","CA","90650","7 AM to 8 AM (65+, Deshabilitados, Embarazadas)","(562) 863-8203","https://www.northgatemarket.com/","33.913292","-118.083071"
"NorthGate Market","4700 Cherry Avenue","Long Beach","CA","90807","7 AM to 8 AM (65+, Deshabilitados, Embarazadas)","(562) 423-1300","https://www.northgatemarket.com/","33.845297","-118.166981"
"NorthGate Market","831 N Hacienda Blvd","La Puente","CA","91744","7 AM to 8 AM (65+, Deshabilitados, Embarazadas)","(626) 435-1440","https://www.northgatemarket.com/","34.034319","-117.950101"
"NorthGate Market","1320 W Francisquito Ave","West Covina","CA","91790","7 AM to 8 AM (65+, Deshabilitados, Embarazadas)","(626) 919-5183","https://www.northgatemarket.com/","34.052631","-117.954434"
"NorthGate Market","2120 Pacific Avenue","Long Beach","CA","90806","7 AM to 8 AM (65+, Deshabilitados, Embarazadas)","(562) 599-5075","https://www.northgatemarket.com/","33.795799","-118.193146"
"NorthGate Market","W. Pacific Coast Hwy","Wilmington","CA","90744","7 AM to 8 AM (65+, Deshabilitados, Embarazadas)","(714) 627 - 5089","https://www.northgatemarket.com/","33.790241","-118.27721"
"NorthGate Market","2038 E. 10th Street","Long Beach","CA","90804","7 AM to 8 AM (65+, Deshabilitados, Embarazadas)","(562) 438-1062","https://www.northgatemarket.com/","33.778475","-118.167103"
"Vallarta","13940 Ramona Blvd","Baldwin Park","CA","91706","7am to 8am; Seniors, disabled people, and pregnant people","(626) 480-8960","https://vallartasupermarkets.com/","34.083488","-117.968736"
"Vallarta","3425 Whittier Blvd.","Los Angeles","CA","90023","7am to 8am; Seniors, disabled people, and pregnant people","(323) 980-4400","https://vallartasupermarkets.com/","34.02751","-118.200007"
"Vallarta","655 N Fair Oaks Av","Pasadena","CA","91103","7am to 8am; Seniors, disabled people, and pregnant people","(626) 204-6960","https://vallartasupermarkets.com/","34.156827","-118.151582"
"Vallarta","9011 Woodman Ave.","Arleta","CA","91331","7am to 8am; Seniors, disabled people, and pregnant people","(818) 920-2700","https://vallartasupermarkets.com/","34.233162","-118.439104"
"Vallarta","10950 Sherman Way","Burbank","CA","91505","7am to 8am; Seniors, disabled people, and pregnant people","(818) 526-0081","https://vallartasupermarkets.com/","34.200261","-118.368592"
"Vallarta","21208 Sherman Way","Canoga Park","CA","91303","7am to 8am; Seniors, disabled people, and pregnant people","(818) 346-1665","https://vallartasupermarkets.com/","34.200868","-118.594551"
"Vallarta","8201 Topanga Canyon Blvd","Canoga Park","CA","91304","7am to 8am; Seniors, disabled people, and pregnant people","(818) 444-5060","https://vallartasupermarkets.com/","34.217929","-118.606297"
"Vallarta","18571 Soledad Canyon Rd","Canyon Country","CA","91351","7am to 8am; Seniors, disabled people, and pregnant people","(661) 347-7390","https://vallartasupermarkets.com/","34.417248","-118.457905"
"Vallarta","7900 Imperial Hwy","Downey","CA","90242","7am to 8am; Seniors, disabled people, and pregnant people","(562) 231-5656","https://vallartasupermarkets.com/","33.925517","-118.155204"
"Vallarta","9136 Sepulveda Blvd.","North Hills","CA","91343","7am to 8am; Seniors, disabled people, and pregnant people","(818) 892-0923","https://vallartasupermarkets.com/","34.236845","-118.467318"
"Vallarta","10859 Oxnard St.","North Hollywood","CA","91606","7am to 8am; Seniors, disabled people, and pregnant people","(818) 509-2932","https://vallartasupermarkets.com/","34.179562","-118.367742"
"Vallarta","8453 Reseda Blvd.","Northridge","CA","91324","7am to 8am; Seniors, disabled people, and pregnant people","(818) 576-1280","https://vallartasupermarkets.com/","34.224191","-118.5363"
"Vallarta","10175 N. San Fernando Rd.","Pacoima","CA","91331","7am to 8am; Seniors, disabled people, and pregnant people","(818) 897-9700","https://vallartasupermarkets.com/","34.2551","-118.41077"
"Vallarta","9134 Van Nuys Blvd","Panorama City","CA","91402","7am to 8am; Seniors, disabled people, and pregnant people","(818) 894-4949","https://vallartasupermarkets.com/","34.236033","-118.450099"
"Vallarta","757 S. Workman St.","San Fernando","CA","91340","7am to 8am; Seniors, disabled people, and pregnant people","(818) 365-8603","https://vallartasupermarkets.com/","34.282442","-118.452525"
"Vallarta","13820 Foothill Blvd.","Sylmar","CA","91342","7am to 8am; Seniors, disabled people, and pregnant people","(818) 362-7577","https://vallartasupermarkets.com/","34.310327","-118.434422"
"Vallarta","23449 Lyons Ave","Valencia","CA","91355","7am to 8am; Seniors, disabled people, and pregnant people","(661) 260-1110","https://vallartasupermarkets.com/","34.380529","-118.543534"
"Vallarta","13051 Victory Blvd.","Valley Glen","CA","91606","7am to 8am; Seniors, disabled people, and pregnant people","(818) 760-7021","https://vallartasupermarkets.com/","34.187997","-118.417351"
"Vallarta","13715 Vanowen St","Van Nuys","CA","91405","7am to 8am; Seniors, disabled people, and pregnant people","(818) 786-4703","https://vallartasupermarkets.com/","34.194084","-118.431866"
"Vallarta","16107 Victory Blvd","Van Nuys","CA","91406","7am to 8am; Seniors, disabled people, and pregnant people","(818) 781-9007","https://vallartasupermarkets.com/","34.186845","-118.484213"
"Vallarta","19725 Vanowen St.","Winnetka","CA","91306","7am to 8am; Seniors, disabled people, and pregnant people","(818) 716-5704","https://vallartasupermarkets.com/","34.193965","-118.563073"
"Vallarta","1801 West Ave. I","Lancaster","CA","93534","7am to 8am; Seniors, disabled people, and pregnant people","(661) 951-0233","https://vallartasupermarkets.com/","34.718927","-118.169793"
"Vallarta","815 E. Ave K","Lancaster","CA","93535","7am to 8am; Seniors, disabled people, and pregnant people","(661) 974-7002","https://vallartasupermarkets.com/","34.675124","-118.114499"
"Vallarta","8510 Painter Ave Suite ""L""","Whittier","CA","90602","7am to 8am; Seniors, disabled people, and pregnant people","(562) 758-6464","https://vallartasupermarkets.com/","33.96071","-118.03504"
"Vallarta","1803 E. Palmdale Blvd.","Palmdale","CA","93550","7am to 8am; Seniors, disabled people, and pregnant people","(661) 273-1120","https://vallartasupermarkets.com/","34.580898","-118.095947"
"Vallarta","38118 47th St East","Palmdale","CA","93552","7am to 8am; Seniors, disabled people, and pregnant people","(661) 208-4276","https://vallartasupermarkets.com/","34.575012","-118.043807"
"Vallarta","440 E. Palmdale Blvd.","Palmdale","CA","93550","7am to 8am; Seniors, disabled people, and pregnant people","(661) 266-1398","https://vallartasupermarkets.com/","34.579301","-118.122309"
"Grocery Outlet","2270 Lake Ave.","Altadena","CA","91001","8:00 am - 10:00 pm (Opens 7 AM for Seniors)","(626) 314-2700","https://vallartasupermarkets.com/","34.185155","-118.131305"
"Super A Foods","6380 E. Florence Ave.","Bell Gardens","CA","90201","7 AM - 8AM for Seniors","562-927-8784","https://www.superafoods.com/","33.964284","-118.15085"
"Super A Foods","5250 York Blvd.","Highland Park","CA","90042","7 AM - 8AM for Seniors","323-551-6884","https://www.superafoods.com/","34.120138","-118.201019"
"Super A Foods","2925 Division St.","Los Angeles","CA","90065","7 AM - 8AM for Seniors","323-222-3804","https://www.superafoods.com/","34.103247","-118.23559"
"Super A Foods","13120 Downey Ave.","Paramount","CA","90723","7 AM - 8AM for Seniors","562-634-3162","https://www.superafoods.com/","33.914135","-118.151404"
"Super A Foods","8116 California St.","South Gate","CA","90280","7 AM - 8AM for Seniors","323-563-6072","https://www.superafoods.com/","33.961797","-118.204323"
"Super A Foods","5595 N. Rosemead Blvd.","Temple City","CA","91780","7 AM - 8AM for Seniors","626-248-0383","https://www.superafoods.com/","34.101225","-118.075021"
"Superior Grocers","12630 Hawthorne Blvd","Hawthorne","CA","90250","7AM - 8AM for Seniors","(424) 348-2083","https://superiorgrocers.com/","33.917403","-118.351169"
"Superior Grocers","12721 Valley View Ave","La Mirada","CA","90638","7AM - 8AM for Seniors","(562) 802-3230","https://superiorgrocers.com/","33.916239","-118.030201"
"Superior Grocers","14433 Ramona Blvd.","Baldwin Park","CA","91706","7AM - 8AM for Seniors","(626) 646-1835","https://superiorgrocers.com/","34.08806","-117.959362"
"Superior Grocers","16100 Lakewood Blvd","Bellflower","CA","90706","7AM - 8AM for Seniors","(562) 634-6700","https://superiorgrocers.com/","33.888045","-118.141805"
"Superior Grocers","151 S. Hacienda Blvd.","City of Industry","CA","91744","7AM - 8AM for Seniors","(626) 855-4432","https://superiorgrocers.com/","34.021842","-117.958625"
"Superior Grocers","111 E. Compton Blvd.","Compton","CA","90220","7AM - 8AM for Seniors","(310) 632-1178","https://superiorgrocers.com/","33.896876","-118.222772"
"Superior Grocers","1375 N. Citrus Ave.","Covina","CA","91722","7AM - 8AM for Seniors","(626) 967-1227","https://superiorgrocers.com/","34.10517","-117.890403"
"Superior Grocers","7300 Atlantic Ave.","Cudahy","CA","90201","7AM - 8AM for Seniors","(323) 562-8980","https://superiorgrocers.com/","33.968555","-118.186325"
"Superior Grocers","10683 Valley Blvd","El Monte","CA","91731","7AM - 8AM for Seniors","(626) 539-2340","https://superiorgrocers.com/","34.076503","-118.040471"
"Superior Grocers","15000 Crenshaw Blvd","Gardena","CA","90249","7AM - 8AM for Seniors","(310) 538-5411","https://superiorgrocers.com/","33.89495","-118.325579"
"Superior Grocers","6010 Pacific Blvd.","Huntington Park","CA","90255","7AM - 8AM for Seniors","(323) 277-0950","https://superiorgrocers.com/","33.986729","-118.223658"
"Superior Grocers","11202 S. Crenshaw Blvd.","Inglewood","CA","90303","7AM - 8AM for Seniors","(323) 757-6012","https://superiorgrocers.com/","33.932916","-118.32657"
"Superior Grocers","1010 E. Avenue J","Lancaster","CA","93535","7AM - 8AM for Seniors","(661) 802-0063","https://superiorgrocers.com/","34.191023","-118.314474"
"Superior Grocers","5450 Cherry Ave.","Long Beach","CA","90805","7AM - 8AM for Seniors","(562) 634-6700","https://superiorgrocers.com/","33.855646","-118.167189"
"Superior Grocers","1033 Long Beach Blvd.","Long Beach","CA","90813","7AM - 8AM for Seniors","(562) 436-2510","https://superiorgrocers.com/","33.779728","-118.189989"
"Superior Grocers","10211 S. Avalon Blvd.","Los Angeles","CA","90003","7AM - 8AM for Seniors","(323) 241-6789","https://superiorgrocers.com/","33.94339","-118.26535"
"Superior Grocers","133 W. Avenue 45","Los Angeles","CA","90065","7AM - 8AM for Seniors","(323) 223-3878","https://superiorgrocers.com/","34.09657","-118.20819"
"Superior Grocers","3600 Cesar E. Chavez Ave.","Los Angeles","CA","90063","7AM - 8AM for Seniors","(323) 269-1790","https://superiorgrocers.com/","34.040336","-118.186846"
"Superior Grocers","7316 S. Compton Ave.","Los Angeles","CA","90001","7AM - 8AM for Seniors","(323) 589-6411","https://superiorgrocers.com/","33.973807","-118.247504"
"Superior Grocers","5824 S. Vermont Ave.","Los Angeles","CA","90044","7AM - 8AM for Seniors","(323) 541-0107","https://superiorgrocers.com/","33.98873","-118.28954"
"Superior Grocers","8811 S. Western Ave.","Los Angeles","CA","90047","7AM - 8AM for Seniors","(323) 750-1575","https://superiorgrocers.com/","33.95778","-118.30926"
"Superior Grocers","2000 S. Central Ave.","Los Angeles","CA","90011","7AM - 8AM for Seniors","(323) 750-1575","https://superiorgrocers.com/","34.02249","-118.25156"
"Superior Grocers","3480 S. La Brea Ave.","Los Angeles","CA","90016","7AM - 8AM for Seniors","(323) 294-4309","https://superiorgrocers.com/","34.0227","-118.35544"
"Superior Grocers","3831 E. Martin Luther King Jr. Blvd.","Lynwood","CA","90262","7AM - 8AM for Seniors","(310) 637-9415","https://superiorgrocers.com/","33.92802","-118.197603"
"Superior Grocers","4308 E Slauson Ave","Maywood","CA","90270","7AM - 8AM for Seniors","(323) 560-1501","https://superiorgrocers.com/","33.987297","-118.189732"
"Superior Grocers","6140 Lankershim Blvd.","North Hollywood","CA","91606","7AM - 8AM for Seniors","(818) 763-1235","https://superiorgrocers.com/","34.182384","-118.384966"
"Superior Grocers","9801 Laurel Canyon Blvd.","Pacoima","CA","91331","7AM - 8AM for Seniors","(818) 897-2604","https://superiorgrocers.com/","34.247998","-118.421055"
"Superior Grocers","38360 20th St E.","Palmdale","CA","93550","7AM - 8AM for Seniors","(661) 538-2260","https://superiorgrocers.com/","34.577958","-118.093919"
"Superior Grocers","9100 Whittier Blvd.","Pico Rivera","CA","90660","7AM - 8AM for Seniors","(562) 205-0130","https://superiorgrocers.com/","33.999747","-118.08279"
"Superior Grocers","3180 North Garey Ave","Pomona","CA","91767","7AM - 8AM for Seniors","(909) 392-4695","https://superiorgrocers.com/","34.105878","-117.747508"
"Superior Grocers","1858 N. Durfee Ave.","South El Monte","CA","91733","7AM - 8AM for Seniors","(626) 453-0887","https://superiorgrocers.com/","34.043492","-118.030917"
"Big Saver Foods","3000 North Broadway","Los Angeles","CA","90031","7AM - 8 AM for Seniors","(323) 222-3524","http://www.bigsaverfoods.com/","34.07356","-118.210097"
"Big Saver Foods","5168 S. Huntington Drive","Los Angeles","CA","90032","7AM - 8 AM for Seniors","(323) 987-2850","http://www.bigsaverfoods.com/","34.08911","-118.16978"
"Big Saver Foods","5829 S. Compton Ave.","Los Angeles","CA","90001","7AM - 8 AM for Seniors","(323) 582-8295","http://www.bigsaverfoods.com/","33.988717","-118.247721"
"Big Saver Foods","7619 East Garvey","Rosemead","CA","91770","7AM - 8 AM for Seniors","(626) 571-7816","http://www.bigsaverfoods.com/","34.062759","-118.103419"
"Big Saver Foods","13925 E. Amar Road","La Puente","CA","91746","7AM - 8 AM for Seniors","(626) 962-3281","http://www.bigsaverfoods.com/","34.053492","-117.974122"
"Big Saver Foods","16000 Woodruff Ave.","Bellflower","CA","90706","7AM - 8 AM for Seniors","(562) 920-7912","http://www.bigsaverfoods.com/","33.888755","-118.116507"
"Big Saver Foods","9406 E. Washington Blvd.","Pico Rivera","CA","90660","7AM - 8 AM for Seniors","(562) 949-6299","http://www.bigsaverfoods.com/","33.979154","-118.090093"
"Big Saver Foods","1500 W. Willow St","Long Beach","CA","90810","7AM - 8 AM for Seniors","(562) 595-7595","http://www.bigsaverfoods.com/","33.803777","-118.212726"
"Big Saver Foods","1313 E. Artesia Blvd.","Long Beach","CA","90805","7AM - 8 AM for Seniors","(562) 423-2800","http://www.bigsaverfoods.com/","33.875139","-118.175929"
"Stater Bros Market","1645 W Holt Ave","Pomona","CA","91768","7am - 8am, open to seniors 65+, disabled/handi-capable, first responders","(909)620-0325","https://www.staterbros.com/","34.062643","-117.778121"
"Stater Bros Market","2001 S Garey Ave","Pomona","CA","91766","7am - 8am, open to seniors 65+, disabled/handi-capable, first responders","(909)627-7789","https://www.staterbros.com/","34.035561","-117.750639"
"Stater Bros Market","690 E Holt Ave","Pomona","CA","91766","7am - 8am, open to seniors 65+, disabled/handi-capable, first responders","(909)629-1666","https://www.staterbros.com/","34.061782","-117.737753"
"Stater Bros Market","1830 E. Route 66","Glendora","CA","91740","7am - 8am, open to seniors 65+, disabled/handi-capable, first responders","(626) 963-0513","https://www.staterbros.com/","34.128563","-117.830464"
"Smart & Final","6060 FIGUEROA STREET","HIGHLAND PARK","CA","90042","7:30 am every morning to allow seniors, expectant mothers and customers with disabilities","(323) 258-2199","https://www.smartandfinal.com/","34.11176","-118.18797"
"Smart & Final","725 E. MAIN STREET","ALHAMBRA","CA","91801","7:30 am every morning to allow seniors, expectant mothers and customers with disabilities","(626) 281-2049","https://www.smartandfinal.com/","34.098705","-118.119774"
"Smart & Final","2511 DALY STREET","LOS ANGELES","CA","90031","7:30 am every morning to allow seniors, expectant mothers and customers with disabilities","(323) 539-2400","https://www.smartandfinal.com/","34.07571","-118.215866"
"Smart & Final","401 N FAIR OAKS","PASADENA","CA","91103","7:30 am every morning to allow seniors, expectant mothers and customers with disabilities","(626) 568-8446","https://www.smartandfinal.com/","34.152635","-118.15143"
"Smart & Final","2308 E. 4TH STREET","LOS ANGELES","CA","90033","7:30 am every morning to allow seniors, expectant mothers and customers with disabilities","(323) 268-9179","https://www.smartandfinal.com/","34.04079","-118.21266"
"Smart & Final","3299 E COLORADO BLVD","PASADENA","CA","91107","7:30 am every morning to allow seniors, expectant mothers and customers with disabilities","(626) 396-9677","https://www.smartandfinal.com/","34.146748","-118.083326"
"Smart & Final","845 SO. FIGUEROA ST. #100","LOS ANGELES","CA","90017","7:30 am every morning to allow seniors, expectant mothers and customers with disabilities","(213) 629-0039","https://www.smartandfinal.com/","34.052913","-118.26434"
"Smart & Final","1216 S. COMPTON AVENUE","LOS ANGELES","CA","90021","7:30 am every morning to allow seniors, expectant mothers and customers with disabilities","(213) 747-6697","https://www.smartandfinal.com/","34.0274","-118.24196"
"Smart & Final","2720 BEVERLY BLVD","LOS ANGELES","CA","90057","7:30 am every morning to allow seniors, expectant mothers and customers with disabilities","(213) 382-6434","https://www.smartandfinal.com/","34.069992","-118.278345"
"Smart & Final","939 N. WESTERN AVENUE","LOS ANGELES","CA","90029","7:30 am every morning to allow seniors, expectant mothers and customers with disabilities","(323) 466-9289","https://www.smartandfinal.com/","34.08799","-118.30939"
"Smart & Final","11110 E RAMONA BLVD","EL MONTE","CA","91731","7:30 am every morning to allow seniors, expectant mothers and customers with disabilities","(626) 443-1381","https://www.smartandfinal.com/","34.07255","-118.032203"
"Smart & Final","2949 W. PICO BLVD","LOS ANGELES","CA","90006","7:30 am every morning to allow seniors, expectant mothers and customers with disabilities","(323) 732-9101","https://www.smartandfinal.com/","34.04735","-118.30469"
"Smart & Final","3607 VERMONT AVENUE","LOS ANGELES","CA","90007","7:30 am every morning to allow seniors, expectant mothers and customers with disabilities","(323) 733-5875","https://www.smartandfinal.com/","34.02276","-118.29174"
"Smart & Final","5029 E. FLORENCE AVENUE","BELL","CA","90201","7:30 am every morning to allow seniors, expectant mothers and customers with disabilities","(323) 562-3421","https://www.smartandfinal.com/","33.969335","-118.177381"
"Smart & Final","1855 W GLENOAKS BLVD","GLENDALE","CA","91201","7:30 am every morning to allow seniors, expectant mothers and customers with disabilities","(818) 242-2486","https://www.smartandfinal.com/","34.174293","-118.292577"
"Smart & Final","3111 E. FLORENCE AVENUE","HUNTINGTON PARK","CA","90255","7:30 am every morning to allow seniors, expectant mothers and customers with disabilities","(323) 923-3456","https://www.smartandfinal.com/","33.973022","-118.211628"
"Smart & Final","4550 PICO BLVD, STE D303","LOS ANGELES","CA","90019","7:30 am every morning to allow seniors, expectant mothers and customers with disabilities","(323) 549-9586","https://www.smartandfinal.com/","34.04842","-118.33486"
"Smart & Final","9850 SOUTH LAUREL BLVD","LOS ANGELES","CA","90280","7:30 am every morning to allow seniors, expectant mothers and customers with disabilities","(323) 556-3367","https://www.smartandfinal.com/","33.94745","-118.230736"
"Smart & Final","1041 FULLER AVENUE","W HOLLYWOOD","CA","90046","7:30 am every morning to allow seniors, expectant mothers and customers with disabilities","(323) 876-0421","https://www.smartandfinal.com/","34.089698","-118.349661"
"Smart & Final","5555 WILSHIRE BLVD","LOS ANGELES","CA","90036","7:30 am every morning to allow seniors, expectant mothers and customers with disabilities","(323) 939-0946","https://www.smartandfinal.com/","34.062496","-118.349621"
"Smart & Final","2929 CRENSHAW BLVD","LOS ANGELES","CA","90016","7:30 am every morning to allow seniors, expectant mothers and customers with disabilities","(323) 730-8300","https://www.smartandfinal.com/","34.028642","-118.335292"
"Smart & Final","3830 W VERDUGO AVENUE","BURBANK","CA","91505","7:30 am every morning to allow seniors, expectant mothers and customers with disabilities","(818) 954-8631","https://www.smartandfinal.com/","34.181389","-118.30072"
"Smart & Final","3123 BALDWIN PARK BLVD","BALDWIN PARK","CA","91706","7:30 am every morning to allow seniors, expectant mothers and customers with disabilities","(626) 337-1434","https://www.smartandfinal.com/","34.070313","-117.979489"
"Smart & Final","1193 HUNTINGTON DRIVE","DUARTE","CA","91010","7:30 am every morning to allow seniors, expectant mothers and customers with disabilities","(626) 256-0108","https://www.smartandfinal.com/","34.14077","-117.979024"
"Smart & Final","8137 S. VERMONT AVENUE","LOS ANGELES","CA","90044","7:30 am every morning to allow seniors, expectant mothers and customers with disabilities","(323) 758-5734","https://www.smartandfinal.com/","33.9644","-118.29199"
"Smart & Final","10833 LONG BEACH BLVD","LYNWOOD","CA","90262","7:30 am every morning to allow seniors, expectant mothers and customers with disabilities","(310) 631-8639","https://www.smartandfinal.com/","33.935416","-118.213147"
"Smart & Final","3708 W. BURBANK BLVD","BURBANK","CA","91505","7:30 am every morning to allow seniors, expectant mothers and customers with disabilities","(818) 562-3234","https://www.smartandfinal.com/","34.174227","-118.350686"
"Smart & Final","13003 WHITTIER BLVD","WHITTIER","CA","90602","7:30 am every morning to allow seniors, expectant mothers and customers with disabilities","(562) 907-7037","https://www.smartandfinal.com/","33.965668","-118.036996"
"Smart & Final","6555 FOOTHILL BLVD","TUJUNGA","CA","91042","7:30 am every morning to allow seniors, expectant mothers and customers with disabilities","(818) 352-9399","https://www.smartandfinal.com/","34.245941","-118.274679"
"Smart & Final","1833-B LA CIENEGA BLVD","LOS ANGELES","CA","90035","7:30 am every morning to allow seniors, expectant mothers and customers with disabilities","(310) 202-0120","https://www.smartandfinal.com/","34.043842","-118.37688"
"Smart & Final","10935 FIRESTONE BLVD","NORWALK","CA","90650","7:30 am every morning to allow seniors, expectant mothers and customers with disabilities","(562) 863-7057","https://www.smartandfinal.com/","33.923413","-118.100056"
"Smart & Final","1125 E. EL SEGUNDO BLVD","LOS ANGELES","CA","90059","7:30 am every morning to allow seniors, expectant mothers and customers with disabilities","(323) 569-7148","https://www.smartandfinal.com/","33.916614","-118.255138"
"Smart & Final","15427 AMAR ROAD","LA PUENTE","CA","91744","7:30 am every morning to allow seniors, expectant mothers and customers with disabilities","(626) 330-2495","https://www.smartandfinal.com/","34.037631","-117.948777"
"Smart & Final","10100 S CRENSHAW BLVD","INGLEWOOD","CA","90303","7:30 am every morning to allow seniors, expectant mothers and customers with disabilities","(323) 779-9966","https://www.smartandfinal.com/","33.944712","-118.326548"
"Smart & Final","1575 CENTINELA AVENUE","INGLEWOOD","CA","90302","7:30 am every morning to allow seniors, expectant mothers and customers with disabilities","(310) 673-4997","https://www.smartandfinal.com/","33.976528","-118.366349"
"Smart & Final","10113 VENICE BLVD","WEST LOS ANGELES","CA","90034","7:30 am every morning to allow seniors, expectant mothers and customers with disabilities","(310) 559-1722","https://www.smartandfinal.com/","34.022368","-118.401044"
"Smart & Final","280 EAST COMPTON BLVD","COMPTON","CA","90220","7:30 am every morning to allow seniors, expectant mothers and customers with disabilities","(310) 631-6130","https://www.smartandfinal.com/","33.894795","-118.220847"
"Smart & Final","15055 MULBERRY DRIVE","WHITTIER","CA","90604","7:30 am every morning to allow seniors, expectant mothers and customers with disabilities","(562) 941-7282","https://www.smartandfinal.com/","33.935399","-118.010369"
"Smart & Final","6601 NORTH LAUREL CANYON BLVD","NORTH HOLLYWOOD","CA","91606","7:30 am every morning to allow seniors, expectant mothers and customers with disabilities","(818) 982-6202","https://www.smartandfinal.com/","34.1905","-118.39671"
"Smart & Final","15930 BELLFLOWER BLVD","BELLFLOWER","CA","90706","7:30 am every morning to allow seniors, expectant mothers and customers with disabilities","(562) 920-6268","https://www.smartandfinal.com/","33.888389","-118.124378"
"Smart & Final","114 N. AZUSA AVENUE","COVINA","CA","91722","7:30 am every morning to allow seniors, expectant mothers and customers with disabilities","(626) 915-6619","https://www.smartandfinal.com/","34.086832","-117.906473"
"Smart & Final","303 E. FOOTHILL BLVD.","AZUSA","CA","91702","7:30 am every morning to allow seniors, expectant mothers and customers with disabilities","(626) 334-5189","https://www.smartandfinal.com/","34.133613","-117.904872"
"Smart & Final","11221 PICO BLVD","LOS ANGELES","CA","90064","7:30 am every morning to allow seniors, expectant mothers and customers with disabilities","(310) 473-0344","https://www.smartandfinal.com/","34.03594","-118.43757"
"Smart & Final","12210 SANTA MONICA BLVD","WEST LOS ANGELES","CA","90025","7:30 am every morning to allow seniors, expectant mothers and customers with disabilities","(310) 207-8688","https://www.smartandfinal.com/","34.039859","-118.464467"
"Smart & Final","20410 SUSANA ROAD","CARSON","CA","90810","7:30 am every morning to allow seniors, expectant mothers and customers with disabilities","(310) 762-2536","https://www.smartandfinal.com/","33.846234","-118.20645"
"Smart & Final","15205 HAWTHORNE BLVD","LAWNDALE","CA","90260","7:30 am every morning to allow seniors, expectant mothers and customers with disabilities","(310) 973-2355","https://www.smartandfinal.com/","33.893454","-118.352506"
"Smart & Final","4480 ATLANTIC AVENUE","LONG BEACH","CA","90807","7:30 am every morning to allow seniors, expectant mothers and customers with disabilities","(562) 216-1767","https://www.smartandfinal.com/","33.838969","-118.184367"
"Smart & Final","7815 VAN NUYS BLVD","PANORAMA CITY","CA","91402","7:30 am every morning to allow seniors, expectant mothers and customers with disabilities","(818) 780-7222","https://www.smartandfinal.com/","34.212316","-118.448976"
"Smart & Final","17500 CRENSHAW BLVD.","TORRANCE","CA","90504","7:30 am every morning to allow seniors, expectant mothers and customers with disabilities","(310) 538-5329","https://www.smartandfinal.com/","33.871745","-118.325839"
"Smart & Final","604 LINCOLN BLVD","VENICE","CA","90291","7:30 am every morning to allow seniors, expectant mothers and customers with disabilities","(310) 392-4954","https://www.smartandfinal.com/","34.000132","-118.464915"
"Smart & Final","4237 WOODRUFF AVENUE","LAKEWOOD","CA","90713","7:30 am every morning to allow seniors, expectant mothers and customers with disabilities","(562) 429-0500","https://www.smartandfinal.com/","33.83488","-118.116646"
"Smart & Final","10893 SAN FERNANDO ROAD","PACOIMA","CA","91331","7:30 am every morning to allow seniors, expectant mothers and customers with disabilities","(818) 896-6212","https://www.smartandfinal.com/","34.268039","-118.424492"
"Smart & Final","16847 VENTURA BLVD","ENCINO","CA","91436","7:30 am every morning to allow seniors, expectant mothers and customers with disabilities","(818) 789-0242","https://www.smartandfinal.com/","34.159271","-118.500373"
"Smart & Final","1005 W. ARROW HIGHWAY","SAN DIMAS","CA","91773","7:30 am every morning to allow seniors, expectant mothers and customers with disabilities","(909) 592-2190","https://www.smartandfinal.com/","34.10674","-117.826489"
"Smart & Final","21035 HAWTHORNE BLVD","TORRANCE","CA","90503","7:30 am every morning to allow seniors, expectant mothers and customers with disabilities","(310) 540-1848","https://www.smartandfinal.com/","33.839033","-118.35497"
"Smart & Final","2040 GLENOAKS BLVD","SAN FERNANDO","CA","91340","7:30 am every morning to allow seniors, expectant mothers and customers with disabilities","(818) 838-9187","https://www.smartandfinal.com/","34.298624","-118.437974"
"Smart & Final","21600 S. VERMONT AVENUE","TORRANCE","CA","90502","7:30 am every morning to allow seniors, expectant mothers and customers with disabilities","(310) 328-3023","https://www.smartandfinal.com/","33.8325","-118.289988"
"Smart & Final","615 N PACIFIC COAST HWY","REDONDO BEACH","CA","90277","7:30 am every morning to allow seniors, expectant mothers and customers with disabilities","(310) 372-2852","https://www.smartandfinal.com/","33.853301","-118.389971"
"Smart & Final","16210 DEVONSHIRE STREET","GRANADA HILLS","CA","91344","7:30 am every morning to allow seniors, expectant mothers and customers with disabilities","(818) 892-3338","https://www.smartandfinal.com/","34.257241","-118.485344"
"Smart & Final","240 S DIAMOND BAR BLVD","DIAMOND BAR","CA","91765","7:30 am every morning to allow seniors, expectant mothers and customers with disabilities","(909) 444-0044","https://www.smartandfinal.com/","34.021793","-117.809268"
"Smart & Final","1320 ATLANTIC AVENUE","LONG BEACH","CA","90813","7:30 am every morning to allow seniors, expectant mothers and customers with disabilities","(562) 218-0991","https://www.smartandfinal.com/","33.783155","-118.184452"
"Smart & Final","644 N. REDONDO BLVD","LONG BEACH","CA","90814","7:30 am every morning to allow seniors, expectant mothers and customers with disabilities","(562) 218-0991","https://www.smartandfinal.com/","33.774282","-118.151843"
"Smart & Final","1516 S PACIFIC COAST HWY","REDONDO BEACH","CA","90277","7:30 am every morning to allow seniors, expectant mothers and customers with disabilities","(310) 540-6157","https://www.smartandfinal.com/","33.820898","-118.384354"
"Smart & Final","2775 PACIFIC COAST HIGHWAY","TORRANCE","CA","90505","7:30 am every morning to allow seniors, expectant mothers and customers with disabilities","(310) 539-3526","https://www.smartandfinal.com/","33.794047","-118.334335"
"Smart & Final","18555 DEVONSHIRE STREET","NORTHRIDGE","CA","91324","7:30 am every morning to allow seniors, expectant mothers and customers with disabilities","(818) 368-6409","https://www.smartandfinal.com/","34.257451","-118.537922"
"Smart & Final","160 W WILLOW STRETT","POMONA","CA","91768","7:30 am every morning to allow seniors, expectant mothers and customers with disabilities","(909) 622-3321","https://www.smartandfinal.com/","34.07861","-117.753795"
"Smart & Final","7224 MASON AVENUE","WINNETKA","CA","91306","7:30 am every morning to allow seniors, expectant mothers and customers with disabilities","(818) 274-0111","https://www.smartandfinal.com/","34.201941","-118.57954"
"Smart & Final","28500 S. WESTERN AVENUE","RANCHO PALOS VERDES","CA","90275","7:30 am every morning to allow seniors, expectant mothers and customers with disabilities","(310) 832-4179","https://www.smartandfinal.com/","33.761043","-118.312273"
"Smart & Final","10340 MASON AVENUE","CHATSWORTH","CA","91311","7:30 am every morning to allow seniors, expectant mothers and customers with disabilities","(818) 772-2021","https://www.smartandfinal.com/","34.258318","-118.579615"
"Smart & Final","210 N.VERDUGO ROAD","GLENDALE","CA","91206","7:30 am every morning to allow seniors, expectant mothers and customers with disabilities","(818) 243-4239","https://www.smartandfinal.com/","34.148571","-118.234857"
"Target","735 S Figueroa St","Los Angeles","CA","90017","Wednesdays only, 8am - 9am, open to seniors 65+, those with medical conditions","213-330-4543","https://www.target.com/","34.04878","-118.26079"
"Target","620 S Virgil Ave Ste 100","Los Angeles","CA","90005","Wednesdays only, 8am - 9am, open to seniors 65+, those with medical conditions","213-296-3712","https://www.target.com/","34.06288","-118.28683"
"Target","3131 S HOOVER ST STE 1910","LOS ANGELES","CA","90089","Wednesdays only, 8am - 9am, open to seniors 65+, those with medical conditions","213-275-3149","https://www.target.com/","34.02605","-118.28472"
"Target","4211 Eagle Rock Blvd","Los Angeles","CA","90065","Wednesdays only, 8am - 9am, open to seniors 65+, those with medical conditions","323-474-3070","https://www.target.com/","34.122291","-118.224858"
"Target","2626 Colorado Blvd","Los Angeles","CA","90041","Wednesdays only, 8am - 9am, open to seniors 65+, those with medical conditions","323-258-1355","https://www.target.com/","34.14192","-118.22342"
"Target","2195 Glendale Galleria","Glendale","CA","91210","Wednesdays only, 8am - 9am, open to seniors 65+, those with medical conditions","818-334-1400","https://www.target.com/","34.143076","-118.258638"
"Target","2120 W Main St","Alhambra","CA","91801","Wednesdays only, 8am - 9am, open to seniors 65+, those with medical conditions","626-308-3290","https://www.target.com/","34.091086","-118.147144"
"Target","5600 Whittier Blvd","Commerce","CA","90022","Wednesdays only, 8am - 9am, open to seniors 65+, those with medical conditions","323-725-1121","https://www.target.com/","34.017946","-118.150348"
"Target","1302 S. La Brea Ave Ste A","Los Angeles","CA","90019","Wednesdays only, 8am - 9am, open to seniors 65+, those with medical conditions","323-801-0965","https://www.target.com/","34.04983","-118.34395"
"Target","7100 Santa Monica Blvd STE 201","West Hollywood","CA","90046","Wednesdays only, 8am - 9am, open to seniors 65+, those with medical conditions","323-603-0004","https://www.target.com/","34.09085","-118.344034"
"Target","8480 Beverly Blvd Ste 1A","Los Angeles","CA","90048","Wednesdays only, 8am - 9am, open to seniors 65+, those with medical conditions","323-602-0637","https://www.target.com/","34.075875","-118.375986"
"Target","777 E Colorado Blvd","Pasadena","CA","91101","Wednesdays only, 8am - 9am, open to seniors 65+, those with medical conditions","626-584-1606","https://www.target.com/","34.146842","-118.134557"
"Target","3535 S La Cienega Blvd","Los Angeles","CA","90016","Wednesdays only, 8am - 9am, open to seniors 65+, those with medical conditions","310-895-1131","https://www.target.com/","34.02292","-118.37248"
"Target","5700 Firestone Blvd","South Gate","CA","90280","Wednesdays only, 8am - 9am, open to seniors 65+, those with medical conditions","562-806-2911","https://www.target.com/","33.948311","-118.167364"
"Target","1033 N Hollywood Way","Burbank","CA","91505","Wednesdays only, 8am - 9am, open to seniors 65+, those with medical conditions","747-241-5032","https://www.target.com/","34.169172","-118.348001"
"Target","3600 Rosemead Blvd","Rosemead","CA","91770","Wednesdays only, 8am - 9am, open to seniors 65+, those with medical conditions","626-280-8024","https://www.target.com/","34.074383","-118.072601"
"Target","3471 W Century Blvd","Inglewood","CA","90301","Wednesdays only, 8am - 9am, open to seniors 65+, those with medical conditions","310-677-2436","https://www.target.com/","33.945643","-118.332503"
"Target","8800 Whittier Blvd","Pico Rivera","CA","90660","Wednesdays only, 8am - 9am, open to seniors 65+, those with medical conditions","562-949-6200","https://www.target.com/","34.000893","-118.086513"
"Target","965 Town Center Dr.","La Canada Flintridge","CA","91011","Wednesdays only, 8am - 9am, open to seniors 65+, those with medical conditions","818-949-3422","https://www.target.com/","34.103786","-118.086508"
"Target","1800 W Empire Ave","Burbank","CA","91504","Wednesdays only, 8am - 9am, open to seniors 65+, those with medical conditions","818-238-0132","https://www.target.com/","34.189635","-118.330559"
"Ralphs","645 W 9Th St","Los Angeles","CA","90015","Wednesdays only, 8am - 9am, open to seniors 65+, those with medical conditions","(213) 452-0840","https://www.ralphs.com/","34.04582","-118.26114"
"Food 4 Less","1700 W 6Th St","Los Angeles","CA","90017","Wednesdays only, 8am - 9am, open to seniors 65+, those with medical conditions","(213) 353-0920","https://www.ralphs.com/","34.05713","-118.27001"
"Food 4 Less","1091 S Hoover St","Los Angeles","CA","90006","Wednesdays only, 8am - 9am, open to seniors 65+, those with medical conditions","(213) 386-1680","https://www.ralphs.com/","34.05116","-118.28438"
"Food 4 Less","1091 S Hoover St","Los Angeles","CA","90006","Wednesdays only, 8am - 9am, open to seniors 65+, those with medical conditions","(213) 386-1680","https://www.ralphs.com/","34.05116","-118.28438"
"Food 4 Less","2750 E 1St St","Los Angeles","CA","90033","Wednesdays only, 8am - 9am, open to seniors 65+, those with medical conditions","(323) 268-0461","https://www.ralphs.com/","34.04146","-118.20521"
"Ralphs","3410 W 3Rd St","Los Angeles","CA","90020","Exclusive Shopping for Seniors 60 & Older: 6am – 7:30am Daily","(213) 480-1421","https://www.ralphs.com/","34.06884","-118.29027"
"Ralphs","2600 S Vermont Ave","Los Angeles","CA","90007","Exclusive Shopping for Seniors 60 & Older: 6am – 7:30am Daily","(323) 732-3863","https://www.ralphs.com/","34.03252","-118.29135"
"Ralphs","670 S Western Ave","Los Angeles","CA","90005","Exclusive Shopping for Seniors 60 & Older: 6am – 7:30am Daily","(213) 383-5058","https://www.ralphs.com/","34.06027","-118.30891"
"Food 4 Less","3654 E Olympic Blvd","Los Angeles","CA","90023","Exclusive Early Shopping for Seniors 60 & Older: 6am-7am Daily","(323) 980-5067","https://www.ralphs.com/","34.01865","-118.19855"
"Food 4 Less","1717 S Western Ave","Los Angeles","CA","90006","Exclusive Early Shopping for Seniors 60 & Older: 6am-7am Daily","(323) 731-0164","https://www.ralphs.com/","34.04214","-118.30925"
"Food 4 Less","1748 S. Jefferson Blvd.","Los Angeles","CA","90018","Exclusive Early Shopping for Seniors 60 & Older: 6am-7am Daily","(323) 735-8317","https://www.ralphs.com/","34.02541","-118.30748"
"Food 4 Less","5100 N Figueroa St","Los Angeles","CA","90042","Exclusive Early Shopping for Seniors 60 & Older: 6am-7am Daily","(323) 982-0304","https://www.ralphs.com/","34.10543","-118.20084"
"Food 4 Less","4910 Huntington Dr S","Los Angeles","CA","90032","Exclusive Early Shopping for Seniors 60 & Older: 6am-7am Daily","(323) 222-2659","https://www.ralphs.com/","34.08668","-118.17628"
"Food 4 Less","5420 W Sunset Blvd","Los Angeles","CA","90027","Exclusive Early Shopping for Seniors 60 & Older: 6am-7am Daily","(323) 871-8011","https://www.ralphs.com/","34.09794","-118.30824"
"Food 4 Less","5318 S Main St","Los Angeles","CA","90037","Exclusive Early Shopping for Seniors 60 & Older: 6am-7am Daily","(323) 846-8895","https://www.ralphs.com/","33.99375","-118.27376"
"Ralphs","5429 Hollywood Blvd","Los Angeles","CA","90027","Exclusive Shopping for Seniors 60 & Older: 6am – 7:30am Daily","(323) 957-9657","https://www.ralphs.com/","34.101958","-118.30787"
"Ralphs","4760 W Pico Blvd","Los Angeles","CA","90019","Exclusive Shopping for Seniors 60 & Older: 6am – 7:30am Daily","(323) 937-4107","https://www.ralphs.com/","34.04831","-118.33938"
"Food 4 Less","6920 Santa Fe Ave","Huntington Park","CA","90255","Exclusive Early Shopping for Seniors 60 & Older: 6am-7am Daily","(323) 585-6430","https://www.ralphs.com/","33.976221","-118.229587"
"Ralphs","260 S La Brea Ave","Los Angeles","CA","90036","Exclusive Shopping for Seniors 60 & Older: 6am – 7:30am Daily","(323) 937-3264","https://www.ralphs.com/","34.06965","-118.34383"
"Food 4 Less","4400 Slauson Ave","Maywood","CA","90270","Exclusive Early Shopping for Seniors 60 & Older: 6am-7am Daily","(323) 773-2214","https://www.ralphs.com/","33.986823","-118.187031"
"Ralphs","2230 S Atlantic Blvd","Monterey Park","CA","91754","Exclusive Shopping for Seniors 60 & Older: 6am – 7:30am Daily","(323) 721-3367","https://www.ralphs.com/","34.037256","-118.145045"
"Ralphs","1416 E Colorado St","Glendale","CA","91205","Exclusive Shopping for Seniors 60 & Older: 6am – 7:30am Daily","(818) 548-0945","https://www.ralphs.com/","34.142109","-118.233416"
"Food 4 Less","1820 W Slauson Ave","Los Angeles","CA","90047","Exclusive Early Shopping for Seniors 60 & Older: 6am-7am Daily","(323) 293-1369","https://www.ralphs.com/","33.98794","-118.31101"
"Ralphs","5601 Wilshire Blvd","Los Angeles","CA","90036","Exclusive Shopping for Seniors 60 & Older: 6am – 7:30am Daily","(323) 936-4954","https://www.ralphs.com/","34.062148","-118.350505"
"Ralphs","1233 N La Brea Ave","West Hollywood","CA","90038","Exclusive Shopping for Seniors 60 & Older: 6am – 7:30am Daily","(323) 876-8790","https://www.ralphs.com/","34.093161","-118.343898"
"Ralphs","211 N Glendale Ave","Glendale","CA","91206","Exclusive Shopping for Seniors 60 & Older: 6am – 7:30am Daily","(818) 549-0035","https://www.ralphs.com/","34.148725","-118.248286"
"Ralphs","330 N Atlantic Blvd","Monterey Park","CA","91754","Exclusive Shopping for Seniors 60 & Older: 6am – 7:30am Daily","(626) 289-0261","https://www.ralphs.com/","34.065289","-118.133633"
"Ralphs","7257 W Sunset Blvd","West Hollywood","CA","90046","Exclusive Shopping for Seniors 60 & Older: 6am – 7:30am Daily","(323) 512-8382","https://www.ralphs.com/","34.09816","-118.3483"
"Ralphs","5080 Rodeo Rd","Los Angeles","CA","90016","Exclusive Shopping for Seniors 60 & Older: 6am – 7:30am Daily","(323) 292-0633","https://www.ralphs.com/","34.021369","-118.353223"
"Ralphs","3300 W Slauson Ave","Los Angeles","CA","90043","Exclusive Shopping for Seniors 60 & Older: 6am – 7:30am Daily","(323) 293-0199","https://www.ralphs.com/","33.98753","-118.32945"
"Ralphs","1745 Garfield Ave","South Pasadena","CA","91030","Exclusive Shopping for Seniors 60 & Older: 6am – 7:30am Daily","(626) 403-0082","https://www.ralphs.com/","34.105321","-118.135286"
"Food 4 Less","6901 Eastern Ave","Bell Gardens","CA","90201","Exclusive Early Shopping for Seniors 60 & Older: 6am-7am Daily","(323) 771-2003","https://www.ralphs.com/","33.970503","-118.165539"
"Ralphs","1200 N Central Ave","Glendale","CA","91202","Exclusive Shopping for Seniors 60 & Older: 6am – 7:30am Daily","(818) 246-1752","https://www.ralphs.com/","34.164996","-118.256392"
"Ralphs","1730 W Manchester Ave","Los Angeles","CA","90047","Exclusive Shopping for Seniors 60 & Older: 6am – 7:30am Daily","(323) 750-3151","https://www.ralphs.com/","33.9598","-118.3078"
"Food 4 Less","1651 E 103Rd St","Los Angeles","CA","90002","Exclusive Early Shopping for Seniors 60 & Older: 6am-7am Daily","(323) 564-3753","https://www.ralphs.com/","33.94479","-118.2439"
"Ralphs","320 W Colorado Blvd","Pasadena","CA","91105","Exclusive Shopping for Seniors 60 & Older: 6am – 7:30am Daily","(626) 793-4179","https://www.ralphs.com/","34.145201","-118.157121"
"Ralphs","9040 Beverly Blvd","West Hollywood","CA","90048","Exclusive Shopping for Seniors 60 & Older: 6am – 7:30am Daily","(310) 278-1351","https://www.ralphs.com/","34.076755","-118.389216"
"Ralphs","950 N La Brea Ave","Inglewood","CA","90302","Exclusive Shopping for Seniors 60 & Older: 6am – 7:30am Daily","(310) 673-6365","https://www.ralphs.com/","33.975586","-118.357141"
"Ralphs","25 E Alameda Ave","Burbank","CA","91502","Exclusive Shopping for Seniors 60 & Older: 6am – 7:30am Daily","(818) 556-1558","https://www.ralphs.com/","34.173666","-118.301504"
"Ralphs","9616 W Pico Blvd","Los Angeles","CA","90035","Exclusive Shopping for Seniors 60 & Older: 6am – 7:30am Daily","(310) 271-2672","https://www.ralphs.com/","34.05497","-118.39811"
"Ralphs","5245 W Centinela Ave","Los Angeles","CA","90045","Exclusive Shopping for Seniors 60 & Older: 6am – 7:30am Daily","(310) 641-2813","https://www.ralphs.com/","33.97884","-118.37165"
"Food 4 Less","11840 Wilmington Ave","Los Angeles","CA","90059","Exclusive Early Shopping for Seniors 60 & Older: 6am-7am Daily","(323) 564-3986","https://www.ralphs.com/","33.925627","-118.236835"
"Food 4 Less","11245 Long Beach Blvd","Lynwood","CA","90262","Exclusive Early Shopping for Seniors 60 & Older: 6am-7am Daily","(310) 632-9954","https://www.ralphs.com/","33.929058","-118.211171"
"Ralphs","160 N Lake Ave","Pasadena","CA","91101","Exclusive Shopping for Seniors 60 & Older: 6am – 7:30am Daily","(626) 793-7480","https://www.ralphs.com/","34.148571","-118.131303"
"Food 4 Less","3200 W Century Blvd","Inglewood","CA","90303","Exclusive Early Shopping for Seniors 60 & Older: 6am-7am Daily","(310) 677-2520","https://www.ralphs.com/","33.94532","-118.327688"
"Ralphs","10901 Ventura Blvd","Studio City","CA","91604","Exclusive Shopping for Seniors 60 & Older: 6am – 7:30am Daily","(818) 760-7008","https://www.ralphs.com/","34.140109","-118.367995"
"Ralphs","10772 Jefferson Blvd","Culver City","CA","90230","Exclusive Shopping for Seniors 60 & Older: 6am – 7:30am Daily","(310) 839-4107","https://www.ralphs.com/","34.002051","-118.393627"
"Ralphs","11922 S Vermont Ave","Los Angeles","CA","90044","Exclusive Shopping for Seniors 60 & Older: 6am – 7:30am Daily","(323) 757-4147","https://www.ralphs.com/","33.92425","-118.29139"
"Food 4 Less","11407 S. Western","Los Angeles","CA","90047","Exclusive Early Shopping for Seniors 60 & Older: 6am-7am Daily","(323) 757-1257","https://www.ralphs.com/","33.92982","-118.309693"
"Ralphs","3827 Culver Ctr","Culver City","CA","90232","Exclusive Shopping for Seniors 60 & Older: 6am – 7:30am Daily","(310) 558-4027","https://www.ralphs.com/","34.017253","-118.40762"
"Food 4 Less","8620 Whittier Blvd","Pico Rivera","CA","90660","Exclusive Early Shopping for Seniors 60 & Older: 6am-7am Daily","(562) 948-3435","https://www.ralphs.com/","34.003017","-118.088364"
"Gelsons","2725 Hyperion Ave.","Los Angeles","CA","90027","7am - 8am Seniors Only","(323) 660-0387","https://www.gelsons.com/","34.107471","-118.272234"
"Gelsons","5877 Franklin Ave.","Hollywood","CA","90028","7am - 8am Seniors Only","(323) 464-7316","https://www.gelsons.com/","34.10542","-118.317687"
"Gelsons","8330 W. Santa Monica Blvd.","West Hollywood","CA","90069","7am - 8am Seniors Only","(323) 656-5580","https://www.gelsons.com/","34.090304","-118.371304"
"Gelsons","10250 Santa Monica Blvd.","Los Angeles","CA","90067","7am - 8am Seniors Only","(310) 277-4288","https://www.gelsons.com/","34.059485","-118.420449"
"Gelsons","635 Foothill Blvd.","La Canada Flintridge","CA","91011","7am - 8am Seniors Only","(818) 790-0563","https://www.gelsons.com/","34.201749","-118.192289"
"Gelsons","4738 Laurel Canyon Blvd.","Valley Village","CA","91607","7am - 8am Seniors Only","(818) 906-5743","https://www.gelsons.com/","34.156763","-118.396277"
"Whole Foods Market","465 S Arroyo Pkwy","Pasadena","CA","91105","Guests 60+ can start to shop at 7:00 am.","(626) 204-2266","https://www.wholefoodsmarket.com/","34.137814","-118.147801"
"Whole Foods Market","2520 Glendale Blvd","Los Angeles","CA","90039","Guests 60+ can start to shop at 7:00 am.","(323) 378-3891","https://www.wholefoodsmarket.com/","34.102993","-118.259015"
"Whole Foods Market","331 N Glendale Ave","Glendale","CA","91206","Guests 60+ can start to shop at 7:00 am.","(818) 548-3695","https://www.wholefoodsmarket.com/","34.151077","-118.245663"
"Whole Foods Market","788 S Grand Ave","Los Angeles","CA","90017","Guests 60+ can start to shop at 7:00 am.","(213) 873-4745","https://www.wholefoodsmarket.com/","34.04595","-118.25755"
"Whole Foods Market","3751 E Foothill Blvd","Pasadena","CA","91107","Guests 60+ can start to shop at 7:00 am.","(626) 351-5994","https://www.wholefoodsmarket.com/","34.151184","-118.07268"
"Whole Foods Market","3401 W Olive Ave","Burbank","CA","91505","Guests 60+ can start to shop at 7:00 am.","(818) 239-5380","https://www.wholefoodsmarket.com/","34.154395","-118.33714"
"Whole Foods Market","7871 Santa Monica Blvd","West Hollywood","CA","90046","Guests 60+ can start to shop at 7:00 am.","(323) 848-4200","https://www.wholefoodsmarket.com/","34.090659","-118.360858"
"Whole Foods Market","6350 W 3rd St","Los Angeles","CA","90036","Guests 60+ can start to shop at 7:00 am.","(323) 964-6800","https://www.wholefoodsmarket.com/","34.07127","-118.36061"
"Whole Foods Market","239 N Crescent Dr","Beverly Hills","CA","90210","Guests 60+ can start to shop at 7:00 am.","(310) 274-3360","https://www.wholefoodsmarket.com/","34.069179","-118.398247"
"Whole Foods Market","12905 Riverside Dr","Sherman Oaks","CA","91423","Guests 60+ can start to shop at 7:00 am.","(818) 762-5548","https://www.wholefoodsmarket.com/","34.157783","-118.414243"
"Whole Foods Market","1050 S Gayley Ave","Los Angeles","CA","90024","Guests 60+ can start to shop at 7:00 am.","(310) 824-0858","https://www.wholefoodsmarket.com/","34.06115","-118.44706"
"Whole Foods Market","11666 National Blvd","Los Angeles","CA","90064","Guests 60+ can start to shop at 7:00 am.","(310) 996-8840","https://www.wholefoodsmarket.com/","34.022757","-118.438151"
"Whole Foods Market","12746 W Jefferson Blvd","Playa Vista","CA","90094","Guests 60+ can start to shop at 7:00 am.","(310) 862-9900","https://www.wholefoodsmarket.com/","33.97756","-118.41709"
"Whole Foods Market","11737 San Vicente Blvd","Los Angeles","CA","90049","Guests 60+ can start to shop at 7:00 am.","(310) 826-4433","https://www.wholefoodsmarket.com/","34.053188","-118.467649"
"Whole Foods Market","4520 N Sepulveda Blvd","Sherman Oaks","CA","91403","Guests 60+ can start to shop at 7:00 am.","(818) 382-3700","https://www.wholefoodsmarket.com/","34.15175","-118.46686"
"Whole Foods Market","2121 Cloverfield Blvd","Santa Monica","CA","90404","Guests 60+ can start to shop at 7:00 am.","(310) 752-1155","https://www.wholefoodsmarket.com/","34.022127","-118.466101"
"Whole Foods Market","760 S Sepulveda Blvd","El Segundo","CA","90245","Guests 60+ can start to shop at 7:00 am.","(310) 333-1900","https://www.wholefoodsmarket.com/","33.926698","-118.395924"
"Whole Foods Market","2201 Wilshire Blvd","Santa Monica","CA","90403","Guests 60+ can start to shop at 7:00 am.","(310) 315-0662","https://www.wholefoodsmarket.com/","34.033235","-118.481371"
"Whole Foods Market","225 Lincoln Blvd","Venice","CA","90291","Guests 60+ can start to shop at 7:00 am.","(310) 566-9480","https://www.wholefoodsmarket.com/","34.001833","-118.469264"
"Whole Foods Market","3881 Lakewood Blvd, Ste A","Long Beach","CA","90808","Guests 60+ can start to shop at 7:00 am.","(562) 548-1840","https://www.wholefoodsmarket.com/","33.828379","-118.142708"
"Whole Foods Market","1425 Montana Ave","Santa Monica","CA","90403","Guests 60+ can start to shop at 7:00 am.","(310) 576-4707","https://www.wholefoodsmarket.com/","34.032501","-118.495045"
"Whole Foods Market","405 N Pacific Coast Hwy","Redondo Beach","CA","90277","Guests 60+ can start to shop at 7:00 am.","(310) 376-6931","https://www.wholefoodsmarket.com/","33.836198","-118.385621"
"Whole Foods Market","18700 Ventura Blvd, Suite 190","Tarzana","CA","91356","Guests 60+ can start to shop at 7:00 am.","(818) 578-7840","https://www.wholefoodsmarket.com/","34.170531","-118.540925"
"Whole Foods Market","2655 Pacific Coast Hwy","Torrance","CA","90505","Guests 60+ can start to shop at 7:00 am.","(310) 257-8700","https://www.wholefoodsmarket.com/","33.792291","-118.331196"
"Whole Foods Market","6400 E Pacific Coast Hwy, Ste A-100","Long Beach","CA","90803","Guests 60+ can start to shop at 7:00 am.","(562) 598-8687","https://www.wholefoodsmarket.com/","33.75632","-118.110873"
"Whole Foods Market","21347 Ventura Blvd","Woodland Hills","CA","91364","Guests 60+ can start to shop at 7:00 am.","(818) 610-0000","https://www.wholefoodsmarket.com/","34.167979","-118.5971"
"99 Cents Store","6401 SAN FERNANDO RD","GLENDALE","CA","91201","Tuesday & Thursdays, 7am - 8am, open to seniors 65+, pregnant women, disabled/handi-capable, & folks with compromised immune systems",,"https://99only.com/home","34.165966","-118.288783"
"99 Cents Store","2407 W. VICTORY BLVD","BURBANK","CA","91506","Tuesday & Thursdays, 7am - 8am, open to seniors 65+, pregnant women, disabled/handi-capable, & folks with compromised immune systems",,"https://99only.com/home","34.184876","-118.337795"
"99 Cents Store","5270 SUNSET BLVD","LOS ANGELES","CA","90027","Tuesday & Thursdays, 7am - 8am, open to seniors 65+, pregnant women, disabled/handi-capable, & folks with compromised immune systems",,"https://99only.com/home","34.097963","-118.304782"
"99 Cents Store","4304 LANKERSHIM BLVD","NORTH HOLLYWOOD","CA","91602","Tuesday & Thursdays, 7am - 8am, open to seniors 65+, pregnant women, disabled/handi-capable, & folks with compromised immune systems",,"https://99only.com/home","34.148243","-118.364304"
"99 Cents Store","3612 W. SUNSET BLVD","LOS ANGELES","CA","90026","Tuesday & Thursdays, 7am - 8am, open to seniors 65+, pregnant women, disabled/handi-capable, & folks with compromised immune systems",,"https://99only.com/home","34.08994","-118.27733"
"99 Cents Store","10911 VICTORY BLVD.","NORTH HOLLYWOOD","CA","91506","Tuesday & Thursdays, 7am - 8am, open to seniors 65+, pregnant women, disabled/handi-capable, & folks with compromised immune systems",,"https://99only.com/home","34.186868","-118.368615"
"99 Cents Store","852 N. LA BREA AVE","LOS ANGELES","CA","90038","Tuesday & Thursdays, 7am - 8am, open to seniors 65+, pregnant women, disabled/handi-capable, & folks with compromised immune systems",,"https://99only.com/home","34.08685","-118.34386"
"99 Cents Store","6235 YORK BLVD","LOS ANGELES","CA","90042","Tuesday & Thursdays, 7am - 8am, open to seniors 65+, pregnant women, disabled/handi-capable, & folks with compromised immune systems",,"https://99only.com/home","34.115184","-118.183091"
"99 Cents Store","6639 LAUREL CANYON BLVD","NORTH HOLLYWOOD","CA","91606","Tuesday & Thursdays, 7am - 8am, open to seniors 65+, pregnant women, disabled/handi-capable, & folks with compromised immune systems",,"https://99only.com/home","34.191465","-118.396711"
"99 Cents Store","2606 N. BROADWAY","LOS ANGELES","CA","90031","Tuesday & Thursdays, 7am - 8am, open to seniors 65+, pregnant women, disabled/handi-capable, & folks with compromised immune systems",,"https://99only.com/home","34.073486","-118.215334"
"99 Cents Store","650 S. ALVARADO ST","LOS ANGELES","CA","90057","Tuesday & Thursdays, 7am - 8am, open to seniors 65+, pregnant women, disabled/handi-capable, & folks with compromised immune systems",,"https://99only.com/home","34.05772","-118.27583"
"99 Cents Store","12711 SHERMAN WAY","NORTH HOLLYWOOD","CA","91605","Tuesday & Thursdays, 7am - 8am, open to seniors 65+, pregnant women, disabled/handi-capable, & folks with compromised immune systems",,"https://99only.com/home","34.201367","-118.410735"
"99 Cents Store","8437 LAUREL CANYON BLVD","SUN VALLEY","CA","91352","Tuesday & Thursdays, 7am - 8am, open to seniors 65+, pregnant women, disabled/handi-capable, & folks with compromised immune systems",,"https://99only.com/home","34.223884","-118.396559"
"99 Cents Store","601 S. FAIRFAX AVE","LOS ANGELES","CA","90036","Tuesday & Thursdays, 7am - 8am, open to seniors 65+, pregnant women, disabled/handi-capable, & folks with compromised immune systems",,"https://99only.com/home","34.06471","-118.36154"
"99 Cents Store","442 N. LOS ROBLES AVE","SAN MARINO","CA","91108","Tuesday & Thursdays, 7am - 8am, open to seniors 65+, pregnant women, disabled/handi-capable, & folks with compromised immune systems",,"https://99only.com/home","34.153602","-118.14067"
"99 Cents Store","1516 W. PICO BLVD","LOS ANGELES","CA","90015","Tuesday & Thursdays, 7am - 8am, open to seniors 65+, pregnant women, disabled/handi-capable, & folks with compromised immune systems",,"https://99only.com/home","34.04385","-118.27552"
"99 Cents Store","6121 WILSHIRE BLVD","LOS ANGELES","CA","90048","Tuesday & Thursdays, 7am - 8am, open to seniors 65+, pregnant women, disabled/handi-capable, & folks with compromised immune systems",,"https://99only.com/home","34.063249","-118.362134"
"99 Cents Store","2810 W. ALHAMBRA RD","ALHAMBRA","CA","91801","Tuesday & Thursdays, 7am - 8am, open to seniors 65+, pregnant women, disabled/handi-capable, & folks with compromised immune systems",,"https://99only.com/home","34.09803","-118.154635"
"99 Cents Store","422 E. WASHINGTON BLVD","LOS ANGELES","CA","90015","Tuesday & Thursdays, 7am - 8am, open to seniors 65+, pregnant women, disabled/handi-capable, & folks with compromised immune systems",,"https://99only.com/home","34.029091","-118.260774"
"99 Cents Store","1720 E. COLORADO BLVD","PASADENA","CA","91106","Tuesday & Thursdays, 7am - 8am, open to seniors 65+, pregnant women, disabled/handi-capable, & folks with compromised immune systems",,"https://99only.com/home","34.145631","-118.114999"
"99 Cents Store","8625 WOODMAN AVE","ARLETA","CA","91331","Tuesday & Thursdays, 7am - 8am, open to seniors 65+, pregnant women, disabled/handi-capable, & folks with compromised immune systems",,"https://99only.com/home","34.227027","-118.433763"
"99 Cents Store","6755 VAN NUYS BLVD","VAN NUYS","CA","91405","Tuesday & Thursdays, 7am - 8am, open to seniors 65+, pregnant women, disabled/handi-capable, & folks with compromised immune systems",,"https://99only.com/home","34.193659","-118.449044"
"99 Cents Store","3060 CRENSHAW BLVD","LOS ANGELES","CA","90016","Tuesday & Thursdays, 7am - 8am, open to seniors 65+, pregnant women, disabled/handi-capable, & folks with compromised immune systems",,"https://99only.com/home","34.025823","-118.334904"
"99 Cents Store","3451 WHITTIER BLVD","LOS ANGELES","CA","90023","Tuesday & Thursdays, 7am - 8am, open to seniors 65+, pregnant women, disabled/handi-capable, & folks with compromised immune systems",,"https://99only.com/home","34.027178","-118.199249"
"99 Cents Store","8723 SEPULVEDA BLVD","NORTH HILLS","CA","91343","Tuesday & Thursdays, 7am - 8am, open to seniors 65+, pregnant women, disabled/handi-capable, & folks with compromised immune systems",,"https://99only.com/home","34.228783","-118.467888"
"99 Cents Store","11040 W. PICO BLVD","LOS ANGELES","CA","90064","Tuesday & Thursdays, 7am - 8am, open to seniors 65+, pregnant women, disabled/handi-capable, & folks with compromised immune systems",,"https://99only.com/home","34.03753","-118.43352"
"99 Cents Store","6124 PACIFIC BLVD","HUNTINGTON PARK","CA","90255","Tuesday & Thursdays, 7am - 8am, open to seniors 65+, pregnant women, disabled/handi-capable, & folks with compromised immune systems",,"https://99only.com/home","33.98465","-118.224755"
"99 Cents Store","9565 LAS TUNAS DR","TEMPLE CITY","CA","91780","Tuesday & Thursdays, 7am - 8am, open to seniors 65+, pregnant women, disabled/handi-capable, & folks with compromised immune systems",,"https://99only.com/home","34.106881","-118.061609"
"99 Cents Store","13237 GLADSTONE AVE","SYLMAR","CA","91342","Tuesday & Thursdays, 7am - 8am, open to seniors 65+, pregnant women, disabled/handi-capable, & folks with compromised immune systems",,"https://99only.com/home","34.31154","-118.429543"
"99 Cents Store","2566 E. FLORENCE AVE","HUNTINGTON PARK","CA","90255","Tuesday & Thursdays, 7am - 8am, open to seniors 65+, pregnant women, disabled/handi-capable, & folks with compromised immune systems",,"https://99only.com/home","33.974058","-118.22583"
"99 Cents Store","6161 ATLANTIC BLVD","MAYWOOD","CA","90270","Tuesday & Thursdays, 7am - 8am, open to seniors 65+, pregnant women, disabled/handi-capable, & folks with compromised immune systems",,"https://99only.com/home","33.982411","-118.186405"
"99 Cents Store","6921 LA TIJERA BLVD","LOS ANGELES","CA","90045","Tuesday & Thursdays, 7am - 8am, open to seniors 65+, pregnant women, disabled/handi-capable, & folks with compromised immune systems",,"https://99only.com/home","33.975996","-118.373451"
"99 Cents Store","2801 PICO BLVD","SANTA MONICA","CA","90405","Tuesday & Thursdays, 7am - 8am, open to seniors 65+, pregnant women, disabled/handi-capable, & folks with compromised immune systems",,"https://99only.com/home","34.024607","-118.460532"
"99 Cents Store","8451 CRENSHAW BLVD","INGLEWOOD","CA","90305","Tuesday & Thursdays, 7am - 8am, open to seniors 65+, pregnant women, disabled/handi-capable, & folks with compromised immune systems",,"https://99only.com/home","33.961521","-118.326824"
"99 Cents Store","18215 SHERMAN WAY","RESEDA","CA","91335","Tuesday & Thursdays, 7am - 8am, open to seniors 65+, pregnant women, disabled/handi-capable, & folks with compromised immune systems",,"https://99only.com/home","34.201355","-118.529845"
"99 Cents Store","17040 CHATSWORTH ST","GRANADA HILLS","CA","91344","Tuesday & Thursdays, 7am - 8am, open to seniors 65+, pregnant women, disabled/handi-capable, & folks with compromised immune systems",,"https://99only.com/home","34.264594","-118.50346"
"99 Cents Store","140 E. DUARTE RD","ARCADIA","CA","91006","Tuesday & Thursdays, 7am - 8am, open to seniors 65+, pregnant women, disabled/handi-capable, & folks with compromised immune systems",,"https://99only.com/home","34.129618","-118.025783"
"99 Cents Store","3220 W. CENTURY BLVD","INGLEWOOD","CA","90303","Tuesday & Thursdays, 7am - 8am, open to seniors 65+, pregnant women, disabled/handi-capable, & folks with compromised immune systems",,"https://99only.com/home","33.94532","-118.32792"
"99 Cents Store","8966 RESEDA BLVD","NORTHRIDGE","CA","91324","Tuesday & Thursdays, 7am - 8am, open to seniors 65+, pregnant women, disabled/handi-capable, & folks with compromised immune systems",,"https://99only.com/home","34.23376","-118.535886"
"99 Cents Store","201 LINCOLN BLVD","VENICE","CA","90291","Tuesday & Thursdays, 7am - 8am, open to seniors 65+, pregnant women, disabled/handi-capable, & folks with compromised immune systems",,"https://99only.com/home","34.001943","-118.469498"
"99 Cents Store","11114 RAMONA BLVD","EL MONTE","CA","91731","Tuesday & Thursdays, 7am - 8am, open to seniors 65+, pregnant women, disabled/handi-capable, & folks with compromised immune systems",,"https://99only.com/home","34.072618","-118.030974"
"99 Cents Store","10819 LONG BEACH BLVD","LYNWOOD","CA","90262","Tuesday & Thursdays, 7am - 8am, open to seniors 65+, pregnant women, disabled/handi-capable, & folks with compromised immune systems",,"https://99only.com/home","33.935567","-118.213184"
"99 Cents Store","19836 VENTURA BLVD","WOODLAND HILLS","CA","91364","Tuesday & Thursdays, 7am - 8am, open to seniors 65+, pregnant women, disabled/handi-capable, & folks with compromised immune systems",,"https://99only.com/home","34.172122","-118.56536"
"99 Cents Store","2762 W. IMPERIAL HWY","INGLEWOOD","CA","90303","Tuesday & Thursdays, 7am - 8am, open to seniors 65+, pregnant women, disabled/handi-capable, & folks with compromised immune systems",,"https://99only.com/home","33.929483","-118.323712"
"99 Cents Store","9535 WHITTIER BLVD","PICO RIVERA","CA","90660","Tuesday & Thursdays, 7am - 8am, open to seniors 65+, pregnant women, disabled/handi-capable, & folks with compromised immune systems",,"https://99only.com/home","33.997963","-118.074801"
"99 Cents Store","2035 DURFEE AVE","SOUTH EL MONTE","CA","91733","Tuesday & Thursdays, 7am - 8am, open to seniors 65+, pregnant women, disabled/handi-capable, & folks with compromised immune systems",,"https://99only.com/home","34.04697","-118.029864"
"99 Cents Store","11811 HAWTHORNE BLVD","HAWTHORNE","CA","90250","Tuesday & Thursdays, 7am - 8am, open to seniors 65+, pregnant women, disabled/handi-capable, & folks with compromised immune systems",,"https://99only.com/home","33.927132","-118.352612"
"99 Cents Store","1327 E. HUNTINGTON DR","BUENA VISTA","CA","91010","Tuesday & Thursdays, 7am - 8am, open to seniors 65+, pregnant women, disabled/handi-capable, & folks with compromised immune systems",,"https://99only.com/home","34.139714","-117.974201"
"99 Cents Store","6420 DESOTO AVE","CANOGA PARK","CA","91303","Tuesday & Thursdays, 7am - 8am, open to seniors 65+, pregnant women, disabled/handi-capable, & folks with compromised immune systems",,"https://99only.com/home","34.222153","-118.588363"
"99 Cents Store","13023 HAWTHORNE BLVD","HAWTHORNE","CA","90250","Tuesday & Thursdays, 7am - 8am, open to seniors 65+, pregnant women, disabled/handi-capable, & folks with compromised immune systems",,"https://99only.com/home","33.914072","-118.35312"
"99 Cents Store","11916 PARAMOUNT BLVD","DOWNEY","CA","90241","Tuesday & Thursdays, 7am - 8am, open to seniors 65+, pregnant women, disabled/handi-capable, & folks with compromised immune systems",,"https://99only.com/home","33.934084","-118.143452"
"99 Cents Store","20914 SHERMAN WAY","CANOGA PARK","CA","91303","Tuesday & Thursdays, 7am - 8am, open to seniors 65+, pregnant women, disabled/handi-capable, & folks with compromised immune systems",,"https://99only.com/home","34.200856","-118.58889"
"99 Cents Store","300 RICHMOND ST","EL SEGUNDO","CA","90245","Tuesday & Thursdays, 7am - 8am, open to seniors 65+, pregnant women, disabled/handi-capable, & folks with compromised immune systems",,"https://99only.com/home","33.918823","-118.417142"
"99 Cents Store","11550 TELEGRAPH RD","SANTA FE SPRINGS","CA","90670","Tuesday & Thursdays, 7am - 8am, open to seniors 65+, pregnant women, disabled/handi-capable, & folks with compromised immune systems",,"https://99only.com/home","33.947616","-118.087371"
"99 Cents Store","15505 S. NORMANDIE AVE","GARDENA","CA","90247","Tuesday & Thursdays, 7am - 8am, open to seniors 65+, pregnant women, disabled/handi-capable, & folks with compromised immune systems",,"https://99only.com/home","33.889789","-118.299459"
"99 Cents Store","14151 RAMONA BLVD","BALDWIN PARK","CA","91706","Tuesday & Thursdays, 7am - 8am, open to seniors 65+, pregnant women, disabled/handi-capable, & folks with compromised immune systems",,"https://99only.com/home","34.086649","-117.965466"
"99 Cents Store","1320 E. ALONDRA BLVD","COMPTON","CA","90221","Tuesday & Thursdays, 7am - 8am, open to seniors 65+, pregnant women, disabled/handi-capable, & folks with compromised immune systems",,"https://99only.com/home","33.888533","-118.208419"
"99 Cents Store","2701 MANHATTAN BEACH BLVD","REDONDO BEACH","CA","90278","Tuesday & Thursdays, 7am - 8am, open to seniors 65+, pregnant women, disabled/handi-capable, & folks with compromised immune systems",,"https://99only.com/home","33.888633","-118.362464"
"99 Cents Store","11005 FIRESTONE BLVD","NORWALK","CA","90650","Tuesday & Thursdays, 7am - 8am, open to seniors 65+, pregnant women, disabled/handi-capable, & folks with compromised immune systems",,"https://99only.com/home","33.922516","-118.098298"
"99 Cents Store","14317 CLARK AVE","BELLFLOWER","CA","90706","Tuesday & Thursdays, 7am - 8am, open to seniors 65+, pregnant women, disabled/handi-capable, & folks with compromised immune systems",,"https://99only.com/home","33.903072","-118.134912"
"99 Cents Store","15727 DOWNEY AVE","PARAMOUNT","CA","90723","Tuesday & Thursdays, 7am - 8am, open to seniors 65+, pregnant women, disabled/handi-capable, & folks with compromised immune systems",,"https://99only.com/home","33.890392","-118.151707"
"99 Cents Store","12301 NORWALK BLVD","NORWALK","CA","90670","Tuesday & Thursdays, 7am - 8am, open to seniors 65+, pregnant women, disabled/handi-capable, & folks with compromised immune systems",,"https://99only.com/home","33.91971","-118.073479"
"99 Cents Store","1824 W. 182ND ST","TORRANCE","CA","90504","Tuesday & Thursdays, 7am - 8am, open to seniors 65+, pregnant women, disabled/handi-capable, & folks with compromised immune systems",,"https://99only.com/home","33.865469","-118.30988"
"99 Cents Store","1617 HACIENDA BLVD","LA PUENTE","CA","91744","Tuesday & Thursdays, 7am - 8am, open to seniors 65+, pregnant women, disabled/handi-capable, & folks with compromised immune systems",,"https://99only.com/home","34.049332","-117.947133"
"99 Cents Store","619 E. UNIVERSITY DR","CARSON","CA","90746","Tuesday & Thursdays, 7am - 8am, open to seniors 65+, pregnant women, disabled/handi-capable, & folks with compromised immune systems",,"https://99only.com/home","33.85901","-118.2654"
"99 Cents Store","1120 HACIENDA BLVD","HACIENDA HEIGHTS","CA","91745","Tuesday & Thursdays, 7am - 8am, open to seniors 65+, pregnant women, disabled/handi-capable, & folks with compromised immune systems",,"https://99only.com/home","34.009781","-117.962501"
"99 Cents Store","14029 PIONEER BLVD","NORWALK","CA","90650","Tuesday & Thursdays, 7am - 8am, open to seniors 65+, pregnant women, disabled/handi-capable, & folks with compromised immune systems",,"https://99only.com/home","33.903327","-118.082677"
"99 Cents Store","5130 190TH ST","TORRANCE","CA","90504","Tuesday & Thursdays, 7am - 8am, open to seniors 65+, pregnant women, disabled/handi-capable, & folks with compromised immune systems",,"https://99only.com/home","33.858125","-118.366055"
"99 Cents Store","24200 LYONS AVE","NEWHALL","CA","91321","Tuesday & Thursdays, 7am - 8am, open to seniors 65+, pregnant women, disabled/handi-capable, & folks with compromised immune systems",,"https://99only.com/home","34.378032","-118.55868"
"99 Cents Store","543 N. AZUSA AVE","COVINA","CA","91722","Tuesday & Thursdays, 7am - 8am, open to seniors 65+, pregnant women, disabled/handi-capable, & folks with compromised immune systems",,"https://99only.com/home","34.092782","-117.907539"
"99 Cents Store","15345 WHITTIER BLVD","WHITTIER","CA","90603","Tuesday & Thursdays, 7am - 8am, open to seniors 65+, pregnant women, disabled/handi-capable, & folks with compromised immune systems",,"https://99only.com/home","33.946916","-117.998817"
"99 Cents Store","14540 E. LEFFINGWELL RD","LA MIRADA","CA","90638","Tuesday & Thursdays, 7am - 8am, open to seniors 65+, pregnant women, disabled/handi-capable, & folks with compromised immune systems",,"https://99only.com/home","33.923956","-118.021505"
"99 Cents Store","307 N. CITRUS AVE","AZUSA","CA","91702","Tuesday & Thursdays, 7am - 8am, open to seniors 65+, pregnant women, disabled/handi-capable, & folks with compromised immune systems",,"https://99only.com/home","34.126749","-117.890259"
"99 Cents Store","1516 AMAR RD","WEST COVINA","CA","91792","Tuesday & Thursdays, 7am - 8am, open to seniors 65+, pregnant women, disabled/handi-capable, & folks with compromised immune systems",,"https://99only.com/home","34.030973","-117.91454"
"99 Cents Store","1788 S. BARRANCA AVE","GLENDORA","CA","91740","Tuesday & Thursdays, 7am - 8am, open to seniors 65+, pregnant women, disabled/handi-capable, & folks with compromised immune systems",,"https://99only.com/home","34.107325","-117.880735"
"99 Cents Store","23300 VALENCIA BLVD","VALENCIA","CA","91355","Tuesday & Thursdays, 7am - 8am, open to seniors 65+, pregnant women, disabled/handi-capable, & folks with compromised immune systems",,"https://99only.com/home","34.4228","-118.543522"
"99 Cents Store","1190 E. CARSON ST","LONG BEACH","CA","90806","Tuesday & Thursdays, 7am - 8am, open to seniors 65+, pregnant women, disabled/handi-capable, & folks with compromised immune systems",,"https://99only.com/home","33.831894","-118.176862"
"99 Cents Store","4929 WOODRUFF AVE","LAKEWOOD","CA","90713","Tuesday & Thursdays, 7am - 8am, open to seniors 65+, pregnant women, disabled/handi-capable, & folks with compromised immune systems",,"https://99only.com/home","33.847483","-118.117015"
"99 Cents Store","11732 SOUTH ST","ARTESIA","CA","90701","Tuesday & Thursdays, 7am - 8am, open to seniors 65+, pregnant women, disabled/handi-capable, & folks with compromised immune systems",,"https://99only.com/home","33.857864","-118.08364"
"99 Cents Store","955 W. SEPULVEDA BLVD","HARBOR CITY","CA","90502","Tuesday & Thursdays, 7am - 8am, open to seniors 65+, pregnant women, disabled/handi-capable, & folks with compromised immune systems",,"https://99only.com/home","33.811061","-118.291816"
"99 Cents Store","1851 WILLOW ST","LONG BEACH","CA","90755","Tuesday & Thursdays, 7am - 8am, open to seniors 65+, pregnant women, disabled/handi-capable, & folks with compromised immune systems",,"https://99only.com/home","33.804981","-118.169255"
"99 Cents Store","19033 E. COLIMA RD","ROWLAND HEIGHTS","CA","91748","Tuesday & Thursdays, 7am - 8am, open to seniors 65+, pregnant women, disabled/handi-capable, & folks with compromised immune systems",,"https://99only.com/home","33.987642","-117.888491"
"99 Cents Store","12125 CARSON BLVD","HAWAIIAN GARDENS","CA","90716","Tuesday & Thursdays, 7am - 8am, open to seniors 65+, pregnant women, disabled/handi-capable, & folks with compromised immune systems",,"https://99only.com/home","33.832076","-118.073417"
"99 Cents Store","2159 PACIFIC COAST HWY","LOMITA","CA","90717","Tuesday & Thursdays, 7am - 8am, open to seniors 65+, pregnant women, disabled/handi-capable, & folks with compromised immune systems",,"https://99only.com/home","33.790161","-118.319194"
"99 Cents Store","2012 LONG BEACH BLVD","LONG BEACH","CA","90806","Tuesday & Thursdays, 7am - 8am, open to seniors 65+, pregnant women, disabled/handi-capable, & folks with compromised immune systems",,"https://99only.com/home","33.794561","-118.188745"
"99 Cents Store","401 W ANAHEIM ST","WILMINGTON","CA","90744","Tuesday & Thursdays, 7am - 8am, open to seniors 65+, pregnant women, disabled/handi-capable, & folks with compromised immune systems",,"https://99only.com/home","33.77993","-118.26674"
"99 Cents Store","602 W. ARROW HWY","SAN DIMAS","CA","91773","Tuesday & Thursdays, 7am - 8am, open to seniors 65+, pregnant women, disabled/handi-capable, & folks with compromised immune systems",,"https://99only.com/home","34.10458","-117.818183"
"99 Cents Store","1504 FOOTHILL BLVD","LA VERNE","CA","91750","Tuesday & Thursdays, 7am - 8am, open to seniors 65+, pregnant women, disabled/handi-capable, & folks with compromised immune systems",,"https://99only.com/home","34.11586","-117.774547"
"99 Cents Store","938 S. GAFFEY ST","SAN PEDRO","CA","90731","Tuesday & Thursdays, 7am - 8am, open to seniors 65+, pregnant women, disabled/handi-capable, & folks with compromised immune systems",,"https://99only.com/home","33.73536","-118.29219"
"99 Cents Store","38360-B 20TH ST E","PALMDALE","CA","93550","Tuesday & Thursdays, 7am - 8am, open to seniors 65+, pregnant women, disabled/handi-capable, & folks with compromised immune systems",,"https://99only.com/home","34.577958","-118.093919"
"99 Cents Store","442 W. AVE. P","PALMDALE","CA","93550","Tuesday & Thursdays, 7am - 8am, open to seniors 65+, pregnant women, disabled/handi-capable, & folks with compromised immune systems",,"https://99only.com/home","34.557807","-118.138483"
"99 Cents Store","602 E. ARROW HWY","POMONA","CA","91767","Tuesday & Thursdays, 7am - 8am, open to seniors 65+, pregnant women, disabled/handi-capable, & folks with compromised immune systems",,"https://99only.com/home","34.089865","-117.739079"
"99 Cents Store","606 E. HOLT AVE","POMONA","CA","91767","Tuesday & Thursdays, 7am - 8am, open to seniors 65+, pregnant women, disabled/handi-capable, & folks with compromised immune systems",,"https://99only.com/home","34.061789","-117.73899"
"Albertsons","2035 Hillhurst Ave","Los Angeles","CA","90027","“Seniors Only” shopping times on Tuesdays and Thursdays from 7 AM to 9 AM","(323) 660-0687","https://www.albertsons.com/","34.108647","-118.287588"
"Albertsons","2400 W Commonwealth Ave","Alhambra","CA","91803","“Seniors Only” shopping times on Tuesdays and Thursdays from 7 AM to 9 AM","(626) 293-7100","https://www.albertsons.com/","34.08694","-118.149958"
"Albertsons","3901 Crenshaw Blvd","Los Angeles","CA","90008","“Seniors Only” shopping times on Tuesdays and Thursdays from 7 AM to 9 AM","(323) 295-1919","https://www.albertsons.com/","34.014457","-118.334882"
"Albertsons","2469 Via Campo St","Montebello","CA","90640","“Seniors Only” shopping times on Tuesdays and Thursdays from 7 AM to 9 AM","(323) 888-2250","https://www.albertsons.com/","34.032628","-118.123387"
"Albertsons","7676 Firestone Blvd","Downey","CA","9024","“Seniors Only” shopping times on Tuesdays and Thursdays from 7 AM to 9 AM","(562) 869-9670","https://www.albertsons.com/","33.945267","-118.143997"
"Albertsons","1735 W Artesia Blvd","Gardena","CA","9024","“Seniors Only” shopping times on Tuesdays and Thursdays from 7 AM to 9 AM","(310) 380-4620","https://www.albertsons.com/","33.874121","-118.308077"
"Albertsons","6240 Foothill Blvd","Tujunga","CA","91042","“Seniors Only” shopping times on Tuesdays and Thursdays from 7 AM to 9 AM","(818) 248-2745","https://www.albertsons.com/","34.240925","-118.267272"
"Albertsons","298 E Live Oak Ave","Arcadia","CA","9100","“Seniors Only” shopping times on Tuesdays and Thursdays from 7 AM to 9 AM","(626) 446-1416","https://www.albertsons.com/","34.107609","-118.023469"
"Albertsons","110 E Carson St","Carson","CA","90745","“Seniors Only” shopping times on Tuesdays and Thursdays from 7 AM to 9 AM","(310) 835-6402","https://www.albertsons.com/","33.830891","-118.27637"
"Albertsons","5015 Del Amo Blvd","Lakewood","CA","90712","“Seniors Only” shopping times on Tuesdays and Thursdays from 7 AM to 9 AM","(562) 634-0405","https://www.albertsons.com/","33.847676","-118.134267"
"Albertsons","200 E Sepulveda Blvd","Carson","CA","90745","“Seniors Only” shopping times on Tuesdays and Thursdays from 7 AM to 9 AM","(310) 513-1900","https://www.albertsons.com/","33.806573","-118.272515"
"Albertsons","15200 Rosecrans Ave","La Mirada","CA","90638","“Seniors Only” shopping times on Tuesdays and Thursdays from 7 AM to 9 AM","(714) 521-2310","https://www.albertsons.com/","33.897476","-118.007778"
"Albertsons","101 E Willow St","Long Beach","CA","90806","“Seniors Only” shopping times on Tuesdays and Thursdays from 7 AM to 9 AM","(562) 988-8785","https://www.albertsons.com/","33.805316","-118.192328"
"Albertsons","9022 Balboa Blvd","Northridge","CA","91325","“Seniors Only” shopping times on Tuesdays and Thursdays from 7 AM to 9 AM","(818) 894-6415","https://www.albertsons.com/","34.234398","-118.502398"
"Albertsons","28090 S Western Ave","San Pedro","CA","90732","“Seniors Only” shopping times on Tuesdays and Thursdays from 7 AM to 9 AM","(310) 831-1323","https://www.albertsons.com/","33.76533","-118.31014"
"Albertsons","19307 Saticoy St","Reseda","CA","91335","“Seniors Only” shopping times on Tuesdays and Thursdays from 7 AM to 9 AM","(818) 772-0010","https://www.albertsons.com/","34.208508","-118.554349"
"Albertsons","133 W Route 66","Glendora","CA","91740","“Seniors Only” shopping times on Tuesdays and Thursdays from 7 AM to 9 AM","(626) 963-5358","https://www.albertsons.com/","34.129732","-117.865052"
"Walmart","4651 Firestone Blvd","South Gate","CA","90280","March 24 to April 28; Senior shopping hour (before store opens) every Tuesday for customers age 60 and older who may be more vulnerable.","(323) 282-4800","https://www.walmart.com/","33.952537","-118.187763"
"Walmart","1827 Walnut Grove Ave","Rosemead","CA","91770","March 24 to April 28; Senior shopping hour (before store opens) every Tuesday for customers age 60 and older who may be more vulnerable.","(626) 307-1010","https://www.walmart.com/","34.050963","-118.082068"
"Walmart","8500 Washington Blvd","Pico Rivera","CA","90660","March 24 to April 28; Senior shopping hour (before store opens) every Tuesday for customers age 60 and older who may be more vulnerable.","(562) 801-2413","https://www.walmart.com/","33.985433","-118.104507"
"Walmart","2100 N Long Beach Blvd","Compton","CA","90221","March 24 to April 28; Senior shopping hour (before store opens) every Tuesday for customers age 60 and older who may be more vulnerable.","(562) 295-3870","https://www.walmart.com/","33.910074","-118.20778"
"Walmart","12270 Paramount Blvd","Downey","CA","90242","March 24 to April 28; Senior shopping hour (before store opens) every Tuesday for customers age 60 and older who may be more vulnerable.","(562) 622-4891","https://www.walmart.com/","33.928124","-118.148703"
"Walmart","1301 N Victory Pl","Burbank","CA","91506","March 24 to April 28; Senior shopping hour (before store opens) every Tuesday for customers age 60 and older who may be more vulnerable.","(747) 261-7243","https://www.walmart.com/","34.188375","-118.325744"
"Walmart","9001 Apollo Way","Downey","CA","90242","March 24 to April 28; Senior shopping hour (before store opens) every Tuesday for customers age 60 and older who may be more vulnerable.","(562) 803-3507","https://www.walmart.com/","34.060552","-117.948984"
"Walmart","14501 Lakewood Blvd","Paramount","CA","90723","March 24 to April 28; Senior shopping hour (before store opens) every Tuesday for customers age 60 and older who may be more vulnerable.","(562) 531-8240","https://www.walmart.com/","33.901987","-118.144519"
"Walmart","14441 Inglewood Ave","Hawthorne","CA","90250","March 24 to April 28; Senior shopping hour (before store opens) every Tuesday for customers age 60 and older who may be more vulnerable.","(424) 336-2212","https://www.walmart.com/","33.901646","-118.361416"
"Walmart","13310 Telegraph Rd","Santa Fe Springs","CA","90670","March 24 to April 28; Senior shopping hour (before store opens) every Tuesday for customers age 60 and older who may be more vulnerable.","(562) 946-6343","https://www.walmart.com/","33.940168","-118.046945"
"Walmart","19503 Normandie Ave","Torrance","CA","90501","March 24 to April 28; Senior shopping hour (before store opens) every Tuesday for customers age 60 and older who may be more vulnerable.","(310) 782-6022","https://www.walmart.com/","33.854065","-118.299217"
"Walmart","20226 Avalon Blvd.","Carson","CA","90746","March 24 to April 28; Senior shopping hour (before store opens) every Tuesday for customers age 60 and older who may be more vulnerable.","(424) 233-3317","https://www.walmart.com/","33.84838","-118.26374"
"Walmart","3705 E South St","Long Beach","CA","90712","March 24 to April 28; Senior shopping hour (before store opens) every Tuesday for customers age 60 and older who may be more vulnerable.","(424) 296-6525","https://www.walmart.com/","33.861211","-118.147987"
"Walmart","19340 Hawthorne Blvd","Torrance","CA","90503","March 24 to April 28; Senior shopping hour (before store opens) every Tuesday for customers age 60 and older who may be more vulnerable.","(310) 750-1983","https://www.walmart.com/","33.855295","-118.35346"
"Walmart","1600 Mountain Ave","Duarte","CA","91010","March 24 to April 28; Senior shopping hour (before store opens) every Tuesday for customers age 60 and older who may be more vulnerable.","(626) 359-7708","https://www.walmart.com/","34.135166","-117.986324"
"Walmart","14865 Telegraph Road","La Mirada","CA","90638","March 24 to April 28; Senior shopping hour (before store opens) every Tuesday for customers age 60 and older who may be more vulnerable.","(562) 567-6488","https://www.walmart.com/","33.918577","-118.013619"
"Walmart","2770 Carson St","Lakewood","CA","90712","March 24 to April 28; Senior shopping hour (before store opens) every Tuesday for customers age 60 and older who may be more vulnerable.","(562) 429-6239","https://www.walmart.com/","33.830377","-118.158544"
"Walmart","3250 Big Dalton Ave","Baldwin Park","CA","91706","March 24 to April 28; Senior shopping hour (before store opens) every Tuesday for customers age 60 and older who may be more vulnerable.","(626) 814-2235","https://www.walmart.com/","34.072828","-117.963367"
"Walmart","12701 Towne Center Dr","Cerritos","CA","90703","March 24 to April 28; Senior shopping hour (before store opens) every Tuesday for customers age 60 and older who may be more vulnerable.","(562) 924-1468","https://www.walmart.com/","33.872487","-118.061813"
"Walmart","8333 Van Nuys Blvd","Panorama City","CA","91402","March 24 to April 28; Senior shopping hour (before store opens) every Tuesday for customers age 60 and older who may be more vulnerable.","(818) 830-0350","https://www.walmart.com/","34.222359","-118.448963"
"Walmart","22015 Hawthorne Blvd","Torrance","CA","90503","March 24 to April 28; Senior shopping hour (before store opens) every Tuesday for customers age 60 and older who may be more vulnerable.","(310) 750-0179","https://www.walmart.com/","33.827838","-118.353028"
"Walmart","1425 N Hacienda Blvd","La Puente","CA","91744","March 24 to April 28; Senior shopping hour (before store opens) every Tuesday for customers age 60 and older who may be more vulnerable.","(626) 251-1877","https://www.walmart.com/","34.046129","-117.948894"
"Walmart","14530 Nordhoff St","Panorama City","CA","91402","March 24 to April 28; Senior shopping hour (before store opens) every Tuesday for customers age 60 and older who may be more vulnerable.","(818) 672-0142","https://www.walmart.com/","34.235237","-118.448609"
"Walmart","7250 Carson Blvd","Long Beach","CA","90808","March 24 to April 28; Senior shopping hour (before store opens) every Tuesday for customers age 60 and older who may be more vulnerable.","(562) 425-5113","https://www.walmart.com/","33.829541","-118.090738"
"Walmart","17150 Gale Ave","City Of Industry","CA","91745","March 24 to April 28; Senior shopping hour (before store opens) every Tuesday for customers age 60 and older who may be more vulnerable.","(626) 854-1166","https://www.walmart.com/","33.9989","-117.932135"
"Walmart","1275 N Azusa Ave","Covina","CA","91722","March 24 to April 28; Senior shopping hour (before store opens) every Tuesday for customers age 60 and older who may be more vulnerable.","(626) 339-4161","https://www.walmart.com/","34.103322","-117.909318"
"Walmart","2753 E. Eastland Center Dr, Ste 5555","West Covina","CA","91791","March 24 to April 28; Senior shopping hour (before store opens) every Tuesday for customers age 60 and older who may be more vulnerable.","(626) 332-4608","https://www.walmart.com/","34.073684","-117.886077"
"Walmart","6433 Fallbrook Ave","West Hills","CA","91307","March 24 to April 28; Senior shopping hour (before store opens) every Tuesday for customers age 60 and older who may be more vulnerable.","(818) 719-8602","https://www.walmart.com/","34.187118","-118.62351"
"Walmart","19821 Rinaldi St","Porter Ranch","CA","91326","March 24 to April 28; Senior shopping hour (before store opens) every Tuesday for customers age 60 and older who may be more vulnerable.","(818) 832-0643","https://www.walmart.com/","34.275484","-118.566257"
"Walmart","1950 Auto Center Drive","Glendora","CA","91740","March 24 to April 28; Senior shopping hour (before store opens) every Tuesday for customers age 60 and older who may be more vulnerable.","(909) 592-4866","https://www.walmart.com/","34.116658","-117.826863"
"Walmart","1180 South Diamond Bar Blvd.","Diamond Bar","CA","91765","March 24 to April 28; Senior shopping hour (before store opens) every Tuesday for customers age 60 and older who may be more vulnerable.","(909) 378-4055","https://www.walmart.com/","34.001192","-117.810618"
"Walmart","80 Rio Rancho Rd","Pomona","CA","91766","March 24 to April 28; Senior shopping hour (before store opens) every Tuesday for customers age 60 and older who may be more vulnerable.","(909) 620-4602","https://www.walmart.com/","34.029729","-117.758085"
"Walmart","778 E Arrow Hwy","Pomona","CA","91767","March 24 to April 28; Senior shopping hour (before store opens) every Tuesday for customers age 60 and older who may be more vulnerable.","(909) 962-5011","https://www.walmart.com/","34.089942","-117.73712"
"Walmart","26471 Carl Boyer Dr","Santa Clarita","CA","91350","March 24 to April 28; Senior shopping hour (before store opens) every Tuesday for customers age 60 and older who may be more vulnerable.","(661) 259-0863","https://www.walmart.com/","34.413768","-118.506311"
"Vons","1342 N Alvarado St","Los Angeles","CA","90026","“Seniors Only” shopping times on Tuesdays and Thursdays from 7 AM to 9 AM.","(213) 483-5573","https://www.vons.com/","34.08014","-118.26167"
"Vons","3461 W 3rd St","Los Angeles","CA","90020","“Seniors Only” shopping times on Tuesdays and Thursdays from 7 AM to 9 AM.","(213) 384-6552","https://www.vons.com/","34.06921","-118.29112"
"Vons","4520 Sunset Blvd","Los Angeles","CA","90027","“Seniors Only” shopping times on Tuesdays and Thursdays from 7 AM to 9 AM.","(323) 662-8107","https://www.vons.com/","34.098012","-118.287842"
"Vons","311 W Los Feliz Blvd","Glendale","CA","91204","“Seniors Only” shopping times on Tuesdays and Thursdays from 7 AM to 9 AM.","(818) 246-8189","https://www.vons.com/","34.128816","-118.257989"
"Vons","7311 N Figueroa St","Los Angeles","CA","90041","“Seniors Only” shopping times on Tuesdays and Thursdays from 7 AM to 9 AM.","(323) 254-5716","https://www.vons.com/","34.13623","-118.18853"
"Vons","1129 S Fair Oaks Ave","South Pasadena","CA","91030","“Seniors Only” shopping times on Tuesdays and Thursdays from 7 AM to 9 AM.","(626) 441-3898","https://www.vons.com/","34.112889","-118.151075"
"Vons","1430 S Fairfax Ave","Los Angeles","CA","90019","“Seniors Only” shopping times on Tuesdays and Thursdays from 7 AM to 9 AM.","(323) 939-9335","https://www.vons.com/","34.05038","-118.36661"
"Vons","561 N Glendale Ave","Glendale","CA","91206","“Seniors Only” shopping times on Tuesdays and Thursdays from 7 AM to 9 AM.","(818) 242-5926","https://www.vons.com/","34.154513","-118.243044"
"Vons","155 California Blvd","Pasadena","CA","91105","“Seniors Only” shopping times on Tuesdays and Thursdays from 7 AM to 9 AM.","(626) 577-7149","https://www.vons.com/","34.136458","-118.153495"
"Vons","804 Beverly Blvd","Montebello","CA","90640","“Seniors Only” shopping times on Tuesdays and Thursdays from 7 AM to 9 AM.","(323) 722-1706","https://www.vons.com/","34.017298","-118.105998"
"Vons","500 E Manchester Blvd","Inglewood","CA","90301","“Seniors Only” shopping times on Tuesdays and Thursdays from 7 AM to 9 AM.","(310) 677-0286","https://www.vons.com/","33.960283","-118.349165"
"Vons","9860 National Blvd","Los Angeles","CA","90034","“Seniors Only” shopping times on Tuesdays and Thursdays from 7 AM to 9 AM.","(310) 836-4161","https://www.vons.com/","34.030708","-118.401697"
"Vons","301 N Pass Ave","Burbank","CA","91505","“Seniors Only” shopping times on Tuesdays and Thursdays from 7 AM to 9 AM.","(818) 848-9542","https://www.vons.com/","34.154804","-118.346288"
"Trader Joe's","613 Mission St","South Pasadena","CA","91030","8AM - 9AM: Open to our senior customers (age 60 and over) and customers with disabilities who may need extra assistance","626-441-6263","https://www.traderjoes.com/","34.115388","-118.162917"
"Trader Joe's","610 S Arroyo Pkwy","Pasadena","CA","91105","8AM - 9AM: Open to our senior customers (age 60 and over) and customers with disabilities who may need extra assistance","626-568-9254","https://www.traderjoes.com/","34.135176","-118.146918"
"Trader Joe's","345 S Lake Ave","Pasadena","CA","91101","8AM - 9AM: Open to our senior customers (age 60 and over) and customers with disabilities who may need extra assistance","626-395-9553","https://www.traderjoes.com/","34.139916","-118.13314"
"Trader Joe's","3035 E Huntington Dr","Pasadena","CA","91107","8AM - 9AM: Open to our senior customers (age 60 and over) and customers with disabilities who may need extra assistance","626-356-2963","https://www.traderjoes.com/","34.12773","-118.089599"
"Trader Joe's","1566 Colorado Blvd","Eagle Rock","CA","90041","8AM - 9AM: Open to our senior customers (age 60 and over) and customers with disabilities who may need extra assistance","323-257-6422","https://www.traderjoes.com/","34.13932","-118.20035"
"Trader Joe's","467 N Rosemead Blvd","Pasadena","CA","91107","8AM - 9AM: Open to our senior customers (age 60 and over) and customers with disabilities who may need extra assistance","626-351-3399","https://www.traderjoes.com/","34.15374","-118.078194"
"Trader Joe's","2738 Hyperion Ave","Los Angeles","CA","90027","8AM - 9AM: Open to our senior customers (age 60 and over) and customers with disabilities who may need extra assistance","323-665-6774","https://www.traderjoes.com/","34.107669","-118.271787"
"Trader Joe's","3131 S Hoover Street","Los Angeles","CA","90089","8AM - 9AM: Open to our senior customers (age 60 and over) and customers with disabilities who may need extra assistance","213-749-1497","https://www.traderjoes.com/","34.02605","-118.28472"
"Trader Joe's","103 E Glenoaks Blvd","Glendale","CA","91207","8AM - 9AM: Open to our senior customers (age 60 and over) and customers with disabilities who may need extra assistance","818-507-8192","https://www.traderjoes.com/","34.159338","-118.25507"
"Trader Joe's","604 W Huntington Dr","Monrovia","CA","91016","8AM - 9AM: Open to our senior customers (age 60 and over) and customers with disabilities who may need extra assistance","626-358-8884","https://www.traderjoes.com/","34.140151","-118.01186"
"Trader Joe's","475 Foothill Blvd","La Canada","CA","91011","8AM - 9AM: Open to our senior customers (age 60 and over) and customers with disabilities who may need extra assistance","818-790-6373","https://www.traderjoes.com/","34.199791","-118.188611"
"Trader Joe's","1600 N Vine St","Los Angeles","CA","90028","8AM - 9AM: Open to our senior customers (age 60 and over) and customers with disabilities who may need extra assistance","323-856-0689","https://www.traderjoes.com/","34.1","-118.32647"
"Trader Joe's","2462 Honolulu Ave","Montrose","CA","91020","8AM - 9AM: Open to our senior customers (age 60 and over) and customers with disabilities who may need extra assistance","818-957-3613","https://www.traderjoes.com/","34.20651","-118.23123"
"Trader Joe's","263 S La Brea Ave","Los Angeles","CA","90036","8AM - 9AM: Open to our senior customers (age 60 and over) and customers with disabilities who may need extra assistance","323-965-1989","https://www.traderjoes.com/","34.06925","-118.34422"
"Trader Joe's","214 E Alameda Ave","Burbank","CA","91502","8AM - 9AM: Open to our senior customers (age 60 and over) and customers with disabilities who may need extra assistance","818-848-4299","https://www.traderjoes.com/","34.184225","-118.297721"
"Trader Joe's","15025 E Whittier Blvd","Whittier","CA","90603","8AM - 9AM: Open to our senior customers (age 60 and over) and customers with disabilities who may need extra assistance","562-698-1642","https://www.traderjoes.com/","33.949153","-118.005551"
"Trader Joe's","7310 Santa Monica Blvd","West Hollywood","CA","90046","8AM - 9AM: Open to our senior customers (age 60 and over) and customers with disabilities who may need extra assistance","323-969-8048","https://www.traderjoes.com/","34.090907","-118.352077"
"Trader Joe's","175 South Fairfax Ave","Los Angeles","CA","90036","8AM - 9AM: Open to our senior customers (age 60 and over) and customers with disabilities who may need extra assistance","323-931-4012","https://www.traderjoes.com/","34.072","-118.36164"
"Trader Joe's","8000 W Sunset Blvd","Los Angeles","CA","90046","8AM - 9AM: Open to our senior customers (age 60 and over) and customers with disabilities who may need extra assistance","323-822-7663","https://www.traderjoes.com/","34.09783","-118.36466"
"Trader Joe's","10130 Riverside Dr","Toluca Lake","CA","91602","8AM - 9AM: Open to our senior customers (age 60 and over) and customers with disabilities who may need extra assistance","818-762-2787","https://www.traderjoes.com/","34.151963","-118.351806"
"Trader Joe's","8500 Burton Way","Los Angeles","CA","90048","8AM - 9AM: Open to our senior customers (age 60 and over) and customers with disabilities who may need extra assistance","310-248-2984","https://www.traderjoes.com/","34.071018","-118.376669"
"Trader Joe's","8611 Santa Monica Blvd","West Hollywood","CA","90069","8AM - 9AM: Open to our senior customers (age 60 and over) and customers with disabilities who may need extra assistance","310-657-0152","https://www.traderjoes.com/","34.08912","-118.377805"
"Trader Joe's","9290 Culver Blvd","Culver City","CA","90232","8AM - 9AM: Open to our senior customers (age 60 and over) and customers with disabilities who may need extra assistance","310-202-1108","https://www.traderjoes.com/","34.025265","-118.393005"
"Trader Joe's","12861 Towne Center Dr","Cerritos","CA","90703","8AM - 9AM: Open to our senior customers (age 60 and over) and customers with disabilities who may need extra assistance","562-402-5148","https://www.traderjoes.com/","33.869176","-118.057969"
"Trader Joe's","11976 Ventura Blvd","Studio City","CA","91604","8AM - 9AM: Open to our senior customers (age 60 and over) and customers with disabilities who may need extra assistance","818-509-0168","https://www.traderjoes.com/","34.143412","-118.392915"
"Trader Joe's","6150 Slauson Ave","Culver City","CA","90230","8AM - 9AM: Open to our senior customers (age 60 and over) and customers with disabilities who may need extra assistance","310-313-0441","https://www.traderjoes.com/","33.988048","-118.392912"
"Trader Joe's","10850 National Blvd","Los Angeles","CA","90064","8AM - 9AM: Open to our senior customers (age 60 and over) and customers with disabilities who may need extra assistance","310-470-1917","https://www.traderjoes.com/","34.030182","-118.42141"
"Trader Joe's","3456 S Sepulveda Blvd","Los Angeles","CA","90034","8AM - 9AM: Open to our senior customers (age 60 and over) and customers with disabilities who may need extra assistance","310-836-2458","https://www.traderjoes.com/","34.0202","-118.42274"
"Trader Joe's","8645 S Sepulveda","Westchester","CA","90045","8AM - 9AM: Open to our senior customers (age 60 and over) and customers with disabilities who may need extra assistance","310-338-9238","https://www.traderjoes.com/","33.95857","-118.39645"
"Costco","2901 LOS FELIZ BLVD","LOS ANGELES","CA","90039","8 to 9 a.m. Tuesday through Thursday for members ages 60 and older, and for those with physical impairments","(323) 644-5201","https://www.costco.com/","34.127743","-118.263336"
"Costco","2207 W COMMONWEALTH AVE","ALHAMBRA","CA","91803","8 to 9 a.m. Tuesday through Thursday for members ages 60 and older, and for those with physical impairments","(626) 289-7164","https://www.costco.com/","34.089516","-118.14853"
"Costco","6333 TELEGRAPH RD","COMMERCE","CA","90040","8 to 9 a.m. Tuesday through Thursday for members ages 60 and older, and for those with physical impairments","(323) 767-2640","https://www.costco.com/","33.994163","-118.142886"
"Costco","2000 MARKET PLACE DR","MONTEREY PARK","CA","91755","8 to 9 a.m. Tuesday through Thursday for members ages 60 and older, and for those with physical impairments","(323) 890-1904","https://www.costco.com/","34.03732","-118.104648"
"Costco","3560 W CENTURY BLVD","INGLEWOOD","CA","90303","8 to 9 a.m. Tuesday through Thursday for members ages 60 and older, and for those with physical impairments","(310) 242-2777","https://www.costco.com/","33.945315","-118.334357"
"Costco","1051 W BURBANK BLVD","BURBANK","CA","91506","8 to 9 a.m. Tuesday through Thursday for members ages 60 and older, and for those with physical impairments","(818) 557-3783","https://www.costco.com/","34.185739","-118.324045"
"Costco","12530 PRAIRIE AVE","HAWTHORNE","CA","90250","8 to 9 a.m. Tuesday through Thursday for members ages 60 and older, and for those with physical impairments","(310) 220-8826","https://www.costco.com/","33.918618","-118.342576"
"Costco","12324 HOXIE AVE","NORWALK","CA","90650","8 to 9 a.m. Tuesday through Thursday for members ages 60 and older, and for those with physical impairments","(562) 929-0826","https://www.costco.com/","33.919959","-118.102519"
"Costco","13463 WASHINGTON BLVD","MARINA DEL REY","CA","90292","8 to 9 a.m. Tuesday through Thursday for members ages 60 and older, and for those with physical impairments","(310) 754-2003","https://www.costco.com/","33.992608","-118.447078"
"Costco","11428 SHERMAN WAY","NORTH HOLLYWOOD","CA","91605","8 to 9 a.m. Tuesday through Thursday for members ages 60 and older, and for those with physical impairments","(818) 423-7082","https://www.costco.com/","34.201033","-118.379832"
"Costco","14501 HINDRY AVENUE","HAWTHORNE","CA","90250","8 to 9 a.m. Tuesday through Thursday for members ages 60 and older, and for those with physical impairments","(310) 727-0403","https://www.costco.com/","33.898805","-118.372745"
"Costco","340 LAKEWOOD CENTER MALL","LAKEWOOD","CA","90712","8 to 9 a.m. Tuesday through Thursday for members ages 60 and older, and for those with physical impairments","(562) 295-1508","https://www.costco.com/","33.850461","-118.137573"
"Costco","6100 SEPULVEDA BLVD","VAN NUYS","CA","91411","8 to 9 a.m. Tuesday through Thursday for members ages 60 and older, and for those with physical impairments","(818) 989-5132","https://www.costco.com/","34.180736","-118.465918"
"Costco","2640 LOMITA BLVD","TORRANCE","CA","90505","8 to 9 a.m. Tuesday through Thursday for members ages 60 and older, and for those with physical impairments","(310) 891-1020","https://www.costco.com/","33.808264","-118.333525"
"Costco","2200 E WILLOW ST","SIGNAL HILL","CA","90755","8 to 9 a.m. Tuesday through Thursday for members ages 60 and older, and for those with physical impairments","(562) 427-2537","https://www.costco.com/","33.803396","-118.164887"
"Costco","13550 PAXTON ST","PACOIMA","CA","91331","8 to 9 a.m. Tuesday through Thursday for members ages 60 and older, and for those with physical impairments","(818) 272-2700","https://www.costco.com/","34.27276","-118.427634"
"Costco","17550 CASTLETON ST","CITY OF INDUSTRY","CA","91748","8 to 9 a.m. Tuesday through Thursday for members ages 60 and older, and for those with physical impairments","(626) 839-3053","https://www.costco.com/","33.994075","-117.922"
"Costco","1220 W FOOTHILL BLVD","AZUSA","CA","91702","8 to 9 a.m. Tuesday through Thursday for members ages 60 and older, and for those with physical impairments","(626) 812-7911","https://www.costco.com/","34.131982","-117.925681"
"Costco","8810 TAMPA AVE","NORTHRIDGE","CA","91324","8 to 9 a.m. Tuesday through Thursday for members ages 60 and older, and for those with physical impairments","(818) 775-1860","https://www.costco.com/","34.230202","-118.552528"
"Costco","21800 VICTORY BLVD","WOODLAND HILLS","CA","91367","8 to 9 a.m. Tuesday through Thursday for members ages 60 and older, and for those with physical impairments","(818) 884-9099","https://www.costco.com/","34.187257","-118.602729"
"Costco","520 N LONE HILL AVE","SAN DIMAS","CA","91773","8 to 9 a.m. Tuesday through Thursday for members ages 60 and older, and for those with physical impairments","(909) 962-5507","https://www.costco.com/","34.111898","-117.828618"
"Costco","18649 VIA PRINCESSA","SANTA CLARITA","CA","91387","8 to 9 a.m. Tuesday through Thursday for members ages 60 and older, and for those with physical impairments","(661) 250-2818","https://www.costco.com/","34.40441","-118.460719"
"Costco","1141 W AVENUE L","LANCASTER","CA","93534","8 to 9 a.m. Tuesday through Thursday for members ages 60 and older, and for those with physical impairments","(661) 802-4470","https://www.costco.com/","34.704308","-118.150962"
"Aldi","2246 N. Lake Ave Unit B","Altadena","CA","91001","8:30 AM - 9:30 AM on Tuesdays and Thursdays for vulnerable shoppers","626-249-4747","https://www.aldi.us/en/","34.184285","-118.131413"
"Aldi","1403 S Baldwin Ave","Arcadia","CA","91007","8:30 AM - 9:30 AM on Tuesdays and Thursdays for vulnerable shoppers","626-461-3200","https://www.aldi.us/en/","34.124025","-118.055126"
"Aldi","731 E Huntington Dr","Monrovia","CA","91016","8:30 AM - 9:30 AM on Tuesdays and Thursdays for vulnerable shoppers","619-796-4973","https://www.aldi.us/en/","34.140608","-117.990045"
"Aldi","2121 W Main St Ste 100","Alhambra","CA","91801","8:30 AM - 9:30 AM on Tuesdays and Thursdays for vulnerable shoppers","626-537-9179","https://www.aldi.us/en/","34.092285","-118.145749"
"Aldi","1400 N Azusa Ave","Covina","CA","91722","8:30 AM - 9:30 AM on Tuesdays and Thursdays for vulnerable shoppers","626-412-0459","https://www.aldi.us/en/","34.104658","-117.90725"
"Aldi","1545 N Hacienda Blvd","La Puente","CA","91744","8:30 AM - 9:30 AM on Tuesdays and Thursdays for vulnerable shoppers","626-689-4336","https://www.aldi.us/en/","34.047998","-117.947486"
"Aldi","8950 Washington Blvd","Pico Rivera","CA","90605","8:30 AM - 9:30 AM on Tuesdays and Thursdays for vulnerable shoppers","559-853-4690","https://www.aldi.us/en/","33.983302","-118.098158"
"Aldi","1251 S Lone Hill Ave","Glendora","CA","91740","8:30 AM - 9:30 AM on Tuesdays and Thursdays for vulnerable shoppers","909-294-3915","https://www.aldi.us/en/","34.117198","-117.828687"
"Aldi","5830 Firestone Blvd","South Gate","CA","90280","8:30 AM - 9:30 AM on Tuesdays and Thursdays for vulnerable shoppers","562-367-7391","https://www.aldi.us/en/","33.948854","-118.163668"
"Aldi","13210 Telegraph Rd","Santa Fe Springs","CA","90670","8:30 AM - 9:30 AM on Tuesdays and Thursdays for vulnerable shoppers","562-222-4233","https://www.aldi.us/en/","33.940609","-118.050917"
"Aldi","21555 Valley Blvd","Walnut","CA","91789","8:30 AM - 9:30 AM on Tuesdays and Thursdays for vulnerable shoppers","(855) 955-2534","https://www.aldi.us/en/","34.026699","-117.837315"
"Aldi","15535 Whittier Blvd","Whittier","CA","90603","8:30 AM - 9:30 AM on Tuesdays and Thursdays for vulnerable shoppers","562-453-3624","https://www.aldi.us/en/","33.945665","-117.99671"
"Aldi","11215 Lakewood Blvd","Downey","CA","90241","8:30 AM - 9:30 AM on Tuesdays and Thursdays for vulnerable shoppers","562-320-8840","https://www.aldi.us/en/","33.935216","-118.124581"
"Aldi","2268 Foothill Boulevard","La Verne","CA","91750","8:30 AM - 9:30 AM on Tuesdays and Thursdays for vulnerable shoppers","909-447-9986","https://www.aldi.us/en/","34.112131","-117.762332"
"Aldi","14626 Roscoe Blvd","Panorama City","CA","91402","8:30 AM - 9:30 AM on Tuesdays and Thursdays for vulnerable shoppers","(855) 955-2534","https://www.aldi.us/en/","34.221354","-118.450681"
"Aldi","16123 Bellflower Blvd","Bellflower","CA","90706","8:30 AM - 9:30 AM on Tuesdays and Thursdays for vulnerable shoppers","(855) 955-2534","https://www.aldi.us/en/","33.887831","-118.126064"
"Aldi","3330 W Century Blvd","Inglewood","CA","90303","8:30 AM - 9:30 AM on Tuesdays and Thursdays for vulnerable shoppers","424-789-7374","https://www.aldi.us/en/","33.945321","-118.3297"
"Aldi","203 Towne Center Drive","Compton","CA","90220","8:30 AM - 9:30 AM on Tuesdays and Thursdays for vulnerable shoppers","424-295-7220","https://www.aldi.us/en/","33.879704","-118.220526"
"Aldi","11530 South St","Cerritos","CA","90703","8:30 AM - 9:30 AM on Tuesdays and Thursdays for vulnerable shoppers","562-239-4225","https://www.aldi.us/en/","33.85734","-118.087556"
