"project_address","city","state","zip","latitude","longitude","program_types","of_programs"
"310 W 102nd & 10207/10213/10217/10223 S Broadway",,"CA","90003","33.943733700000003","-118.2781157","Bond","8"
"10202/10206/10210 S Broadway",,"CA","90003","33.943468000000003","-118.277755","Bond","7"
"13701 Marina Pointe Drive",,"CA","90292","33.985126800000003","-118.4466639","Land Use","38"
"3933 Marathon Street",,"CA","90029","34.084906699999998","-118.2857886","Land Use","5"
"2838-58 Sunset Place",,"CA","90005","34.060785600000003","-118.2856414","Land Use","102"
"831-837 S Grandview Street",,"CA","90057","34.055010299999999","-118.28080989999999","Land Use","8"
"4733 N Figueroa Street",,"CA","90042","34.101154000000001","-118.203868","Land Use","7"
"4733 N Figueroa Street",,"CA","90042","34.101154000000001","-118.203868","Bond","2"
"323-360 W 3rd Street",,"CA","90731","33.741954100000001","-118.2848925","Bond","46"
"15231 Sherman Way",,"CA","91405","34.201552399999997","-118.4649436","Land Use","5"
"6755 Rhodes Avenue",,"CA","91606","34.193680000000001","-118.4032874","Land Use","41"
"5700-5780 W Centinela Avenue",,"CA","90045","33.9758967","-118.38217760000001","Land Use","63"
"13915 W Oxnard Street",,"CA","91401","34.179999000000002","-118.436194","Land Use","9"
"4471 W Adams Boulevard",,"CA","90016","34.032908300000003","-118.33745500000001","Land Use","7"
"3845 Inglewood Boulevard",,"CA","90066","34.004918000000004","-118.428208","Land Use","12"
"3855 Inglewood Boulevard",,"CA","90066","34.0045918","-118.4279978","Land Use","14"
"3927 Inglewood Boulevard",,"CA","90066","34.003556199999998","-118.42718120000001","Land Use","14"
"3965 Inglewood Boulevard",,"CA","90066","34.002665","-118.42643","Land Use","12"
"4315 Inglewood Boulevard",,"CA","90066","33.996253400000001","-118.4206035","Land Use","14"
"1200-1270 Jefferson Boulevard",,"CA","90007","34.025348700000002","-118.29354290000001","Bond","46"
"6750 Whitsett Avenue",,"CA","91606","34.193309900000003","-118.4043911","Bond","40"
"15520 Parthenia Street",,"CA","91343","34.228111499999997","-118.470214","Land Use","4"
"3165 Sawtelle Boulevard",,"CA","90066","34.024011600000001","-118.4301633","Land Use","9"
"1450 E 1st Street",,"CA","90033","34.047104500000003","-118.2248153","Land Use","74"
"5247 E Huntington Drive N",,"CA","90032","34.090406000000002","-118.166585","Land Use","1"
"1221 W 7th Street",,"CA","90017","34.052061700000003","-118.2664137","Land Use","140"
"1221 W 7th Street",,"CA","90017","34.052061700000003","-118.2664137","Bond","56"
"716 S Carondelet Street",,"CA","90057","34.057659000000001","-118.281102","Land Use","4"
"2329 & 2405 S Corning Street",,"CA","90034","34.037695599999999","-118.38105830000001","Land Use","8"
"420 S Witmer Street",,"CA","90017","34.057372000000001","-118.264141","Land Use","9"
"460 S Burlington Avenue",,"CA","90057","34.058927599999997","-118.270291","Land Use","8"
"1370 W Allison Avenue",,"CA","90026","34.0729112","-118.2519107","Land Use","5"
"306 N Alvarado Street",,"CA","90026","34.069403299999998","-118.2682647","Land Use","7"
"2006 W Sunset Boulevard",,"CA","90026","34.077494000000002","-118.262362","Land Use","3"
"1330 S Olive Street",,"CA","90015","34.037141800000001","-118.263424","Land Use","6"
"522 W 127th Street",,"CA","90044","33.917070099999997","-118.2838103","Land Use","14"
"7800 S Figueroa Street",,"CA","90003","33.968526799999999","-118.2823904","Land Use","8"
"901 E 7th Street",,"CA","90013","34.039070299999999","-118.2442234","Major Projects","40"
"6000 De Soto Avenue",,"CA","91367","34.179017799999997","-118.5887243","Land Use","25"
"12309 W Burbank Boulevard",,"CA","91607","34.172478300000002","-118.40111229999999","Land Use","1"
"17442 W Sherman Way",,"CA","91335","34.200878299999999","-118.51351200000001","Land Use","2"
"9261 N Wakefield Avenue",,"CA","91402","34.238765999999998","-118.448661","Land Use","1"
"426 S Sepulveda Boulevard",,"CA","90046","34.066697599999998","-118.4603202","Land Use","2"
"9800-9814 S Broadway",,"CA","90003","33.947097900000003","-118.277787","Land Use","4"
"3790 Wisconsin Street",,"CA","90037","34.017180500000002","-118.2928807","Land Use","26"
"229 S Avenue 22",,"CA","90031","34.072670600000002","-118.2176662","Land Use","1"
"740 W El Segundo Boulevard",,"CA","90247","33.916255700000001","-118.2884899","Land Use","2"
"16640 W Devonshire Street",,"CA","91344","34.257169599999997","-118.4952928","Land Use","1"
"2820 S Sawtelle Boulevard",,"CA","90064","34.028003699999999","-118.4321142","Land Use","3"
"12714 Vanowen Street",,"CA","91605","34.1936453","-118.4100966","Land Use","1"
"9148 N Telfair Avenue",,"CA","91352","34.2358732","-118.395695","Land Use","5"
"900 N Beaudry Avenue",,"CA","90012","34.067318","-118.246484","Land Use","4"
"739 N Wilcox Avenue",,"CA","90038","34.084463700000001","-118.3313127","Land Use","1"
"3328 - 3342 S Oakhurst Avenue",,"CA","90034","34.030246900000002","-118.3972368","Land Use","2"
"12739 Caswell Street",,"CA","90066","33.998456400000002","-118.437383","Land Use","5"
"25218 S Senator Avenue",,"CA","90710","33.795127899999997","-118.3025434","Land Use","1"
"11115 W Aqua Vista Street",,"CA","91602","34.145325700000001","-118.3723085","Land Use","2"
"5243 Huntington Drive N",,"CA","90032","34.090375000000002","-118.166736","Land Use","5"
"207 W Imperial Highway",,"CA","90061","33.931313000000003","-118.276405","Land Use","1"
"5536 N Lindley Avenue",,"CA","91316","34.171906800000002","-118.526493","Land Use","5"
"11336 W Martha Street",,"CA","91601","34.172861300000001","-118.3780438","Land Use","1"
"1050-1055 Ingraham Street",,"CA","90017","34.051335100000003","-118.26320870000001","Land Use","32"
"8000 S Broadway Street",,"CA","90003","33.966532999999998","-118.2780745","Land Use","7"
"2537 E 3rd Street",,"CA","90033","34.040607000000001","-118.208798","NPP","5"
"234 N Lake Street",,"CA","90026","34.06897","-118.269763","Bond","6"
"730 W El Segundo Boulevard",,"CA","90247","33.916173700000002","-118.2880486","Land Use","2"
"5315 N Bellingham Avenue",,"CA","91607","34.167189999999998","-118.399579","Land Use","1"
"11049 McCormick Street",,"CA","91601","34.166150000000002","-118.37217099999999","Land Use","1"
"444-450 N Hoover Street",,"CA","90026","34.079072799999999","-118.28428510000001","Land Use","29"
"1500 N Western Avenue",,"CA","90038","34.0452321","-118.3088412","Land Use","56"
"7551 Jordan Avenue",,"CA","91303","34.207974","-118.603303","Land Use","3"
"1216 Innes Avenue",,"CA","90026","34.071120999999998","-118.24880899999999","Land Use","1"
"6136 W Eleanor Avenue",,"CA","90038","34.089573000000001","-118.325778","Land Use","2"
"5535 Westlawn Avenue",,"CA","90066","33.980091899999998","-118.4155016","Land Use","61"
"19053 Nordoff Street",,"CA","91324","37.249107500000001","-119.56464649999999","Land Use","3"
"6820 W Whitley Terrace",,"CA","90068","34.110061100000003","-118.3335249","Land Use","1"
"15155 1/2 - 15157 1/2 W Victory Boulevard",,"CA","91411","34.186915800000001","-118.4638581","Land Use","1"
"635 S Norton Avenue",,"CA","90010","34.062208499999997","-118.3169688","Land Use","2"
"10510 S Avalon",,"CA","90002","33.940584000000001","-118.26482799999999","Bond","3"
"10634 - 10648 S Central Avenue",,"CA","90002","33.939458000000002","-118.253764","Bond","3"
"10648 S Central Avenue",,"CA","90002","33.939225399999998","-118.2541427","Bond","2"
"1811 - 1815 W 36th Place",,"CA","90018","34.022148999999999","-118.31249800000001","Bond","7"
"230 W 88th Place",,"CA","90003","33.956255599999999","-118.2706079","Bond","5"
"2809 W Boulevard",,"CA","90016","34.032574799999999","-118.3405583","Bond","3"
"2818 Leeward",,"CA","90005","34.058421199999998","-118.2848429","Bond","12"
"2828 - 2834 W Boulevard",,"CA","90019","34.032823899999997","-118.3405034","Bond","8"
"3918 - 3934 3/4 La Salle",,"CA","90062","34.011601599999999","-118.30557450000001","Bond","3"
"5426 Sierra Vista",,"CA","90036","34.0891947","-118.310204","Bond","13"
"8318 - 8324 S Main Street",,"CA","90003","33.963073000000001","-118.273537","Bond","7"
"10607 Kalmia",,"CA","90002","33.939427999999999","-118.231996","Bond","2"
"1141-1145 N Westmoreland",,"CA","90029","34.092103000000002","-118.28825399999999","Bond","3"
"1145 E 24th Place",,"CA","90011","34.021404199999999","-118.2555212","Bond","3"
"1151 E 20th Street",,"CA","90011","34.024777700000001","-118.25295629999999","Bond","7"
"1317 E 23rd Street",,"CA","90011","34.020667099999997","-118.2530903","Bond","3"
"1386 E 20th Street",,"CA","90011","34.021648499999998","-118.2493729","Bond","5"
"1835 W 25th Street",,"CA","90018","34.033906199999997","-118.3042634","Bond","7"
"2521 - 2525 S Juliet",,"CA","90007","34.033093600000001","-118.295603","Bond","1"
"2607 - 2617 S Mansfield",,"CA","90016","34.032019699999999","-118.35255239999999","Bond","3"
"3035 - 3045 N Sierra Street",,"CA","90031","34.081670799999998","-118.201357","Bond","8"
"4612 W Lexington",,"CA","90029","34.093184200000003","-118.289948","Bond","9"
"4829 W Lexington",,"CA","90029","34.093628000000002","-118.294347","Bond","17"
"643-651 3/4 N Kingsley",,"CA","90004","34.083148700000002","-118.30361859999999","Bond","8"
"7219 - 7225 S San Pedro",,"CA","90003","33.973976","-118.26989","Bond","7"
"9015 N Orion Avenue",,"CA","91404","34.234135000000002","-118.472284","Land Use","3"
"14611 W Vincennes Street",,"CA","91402","34.2404729","-118.450771","Land Use","12"
"6938 N Laurel Canyon Boulevard",,"CA","91605","34.1971463","-118.3960354","Land Use","2"
"4115 Glencoe Avenue",,"CA","90292","33.989100700000002","-118.44299650000001","Land Use","3"
"6645 Etiwanda Avenue",,"CA","91335","34.191630000000004","-118.53217100000001","Land Use","5"
"1304 W 2nd Street",,"CA","90026","34.060943799999997","-118.2593851","Land Use","55"
"1109 S Kingsley Drive",,"CA","90006","34.050579999999997","-118.30343670000001","Land Use","2"
"17837 Sherman Way",,"CA","91335","34.201526999999999","-118.52211","Land Use","2"
"7105 Hazeltine Avenue",,"CA","91405","34.199562","-118.440336","Land Use","1"
"13140 N Dronfield Avenue",,"CA","91342","34.309665500000001","-118.43938850000001","Land Use","2"
"14067 W Astoria Street",,"CA","91342","34.310871200000001","-118.44020570000001","Land Use","2"
"14078 W Astoria Street",,"CA","91342","34.309950000000001","-118.43938799999999","Land Use","2"
"3325 S Canfield Avenue F",,"CA","90034","34.0304954","-118.3953295","Land Use","1"
"1508 S Veteran Avenue",,"CA","90024","34.052413600000001","-118.4427319","Land Use","4"
"3183 W Wilshire Boulevard",,"CA","90010","34.061799999999998","-118.2912","Land Use","68"
"3183 W Wilshire Boulevard",,"CA","90010","34.061799999999998","-118.2912","CRA","22"
"1117 S Westlake Avenue",,"CA","90006","34.049421000000002","-118.28027400000001","Land Use","1"
"6033 W Eleanor Street",,"CA","90038","34.090100999999997","-118.323435","Land Use","2"
"14317 W Friar Street",,"CA","91401","34.185934000000003","-118.445026","Land Use","1"
"226 N Park View Street",,"CA","90026","34.070366","-118.272164","Land Use","1"
"2529 Sichel Street",,"CA","90031","34.076318299999997","-118.2134283","Land Use","1"
"6246-6248 N Vineland Avenue",,"CA","91606","34.184304300000001","-118.3700223","Land Use","2"
"208 E 120th Street",,"CA","90061","33.923361999999997","-118.27150899999999","Land Use","5"
"4660 N Kester Avenue",,"CA","91403","34.155556500000003","-118.45675780000001","Land Use","1"
"14154 E Gilmore Street",,"CA","91401","34.187347600000003","-118.4419178","Land Use","2"
"14116 Burbank Boulevard",,"CA","91401","34.171764000000003","-118.44068300000001","Land Use","2"
"1701 Nichols Canyon Road",,"CA","90046","34.1019042","-118.3584599","Land Use","2"
"4900 S Figueroa Street",,"CA","90037","33.997968800000002","-118.2823684","Land Use","40"
"4900 S Figueroa Street",,"CA","90037","33.997968800000002","-118.2823684","Major Projects","9"
"10991 W Pico Boulevard",,"CA","90064","34.038637299999998","-118.4320838","Major Projects","22"
"12258 W Montana Avenue",,"CA","90049","34.048164999999997","-118.475048","Land Use","1"
"16601 - 16613 Foothill Boulevard",,"CA","91342","34.320549999999997","-118.4923416","Land Use","23"
"640 N Kingsley Drive",,"CA","90004","34.082908799999998","-118.3029286","Land Use","2"
"1413 1/2 W 58th Place",,"CA","90047","33.988436299999996","-118.301779","Land Use","1"
"512 Rose Avenue",,"CA","90291","33.997981000000003","-118.47331","Land Use","7"
"833-853 N Edinburgh Avenue",,"CA","90046","34.086793100000001","-118.36413829999999","Land Use","5"
"13890 W Sayre Street",,"CA","91342","34.307993000000003","-118.43555000000001","Land Use","4"
"15506 Moorpark Street",,"CA","91436","34.155881000000001","-118.4720421","Land Use","1"
"1215 S Norton Avenue",,"CA","90019","34.048993699999997","-118.3236454","Land Use","2"
"5030 Santa Monica Boulevard",,"CA","90029","34.090658300000001","-118.2988132","Major Projects","5"
"5030 Santa Monica Boulevard",,"CA","90029","34.090658300000001","-118.2988132","Land Use","50"
"5030 Santa Monica Boulevard",,"CA","90029","34.090658300000001","-118.2988132","Bond","2"
"3221 Carter Avenue",,"CA","90292","33.986546599999997","-118.44640699999999","Land Use","24"
"1616 N Vine Street",,"CA","90028","34.100104199999997","-118.32664750000001","CRA","77"
"6118 Hazeltine Avenue",,"CA","91401","34.181401999999999","-118.439612","Land Use","1"
"918 S Oxford Avenue",,"CA","90006","34.055143600000001","-118.307464","Land Use","8"
"12021 W Kling Street",,"CA","91607","34.156285799999999","-118.3952245","Land Use","1"
"1046 S Holt Avenue",,"CA","90035","34.057938","-118.377989","Land Use","1"
"18425 W Malden Street",,"CA","91325","34.225827899999999","-118.535006","Land Use","1"
"5020 N Woodman Avenue",,"CA","91423","34.161926700000002","-118.43083439999999","Land Use","1"
"3992 S Inglewood Boulevard",,"CA","90066","34.002353599999999","-118.42538879999999","Land Use","1"
"15939-15943 Victory Boulevard",,"CA","91406","34.187102000000003","-118.48074200000001","Land Use","8"
"13426 W Vanowen Street",,"CA","91401","34.193791599999997","-118.4255881","Land Use","3"
"11501 W Hatteras Street",,"CA","91601","34.176036000000003","-118.382238","Land Use","1"
"1645 Abbot Kinney Boulevard",,"CA","90291","33.989583000000003","-118.4628148","Land Use","2"
"4462 N Woodman Avenue",,"CA","91423","34.152052300000001","-118.431213","Land Use","1"
"11950 Idaho Avenue",,"CA","90025","34.039056500000001","-118.4600016","Land Use","4"
"12015 S Figueroa Street",,"CA","90061","33.9230862","-118.283107","Land Use","9"
"12015 S Figueroa Street",,"CA","90061","33.9230862","-118.283107","Major Projects","10"
"1838 S Purdue Avenue",,"CA","90025","34.041903400000002","-118.4471145","Land Use","2"
"1759 S Beloit Avenue",,"CA","90025","34.045034100000002","-118.4461445","Land Use","1"
"10620 W Whipple Street",,"CA","91602","34.147562999999998","-118.362315","Land Use","1"
"6142 W Franklin Avenue",,"CA","90028","34.105216599999999","-118.3238063","Land Use","1"
"6940 N Sepulveda Boulevard",,"CA","91405","34.196802300000002","-118.46541449999999","Land Use","8"
"13627 W Sherman Way",,"CA","91405","34.201785000000001","-118.42993300000001","Land Use","7"
"5312 E Almont Street",,"CA","90032","34.091846500000003","-118.16537270000001","Land Use","1"
"5312 E Almont Street",,"CA","90032","34.091846500000003","-118.16537270000001","CRA","11"
"9311 N Sepulveda Boulevard",,"CA","91343","34.2396283","-118.4680941","CRA","37"
"1521 W Pico Boulevard",,"CA","90015","34.044669399999997","-118.2758704","Land Use","28"
"1521 W Pico Boulevard",,"CA","90015","34.044669399999997","-118.2758704","Major Projects","2"
"137 N Soto Street",,"CA","90033","34.044854399999998","-118.2095207","CRA","41"
"8925 N Glenoaks Boulevard",,"CA","91352","34.213803499999997","-118.34935659999999","Land Use","31"
"8925 N Glenoaks Boulevard",,"CA","91352","34.213803499999997","-118.34935659999999","Major Projects","29"
"410 N Hawaiian Avenue",,"CA","90744","33.773861599999996","-118.2759061","Major Projects","48"
"14653 W Blythe Street",,"CA","91402","34.215702","-118.45263799999999","CRA","47"
"14726 W Blythe Street",,"CA","91402","34.214872700000001","-118.4538745","CRA","47"
"14726 W Blythe Street",,"CA","91402","34.214872700000001","-118.4538745","Major Projects","2"
"1614 W 39th Street",,"CA","90003","34.014424400000003","-118.30947310000001","Major Projects","2"
"10006 S Broadway",,"CA","90003","33.945246699999998","-118.2780257","Land Use","5"
"10006 S Broadway",,"CA","90003","33.945246699999998","-118.2780257","Major Projects","4"
"4900 Vineland Avenue",,"CA","91601","34.159485699999998","-118.3699498","Major Projects","39"
"4900 Vineland Avenue",,"CA","91601","34.159485699999998","-118.3699498","Bond","42"
"3000 N Verdugo Road",,"CA","90065","34.105419900000001","-118.23718340000001","Major Projects","49"
"335-337 N Juanita Avenue",,"CA","90004","34.077444999999997","-118.290846","CRA","45"
"335-337 N Juanita Avenue",,"CA","90004","34.077444999999997","-118.290846","Major Projects","3"
"130-148 S Sepulveda Boulevard",,"CA","90049","34.071767000000001","-118.464595","Land Use","5"
"7420 - 7430 S Arizona Avenue",,"CA","90045","33.973334899999998","-118.39580960000001","Land Use","2"
"17720 W Superior Street",,"CA","91325","34.246350700000001","-118.5210964","Land Use","4"
"6910 N Woodley Avenue",,"CA","91406","34.196413","-118.483272","Land Use","1"
"6941 N Hazeltine Avenue",,"CA","91405","34.197144999999999","-118.440832","Land Use","2"
"15270 W Sutton Street",,"CA","91403","34.149785399999999","-118.4665928","Land Use","1"
"21306 W Parthenia Street",,"CA","91304","34.227841400000003","-118.5953684","Land Use","2"
"11805 W Laurelwood Drive",,"CA","91604","34.140990000000002","-118.389366","Land Use","2"
"21350 W Parthenia Street",,"CA","91304","34.227843999999997","-118.596722","Land Use","1"
"9300 Maie Avenue",,"CA","90002","33.9514949","-118.2441972","CRA","129"
"11825 S Courtleigh Drive",,"CA","90066","33.998087900000002","-118.4185513","Land Use","2"
"7651 N Laurel Canyon Boulevard",,"CA","91605","34.210061199999998","-118.3967549","Land Use","1"
"13488 W Maxella Avenue",,"CA","90292","33.986041999999998","-118.4420695","Land Use","1"
"1230 S Menlo Avenue",,"CA","90006","34.047916600000001","-118.2901916","CRA","55"
"1230 S Menlo Avenue",,"CA","90006","34.047916600000001","-118.2901916","Bond","4"
"1006 E 28th Street",,"CA","90011","34.017225099999997","-118.257295","CRA","48"
"540 S Normandie Avenue",,"CA","90020","34.064136499999996","-118.29979590000001","CRA","31"
"239 & 241 W 90th Street",,"CA","90003","33.954745099999997","-118.2773366","Major Projects","3"
"11976 W Culver Boulevard",,"CA","90230","33.995452","-118.4169144","Major Projects","60"
"11976 W Culver Boulevard",,"CA","90230","33.995452","-118.4169144","Bond","63"
"5125 S Main Street",,"CA","90037","33.996121000000002","-118.274326","CRA","45"
"101 N Boyle Avenue",,"CA","90033","34.047407999999997","-118.2200024","CRA","40"
"715 Yale Street",,"CA","90012","34.061664999999998","-118.24160089999999","CRA","59"
"7238 N Canby Avenue",,"CA","91335","34.202417699999998","-118.5341217","CRA","45"
"7238 N Canby Avenue",,"CA","91335","34.202417699999998","-118.5341217","CRA","47"
"7238 N Canby Avenue",,"CA","91335","34.202417699999998","-118.5341217","Bond","5"
"336 E 106th Street",,"CA","90003","33.939932399999996","-118.2681595","Major Projects","2"
"2033 E Imperial Hwy",,"CA","90059","33.9295817","-118.23517870000001","Major Projects","10"
"105-111 W 87th Street",,"CA","90003","33.958749500000003","-118.27437140000001","Major Projects","6"
"6308 S 10th Avenue",,"CA","90043","33.982618000000002","-118.327504","Major Projects","13"
"9413 S Spring Street",,"CA","90003","33.9503615","-118.27684910000001","Major Projects","49"
"4925 S Vermont Avenue",,"CA","90037","33.998016700000001","-118.29187810000001","CRA","41"
"608 & 610 W 61st Street",,"CA","90044","33.983874","-118.2841933","Major Projects","3"
"811 N Blades Street",,"CA","90063","34.047262000000003","-118.1965","Major Projects","3"
"625 S Bixel Street",,"CA","90017","34.053333500000001","-118.2630348","Major Projects","77"
"5555 W Hollywood Boulevard",,"CA","90028","34.101985900000003","-118.31114700000001","CRA","113"
"5555 W Hollywood Boulevard",,"CA","90028","34.101985900000003","-118.31114700000001","Bond","6"
"15301 W Lanark Street",,"CA","91406","34.217925299999997","-118.4667582","CRA","83"
"15301 W Lanark Street",,"CA","91406","34.217925299999997","-118.4667582","Bond","3"
"7135 N Wilbur Avenue",,"CA","91335","34.200234399999999","-118.5450653","CRA","72"
"5525 N Klump Avenue",,"CA","91601","34.170704999999998","-118.375502","Major Projects","33"
"5525 N Klump Avenue",,"CA","91601","34.170704999999998","-118.375502","Bond","8"
"5525 N Klump Avenue",,"CA","91601","34.170704999999998","-118.375502","Land Use","7"
"674 W 61st Street",,"CA","90044","33.983907000000002","-118.285765","Major Projects","1"
"1314 & 1316 E 49th Street",,"CA","90011","33.998159600000001","-118.25169","Major Projects","3"
"808 N Spring Street",,"CA","90012","34.061977900000002","-118.2365939","Major Projects","120"
"808 N Spring Street",,"CA","90012","34.061977900000002","-118.2365939","Bond","2"
"4705 W Franklin Avenue",,"CA","90027","34.105633400000002","-118.29207049999999","Land Use","1"
"1724 N Highland Avenue",,"CA","90028","34.102371900000001","-118.3384794","Land Use","27"
"610 S Street Louis Street",,"CA","90023","34.037551999999998","-118.21819069999999","Major Projects","22"
"2250 Parkside Avenue",,"CA","90031","34.071825099999998","-118.1989296","Bond","27"
"5270 Avalon Boulevard",,"CA","90011","33.994432000000003","-118.264802","CRA","15"
"8903 Balboa Boulevard",,"CA","91325","34.232391999999997","-118.50293000000001","Major Projects","12"
"611-619 S Lorena Street",,"CA","90023","34.030586499999998","-118.19940889999999","Land Use","46"
"611-619 S Lorena Street",,"CA","90023","34.030586499999998","-118.19940889999999","Major Projects","3"
"425-427 E 5th Street",,"CA","90013","34.044480900000003","-118.24406260000001","Major Projects","48"
"3191 W 7th Street",,"CA","90005","34.059981999999998","-118.2945216","Major Projects","49"
"5101 S Broadway Street",,"CA","90037","33.9961026","-118.27883079999999","CRA","25"
"5101 S Broadway Street",,"CA","90037","33.9961026","-118.27883079999999","Bond","7"
"5101 S Broadway Street",,"CA","90037","33.9961026","-118.27883079999999","Major Projects","12"
"523-537 W 127th Street",,"CA","90044","33.917859999999997","-118.284237","Major Projects","28"
"2885 Leeward Avenue",,"CA","90005","34.059042099999999","-118.2865527","Major Projects","27"
"747 S Ardmore Avenue",,"CA","90005","34.120919600000001","-118.37572059999999","Major Projects","23"
"901 S Broadway",,"CA","90015","34.042404900000001","-118.25654419999999","Major Projects","11"
"901 S Broadway",,"CA","90015","34.042404900000001","-118.25654419999999","Bond","8"
"1213 W 39th Street",,"CA","90037","34.015735499999998","-118.2978746","Bond","2"
"727 W 47th Street",,"CA","90037","34.000953000000003","-118.286609","Bond","2"
"831 W 41st Street",,"CA","90037","34.009433000000001","-118.28845","Bond","2"
"833 1/2 W 41st Street",,"CA","90037","34.009733900000001","-118.28448","Major Projects","48"
"866 W 42nd Place",,"CA","90037","34.006208299999997","-118.28958489999999","Bond","4"
"897 W Vernon Avenue",,"CA","90037","34.003937299999997","-118.2889984","Bond","4"
"903 W Vernon Avenue",,"CA","90037","34.0039497","-118.2891552","Bond","7"
"1417 W 3rd Street",,"CA","90017","34.058700700000003","-118.2621961","Major Projects","24"
"115 E 3rd Street",,"CA","90013","34.049173000000003","-118.24530799999999","Major Projects","43"
"718 - 718 1/4 Amador Street",,"CA","90012","34.076870800000002","-118.2344066","NPP","2"
"444 S Lucas Avenue",,"CA","90017","34.056628000000003","-118.26238530000001","Major Projects","35"
"501 E 7th Street",,"CA","90013","34.041202400000003","-118.24707220000001","Major Projects","38"
"10803 Avalon Boulevard",,"CA","90066","33.937820000000002","-118.265556","Major Projects","75"
"10803 Avalon Boulevard",,"CA","90061","33.937820000000002","-118.265556","Bond","1"
"5521 Harold Way",,"CA","90027","34.099548499999997","-118.3096484","Land Use","42"
"5521 Harold Way",,"CA","90028","34.099548499999997","-118.3096484","Major Projects","9"
"14128-14142 Calvert Street",,"CA","91401","34.181407999999998","-118.441518","Major Projects","17"
"3555 E Whittier Boulevard",,"CA","90023","34.0262271","-118.1965725","CRA","29"
"237 W 47th Place",,"CA","90037","34.000303700000003","-118.2774718","Major Projects","2"
"407 & 409 E 49th Street",,"CA","90011","33.998980400000001","-118.2692576","Major Projects","2"
"1718  & 1720 W 84th Street",,"CA","90047","33.962509099999998","-118.3075257","Major Projects","2"
"2215-2217 E 12th Street",,"CA","90059","34.0277046","-118.2422811","Major Projects","2"
"2914-2924 W 8th Street",,"CA","90005","34.057428000000002","-118.289872","CRA","85"
"1553 N Gordon Street",,"CA","90028","34.099648799999997","-118.3198386","CRA","9"
"2401 W Jefferson Boulevard",,"CA","90018","34.025865000000003","-118.321538","Major Projects","19"
"505 S San Pedro Street",,"CA","90013","34.044001999999999","-118.24445","Major Projects","107"
"240 E 6th Street",,"CA","90014","34.043470900000003","-118.247781","Major Projects","100"
"4201-4263 S Central Avenue",,"CA","90011","34.006205799999996","-118.256764","Major Projects","81"
"7621 S Figueroa Street",,"CA","90003","33.970008","-118.28306600000001","Major Projects","34"
"1418-1420 W 55th Street",,"CA","90062","33.992075100000001","-118.3009715","Major Projects","2"
"255-257 E 49th Street",,"CA","90011","33.998587499999999","-118.27109660000001","Major Projects","3"
"15455 Glenoaks Boulevard",,"CA","91342","34.324393200000003","-118.4692273","Major Projects","41"
"15455 Glenoaks Boulevard",,"CA","91342","34.324393200000003","-118.4692273","Bond","18"
"10311 S Western Avenue",,"CA","90047","33.942577999999997","-118.309369","Major Projects","119"
"153 N Glendale Boulevard",,"CA","90026","34.063451800000003","-118.2602462","Major Projects","22"
"851-853 W 81st Street",,"CA","90044","33.965851600000001","-118.2889788","Major Projects","42"
"3001 S Western Avenue",,"CA","90018","34.027269400000002","-118.3089284","Major Projects","28"
"975 S Serrano Avenue",,"CA","90006","34.053432000000001","-118.306642","Major Projects","43"
"7857 W MancheStreeter Boulevard",,"CA","90293","33.960023700000001","-118.43481749999999","Land Use","1"
"6332 S Brynhurst Avenue",,"CA","90043","33.981930300000002","-118.3335764","Land Use","1"
"14801 W Sherman Way",,"CA","91405","34.201779999999999","-118.4554406","Bond","194"
"14801 W Sherman Way",,"CA","91405","34.201779999999999","-118.4554406","CRA","1"
"7045 N Remmet Avenue",,"CA","91303","34.198636","-118.600617","Land Use","1"
"11818 W Dorothy Street",,"CA","90049","34.051399500000002","-118.4670048","Land Use","2"
"1611 S Beverly Glen Boulevard",,"CA","90024","34.059365999999997","-118.425359","Land Use","1"
"10227 N Mason Avenue",,"CA","91311","34.2710376","-118.61481000000001","Land Use","1"
"630 S Alvarado Street",,"CA","90057","34.058449799999998","-118.2750635","Major Projects","19"
"1927-1931 W 6th Street",,"CA","90057","34.059034400000002","-118.2733923","Major Projects","39"
"1927-1931 W 6th Street",,"CA","90057","34.059034400000002","-118.2733923","Bond","11"
"6030 Crenshaw Boulevard",,"CA","90043","33.984329000000002","-118.330372","Bond","56"
"6030 Crenshaw Boulevard",,"CA","90043","33.984329000000002","-118.330372","Major Projects","21"
"13034 Sherman Way",,"CA","91605","34.201185899999999","-118.4171269","Major Projects","11"
"13034 Sherman Way",,"CA","91605","34.201185899999999","-118.4171269","Bond","22"
"7647 W Day Street",,"CA","91042","34.254590999999998","-118.2995542","Major Projects","22"
"18425 W Kittridge Street",,"CA","91335","34.190474700000003","-118.5342327","Major Projects","37"
"3553 Beswick Street",,"CA","90023","34.022373100000003","-118.1994224","Major Projects","16"
"7160 W Sunset Boulevard",,"CA","90046","34.097674300000001","-118.34607200000001","Major Projects","23"
"1303 S Wellesley Avenue",,"CA","90025","34.041105000000002","-118.467709","Land Use","2"
"14630 Wyandotte Street",,"CA","91405","34.202542000000001","-118.45213699999999","Land Use","15"
"7250 Hazeltine Avenue",,"CA","91405","34.202694999999999","-118.43964","Land Use","7"
"325 W Adams Boulevard",,"CA","90007","34.027457699999999","-118.27295700000001","Land Use","46"
"8711 S Harvard Boulevard",,"CA","90047","33.958562200000003","-118.30754589999999","Major Projects","55"
"8711 S Harvard Boulevard",,"CA","90047","33.958562200000003","-118.30754589999999","Bond","69"
"7500 Alabama Avenue",,"CA","91303","34.207453999999998","-118.598607","Bond","48"
"7500 Alabama Avenue",,"CA","91303","34.207453999999998","-118.598607","Land Use","38"
"201 N Beacon Street",,"CA","90731","33.744615600000003","-118.2805786","Major Projects","23"
"917 S Boyle Avenue",,"CA","90023","34.035505499999999","-118.21902830000001","Major Projects","23"
"935 S Boyle Avenue",,"CA","90023","34.0352149","-118.21938400000001","Bond","19"
"935 S Boyle Avenue",,"CA","90023","34.0352149","-118.21938400000001","Land Use","8"
"960 W 62nd Place",,"CA","90044","33.982391399999997","-118.29068479999999","Major Projects","78"
"235 S Berendo",,"CA","90004","34.069845000000001","-118.29453100000001","Major Projects","24"
"1035 E 27th Street",,"CA","90011","34.018184499999997","-118.255616","Major Projects","40"
"369 S Columbia Avenue",,"CA","90017","34.058105099999999","-118.2657576","CRA","9"
"5311 E Huntington Dr N",,"CA","90032","34.090970900000002","-118.1650624","CRA","3"
"810 S Flower Street",,"CA","90017","34.046621299999998","-118.2602167","CRA","53"
"2222 S Marvin Avenue",,"CA","90016","34.036969900000003","-118.362961","CRA","9"
"2501 S W View Street",,"CA","90016","34.033566999999998","-118.348341","CRA","1"
"14700 W Friar Street",,"CA","91411","34.185516700000001","-118.45328499999999","CRA","9"
"1820 S Menlo Avenue",,"CA","90006","34.040695999999997","-118.2902971","CRA","3"
"323 N Burlington Avenue",,"CA","90026","34.068575000000003","-118.265203","CRA","1"
"2401 S Santa Fe Avenue",,"CA","90058","34.0160196","-118.2307315","CRA","10"
"11136 W Chandler Street",,"CA","91601","34.168665500000003","-118.3682287","CRA","28"
"3827 S Wisconsin Street",,"CA","90037","34.016463999999999","-118.29341700000001","CRA","4"
"1015 W 39th Street",,"CA","90037","34.015779999999999","-118.292225","CRA","14"
"1726 N Gower Street",,"CA","90028","34.102654999999999","-118.321961","CRA","69"
"200 S Olive Street",,"CA","90012","34.053224","-118.248851","CRA","330"
"5225 N Blakeslee Avenue",,"CA","91601","34.1651965","-118.3727473","CRA","1"
"6419 S 10th Avenue",,"CA","90043","33.981211000000002","-118.328335","CRA","1"
"1050 S Flower Street",,"CA","90015","34.042931899999999","-118.2633476","CRA","53"
"1050 S Flower Street",,"CA","90015","34.042931899999999","-118.2633476","Bond","1"
"1115 W 37th Place",,"CA","90007","34.020190399999997","-118.2923328","CRA","101"
"3100 S Vermont Avenue",,"CA","90007","34.026189199999997","-118.2909124","CRA","168"
"1243-1251 Innes Avenue",,"CA","90026","34.071393299999997","-118.2497504","Land Use","18"
"6926-6940 S Hoover Street",,"CA","90044","33.976205999999998","-118.28671900000001","Major Projects","11"
"11850 Foothill Boulevard",,"CA","91342","34.273507000000002","-118.39498879999999","Major Projects","35"
"13655 Woodcock Avenue",,"CA","91342","34.318426700000003","-118.4732764","Major Projects","4"
"9205 N White Oak Avenue",,"CA","91325","34.237614000000001","-118.52047","Major Projects","3"
"1934 Allesandro Street",,"CA","90039","34.090942699999999","-118.2579872","Major Projects","17"
"6639 Darby Avenue",,"CA","91355","34.191475099999998","-118.5340734","Major Projects","23"
"6639 Darby Avenue",,"CA","91335","34.191475099999998","-118.5340734","Land Use","26"
"3431-3523 S La Brea Avenue",,"CA","90016","34.022775000000003","-118.35618599999999","Major Projects","185"
"3434-77 S La Brea Avenue",,"CA","90019","34.024586399999997","-118.3552212","Bond","74"
"247 S Avenue 50",,"CA","90042","34.103130200000003","-118.2006669","Major Projects","89"
"1608 W 38th Place",,"CA","90062","34.016421800000003","-118.30777569999999","Major Projects","36"
"16930 Chatsworth Street",,"CA","91344","34.263969299999999","-118.50097220000001","Major Projects","42"
"16930 Chatsworth Street",,"CA","91344","34.263969299999999","-118.50097220000001","Land Use","48"
"9229 N Sepulveda Boulevard",,"CA","91343","34.2384579","-118.4680415","Major Projects","62"
"1021 N Hoover Street",,"CA","90029","34.090164000000001","-118.285043","Major Projects","37"
"1021 N Hoover Street",,"CA","90029","34.090164000000001","-118.285043","Bond","3"
"417-419 N Soto Street",,"CA","90033","34.048391000000002","-118.20716229999999","CRA","7"
"14649 Saticoy Street",,"CA","91405","34.208961000000002","-118.45250299999999","Major Projects","28"
"14649 Saticoy Street",,"CA","91405","34.208961000000002","-118.45250299999999","Land Use","1"
"3215 W Pico Boulevard",,"CA","90019","34.0475019","-118.3123488","CRA","71"
"1011 W 42nd Place",,"CA","90037","34.006419299999997","-118.29202549999999","Major Projects","15"
"14185 Astoria Street",,"CA","91342","34.308701900000003","-118.442459","Major Projects","6"
"2501-2505 W 6th Street",,"CA","90057","34.061662200000001","-118.27917100000001","Bond","20"
"2505 W 6th Street",,"CA","90057","34.061662200000001","-118.27917100000001","Major Projects","47"
"17831 San Jose Street",,"CA","91344","34.261645000000001","-118.522774","Major Projects","6"
"240-242 S Broadway",,"CA","90012","34.0512759","-118.24743789999999","Major Projects","18"
"4647-4651 N Huntington Drive",,"CA","90032","34.086545999999998","-118.185694","Land Use","47"
"4651 Huntington Drive N",,"CA","90032","34.086545999999998","-118.185694","CRA","48"
"6026 E Echo Street",,"CA","90042","34.110624299999998","-118.18767130000001","Major Projects","22"
"1301 W Court Street",,"CA","90026","34.064314500000002","-118.2566183","Land Use","13"
"1301 W Court Street",,"CA","90026","34.064314500000002","-118.2566183","Major Projects","10"
"4827 S Central Avenue",,"CA","90011","33.999607400000002","-118.2567931","Major Projects","41"
"4827 S Central Avenue",,"CA","90011","33.999607400000002","-118.2567931","Bond","37"
"4201 W Sunset Boulevard",,"CA","90029","34.094323299999999","-118.28183559999999","Bond","23"
"4201 W Sunset Boulevard",,"CA","90029","34.094323299999999","-118.28183559999999","Major Projects","15"
"801 W 23rd Street",,"CA","90007","34.032648999999999","-118.277584","Major Projects","14"
"254 W 78th Street",,"CA","90003","33.9687366","-118.27802130000001","Major Projects","7"
"1462 N Playground Street",,"CA","90033","34.061982","-118.199156","NPP","5"
"347-353 E 1st Street",,"CA","90012","34.049691699999997","-118.23943850000001","Major Projects","16"
"625 N Hill Street",,"CA","90012","34.059843899999997","-118.2413969","Major Projects","49"
"438 S Evergreen Street",,"CA","90033","34.036093000000001","-118.204734","NPP","4"
"621 N Cummings Street",,"CA","90033","34.050846999999997","-118.211457","NPP","4"
"319 N Fickett Street",,"CA","90033","34.044856500000002","-118.2063567","NPP","3"
"13457 W Vanowen Street",,"CA","91405","34.194279999999999","-118.42645400000001","Major Projects","7"
"13457 W Vanowen Street",,"CA","91405","34.194279999999999","-118.42645400000001","Land Use","7"
"10914 Avalon Boulevard",,"CA","90061","33.936765000000001","-118.26482799999999","NPP","4"
"635 - 643 S San Pedro Street",,"CA","90014","34.041504600000003","-118.2463712","Major Projects","43"
"5950 S Main Street",,"CA","90003","33.985588","-118.2735933","Major Projects","24"
"5950 S Main Street",,"CA","90003","33.985588","-118.2735933","Land Use","2"
"1075 W 39th Place",,"CA","90037","34.014505","-118.293959","Bond","2"
"1225 W 39th Place",,"CA","90037","34.014510999999999","-118.298194","Bond","7"
"1525 S St Andrews Place",,"CA","90019","34.044477000000001","-118.312011","Bond","14"
"1809 S Van Ness",,"CA","90019","34.041314","-118.316756","Bond","7"
"1935 La Salle Avenue",,"CA","90018","34.038983500000001","-118.3024547","Bond","14"
"2120 2nd Avenue",,"CA","90018","34.037323499999999","-118.3185983","Major Projects","135"
"2120 S 2nd Avenue",,"CA","90018","34.037323499999999","-118.3185983","Bond","9"
"1602 N Ivar Avenue",,"CA","90028","34.100140199999998","-118.3277528","CRA","100"
"1602 N Ivar Avenue",,"CA","90028","34.100140199999998","-118.3277528","Major Projects","3"
"1320-1328 W Sunset Boulevard",,"CA","90027","34.072049200000002","-118.2511015","Major Projects","16"
"2407 E 1st Street",,"CA","90033","34.043718800000001","-118.2092574","NPP","5"
"1328 W James M Wood Boulevard",,"CA","90015","34.049155200000001","-118.26999790000001","Land Use","18"
"1405 W James M Wood Boulevard",,"CA","90015","34.049712399999997","-118.2697659","Land Use","39"
"1405 W James M Wood Boulevard",,"CA","90015","34.049712399999997","-118.2697659","Major Projects","3"
"1405 W James M Wood Boulevard",,"CA","90015","34.049712399999997","-118.2697659","Bond","1"
"19455 Parthenia Street",,"CA","91324","34.228687000000001","-118.557502","Major Projects","33"
"19455 Parthenia Street",,"CA","91324","34.228687000000001","-118.557502","Land Use","43"
"8760 S Main Street",,"CA","90003","33.957612300000001","-118.2735577","Land Use","34"
"8760 S Main Street",,"CA","90003","33.957612300000001","-118.2735577","Major Projects","29"
"8760 S Main Street",,"CA","90003","33.957612300000001","-118.2735577","CRA","1"
"950 - 960 1/2 S Harvard Boulevard",,"CA","90006","34.053817000000002","-118.303854","Major Projects","22"
"1421 W Temple Street",,"CA","90026","34.067674699999998","-118.2573041","Land Use","41"
"1421 W Temple Street",,"CA","90026","34.067674699999998","-118.2573041","Major Projects","11"
"1345 Emerald Drive",,"CA","90026","34.059882700000003","-118.259964","Major Projects","42"
"201-207 S Lake Street",,"CA","90057","34.066294900000003","-118.27274800000001","Major Projects","22"
"6230 Afton Place",,"CA","90028","34.095026900000001","-118.32511049999999","Major Projects","70"
"6230 Afton Place",,"CA","90028","34.095026900000001","-118.32511049999999","Bond","29"
"5416 N Fair Avenue",,"CA","91601","34.169121799999999","-118.37336070000001","CRA","115"
"4518-4520 S Figueroa Street",,"CA","90037","34.002175100000002","-118.2823796","Major Projects","10"
"4520 S Figueroa Street",,"CA","90037","34.002175100000002","-118.2823796","Land Use","21"
"225 N Avenue 25",,"CA","90031","34.078562499999997","-118.2188039","Land Use","139"
"225 N Avenue 25",,"CA","90031","34.078562499999997","-118.2188039","Major Projects","7"
"9050 Laurel Canyon Boulevard",,"CA","91352","34.234026499999999","-118.4055111","Land Use","38"
"9050 Laurel Canyon Boulevard",,"CA","91352","34.234026499999999","-118.4055111","Major Projects","21"
"717-721 W El Segundo Boulevard",,"CA","90247","33.916795999999998","-118.287898","Major Projects","56"
"15532-15538 W Nordoff Street",,"CA","91343","34.235275999999999","-118.47104299999999","Major Projects","14"
"15532-15538 W Nordoff Street",,"CA","91343","34.235275999999999","-118.47104299999999","Land Use","17"
"1315 E 21 Street",,"CA","90011","34.022192599999997","-118.25171570000001","Bond","12"
"1315 E 21 Street",,"CA","90011","34.022192599999997","-118.25171570000001","Major Projects","41"
"11650 Towne Avenue",,"CA","90061","33.928253099999999","-118.266188","NPP","50"
"425 N Wilmington Boulevard",,"CA","90744","33.774928000000003","-118.274833","Major Projects","56"
"8900-8906 N Columbus Avenue",,"CA","91343","34.232091799999999","-118.4652768","CRA","2"
"625-633 S San Pedro Street",,"CA","90014","34.041541700000003","-118.246019","Major Projects","54"
"625-633 S San Pedro Street",,"CA","90014","34.041541700000003","-118.246019","Bond","19"
"204 Lucas Avenue",,"CA","90026","34.060377799999998","-118.2598998","Major Projects","10"
"212 S Lucas Avenue",,"CA","90026","34.060165699999999","-118.26009449999999","Land Use","5"
"6941 Owensmouth Avenue",,"CA","91303","34.197094","-118.60211700000001","CRA","23"
"12360 Osborne Street",,"CA","91331","34.261536700000001","-118.4019088","CRA","50"
"420 Union Drive",,"CA","90017","34.058361300000001","-118.2676132","Major Projects","10"
"420-426 S Union Drive",,"CA","90017","34.058301","-118.26761","Land Use","21"
"116-124 S Witmer Street",,"CA","90026","34.061589099999999","-118.2608372","Land Use","49"
"116-124 S Witmer Street",,"CA","90026","34.061589099999999","-118.2608372","Major Projects","24"
"14419 Vanowen Street",,"CA","91405","34.194328499999997","-118.44712989999999","Major Projects","11"
"14419 Vanowen Street",,"CA","91405","34.194328499999997","-118.44712989999999","Land Use","13"
"1229 N Bronson Avenue",,"CA","90038","34.093566000000003","-118.318296","Land Use","32"
"1235 N Bronson Avenue",,"CA","90038","34.093741700000002","-118.3179514","CRA","15"
"816 S Carondelet Street",,"CA","90057","34.056074299999999","-118.28211279999999","CRA","29"
"816 S Carondelet Street",,"CA","90051","34.056074299999999","-118.28211279999999","Land Use","2"
"12129 El Dorado Boulevard",,"CA","91342","34.290508799999998","-118.4510817","Land Use","59"
"413 E 7th Street",,"CA","90014","34.041885000000001","-118.24790299999999","Major Projects","52"
"5417 S Figueroa Street",,"CA","90037","33.992677999999998","-118.2829962","Major Projects","9"
"5417 S Figueroa Street",,"CA","90037","33.992677999999998","-118.2829962","Land Use","12"
"7301-7315 S Crenshaw Boulevard",,"CA","90013","33.960034299999997","-118.3265699","Major Projects","24"
"7301-7315 S Crenshaw Boulevard",,"CA","90013","33.960034299999997","-118.3265699","Bond","4"
"1230 Cole Avenue",,"CA","90038","34.093707999999999","-118.329403","Major Projects","60"
"330 W Avenue 26",,"CA","90031","34.079902699999998","-118.2190368","Major Projects","49"
"2301 N Humboldt Street",,"CA","90031","34.079524999999997","-118.21961210000001","Major Projects","58"
"1671 N Western Avenue",,"CA","90028","34.101218000000003","-118.309577","CRA","11"
"1671 N Western Avenue",,"CA","90028","34.101218000000003","-118.309577","Major Projects","1"
"924 S Hobart Boulevard",,"CA","90006","34.054923600000002","-118.3049705","Land Use","25"
"924 S Hobart Boulevard",,"CA","90006","34.054923600000002","-118.3049705","CRA","24"
"10408 S Central Avenue",,"CA","90002","33.941855599999997","-118.2537992","Major Projects","44"
"3414-3430 E Manitou Avenue",,"CA","90029","34.070666799999998","-118.2042646","Major Projects","23"
"1309 S 2nd Avenue",,"CA","90019","34.046795899999999","-118.3192406","Major Projects","8"
"1800-1812 W Temple Street",,"CA","90026","34.069066900000003","-118.26501570000001","Major Projects","25"
"456 S Lake Street",,"CA","90057","34.061167400000002","-118.2748862","Land Use","73"
"456 S Lake Street",,"CA","90057","34.061167400000002","-118.2748862","Major Projects","1"
"9618 N Van Nuys Boulevard",,"CA","91402","34.245120499999999","-118.4497286","Land Use","49"
"9618 N Van Nuys Boulevard",,"CA","91402","34.245120499999999","-118.4497286","Major Projects","6"
"2114-2126 W Clinton Street",,"CA","90026","34.073766900000003","-118.2665262","Land Use","35"
"2114-2126 W Clinton Street",,"CA","90026","34.073766900000003","-118.2665262","Major Projects","1"
"1805 N Sichel Street",,"CA","90031","34.064295100000002","-118.21311040000001","Land Use","20"
"1805 N Sichel Street",,"CA","90031","34.064295100000002","-118.21311040000001","Major Projects","17"
"521 S San Pedro Street",,"CA","90013","34.043712499999998","-118.24466719999999","CRA","74"
"1410 E 41st Street",,"CA","90011","34.008560500000002","-118.24888919999999","Major Projects","12"
"412-412 1/2  S Boyle Avenue",,"CA","90033","34.0426115","-118.21933370000001","NPP","1"
"1011 E Adams Boulevard",,"CA","90011","34.019357499999998","-118.25574570000001","CRA","76"
"1011 E Adams Boulevard",,"CA","90011","34.019357499999998","-118.25574570000001","Bond","3"
"9628 N Van Nuys Boulevard",,"CA","91402","34.245322299999998","-118.44962","CRA","33"
"9640 Van Nuys Boulevard",,"CA","91402","34.2453802","-118.44900370000001","CRA","80"
"8947-8955 N Orion Avenue",,"CA","91345","34.233405599999998","-118.47233730000001","CRA","15"
"9222-9252 N Van Nuys Boulevard",,"CA","91402","34.237842100000002","-118.45023209999999","Major Projects","29"
"1100 E 33rd Street",,"CA","90011","34.013385100000001","-118.2556865","Major Projects","49"
"3300-3320 S Central Avenue",,"CA","90011","34.013014599999998","-118.2563131","Land Use","50"
"2507 S Bronson Avenue",,"CA","90018","34.034335900000002","-118.333398","Major Projects","29"
"2618 W 7th Street",,"CA","90057","34.058967000000003","-118.28305","CRA","27"
"1511 S Street Andrews Place",,"CA","90019","34.045006700000002","-118.31202949999999","Major Projects","20"
"959 - 963 Ardmore Avenue",,"CA","90006","34.120919600000001","-118.37572059999999","CRA","23"
"506 S Julian Street",,"CA","90013","34.044139299999998","-118.2449859","Land Use","52"
"508 E 5th Street  (506 S San Julian Street)",,"CA","90045","34.044139299999998","-118.2449859","Major Projects","25"
"9305 S Firth Boulevard",,"CA","90002","33.9521686","-118.2477044","Major Projects","31"
"15320 Rayen Street",,"CA","91343","34.231366000000001","-118.46659200000001","Major Projects","9"
"15320 Rayen Street",,"CA","91343","34.231366000000001","-118.46659200000001","Land Use","39"
"2233-2237 Whittier Boulevard",,"CA","90023","34.0352368","-118.2174598","NPP","2"
"208 S Bonnie Brae Street",,"CA","90057","34.063962500000002","-118.26838669999999","Land Use","91"
"208 S Bonnie Brae Street",,"CA","90057","34.063962500000002","-118.26838669999999","Major Projects","1"
"952 N Harvard Boulevard",,"CA","90029","34.087938000000001","-118.30379499999999","Major Projects","19"
"4103 W Rosewood Avenue",,"CA","90004","34.079051499999998","-118.2933756","Major Projects","53"
"4343 N Toland Way",,"CA","90041","34.121945500000002","-118.2211385","Major Projects","45"
"809 23rd Street",,"CA","90007","34.032708100000001","-118.2777665","Major Projects","90"
"20138 Cantara Street",,"CA","91306","34.218752000000002","-118.572287","Land Use","3"
"15305 W Lanark Street",,"CA","91406","34.218001299999997","-118.4675276","CRA","46"
"8561 Columbus Avenue",,"CA","91343","34.226462699999999","-118.46567159999999","Major Projects","63"
"1901 W 7th Street",,"CA","90057","34.055740700000001","-118.2748053","Major Projects","89"
"12005 S Broadway",,"CA","90061","33.923601699999999","-118.2782416","Land Use","1"
"12005 S Broadway",,"CA","90061","33.923601699999999","-118.2782416","Major Projects","9"
"240 S Westlake Avenue",,"CA","90057","34.063758100000001","-118.2700825","Major Projects","113"
"831 W 70th Street",,"CA","90044","33.976822599999998","-118.2877696","Major Projects","24"
"831 W 70th Street",,"CA","90044","33.976822599999998","-118.2877696","Land Use","9"
"820 S Burlington Avenue",,"CA","90017","34.052723499999999","-118.27454299999999","Major Projects","20"
"510 Alexandria Avenue",,"CA","90020","34.065028099999999","-118.2975658","Major Projects","15"
"501-511 S Bonnie Brae",,"CA","90057","34.059142000000001","-118.272367","CRA","26"
"1020 Kingsley Drive",,"CA","90006","34.052025899999997","-118.3028394","Major Projects","82"
"1015 N Kingsley Drive",,"CA","90029","34.088931199999998","-118.30461630000001","Major Projects","81"
"13751 W Sherman Way",,"CA","91405","34.201991999999997","-118.43279","CRA","41"
"13751 W Sherman Way",,"CA","91405","34.201991999999997","-118.43279","Land Use","6"
"975 N Vendome Street",,"CA","90026","34.084153800000003","-118.2747135","Major Projects","35"
"4774-4779 S Broadway Avenue",,"CA","90013","33.999341800000003","-118.2785044","Major Projects","25"
"7826 Topanga Canyon Boulevard",,"CA","91304","34.212766600000002","-118.60550979999999","Land Use","16"
"6651 Haskell Avenue",,"CA","91406","34.191620100000002","-118.4752809","Land Use","4"
"959 S Gramercy Place",,"CA","90019","34.053989299999998","-118.3135444","CRA","1"
"11777 Foothill Boulevard",,"CA","91342","34.2732472","-118.39222789999999","Bond","25"
"200 W 108th Street",,"CA","90061","33.938062299999999","-118.2764603","CRA","1"
"7507 Woodman Avenue",,"CA","91405","34.206779599999997","-118.431781","Land Use","9"
"15543 Rayen Street",,"CA","91343","34.232173600000003","-118.471394","Land Use","12"
"4211 Laurel Canyon Boulevard",,"CA","90405","34.147668899999999","-118.39682209999999","Land Use","4"
"101 Bridewell Street",,"CA","90042","34.112605100000003","-118.1781033","Land Use","31"
"5700 W 6th Street",,"CA","90036","34.064444700000003","-118.3529513","Major Projects","23"
"1156-1158 S Clark Drive",,"CA","90035","33.987218499999997","-118.46199319999999","CRA","40"
"6643 Haskell Avenue",,"CA","91406","34.191350900000003","-118.47523080000001","Land Use","4"
"1045 S Ardmore Avenue",,"CA","90006","34.120919600000001","-118.37572059999999","Land Use","15"
"235-245 Main Street",,"CA","90291","33.996602299999999","-118.4786478","Land Use","23"
"15150 Sherman Way",,"CA","91405","34.200882","-118.4631243","Land Use","13"
"9129 Tobias Avenue",,"CA","91402","34.236319000000002","-118.45217","Land Use","7"
"6525 Woodley Avenue",,"CA","91406","34.189487999999997","-118.48389539999999","Land Use","8"
"12300 Osborne Place",,"CA","91331","34.2602671","-118.40057849999999","Land Use","22"
"13603 Marina Pointe Drive",,"CA","90292","33.985540200000003","-118.4448713","Bond","117"
"221 W 11th Street",,"CA","90731","33.733953","-118.281904","Land Use","2"
"7266 Franklin Avenue",,"CA","90046","34.102919999999997","-118.347981","Land Use","18"
"7140 Bellaire Avenue",,"CA","91605","34.200485999999998","-118.408781","Land Use","6"
"13719 Oxnard Street",,"CA","91401","34.179865499999998","-118.4321961","Land Use","8"
"14153 Erwin Street",,"CA","91401","34.183907699999999","-118.4417377","Land Use","2"
"1615 Yosemite Drive",,"CA","90041","34.133276000000002","-118.202337","Land Use","8"
"4821 S Sepulveda Boulevard",,"CA","90230","34.000675800000003","-118.4034576","Land Use","4"
"722 N Orlando Avenue",,"CA","90069","34.084335199999998","-118.3727741","Land Use","3"
"825 Forest Avenue",,"CA","90033","34.049598899999999","-118.1988119","Bond","4"
"2500 W 4th Street",,"CA","90020","34.064015400000002","-118.27745299999999","Major Projects","23"
"2500 W 4th Street",,"CA","90057","34.064015400000002","-118.27745299999999","Land Use","5"
"7660 Beverly Boulevard",,"CA","90036","34.075543500000002","-118.35694030000001","Bond","56"
"735 S Gramercy Drive",,"CA","90005","34.058613000000001","-118.312501","Land Use","28"
"12569 Van Nuys Boulevard",,"CA","91331","34.277348099999998","-118.40706609999999","Land Use","13"
"7526 Simpson Avenue",,"CA","91605","34.207326999999999","-118.38869","Land Use","9"
"14121 Friar Street",,"CA","91401","34.185963999999998","-118.44086","Land Use","2"
"10711 Woodbridge Street",,"CA","91602","34.149087999999999","-118.364197","Land Use","6"
"4300 Beverly Glen Boulevard",,"CA","91423","34.148865000000001","-118.4459951","Land Use","10"
"9400 Maie Avenue",,"CA","90002","33.951665599999998","-118.2444689","Land Use","26"
"17102 Chatsworth Street",,"CA","91344","34.264476999999999","-118.50563","Land Use","3"
"1246 W 30th Street",,"CA","90066","34.027155","-118.290479","Land Use","35"
"23100 Avenue San Luis",,"CA","91364","34.161830999999999","-118.629435","Land Use","38"
"219 E Avenue 31",,"CA","90031","34.081218","-118.21317000000001","Land Use","1"
"36 Anchorage Street",,"CA","90292","33.9789618","-118.465239","Land Use","1"
"1316-1320 E 21st Street",,"CA","90011","34.021748600000002","-118.25207709999999","Major Projects","7"
"245 S Avenue 54",,"CA","90042","34.1046853","-118.1954267","Major Projects","8"
"555 W Cesar E Chavez Avenue",,"CA","90012","34.0601439","-118.24209430000001","Bond","15"
"555 W Cesar E Chavez Avenue",,"CA","90012","34.0601439","-118.24209430000001","Major Projects","7"
"1303 S Leland Street",,"CA","90731","33.732289999999999","-118.30149299999999","Land Use","1"
"13805 Sherman Way",,"CA","91405","34.201602800000003","-118.4337422","Land Use","6"
"7249 Baird Avenue",,"CA","91335","34.202610499999999","-118.5364008","Land Use","8"
"3325 Castle Heights Avenue",,"CA","90034","34.030632099999998","-118.4005176","Land Use","11"
"1052 S Mariposa Avenue",,"CA","90006","34.051081199999999","-118.2986113","Land Use","6"
"12330 Osborne Place",,"CA","91331","34.260019399999997","-118.4009148","Land Use","1"
"8616 Willis Avenue",,"CA","91402","34.226779999999998","-118.4547","Land Use","10"
"18405 S Vermont Avenue",,"CA","90248","33.863562100000003","-118.2909179","Land Use","9"
"11657 Oxnard Street",,"CA","91606","34.179834200000002","-118.3867229","Land Use","20"
"3839 Motor Avenue",,"CA","90232","34.019391900000002","-118.40338010000001","Land Use","4"
"9575 Laurel Canyon Boulevard",,"CA","91331","34.243076000000002","-118.4163777","Land Use","9"
"12100 W Sheldon Street",,"CA","91352","34.227455900000002","-118.41103889999999","Land Use","97"
"206 S Coronado",,"CA","90057","34.067644600000001","-118.2763933","Bond","4"
"13274 Dronfield & 10454 Amestoy Avenue",,"CA","91342","34.305827899999997","-118.4571974","Major Projects","24"
"3210 W Adams Boulevard",,"CA","90018","34.032274899999997","-118.3194491","Major Projects","27"
"1231 W Boulevard",,"CA","90019","34.033474099999999","-118.340529","Major Projects","8"
"3987 W 7th Street",,"CA","90005","34.060198100000001","-118.3141646","Major Projects","9"
"14825-14600 Parthenia Street",,"CA","91402","34.227057199999997","-118.4502976","Major Projects","12"
"913-915 E 50th Street",,"CA","90011","33.9978154","-118.25958780000001","Major Projects","6"
"14540 Blythe Street",,"CA","91402","34.2149286","-118.450472","Major Projects","24"
"722-738 S Coronado Street",,"CA","90057","34.057888400000003","-118.28247949999999","Major Projects","30"
"722-738 S Coronado Street",,"CA","90057","34.057888400000003","-118.28247949999999","CRA","1"
"727-737 S Carondelet Street",,"CA","90057","34.057596500000002","-118.2819186","Major Projects","23"
"200 N Bixel Street",,"CA","90026","34.062704699999998","-118.2551263","Major Projects","14"
"11047 Strathern Street",,"CA","91352","34.2161112","-118.37201109999999","Major Projects","13"
"12408 Van Nuys Boulevard",,"CA","91331","34.279011099999998","-118.4038767","Major Projects","24"
"12408 Van Nuys Boulevard",,"CA","91331","34.279011099999998","-118.4038767","NPP","8"
"345 4th Avenue",,"CA","90291","33.996254","-118.47421799999999","Major Projects","12"
"908-916 W Florence Avenue",,"CA","90044","33.974317900000003","-118.289715","Major Projects","9"
"319 Witmer Street",,"CA","90017","34.058588999999998","-118.264081","Major Projects","7"
"1721 W 8th Street",,"CA","90017","34.053421999999998","-118.274028","Major Projects","55"
"13436 Victory Boulevard",,"CA","91401","34.186332","-118.425629","Major Projects","7"
"13436 Victory Boulevard",,"CA","91401","34.186332","-118.425629","Land Use","1"
"4862 Twining Street",,"CA","90032","34.083251099999998","-118.1775298","Land Use","1"
"2203 E 1st Street",,"CA","90033","34.044918600000003","-118.21179619999999","Major Projects","62"
"725 Witmer Street",,"CA","90017","34.051781499999997","-118.2684277","Major Projects","32"
"1924 Argyle Avenue",,"CA","90068","34.106058400000002","-118.3248526","Major Projects","21"
"107 S Carondelet",,"CA","90054","34.068463999999999","-118.27514499999999","Major Projects","20"
"3317-3327 W Washington Boulevard",,"CA","90019","34.040218000000003","-118.320711","Major Projects","16"
"7843 N Vineland Place",,"CA","91352","34.213386","-118.370959","Major Projects","8"
"2605-2627 E Olympic Boulevard",,"CA","90023","34.025373000000002","-118.2215602","Major Projects","87"
"7317-7323 S Main Street/ 101 W 74th Street",,"CA","90003","33.972964400000002","-118.274191","Major Projects","14"
"517 S San Julian Street",,"CA","90013","34.044156000000001","-118.24561799999999","Major Projects","57"
"2328 W Temple Street",,"CA","90026","34.071058700000002","-118.2712183","Major Projects","15"
"2902 Maple Avenue",,"CA","90011","34.0208388","-118.2668001","Major Projects","4"
"738 S Union Avenue",,"CA","90017","34.052746399999997","-118.2715577","Major Projects","40"
"6309-6323 S 10th Avenue",,"CA","90043","33.982261999999999","-118.328329","Major Projects","14"
"1632 N Normandie Avenue",,"CA","90027","34.101022800000003","-118.30014540000001","Earthquake","12"
"1632 N Normandie Avenue",,"CA","90027","34.101022800000003","-118.30014540000001","Bond","13"
"418 N E Edgeware Road",,"CA","90026","34.065694999999998","-118.25466710000001","Bond","56"
"418 N E Edgeware Road",,"CA","90026","34.065694999999998","-118.25466710000001","Major Projects","50"
"6301 S Normandie Avenue",,"CA","90044","33.9819435","-118.300568","Major Projects","37"
"420-426 N Evergreen Avenue",,"CA","90033","34.044260800000004","-118.1996852","Major Projects","26"
"12000 Foothill Boulevard",,"CA","91342","34.276589000000001","-118.398297","Major Projects","24"
"8750 Memory Park Avenue",,"CA","91345","34.2297747","-118.46412719999999","Earthquake","53"
"14567 Dickens Street",,"CA","91403","34.150498800000001","-118.45103090000001","Major Projects","82"
"8758-8806  Topanga Canyon Boulevard",,"CA","91304","34.230249000000001","-118.60233700000001","Earthquake","16"
"2573-2577 S Spaulding Avenue",,"CA","90016","34.0329312","-118.3691042","Earthquake","1"
"2209 Michigan Avenue",,"CA","90033","34.046173400000001","-118.2108375","Major Projects","55"
"6805  Louise Avenue",,"CA","91406","34.194254800000003","-118.5101708","Earthquake","14"
"12525-12563 Washington Place",,"CA","90066","33.998399900000003","-118.43303899999999","Major Projects","14"
"5503 S Figueroa Street",,"CA","90044","33.991866299999998","-118.28311050000001","Major Projects","32"
"1211 E 43rd Street",,"CA","90011","34.005944300000003","-118.253873","Major Projects","5"
"2214-2258 Parkside Avenue",,"CA","90031","34.071937400000003","-118.19990559999999","Major Projects","130"
"9130 S Figueroa Street",,"CA","90003","33.953333000000001","-118.282342","Major Projects","19"
"1938 N Argyle Avenue",,"CA","90068","34.106378900000003","-118.324842","Major Projects","23"
"433 Casanova",,"CA","90012","34.071875599999998","-118.2289656","Major Projects","27"
"1140 N Gower Street",,"CA","90038","34.092005","-118.321939","Major Projects","55"
"1514 N Saint Andrews Place",,"CA","90028","34.098737999999997","-118.310947","Major Projects","16"
"1221 W 29th Street",,"CA","90007","34.028679400000001","-118.2870489","Major Projects","20"
"12111 Chandler Boulevard",,"CA","91607","34.168843899999999","-118.3973713","Major Projects","92"
"981 Harbor Village Drive",,"CA","90710","33.792781900000001","-118.29251549999999","Major Projects","196"
"1711 W 3rd Street",,"CA","90017","34.061037200000001","-118.2682884","Major Projects","65"
"6376 Yucca Street",,"CA","90028","34.1037094","-118.32917879999999","Major Projects","46"
"622-628 S Alvarado Street",,"CA","90057","34.0585843","-118.2750758","Major Projects","78"
"151 Ocean Front Walk",,"CA","90291","33.995638999999997","-118.48107299999999","Major Projects","32"
"6503 Victoria Avenue",,"CA","90043","33.980505299999997","-118.33236429999999","Major Projects","10"
"2117-2119 W 54th Street",,"CA","90062","33.993510999999998","-118.31675300000001","Major Projects","22"
"1134-1146 S Pacific Avenue",,"CA","90731","33.733446200000003","-118.28776120000001","Major Projects","40"
"3100 Fletcher Drive",,"CA","90065","34.115910200000002","-118.2433932","Major Projects","84"
"404 S Cochran Avenue",,"CA","90036","34.066727399999998","-118.3469261","Major Projects","27"
"2235 Norwalk Avenue",,"CA","90041","34.133243999999998","-118.217142","Major Projects","14"
"10601 S Broadway",,"CA","90003","33.939897000000002","-118.278739","Major Projects","15"
"641-647 E 27th Street",,"CA","90011","34.021101000000002","-118.26223","Major Projects","7"
"905 E 6th Street",,"CA","90021","34.039435099999999","-118.2406652","Major Projects","60"
"11050 Arminta Street",,"CA","91352","34.213703600000002","-118.3720907","Major Projects","10"
"1418 W 218th & 1435 W 223rd Street",,"CA","90501","33.829186700000001","-118.3169714","Major Projects","12"
"14222 Calvert Street",,"CA","91401","34.181407","-118.443006","Earthquake","1"
"14210 Calvert Street",,"CA","91401","34.181407","-118.44267499999999","Earthquake","1"
"1303 S Gramercy Place",,"CA","90019","34.046762000000001","-118.313463","Major Projects","24"
"3507 Stocker Street",,"CA","90008","34.008715000000002","-118.33359400000001","Major Projects","12"
"639 S Commonwealth",,"CA","90005","34.062225099999999","-118.28604110000001","Major Projects","70"
"16815 Kingsbury Street",,"CA","91344","34.263415000000002","-118.49858999999999","Earthquake","10"
"21618 Saticoy Street",,"CA","91304","34.208069399999999","-118.6009358","Earthquake","18"
"21101 W Saticoy Street",,"CA","91304","34.208787000000001","-118.59312","Major Projects","23"
"7400 Alabama Avenue",,"CA","91303","34.204813999999999","-118.59868299999999","Earthquake","2"
"7440 Alabama Avenue",,"CA","91303","34.205708899999998","-118.5989209","Major Projects","21"
"14160 Sherman Way",,"CA","91405","34.200847000000003","-118.442044","Bond","3"
"14160 Sherman Way",,"CA","91405","34.200847000000003","-118.442044","Earthquake","11"
"20234 Roscoe Boulevard",,"CA","91306","34.219669400000001","-118.57442709999999","Earthquake","25"
"1536 N Serrano Avenue",,"CA","90027","34.099173399999998","-118.3066292","Earthquake","42"
"9601-9621 Reseda Boulevard",,"CA","91324","34.245299600000003","-118.53647290000001","Earthquake","23"
"10020 Zelzah Avenue",,"CA","91324","34.252729299999999","-118.522998","Land Use","8"
"21431 Saticoy Street",,"CA","91304","34.208635000000001","-118.5986276","Earthquake","10"
"14216 Calvert Street",,"CA","91401","34.181407","-118.442841","Earthquake","1"
"15546-15550 Vanowen Street",,"CA","91406","34.193693199999998","-118.4721301","Earthquake","3"
"14247 Calvert Street",,"CA","91401","34.181949000000003","-118.443833","Earthquake","1"
"14716 Delano Street",,"CA","91405","34.182355999999999","-118.45375799999999","Earthquake","9"
"5173 Hollywood Boulevard",,"CA","90027","34.101969599999997","-118.3030234","Earthquake","9"
"6018 - 6020 Carlton Way",,"CA","90028","34.1003531","-118.3210651","Earthquake","2"
"7550 Jordan Avenue",,"CA","91303","34.219613199999998","-118.63432950000001","Earthquake","5"
"9950 Zelah Avenue",,"CA","91325","34.2400436","-118.5155901","Earthquake","1"
"9950 Zelah Avenue",,"CA","91325","34.2400436","-118.5155901","Earthquake","3"
"16830 Kingsbury Street",,"CA","91344","34.262961799999999","-118.49918479999999","Earthquake","32"
"7628 Owensmouth Avenue",,"CA","91304","34.209076000000003","-118.600944","Earthquake","5"
"7428 Alabama Avenue",,"CA","91303","34.205500999999998","-118.598602","Earthquake","2"
"7408 Alabama Avenue",,"CA","91303","34.204951000000001","-118.59868299999999","Earthquake","2"
"7414 Alabama Avenue",,"CA","91303","34.205088000000003","-118.59868400000001","Earthquake","2"
"5831 Carlton Way",,"CA","90028","34.100807000000003","-118.316964","Earthquake","2"
"4607 Willis Avenue",,"CA","91403","34.154595","-118.45580200000001","Earthquake","7"
"20358 Saticoy Street",,"CA","91304","34.207656","-118.577383","Earthquake","18"
"5922 Carlton Way",,"CA","90028","34.1001257","-118.31879669999999","Earthquake","3"
"14668 Hubbard Street",,"CA","91342","34.289022000000003","-118.450827","Earthquake","1"
"14662 Hubbard Street",,"CA","91342","34.289149399999999","-118.4506164","Earthquake","1"
"14654 Hubbard Street",,"CA","91342","34.289276000000001","-118.450479","Earthquake","1"
"14678 Hubbard Street",,"CA","91342","34.288943099999997","-118.45098659999999","Earthquake","1"
"10620 Balboa Boulevard",,"CA","91344","34.262819","-118.5016","Earthquake","13"
"14648 Hubbard Street",,"CA","91342","34.289403","-118.450305","Earthquake","1"
"4320 Mammoth Avenue",,"CA","91423","34.148943799999998","-118.4321073","Earthquake","4"
"6040 Carlton Way",,"CA","90028","34.100199000000003","-118.321566","Earthquake","6"
"4438 Vesper Avenue",,"CA","91423","34.152402000000002","-118.45063500000001","Earthquake","1"
"511-517 S Mariposa Avenue",,"CA","90020","34.064772900000001","-118.2994652","Major Projects","24"
"511-517 S Mariposa Avenue",,"CA","90020","34.064772900000001","-118.2994652","Bond","5"
"11220 Moorpark Street",,"CA","91602","34.149503000000003","-118.37515","Earthquake","31"
"14646 Dickens Street",,"CA","91423","34.150086000000002","-118.45344","Earthquake","5"
"7219 Bakman Avenue",,"CA","91352","34.201892000000001","-118.378199","Earthquake","2"
"9700 S Central Avenue",,"CA","90002","33.948318899999997","-118.2537509","Earthquake","8"
"14500 Olive View Drive",,"CA","91432","34.323740000000001","-118.448998","Earthquake","40"
"20711 Vanowen Street",,"CA","91303","34.194431999999999","-118.584582","Earthquake","20"
"5225 Cahuenga Boulevard",,"CA","91601","34.165529900000003","-118.361852","Earthquake","1"
"13558 Moorpark Street",,"CA","91423","34.150100999999999","-118.428905","Earthquake","2"
"2660 La Cienega Avenue",,"CA","90034","34.033203100000001","-118.3783569","Earthquake","8"
"5205 Hollywood Boulevard",,"CA","90068","34.101763400000003","-118.3038068","Earthquake","2"
"964 S Fedora",,"CA","90006","34.053724000000003","-118.29757499999999","Bond","4"
"404 Shatto Place",,"CA","90020","34.066689400000001","-118.2897181","Land Use","14"
"1626 S Barrington Avenue",,"CA","90025","34.042082999999998","-118.45417","Land Use","2"
"514 Westlake Avenue",,"CA","90057","34.059197500000003","-118.2730548","Major Projects","14"
"3885-3895 S Western Avenue",,"CA","90062","34.014833000000003","-118.30923300000001","Major Projects","34"
"12523 W Burbank Boulevard",,"CA","91407","34.1724478","-118.4064411","Earthquake","1"
"15454 Sherman Way",,"CA","91406","34.201032499999997","-118.4696069","Bond","78"
"269 S Loma Drive",,"CA","90026","34.060319700000001","-118.2656494","Major Projects","19"
"11754 Vanowen Street",,"CA","91605","34.193637000000003","-118.389527","Major Projects","11"
"13230 Bromont Avenue",,"CA","91342","34.311326899999997","-118.4381513","Major Projects","17"
"2701 Wilshire Boulevard",,"CA","90057","34.061435299999999","-118.2824384","Major Projects","79"
"623 S Rampart Boulevard",,"CA","90057","34.061675800000003","-118.28215830000001","Land Use","25"
"623 S Rampart Boulevard",,"CA","90057","34.061675800000003","-118.28215830000001","Major Projects","11"
"4080 S Vermont Avenue",,"CA","90037","34.009308599999997","-118.2911763","Major Projects","25"
"1300-1336 Angelina Street",,"CA","90026","34.064765399999999","-118.25665239999999","Major Projects","40"
"10210 S Figueroa Street",,"CA","90003","33.943337300000003","-118.2821732","Major Projects","15"
"1302 E 41st Street",,"CA","90011","34.008958800000002","-118.2516918","Major Projects","11"
"9730 Reseda Boulevard",,"CA","91324","34.247420599999998","-118.5356094","Earthquake","44"
"3919 Nicolet",,"CA","90008","34.015603800000001","-118.35131010000001","Bond","4"
"3939 Ursula Avenue",,"CA","90008","34.015261700000003","-118.3527673","Bond","4"
"4040 Nicolet",,"CA","90008","34.013421399999999","-118.3508911","Bond","4"
"4729 Tacana Street",,"CA","90008","34.016607399999998","-118.3515171","Bond","5"
"6122 11th Street",,"CA","90043","33.983967999999997","-118.328881","Bond","2"
"6122 11th Street",,"CA","90043","33.983967999999997","-118.328881","Major Projects","83"
"14400 Chandler Boulevard",,"CA","91403","34.168492999999998","-118.4469972","Earthquake","10"
"8750 Topanga Canyon Boulevard",,"CA","91304","34.229649000000002","-118.602459","Bond","8"
"4621 Vista Del Monte Avenue",,"CA","91423","34.155366999999998","-118.450166","Bond","5"
"14045 Oxnard Street",,"CA","91401","34.179996000000003","-118.439092","Earthquake","39"
"14327 Dickens Street",,"CA","91423","34.149614999999997","-118.44537800000001","Earthquake","1"
"1726 N Kenmore Avenue",,"CA","90027","34.102642000000003","-118.296927","Earthquake","21"
"5443 Carlton Way",,"CA","90027","34.1008456","-118.308699","Earthquake","61"
"15543 Nordhoff Street",,"CA","91343","34.236241700000001","-118.47132689999999","Earthquake","38"
"20902 Denker Street",,"CA","90501","33.839784000000002","-118.303566","Major Projects","6"
"523 S Rampart Boulevard",,"CA","90057","34.063211199999998","-118.2812084","Earthquake","29"
"523 S Rampart Boulevard",,"CA","90057","34.063211199999998","-118.2812084","Land Use","1"
"12112  El Dorado Avenue",,"CA","91342","34.289880799999999","-118.45079149999999","Earthquake","4"
"14722 Delano Street",,"CA","91405","34.182355999999999","-118.453923","Earthquake","9"
"15260 Rayen Street",,"CA","91343","34.231617","-118.465388","Major Projects","6"
"647 S San Pedro Street",,"CA","90021","34.041191499999996","-118.2462785","Major Projects","9"
"4839-4851 Coldwater Canyon Boulevard",,"CA","91423","34.159078999999998","-118.414119","Earthquake","6"
"4345 1/2 8th Avenue",,"CA","90008","34.005611100000003","-118.32547150000001","Earthquake","1"
"14643 Blythe Street",,"CA","91402","34.215704000000002","-118.45237299999999","Major Projects","14"
"14607 Blythe Street",,"CA","91402","34.215710000000001","-118.451249","Major Projects","32"
"2557 S Bronson Avenue",,"CA","90018","34.033119900000003","-118.333805","Earthquake","7"
"5415-5425  Sepulveda Boulevard",,"CA","91403","34.1692052","-118.4668432","Earthquake","32"
"4616 Cahuenga Boulevard",,"CA","91602","34.154513999999999","-118.360826","Earthquake","6"
"20258 Roscoe Boulevard",,"CA","91306","34.219748099999997","-118.57508230000001","Earthquake","13"
"6727  Darby Avenue",,"CA","91335","34.1927722","-118.53385350000001","Earthquake","19"
"5738 Carlton Way",,"CA","90028","34.100146000000002","-118.314994","Earthquake","8"
"7817 Lankershim Boulevard",,"CA","91605","34.212719","-118.38836000000001","NPP","55"
"19131 Victory Boulevard",,"CA","91335","34.187040000000003","-118.550214","Earthquake","10"
"19119 Victory Boulevard",,"CA","91335","34.187001600000002","-118.5498314","Earthquake","10"
"19207 Victory Boulevard",,"CA","91335","34.187049999999999","-118.55144199999999","Earthquake","10"
"19143 Victory Boulevard",,"CA","91335","34.187038999999999","-118.550611","Earthquake","10"
"19155 Victory Boulevard",,"CA","91335","34.187040000000003","-118.551008","Earthquake","10"
"9927 De Soto Avenue",,"CA","91311","34.250990999999999","-118.58935750000001","Earthquake","32"
"6150-6160 Hazeltine Avenue",,"CA","91401","34.182366399999999","-118.439651","Earthquake","1"
"8735 Orion Avenue",,"CA","91343","34.229377900000003","-118.472407","Earthquake","10"
"5316  Cahuenga Boulevard",,"CA","91601","34.167214000000001","-118.36120200000001","Earthquake","1"
"2727 Budlong Avenue",,"CA","90007","34.030112799999998","-118.29604930000001","NPP","12"
"3505 Bellevue Avenue",,"CA","90026","34.080098","-118.28229399999999","Earthquake","1"
"2010 Chariton Street",,"CA","90034","34.039991899999997","-118.3778937","Bond","8"
"19236 Bryant Street",,"CA","91324","34.226982999999997","-118.552688","Earthquake","6"
"6021 Carlton Way",,"CA","90028","34.100754700000003","-118.3207658","Earthquake","11"
"12793 Mercer Street",,"CA","91331","34.276536999999998","-118.412356","Major Projects","75"
"3075-3083 E 6th Street",,"CA","90023","34.032971000000003","-118.20293700000001","NPP","5"
"5008 Tilden Avenue",,"CA","91403","34.161586999999997","-118.447153","Earthquake","6"
"7317 Sepulveda Boulevard",,"CA","91405","34.203498000000003","-118.466807","Earthquake","20"
"7317 Sepulveda Boulevard",,"CA","91405","34.203498000000003","-118.466807","Bond","3"
"962 S Hoover",,"CA","90006","34.053454600000002","-118.283826","Major Projects","21"
"15919 Vanowen Street",,"CA","91401","34.194249900000003","-118.479966","Earthquake","5"
"5517 Sierra Vista Avenue",,"CA","90038","34.089882000000003","-118.312056","Earthquake","1"
"1645 N Harvard Boulevard",,"CA","90028","34.101239","-118.30467899999999","Earthquake","3"
"8634 Columbus Avenue",,"CA","91343","34.227293000000003","-118.46485699999999","Earthquake","29"
"8852 Orion Avenue",,"CA","91343","34.231608000000001","-118.471582","Earthquake","10"
"15251 Sunburst Street",,"CA","91343","34.234748500000002","-118.4649984","Earthquake","8"
"13922 Sayre Street",,"CA","91342","34.307450000000003","-118.436188","Earthquake","15"
"6524  Sepulveda Boulevard",,"CA","91411","34.189222299999997","-118.4657363","Earthquake","13"
"2239 S Marvin Avenue",,"CA","90016","34.036602999999999","-118.363788","Earthquake","5"
"5825 Reseda Boulevard",,"CA","91356","34.176339599999999","-118.53669379999999","Earthquake","4"
"4334-4346 Matilija Avenue",,"CA","91403","34.149951999999999","-118.433615","Bond","11"
"105 E ""I"" Street",,"CA","90744","33.7815327","-118.2621874","CRA","57"
"340 S Reno",,"CA","90057","34.066977000000001","-118.28373499999999","Major Projects","45"
"21429 Hart Street/7006 Alabama Avenue",,"CA","91303","34.197497599999998","-118.59882450000001","Major Projects","8"
"7006 Alabama",,"CA","91303","34.197497599999998","-118.59882450000001","Bond","5"
"250 S Avenue 50",,"CA","90042","34.102608799999999","-118.20046360000001","Major Projects","59"
"3819 Motor Avenue",,"CA","90232","34.0197091","-118.40374610000001","Major Projects","9"
"15258 Gresham Street",,"CA","91343","34.230654999999999","-118.465397","Earthquake","6"
"450 S Burlington Avenue",,"CA","90017","34.059018000000002","-118.269959","Earthquake","17"
"4516 Coliseum Street",,"CA","90016","34.016789000000003","-118.346301","Earthquake","6"
"13535 Moorpark Street",,"CA","91403","34.150874000000002","-118.42819","Earthquake","1"
"2861 Leeward Avenue",,"CA","90005","34.057881399999999","-118.30966479999999","Earthquake","5"
"528 N Benton Way",,"CA","90026","34.075498000000003","-118.273489","Major Projects","15"
"528 N Benton Way",,"CA","90026","34.075498000000003","-118.273489","Bond","5"
"5657 La Mirada Avenue",,"CA","90028","34.093952100000003","-118.3128986","Major Projects","14"
"836 Fedora Street",,"CA","90005","34.056609000000002","-118.29729399999999","Major Projects","11"
"130 S La Fayette Park Place",,"CA","90057","34.069230400000002","-118.2785959","Major Projects","14"
"1633-1637 N Mariposa Avenue",,"CA","90027","34.1009478","-118.29993570000001","Earthquake","2"
"3835 W 2nd Street",,"CA","90004","34.071354300000003","-118.2991286","Earthquake","7"
"14446 Dickens Street",,"CA","91403","34.149529800000003","-118.4478586","Earthquake","1"
"4601 Fulton Avenue",,"CA","91403","34.154074999999999","-118.42285800000001","Earthquake","1"
"11638 Riverside Drive",,"CA","91602","34.157297999999997","-118.38687","Earthquake","1"
"2330 S Santa Ana Boulevard",,"CA","90059","33.934476500000002","-118.23133780000001","Major Projects","44"
"18303 Kittridge Street",,"CA","91335","34.190629899999998","-118.53190410000001","Bond","16"
"1209 W 8th Street",,"CA","90017","34.050070300000002","-118.26798789999999","Land Use","70"
"1925 W Adams",,"CA","90018","34.033048999999998","-118.3067923","Land Use","74"
"9555 Reseda Boulevard",,"CA","91324","34.24427","-118.537265","Earthquake","52"
"9555 Reseda Boulevard",,"CA","91324","34.24427","-118.537265","Bond","13"
"509 S Union Drive",,"CA","90017","34.058228900000003","-118.2692936","Earthquake","25"
"4121 Wilshire Boulevard",,"CA","90010","34.062097999999999","-118.3174996","Major Projects","21"
"4121 Wilshire Boulevard",,"CA","90010","34.062097999999999","-118.3174996","Bond","7"
"507-509 1/2 N Normandie Avenue",,"CA","90004","34.080282500000003","-118.30056190000001","Earthquake","1"
"12012 Valleyheart Drive",,"CA","91604","34.146505900000001","-118.3927667","Earthquake","1"
"833 Carondelet Street",,"CA","90057","34.056051799999999","-118.28294990000001","Bond","10"
"1802 E 92nd Street",,"CA","90002","33.953265000000002","-118.2402591","Major Projects","60"
"6202-6224 S Hoover Street",,"CA","90044","33.982537000000001","-118.286693","Major Projects","38"
"16920 Chatsworth Street",,"CA","91344","34.264080999999997","-118.50053800000001","Major Projects","68"
"14757 Sherman Way",,"CA","91406","34.2018342","-118.4548625","Bond","17"
"11300 Exposition Boulevard",,"CA","90064","34.034430299999997","-118.43834219999999","Land Use","11"
"1355 W Court Street",,"CA","90026","34.064712999999998","-118.2575083","Land Use","23"
"2737 Sunset Boulevard",,"CA","90026","34.081652400000003","-118.2710694","Major Projects","22"
"1727 Morton Avenue",,"CA","90026","34.083252999999999","-118.25163259999999","Major Projects","40"
"406-412 E 5th Street",,"CA","90013","34.044145999999998","-118.244699","Major Projects","55"
"2141 Estrella Avenue",,"CA","90007","34.032247699999999","-118.2766857","Major Projects","12"
"721-725 S Main Street",,"CA","90014","34.043629000000003","-118.25231599999999","Major Projects","42"
"1315 James M Wood Boulevard",,"CA","90006","34.0494579","-118.2694054","Bond","5"
"1810 W 12th Street",,"CA","90006","34.047262000000003","-118.278986","Bond","4"
"746 S Lake Street",,"CA","90057","34.0556105","-118.278435","Major Projects","56"
"746 S Lake Street",,"CA","90006","34.0507396","-118.2818953","Bond","5"
"740-744 Valencia Street",,"CA","90017","34.051800299999996","-118.26992920000001","Major Projects","8"
"740-744 Valencia Street",,"CA","90017","34.051800299999996","-118.26992920000001","Land Use","13"
"15100-15126 Moorpark Street",,"CA","91403","34.153897999999998","-118.46241999999999","Major Projects","84"
"6823 - 6833 Owensmouth Avenue",,"CA","91303","34.194265199999997","-118.60158699999999","Major Projects","80"
"2208-2226 S Western Avenue",,"CA","90018","34.035502999999999","-118.308628","Major Projects","18"
"1139-1145 W Colorado Boulevard",,"CA","90041","34.138035000000002","-118.190988","Major Projects","35"
"1139-1145 W Colorado Boulevard",,"CA","90041","34.138035000000002","-118.190988","Bond","7"
"1717 E 103rd Street",,"CA","90002","33.943209400000001","-118.3071739","Major Projects","49"
"1717 E 103rd Street",,"CA","90002","33.943209400000001","-118.3071739","Bond","12"
"5500-5528 S Figueroa Street",,"CA","90037","33.991928000000001","-118.282281","Major Projects","25"
"4600 W Martin Luther King Boulevard",,"CA","90016","34.018033299999999","-118.3476019","Major Projects","116"
"1953-1959 Estrella Avenue",,"CA","90007","34.034089799999997","-118.2756145","Major Projects","23"
"9700 Laurel Canyon Boulevard",,"CA","91331","34.246445000000001","-118.41799899999999","Major Projects","63"
"9700 Laurel Canyon Boulevard",,"CA","91331","34.246445000000001","-118.41799899999999","Bond","16"
"2455 Colorado Boulevard",,"CA","90041","34.141506200000002","-118.2204122","Major Projects","17"
"2455 Colorado Boulevard",,"CA","90041","34.141508899999998","-118.220293","Bond","25"
"1031 S Hope Street",,"CA","90015","34.043271400000002","-118.2626374","Bond","26"
"1031 S Hope Street",,"CA","90015","34.043271400000002","-118.2626374","CRA","56"
"451 E 120th Street & 4023-33 Nicolet",,"CA","90061","33.919644300000002","-118.27312689999999","Major Projects","38"
"1800-1860 W Martin Luther King Jr Boulevard",,"CA","90062","34.010542000000001","-118.313478","Major Projects","33"
"1051 W 42nd Place",,"CA","90037","34.006667999999998","-118.29337200000001","Bond","8"
"1057 W 42nd Place",,"CA","90037","34.006669000000002","-118.293537","Bond","8"
"2263 Adams Boulevard",,"CA","90018","34.033048800000003","-118.3167253","Bond","8"
"2628 W Boulevard",,"CA","90016","34.034019000000001","-118.3404561","Bond","7"
"1225 W 36th Street",,"CA","90007","34.022968900000002","-118.2952738","Bond","10"
"1758 W 49th Street",,"CA","90062","33.9986903","-118.3109852","Bond","7"
"2647 Halldale Avenue",,"CA","90018","34.031277000000003","-118.30316000000001","Bond","12"
"3012 Halldale Avenue",,"CA","90018","34.026876000000001","-118.30238199999999","Bond","12"
"1407 W 60th Place",,"CA","90047","33.985267","-118.30058200000001","Bond","3"
"1243 W 24th Street",,"CA","90007","34.034618999999999","-118.2876727","Bond","7"
"1551 W 24th Street",,"CA","90007","34.034695599999999","-118.29615219999999","Bond","8"
"1038 S Ardmore Street",,"CA","90007","34.029511399999997","-118.2848199","Bond","4"
"1042 S Ardmore Street",,"CA","90006","34.120919600000001","-118.37572059999999","Bond","4"
"1052 S Ardmore Street",,"CA","90006","34.120919600000001","-118.37572059999999","Bond","4"
"2626 S Manhattan Place",,"CA","90018","34.031830300000003","-118.3097728","Bond","10"
"2646 S Manhattan Place",,"CA","90018","34.031288000000004","-118.30976","Bond","5"
"13141 Fountain Park Drive",,"CA","90094","33.974645899999999","-118.4294441","Land Use","331"
"13141 Fountain Park Drive",,"CA","90094","33.974645899999999","-118.4294441","Bond","50"
"5389 Playa Vista Drive",,"CA","90094","33.975638799999999","-118.4288777","Bond","60"
"2201 S Beverly Glen Boulevard",,"CA","90026","34.049876400000002","-118.4206569","Land Use","1"
"420 E Broadway",,"CA","90291","33.993207699999999","-118.4705187","Land Use","1"
"509 S Westlake Avenue",,"CA","90057","34.059630599999998","-118.2737422","Land Use","6"
"5846 W Carlton",,"CA","90028","34.1001257","-118.31749720000001","Land Use","21"
"9205 Burnet Avenue",,"CA","91343","34.237409","-118.46412599999999","Land Use","1"
"11337 Collins Street",,"CA","91316","34.174204099999997","-118.5067887","Land Use","2"
"560 S Stanford Avenue",,"CA","90013","34.041014500000003","-118.24229269999999","Major Projects","43"
"3405 S Arlington Avenue",,"CA","90018","34.025247","-118.31791800000001","Land Use","7"
"3405 S Arlington Avenue",,"CA","90018","34.025247","-118.31791800000001","Major Projects","48"
"13115 Bromont Avenue",,"CA","91342","34.309119299999999","-118.43607830000001","Major Projects","80"
"616 W 81st Street",,"CA","90044","33.965239599999997","-118.2848058","Major Projects","12"
"109 W 56th Street",,"CA","90003","33.991762799999997","-118.274288","Major Projects","12"
"1011 Waterloo Street",,"CA","90017","34.077675900000003","-118.267848","Major Projects","8"
"549-551 Ceres Avenue",,"CA","90013","34.040514000000002","-118.241089","Major Projects","20"
"10026 Laurel Canyon Boulevard",,"CA","91331","34.252634","-118.424954","Land Use","2"
"801 E 4th Place",,"CA","90013","34.044595200000003","-118.2364072","NPP","30"
"12145 Burbank Boulevard",,"CA","91607","34.172381299999998","-118.3981251","Major Projects","13"
"1156 W Adams Boulevard",,"CA","90007","34.031956200000003","-118.2853795","Bond","8"
"1531 - 1541 W Adams",,"CA","90007","34.0327579","-118.29545090000001","Bond","3"
"300 E 51st Street",,"CA","90011","33.996319999999997","-118.269935","Bond","5"
"1122 W 37th Drive",,"CA","90007","34.018811900000003","-118.292395","Bond","3"
"1358 Burnside Avenue",,"CA","90019","34.049019999999999","-118.354225","Bond","7"
"2908 W Vernon Avenue",,"CA","90008","34.003482599999998","-118.3250975","Bond","5"
"6427 Hoover Boulevard",,"CA","90044","33.980500200000002","-118.2873151","Bond","4"
"1045 W 18th Street",,"CA","90015","34.039643400000003","-118.2800033","Bond","12"
"3704 Military Avenue",,"CA","90034","34.016787999999998","-118.415266","Major Projects","5"
"3740 Kelton Avenue",,"CA","90034","34.017122000000001","-118.412307","Major Projects","5"
"1226 E 7th Street",,"CA","90021","34.036738999999997","-118.241715","Major Projects","66"
"421 S Bixel Street",,"CA","90017","34.056189699999997","-118.2610712","Major Projects","19"
"421 S Bixel Street",,"CA","90017","34.056189699999997","-118.2610712","Land Use","17"
"2250 E 111th Street",,"CA","90044","33.9478802","-118.29358910000001","CRA","74"
"2250 E 111th Street",,"CA","90059","33.9478802","-118.29358910000001","Land Use","3"
"11021 W McCormick Street",,"CA","91601","34.165972500000002","-118.3714963","CRA","7"
"5239-5243 Harmony Avenue",,"CA","91601","34.166356","-118.366748","CRA","14"
"816 Bartlett Street",,"CA","90012","34.062654000000002","-118.24508400000001","CRA","64"
"14109 Hubbard Street",,"CA","91342","34.298977000000001","-118.440736","CRA","1"
"14440 Bledsoe Street",,"CA","91342","34.320008000000001","-118.44791600000001","CRA","1"
"7205 Hollywood Boulevard",,"CA","90046","34.102118599999997","-118.3469815","CRA","70"
"5250 & 5324 N Denny Avenue",,"CA","91601","34.167332500000001","-118.36424959999999","CRA","1"
"5315 N Harmony Avenue",,"CA","91601","34.166991500000002","-118.36676540000001","CRA","17"
"636 N Hill Place",,"CA","90012","34.060647600000003","-118.2419903","CRA","123"
"9505 Laurel Canyon Boulevard",,"CA","91331","34.241325000000003","-118.41449","CRA","14"
"11247 W Morrison Street",,"CA","91601","34.160829100000001","-118.3760547","CRA","99"
"812 & 845 E 28th Street",,"CA","90011","34.018523399999999","-118.26024459999999","CRA","1"
"1120 E 32nd Street",,"CA","90011","34.014318699999997","-118.2558755","CRA","6"
"8319 S Broadway",,"CA","90003","33.963901999999997","-118.278633","CRA","25"
"6337 Primrose Avenue",,"CA","90068","34.110056800000002","-118.328108","CRA","20"
"1242 S Norton Avenue",,"CA","90019","34.048101000000003","-118.32311199999999","CRA","1"
"10377 S Grandee Avenue",,"CA","90002","33.941692199999999","-118.24360280000001","CRA","60"
"417 N Bonnie Brae Street",,"CA","90026","34.070132399999999","-118.26539459999999","CRA","44"
"6650 W Franklin Avenue",,"CA","90028","34.104915900000002","-118.3350974","CRA","114"
"6650 W Franklin Avenue",,"CA","90028","34.104915900000002","-118.3350974","Bond","1"
"11035 W Magnolia Boulevard",,"CA","91601","34.165356199999998","-118.371104","CRA","198"
"2420 S Western Avenue",,"CA","90018","34.034005999999998","-118.3084662","CRA","1"
"428 S Grandview Street",,"CA","90012","34.061943599999999","-118.2756607","CRA","27"
"861-77 Bunker Hill Avenue",,"CA","90012","34.064489299999998","-118.2422017","CRA","20"
"419 N Mountainview Avenue",,"CA","90026","34.0706402","-118.2669496","CRA","21"
"6233 W Fountain Avenue",,"CA","90028","34.0947022","-118.32582789999999","CRA","88"
"7850 S Normandie Avenue",,"CA","90044","33.968578700000002","-118.3000031","CRA","80"
"988 42nd Place",,"CA","90011","34.006388999999999","-118.25833299999999","CRA","20"
"6842 Gentry Avenue",,"CA","91605","34.195187300000001","-118.3928825","CRA","3"
"10202 S Broadway",,"CA","90003","33.943592000000002","-118.277755","CRA","4"
"10206 S Broadway",,"CA","90003","33.943468000000003","-118.277755","CRA","4"
"310 W 103rd Street",,"CA","90003","33.942687999999997","-118.27875659999999","CRA","5"
"10210 S Broadway",,"CA","90003","33.943345000000001","-118.277754","CRA","4"
"10201 S Broadway",,"CA","90003","33.943587000000001","-118.27874799999999","CRA","4"
"10207 S Broadway",,"CA","90003","33.943459699999998","-118.2786749","CRA","4"
"10213 S Broadway",,"CA","90003","33.943339999999999","-118.278744","CRA","4"
"10217 S Broadway",,"CA","90003","33.943216999999997","-118.27874300000001","CRA","4"
"10223 S Broadway",,"CA","90003","33.943090699999999","-118.2786972","CRA","4"
"4400 W Washington Boulevard",,"CA","90016","34.039646300000001","-118.3357484","CRA","5"
"1341 W 37th Place",,"CA","90004","34.020243999999998","-118.29870099999999","CRA","5"
"1035 W 39th Street",,"CA","90037","34.015779000000002","-118.292564","CRA","5"
"4037 W Don Tomaso Street",,"CA","90008","34.004942999999997","-118.343953","CRA","5"
"538 W 81st Street",,"CA","90044","33.965243600000001","-118.2840436","CRA","5"
"538 602 & 717 W 81st Street",,"CA","90044","33.965845000000002","-118.28604799999999","Bond","6"
"602 W 81st Street",,"CA","90044","33.965181999999999","-118.28423600000001","CRA","5"
"717 W 81st Street",,"CA","90044","33.965845000000002","-118.28604799999999","CRA","5"
"11998 W Terra Bella Street",,"CA","91342","34.275185999999998","-118.394357","CRA","59"
"1315 E Pleasant",,"CA","90033","34.052117099999997","-118.2222036","CRA","24"
"14060 W Van Nuys Bvld",,"CA","91331","34.253328600000003","-118.4392756","CRA","31"
"623 W 92nd Street",,"CA","90044","33.953311900000003","-118.285499","CRA","5"
"503 W 70th Street",,"CA","90044","33.976274199999999","-118.28295730000001","CRA","3"
"503 W 70th Street",,"CA","90044","33.976274199999999","-118.28295730000001","Bond","2"
"6050 S Western Avenue",,"CA","90047","33.984476600000001","-118.3087104","Land Use","56"
"1371 W Vernon Avenue",,"CA","90037","34.004007000000001","-118.29983199999999","CRA","5"
"476 W 43rd Street",,"CA","90037","34.005360000000003","-118.282296","Major Projects","20"
"5711 N Elmer Avenue",,"CA","91601","34.174655999999999","-118.3763359","CRA","16"
"11717-43 Hamlin Avenue",,"CA","91601","34.188769700000002","-118.38826109999999","CRA","30"
"6312 S 10th Avenue",,"CA","90043","33.982453","-118.327505","CRA","1"
"15450 W Plummer Street",,"CA","91343","34.242362999999997","-118.46916299999999","CRA","74"
"3721 N Randolph Avenue",,"CA","90032","34.089406500000003","-118.18082630000001","CRA","1"
"1693 W Jefferson Boulevard",,"CA","90018","34.025737700000001","-118.306074","CRA","30"
"2633 S Normandie Avenue",,"CA","90007","34.031556000000002","-118.30061000000001","CRA","25"
"7937 Lindley Avenue",,"CA","91335","34.214891600000001","-118.5276843","CRA","1"
"1229 Westmoreland Avenue",,"CA","90006","34.048132000000003","-118.289559","CRA","40"
"255 S Hill Street",,"CA","90012","34.051836100000003","-118.24960590000001","CRA","756"
"5127 Huntington Drive",,"CA","90032","34.0892634","-118.17108330000001","CRA","22"
"1032 Beacon Street",,"CA","90014","34.048766999999998","-118.275561","CRA","16"
"6530 Winnetka Avenue",,"CA","91367","34.189705600000003","-118.57028390000001","CRA","24"
"5250 Harmony Avenue",,"CA","91601","34.166521600000003","-118.3661931","CRA","65"
"5552 Carlton Way",,"CA","90028","34.100160000000002","-118.311201","CRA","25"
"991 E Martin Luther King Jr Boulevard",,"CA","90011","34.011210699999999","-118.2582549","CRA","17"
"255 S Grand Avenue",,"CA","90012","34.053675499999997","-118.25154209999999","Land Use","59"
"1200 S Union Avenue",,"CA","90015","34.045607699999998","-118.2757654","CRA","88"
"1200 S Union Avenue",,"CA","90015","34.045607699999998","-118.2757654","Bond","3"
"801 W 40th Place",,"CA","90037","34.010297899999998","-118.28740740000001","CRA","7"
"206 E 23rd Street",,"CA","90013","34.026445000000002","-118.265894","Land Use","2"
"206 E 23rd Street",,"CA","90011","34.026445000000002","-118.265894","CRA","8"
"2919 Redondo Boulevard",,"CA","90016","34.026446","-118.35904499999999","CRA","10"
"6603 Brynhurst Avenue",,"CA","90043","33.978774000000001","-118.33419600000001","CRA","9"
"601-641 W 40th Place",,"CA","90011","34.010804200000003","-118.2854112","CRA","135"
"600 N Broadway",,"CA","90012","34.058930500000002","-118.23957679999999","CRA","270"
"950 S Flower Street",,"CA","90015","34.044671000000001","-118.26211000000001","CRA","38"
"950 S Flower Street",,"CA","90015","34.044671000000001","-118.26211000000001","Bond","3"
"6927 N Simpson Avenue",,"CA","91605","34.196781799999997","-118.3891357","CRA","5"
"1424 S Manhattan Place",,"CA","90019","34.045545699999998","-118.3099254","CRA","5"
"3839 Wisconsin Street",,"CA","90037","34.016096500000003","-118.293086","CRA","8"
"5218 & 5234 Harmony Avenue",,"CA","91601","34.168070299999997","-118.3664309","CRA","70"
