"the_geom","objectid","propertyid","name","parktype","parkclass","address","postalcity","zipcode","owner","manager","parkhours","acresimproved","acresunimproved","parkweblink","altweblink","ispublicaccessible","maplabel","gisacres","restroom","adacomply","parking","paved_trail","unpaved_trail","trailhead","community_center","picnic","playground","dog_park","baseball","basketball","multipurpose","golf","beach","fishing","boat_launch","skate","tennis","bmx","climbing","equestrian","disc_golf","ice_rink","qtr_midget_track","parksize","description","visibleinapp","camping"
"POINT (-122.622560933879 47.252684693359)","305","2768","Fox Island Nature Center","Wildlife Habitat","Resource Conservancy","716 9th Ave","Fox Island","98333","Fox Island Comunity and Recreation Association","Fox Island Comunity and Recreation Association","Dawn to Dusk","0","0","http://www.foxislandwa.net/nature_center.htm",,"1","Fox Island Nature Center","5.02962705",,,,,,,,,,,,,,,,,,,,,,,,,,"0",,"No",
"POINT (-122.406479239766 47.203981268225)","59","118","Cloverdale Park","Park","Local","1635 E 59TH ST","Tacoma","98404","City of Tacoma","Metro Parks Tacoma","Dawn to Dusk","2.21","0","http://www.metroparkstacoma.org/cloverdale-park",,"1","Cloverdale Park","2.21323528",,,,,,,,,,,,,,,,,,,,,,,,,,"0",,"No",
"POINT (-122.355665879353 47.238410486651)","95","178","Fife Swim Center","Rec Center","Special Use","5410 20th Street E","Fife","98424","City of Fife","City of Fife","M-F, 6AM-9PMSat, 10AM-3PM","1.36","0","http://cityoffife.org/?p=city_departments&a=parks_and_recreation&b=fife_swim_center",,"1","Fife Swim Center","2.0778925",,,,,,,,,,,,,,,,,,,,,,,,,,"0",,"No",
"POINT (-122.680069765095 47.088154902274)","330","3115","Hoffman Hill Neighborhood Park","Park","Local","3475 Hoffman Hill Blvd","DuPont","98327","City of DuPont","City of DuPont","Dawn to Dusk","1","0","http://www.ci.dupont.wa.us/public-works/parks-recreation/city-parks.html",,"1","Hoffman Hill Neighborhood Park","0.94967112",,,,,,,,,,,,,,,,,,,,,,,,,,"0",,"No",
"POINT (-122.535917043359 47.257664957313)","226","357","War Memorial Park","Park","Regional","South Macarthur St and 6th Av","Tacoma","98406","State of Washington","State of Washington DOT","Dawn to Dusk","8.2","0","http://www.wsdot.wa.gov/tnbhistory/Connections/connections5.htm",,"1","War Memorial Park","0.50490198",,,,,,,,,,,,,,,,,,,,,,,,,,"0",,"No",
"POINT (-122.573912666118 47.303561526176)","323","1852","Cushman Trailhead Park","Trail","Linear Park","2626 Hollycroft Street","Gig Harbor","98335","City of Gig Harbor","City of Gig Harbor","Dawn to Dusk (unless otherwise posted)","0.47","0","http://www.cityofgigharbor.net/page.php?id=699#Cushman Trail",,"1","Cushman Trailhead Park","6.46326618",,,,,,,,,,,,,,,,,,,,,,,,,,"0",,"No",
"POINT (-122.396214603018 47.205244574679)","212","335","Swan Creek Park- Metro","Park","Undeveloped Sites","2730 Pioneer Way E","Tacoma","98404","City of Tacoma","Metro Parks Tacoma","Dawn to Dusk","0","213.3999","http://www.metroparkstacoma.org/swan-creek-park",,"1","Swan Creek Park- Metro","248.75997314",,,,,,,,,,,,,,,,,,,,,,,,,,"0",,"No",
"POINT (-122.561446086891 47.171894212535)","35","92","Fort Steilacoom Park","Park","Other","8714 Elwood Dr SW","Lakewood","98498","State of Washington","City of Lakewood","7:30am - 9:00pm or sunset, whichever comes first","261.27","274.73","http://www.cityoflakewood.us/government/departments/parks-and-recreation/lakewood-parks",,"1","Fort Steilacoom Park","600.39167994",,,,,,,,,,,,,,,,,,,,,,,,,,"0",,"No",
"POINT (-122.231527302677 47.108613241493)","294","2675","Wetland in Village Green","Wildlife Habitat","Local","Williams Ct NW","Orting","98360","City of Orting","City of Orting","Dawn to Dusk (unless otherwise posted)","0","0",,,"1","Wetland in Village Green","40.18624388",,,,,,,,,,,,,,,,,,,,,,,,,,"0",,"No",
"POINT (-122.514807490968 47.204749145239)","309","2779","Creekside Park","Park","Undeveloped Sites","5700 BLK 57TH AV W","University Place","98467","City of University Place","City of University Place","Currently undeveloped","0","14.98",,,"1","Creekside Park","15.39807723",,,,,,,,,,,,,,,,,,,,,,,,,,"0",,"No",
"POINT (-122.571713550878 47.294276492386)","251","1597","Madrona Links Golf Course","Golf","Special Use","3604 22ND AV NW","Gig Harbor","98335","Peninsula Metropolitan Park District","Peninsula Metropolitan Park District",,"91","0","https://madronalinks.com/",,"1","Madrona Links Golf Course","91.41441329","yes",,"yes",,,,,,,,,,,"yes",,,,,,,,,,,,"91",,"No",
"POINT (-122.260314353892 47.165866606825)","181","295","Rainier Woods Park","Park","Local","2610 Cherokee Blvd","Puyallup","98374","City of Puyallup","City of Puyallup","8 am to Dusk","7.35","0","http://www.cityofpuyallup.org/services/parks-recreation/city-puyallup-parks/rainer-woods-park/",,"1","Rainier Woods Park","7.78496599",,,,,,,,,,,,,,,,,,,,,,,,,,"0",,"No",
"POINT (-122.451850683179 47.186112047422)","201","322","South End Neighborhood Center","Community Center","Local","7802 South L Street","Tacoma","98408","City of Tacoma","Metro Parks Tacoma","Hours vary - see www.metroparkstacoma.org","2.75","0",,"http://www.metroparkstacoma.org/page.php?id=630","1","South End Neighborhood Center","2.73068555",,,,,,,,,,,,,,,,,,,,,,,,,,"0",,"No",
"POINT (-122.187802180984 47.190443010233)","14","67","Ken Simmons Park","Park","Resource Conservancy","18200 74th St E","Bonney Lake","98391","City of Bonney Lake","City of Bonney Lake","Dawn to Dusk","0","2","http://www.ci.bonney-lake.wa.us/section_community/parks_recreation/city_parks.shtml#kensimmons",,"1","Ken Simmons Park","1.52345119",,,,,,,,,,,,,,,,,,,,,,,,,,"0",,"No",
"POINT (-122.534826489908 47.18700671502)","205","326","South Puget Sound Unit","Wildlife Habitat","Special Use","7801 Phillips Rd","Lakewood","98498","State of Washington","State of Washington","Closed during hours of darkness","0","86.28","http://wdfw.wa.gov/lands/wildlife_areas/south_puget_sound/South%20Puget%20Sound/",,"1","South Puget Sound Unit","86.04644393",,,,,,,,,,,,,,,,,,,,,,,,,,"0",,"No",
"POINT (-122.712964891352 47.166339346818)","11","63","Jane Cammon Park","Playfield","Special Use","13005 Camus RD AI","Anderson Island","98303","Anderson Island Park District","Anderson Island Park District","7 am to 10:30 pm","0","40","http://www.andersonislandparks.org/Jane_Cammon_Park.html",,"1","Jane Cammon Park","40.63779604",,,,,,,,,,,,,,,,,,,,,,,,,,"0",,"No",
"POINT (-122.238624295279 47.203049521368)","189","306","Ryan House","Community Center","Local","1228 Main Street","Sumner","98390","City of Sumner","Sumner Historical Society","Summer Hours Only Sat/Sunday 1-4pm","0.418","0","http://www.ci.sumner.wa.us/Living/Ryan_House.htm",,"1","Ryan House","0.41874035",,,,,,,,,,,,,,,,,,,,,,,,,,"0",,"No",
"POINT (-122.653766372558 47.330846763885)","185","300","Rosedale Park","Rec Center","Special Use","86th Avenue NW","Gig Harbor","98332","Peninsula Metropolitan Park District","Peninsula Metropolitan Park District","7 am to dusk","2","0","http://www.penmetparks.org/26501/27785.html",,"1","Rosedale Park","2.19376457",,,,,,,,,,,,,,,,,,,,,,,,,,"0",,"No",
"POINT (-122.460594885536 47.275175283006)","120","212","Jack Hyde Park on Commencement Bay","Park","Local","1743 N Schuster Pkwy","Tacoma","98402","City of Tacoma","Metro Parks Tacoma","Dawn to Dusk","11.56","0","http://www.metroparkstacoma.org/jack-hyde-park",,"1","Jack Hyde Park on Commencement Bay","11.01022331",,,,,,,,,,,,,,,,,,,,,,,,,,"0",,"No",
"POINT (-122.164165391109 47.240915711094)","334","126","North Lake Tapps Park","Park","County","2022 198th Ave E","Bonney Lake","98391","Pierce County","Pierce County Parks and Recreation Services","7:30 am - 8 pm from April through September","2","60","https://www.co.pierce.wa.us/1326/Lake-Tapps-Park",,"1","North Lake Tapps Park","134.56677284","Yes","Yes","Yes","No","No","No","No","Yes","No","No","No","No","No","No","Yes","Yes","Yes","No","No","No","No","No","No","No","No","135.2","This popular swimming and boat launch area is located on the north side of Lake Tapps. The 135-acre site is mostly wooded and undeveloped with the exception of parking areas, boat launch, and swimming beach along the waterfront.","Yes",
"POINT (-122.45108662072 47.246219769718)","132","225","People's Neighborhood Resource Center","Rec Center","Local","1602 Martin Luther King Jr Way","Tacoma","98405","City of Tacoma","Metro Parks Tacoma","Hours vary - see www.metroparkstacoma.org","0.6342","0","http://www.metroparkstacoma.org/page.php?id=48",,"1","People's Neighborhood Resource Center","1.6464625",,,,,,,,,,,,,,,,,,,,,,,,,,"0",,"No",
"POINT (-122.443566981059 47.253782674807)","298","2680","McCormick Park","Park","Local","945 Fawcett Av","Tacoma","98402","City of Tacoma","City of Tacoma",,"0","0",,,"1","McCormick Park","0.43722606",,,,,,,,,,,,,,,,,,,,,,,,,,"0",,"No",
"POINT (-122.529832306014 47.308313561832)","135","229","Point Defiance","Park","Regional","5400 N Pearl St","Tacoma","98407","City of Tacoma","Metro Parks Tacoma","Dawn to Dusk","647.858","0","http://www.metroparkstacoma.org/point-defiance-park",,"1","Point Defiance","732.91572357","Yes","Yes","Yes","Yes","Yes","Yes","No","Yes","Yes","Yes","No","No","No","No","Yes","Yes","No","No","No","No","No","No","No","No","No","760","This 760-acre park is a popular destination for more than 3.1 million people each year. Natural forest, saltwater beaches and spectacular views offer numerous possibilities for recreation, education and communing with nature.","no","No"
"POINT (-122.671430428283 47.101674646739)","326","3116","Parkview Neighborhood Park","Park","Local","Ridge View Place","DuPont","98327","City of DuPont","City of DuPont","Dawn to Dusk","0.33","0","http://www.ci.dupont.wa.us/public-works/parks-recreation/city-parks.html",,"1","Parkview Neighborhood Park","0.33270477",,,,,,,,,,,,,,,,,,,,,,,,,,"0",,"No",
"POINT (-122.593065451271 47.329070641311)","255","1846","Wilkinson Farm Park","Park Under Construction","Resource Conservancy","4118 Rosedale St","Gig Harbor","98335","City of Gig Harbor","City of Gig Harbor","Dawn to Dusk","16","0","http://www.cityofgigharbor.net/page.php?id=699",,"1","Wilkinson Farm Park","17.22620357",,,,,,,,,,,,,,,,,,,,,,,,,,"0",,"No",
"POINT (-122.053818213842 47.08322913338)","337","184","Foothills Trail- Carbonado","Trail","Linear Park","SR165 E","Carbonado","98323","Town of Carbonado","Town of Carbonado","Dawn to Dusk","19.74","0","http://www.co.pierce.wa.us/2343/Wilkeson-to-Carbonado",,"1","Foothills Trail- Carbonado","20.37184759","No","No",,"No","Yes","No","No","No","No",,"No","No","No","No","No","No","No","No","No","No","No","No","No","No","No","0",,"No",
"POINT (-122.373391527444 47.281815354864)","165","273","Northeast Tacoma Playground","Park","Local","5520 29th St NE","Tacoma","98422","City of Tacoma","Metro Parks Tacoma","Dawn to Dusk","3.8545","0","http://www.metroparkstacoma.org/northeast-tacoma-playground",,"1","Northeast Tacoma Playground","3.85541484",,,,,,,,,,,,,,,,,,,,,,,,,,"0",,"No",
"POINT (-122.501469432349 47.196796424291)","151","256","Manitou Community and Art Center","Community Center","Local","4806 South 66th Street","Tacoma","98409","City of Tacoma","Metro Parks Tacoma","Hours vary see website","2.3998","0","http://www.metroparkstacoma.org/page.php?id=803","http://www.metroparkstacoma.org/page.php?id=671","1","Manitou Community and Art Center","2.39595904",,,,,,,,,,,,,,,,,,,,,,,,,,"0",,"No",
"POINT (-122.419392472074 47.217788277384)","139","235","McKinley Playfield","Playfield","Local","4329 McKinley Ave","Tacoma","98404","City of Tacoma","Metro Parks Tacoma","Dawn to Dusk","5.198","0","http://www.metroparkstacoma.org/mckinley-playfield",,"1","McKinley Playfield","5.18122936",,,,,,,,,,,,,,,,,,,,,,,,,,"0",,"No",
"POINT (-122.28339654513 46.796056008974)","5","57","Alder Lake Park","Park","Regional","50324 School Rd","Eatonville","98328","City of Tacoma","Tacoma Power","Dawn to Dusk","161","537","http://www.mytpu.org/tacomapower/parks-rec/alder-lake-park/Default.htm",,"1","Alder Lake Park","771.42612432","Yes","Yes","Yes","No","No","No","No","Yes","No","No","No","No","No","No","Yes","Yes","Yes","No","No","No","No","No","No","No","No","0","Tacoma Power's Alder Lake Park offers expansive campgrounds and access to Alder Lake (formed by Alder Dam) in Pierce County, Washington.","no","Yes"
"POINT (-122.508795237785 47.171164469817)","42","100","Seeley Lake Park","Wildlife Habitat","Resource Conservancy","9112 Lakewood Drive SW","Lakewood","98499","Pierce County","Pierce County Parks and Recreation Services","Dawn to Dusk","0","46","http://www.co.pierce.wa.us/index.aspx?NID=1333",,"1","Seeley Lake Park","46.39982109","Yes","No","Yes","No","Yes","No","No","No","No","No","No","No","No","No","No","No","No","No","No","No","No","No","No","No","No","45.98","Seeley Lake Park is a small park nestled between a busy street, retail stores, and an apartment complex. This 48-acre park includes a 1-mile soft-surface walking trail surrounding wetlands.","Yes",
"POINT (-122.452398509486 47.23754386922)","197","316","Sheridan Park","Park","Local","2347 S Sheridan Ave","Tacoma","98405","City of Tacoma","Metro Parks Tacoma","Dawn to Dusk (unless otherwise posted)","0.4906","0","http://www.metroparkstacoma.org/sheridan-park",,"1","Sheridan Park","0.56743487",,,,,,,,,,,,,,,,,,,,,,,,,,"0",,"No",
"POINT (-122.569293742756 47.388952823227)","26","79","Crescent Lake Park","Park","TBD","14404 Talmo Dr NW","Gig Harbor","98332","Pierce County","Pierce County Public Works Surface Water Management","Dawn to Dusk","0","0.9","http://www.co.pierce.wa.us/pc/services/recreate/fac-list.htm#C",,"1","Crescent Lake Park","0.86035194",,,,,,,,,,,,,,,,,,,,,,,,,,"0",,"No",
"POINT (-122.512450599301 47.232715204346)","97","180","Fircrest Tot Lot","Park","Local","120 Ramsdell St","Fircrest","98466","City of Fircrest","City of Fircrest","Dawn to Dusk","0","1.07",,,"1","Fircrest Tot Lot","1.05400972",,,,,,,,,,,,,,,,,,,,,,,,,,"0",,"No",
"POINT (-122.2944326056 47.189274398731)","134","228","Pioneer Park","Park","Local","324 South Meridian","Puyallup","98371","City of Puyallup","City of Puyallup","May 1-Sep 30 - 6 am - 10 pmOct 1-Apr 30 - 6 am - 8 pm","2","0","http://www.cityofpuyallup.org/services/parks-recreation/city-puyallup-parks/pioneer-park/",,"1","Pioneer Park","3.17387323",,,,,,,,,,,,,,,,,,,,,,,,,,"0",,"No",
"POINT (-122.42479351343 47.204768625459)","208","329","Stewart Heights Park","Rec Area","Local","402 E 56th St, E 60th St At E B St","Tacoma","98404","City of Tacoma","Metro Parks Tacoma","Dawn to Dusk","22.89","0","http://www.metroparkstacoma.org/stewart-heights-park",,"1","Stewart Heights Park","24.08287043",,,,,,,,,,,,,,,,,,,,,,,,,,"0",,"No",
"POINT (-122.591516929454 47.22866354348)","49","108","Fox Island Fishing Pier","Pier","Special Use","1453 Ozette Drive","Fox Island","98333","Peninsula Metropolitan Park District","Peninsula Metropolitan Park District","7 am to dusk","5.5","0","https://penmetparks.org/parks/fox-island-fishing-pier/",,"1","Fox Island Fishing Pier","9.67584825","yes",,"yes","yes",,,,"yes",,,,,,,"yes","yes",,,,,,,,,,"5.5",,"No",
"POINT (-122.411657371321 47.133648771309)","65","125","Mayfair Playfield","Park","Local","13510 13th AVCT E","Parkland","98445","Pierce County","Pierce County Parks and Recreation Services","Dawn to Dusk","4.87","4","https://www.co.pierce.wa.us/4889/Mayfair-Playfield",,"1","Mayfair Playfield","4.90172981","No","No","Yes","No","No","No","No","No","Yes","No","No","No","No","No","No","No","No","No","No","No","No","No","No","No","No","4.58","This neighborhood playfield serves the Parkland community and is located along Clover Creek. The park includes a playground and open lawn.","Yes",
"POINT (-122.599156170131 47.173749055748)","321","1898","Pioneer Park","Park","Local","Commercial and Wilkes","Steilacoom","98388","Town of Steilacoom","Town of Steilacoom","Dawn to Dusk","1","0","http://www.townofsteilacoom.com/activities/parks_recreation.htm#pioneer",,"1","Pioneer Park","1.05391331",,,,,,,,,,,,,,,,,,,,,,,,,,"0",,"No",
"POINT (-122.612957397401 47.168474372799)","190","307","Saltar's Point Beach","Beach","Local","91 Champion St","Steilacoom","98388","Town of Steilacoom","Town of Steilacoom","Dawn to Dusk","1.1","0","http://www.townofsteilacoom.com/activities/parks_recreation.htm#saltars_point",,"1","Saltar's Point Beach","0.92458952",,,,,,,,,,,,,,,,,,,,,,,,,,"0",,"No",
"POINT (-122.677528992686 47.095763278118)","267","1860","Chief Leschi Park","Park","Local","1755 Brown Av","DuPont","98327","City of DuPont","City of DuPont","Dawn to Dusk","4.68","0","http://www.ci.dupont.wa.us/public-works/parks-recreation/city-parks.html",,"1","Chief Leschi Park","4.68260073",,,,,,,,,,,,,,,,,,,,,,,,,,"0",,"No",
"POINT (-122.616974825868 47.351101608677)","177","289","McCormick Forest Park","Park","Local","10301 Bujacich Rd NW","Gig Harbor","98332","Peninsula Metropolitan Park District","Peninsula Metropolitan Park District","7 am to dusk",,"109.74","https://penmetparks.org/parks/mccormick-forest-park/",,"1","McCormick Forest Park","109.74","yes",,,,"yes",,,"yes",,,,,,,,,,,,,,,,,,"109",,"No",
"POINT (-122.440136381172 47.12358250602)","2","43","Sprinker Recreation Center","Rec Center","Regional","14824 S C ST","Tacoma","98444","Pierce County","Pierce County Parks and Recreation Services","See website","45","0","https://www.co.pierce.wa.us/1310/Sprinker-Recreation-Center",,"1","Sprinker Recreation Center","45.24461158","Yes","Yes","Yes","No","No","No","Yes","No","Yes","No","Yes","No","No","No","No","No","No","Yes","Yes","No","Yes","No","No","Yes","No","43.76","Sprinker Recreation Center is part of Spanaway Regional Park, and includes many indoor and outdoor recreation facilities, including ice rink, raquet-sports and basketball courts, ballfields, and skatepark with many community activities.","Yes",
"POINT (-122.490962275136 47.231532415041)","169","278","Oakland - Madrona Park","Park","Local","3114 S Madison St.","Tacoma","98409","City of Tacoma","Metro Parks Tacoma","Dawn to Dusk","2.82","0","http://www.metroparkstacoma.org/oakland-madrona-park",,"1","Oakland - Madrona Park","2.83337656",,,,,,,,,,,,,,,,,,,,,,,,,,"0",,"No",
"POINT (-122.193129386146 47.093552905819)","297","2679","Rainier Meadows Park","Park","Local","Brown Wy SE","Orting","98360","City of Orting","City of Orting","Dawn to Dusk (unless otherwise posted)","0","0",,,"1","Rainier Meadows Park","4.21282266",,,,,,,,,,,,,,,,,,,,,,,,,,"0",,"No",
"POINT (-122.449092242332 47.260207819571)","239","371","Wright Park","Park","Local","6th Ave At S Yakima Ave","Tacoma","98405","City of Tacoma","Metro Parks Tacoma","Dawn to Dusk","27","0","http://www.metroparkstacoma.org/wright-park",,"1","Wright Park","29.30808637",,,,,,,,,,,,,,,,,,,,,,,,,,"0",,"No",
"POINT (-122.386095791004 47.286997023179)","6","58","Alderwood Park","Park","Local","208 Browns Point Blvd","Tacoma","98422","City of Tacoma","Metro Parks Tacoma","Dawn to Dusk","7","0","http://www.metroparkstacoma.org/alderwood-park",,"1","Alderwood Park","6.58836554",,,,,,,,,,,,,,,,,,,,,,,,,,"0",,"No",
"POINT (-122.370460773504 47.100942236953)","84","163","Cross Park","Park","County","4418 Military Road East","Tacoma","98446","Pierce County","Pierce County Parks and Recreation Services","Dawn to Dusk","4","60","https://www.co.pierce.wa.us/6967/Cross-Park",,"1","Cross Park","61.57230146","Yes","Yes","Yes","Yes",,,"Yes","Yes","Yes","No","No","No","No","No","No","No","No","No","No","No","No","No","No","No","No","64.03",,"Yes","No"
"POINT (-122.51769408578 47.205433005096)","144","247","Leach Creek Park","Park","Resource Conservancy","Alameda Ave W At Cirque Dr W","University Place","98467","City of University Place","City of University Place","Currently undeveloped","0","17.15","http://cityofup.com/Media/file/ParksAndRec/Park%20location_descript%202011.pdf",,"1","Leach Creek Park","19.5307323",,,,,,,,,,,,,,,,,,,,,,,,,,"0",,"No",
"POINT (-122.730313746971 47.146353144694)","200","321","Andy's Marine Park","Wildlife Habitat","Local","12414 Claussen Rd AI","Anderson Island","98303","Anderson Island Park District","Anderson Island Park District","7 am to 10:30 pm","0","11.7","http://www.andersonislandparks.org/Andy_s_Marine_Park.html",,"1","Andy's Marine Park","88.4329159",,,,,,,,,,,,,,,,,,,,,,,,,,"0",,"No",
"POINT (-122.469313892106 47.226941641204)","145","248","Lincoln Heights","Park","Local","3690 South Steele Street","Tacoma","98409","City of Tacoma","Metro Parks Tacoma","Dawn to Dusk","3","0","http://www.metroparkstacoma.org/lincoln-heights-park",,"1","Lincoln Heights","3.00893784",,,,,,,,,,,,,,,,,,,,,,,,,,"0",,"No",
"POINT (-122.560709769897 47.141522619819)","9","61","American Lake North Park","Park","Local","9222 Veterans Dr SW","Lakewood","98498","City of Lakewood","City of Lakewood","7:30am - 9:00pm or sunset, whichever comes first","5","0","http://www.cityoflakewood.us/government/departments/parks-and-recreation/lakewood-parks",,"1","American Lake North Park","5.18756516",,,,,,,,,,,,,,,,,,,,,,,,,,"0",,"No",
"POINT (-122.536884627697 47.146144242359)","142","244","Lakewold Gardens","Park","Private","12317 Gravelly Lake Dr SW","Lakewood","98499","Friends of Lakewold","Friends of Lakewold","See website","6.5098","0","http://www.lakewoldgardens.org/general_information.html",,"1","Lakewold Gardens","9.66314635",,,,,,,,,,,,,,,,,,,,,,,,,,"0",,"No",
"POINT (-122.63425929835 47.380616869017)","110","198","Purdy Sand Spit","Beach","Unclassified","Goodrich Dr NW and SR 302","Purdy","98329","Pierce County","Pierce County Parks and Recreation Services","Dawn to Dusk","0","7.5","https://www.co.pierce.wa.us/3947/Purdy-Sand-Spit",,"1","Purdy Sand Spit","67.39233489","No","No","Yes","No","No","No","No","No","No","No","No","No","No","No","Yes","Yes","Yes","No","No","No","No","No","No","No","No","63.97","The Purdy Sand Spit is an unimproved waterfront public area that runs right along SR 302. Its 7.5 acres includes a boat launch. A great place to see waterfowl such as sea gulls and blue heron.","Yes",
"POINT (-122.533706181707 47.211283226677)","36","93","Cirque/ Bridgeport Park","Park","Local","7250 Cirque Dr W","University Place","98467","City of University Place","City of University Place","Dawn to Dusk (unless otherwise posted)","26.87","0","http://cityofup.com/Media/file/ParksAndRec/WHERE%20ARE%20OUR%20PARKS%202011.pdf",,"1","Cirque/ Bridgeport Park","26.8768516",,,,,,,,,,,,,,,,,,,,,,,,,,"0",,"No",
"POINT (-122.322715252233 47.255120951933)","115","206","Interurban Trail - Milton","Trail","Linear Park","12TH ST E","Tacoma","98424","City of Milton","City of Milton","Dawn to Dusk (unless otherwise posted)","0","12.16","http://cityofmilton.net/page.php?id=96",,"1","Interurban Trail - Milton","17.35956949",,,,,,,,,,,,,,,,,,,,,,,,,,"0",,"No",
"POINT (-122.32245534751 47.186848359774)","72","140","DeCoursey Park","Park","Local","1800 7th Ave Sw","Puyallup","98371","City of Puyallup","City of Puyallup","8 am to Dusk","8.12","0","http://www.cityofpuyallup.org/services/parks-recreation/city-puyallup-parks/decoursey-park/",,"1","DeCoursey Park","7.24037302",,,,,,,,,,,,,,,,,,,,,,,,,,"0",,"No",
"POINT (-122.509119177962 47.269954233524)","125","217","Kandle Playfield and Park","Park","Local","2323 N Shirley St","Tacoma","98407","City of Tacoma","Metro Parks Tacoma","Dawn to Dusk","10.6","0","http://www.metroparkstacoma.org/kandlepark",,"1","Kandle Playfield and Park","10.57087835",,,,,,,,,,,,,,,,,,,,,,,,,,"0",,"No",
"POINT (-122.245153377677 47.184105668227)","339","2774","Foothills Trail- East Puyallup Trailhead","Trail Head","Linear","13810 80th Street","Puyallup","98372","Pierce County","Pierce County Parks and Recreation Services","Dawn to Dusk (Unless otherwise posted)","0","0","https://www.piercecountywa.org/1393/Trailheads",,"1","Foothills Trail- East Puyallup Trailhead","2.09037552","Yes","Yes","Yes","Yes","No","Yes","No","No","No","No","No","No","No","No","No","No","No","No","No","No","No","No","No","No","No","0","The East Puyallup Trailhead features a restroom facility, kiosk, bicycle rack, equestrian hitching post and 23 parking spaces.","Yes",
"POINT (-122.464283274549 47.247463186041)","130","223","Peck Field","Playfield","Local","2102 S 14th St","Tacoma","98405","City of Tacoma","Metro Parks Tacoma","Dawn to Dusk","9.4","0","http://www.metroparkstacoma.org/peck-field",,"1","Peck Field","9.18795377",,,,,,,,,,,,,,,,,,,,,,,,,,"0",,"No",
"POINT (-122.627042692725 47.094303333064)","268","1864","Iafrati Park","Park","Local","Barksdale Av","DuPont","98327","City of DuPont","City of DuPont","Dawn to Dusk","0.61","0","http://www.ci.dupont.wa.us/public-works/parks-recreation/city-parks.html",,"1","Iafrati Park","0.61043492",,,,,,,,,,,,,,,,,,,,,,,,,,"0",,"No",
"POINT (-122.561191490071 47.221196561945)","63","123","Curran Apple Orchard","Park","Local","4009 Curran Lane West","University Place","98466","City of University Place","City of University Place","Dawn to Dusk (unless otherwise posted)","7.33","0","http://cityofup.com/Media/file/ParksAndRec/WHERE%20ARE%20OUR%20PARKS%202011.pdf",,"1","Curran Apple Orchard","7.02080221",,,,,,,,,,,,,,,,,,,,,,,,,,"0",,"No",
"POINT (-122.629969448488 47.100935228116)","329","3112","Bell Hill Community Park","Park","Local","Bell Hill Pl","DuPont","98327","City of DuPont","City of DuPont","Dawn to Dusk","3.34","0","http://www.ci.dupont.wa.us/public-works/parks-recreation/city-parks.html",,"1","Bell Hill Community Park","3.34589393",,,,,,,,,,,,,,,,,,,,,,,,,,"0",,"No",
"POINT (-122.702140134549 47.141797280587)","310","2782","Jacobs Point Park","Park","Local","Eckenstam Johnson Rd","Anderson Island","98303","Anderson Island Park District","Anderson Island Park District",,"0","0",,,"1","Jacobs Point Park","86.13242665",,,,,,,,,,,,,,,,,,,,,,,,,,"0",,"No",
"POINT (-122.565240621118 47.18831637136)","168","277","Oakbrook Park","Park","Local","9701 Onyx DR SW","Lakewood","98498","City of Lakewood","City of Lakewood","7:30am - 9:00pm or sunset, whichever comes first","1.548","0","http://www.cityoflakewood.us/government/departments/parks-and-recreation/lakewood-parks",,"1","Oakbrook Park","1.54815726",,,,,,,,,,,,,,,,,,,,,,,,,,"0",,"No",
"POINT (-122.220737904816 47.198338501413)","254","1845","Rainier View Park","Park","Local","15603 Meade McCumber Road","Sumner","98390","City of Sumner","City of Sumner","Per City Rules","3.85","0","http://www.ci.sumner.wa.us/Living/Rainier_View.htm",,"1","Rainier View Park","3.84584555",,,,,,,,,,,,,,,,,,,,,,,,,,"0",,"No",
"POINT (-122.749648755764 47.299315636307)","244","380","Maple Hollow","Park","Resource Conservancy","4411 Van Beek RD NW","Lakebay","98349","KEY PEN PARKS","Key Pen Parks","Daylight hours only","0","58.5","http://www.keypenparks.com/maple-hollow-park.htm",,"1","Maple Hollow Park","58.34729876","Yes",,"Yes",,"Yes","Yes",,"Yes",,,,,,,"Yes",,,,,,,,,,,"58.5",,"no",
"POINT (-122.471529692443 47.271523045473)","220","348","Ursich Park","Park","Resource Conservancy","2300 N 29th St","Tacoma","98407","City of Tacoma","Metro Parks Tacoma","Dawn to Dusk","0","6.3668","http://www.metroparkstacoma.org/ursich-park",,"1","Ursich Park","6.381512",,,,,,,,,,,,,,,,,,,,,,,,,,"0",,"No",
"POINT (-122.632862797498 47.098218207666)","262","1855","Ethel Lumsdon Park","Park","Local","Penniman St & Louviers Av","DuPont","98327","City of DuPont","City of DuPont","Dawn to Dusk","0.6","0","http://www.ci.dupont.wa.us/public-works/parks-recreation/city-parks.html",,"1","Ethel Lumsdon Park","0.60552227",,,,,,,,,,,,,,,,,,,,,,,,,,"0",,"No",
"POINT (-122.501081237503 47.14286704433)","206","327","Springbrook Park","Park","Local","12601 ADDISON ST SW","Lakewood","98499","City of Lakewood","City of Lakewood","7:30am - 9:00pm or sunset, whichever comes first","3.52","0","http://www.cityoflakewood.us/government/departments/parks-and-recreation/lakewood-parks",,"1","Springbrook Park","3.271341",,,,,,,,,,,,,,,,,,,,,,,,,,"0",,"No",
"POINT (-122.439552676484 47.116956572057)","37","94","Lake Spanaway Golf Course","Golf","Regional","15602 Pacific Avenue South","Tacoma","98444","Pierce County","Pierce County Parks and Recreation Services","Dawn to Dusk (unless otherwise posted)","145.29","0","http://www.lakespanawaygc.com/",,"1","Lake Spanaway Golf Course","145.29274222","Yes","Yes","Yes","No","No","No","No","No","No","No","No","No","No","Yes","No","No","No","No","No","No","No","No","No","No","No","128.8","Lake Spanaway Golf Course is part of the Spanaway Regional Recreational Complex that also contains Bresemann Forest, Sprinkler Recreation Center and Spanaway Park. The course includes 18 holes, a clubhouse, and driving range.","Yes",
"POINT (-122.268836266978 47.255388642192)","118","209","Interurban Trail - Edgewood","Trail","Linear Park","11409 Jovita Blvd E","Edgewood","98372","City of Edgewood","City of Edgewood","Dawn to Dusk (unless otherwise posted)","0","1.4472",,,"1","Interurban Trail - Edgewood","22.10668951",,,,,,,,,,,,,,,,,,,,,,,,,,"0",,"No",
"POINT (-122.60608986871 47.33525264937)","74","144","Peninsula Recreation Area","Rec Area","TBD","Skansie Ave","Gig Harbor","98332","Peninsula Metropolitan Park District","Peninsula Metropolitan Park District",,"14.92","0",,,"1","Peninsula Recreation Area","14.92073847",,,,,,,,,,,,,,,,,,,,,,,,,,"0",,"No",
"POINT (-122.152457597166 47.163930328233)","306","2770","Bonney Lake Midtown Park","Park","Undeveloped Sites","South Prairie Rd E","Bonney Lake","98391","City of Bonney Lake","City of Bonney Lake","Dawn to Dusk","0","50",,,"1","Bonney Lake Midtown Park","45.47284929",,,,,,,,,,,,,,,,,,,,,,,,,,"0",,"No",
"POINT (-122.298750491833 47.060821768331)","27","80","Frontier Park","Park","County","21800 Meridian Ave E","Graham","98338","Pierce County","Pierce County Parks and Recreation Services","Dawn to Dusk / During special events and the Pierce County Fair new times for gate closures at Frontier Park go into effect.","54.35","10","https://www.co.pierce.wa.us/1321/Frontier-Park",,"1","Frontier Park","68.27458911","Yes","Yes","Yes","No","Yes","No","Yes","Yes","Yes","No","No","No","No","No","No","No","No","No","No","No","No","Yes","No","No","Yes","71.4","Frontier Park is a 71 acre complex on Meridian between Puyallup and Graham. The park is home to many uses, including the Pierce County Fair, Highland Games, equestrian shows, scouting events, car shows, quarter midget track racing, and other community events.","Yes",
"POINT (-122.7031586684 47.158530893595)","301","2764","Tom White Park & Old Schoolhouse","Park","Local","10804 Eckenstam Johnson Rd AI","Anderson Island","98303","Anderson Island Park District","Anderson Island Park District","7 am to 10:30 pm","0","0","http://www.andersonislandparks.org/Tom_White_Park.html",,"1","Tom White Park & Old Schoolhouse","7.29511613",,,,,,,,,,,,,,,,,,,,,,,,,,"0",,"No",
"POINT (-122.519361851625 47.280861861953)","221","349","Vassault Park","Park","Local","6100 N 37th","Tacoma","98407","City of Tacoma","Metro Parks Tacoma","Dawn to Dusk","16.79","0","http://www.metroparkstacoma.org/vassault-park",,"1","Vassault Park","16.95998059",,,,,,,,,,,,,,,,,,,,,,,,,,"0",,"No",
"POINT (-122.324757571852 47.255379741035)","117","208","Interurban Trail - Hylebos Overlook","Trail","Linear Park","508 7th Ave","Milton","98354","City of Milton","City of Milton","Dawn to Dusk (unless otherwise posted)","0","6.84","http://www.cityofmilton.net/page.php?id=96",,"1","Interurban Trail - Hylebos Overlook","6.83617918",,,,,,,,,,,,,,,,,,,,,,,,,,"0",,"No",
"POINT (-122.46150826327 47.263502085234)","164","272","North Slope Historic District Park","Park","Local","1015 N 8th St","Tacoma","98403","City of Tacoma","Metro Parks Tacoma","Dawn to Dusk","0.1607","0","http://www.metroparkstacoma.org/north-slope-historic-d",,"1","North Slope Historic District Park","0.14232033",,,,,,,,,,,,,,,,,,,,,,,,,,"0",,"No",
"POINT (-122.039818914943 46.762119274552)","39","96","Ashford County Park","Park","County","29801 SR706","Ashford","98304","Pierce County","Pierce County Parks and Recreation Services","Dawn to Dusk","53","31","https://www.co.pierce.wa.us/1313/Ashford-County-Park","http://www.co.pierce.wa.us/xml/abtus/ourorg/parks/ashford/Ashford_Conceptual17-mod_1-2w.pdf","1","Ashford County Park","85.29522402","Yes","Yes","Yes","Yes","No","No","No","Yes","Yes","No","No","No","No","No","No","No","No","No","No","No","No","No","No","No","No","83.98","This 80-acre park in along SR-706 in the community of Ashford includes trails, playground, great lawn, restrooms, and an outdoor amphitheater.","Yes",
"POINT (-122.27743525039 47.171615536941)","235","367","Wildwood Park","Park","Local","1101 23rd Ave. SE","Puyallup","98372","City of Puyallup","City of Puyallup","8 am to Dusk","80","0","http://www.cityofpuyallup.org/services/parks-recreation/city-puyallup-parks/wildwood-park/",,"1","Wildwood Park","84.10717727",,,,,,,,,,,,,,,,,,,,,,,,,,"0",,"No",
"POINT (-122.622541127062 47.254049807306)","162","270","Nichols Community Center","Community Center","Special Use","690 9th Ave","Fox Island","98333","Fox Island Comunity and Recreation Association","Fox Island Comunity and Recreation Association","Call JJ Bland at 253-228-8161.","4.93","0","http://www.ficra.org/nichols-community-center.htm",,"1","Nichols Community Center","5.0156528",,,,,,,,,,,,,,,,,,,,,,,,,,"0",,"No",
"POINT (-122.468447664251 47.274356360122)","172","281","Old Town Park","Park","Local","2350 N 30th ST","Tacoma","98403","City of Tacoma","Metro Parks Tacoma","Dawn to Dusk","1.21","0","http://www.metroparkstacoma.org/old-town-park",,"1","Old Town Park","1.21356434",,,,,,,,,,,,,,,,,,,,,,,,,,"0",,"No",
"POINT (-122.654569728498 47.096527184574)","265","1858","Garry Oaks Park","Park","Local","McNeil St","DuPont","98327","City of DuPont","City of DuPont","Dawn to Dusk","15.11","0","http://www.ci.dupont.wa.us/public-works/parks-recreation/city-parks.html",,"1","Garry Oaks Park","15.11049242",,,,,,,,,,,,,,,,,,,,,,,,,,"0",,"No",
"POINT (-122.448852681115 47.134975630373)","38","95","Gonyea Playfield","Park","Local","13422 10th Ave S","Tacoma","98444","Pierce County","Pierce County Parks and Recreation Services","Dawn to Dusk","12.45","0","https://www.co.pierce.wa.us/1323/Gonyea-Play-Field",,"1","Gonyea Playfield","12.45160987","Yes","Yes","Yes","No","No","No","No","No","Yes","No","Yes","Yes","Yes","No","No","No","No","No","No","No","No","No","No","No","No","12.42","This neighborhood playfield serves the Parkland community and includes multi-purpose baseball, softball and soccer fields with a playground, basketball courts, and restrooms.","Yes",
"POINT (-122.414643815374 47.23320355665)","183","298","Rogers Park","Park","Local","1301 E 34TH ST","Tacoma","98404","City of Tacoma","Metro Parks Tacoma","Dawn to Dusk","2.3416","0","http://www.metroparkstacoma.org/rogers-park","http://www.metroparkstacoma.org/files/library/bf990d213f8806ec.pdf","1","Rogers Park","2.34668696",,,,,,,,,,,,,,,,,,,,,,,,,,"0",,"No",
"POINT (-122.592488881246 47.336804970503)","274","1873","Austin Estuary Park","Park","Resource Conservancy","4009 harborview Drive","Gig Harbor","98332","City of Gig Harbor","City of Gig Harbor","Dawn to Dusk","0.82","0","http://www.cityofgigharbor.net/page.php?id=699",,"1","Austin Estuary Park","0.81241948",,,,,,,,,,,,,,,,,,,,,,,,,,"0",,"No",
"POINT (-122.446912654462 47.240591583884)","137","232","McCarver Park","Playground","Local","S 23rd St At S J St","Tacoma","98405","Tacoma School District","Metro Parks Tacoma","Dawn to Dusk","2.07","0","http://www.metroparkstacoma.org/mccarver-park",,"1","McCarver Park","5.85042662",,,,,,,,,,,,,,,,,,,,,,,,,,"0",,"No",
"POINT (-122.237508336558 47.199147680378)","150","254","Loyalty Park","Park","Local","1300 Park Street","Sumner","98390","City of Sumner","City of Sumner","8 am to 10 pm","2.64","0","http://www.ci.sumner.wa.us/Living/Loyalty_Park.htm",,"1","Loyalty Park","2.6595059",,,,,,,,,,,,,,,,,,,,,,,,,,"0",,"No",
"POINT (-122.356598506166 47.238634387453)","101","188","Fountain Memorial Park","Park","Local","2001 54th Avenue","Fife","98424","City of Fife","City of Fife","Dawn to Dusk","0.7713","0",,,"1","Fountain Memorial Park","0.81348867",,,,,,,,,,,,,,,,,,,,,,,,,,"0",,"No",
"POINT (-122.452834857998 47.253510878662)","133","226","Peoples Park","Park","Local","900 S K ST","Tacoma","98405","City of Tacoma","Metro Parks Tacoma","Dawn to Dusk","2","0","http://www.metroparkstacoma.org/peoples-park",,"1","Peoples Park","1.68717792",,,,,,,,,,,,,,,,,,,,,,,,,,"0",,"No",
"POINT (-122.712157061715 47.152023009302)","236","368","Andy's Wildlife Park","Wildlife Habitat","Resource Conservancy","Sandberg Rd AI","Anderson Island","98303","Anderson Island Park District","Anderson Island Park District","7 am to 10:30 pm","0","50","http://www.andersonislandparks.org/Andy_s_Wildlife_Park_3ZQR.html",,"1","Andy's Wildlife Park","157.71481259",,,,,,,,,,,,,,,,,,,,,,,,,,"0",,"No",
"POINT (-122.19971657912 47.09719869682)","322","2678","Triangle Park (Orting)","Park","Local","River Ave SE and Bridge St SE","Orting","98360","City of Orting","City of Orting","Dawn to Dusk (unless otherwise posted)","0","0",,,"1","Triangle Park- Orting","0.1939635",,,,,,,,,,,,,,,,,,,,,,,,,,"0",,"No",
"POINT (-122.356433934088 47.23788700148)","94","176","Fife Community Center","Community Center","Special Use","2111 54th Avenue E","Fife","98424","City of Fife","City of Fife","M-F, 8:30am-5:00pm","0.6543","0","http://cityoffife.org/?p=city_departments&a=parks_and_recreation",,"1","Fife Community Center","0.65371032",,,,,,,,,,,,,,,,,,,,,,,,,,"0",,"No",
"POINT (-122.485065386552 47.28506223512)","154","259","Marine Park / Les Davis Pier","Park","Local","3427 Ruston Way","Tacoma","98402","City of Tacoma","Metro Parks Tacoma","Dawn to Dusk (Pier is open 24 hours)","7.02","0","http://www.metroparkstacoma.org/marine-park",,"1","Marine Park / Les Davis Pier","4.98510117",,,,,,,,,,,,,,,,,,,,,,,,,,"0",,"No",
"POINT (-122.449994666971 47.255512978278)","159","267","Neighbors Park","Park","Local","S 8th & I St","Tacoma","98405","City of Tacoma","Metro Parks Tacoma","Dawn to Dusk","0.606","0","http://www.metroparkstacoma.org/neighbors-park",,"1","Neighbors Park","0.60643949",,,,,,,,,,,,,,,,,,,,,,,,,,"0",,"No",
"POINT (-122.217143809867 47.110864685096)","296","2677","Carbon River Landing","Park","Local","Rocky Road NE","Orting","98360","City of Orting","City of Orting","Dawn to Dusk (unless otherwise posted)","0","0",,,"1","Carbon River Landing","27.76822882",,,,,,,,,,,,,,,,,,,,,,,,,,"0",,"No",
"POINT (-122.350368484763 47.231989124937)","229","361","Wedge Park","Park","Local","5811 28TH ST E","Fife","98424","City of Fife","City of Fife","Dawn to Dusk","1.994","0","http://cityoffife.org/?p=city_departments&a=parks_and_recreation&b=city_parks&c=wedge_park",,"1","Wedge Park","2.07352598",,,,,,,,,,,,,,,,,,,,,,,,,,"0",,"No",
"POINT (-122.589976365464 47.166353379659)","282","1893","Cherrydale Park","Park","Local","Military Rd and B St","Steilacoom","98388","Town of Steilacoom","Town of Steilacoom","Dawn to Dusk","0.826","0","http://www.townofsteilacoom.com/activities/parks_recreation.htm#cherrydale",,"1","Cherrydale Park","1.16510705",,,,,,,,,,,,,,,,,,,,,,,,,,"0",,"No",
"POINT (-122.805765781537 47.225125177453)","124","216","Joemma Beach State Park","Park","Regional","30TH ST KS","Lakebay","98349","State of Washington","Washington State Parks","Summer: 8 a.m. to 9:30 p.m. | Winter: 8 a.m. to 6:30 p.m.","0","122","http://www.parks.wa.gov/parks/?selectedpark=Joemma%20Beach&subject=all",,"1","Joemma Beach State Park","119.81843816","Yes","Yes","Yes","No","Yes","No","No","Yes","No","No","No","No","No","No","Yes","Yes","Yes","No","No","No","No","No","No","No","No","160","Set on Key Peninsula in the middle of South Puget Sound, Joemma Beach is a quick boat ride or a beautiful drive from Olympia, Tacoma and the shoreline communities in between.","no","Yes"
"POINT (-122.154216960515 47.17279950755)","252","1841","Cedarview Park","Park","Local","9301 208th Av E","Bonney Lake","98391","City of Bonney Lake","City of Bonney Lake","Dawn to Dusk","2.9","0","http://www.ci.bonney-lake.wa.us/section_community/parks_recreation/city_parks.shtml",,"1","Cedarview Park","2.91418018",,,,,,,,,,,,,,,,,,,,,,,,,,"0",,"No",
"POINT (-122.214457041081 47.185287224746)","46","105","Riverside Park","Park","Unclassified","7800 Riverside Drive E","Sumner","98390","Pierce County","Pierce County Parks and Recreation Services","Dawn to Dusk","0","35","https://www.co.pierce.wa.us/1331/Riverside-Park-BMX","http://www.rivervalleybmxracing.com/","1","Riverside Park","36.67326994","No","No","Yes","No","No","No","No","Yes","No","No","No","No","No","No","No","Yes","No","Yes","No","Yes","No","No","Yes","No","No","36.11","Located at Riverside Road and 78th Street Court in Sumner, Riverside Park is an undeveloped 36-acre park along the Puyallup River with four disc golf courses, seasonal BMX concession, and a permit-use only boat slide.","Yes",
"POINT (-122.625218152708 47.100406603348)","328","3113","Bell Hill Neighborhood Park","Park","Local","1280 Bell Hill Pl","DuPont","98327","City of DuPont","City of DuPont","Dawn to Dusk","0.43","0","http://www.ci.dupont.wa.us/public-works/parks-recreation/city-parks.html",,"1","Bell Hill Neighborhood Park","0.42764234",,,,,,,,,,,,,,,,,,,,,,,,,,"0",,"No",
"POINT (-122.03199816611 47.160522858253)","278","1879","Buckley Skate Park","Skate Park","Local","251 S River Av","Buckley","98321","City of Buckley","City of Buckley","Dawn to Dusk","1.48","0","http://www.cityofbuckley.com/documents/skate_park_camera.html",,"1","Buckley Skate Park","1.36162941",,,,,,,,,,,,,,,,,,,,,,,,,,"0",,"No",
"POINT (-122.584583031724 47.170868641652)","286","1899","Weber Court","Park","Local","Roe St","Steilacoom","98388","Town of Steilacoom","Town of Steilacoom","Dawn to Dusk","0.46","0","http://www.townofsteilacoom.com/activities/parks_recreation.htm#weber",,"1","Weber Court","0.50201605",,,,,,,,,,,,,,,,,,,,,,,,,,"0",,"No",
"POINT (-122.481766271241 47.211317752805)","204","325","South Park","Park","Local","4851 S Tacoma Way","Tacoma","98409","City of Tacoma","Metro Parks Tacoma","Dawn to Dusk","14.5","0","http://www.metroparkstacoma.org/south-park",,"1","South Park","15.35343554",,,,,,,,,,,,,,,,,,,,,,,,,,"0",,"No",
"POINT (-122.599923569601 47.17261360545)","319","1868","Charlie's Park","Park","Special Use","Pacific and Lafayette St","Steilacoom","98388","Town of Steilacoom","Town of Steilacoom","Dawn to Dusk","0.275","0","http://www.townofsteilacoom.com/activities/parks_recreation.htm#charlies",,"1","Charlie's Park","0.35576284",,,,,,,,,,,,,,,,,,,,,,,,,,"0",,"No",
"POINT (-122.458032570345 47.271031704587)","103","190","Garfield Park","Park","Local","400 North Borough Road","Tacoma","98403","City of Tacoma","Metro Parks Tacoma","Dawn to Dusk","12.6","0","http://www.metroparkstacoma.org/garfield-park",,"1","Garfield Park","11.46342626",,,,,,,,,,,,,,,,,,,,,,,,,,"0",,"No",
"POINT (-122.47690364641 47.186271436426)","167","276","Oak Tree Park","Park","Undeveloped Sites","7633 S Montgomery St.","Tacoma","98409","City of Tacoma","Metro Parks Tacoma","Dawn to Dusk","24.55","0","http://www.metroparkstacoma.org/oak-tree-park",,"1","Oak Tree Park","25.23161816",,,,,,,,,,,,,,,,,,,,,,,,,,"0",,"No",
"POINT (-122.296726082563 47.202763800009)","317","291","Puyallup Riverwalk Trail","Trail","Linear Park","Runs along Puyallup River-Milwaukee Bridge to 7th St","Puyallup","98371","City of Puyallup","City of Puyallup","8 am to Dusk","1.2372","0","http://www.cityofpuyallup.org/services/parks-recreation/city-puyallup-parks/puyallup-riverwalk-trail/",,"1","Puyallup Riverwalk Trail","14.1900091",,,,,,,,,,,,,,,,,,,,,,,,,,"0",,"No",
"POINT (-122.373944358031 47.102645655008)","158","266","Naches Trail Preserve","Wildlife Habitat","Resource Conservancy","17301 38th Ave Ct E","Frederickson","98446","Pierce County","Pierce County Parks and Recreation Services","Dawn to Dusk","17","20","https://www.piercecountywa.gov/1399/Naches-Trail-Preserve",,"1","Naches Trail Preserve","37.55","n","y","y","n","y","y","n","n","n","n","n","n","n","n","n","n","n","n","n","n","n","n","n","n","n","37.55",,"Yes","no"
"POINT (-122.499496021315 47.247195064525)","73","141","DeLong Park","Park","Local","4700 S 12th St","Tacoma","98405","City of Tacoma","Metro Parks Tacoma","Dawn to Dusk","10.48","0","http://www.metroparkstacoma.org/delong-park",,"1","DeLong Park","21.44999669",,,,,,,,,,,,,,,,,,,,,,,,,,"0",,"No",
"POINT (-122.321187349102 47.184590982037)","56","115","Clarks Creek Park North","Park","Local","1700 12th Ave Sw","Puyallup","98371","City of Puyallup","City of Puyallup","8 am to Dusk","16.82","0","http://www.cityofpuyallup.org/services/parks-recreation/city-puyallup-parks/clarks-creek-park/",,"1","Clarks Creek Park North","16.81902615",,,,,,,,,,,,,,,,,,,,,,,,,,"0",,"No",
"POINT (-122.27343016872 47.237857559739)","160","268","Nelson Nature Park","Wildlife Habitat","Local","2228 118th Ave E","Edgewood","98372","City of Edgewood","City of Edgewood","Dawn to Dusk","0","12.51","http://www.cityofedgewood.org/depts/parks/parks.htm",,"1","Nelson Nature Park","11.52039899",,,,,,,,,,,,,,,,,,,,,,,,,,"0",,"No",
"POINT (-122.527234112896 47.19801429554)","127","219","Kobayashi Park","Park","Resource Conservancy","6420 Chambers Creek Rd W","University Place","98467","City of University Place","City of University Place","Dawn to Dusk (unless otherwise posted)","5.53","0","http://cityofup.com/Media/file/ParksAndRec/WHERE%20ARE%20OUR%20PARKS%202011.pdf",,"1","Kobayashi Park","5.64226355",,,,,,,,,,,,,,,,,,,,,,,,,,"0",,"No",
"POINT (-122.095930628588 47.13913429797)","346","2775","Foothills Trail- South Prairie Trailhead","Trail Head","Linear","1st St","South Prairie","98385","Pierce County","Pierce County Parks and Recreation Services","Dawn to Dusk (Unless otherwise posted)","1.8","0","https://www.piercecountywa.org/2342/South-Prairie-to-Buckley",,"1","Foothills Trail- South Prairie Trailhead","2.02933167","Yes","Yes","Yes","Yes","No","Yes","No","No","No","No","No","No","No","No","No","No","No","No","No","No","No","No","No","No","No","0","The South Prairie Trail trailhead will have parking for 20 vehicles, plus an information kiosk and a sani-can enclosure. This section of the Foothills Trail will link the towns of Buckley to the east and Orting to the west.","Yes",
"POINT (-122.406332934448 47.17661821554)","29","83","Dawson Playfield","Park","Local","1605 90th St E","Tacoma","98445","Pierce County","Pierce County Parks and Recreation Services","Dawn to Dusk","5","0","https://www.co.pierce.wa.us/1319/Dawson-Playfield",,"1","Dawson Playfield","4.7773993","Yes","Yes","Yes","No","Yes","No","No","Yes","Yes","No","Yes","Yes","No","No","No","No","No","No","Yes","No","No","No","No","No","No","5.05","Dawson Playfield is a neighborhood park in the Midland community that includes a picnic shelter, playground, basketball and tennis courts, playfield, and walking path.","Yes",
"POINT (-122.404823908085 47.299510950851)","30","84","Norpoint Park","Rec Center","Local","4818 Nassau Ave NE","Tacoma","98422","City of Tacoma","Metro Parks Tacoma","Dawn to Dusk","18.72","0","http://www.metroparkstacoma.org/norpoint-park",,"1","Norpoint Park","17.50577324",,,,,,,,,,,,,,,,,,,,,,,,,,"0",,"No",
"POINT (-122.242176017321 47.202636192901)","186","302","Rueben Knoblauch Heritage Park","Park","Local","[900-999] Main St","Sumner","98390","City of Sumner","City of Sumner","8 am to 10 pm","2.3312","0","http://www.ci.sumner.wa.us/Living/Heritage_Park.htm",,"1","Rueben Knoblauch Heritage Park","0.44826239",,,,,,,,,,,,,,,,,,,,,,,,,,"0",,"No",
"POINT (-122.312085072821 47.127531453531)","203","324","South Hill Community Park","Park","Local","86th Ave E & 144th St E","Puyallup","98373","Pierce County","Pierce County Parks and Recreation Services","Dawn to Dusk","39.51","0","https://www.co.pierce.wa.us/1334/South-Hill-Community-Park",,"1","South Hill Community Park","39.5123984","Yes","Yes","Yes","Yes","No","No","No","No","Yes","No","No","No","Yes","No","No","No","No","No","No","No","No","No","No","No","No","39.56","The South Hill Community Park is a 40-acre site which includes, bathrooms, playground, picnic tables, multipurpose sports fields and a network of paved meandering trails, South Hill Loop Trail and Nathan Chapman Memorial Trail.","Yes",
"POINT (-122.265543525698 46.862278787011)","271","1869","Millpond Park","Park","Local","150 Alder St E","Eatonville","98328","Town of Eatonville","Town of Eatonville","Dawn to Dusk","5.23","0","http://www.eatonville-wa.gov/node/18",,"1","Millpond Park","4.96224778",,,,,,,,,,,,,,,,,,,,,,,,,,"0",,"No",
"POINT (-122.630877085942 47.093492691176)","261","1854","Sellers Park","Park","Local","Barksdale Av & Hopewell St","DuPont","98327","City of DuPont","City of DuPont","Dawn to Dusk","16","0","http://www.ci.dupont.wa.us/public-works/parks-recreation/city-parks.html",,"1","Sellers Park","33.39233244",,,,,,,,,,,,,,,,,,,,,,,,,,"0",,"No",
"POINT (-122.181984980084 46.764559499819)","141","242","Mount Rainier Scenic Railroad","Railroad","Linear Park","349 Mineral Creek Rd","Mineral","98355","Mount Rainier Scenic Railroad","Mount Rainier Scenic Railroad","Check our Website for hours of operation and special events.WWW.MRSR.COM","66","0","http://www.mrsr.com/index.html",,"1","Mount Rainier Scenic Railroad","66.66151393",,,,,,,,,,,,,,,,,,,,,,,,,,"0",,"No",
"POINT (-122.438171106444 47.256857664183)","98","182","Fireman's Park ( Metro )","Park","Local","803 A Street","Tacoma","98402","City of Tacoma","Metro Parks Tacoma","Dawn to Dusk","1.79","0","http://www.metroparkstacoma.org/firemans-park",,"1","Fireman's Park- Metro","1.53174846",,,,,,,,,,,,,,,,,,,,,,,,,,"0",,"No",
"POINT (-122.270094732604 47.240128204628)","161","269","Nelson Farm Park","Wildlife Habitat","Local","11912 18th St E","Edgewood","98372","City of Edgewood","City of Edgewood","Dawn to Dusk (unless otherwise posted)","10","0","http://www.cityofedgewood.org/depts/parks/parks.htm",,"1","Nelson Farm Park","9.0479174",,,,,,,,,,,,,,,,,,,,,,,,,,"0",,"No",
"POINT (-122.397841592453 47.226742314903)","184","299","Roosevelt Park","Park","Local","3601 E Roosevelt Ave","Tacoma","98404","City of Tacoma","Metro Parks Tacoma","Dawn to Dusk","13.47","0","http://www.metroparkstacoma.org/roosevelt-park",,"1","Roosevelt Park","13.86107247",,,,,,,,,,,,,,,,,,,,,,,,,,"0",,"No",
"POINT (-122.272373154144 46.869989031446)","107","194","Glacier View Park","Park","Local","209 Fir Avenue North","Eatonville","98328","Town of Eatonville","Town of Eatonville","Dawn to Dusk","1.56","0","http://www.eatonville-wa.gov/glacier",,"1","Glacier View Park","1.6076852",,,,,,,,,,,,,,,,,,,,,,,,,,"0",,"No",
"POINT (-122.483166637198 47.276533045245)","176","285","Puget Creek Natural Area","Park","Trail","N ALDER WAY & N LAWRENCE ST","Tacoma","98407","City of Tacoma","Metro Parks Tacoma","Dawn to Dusk","0","3.98","http://www.metroparkstacoma.org/page.php?id=606",,"1","Puget Creek Natural Area","1480.82919912",,,,,,,,,,,,,,,,,,,,,,,,,,"0",,"No",
"POINT (-122.511559921493 47.297462077575)","187","303","Rust Park","Park","Local","5309 N Commercial St","Ruston","98407","City of Ruston","City of Ruston","Dawn to Dusk","1.8739","0","http://www.rustonwa.org/services/parks/rust-park",,"1","Rust Park","6.172282",,,,,,,,,,,,,,,,,,,,,,,,,,"0",,"No",
"POINT (-122.771749994608 47.190086181832)","242","378","Taylor Bay Park","Park","Regional","17803 76th St KS","Longbranch","98351","Key Pen Parks","Key Pen Parks","8 am to Dusk","0","40.2","http://www.keypenparks.com/taylor-bay-park.htm",,"1","Taylor Bay Park","40.2",,,,,,,,,,,,,,,,,,,,,,,,,,"40.2",,"No",
"POINT (-122.225200614422 47.206387353076)","69","135","Daffodil Valley Sports Complex","Park","Local","5604 Graham Street","Sumner","98390","City of Sumner","City of Sumner","8 am to 10 pm","6.96","0","http://www.ci.sumner.wa.us/Living/Daffodil_Valley.htm",,"1","Daffodil Valley Sports Complex","6.69923382",,,,,,,,,,,,,,,,,,,,,,,,,,"0",,"No",
"POINT (-122.574403312154 47.205397891401)","31","85","Chambers Bay Golf Course","Golf","Regional","6320 Grandview Drive West","University Place","98467","Pierce County","Kemper Sports","Check website for tee times","340.45","0","https://www.chambersbaygolf.com/",,"1","Chambers Bay Golf Course","349.36131292","Yes","Yes","Yes","Yes","No","No","No","Yes","Yes","No","No","No","No","Yes","No","No","No","No","No","No","No","No","No","No","No","370.45","Located near Tacoma in Pierce County, Washington, Chambers Bay is one of the top public courses in the nation and the first course in the Northwest to welcome the U.S. Open Championship.","Yes",
"POINT (-122.48740000986 47.286723062549)","62","122","Cummings Park","Park","Local","3939 Ruston Way","Tacoma","98402","City of Tacoma","Metro Parks Tacoma","Dawn to Dusk","3.8424","0","http://www.metroparkstacoma.org/cummings-park",,"1","Cummings Park","3.84072402",,,,,,,,,,,,,,,,,,,,,,,,,,"0",,"No",
"POINT (-122.439437986747 47.261409975128)","215","339","Thea's Park","Park","Local","405 Dock St","Tacoma","98402","City of Tacoma","Metro Parks Tacoma","Dawn to Dusk","2.9782","0","http://www.metroparkstacoma.org/theas-park",,"1","Thea's Park","2.92871615",,,,,,,,,,,,,,,,,,,,,,,,,,"0",,"No",
"POINT (-122.468096908102 47.277072057757)","109","197","Hamilton Park","Park","Local","2321 Ruston Way","Tacoma","98407","City of Tacoma","Metro Parks Tacoma","Dawn to Dusk","3.14","0","http://www.metroparkstacoma.org/hamilton-park",,"1","Hamilton Park","2.38476833",,,,,,,,,,,,,,,,,,,,,,,,,,"0",,"No",
"POINT (-122.638873730234 47.094366799974)","263","1856","Clocktower Park","Park","Local","Palisade Blvd & Thompson Cir","DuPont","98327","City of DuPont","City of DuPont","Dawn to Dusk","2.309","0","http://www.ci.dupont.wa.us/public-works/parks-recreation/city-parks.html",,"1","Clocktower Park","2.31086716",,,,,,,,,,,,,,,,,,,,,,,,,,"0",,"No",
"POINT (-122.216010328423 47.256779101221)","289","1964","Dorothy Bothell Park","Park","Local","5701 Lakeland Hills Way SE","Auburn","98092","City of Auburn","City of Auburn","Dawn to Dusk","4","0","http://www.auburnwa.gov/community/parks/dorothy_bothell.asp",,"1","Dorothy Bothell Park","4.33377385",,,,,,,,,,,,,,,,,,,,,,,,,,"0",,"No",
"POINT (-122.264188366678 46.859757254475)","104","191","George Smallwood Park","Park","Local","525 SR 161 South","Eatonville","98328","Town of Eatonville","Town of Eatonville","Dawn to Dusk","39.98","0","http://www.eatonville-wa.gov/smallwood",,"1","George Smallwood Park","15.51620599",,,,,,,,,,,,,,,,,,,,,,,,,,"0",,"No",
"POINT (-122.628040943967 47.347429568271)","360","804","Rotary Bark Park","Park","Special Use","10100 Bujajich Rd NW","Gig Harbor","98332","Peninsula Metropolitan Park District","Peninsula Metropolitan Park Distric","Dawn to dusk","15","60","https://penmetparks.org/parks/rotary-bark-park/",,"1","Rotary Bark Park","74.9","yes",,,,"yes",,,"yes",,"yes",,,,,,,,,,,,,,,,"75",,"no",
"POINT (-122.720251295171 47.170826166165)","302","2765","Montalvo Park","Park Under Construction","Undeveloped Sites","13616 94TH ST AI","Anderson Island","98303","Anderson Island Park District","Anderson Island Park District","7 am to 10:30 pm","0","5","http://www.andersonislandparks.org/Montalvo_Park.html",,"1","Montalvo Park","4.98940042",,,,,,,,,,,,,,,,,,,,,,,,,,"0",,"No",
"POINT (-122.44887736747 47.25053698941)","148","252","Lot For Tots","Park","Local","1216 S I ST","Tacoma","98405","City of Tacoma","Metro Parks Tacoma","Dawn to Dusk","0.2417","0","http://www.metroparkstacoma.org/lots-for-tots",,"1","Lot For Tots","0.24210683",,,,,,,,,,,,,,,,,,,,,,,,,,"0",,"No",
"POINT (-122.719730195626 47.148357465835)","299","2762","Deweyert/Claussen Trail","Trail","Linear Park","Claussen Rd AI","Anderson Island","98303","Anderson Island Park District","Anderson Island Park District","7 am to 10:30 pm","0","0",,,"1","Deweyert/Claussen Trail","1.95730863",,,,,,,,,,,,,,,,,,,,,,,,,,"0",,"No",
"POINT (-122.348290451461 47.252050640218)","116","207","Hylebos Nature Area","Park","Resource Conservancy","6125 8th St E","Fife","98424","City of Fife","City of Fife","Dawn to Dusk (unless otherwise posted)","0","16.41",,,"1","Hylebos Nature Area","16.71020481",,,,,,,,,,,,,,,,,,,,,,,,,,"0",,"No",
"POINT (-122.682496054259 47.166945430887)","300","2763","Tom's Park","Wildlife Habitat","TBD","109TH AV AI","Anderson Island","98303","Anderson Island Park District","Anderson Island Park District","7 am to 10:30 pm","0","10","http://www.andersonislandparks.org/Tom_s_Park__to_be_Named_.html",,"1","Tom's Park","11.42042985",,,,,,,,,,,,,,,,,,,,,,,,,,"0",,"No",
"POINT (-122.534562328136 47.173923827472)","81","156","Edgewater Park","Park","Local","9102 Edgewater Drive SW","Lakewood","98499","City of Lakewood","City of Lakewood","7:30am - 9:00pm or sunset, whichever comes first","1","0","http://www.cityoflakewood.us/government/departments/parks-and-recreation/lakewood-parks",,"1","Edgewater Park","2.82766775",,,,,,,,,,,,,,,,,,,,,,,,,,"0",,"No",
"POINT (-122.696203245575 47.187747157387)","311","152","Eagle Island State Park","Park","Regional","Between McNeil and Anderson Island","Anderson Island","98303","State of Washington","Washington State Parks","8 am to Dusk","0","10","http://www.parks.wa.gov/parks/?selectedpark=Eagle%20Island&subject=all",,"1","Eagle Island State Park","6.69771882",,,,,,,,,,,,,,,,,,,,,,,,,,"0",,"No",
"POINT (-122.589217772224 47.179789364743)","210","333","Sunnyside Beach","Beach","Local","2509 Chambers Creek Road","Steilacoom","98388","Town of Steilacoom","Town of Steilacoom","Dawn to Dusk","12.475","0",,,"1","Sunnyside Beach","8.60733166",,,,,,,,,,,,,,,,,,,,,,,,,,"0",,"No",
"POINT (-122.318934963645 47.180262254473)","248","385","Clarks Creek Park South","Park","Local","1700 12th Ave SW","Puyallup","98371","City of Puyallup","City of Puyallup","Dawn to Dusk (unless otherwise posted)","45.01","0","http://www.cityofpuyallup.org/services/parks-recreation/city-puyallup-parks/clarks-creek-park/",,"1","Clarks Creek Park South","46.12878531",,,,,,,,,,,,,,,,,,,,,,,,,,"0",,"No",
"POINT (-122.503458614815 47.285235868933)","121","213","Jane Clark Park","Park","Local","4825 N 39th St","Tacoma","98407","City of Tacoma","Metro Parks Tacoma","Dawn to Dusk","6.3593","0","http://www.metroparkstacoma.org/jane-clark-park",,"1","Jane Clark Park","6.42564622",,,,,,,,,,,,,,,,,,,,,,,,,,"0",,"No",
"POINT (-122.263711552538 47.158792993659)","153","258","Manorwood Park","Park","Local","2310 Manorwood Dr","Puyallup","98374","City of Puyallup","City of Puyallup","8 am to Dusk","6.6","0","http://www.cityofpuyallup.org/services/parks-recreation/city-puyallup-parks/manorwood-park/",,"1","Manorwood Park","6.38280055",,,,,,,,,,,,,,,,,,,,,,,,,,"0",,"No",
"POINT (-122.456024811514 47.248385637392)","312","175","Ferry Park","Park","Local","1400 S Sheridan Ave","Tacoma","98405","City of Tacoma","Metro Parks Tacoma","Dawn to Dusk","0.64","0","http://www.metroparkstacoma.org/ferry-park",,"1","Ferry Park","0.71560537",,,,,,,,,,,,,,,,,,,,,,,,,,"0",,"No",
"POINT (-122.535996070949 47.223064138929)","114","205","Homestead Park","Park","Local","3761 Bridgeport Way West","University Place","98466","City of University Place","City of University Place","Dawn to Dusk","4.88","0","http://cityofup.com/Media/file/ParksAndRec/Park%20location_descript%202011.pdf",,"1","Homestead Park","4.92039164",,,,,,,,,,,,,,,,,,,,,,,,,,"0",,"No",
"POINT (-122.506996195621 47.232470287386)","155","262","Masko Park","Park","Local","719 San Juan Wy","Fircrest","98466","City of Fircrest","City of Fircrest","Dawn to Dusk (unless otherwise posted)","0.8635","0",,,"1","Masko Park","0.80979965",,,,,,,,,,,,,,,,,,,,,,,,,,"0",,"No",
"POINT (-122.581877993524 47.345907789216)","106","193","City Park at Crescent Creek","Park","Local","3303 Vernhardson St","Gig Harbor","98332","City of Gig Harbor","City of Gig Harbor","Dawn to Dusk","5.84","0","http://www.cityofgigharbor.net/page.php?id=699",,"1","City Park at Crescent Creek","5.95209335",,,,,,,,,,,,,,,,,,,,,,,,,,"0",,"No",
"POINT (-122.591956335964 47.17061913808)","283","1894","Community Center Park","Park","Special Use","2301 Worthington St","Steilacoom","98388","Town of Steilacoom","Town of Steilacoom","Dawn to Dusk","4.09","0","http://www.townofsteilacoom.com/activities/parks_recreation.htm#community_center",,"1","Community Center Park","4.09906423",,,,,,,,,,,,,,,,,,,,,,,,,,"0",,"No",
"POINT (-122.284978801836 47.16103746073)","17","70","Bradley Lake Park","Park","Local","531 31st Avenue SE","Puyallup","98374","City of Puyallup","City of Puyallup","8 am to Dusk","59","0","http://www.cityofpuyallup.org/services/parks-recreation/city-puyallup-parks/bradley-lake-park/",,"1","Bradley Lake Park","57.75888202",,,,,,,,,,,,,,,,,,,,,,,,,,"0",,"No",
"POINT (-122.359162883366 47.231147467404)","250","799","Dacca Park","Park","Local","2820 54th Ave E","Fife","98424","City of Fife","City of Fife","8 am to Dusk","38.09","0","http://cityoffife.org/?p=city_departments&a=parks_and_recreation&b=city_parks&c=dacca_park",,"1","Dacca Park","9.35683598",,,,,,,,,,,,,,,,,,,,,,,,,,"0",,"No",
"POINT (-122.428163112609 47.187887986379)","13","65","Charlotte's Blueberry Park","Park","Local","7402 East D ST, E 72th Street at East D Street","Tacoma","98404","City of Tacoma","Metro Parks Tacoma","Dawn to Dusk","0","51.31","http://www.metroparkstacoma.org/charlottes-blueberry-park",,"1","Charlotte's Blueberry Park","51.21469555",,,,,,,,,,,,,,,,,,,,,,,,,,"0",,"No",
"POINT (-122.210918856811 47.089691676541)","129","221","Calistoga Place Park","Park","Local","702 Calistoga St W","Orting","98360","City of Orting","City of Orting","Dawn to Dusk (unless otherwise posted)","7.931607","0",,,"1","Calistoga Place Park","6.46910601",,,,,,,,,,,,,,,,,,,,,,,,,,"0",,"No",
"POINT (-122.600296146576 47.239195477156)","361","805","Cedrona Bay Boat Launch","Park","Special Use","13th Ave & Leschi Dr","Fox Island","98333","Peninsula Metropolitan Park District","Peninsula Metropolitan Park District","dawn to dusk","0.3",,"https://penmetparks.org/parks/cedrona-bay-boat-launch/",,"1","Cedrona Bay Boat Launch","0.2961",,,,,,,,,,,,,,,"yes","yes","yes",,,,,,,,,"0.3",,"no",
"POINT (-122.308632180313 47.252300153646)","113","203","Hill Tower Park","Park","Local","600 19th Av","Milton","98354","City of Milton","City of Milton","Dawn to Dusk (unless otherwise posted)","1.8905","0","http://www.cityofmilton.net/page.php?id=95",,"1","Hill Tower Park","1.88126477",,,,,,,,,,,,,,,,,,,,,,,,,,"0",,"No",
"POINT (-122.202466800876 47.096193181583)","174","283","Orting City Park","Trail Head","Local","Corner of Washington Ave N and Calistoga St W","Orting","98360","City of Orting","City of Orting","Dawn to Dusk (unless otherwise posted)","7.17","0","http://www.cityoforting.org/Parks___Recreation.php",,"1","Orting City Park","4.07192705",,,,,,,,,,,,,,,,,,,,,,,,,,"0",,"No",
"POINT (-122.533623219386 47.242114774833)","211","334","Sunset Terrace","Park","Local","Seaview and South 19th St","University Place","98466","City of University Place","City of University Place","Dawn to Dusk","2","0","http://cityofup.com/Media/file/ParksAndRec/Park%20location_descript%202011.pdf",,"1","Sunset Terrace","2.04825797",,,,,,,,,,,,,,,,,,,,,,,,,,"0",,"No",
"POINT (-122.315466661656 47.200376489829)","191","308","Sam Peach Park","Park","Local","1621 10th Ave NW","Puyallup","98371","City of Puyallup","City of Puyallup","8 am to Dusk","5.69","0","http://www.cityofpuyallup.org/services/parks-recreation/city-puyallup-parks/sam-peach-park/",,"1","Sam Peach Park","5.59942387",,,,,,,,,,,,,,,,,,,,,,,,,,"0",,"No",
"POINT (-122.595957576161 47.16186912868)","92","173","Farrells Marsh Park","Wildlife Habitat","Resource Conservancy","Chambers Street & Beech Street","Steilacoom","98388","Town of Steilacoom","Town of Steilacoom","Dawn to Dusk","0","64","http://www.townofsteilacoom.com/activities/parks_recreation.htm#farrells_marsh",,"1","Farrells Marsh Park","60.33764245",,,,,,,,,,,,,,,,,,,,,,,,,,"0",,"No",
"POINT (-122.509256513051 47.234945401434)","7","59","Alice Peers Park","Park","Local","Regents Boulevard and Electron Way","Fircrest","98466","City of Fircrest","City of Fircrest","Dawn to Dusk","0.21","0",,,"1","Alice Peers Park","0.12303662",,,,,,,,,,,,,,,,,,,,,,,,,,"0",,"No",
"POINT (-122.439728668746 47.302768284581)","22","75","Browns Point Playfield","Playfield","Local","4901 La-Ha-Da NE","Tacoma","98422","City of Tacoma","Metro Parks Tacoma","Dawn to Dusk","4","0","http://www.metroparkstacoma.org/browns-point-playfield",,"1","Browns Point Playfield","3.56789155",,,,,,,,,,,,,,,,,,,,,,,,,,"0",,"No",
"POINT (-122.404522712193 47.308132876976)","71","137","Dash Point State Park","Park","Regional","5700 SW Dash Point Road","Federal Way","98023","State of Washington","Washington State Parks","8 am to Dusk","398","168.16","http://www.parks.wa.gov/parks/?selectedpark=Dash%20Point&subject=all","http://www.parks.wa.gov/plans/dash-saltwater/","1","Dash Point State Park","169.10322641",,,,,,,,,,,,,,,,,,,,,,,,,,"0",,"No",
"POINT (-122.176814495744 47.184116521194)","275","1874","Viking Park","Park","Local","18902 82nd St E","Bonney Lake","98391","City of Bonney Lake","City of Bonney Lake","Dawn to Dusk","3.8","0","http://www.citybonneylake.org/section_community/parks_recreation/city_parks.shtml",,"1","Viking Park","3.67541316",,,,,,,,,,,,,,,,,,,,,,,,,,"0",,"No",
"POINT (-122.767227133517 47.277549586637)","241","377","Home Park","Park","Local","17220 8th AVE CT NW","Lakebay","98349","Key Pen Parks","Key Pen Parks","8 am to Dusk","1.7413","0","http://www.keypenparks.com/home-park.htm",,"1","Home Park","1.63131802","YES",,"YES",,,,,"YES","YES",,,,,,,,,,,,,,,,,"1.74",,"no",
"POINT (-122.508628256344 47.161927803718)","3","55","Active Park","Park","Local","10506 Russell Rd SW","Lakewood","98499","City of Lakewood","City of Lakewood","7:30am - 9:00pm or sunset, whichever comes first","2","0","http://www.cityoflakewood.us/government/departments/parks-and-recreation/lakewood-parks",,"1","Active Park","2.35243351",,,,,,,,,,,,,,,,,,,,,,,,,,"0",,"No",
"POINT (-122.75623196163 47.309091102737)","222","352","Volunteer Park","Park","Local","5514 Key Peninsula Hwy N","Lakebay","98349","Key Pen Parks","Key Pen Parks","8 am to Dusk","20.76","0","http://www.keypenparks.com/volunteer-park.htm",,"1","Volunteer Park","20.76","Yes",,"Yes","Yes",,,,"Yes","Yes",,"Yes","Yes",,,,,,"Yes",,,,,"Yes",,,"20.76",,"No",
"POINT (-122.509342952491 47.245276759935)","33","87","China Lake","Park","Resource Conservancy","1701 S Bennett","Tacoma","98465","City of Tacoma","Metro Parks Tacoma","Dawn to Dusk","27.23","0","http://www.metroparkstacoma.org/china-lake-park",,"1","China Lake","28.29368257",,,,,,,,,,,,,,,,,,,,,,,,,,"0",,"No",
"POINT (-122.23297582568 47.160753811146)","341","374","Foothills Trail- Meeker to McMillin","Trail","Linear",,"Orting","98360","Pierce County","Pierce County Parks and Recreation Services","Dawn to Dusk (unless otherwise posted)","129.42","0","https://www.piercecountywa.org/2339/East-Puyallup-to-McMillin",,"1","Foothills Trail- Meeker to McMillin Section","143.10030846","Yes","Yes","Yes","Yes","No","Yes","No","No","No","No","No","No","No","No","No","No","No","No","No","No","No","No","No","No","No","0","The East Puyallup to McMillin section of the Foothills Trail is four miles of trail that winds through trees and farms and runs alongside an active railway.","Yes",
"POINT (-122.491158325378 47.239104541861)","198","318","Tacoma Nature Center","Park","Regional","1919 S Tyler St","Tacoma","98405","City of Tacoma","Metro Parks Tacoma","Park: Dawn to Dusk | Tacoma Nature Center M-F(8am-5pm) Sat (10am-4pm)","67.5123","0","http://www.metroparkstacoma.org/tacomanaturecenter",,"1","Tacoma Nature Center","70.4368951",,,,,,,,,,,,,,,,,,,,,,,,,,"0",,"No",
"POINT (-122.494184083169 47.292358783495)","188","305","Ruston Way","Park","Regional",,"Tacoma","98402","City of Tacoma","Metro Parks Tacoma","Dawn to Dusk","28.0153","0","http://www.metroparkstacoma.org/ruston-way",,"1","Ruston Way","11.22055216",,,,,,,,,,,,,,,,,,,,,,,,,,"0",,"No",
"POINT (-122.572568833589 47.151856300415)","228","360","Washington Park","Park","Local","11603 Farwest Drive SW","Lakewood","98498","City of Lakewood","City of Lakewood","7:30am - 9:00pm or sunset, whichever comes first","3.4","0","http://www.cityoflakewood.us/government/departments/parks-and-recreation/lakewood-parks",,"1","Washington Park","3.71324504",,,,,,,,,,,,,,,,,,,,,,,,,,"0",,"No",
"POINT (-122.520856689065 47.219408087311)","279","1889","Thelma Gilmur Park","Park","Resource Conservancy","1404 Evergreen Dr","Fircrest","98466","City of Fircrest","City of Fircrest","Dawn to Dusk","6.781","0",,,"1","Thelma Gilmur Park","6.44098055",,,,,,,,,,,,,,,,,,,,,,,,,,"0",,"No",
"POINT (-122.511860078454 47.195599310903)","140","236","Meadow Park Golf Course","Golf","Special Use","7108 Lakewood Dr W","Tacoma","98467","City of Tacoma","Metro Parks Tacoma","Dawn to Dusk","143","0","http://www.metroparkstacoma.org/meadow-park-golf-course",,"1","Meadow Park Golf Course","145.54982043",,,,,,,,,,,,,,,,,,,,,,,,,,"0",,"No",
"POINT (-122.445332401413 47.124093793553)","52","111","Bresemann Forest","Wildlife Habitat","Regional","801 Military Road","Spanaway","98387","Pierce County","Pierce County Parks and Recreation Services","Dawn to Dusk","65","0","https://www.co.pierce.wa.us/1315/Bresemann-Forest",,"1","Bresemann Forest","61.69286512","No","No","Yes","No","Yes","No","No","No","No","No","No","No","No","No","No","No","No","No","No","No","No","No","No","No","No","65.85","Bresemann Forest is part of Spanaway Regional Park and located adjacent to Sprinker Recreation Center. This urban forest includes nature trails.","Yes",
"POINT (-122.438288808771 47.18498173162)","24","77","Ryan's Park","Park","Local","429 South 80TH ST","Tacoma","98408","City of Tacoma","Metro Parks Tacoma","Dawn to Dusk","5","0","http://www.metroparkstacoma.org/ryans-park-formerly-celebration-park",,"1","Ryan's Park","4.34052551",,,,,,,,,,,,,,,,,,,,,,,,,,"0",,"No",
"POINT (-122.307869898481 47.138041448692)","335","202","Heritage Recreation Center","Rec Area","County","9010 128th Street E","Puyallup","98373","Puyallup School District","Pierce County Parks and Recreation Services","6:30 am until dusk (unless otherwise posted). The gates are closed at 4:30 pm for the month of January.","81.16","0","https://www.co.pierce.wa.us/1325/Heritage-Recreation-Center",,"1","Heritage Recreation Center","41.40566189","Yes","Yes","Yes","Yes","No","No","No","Yes","Yes","No","Yes","No","Yes","No","No","No","No","No","No","No","No","No","No","No","No","46.9","Heritage is a popular world class sports complex that boasts baseball, soccer and multi-purpose fields in addition to remarkable trails where nature thrives in the heart of South Hill, Puyallup. Additionally, Heritage Recreation Center is linked to the S","Yes",
"POINT (-122.59455129991 47.318493112132)","269","1865","Adam Tallman Park","Park","Local","6626 Wagner Way","Gig Harbor","98335","Private Owner","City of Gig Harbor","Dawn to Dusk","3","0","http://www.cityofgigharbor.net/page.php?id=699",,"1","Adam Tallman Park","3.00451689",,,,,,,,,,,,,,,,,,,,,,,,,,"0",,"No",
"POINT (-122.639533337075 47.349293739962)","194","312","Sehmel Homestead Park","Park","Local","10123 78TH AVE NW","Gig Harbor","98332","Peninsula Metropolitan Park District","Peninsula Metropolitan Park District","7 am to dusk","98","0","https://penmetparks.org/parks/sehmel-homestead-park/",,"1","Sehmel Homestead Park","97.19946384","yes","yes","yes","yes","yes",,"yes","yes","yes",,"yes","yes","yes",,,,,,"yes",,,,,,,"98",,"No",
"POINT (-122.674379131172 47.101019892725)","325","1861","Tract ""I"" Park","Park","Local","Ridge View Dr","DuPont","98327","City of DuPont","City of DuPont","Dawn to Dusk","0.9","0","http://www.ci.dupont.wa.us/public-works/parks-recreation/city-parks.html",,"1","Tract ""I"" Park","0.97244122",,,,,,,,,,,,,,,,,,,,,,,,,,"0",,"No",
"POINT (-122.511742252699 47.22921215301)","234","366","Whittier Park","Park","Local","Contra Costa and Elm Tree Lane","Fircrest","98466","City of Fircrest","City of Fircrest","Dawn to Dusk","10","0",,,"1","Whittier Park","9.99320263",,,,,,,,,,,,,,,,,,,,,,,,,,"0",,"No",
"POINT (-122.743445094658 47.38407883722)","243","379","Rocky Creek Conservation Area","Park","Undeveloped Sites","State Route 302 & 150th Ave KPN","Gig Harbor","98329","Pierce County","Key Pen Parks","Daylight hours only","0","224","http://www.keypenparks.com/rocky-creek-park.htm",,"1","Rocky Creek Conservation Area","238.39861217",,,,,,,,,,,,,,,,,,,,,,,,,,"0",,"No",
"POINT (-122.422280281847 47.235191738392)","138","234","McKinley Park","Park","Local","900 Upper Park St. E","Tacoma","98404","City of Tacoma","Metro Parks Tacoma","Dawn to Dusk","0","24.79","http://www.metroparkstacoma.org/mckinley-park",,"1","McKinley Park","24.6367473",,,,,,,,,,,,,,,,,,,,,,,,,,"0",,"No",
"POINT (-122.451562974576 47.202921301422)","8","60","Alling Park","Park","Local","1134 S 60th St","Tacoma","98408","City of Tacoma","Metro Parks Tacoma","Dawn to Dusk","5","0","http://www.metroparkstacoma.org/alling-park",,"1","Alling Park","5.63042369",,,,,,,,,,,,,,,,,,,,,,,,,,"0",,"No",
"POINT (-122.21438934464 47.097926062803)","293","2673","Whitehawk Park","Park","Local","Orting Av NW","Orting","98360","City of Orting","City of Orting","Dawn to Dusk (unless otherwise posted)","0","0",,,"1","Whitehawk Park","3.97606306",,,,,,,,,,,,,,,,,,,,,,,,,,"0",,"No",
"POINT (-122.049700646146 47.108234441569)","324","1862","Wilkeson Park Property","Park",,"Railroad Av",,,"Town of Wilkeson","Town of Wilkeson",,"0.29","0",,,"1","Wilkeson Park Property","1.5699503",,,,,,,,,,,,,,,,,,,,,,,,,,"0",,"No",
"POINT (-122.415313233444 47.228891371304)","79","153","Eastside Pool","Rec Center","Special Use","3537 E K St","Tacoma","98404","City of Tacoma","Metro Parks Tacoma","Dawn to Dusk","7.29","0","http://www.metroparkstacoma.org/eastside-pool",,"1","Eastside Pool","7.28402722",,,,,,,,,,,,,,,,,,,,,,,,,,"0",,"No",
"POINT (-122.356032391682 47.237276485452)","25","78","Centennial Park","Park","Local","5411 23rd Street E","Fife","98424","City of Fife","City of Fife","Dawn to Dusk","0.36","0","http://cityoffife.org/?p=city_departments&a=parks_and_recreation&b=city_parks&c=centennial_park",,"1","Centennial Park","3.75542634",,,,,,,,,,,,,,,,,,,,,,,,,,"0",,"No",
"POINT (-122.233627491207 47.209225610768)","195","313","Seibenthaler Park","Park","Local","1602 Bonney Ave","Sumner","98390","City of Sumner","City of Sumner","Per City Rules","2.3","0","http://www.ci.sumner.wa.us/Living/Seibenthaler.htm",,"1","Seibenthaler Park","2.33831089",,,,,,,,,,,,,,,,,,,,,,,,,,"0",,"No",
"POINT (-122.309158839441 47.133524000563)","86","165","Nathan Chapman Trail","Trail","Linear","9201 136th St E","Puyallup","98373","Pierce County","Pierce County Parks and Recreation Services","Dawn to Dusk (unless otherwise posted)","1.629","0","http://www.co.pierce.wa.us/pc/abtus/ourorg/parks/SHillPark.htm#Nathan Chapman Memorial Trail",,"1","Nathan Chapman Memorial Trail","1.62952069","No","Yes","Yes","Yes","No","No","No","No","No","No","No","No","No","No","No","No","No","No","No","No","No","No","No","No","No","1.56","The Nathan Chapman Memorial Trail cuts through woods and wetlands, joining South Hill Community Park with Heritage Recreation Center, a public athletic complex. The trail is a wide, paved route that connects to a loop trail at South Hill Community Park.","Yes",
"POINT (-122.590657521671 47.339532401575)","256","1847","Finholm View Climb","Park","Special Use","8917 Franklin St","Gig Harbor","98332","City of Gig Harbor","City of Gig Harbor","Dawn to Dusk","0.2","0","http://www.cityofgigharbor.net/page.php?id=699",,"1","Finholm View Climb","0.07775018",,,,,,,,,,,,,,,,,,,,,,,,,,"0",,"No",
"POINT (-122.232448329359 47.244686009969)","209","332","Sumner Meadows Golf Links","Golf","Regional","14802 8th St. E.","Sumner","98390","City of Sumner","City of Sumner","Sun-Sat Daylight to Dark","141.12","0","http://www.golfsumnermeadows.com/index.php",,"1","Sumner Meadows Golf Links","158.15368845",,,,,,,,,,,,,,,,,,,,,,,,,,"0",,"No",
"POINT (-122.747961212192 47.353716725384)","356","389","Key Central Forest","Undeveloped","Resource Conservancy","10527 Wright Bliss Rd NW","Gig Harbor","98329","WA DNR","Key Pen Parks","Dawn to Dusk",,"480","https://www.keypenparks.com/key-central-forest.html",,"1","Key Central Forest","480",,,,,"Yes",,,,,,,,,,,,,,,,,,,,,"480",,"no",
"POINT (-122.509278748428 47.292333667068)","12","64","Baltimore Park","Park","Local","4716 N Baltimore, N 47th St at N Baltimore St","Tacoma","98407","City of Tacoma","Metro Parks Tacoma","Dawn to Dusk","2","0","http://www.metroparkstacoma.org/baltimore-park",,"1","Baltimore Park","2.67861655",,,,,,,,,,,,,,,,,,,,,,,,,,"0",,"No",
"POINT (-122.551419906192 47.194903820762)","246","382","Chambers Creek Canyon Park","Trail","Regional","6701 67th St Ct SW, Lakewood","Lakewood","98467","Pierce County","Pierce County Parks and Recreation Services","Dawn to Dusk","2","193","http://www.co.pierce.wa.us/1369/Chambers-Creek-Canyon-Trail",,"1","Chambers Creek Canyon","199.75284537","No","No","Yes","No","Yes","No","No","Yes","No","No","No","No","No","No","No","Yes","No","No","No","No","No","No","No","No","No","204.63","There are two soft-surface nature trails located within the Chambers Creek Canyon. One trail begins at Kobayashi Park and the other begins at Chambers Creek Road or Zircon Drive.","Yes",
"POINT (-122.443938845377 47.138987979604)","40","98","Parkland Prairie Nature Preserve","Wildlife Habitat","Resource Conservancy","Tule Lake Rd S At Yakima Ave S","Tacoma","98444","Pierce County","Pierce County Parks and Recreation Services","Dawn to Dusk","5","3","https://www.co.pierce.wa.us/4759/Parkland-Prairie",,"1","Parkland Prairie Nature Preserve","7.96","No","Yes","No","Yes","Yes","No","No","No","No","No","No","No","No","No","No","No","No","No","No","No","No","No","No","No","No","7.96","This 4.5 acre preserve of Garry Oak open space property is located in the Parkland area. This property includes a nature trail and educational kiosk.","Yes",
"POINT (-122.048124279136 47.109693526877)","54","113","City Park - Wilkeson","Park","Local","Brierhill Blvd & Roosevelt Rd","Wilkeson","98396","Town of Wilkeson","Town of Wilkeson","Dawn to Dusk","1.81","0",,,"1","City Park - Wilkeson","1.8216738",,,,,,,,,,,,,,,,,,,,,,,,,,"0",,"No",
"POINT (-122.534893329386 47.262659690965)","173","282","Optimist Park","Park","Local","1330 N James St","Tacoma","98406","City of Tacoma","Metro Parks Tacoma","Dawn to Dusk","2.65","0","http://www.metroparkstacoma.org/optimist-park",,"1","Optimist Park","2.65414434",,,,,,,,,,,,,,,,,,,,,,,,,,"0",,"No",
"POINT (-122.533694340476 47.202551835546)","61","120","Conservation Park","Park","Local","Bridgeport Way W and Chambers Lane West","University Place","98467","City of University Place","City of University Place","7 Days a week, daylight hours","0.56","0","http://cityofup.com/Media/file/ParksAndRec/Park%20location_descript%202011.pdf",,"1","Conservation Park","0.51884982",,,,,,,,,,,,,,,,,,,,,,,,,,"0",,"No",
"POINT (-122.391759627634 47.226262848335)","213","336","Swan Creek Park - Pioneer Way (Pierce County)","Undeveloped","Special Use","2954 Pioneer Way East","Tacoma","98404","Pierce County","Pierce County Parks and Recreation Services","Dawn to Dusk","0","40",,,"1","Swan Creek Park- Pioneer Way","40","No","No","Yes","No","Yes","No","No","No","No","No","No","No","No","No","No","No","No","No","No","No","No","No","No","No","No","40","This undeveloped park includes a gravel parking lot and soft surface nature trails along Swan Creek. Trails connect to Metro Parks Swan Creek Park nature trails.","Yes",
"POINT (-122.282068453942 47.234743778347)","80","155","Edgemont Park","Park","Local","11001 24th Street E","Edgewood","98372","City of Edgewood","City of Edgewood","Dawn to Dusk","4.72","0","http://www.cityofedgewood.org/depts/parks/parks.htm",,"1","Edgemont Park","4.33117719",,,,,,,,,,,,,,,,,,,,,,,,,,"0",,"No",
"POINT (-122.585847444113 47.303432558772)","260","1853","Kenneth Leo Marvin Veterans Memorial Park","Park","Local","3580 50th St Ct","Gig Harbor","98335","City of Gig Harbor","City of Gig Harbor","Dawn to Dusk","6.4","0","http://www.cityofgigharbor.net/page.php?id=699",,"1","Kenneth Leo Marvin Veterans Memorial Park","6.40722841",,,,,,,,,,,,,,,,,,,,,,,,,,"0",,"No",
"POINT (-122.749248446054 47.256244690536)","131","224","Penrose Point State Park","Park","Regional","321 158th Avenue KPS","Lakebay","98349","State of Washington","Washington State Parks","Summer: 8 a.m. to dusk. | Winter: Day-use area is open 8 a.m. to dusk","149.68504","0","http://www.parks.wa.gov/parks/?selectedpark=Penrose%20Point&subject=all",,"1","Penrose Point State Park","160.18117797",,,,,,,,,,,,,,,,,,,,,,,,,,"0",,"No",
"POINT (-122.249050143722 47.1872534317)","357","800","Van Lierop Park","Park","Local","3401 8th Ave SE","Puyallup","98372","City of Puyallup","City of Puyallup",,"18",,"http://www.cityofpuyallup.org/1278/Van-Lierop-Park",,"1","Van Lierop Park","18.12",,,"Y","Y",,,,,,,,,,,,,,,,,,,,,,"18",,"no",
"POINT (-122.308263122699 47.175381359801)","19","72","Community Garden Plots","Park","Resource Conservancy","1111 19th Ave SW","Puyallup","98371","City of Puyallup","City of Puyallup",,"0","17","http://www.cityofpuyallup.org/services/parks-recreation/city-puyallup-parks/community-garden-plots/",,"1","Community Garden Plots","15.00383064",,,,,,,,,,,,,,,,,,,,,,,,,,"0",,"No",
"POINT (-122.629282854281 47.287497767513)","277","1876","Harbor Family Park","Park","Resource Conservancy","6620 32nd St NW","Gig Harbor","98335","Peninsula Metropolitan Park District","Peninsula Metropolitan Park District","7 am to dusk","0","18.7","https://penmetparks.org/parks/harbor-family-park/",,"1","Harbor Family Park","18.74254565",,,,,"yes",,,,,,,,,,,,,,,,,,,,,"19",,"No",
"POINT (-122.582867246277 47.322524130512)","105","192","Grandview Forest Park","Park","Undeveloped Sites","3488 Grandview St","Gig Harbor","98332","City of Gig Harbor","City of Gig Harbor","Dawn to Dusk","0","9.57","http://www.cityofgigharbor.net/page.php?id=699",,"1","Grandview Forest Park","9.61191904",,,,,,,,,,,,,,,,,,,,,,,,,,"0",,"No",
"POINT (-122.549651440688 47.251310886016)","216","341","Titlow Park, Community Center and Lodge","Community Center","Special Use","8425 6th Ave","Tacoma","98465","City of Tacoma","Metro Parks Tacoma","Dawn to Dusk","76.1318","0","http://www.metroparkstacoma.org/titlow-park",,"1","Titlow Park, Community Center and Lodge","86.88118931",,,,,,,,,,,,,,,,,,,,,,,,,,"0",,"No",
"POINT (-122.438349449997 47.176623499034)","93","174","Fern Hill","Park","Local","502 South 88TH Street","Tacoma","98444","City of Tacoma","Metro Parks Tacoma","Dawn to Dusk","2.02","0","http://www.metroparkstacoma.org/fern-hill-park",,"1","Fern Hill","2.00509598",,,,,,,,,,,,,,,,,,,,,,,,,,"0",,"No",
"POINT (-122.480028875188 47.246320959882)","102","189","Franklin Park","Park","Local","1201 Puget Sound","Tacoma","98405","City of Tacoma","Metro Parks Tacoma","Dawn to Dusk","23.08","0","http://www.metroparkstacoma.org/franklin-park","http://www.metroparkstacoma.org/page.php?id=660","1","Franklin Park","19.91144975",,,,,,,,,,,,,,,,,,,,,,,,,,"0",,"No",
"POINT (-122.227172928028 47.115284656517)","340","2674","Foothills Trail- McMillin to Orting","Trail","Linear Park","401 Washington Av SE","Orting","98360","City of Orting","City of Orting","Dawn to Dusk (unless otherwise posted)","19","0","https://www.piercecountywa.org/2340/McMillin-to-Orting",,"1","Foothills Trail- McMillin through Orting","19.46269151","Yes","Yes","Yes","Yes","No","Yes","No","No","No","No","No","No","No","No","No","Yes","No","No","No","No","No","No","No","No","No","0","The McMillin Trailhead is a popular starting spot for bikers, skaters and stroller pushers. Most of this 2.3 mile section is parallel to SR 162.","Yes",
"POINT (-122.470627046177 47.277599805743)","78","150","Dickman Mill Park","Park","Local","2423 Ruston Way","Tacoma","98402","City of Tacoma","Metro Parks Tacoma","Dawn to Dusk","8.79","0","http://www.metroparkstacoma.org/dickman-mill-park",,"1","Dickman Mill Park","8.79915417",,,,,,,,,,,,,,,,,,,,,,,,,,"0",,"No",
"POINT (-122.464405782896 47.276303643272)","171","280","Old Town Dock","Pier","Local","McCarver and Ruston Way","Tacoma","98402","City of Tacoma","Metro Parks Tacoma","Dawn to Dusk","0.96","0","http://www.metroparkstacoma.org/old-town-dock",,"1","Old Town Dock","2.74977574",,,,,,,,,,,,,,,,,,,,,,,,,,"0",,"No",
"POINT (-122.13529572278 47.115142330875)","342","375","Foothills Trail- Orting to South Prairie","Trail","Linear","Washington Ave SE","Orting","98360","Pierce County","City of Orting","Dawn to Dusk (unless otherwise posted)","119.69","0","https://www.piercecountywa.org/2341/Orting-to-South-Prairie",,"1","Foothills Trail- Orting to South Prairie Section","125.78907556","Yes","Yes","Yes","Yes","No","Yes","No","Yes","No","No","No","No","No","No","No","Yes","No","No","No","No","No","No","No","No","No","0","This diverse section of trail, at almost 11 miles, is the longest section of the Foothills route. There are three rest stops and all of them have been acquired through private gifts. This section includes a cattle farm and a buffalo ranch, but the real f","Yes",
"POINT (-122.47135633282 47.178419348663)","227","359","Wards Lake Park","Park","Local","2716 84th St S","Lakewood","98499","City of Lakewood","City of Lakewood","7:30am - 9:00pm or sunset, whichever comes first","11.97","13.17","http://www.cityoflakewood.us/government/departments/parks-and-recreation/lakewood-parks#Wards Lake Park",,"1","Wards Lake Park","27.8026368",,,,,,,,,,,,,,,,,,,,,,,,,,"0",,"No",
"POINT (-122.443894585676 47.2267886083)","146","249","Lincoln Park","Park","Local","S 37th St At S Thompson Ave","Tacoma","98418","City of Tacoma","Metro Parks Tacoma","Dawn to Dusk","0","9.75","http://www.metroparkstacoma.org/lincoln-park",,"1","Lincoln Park","9.74695612",,,,,,,,,,,,,,,,,,,,,,,,,,"0",,"No",
"POINT (-122.070343867981 47.136915051208)","343","373","Foothills Trail- South Prairie to Buckley","Trail","Linear",,"Orting","98360","Pierce County","Pierce County Parks and Recreation Services","Dawn to Dusk (unless otherwise posted)","68","0","https://www.piercecountywa.org/2342/South-Prairie-to-Buckley",,"1","Foothills Trail- Buckley to South Prairie Section","69.13506995","Yes","Yes","Yes","Yes","Yes","Yes","No","Yes","No","No","No","No","No","No","No","No","No","No","No","No","No","No","No","No","No","0","This trail section extends from South Prairie Creek in the Town of South Prairie to Buckley. The main stem now stops at South Prairie, about three miles short of its planned end point on the edge of Buckley.","Yes",
"POINT (-122.666602740601 47.277294926034)","304","2767","Demolay Sandspit Nature Preserve","Park","Resource Conservancy","55 Bella Bella Dr","Fox Island","98333","Peninsula Metropolitan Park District","Peninsula Metropolitan Park District","Dawn to Dusk","0","5.5","https://penmetparks.org/parks/demolay-sandspit-nature-preserve/",,"1","Demolay Sandspit Nature Preserve","4.4","yes",,"yes",,"yes",,,"yes",,,,,,,"yes",,,,,,,,,,,"5.5",,"No",
"POINT (-122.603503964288 47.169906393197)","285","1897","Perkins Park","Park","Local","Union & Martin St","Steilacoom","98388","Town of Steilacoom","Town of Steilacoom","Dawn to Dusk","0.5","0","http://www.townofsteilacoom.com/activities/parks_recreation.htm#perkins",,"1","Perkins Park","0.52867293",,,,,,,,,,,,,,,,,,,,,,,,,,"0",,"No",
"POINT (-122.098081366593 47.135375339549)","280","1891","Third Street Park","Park","Local","3rd Street SW","South Prairie","98385","White River School District","Town of South Prairie","Dawn to Dusk","9.7","0","http://www.townofsouthprairie.com/parks.htm",,"1","Third Street Park","9.71962412",,,,,,,,,,,,,,,,,,,,,,,,,,"0",,"No",
"POINT (-122.497792798502 47.237757431664)","32","86","Cheney Stadium","Stadium","Special Use","2502 S Tyler St","Tacoma","98405","City of Tacoma","City of Tacoma",,"25.6","0","http://www.cityoftacoma.org/Page.aspx?hid=3052",,"1","Cheney Stadium","20.42330651",,,,,,,,,,,,,,,,,,,,,,,,,,"0",,"No",
"POINT (-122.455645744061 47.195983992231)","225","356","Wapato Park","Park","Regional","6500 S Sheridan Av","Tacoma","98408","City of Tacoma","Metro Parks Tacoma","Dawn to Dusk","85.0535","0","http://www.metroparkstacoma.org/wapato-park",,"1","Wapato Park","90.10284706",,,,,,,,,,,,,,,,,,,,,,,,,,"0",,"No",
"POINT (-122.443435804859 47.305508722439)","21","74","Browns Point Lighthouse Park","Park","Local","201 Tulalip Street NE","Tacoma","98422","City of Tacoma","Metro Parks Tacoma","Dawn to Dusk","5","0","http://www.metroparkstacoma.org/browns-point-lighthouse-park",,"1","Browns Point Lighthouse Park","4.35627292",,,,,,,,,,,,,,,,,,,,,,,,,,"0",,"No",
"POINT (-122.508914058294 47.17401254535)","1","28","Lakewood Community Center","Community Center","Special Use","9112 Lakewood Dr SW","Tacoma","98499","Pierce County","Pierce County Parks and Recreation Services","See website","3.63","0","https://www.co.pierce.wa.us/1305/Lakewood-Community-Center",,"1","Lakewood Community Center","3.63169297","Yes","No","Yes","No","No","No","Yes","No","No","No","No","Yes","No","No","No","No","No","No","No","No","No","No","No","No","No","3.71","The Lakewood Community Center is a multipurpose center, that includes a college-sized gymnasium, meeting rooms, and the Lakewood Senior Activity Center.","Yes",
"POINT (-122.453749770498 47.22914453061)","192","309","Sawyer Tot Lot","Park","Local","3315 S Sawyer St","Tacoma","98418","City of Tacoma","Metro Parks Tacoma","Dawn to Dusk","0.505","0","http://www.metroparkstacoma.org/sawyer-tot-lot",,"1","Sawyer Tot Lot","0.49783725",,,,,,,,,,,,,,,,,,,,,,,,,,"0",,"No",
"POINT (-122.55890878832 47.278109580993)","359","803","Tubby's Trail Dog Park","Park","Special Use","2120 14th Ave NW","Gig Harbor","98335","Peninsula Metropolitan Park District","Peninsula Metropolitan Park District","Dawn to dusk","9",,"https://penmetparks.org/parks/tubbys-trail-dog-park/",,"1","Tubby's Trail Dog Park","8.5","yes",,"yes",,,,,"yes",,"yes",,,,,,,,,,,,,,,,"8.5",,"no",
"POINT (-122.548382478614 47.224254675402)","60","119","Colegate Park","Park","Undeveloped Sites","35th St W & Crestview Drive West","University Place","98466","City of University Place","City of University Place","Dawn to Dusk","0","12","http://cityofup.com/Media/file/ParksAndRec/Park%20location_descript%202011.pdf",,"1","Colegate Park","11.84409573",,,,,,,,,,,,,,,,,,,,,,,,,,"0",,"No",
"POINT (-122.650969647992 47.273934990305)","217","343","Towhead Island Boat Launch","Beach","Regional","3rd Avenue Fi & 3rd Court Fi (Fox Island Bridge)","Fox Island","98333","U.S. Federal Government","U.S. Federal Government","Dawn to Dusk","0.33","0",,"http://www.foxislandwa.net/boat_launch.htm","1","Towhead Island Boat Launch","0.32345282",,,,,,,,,,,,,,,,,,,,,,,,,,"0",,"No",
"POINT (-122.292911279376 47.196062622071)","108","195","Grayland Park","Park","Local","601 North Meridian","Puyallup","98372","City of Puyallup","City of Puyallup","8 am to Dusk","2.3383","0","http://www.cityofpuyallup.org/services/parks-recreation/city-puyallup-parks/grayland-park/",,"1","Grayland Park","2.35927162",,,,,,,,,,,,,,,,,,,,,,,,,,"0",,"No",
"POINT (-122.579392023955 47.346174137817)","272","1870","BMX Park","Park","Local","9702 Crescent Valley Road","Gig Harbor","98332","City of Gig Harbor","City of Gig Harbor","Dawn to Dusk","1.488","0","http://www.cityofgigharbor.net/page.php?id=699",,"1","BMX Park","1.48830566",,,,,,,,,,,,,,,,,,,,,,,,,,"0",,"No",
"POINT (-122.511963589286 47.234540396145)","96","179","Fircrest Park","Park","Local","471 Electron Way","Tacoma","98466","City of Fircrest","City of Fircrest","Dawn to Dusk (unless otherwise posted)","7.35","0",,,"1","Fircrest Park","7.64503054",,,,,,,,,,,,,,,,,,,,,,,,,,"0",,"No",
"POINT (-122.617329945059 47.298296798625)","237","369","Wollochet Bay Estuary","Wildlife Habitat","Resource Conservancy","4415 Wollochet Dr NW","Gig Harbor","98335","Peninsula Metropolitan Park District","Peninsula Metropolitan Park District","7 am to dusk","0","20","https://penmetparks.org/parks/wollochet-bay-estuary/",,"1","Wollochet Bay Estuary","20",,,,,,,,"yes",,,,,,,"yes",,,,,,,,,,,"20",,"No",
"POINT (-122.316740505379 47.247189606812)","219","346","Milton Community Park","Park","Local","1101 MILTON WY","Milton","98354","City of Milton","City of Milton","Dawn to Dusk (unless otherwise posted)","7.0527","0","http://www.cityofmilton.net/page.php?id=97",,"1","Milton Community Park","9.09294626",,,,,,,,,,,,,,,,,,,,,,,,,,"0",,"No",
"POINT (-122.500005753699 47.241139406219)","112","201","Heidelberg Davis Park","Park","Local","1902 S Tyler St","Tacoma","98405","City of Tacoma","Metro Parks Tacoma","Dawn to Dusk | Special arrangement can be made for leagues.","22.28","0","http://www.metroparkstacoma.org/heidelberg-davis-athletic-complex",,"1","Heidelberg Davis Park","34.47449886",,,,,,,,,,,,,,,,,,,,,,,,,,"0",,"No",
"POINT (-122.492101602917 47.257164836756)","122","214","Jefferson Park","Park","Local","801 N Mason Ave","Tacoma","98406","City of Tacoma","Metro Parks Tacoma","Dawn to Dusk","14.2","0","http://www.metroparkstacoma.org/jefferson-park",,"1","Jefferson Park","13.76316102",,,,,,,,,,,,,,,,,,,,,,,,,,"0",,"No",
"POINT (-122.649239615699 47.098844590519)","266","1859","DuPont PowderWorks Park","Park","Local","1775 Bobs hollow Ln","DuPont","98327","City of DuPont","City of DuPont","Dawn to Dusk","24","0","http://www.ci.dupont.wa.us/public-works/parks-recreation/city-parks.html",,"1","DuPont PowderWorks Park","24.08902247",,,,,,,,,,,,,,,,,,,,,,,,,,"0",,"No",
"POINT (-122.093448818634 47.13975972491)","281","1892","Veterans Park","Park","Local","354 162 Hwy E","South Prairie","98385","Town of South Prairie","Town of South Prairie","Dawn to Dusk","2.15","0","http://www.townofsouthprairie.com/parks.htm",,"1","Veterans Park","2.16100295",,,,,,,,,,,,,,,,,,,,,,,,,,"0",,"No",
"POINT (-122.560215680927 47.222285014637)","291","2643","Brookside Park","Park","Undeveloped Sites","Brookside Wy W","University Place","98466","City of University Place","City of University Place","Dawn to Dusk","0","2.7",,,"1","Brookside Park","2.59019273",,,,,,,,,,,,,,,,,,,,,,,,,,"0",,"No",
"POINT (-122.581564873154 47.330738293616)","123","215","Jerisich Dock & Skansie Brothers Park","Pier","Local","3207 HARBORVIEW DR","Gig Harbor","98335","City of Gig Harbor","City of Gig Harbor","Dawn to Dusk (unless otherwise posted)","14.2","0","http://www.cityofgigharbor.net/page.php?id=699",,"1","Jerisich Dock & Skansie Brothers Park","2.1391134",,,,,,,,,,,,,,,,,,,,,,,,,,"0",,"No",
"POINT (-122.296023739142 47.123877761959)","89","169","Meridian Habitat Park","Community Center","County","14422 Meridian East","Puyallup","98375","Pierce County","Pierce County Parks and Recreation Services","Hours vary call Cara at 253-841-8515","31.75","0","https://www.co.pierce.wa.us/1329/Meridian-Habitat-Park-Community-Center",,"1","Meridian Habitat Park","36.39038688","Yes","Yes","Yes","No","No","No","Yes","Yes","Yes","No","No","No","No","No","No","No","No","No","No","No","No","No","No","No","No","35.67","Known to locals as the Amphitheatre, Meridian Habitat Park is a 36-acre park that includes a community center, nature playground, dog park, amphitheater, walking paths, and a variety of wildlife habitat.","Yes",
"POINT (-122.434694658214 47.300315118063)","314","237","Meeker Memorial","Park","Local","Le Lou Wa Pl NE At East Side Dr NE","Tacoma","98422","Not Specified","Not Specified","Dawn to Dusk (unless otherwise posted)","0.1598","0",,,"1","Meeker Memorial","0.15983489",,,,,,,,,,,,,,,,,,,,,,,,,,"0",,"No",
"POINT (-122.212114185722 47.245318403402)","287","1900","Sunset Park","Park","Local","1306 69th St E","Auburn","98092","City of Auburn","City of Auburn","Dawn to Dusk","15","0","http://www.auburnwa.gov/community/parks/sunset_park.asp",,"1","Sunset Park","14.779093",,,,,,,,,,,,,,,,,,,,,,,,,,"0",,"No",
"POINT (-122.585724354981 47.322923076104)","258","1850","Civic Center Green","Park","Local","3510 Grandview Street","Gig Harbor","98335","City of Gig Harbor","City of Gig Harbor","Dawn to Dusk","3.344","0","http://www.cityofgigharbor.net/page.php?id=699",,"1","Civic Center Green","3.34417743",,,,,,,,,,,,,,,,,,,,,,,,,,"0",,"No",
"POINT (-122.585994922634 47.322095419414)","259","1851","Skate Park","Skate Park","Special Use","3510 Grandview Street","Gig Harbor","98335","City of Gig Harbor","City of Gig Harbor","Dawn to Dusk","2.7","0","http://www.cityofgigharbor.net/page.php?id=699",,"1","Skate Park","7.12304519",,,,,,,,,,,,,,,,,,,,,,,,,,"0",,"No",
"POINT (-122.532969321238 47.232384493243)","4","56","Adriana Hess Wetland Park","Park","Resource Conservancy","2917 Morrison Ave W","University Place","98466","City of University Place","City of University Place","Tuesday - Saturday 10 AM - 2:30 PM","0","2","http://www.tahomaaudubon.org/Default.aspx?pageId=30304",,"1","Adriana Hess Wetland Park","3.31693522",,,,,,,,,,,,,,,,,,,,,,,,,,"0",,"No",
"POINT (-122.675662306766 47.309990562868)","276","1875","Kopachuck Heights","Park","Undeveloped Sites","5615 Kopachuck Dr Nw","Gig Harbor","98335","Peninsula Metropolitan Park District","Peninsula Metropolitan Park District",,"0","18.5","https://penmetparks.org/parks/kopachuck-heights/",,"1","Kopachuck Heights","18.42215125",,,,,"yes",,,,,,,,,,,,,,,,,,,,,"18.5",,"no",
"POINT (-122.206073021374 47.09828915898)","295","2676","North Park","Park","Linear Park","101 Washington Av N","Orting","98360","City of Orting","City of Orting","Dawn to Dusk (unless otherwise posted)","1.38","0","http://www.cityoforting.org/Parks___Recreation.php",,"1","North Park","1.3840954",,,,,,,,,,,,,,,,,,,,,,,,,,"0",,"No",
"POINT (-122.462402799712 47.235710387888)","119","210","Irving Park","Park","Local","1902 S 25th St","Tacoma","98405","City of Tacoma","Metro Parks Tacoma","Dawn to Dusk","4.318","0","http://www.metroparkstacoma.org/irving-park",,"1","Irving Park","4.31746877",,,,,,,,,,,,,,,,,,,,,,,,,,"0",,"No",
"POINT (-122.600655470443 47.339822704729)","67","131","Cushman Powerline Trail","Trail","Linear Park","Kimball Dr At Hunt St, Reed Rd & 28th St","Gig Harbor","98335","Tacoma Public Utilities","Peninsula Metropolitan Park District","Dawn to Dusk","31.91","0","https://penmetparks.org/parks/cushman-powerline-trail/",,"1","Cushman Powerline Trail","52.81122182","yes",,"yes","yes",,,,,,,,,,,,,,,,,,,,,,"0",,"No",
"POINT (-121.716286730689 46.878525641575)","315","263","Mt. Rainier National Park","Park","Regional","Tahoma Woods, Star Route","Ashford","98304","U.S. Federal Government","U.S. Federal Government","Varies with Season","0","199580","http://www.nps.gov/MORA/index.htm",,"1","Mt. Rainier National Park","199580.268938","Yes","Yes","Yes","Yes","Yes","Yes","No","Yes","No","No","No","No","No","No","No","Yes","Yes","No","No","No","No","No","No","No","No","0","Ascending to 14,410 feet above sea level, Mount Rainier stands as an icon in the Washington landscape. An active volcano, Mount Rainier is the most glaciated peak in the contiguous U.S.A., spawning five major rivers. Subalpine wildflower meadows ring the","Yes","Yes"
"POINT (-122.343505497166 47.227012147509)","18","71","Brookville Gardens Park","Park","Undeveloped Sites","6518 Valley Ave E","Fife","98424","City of Fife","City of Fife","Not yet accessible to the public; Tentatively Opening 2014","0","17",,,"1","Brookville Gardens Park","16.17052587",,,,,,,,,,,,,,,,,,,,,,,,,,"0",,"No",
"POINT (-122.459334175503 47.243372686778)","207","328","Stanley Playfield","Playfield","Local","1712 S 19th St","Tacoma","98405","City of Tacoma","Metro Parks Tacoma","Dawn to Dusk","6.8066","0","http://www.metroparkstacoma.org/stanley-playfield",,"1","Stanley Playfield","6.80667282",,,,,,,,,,,,,,,,,,,,,,,,,,"0",,"No",
"POINT (-122.527728244311 47.230924398851)","290","2642","Paradise Pond Park","Park","Undeveloped Sites","3124 67TH AV W","University Place",,"City of University Place","City of University Place","Dawn to Dusk (unless otherwise posted)","0","9.5","http://cityofup.com/Media/file/ParksAndRec/WHERE%20ARE%20OUR%20PARKS%202011.pdf",,"1","Paradise Pond Park","9.73570635",,,,,,,,,,,,,,,,,,,,,,,,,,"0",,"No",
"POINT (-122.496631561039 47.196179079525)","152","257","Manitou Park","Park","Local","4421 American Lake Blvd","Tacoma","98409","City of Tacoma","Metro Parks Tacoma","Dawn to Dusk","6.846","0","http://www.metroparkstacoma.org/manitou-park",,"1","Manitou Park","6.8523719",,,,,,,,,,,,,,,,,,,,,,,,,,"0",,"No",
"POINT (-122.642933762799 47.091265164095)","264","1857","Ross Park","Park","Local","1500 Wilmington Dr","DuPont","98327","City of DuPont","City of DuPont","Dawn to Dusk","0.83","0","http://www.ci.dupont.wa.us/public-works/parks-recreation/city-parks.html",,"1","Ross Park","0.83821153",,,,,,,,,,,,,,,,,,,,,,,,,,"0",,"No",
"POINT (-122.609174948188 47.30798341268)","362","806","Peninsula Gardens","Park","Special Use","5003 Wollochet Dr NW","Gig Harbor","98335","Peninsula Metropolitan Park District","Peninsula Metropolitan Park District",,"9",,"https://penmetparks.org/parks/peninsula-gardens/",,"1","Peninsula Gardens","8.89","yes",,"yes",,,,"yes","yes",,,,,,,,,,,,,,,,,,"9",,"no",
"POINT (-122.582098813059 47.18016574085)","320","1896","Manitoba Park","Park","Local","Queets St and Manitoba Av","Steilacoom","98388","Town of Steilacoom","Town of Steilacoom","Dawn to Dusk","0.293","0","http://www.townofsteilacoom.com/activities/parks_recreation.htm#manitoba",,"1","Manitoba Park","0.27592657",,,,,,,,,,,,,,,,,,,,,,,,,,"0",,"No",
"POINT (-122.305663287425 47.209543217179)","180","293","Puyallup Valley Sports Complex","Rec Area","Regional","820 Valley Avenue NW","Puyallup","98371","City of Puyallup","City of Puyallup","8 am - 11:00 pm (seasonal)","24.94","0","http://www.cityofpuyallup.org/services/parks-recreation/city-puyallup-parks/puyallup-valley-sports-complex/",,"1","Puyallup Valley Sports Complex","25.14713044",,,,,,,,,,,,,,,,,,,,,,,,,,"0",,"No",
"POINT (-122.611451460507 47.159074105292)","284","1895","Cormorant Park","Park","Local","Cormorant Dr and Chapman Lp","Steilacoom","98388","Town of Steilacoom","Town of Steilacoom","Dawn to Dusk","1.613","0","http://www.townofsteilacoom.com/activities/parks_recreation.htm#cormorant",,"1","Cormorant Park","1.61264276",,,,,,,,,,,,,,,,,,,,,,,,,,"0",,"No",
"POINT (-122.579174601028 47.189044970589)","147","250","Chambers Creek Regional Park","Park","Regional","10311 Chambers Creek Rd W","University Place","98467","Pierce County","Pierce County Parks and Recreation Services","Dawn to Dusk","0","41","http://www.co.pierce.wa.us/1363/Chambers-Creek-Regional-Park",,"1","Chambers Creek Regional Park","92.38204746","Yes","Yes","Yes","Yes","No","No","No","Yes","No","Yes","No","No","Yes","No","Yes","Yes","No","No","No","No","No","No","No","No","No","185","This is part of the Chambers Creek Regional Park complex, which includes 730-acres of park, golf course and canyon trails. The parks includes includes over two miles of saltwater shoreline and breathtaking mountain and Puget Sound views.","Yes",
"POINT (-122.689664731783 47.168657622691)","149","253","Lowell Johnson Park","Park","Local","9717 114TH AV AI","Anderson Island","98303","Anderson Island Park District","Anderson Island Park District","7 am to 10:30 pm","6.56","0","http://www.andersonislandparks.org/Lowell_Johnson_Park.html",,"1","Lowell Johnson Park","6.48124509",,,,,,,,,,,,,,,,,,,,,,,,,,"0",,"No",
"POINT (-122.267061744897 46.868740708915)","307","2771","Town Square","Park","Local","132 Mashell Ave N","Eatonville","98328","Town of Eatonville","Town of Eatonville","No hours set","0","0",,,"1","Town Square","0.16766568",,,,,,,,,,,,,,,,,,,,,,,,,,"0",,"No",
"POINT (-122.348721503798 47.227178014158)","270","1866","5 - Acre Park","Park","Local","6335 Radiance Blvd E","Fife","98424","City of Fife","City of Fife","Dawn to Dusk","5.16","0","http://www.cityoffife.org/?p=city_departments&a=parks_and_recreation&b=city_parks",,"1","5 - Acre Park","5.16965097",,,,,,,,,,,,,,,,,,,,,,,,,,"0",,"No",
"POINT (-122.687777269533 47.320861080334)","68","132","Cutts Island State Park","Park","Resource Conservancy","N/A","Gig Harbor","98335","State of Washington","Washington State Parks","8 am to Dusk","0","5.5","http://www.parks.wa.gov/parks/?selectedpark=Cutts%20Island&subject=all",,"1","Cutts Island State Park","5.29886629",,,,,,,,,,,,,,,,,,,,,,,,,,"0",,"No",
"POINT (-122.426552923583 47.319248762736)","70","136","Dash Point Park","Park","Local","1425 Beach Drive NE","Tacoma","98422","City of Tacoma","Metro Parks Tacoma","Dawn to Dusk","2.9234","0","http://www.metroparkstacoma.org/dash-point-park",,"1","Dash Point Park","2.89460295",,,,,,,,,,,,,,,,,,,,,,,,,,"0",,"No",
"POINT (-122.673912696006 47.390848762575)","352","390","Gateway Park","Park","Local Park","10405 SR 302","Gig Harbor","98329","Key Pen Parks","Key Pen Parks","Daylight hours","39","34","https://www.keypenparks.com/gateway-park.html",,"1","Gateway Park","72","Yes",,"Yes",,,"Yes",,"Yes","Yes","Yes",,,,,,,,,,,,,,,,"72",,"no",
"POINT (-122.444591285116 47.115165701657)","28","82","Spanaway Park","Park","Regional","14905 Bresemann Blvd S (and Military Road S)","Spanaway","98387","Pierce County","Pierce County Parks and Recreation Services","Dawn to Dusk (unless otherwise posted)","68.13","0","https://www.co.pierce.wa.us/1336/Spanaway-Park",,"1","Spanaway Park","73.77275454","Yes","Yes","Yes","Yes","No","No","No","Yes","Yes","No","Yes","Yes","No","No","Yes","Yes","Yes","No","No","No","No","No","No","No","No","88.87","This 89-acre park is part of Spanaway Regional Park. The Park follows the east shoreline of Spanaway Lake and includes swimming beaches, boat launch, picnic shelters, playground, walking paths, and year-round activities.","Yes",
"POINT (-122.594218776873 47.337786837192)","273","1871","Donkey Creek Park","Park","Local","8714 North Harborview Dr","Gig Harbor","98332","City of Gig Harbor","City of Gig Harbor","http://www.cityofgigharbor.net/page.php?id=699#Cushman Trail","1.372","0","http://www.cityofgigharbor.net/page.php?id=699",,"1","Donkey Creek Park","1.3990155",,,,,,,,,,,,,,,,,,,,,,,,,,"0",,"No",
"POINT (-122.038758436715 47.102086660411)","344","2760","Foothills Trail- Town of Wilkeson","Trail","Linear Park","Quinnon Ext Rd E","Wilkeson","98396","Town of Wilkeson","Town of Wilkeson","Dawn to Dusk (unless otherwise posted)","0","9.42",,,"1","Foothills Trail- Town of Wilkeson","9.7752299","No","No",,"Yes","No","No","No","No","No",,"No","No","No","No","No","No","No","No",,"No",,"No",,,,"0",,"No",
"POINT (-122.64406218591 47.107406585807)","327","3114","Creekside Neighborhood Park","Park","Local","1610 Sequalitchew Dr","DuPont","98327","City of DuPont","City of DuPont","Dawn to Dusk","0.53","0","http://www.ci.dupont.wa.us/public-works/parks-recreation/city-parks.html",,"1","Creekside Neighborhood Park","0.56165111",,,,,,,,,,,,,,,,,,,,,,,,,,"0",,"No",
"POINT (-122.563229659498 47.343464041611)","64","124","Sunrise Beach / Doc Weathers Park","Park","TBD","10015 Sunrise Beach Drive NW","Gig Harbor","98332","Peninsula Metropolitan Park District","Peninsula Metropolitan Park District","Dawn to Dusk","89","80","http://www.co.pierce.wa.us/pc/abtus/ourorg/parks/Sunrise.htm",,"1","Sunrise Beach / Doc Weathers Park","88.72396672",,,,,,,,,,,,,,,,,,,,,,,,,,"0",,"No",
"POINT (-122.166829458618 47.189942634901)","16","69","Allan Yorke Park","Park","Local","7203 West Tapps Hwy E","Bonney Lake","98391","City of Bonney Lake","City of Bonney Lake","Dawn to Dusk","22","0","http://www.ci.bonney-lake.wa.us/section_community/parks_recreation/city_parks.shtml#maps",,"1","Allan Yorke Park","21.5796705",,,,,,,,,,,,,,,,,,,,,,,,,,"0",,"No",
"POINT (-122.683985515971 47.309836822113)","128","220","Kopachuck State Park","Park","Resource Conservancy","11101 56TH ST NW","Gig Harbor","98335","State of Washington","Washington State Parks","Summer: 8 a.m. to dusk. | Winter: 8 a.m. to dusk; day use only.","0","109","http://www.parks.wa.gov/parks/?selectedpark=Kopachuck&subject=all",,"1","Kopachuck State Park","103.89755233","Yes","Yes","Yes","No","Yes","Yes","No","Yes","No","No","No","No","No","No","Yes","Yes","No","No","No","No","No","No","No","No","No","280","Snug in the curve of Carr Inlet a half-hour from Tacoma, Kopachuck State Park is an easy jaunt from South Puget Sound and the Kitsap Peninsula, and a lovely stop on an outing to Gig Harbor.","no","No"
"POINT (-122.565252681053 47.267527583355)","45","104","Narrows Park","Park","Local","1502 Lucille Parkway NW","Gig Harbor","98335","Peninsula Metropolitan Park District","Peninsula Metropolitan Park District","7 am to dusk","35",,"https://penmetparks.org/parks/narrows-park/",,"1","Narrows Park","36.10843748","yes",,"yes","yes",,,,"yes",,,,,,,"yes","yes","yes",,,,,,,,,"35",,"No",
"POINT (-122.666884856532 47.289460492857)","53","112","Hales Pass Park","Park","Local","3507 Ray Nash Dr NW","Gig Harbor","98335","Peninsula Metropolitan Park District","Peninsula Metropolitan Park District","7 am to dusk","3.67","0","https://penmetparks.org/parks/hales-pass-park/",,"1","Hales Pass Park","4.0226101","yes",,,,,,"yes","yes",,,"yes",,,,,,,,"yes",,,,,,,"4",,"No",
"POINT (-122.566651494265 47.183440209476)","247","383","Fort Steilacoom Disc Golf Course","Park","Special Use","8202 87th Ave SW","Lakewood","98498","State of Washington","Washington State Department of Fish and Wildlife","Dawn to Dusk","105","0",,,"1","Fort Steilacoom Disc Golf Course","82.74256086","Yes",,"Yes","No","yes","No","No","No","No","No","no","No","No","no","No","No","No","No","No","No","No","No","yes","No","No","81.92",,"no",
"POINT (-122.371855853179 47.203541937407)","47","106","Lidford Playfield","Park","Local","58th St & 44th Ave E","Tacoma","98443","Pierce County","Pierce County Parks and Recreation Services","Dawn to Dusk","10","0","http://www.co.pierce.wa.us/5745/Lidford-Playfield",,"1","Lidford Playfield","9.73859521","No","No","Yes","No","Yes","No","No","No","No","No","Yes","No","No","No","No","No","No","No","No","No","No","No","No","No","No","9.78","This neighbhorhood playfield serves the Summit-Waller community and includes a walking path and open lawn.","Yes",
"POINT (-122.407007859951 47.230703230911)","136","230","Portland Avenue Park & Community Center","Park","Local","3513 Portland Ave","Tacoma","98404","City of Tacoma","Metro Parks Tacoma","Dawn to Dusk | Center hours vary","14.3","0","http://www.metroparkstacoma.org/portland-avenue-park",,"1","Portland Avenue Park & Community Center","13.87404363",,,,,,,,,,,,,,,,,,,,,,,,,,"0",,"No",
"POINT (-122.691007078922 47.102632070702)","288","1961","Nisqually National Wildlife Refuge","Wildlife Habitat","Regional/Resource Cons.","100 NE Brown Farm Rd","Olympia","98516","US Fish and Wildlife","US Fish & Wildlife","The trails and Refuge are open from sunrise to sunset","1512.56","0","http://www.fws.gov/refuges/profiles/index.cfm?id=13529",,"1","Nisqually National Wildlife Refuge","1018.19032055",,,,,,,,,,,,,,,,,,,,,,,,,,"0",,"No",
"POINT (-122.681314713215 47.396790521922)","245","381","360 Trails","Trail","Resource Conservancy","SR 302 at 144th St","Gig Harbor","98329","Key Pen Parks","Key Pen Parks","Daylight hours only","360","0","http://www.keypenparks.com/360-park.htm",,"1","360 Trails","349.16185233",,,,,"Yes",,,,,,,,,,,,,,,,,"Yes",,,,"360",,"no",
"POINT (-122.58859173283 47.333963808888)","257","1848","Eddon Boat Park","Park","Special Use","3805 Harborview Dr","Gig Harbor","98332","City of Gig Harbor","City of Gig Harbor","Dawn to Dusk","1.817","0","http://www.cityofgigharbor.net/page.php?id=699",,"1","Eddon Boat Park","1.81690003",,,,,,,,,,,,,,,,,,,,,,,,,,"0",,"No",
"POINT (-122.48904083293 47.201177827892)","202","323","SERA Campus (South End Recreation & Adventure)","Rec Area","Regional","6002 S Adams St","Tacoma","98409","City of Tacoma","Metro Parks Tacoma","Dawn to Dusk","39.91","0","http://www.metroparkstacoma.org/sera-campus-south-end-receation",,"1","SERA Campus South End Recreation & Adventure","59.7990332",,,,,,,,,,,,,,,,,,,,,,,,,,"0",,"No",
"POINT (-122.602693442159 47.17084735679)","318","1867","Byrd Mill Park","Park","Local","Union Av and Commericial St","Steilacoom","98388","Town of Steilacoom","Town of Steilacoom","Dawn to Dusk","0.18","0","http://www.townofsteilacoom.com/activities/parks_recreation.htm#byrd_mill",,"1","Byrd Mill Park","0.05838814",,,,,,,,,,,,,,,,,,,,,,,,,,"0",,"No",
"POINT (-122.186626020655 47.184773771155)","253","1842","Madrona Park","Park","Local","7730 182nd Av E","Bonney Lake","98391","City of Bonney Lake","City of Bonney Lake","Closes at Dusk","0.37","0","http://www.ci.bonney-lake.wa.us/section_community/parks_recreation/city_parks.shtml",,"1","Madrona Park","0.36980575",,,,,,,,,,,,,,,,,,,,,,,,,,"0",,"No",
"POINT (-122.554370476065 47.127987406986)","111","200","Harry Todd Park","Park","Local","8928 N Thorne Ln SW","Lakewood","98498","City of Lakewood","City of Lakewood","7:30am - 9:00pm or sunset, whichever comes first","17","0","http://www.cityoflakewood.us/government/departments/parks-and-recreation/lakewood-parks",,"1","Harry Todd Park","17.11935225",,,,,,,,,,,,,,,,,,,,,,,,,,"0",,"No",
"POINT (-122.642903470431 47.107164885016)","331","1862","Edmond Village Park","Park",,"2605 Bronson Av","DuPont","98327","City of DuPont","City of DuPont","Dawn to Dusk","2.45","0",,,"1","Edmond Village Park","2.44583971",,,,,,,,,,,,,,,,,,,,,,,,,,"0",,"No",
"POINT (-122.628048834721 47.095343846814)","55","114","Robinson Park","Park","Local","205 Barksdale Ave","DuPont","98327","City of DuPont","City of DuPont","Dawn to Dusk","0.338","0","http://www.ci.dupont.wa.us/public-works/parks-recreation/city-parks.html",,"1","Robinson Park","0.33816288",,,,,,,,,,,,,,,,,,,,,,,,,,"0",,"No",
"POINT (-122.55079970484 47.236274513356)","196","315","Senior Center (University Place)","Community Center","Special Use","2534 Grandview Drive West","University Place","98466","City of University Place","City of University Place","Monday through Friday 8 AM to 5 PM","0.5","0","http://cityofup.com/Page97.aspx",,"1","Senior Center- University Place","0.11101253",,,,,,,,,,,,,,,,,,,,,,,,,,"0",,"No",
"POINT (-122.297697048788 47.201848875354)","179","292","Puyallup Skate Park","Skate Park","Local","1299 4th Street NW","Puyallup","98371","City of Puyallup","City of Puyallup","8 am - 9 pm Sunday - Thursday8 am - 11pm Friday & Saturday","0.5","0","http://www.cityofpuyallup.org/services/parks-recreation/city-puyallup-parks/puyallup-skatepark/",,"1","Puyallup Skate Park","3.00475822",,,,,,,,,,,,,,,,,,,,,,,,,,"0",,"No",
"POINT (-122.517050684419 47.175248562929)","126","218","Kiwanis Park","Park","Local","6002 Fairlawn Drive SW","Lakewood","98499","City of Lakewood","City of Lakewood","7:30am - 9:00pm or sunset, whichever comes first","0","2.99","http://www.cityoflakewood.us/government/departments/parks-and-recreation/lakewood-parks",,"1","Kiwanis Park","2.96837212",,,,,,,,,,,,,,,,,,,,,,,,,,"0",,"No",
"POINT (-122.196146365164 47.092285994211)","308","2776","Charter Park","Park","Linear Park","401 Washington Ave SE","Orting","98360","City of Orting","City of Orting","Dawn to Dusk (unless otherwise posted)","7.58","0","http://www.cityoforting.org/Parks___Recreation.php",,"1","Charter Park","7.54958918",,,,,,,,,,,,,,,,,,,,,,,,,,"0",,"No",
"POINT (-122.270144773345 46.917615369015)","166","274","Northwest Trek Wildlife Park","Park","Regional","11610 Trek Dr. E","Eatonville","98328","City of Tacoma","Metro Parks Tacoma","Check website for hours","615","98","http://www.nwtrek.org/",,"1","Northwest Trek Wildlife Park","705.44495788","Yes","Yes","Yes","Yes","No","No","No","Yes","Yes","No","No","No","No","No","No","No","No","No","No","No","No","No","No","No","No","0","Since 1975, Northwest Trek Wildlife Park has been the best place to see native Northwest wildlife.","Yes","No"
"POINT (-122.488319598134 47.276230043453)","316","287","Puget Park","Park","Local","3100 N Proctor ST","Tacoma","98407","City of Tacoma","Metro Parks Tacoma","Dawn to Dusk","0.88","0","http://www.metroparkstacoma.org/puget-park",,"1","Puget Park","1.08884346",,,,,,,,,,,,,,,,,,,,,,,,,,"0",,"No",
