"company","company2","address","city","state","postal_code"
"Accredited Specialty Insurance Company",,"4798 New Broad Street, Suite 200","Orlando","FL","32814"
"AEL Re Vermont, Inc.",,"6000 Westown Parkway","West Des Moines","IA","50266"
"Allied World Assurance Company (U.S.) Inc.",,"2711 Centerville Road","New York","NY","10038"
"American European Insurance Company",,"2250 Chapel Ave West","Cherry Hill","NH","08002"
"Arch Reinsurance Ltd","Sutherland Asbill & Brennan LLP","1114 Avenue of the Americas, 40th Floor","New York","NY","10036-7703"
"Aspen Bermuda Limited","Drinker, Biddle & Reath LLP","1177 Avenue of the Americas, 41st Floor","New York","NY","10036-2714"
"Aspen Insurance UK Limited","Drinker, Biddle & Reath LLP","1177 Avenue of the Americas, 41st Floor","New York","NY","10036-2714"
"AXIS Specialty Limited","Drinker, Biddle & Reath LLP","1177 Avenue of the Americas, 41st Floor","New York","NY","10036-2714"
"Cypress Insurance Company",,"1314 Douglas Street","Omaha","NE","68102"
"DaVinci Reinsurance Ltd.","Drinker, Biddle & Reath LLP","1177 Avenue of the Americas, 41st Floor","New York","NY","10036-2714"
"Endurance Specialty Insurance Ltd.",,"4 Manhattanville Road","Purchase","NY","10577"
"Erie Insurance Exchange",,"100 Erie Insurance Place","Erie","PA","16530"
"Evanston Insurance Company",,"Ten Parkway North","Deerfield","IL","60015"
"Farm Bureau Mutual Insurance Company of Michigan",,"P.O. Box 30100","Lansing","MI","48909"
"Glencar Insurance Company",,"200 South Orange Avenue Ste 1900","Orlando","FL","32801"
"Global Atlantic Re Limited",,"19 Par-La-Ville Road, 2nd Floor","Hamilton HM 11","Bermuda",
"Gotham Re, Inc.",,"215 10th Street, Suite 1100","Des Moines","IA","50309"
"Hannover Life Reassurance Company of America",,"200 S. Orange Avenue, Suite 1900","Orlando","FL","32801"
"Hannover Ruck SE","Locke, Lord, Bissell & Liddell","Brookfield Place, 200 Vesey Street, 20th Floor","New York","NY","10281-2101"
"Hiscox Insurance Company (Bermuda) Ltd.",,"Wessex House 45 Reid Street","Hamilton HM12","Bermuda",
"Houston Casualty Company",,"13403 Northwest Freeway","Houston","TX","77040-6094"
"Ironshore Specialty Insurance Company",,"P.O. Box 3407","New York","NY","10008"
"Ironwood Re Corp",,"6400 C Street SW","Cedar Rapids","IA","52499"
"Kentucky Farm Bureau Mutual Insurance Company",,"P.O. Box 20700","Louisville","KY","40220-0700"
"Lancashire Insurance Company Ltd.","Drinker Biddle and Reath LLP","1177 Avenue of the Americas, 41st Floor","New York","NY","10036"
"LIICA Re I, Inc.",,"4333 Edgewood Road NE","Cedar Rapids","IA","52499"
"LIICA Re II, Inc.",,"4333 Edgewood Road NE","Cedar Rapids","IA","52499"
"M Life Insurance Company",,"7700 E. Arapahoe Rd.","Centennial","CO","80112"
"Mapfre Re, Compania De Reaseguros, S.A.","Katten Muchin Rosenman LLP","575 Madison Avenue","New York","NY","10022"
"Markel Bermuda Limited",,"Ten Parkway North","Deerfield","IL","60015"
"Markel International Insurance Company Limited",,"Ten Parkway North","Deerfield","IL","60015"
"Motorists Mutual Insurance Company",,"471 East Broad St","Columbus","OH","42315-3861"
"National Fire & Marine Insurance Company",,"1314 Douglas Street, Suite 1400","Omaha","NE","68102-1944"
"New Jersey Re-Insurance Company",,"301 Sullivan Way","West Trenton","NJ","08628-3496"
"New Reinsurance Company Ltd.",,"Zollikerstrasse 226, CH-8008","Zurich","Switzerland",
"Partner Reinsurance Company Ltd.","Drinker, Biddle & Reath LLP","1177 Avenue of the Americas, 41st Floor","New York","NY","10036-2714"
"Principal Reinsurance Company of Delaware",,"711 High Street","Des Moines","IA","50392"
"Principal Reinsurance Company of Delaware II",,"711 High Street","Des Moines","IA","50392"
"Principal Reinsurance Company of Vermont",,"711 High Street","Des Moines","IA","50392"
"Renaissance Reinsurance Ltd.","Drinker, Biddle & Reath LLP","1177 Avenue of the Americas, 41st Floor","New York","NY","10036-2714"
"RenaissanceRE Europe AG, US Branch",,"One Landmark Square - 15th Floor","Stamford","CT","06901"
"River Thames Insurance Company Limited",,"Brookfield Place, 200 Vesey Street, 20th Floor","New York","NY","10281"
"Somerset Reinsurance Ltd.",,"O'Hara House, Tower II, 3 Bermudiana Road","Pembroker, HM 08","Bermuda",
"Starr Surplus Lines Insurance Company",,"399 Park Avenue, 8th Floor","New York","NY","10022"
"StarStone Insurance SE",,"221 Dawson Road, 2nd Floor","Columbia","SC","29223"
"Transamerica Pacific Insurance Company, Ltd.",,"4333 Edgewood Road NE","Cedar Rapids","IA","52499"
"Transamerica Pacific Re, Inc.",,"4333 Edgewood Road NE","Cedar Rapids","IA","52499"
"Underwriters at Lloyd's","c/o Lloyd's America, Inc.","280 Park Avenue, East Tower, 25th Floor","New York","NY","10017"
"United Farm Family Life Insurance Company",,"225 South East Street","Indianapolis","IN","46202-1250"
"United National Insurance Company",,"Three Bala Plaza East, Suite 300","Bala Cynwyd","PA","19004"
"Validus Reinsurance (Switzerland), Ltd.","Drinker, Biddle & Reath LLP","1177 Avenue of the Americas, 41st Floor","New York","NY","10036-2714"
"Validus Reinsurance, Ltd.","Drinker, Biddle & Reath LLP","1177 Avenue of the Americas, 41st Floor","New York","NY","10036-2714"
"Watford Re Ltd.",,"100 Pitts Bay Road, 1st Floor","Pembroke HM 08","Bermuda",
"Wilton Reinsurance Bermuda Limited",,"P.O. Box HM3379","Hamilton HMPX","Bermuda",
"XL Bermuda Limited",,"P.O. Box HM 224","Hamilton HM 08","Bermuda",
