"permit_number","contact_type","company_name","street_number","street","street_suffix","state","zipcode","phone","phone2","license_number"
"E200212272259","Contractor","Mcclure Electric Inc","45","Rausch","St","CA","94103","4158645656","4158507071","248877"
"E200212272265","Contractor","Millennium Electric Inc","62","Westlawn Avenue",,"CA","94015-0000","6507557264","4157609699","776534"
"E200212272274","Contractor","Tam's Electric Inc","558","Goettingen","St","CA","94134-0000","4158504939","4158504939","558739"
"E200212302295","Contractor","Sure, Inc.","1728","Ocean","Av","CA","94112-0000","4152212888","4152987298","561658"
"E200302254443","Contractor","Pacific Access Contractors Inc.","937","Industrial","Av","CA","94303-0000","6504942000",,"664633"
"E200302264491","Contractor","S W Electric Co","100","Pinehurst","St","CA","94127-0000","4153085197","4153375322","762831"
"E200212272277","Contractor","Automatic Garage Door","2285","Revere","Av","CA","94124-0000","4156486413","4152980444","671116"
"E200212272280","Contractor","Automatic Garage Door","2285","Revere","Av","CA","94124-0000","4156486413","4152980444","671116"
"E200212302286","Contractor","Summerhill Electric Inc","5230","E-12th","St","CA","94601-0000","5105681685","5104093391","793376"
"E200212302292","Contractor","Brookline Aries Electric","121","Santa Rosa","Av","CA","94112","4152395393","4152395393","273651"
"E200302264536","Contractor","Mc Millan Electric","1950","Cesar Chavez","St","CA","94124-0000","4158265100","4150000000","268179"
"E200302264539","Contractor","Mc Millan Electric","1950","Cesar Chavez","St","CA","94124-0000","4158265100","4150000000","268179"
"E200212302304","Contractor","Acme Home Elevator Inc.","4740","East Second Street",,"CA","94510-0000","7077484490","7073730924","521967"
"E200301022361","Contractor","Ray Tom Construction","1362","Geneva","Av","CA","94112","4155843015","4157161088","524717"
"E200212302307","Contractor","Robert Whiteaker","1819","Polk","St","CA","94109-0000","4155735522","4159330551","570879"
"E200212312310","Contractor","Tri Valley Door Systems Inc","1912","02nd St",,"CA","94550-0000","9253710496",,"733575"
"E200212312316","Contractor","Tri Valley Door Systems Inc","1912","02nd St",,"CA","94550-0000","9253710496",,"733575"
"E200212312319","Contractor","Tri Valley Door Systems Inc","1912","02nd St",,"CA","94550-0000","9253710496",,"733575"
"E200212312322","Contractor","Tri Valley Door Systems Inc","1912","02nd St",,"CA","94550-0000","9253710496",,"733575"
"E200212312313","Contractor","Aznew","5170","Kegan","Ln","CA","94561-0000","9256800793","9253822595","657665"
"E200212312325","Contractor","Mark Olson Electric","1385","Donner","Av","CA","94124","4158223508","4155594094","284499"
"E200212312328","Contractor","Al-Tone Overhead Doors","540","Del Monte Ave","Av","CA","94080","6507553454","4158500329","716940"
"E200212312334","Contractor","Delao Electric Co","617","Moraga","St","CA","94122-0000","4156817011","4157476900","766407"
"E200302264479","Contractor","M S  Electric","315","Baden","St","CA","94131-0000","4155163961","4155163961","770756"
"E200212312343","Contractor","Tom's Construction","2118","Anza","St","CA","94118","5105178773","4152691593","533739"
"E200212312349","Contractor","Dowling Electric","1582","34th","Av","CA","94122-0000","4157133575","4157133575","768020"
"E200302264503","Contractor","Dowling Electric","1582","34th","Av","CA","94122-0000","4157133575","4157133575","768020"
"E200301022355","Others","City Overhead Doors Inc.","5976","Mission","St","CA","94112","6507564226",,"292393"
"E200301022364","Contractor","Center Electrical","655","Adrienne","St","CA","94945-0000","4158981475","4157101398","635075"
"E200301022379","Contractor","Y G Electric Inc","2422","26th","Av","CA","94116-0000","4156022368","4156022368","811211"
"E200301022367","Contractor","Rod Muscio Electrical","901","Palmetto Avenue Suite D",,"CA","94044","6503595360","6502223390","309056"
"E200302244419","Contractor","Rod Muscio Electrical","901","Palmetto Avenue Suite D",,"CA","94044","6503595360","6502223390","309056"
"E200302244422","Contractor","Rod Muscio Electrical","901","Palmetto Avenue Suite D",,"CA","94044","6503595360","6502223390","309056"
"E200302244425","Contractor","Rod Muscio Electrical","901","Palmetto Avenue Suite D",,"CA","94044","6503595360","6502223390","309056"
"E200302254428","Contractor","Rod Muscio Electrical","901","Palmetto Avenue Suite D",,"CA","94044","6503595360","6502223390","309056"
"E200302254431","Contractor","Rod Muscio Electrical","901","Palmetto Avenue Suite D",,"CA","94044","6503595360","6502223390","309056"
"E200302254464","Contractor","Rod Muscio Electrical","901","Palmetto Avenue Suite D",,"CA","94044","6503595360","6502223390","309056"
"E200302254476","Contractor","Rod Muscio Electrical","901","Palmetto Avenue Suite D",,"CA","94044","6503595360","6502223390","309056"
"E200302264488","Contractor","Rod Muscio Electrical","901","Palmetto Avenue Suite D",,"CA","94044","6503595360","6502223390","309056"
"E200301022370","Contractor","Joseph T. Hayes","23","Blossom","Dr","CA","94901-0000","4154826003","4159874075","675817"
"E200301022373","Contractor","Joseph T. Hayes","23","Blossom","Dr","CA","94901-0000","4154826003","4159874075","675817"
"E200302254467","Contractor","Specialty Electrical Contractors Inc","2380","35th Ave",,"CA","94116-0000","4154682575","4158678629","676590"
"E200301022391","Contractor","Ruby Plumbing & Electrical","1234","Geneva","Av","CA","94112-0000","4153379133","4153379133","748426"
"E200302244404","Contractor","A L V Construction Inc","526","Vera","Av","CA","94061-0000","6502988820","6506700804","779131"
"E200302244413","Contractor","A M Rocca Inc.","4722","Mission","St","CA","94112-0000","4152390484","4154254789","757461"
"E200302254434","Contractor","B B J   Electric, Inc","1661","Innes","Av","CA","94124-0000","4155991499","4157402854","670906"
"E200302254437","Contractor","P & L Electric Co","816","Ellis","Dr","CA","94015","6509973292",,"424079"
"E200302254440","Contractor","Kerr Electric Service","157","Elsbree Circle",,"CA","95492-0000","7078383152","7079758747","532205"
"E200302254446","Contractor","American Building Cont.","2367","47th","Av","CA","94116","4152544717",,"567562"
"E200302254449","Contractor","Kevin Dorgan Electrical","701","Athens","St","CA","94112-0000","4153125051","4153125051","711943"
"E200302254455","Contractor","Cupertino Electric Inc.","1740","Cesar Chavez","St","CA","94124-0000","4158508145","4158508145","174637"
"E200302254458","Contractor","Ferrera Electric Inc.","108","Wayland","St","CA","94134","4154682248","4158602248","355775"
"E200302254461","Contractor","Rainbow Choy Hung & Co","2674","22nd","Av","CA","94116","4155646147","4153095088","380786"
"E200306028632","Contractor","Rainbow Choy Hung & Co","2674","22nd","Av","CA","94116","4155646147","4153095088","380786"
"E200302254473","Contractor","Redwood Electric Group Inc","2775","Northwestern Pkwy",,"CA","95051-0000","4084504800","4084504847","318433"
"E200302264485","Contractor","C B F Inc","675","Davis","St","CA","94111-1403","4154953085","4153857390","335873"
"E200302264506","Contractor","The Electrician","39","Guerrero","St","CA","94103","4152528574","4155738582","394787"
"E200302264515","Contractor","Mal Rogers Electric","201","Laidley","St","CA","94131-0000","4156471817","4155192780","701032"
"E200302264521","Contractor","Metropolitan Electrical Construction","2400","03rd","St","CA","94107","4156423020","4156423000","401047"
"E200302264524","Contractor","Metropolitan Electrical Construction","2400","03rd","St","CA","94107","4156423020","4156423000","401047"
"E200302264530","Contractor","Metropolitan Electrical Construction","2400","03rd","St","CA","94107","4156423020","4156423000","401047"
"E200302264533","Contractor","Metropolitan Electrical Construction","2400","03rd","St","CA","94107","4156423020","4156423000","401047"
"E200302264527","Contractor","Benchmark Construction","60","Hauen","Dr","CA","94014-0000","6509973745","6508260278","724516"
"E200302264542","Contractor","Howard Wong Electric","1423","Clement","St","CA","94118-0000","6509927888","4152159028","678608"
"E200306028629","Contractor","R N R Electric Inc.","814","E 16th","Av","CA","94402-0000","6505778605","6507593662","837858"
"E200306028631","Contractor","R N R Electric Inc.","814","E 16th","Av","CA","94402-0000","6505778605","6507593662","837858"
"E200306028628","Contractor","On-Site Maintenance",,"P.o.box 11506",,"CA","94912-0000","4159789600","4155162840","752883"
"E200306028645","Contractor","The Electrician","39","Guerrero","St","CA","94103","4152528574","4155738582","394787"
"E200306038647","Contractor","Delao Electric Co","617","Moraga","St","CA","94122-0000","4156817011","4157476900","766407"
"E200306038648","Contractor","Delao Electric Co","617","Moraga","St","CA","94122-0000","4156817011","4157476900","766407"
"E200306038649","Contractor","Delao Electric Co","617","Moraga","St","CA","94122-0000","4156817011","4157476900","766407"
"E200306038650","Contractor","Knoll Systems Corporation","5375","Clayton","Rd","CA","94521-0000","9256810477",,"784349"
"E200306038651","Contractor","Delao Electric Co","617","Moraga","St","CA","94122-0000","4156817011","4157476900","766407"
"E200306038652","Contractor","Xiao Ming Chen Dba Mh Electric","781","14th","Av","CA","94118-0000","4155677899","4153097899","768203"
"E200306038654","Contractor","Le Shan Luo Electric","143","Madison","St","CA","94134-0000","4157881088","4159908113","623557"
"E200306038661","Contractor","Metropolitan Electrical Construction","2400","03rd","St","CA","94107","4156423020","4156423000","401047"
"E200306038662","Contractor","C E S Electrical Inc","145","Park","Ln","CA","94005-0000","4154684002",,"816161"
"E200306038663","Contractor","Metropolitan Electrical Construction","2400","03rd","St","CA","94107","4156423020","4156423000","401047"
"E200306038664","Contractor","Metropolitan Electrical Construction","2400","03rd","St","CA","94107","4156423020","4156423000","401047"
"E200306038665","Contractor","C E S Electrical Inc","145","Park","Ln","CA","94005-0000","4154684002",,"816161"
"E200306038668","Contractor","C E S Electrical Inc","145","Park","Ln","CA","94005-0000","4154684002",,"816161"
"E200306038670","Contractor","C E S Electrical Inc","145","Park","Ln","CA","94005-0000","4154684002",,"816161"
"E200306038671","Contractor","Wu's Electric Company","1242","Athens","St","CA","94112-0000","4153341798","4155163961","744549"
"E200305198054","Contractor","E N Electric","1683","44th","Av","CA","94122","4156827682","4158508252","687088"
"E200305198057","Contractor","Luis Rafael Silva-Santisteban","1737","Shirley","Dr","CA","94523-0000","9253818696","9257050856","770370"
"E200305198064","Contractor","Bar Contractors Inc","125","S Linden","Av","CA","94080-0000","6509523074","4158505235","786504"
"E200305198067","Contractor","San Francisco Fire Protection","1355","Fairfax","Av","CA","94124-0000","4152824288","4152824288","806216"
"E200305198068","Contractor","San Francisco Fire Protection","1355","Fairfax","Av","CA","94124-0000","4152824288","4152824288","806216"
"E200305208102","Contractor","Automatic Garage Door","2285","Revere","Av","CA","94124-0000","4156486413","4152980444","671116"
"E200305208104","Contractor","O'flynn Electric","76","Collins","St","CA","94118-0000","4156476171","4155314447","710791"
"E200305208108","Contractor","Noe Valley Power & Light",,"P. O. Box 31262",,"CA","94131-0262","4152857216","4158108288","309859"
"E200305208120","Contractor","Creative Office Systems Inc",,"P.o. Box 6408",,"CA","94524-0000","9256866355","9257883994","809945"
"E200305208122","Contractor","Lea Electric","1423","32nd","Av","CA","94122","4157591628","4152980088","299971"
"E200305208123","Contractor","Lea Electric","1423","32nd","Av","CA","94122","4157591628","4152980088","299971"
"E200305208125","Contractor","Holec Electric","1323","16th","Av","CA","94122","4155661545","4152358723","304999"
"E200305208126","Contractor","Lea Electric","1423","32nd","Av","CA","94122","4157591628","4152980088","299971"
"E200305208127","Contractor","Lea Electric","1423","32nd","Av","CA","94122","4157591628","4152980088","299971"
"E200301032403","Contractor","Wells Electrical, Inc","2177","Jerrold Avenue Building 2",,"CA","94124-0000","4152557831","4158198341","681529"
"E200301032415","Contractor","Metropolitan Electrical Construction","2400","03rd","St","CA","94107","4156423020","4156423000","401047"
"E200301032418","Contractor","Metropolitan Electrical Construction","2400","03rd","St","CA","94107","4156423020","4156423000","401047"
"E200301032421","Contractor","Metropolitan Electrical Construction","2400","03rd","St","CA","94107","4156423020","4156423000","401047"
"E200301032424","Contractor","Metropolitan Electrical Construction","2400","03rd","St","CA","94107","4156423020","4156423000","401047"
"E200301032427","Contractor","Metropolitan Electrical Construction","2400","03rd","St","CA","94107","4156423020","4156423000","401047"
"E200301062451","Contractor","Tri Valley Door Systems Inc","1912","02nd St",,"CA","94550-0000","9253710496",,"733575"
"E200301062454","Contractor","Tri Valley Door Systems Inc","1912","02nd St",,"CA","94550-0000","9253710496",,"733575"
"E200301062457","Contractor","Bay City Garage Doors","26","Escanyo","Dr","CA","94080","6509527879","6508682158","260972"
"E200301062463","Contractor","Firelectric","723","Camino","Pl","CA","94066-0000","6503248587","4159718528","680163"
"E200301062475","Contractor","Sai Ping Cheung","331","Austin","St","CA","94109-0000",,,"811739"
"E200301062487","Contractor","Ferrera Electric Inc.","108","Wayland","St","CA","94134","4154682248","4158602248","355775"
"E200301062502","Contractor","Ruby Plumbing & Electrical","1234","Geneva","Av","CA","94112-0000","4153379133","4153379133","748426"
"E200301072529","Contractor","C B F Inc","675","Davis","St","CA","94111-1403","4154953085","4153857390","335873"
"E200301072532","Contractor","C B F Inc","675","Davis","St","CA","94111-1403","4154953085","4153857390","335873"
"E200301072535","Contractor","C B F Inc","675","Davis","St","CA","94111-1403","4154953085","4153857390","335873"
"E200301072541","Contractor","W. Bradley Electric","90","Hill","Rd","CA","94945-0000","4158981400","4157165134","390741"
"E200302264545","Contractor","Howard Wong Electric","1423","Clement","St","CA","94118-0000","6509927888","4152159028","678608"
"E200302264551","Contractor","Seastar Construction Co","225","Jersey","St","CA","94114-0000","4156415222","4155151320","424337"
"E200302264554","Contractor","Toni's  Construction Inc","2425","16th","Av","CA","94116-0000","4156818280","4152790579","551504"
"E200302274569","Contractor","P & L Electric Co","816","Ellis","Dr","CA","94015","6509973292",,"424079"
"E200302274590","Contractor","A/c Construction","647","Santa Barbara","Av","CA","94030-0000","4155174068","4155174068","402322"
"E200302274611","Contractor","Tam's Electric Inc","558","Goettingen","St","CA","94134-0000","4158504939","4158504939","558739"
"E200302284626","Contractor","Wu's Electric Company","1242","Athens","St","CA","94112-0000","4153341798","4155163961","744549"
"E200302284638","Contractor","Wells Electrical, Inc","2177","Jerrold Avenue Building 2",,"CA","94124-0000","4152557831","4158198341","681529"
"E200302284641","Contractor","Bathe Builders","415","Buena Vista Dr",,"CA","95404-0000","7075463510","5416023510","645741"
"E200302284653","Contractor","Cupertino Electric Inc.","1740","Cesar Chavez","St","CA","94124-0000","4158508145","4158508145","174637"
"E200302284656","Contractor","Aaron Electric Co.","4200","Moraga","St","CA","94122-0000","4156641124","4158590948","425741"
"E200302284662","Contractor","Bay City Garage Doors","26","Escanyo","Dr","CA","94080","6509527879","6508682158","260972"
"E200302284668","Contractor","City Overhead Doors Inc.","5976","Mission","St","CA","94112","6507564226",,"292393"
"E200306028585","Contractor","Celtic Electric","318","Channing","Rd","CA","94010-4748","4157244545","4157244545","499258"
"E200306028586","Contractor","Mark Olson Electric","1385","Donner","Av","CA","94124","4158223508","4155594094","284499"
"E200306028590","Contractor","Mark Olson Electric","1385","Donner","Av","CA","94124","4158223508","4155594094","284499"
"E200306028593","Contractor","Sure, Inc.","1728","Ocean","Av","CA","94112-0000","4152212888","4152987298","561658"
"E200306028603","Contractor","Millennium Electric Inc","62","Westlawn Avenue",,"CA","94015-0000","6507557264","4157609699","776534"
"E200306028604","Contractor","Millennium Electric Inc","62","Westlawn Avenue",,"CA","94015-0000","6507557264","4157609699","776534"
"E200306028605","Contractor","Millennium Electric Inc","62","Westlawn Avenue",,"CA","94015-0000","6507557264","4157609699","776534"
"E200306028616","Contractor","A-1 Steam & Fire Protection","746","Spruce","St","CA","94118-0000","4156660222","4157564126","425691"
"E200306028617","Contractor","Basso Electric Company","233","02nd","Av","CA","94014-0000","4157248444","4157248444","793792"
"E200306028619","Contractor","Melco Electric","3125","Bridle","Dr","CA","94541-0000","5107800908","4155720516","586471"
"E200306028627","Contractor","Wisdom Electrical & Bldg Contractors","310","6th","Av","CA","94118","4158102808","4158102808","673552"
"E20021104249","Others","Golden Gate Sign Company Inc.","2500","Bisso Lane",,"CA","94520-0000","9255325394","9255325394","665363"
"E200301072550","Contractor","Cupertino Electric Inc.","1740","Cesar Chavez","St","CA","94124-0000","4158508145","4158508145","174637"
"E200301072553","Contractor","Cupertino Electric Inc.","1740","Cesar Chavez","St","CA","94124-0000","4158508145","4158508145","174637"
"E200301072556","Contractor","Metropolitan Electrical Construction","2400","03rd","St","CA","94107","4156423020","4156423000","401047"
"E200301072571","Contractor","Brookline Aries Electric","121","Santa Rosa","Av","CA","94112","4152395393","4152395393","273651"
"E200301082577","Contractor","City Overhead Doors Inc.","5976","Mission","St","CA","94112","6507564226",,"292393"
"E200301082583","Contractor","S L Electric  Inc.","2655","34th","Av","CA","94116-0000","4155868988","4155868988","823707"
"E200301082586","Contractor","Al-Tone Overhead Doors","540","Del Monte Ave","Av","CA","94080","6507553454","4158500329","716940"
"E200301092640","Contractor","City Overhead Doors Inc.","5976","Mission","St","CA","94112","6507564226",,"292393"
"E200301092658","Contractor","Ferrera Electric Inc.","108","Wayland","St","CA","94134","4154682248","4158602248","355775"
"E200301092667","Contractor","Higgins Electric","1471","Valley View","Dr","CA","95993-0000","9099414090","9092105143","811776"
"E200301092670","Contractor","Automatic Garage Door","2285","Revere","Av","CA","94124-0000","4156486413","4152980444","671116"
"E200301102679","Contractor","Woo Electric","309","Cornwall","St","CA","94118","4157511523","4152902385","255051"
"E200306028635","Contractor","G C Electric","161","Cora","St","CA","94134-0000","4158288259","4155318228","636918"
"E200301022358","Contractor","G C Electric","161","Cora","St","CA","94134-0000","4158288259","4155318228","636918"
"E200306028633","Contractor","G C Electric","161","Cora","St","CA","94134-0000","4158288259","4155318228","636918"
"E200306028634","Contractor","G C Electric","161","Cora","St","CA","94134-0000","4158288259","4155318228","636918"
"E200301062460","Contractor","San Francisco Electric Co","1222","20th","St","CA","94107","4156486228","4153091779","636319"
"E200302284623","Contractor","San Francisco Electric Co","1222","20th","St","CA","94107","4156486228","4153091779","636319"
"E200212272283","Contractor","Yeung's Electrical Fittings & Installati","3255","Liese","Av","CA","94619-0000","4156529064",,"651355"
"E200212312337","Contractor","A S F Electric Inc","76","Hill","St","CA","94014","6507559032","6507559032","720540"
"E200301092622","Contractor","A S F Electric Inc","76","Hill","St","CA","94014","6507559032","6507559032","720540"
"E200212312340","Contractor","Unlimited Security Systems","1518","Jackson","St","CA","94109","4158852126","4157609641","541718"
"E200212302289","Contractor","Shea Electric","2547","14th","Av","CA","94127-0000","4157519965","4153058236","510337"
"E200301022394","Contractor","Lori Katz Group Inc.","375","Alabama St, Ste 222",,"CA","94110-0000","4152521037","4157402831","522108"
"E200302284644","Contractor","Lori Katz Group Inc.","375","Alabama St, Ste 222",,"CA","94110-0000","4152521037","4157402831","522108"
"E200301022397","Contractor","K C Chow Electric Co","54","Zita Manor",,"CA","94015-0000","6509912698","4152053238","553062"
"E200302274572","Contractor","K C Chow Electric Co","54","Zita Manor",,"CA","94015-0000","6509912698","4152053238","553062"
"E200302254452","Contractor","Longo Electric Inc","364","Blodgett","St","CA","94931-0000","4154312156","4157402204","525176"
"E200306028644","Contractor","L W T Contruction Co","308","Munich","St","CA","94112-0000","4152390682","4158280313","525528"
"E200301072544","Contractor","Longo Electric Inc","364","Blodgett","St","CA","94931-0000","4154312156","4157402204","525176"
"E200212302298","Contractor","Armstrong Electric","1209","09 Th","St","CA","94501-0000","5108656884",,"486601"
"E200212312346","Contractor","Hong Shink Construction","1230","Vista Grande",,"CA","94030-0000","4158674989","4158674989","758888"
"E200212312352","Contractor","S F Garage Company Inc.","12","Gough","St","CA","94103-0000","4158260606","4156020077","684863"
"E200301022382","Contractor","Regional Construction Co","2500","47th","Av","CA","94116-0000","4157069977","4157069977","748000"
"E200302244407","Contractor","R Electric","394","Bancroft","Wy","CA","94044-0000","6503559352","4153105559","753925"
"E200301072523","Contractor","S R L Electric","2443","Fillmore","St","CA","94115-0000","4156619387","4157563594","754626"
"E200302244410","Contractor","The Electric Frog","119","City View","St","CA","94014-0000","4157605086","4157605086","764017"
"E200212312331","Contractor","Moreno Electric Co.","650","Broadmoor","Bl","CA","94577-0000","5105530394","5107504924","783307"
"E200302244416","Contractor","Elite Builders","1385","Hampton Drive",,"CA","94087","6505788090","6502457311","634608"
"E200302264500","Contractor","Stephenson-Richman Elect","225","Escallonia","Dr","CA","94945-1812","4158927799","4155594705","649055"
"E200302284665","Contractor","James F Wittenbrook","65","Pierce","St","CA","94117","4155969337","4155969337","647509"
"E200711083065","Contractor","Steven's Electric","1823","31st","Av","CA","94122-0000","4155661838","4156401838","647875"
"E200301092664","Contractor","Steven's Electric","1823","31st","Av","CA","94122-0000","4155661838","4156401838","647875"
"E200302264512","Contractor","John Cahalane Electric","142","Joost","Av","CA","94131-0000","4153342188","4152712562","640863"
"E200301022376","Contractor","Quality Electric","766","Delano","Av","CA","94112","4153347909","4153079886","476592"
"E200301082613","Contractor","Peter Wong Electrical","154","Brussels","St","CA","94134","4155193210","4155193210","476599"
"E200302264518","Contractor","Grgich Electric Co","1690","Hayes","St","CA","94117","4154416767","4157301930","414160"
"E200301032442","Contractor","Jimmy's Electric","2276","18th","Av","CA","94116-0000","4155661888","4157608238","411108"
"E200301032445","Contractor","Jimmy's Electric","2276","18th","Av","CA","94116-0000","4155661888","4157608238","411108"
"E200306028599","Contractor","Tower Electric Company",,"Po Box 410394",,"CA","94141","4152390222",,"414608"
"E200306028600","Contractor","Tower Electric Company",,"Po Box 410394",,"CA","94141","4152390222",,"414608"
"E200301022385","Contractor","Allcom Electric Inc.","80","Whitney","Pl","CA","94539","5106567099","5105524600","493651"
"E200306028630","Contractor","Allcom Electric Inc.","80","Whitney","Pl","CA","94539","5106567099","5105524600","493651"
"E200302264494","Contractor","Bernabe Costales Electric",,"523 Pacific Ave",,"CA","94501","5105234807",,"602643"
"E200302264509","Contractor","Moran Lighting & Electric","1139","Cole","St","CA","94117","4157318652","4158718373","563134"
"E200305208110","Contractor","Golden Gate Eletric Co","35691","Palomares","Rd","CA","94546","5108811300","5107740208","565292"
"E200305208128","Contractor","Tyco Integrated Security","150","North Hill","Dr","CA","94005-0000","6504495536","6504495536","707408"
"E200305208130","Contractor","Tyco Integrated Security","150","North Hill","Dr","CA","94005-0000","6504495536","6504495536","707408"
"E200306028636","Contractor","Donald Lewis Gen. Contr.inc.","17","Edge Wood","Wy","CA","94901-0000","4157132298","4157132298","742228"
"E200305208109","Contractor","Automatic  Garage Door Of Marin","285","Belmarin Keys","Bl","CA","94949-0000","4158830725",,"550241"
"E200306028638","Contractor","E A Electric","351","Olema Road",,"CA","94930-0000","4152337370","4152337370","593027"
"E200302274587","Contractor","Marble Electric","352","Coleridge","St","CA","94110","4158213204","4154128151","591393"
"E200306028640","Contractor","Shek Chung Ma","800","31st","Av","CA","94112-3609","4153873769","4157109835","415716"
"E200306028642","Contractor","Shek Chung Ma","800","31st","Av","CA","94112-3609","4153873769","4157109835","415716"
"E200306028643","Contractor","Shek Chung Ma","800","31st","Av","CA","94112-3609","4153873769","4157109835","415716"
"E200306038655","Contractor","L Loucel Construction","2907","Harrison","St","CA","94110-0000","4156489554",,"658898"
"E200306038656","Contractor","L Loucel Construction","2907","Harrison","St","CA","94110-0000","4156489554",,"658898"
"E200305198055","Contractor","Dm Tower Electric","1751","Monrovia","Dr","CA","95122-0000","4085280404","4082108619","607013"
"E200306038657","Contractor","Chan Electric Work","216","Thrift","St","CA","94112-0000","4155860524","4156378044","598804"
"E200305208129","Contractor","Chan Electric Work","216","Thrift","St","CA","94112-0000","4155860524","4156378044","598804"
"E200306038659","Contractor","Tresch Electric Co., Inc.",,"Po Box 71",,"CA","94945-0000","4158972125","4158502357","222645"
"E200306038660","Contractor","Tresch Electric Co., Inc.",,"Po Box 71",,"CA","94945-0000","4158972125","4158502357","222645"
"E200302284635","Contractor","Raymond Choy","170","23rd Avenue",,"CA","94121","4153875148",,"252399"
"E200306038669","Contractor","D C S  Construction Services Inc","160","Pixley","St","CA","94123","4159319365","4159877572","427457"
"E200305198056","Contractor","Rite Electric","1044","Revere Av Ste C-88","Av","CA","94124-0000","4158220116","4154249168","765162"
"E200301032430","Contractor","Rite Electric","1044","Revere Av Ste C-88","Av","CA","94124-0000","4158220116","4154249168","765162"
"E200301062466","Contractor","Jr Electrical Inc","1761","Grove","St","CA","94117-0000","4154070080","4154070080","766035"
"E200301062481","Contractor","Bass Electric","390","Swift","Av","CA","94080-0000","4152951600","4157472409","765671"
"E200302274584","Contractor","Rite Electric","1044","Revere Av Ste C-88","Av","CA","94124-0000","4158220116","4154249168","765162"
"E200305198059","Contractor","J Y Electrical Construction Co Inc",,"P O Box 34338",,"CA","94134-0000","4155591567","4155591567","777162"
"E200305198061","Contractor","J Y Electrical Construction Co Inc",,"P O Box 34338",,"CA","94134-0000","4155591567","4155591567","777162"
"E200305198062","Contractor","J Y Electrical Construction Co Inc",,"P O Box 34338",,"CA","94134-0000","4155591567","4155591567","777162"
"E200305198063","Contractor","J Y Electrical Construction Co Inc",,"P O Box 34338",,"CA","94134-0000","4155591567","4155591567","777162"
"E200609061041","Contractor","Coast Sign Incorporated","1500","W. Embassy","St","CA","92802-0000",,,"654238"
"E200301082601","Contractor","J Y Electrical Construction Co Inc",,"P O Box 34338",,"CA","94134-0000","4155591567","4155591567","777162"
"E200305198060","Contractor","Amherst Associates Const","68","Dorado","Tr","CA","94112-0000","4152718828","4152718828","811425"
"E200305208103","Contractor","Ballycastle Construction","924","Fulton St, #105",,"CA","94117-0000","4154406968","4158231680","815277"
"E200305198065","Contractor","Hoehn Construction",,"P O Box 741",,"CA","95052-0000","4089799468","4088815104","771560"
"E200305198066","Contractor","Hoehn Construction",,"P O Box 741",,"CA","95052-0000","4089799468","4088815104","771560"
"E200305208107","Contractor","Northgate Garage Doors","125","Mitchell Blvd.",,"CA","94903","4154726004","4157060131","627224"
"E200305208111","Contractor","All Trades Contracting","1415","44th","Av","CA","94122-0000","4158603956","4158603956","721644"
"E200302274596","Contractor","Fluoresco Lighting & Sign","5505","South Nogales Highway",,"AZ","85706-0000","5106334153",,"738628"
"E200305208112","Contractor","Marc Loran","1655","12th","Av","CA","94122","4155950427","4155950427","445446"
"E200305208113","Contractor","Ann Enea","362","Lexington","St","CA","94110","4156419247","4153776129","707918"
"E200305208114","Contractor","Korbes Electric","3920","Casanova","Dr","CA","94403","6503452241","6502811038","388678"
"E200301072511","Contractor","Korbes Electric","3920","Casanova","Dr","CA","94403","6503452241","6502811038","388678"
"E200305208117","Contractor","Don's Electric Works","2511","West Winton Avenue #3g",,"CA","94545-0000","4155172843","4155172843","780035"
"E200305208118","Contractor","L & L Electric","56","Flora","St","CA","94124","4158225970","4152355670","706156"
"E200305208119","Contractor","Peterson Power Systems Inc.","2828","Teagarden","St","CA","94577","5108958400","5107156979","507000"
"E200302274593","Contractor","Inter Technomics Inc",,"1635 Neptune Dr",,"CA","94577-0000","5104891820","5107609340","506788"
"E200305208121","Contractor","K W Electrical Co","2006","34th","Av","CA","94116","4159991175","4159991175","805808"
"E200306028625","Contractor","Polytec Construction Co.*** See Notes*","656","Toland","Pl","CA","94124-0000","4156827782","4152150784","406739"
"E200306028626","Contractor","Polytec Construction Co.*** See Notes*","656","Toland","Pl","CA","94124-0000","4156827782","4152150784","406739"
"E200305208124","Contractor","Dynalectric Company","375","Alabama Street Suite 300","St","CA","94110-0000","4154874700","4154874756","749757"
"E20021104246","Contractor","Dynalectric Company","375","Alabama Street Suite 300","St","CA","94110-0000","4154874700","4154874756","749757"
"E200301032400","Contractor","M Karkori Construction Co","2780","Diamond","St","CA","94131-0000",,"4152796410","662832"
"E200306028607","Contractor","Ideal Electric","1079","Springfield","Dr","CA","94030-0000","6506921427","4153415518","949850"
"E200301032406","Contractor","Lei's Construction Co","616","Rolph","St","CA","94112","4155318611","4155859817","593386"
"E200301032409","Contractor","No Shorts Electric","16","Kit Carson","Wy","CA","94590","7075542060","7073320658","687511"
"E200301032412","Contractor","King E Construction Company",,"62 Majestic","Av","CA","94112-0000","4153337829","4158064767","798007"
"E200301032433","Contractor","Wong's Electric Co *Check Id*","2902","Jennings","St","CA","94124","4158228618","4156139798","581997"
"E200302284620","Contractor","Wong's Electric Co *Check Id*","2902","Jennings","St","CA","94124","4158228618","4156139798","581997"
"E200306028601","Contractor","Wong's Electric Co *Check Id*","2902","Jennings","St","CA","94124","4158228618","4156139798","581997"
"E200301032436","Contractor","C & C General Engineering Inc.","833","Chadbourne","Av","CA","94030-0000","4155526240","4153179398","784535"
"E200301032439","Contractor","Vincent Construction","2022","48th","Av","CA","94116-0000","4157531266","4152978001","786533"
"E200301062469","Contractor","Pacific Coast Sales & Service Inc","310","Soquel","Wy","CA","94086-4101","4088579153","4088579153","507151"
"E200301062472","Contractor","T & T Electric Corp","2526","32rd","Av","CA","94116-0000","4156654098","4157134273","789346"
"E200306028608","Contractor","Lighthouse Electric","6","Central","Dr","CA","94941-0000","4154424442","4157106490","797815"
"E200301062478","Contractor","Geniali Construction Co","100","North Hill","Dr","CA","94005-0000","4154681515","4155191908","772297"
"E200301062484","Contractor","Wen Ben Wang","2130","25th","Av","CA","94116-0000","4156829072","4156995492","770474"
"E200301092631","Contractor","Yuco Electrical","5370","Olive","Dr","CA","94521-0000",,"4157061843","756720"
"E200301062490","Contractor","Paganini Electric Corp(see Signatories)","190","Hubbell","St","CA","94107","4155753900",,"309677"
"E200301062493","Contractor","Paganini Electric Corp(see Signatories)","190","Hubbell","St","CA","94107","4155753900",,"309677"
"E200301062496","Contractor","Paganini Electric Corp(see Signatories)","190","Hubbell","St","CA","94107","4155753900",,"309677"
"E200302264548","Contractor","Paganini Electric Corp(see Signatories)","190","Hubbell","St","CA","94107","4155753900",,"309677"
"E200301082607","Contractor","Paganini Electric Corp(see Signatories)","190","Hubbell","St","CA","94107","4155753900",,"309677"
"E200301062499","Contractor","John Buckley Electric","48","Fleetwood Dr",,"CA","94015-0000","6509928438","4152986704","564980"
"E200301072508","Contractor","Castellino Electric","448","Elm","Av","CA","94066","6508737445","4157227296","566204"
"E200301102673","Contractor","Americal-Pacific Structures","3145","Geary","Bl","CA","94118","4156522753","4156684500","568340"
"E200301072514","Contractor","Vertrans","5045","Fulton","Dr","CA","94585-0000","7078642005",,"443286"
"E200301072517","Contractor","Sierra Electric Co","3112","Geary","Bl","CA","94118","4157522850",,"184594"
"E200301072520","Contractor","Sierra Electric Co","3112","Geary","Bl","CA","94118","4157522850",,"184594"
"E200301072526","Contractor","Strom Electric, Inc",,"P.o. Box  642",,"CA","94979-0000","4156691900",,"480976"
"E200301072538","Contractor","Michael Mccarthy Elec/ Dba:dmacs Electr","25","Noe","St","CA","94114-0000","4152217311","4155966415","740455"
"E200302284647","Contractor","Michael Mccarthy Elec/ Dba:dmacs Electr","25","Noe","St","CA","94114-0000","4152217311","4155966415","740455"
"E200302264557","Contractor","Lai's E & H Electric Inc.","1766","40th","Av","CA","94122","4157596878","4158507722","659426"
"E200302264560","Contractor","Lai's E & H Electric Inc.","1766","40th","Av","CA","94122","4157596878","4158507722","659426"
"E200301072568","Contractor","Ze Sheng Liao","2930","Lawton St",,"CA","94122-0000","4158675528",,"656774"
"E200302274563","Contractor","Phillip James","231","Staples","Av","CA","94122-0000","4153748983","4157932544","778285"
"E200302274566","Contractor","Tri Power Group","85","Nicholson","Ln","CA","95134-0000","9255838214","4086391675","779172"
"E200302274578","Contractor","Young Electric Co","195","Erie","St","CA","94103-0000","4156483355","4152308622","390749"
"E200301082598","Contractor","Young Electric Co","195","Erie","St","CA","94103-0000","4156483355","4152308622","390749"
"E200302274581","Contractor","Earth Star Electric","170","Malet","St","CA","95476-0000","7079331510","5107011618","810369"
"E200302274599","Contractor","Crown Electric Inc","85","Columbia","Sq","CA","94103","4156217756","4155597432","109815"
"E200306028582","Contractor","Decker Electric Co Inc","350","Sansome","St","CA","94104-0000","4155521622","4155138395","003779"
"E200306028584","Contractor","Decker Electric Co Inc","350","Sansome","St","CA","94104-0000","4155521622","4155138395","003779"
"E200306028587","Contractor","Decker Electric Co Inc","350","Sansome","St","CA","94104-0000","4155521622","4155138395","003779"
"E200306028589","Contractor","Decker Electric Co Inc","350","Sansome","St","CA","94104-0000","4155521622","4155138395","003779"
"E200306028591","Contractor","Decker Electric Co Inc","350","Sansome","St","CA","94104-0000","4155521622","4155138395","003779"
"E200306028606","Contractor","Decker Electric Co Inc","350","Sansome","St","CA","94104-0000","4155521622","4155138395","003779"
"E200301072559","Contractor","Decker Electric Co Inc","350","Sansome","St","CA","94104-0000","4155521622","4155138395","003779"
"E200301072562","Contractor","Decker Electric Co Inc","350","Sansome","St","CA","94104-0000","4155521622","4155138395","003779"
"E200301082589","Contractor","Decker Electric Co Inc","350","Sansome","St","CA","94104-0000","4155521622","4155138395","003779"
"E200302274602","Contractor","Bay Alarm Company","60","Berry","Dr","CA","94553-0000","9258084336","9255955300","261003"
"E200302274605","Contractor","D A M Construction(* Always *Ask For Id)","450","Taraval","St","CA","94116","4155862422","4157203119","717976"
"E200302274608","Contractor","Intellisec","10950","Bigge","St","CA","94577-0000","5106385000","5107731440","730926"
"E200302284617","Contractor","Bajada Electric Inc",,"Po Box 5729",,"CA","94083","6509973032","4157600059","409957"
"E200302284629","Contractor","David Muniz Electrician ( See Notes )","3835","19th","St","CA","94114","4155589058","4153707944","659510"
"E200302284632","Contractor","David Muniz Electrician ( See Notes )","3835","19th","St","CA","94114","4155589058","4153707944","659510"
"E200302284659","Contractor","Tk Construction & Active Sign Inc.","195","Tamal Vista","Bl","CA","94925-0000","4082976640","4085923721","622021"
"E200306028583","Contractor","Techno Electric Corp.","1221","York","St","CA","94110-0000","4158241894","4157253495","768497"
"E200306028588","Contractor","Siu Yee Keung","707","4th","Av","CA","94118","4153872532","4158234477","280268"
"E200306028592","Contractor","Siu Yee Keung","707","4th","Av","CA","94118","4153872532","4158234477","280268"
"E200306028594","Contractor","Siu Yee Keung","707","4th","Av","CA","94118","4153872532","4158234477","280268"
"E200306028595","Contractor","Urey-W-Electrical Co Inc * See Note ***","1336","P.o. Box",,"CA","94030-0000","4158790188","4158790188","643000"
"E200306028597","Contractor","Urey-W-Electrical Co Inc * See Note ***","1336","P.o. Box",,"CA","94030-0000","4158790188","4158790188","643000"
"E200306028596","Contractor","Davis Electric","5921","Landis","Av","CA","95608-0000","9164891643","9165418129","759196"
"E200306028602","Contractor","Starlite Electric  Inc.",,"Po Box 882283",,"CA","94188-0000","4156488888","4156022058","716595"
"E200306028609","Contractor","Ron Allen General Contractors","112","Skylonda","Dr","CA","94062-0000",,,"695376"
"E200306028610","Contractor","Call Us Now (Prime Electric)",,"P.o.box 1466",,"CA","94070-0000","6505921235","6504301703","759893"
"E200301092634","Contractor","Todd Hill Construction","998","Carrillo","Wy","CA","94578-0000","5104833526",,"659929"
"E200306028611","Contractor","Bay Area Electrical Maintenance","333","A Est Leland","Rd","CA","94565-0000",,,"808613"
"E200306028612","Contractor","Pmn Design Elect Inc Dba Design Elc","39","Wyoming","St","CA","94566","9258460650","9255197811","348215"
"E200306028613","Contractor","O'connor & Sons Electric","849","Clara","Dr","CA","94303-0000","6507401121","6508139159","513626"
"E200306028614","Contractor","O'connor & Sons Electric","849","Clara","Dr","CA","94303-0000","6507401121","6508139159","513626"
"E200306028615","Contractor","Ace Automatic Garage Door","2250","Jerrold","St","CA","94124-0000","4158267686","4157470024","494000"
"E200301082574","Contractor","Mal Waters Electrical",,"P. O. Box 1341",,"CA","94044","6503593860","4152255756","495619"
"E200306028618","Contractor","Rinaldi Construction","223","14th","Av","CA","94118-0000","4154249085","4154249085","497873"
"E200306028620","Contractor","A R General Contractor","2320","Vicente","St","CA","94116-0000",,,"817766"
"E200306028623","Contractor","D B Electric","580","Crespi","Dr","CA","94044-0000","4153518846","4153518846","783950"
"E200306028624","Contractor","D B Electric","580","Crespi","Dr","CA","94044-0000","4153518846","4153518846","783950"
"E20021104252","Contractor","Thomas A Lucchesi Electric","1542","48th","Av","CA","94122-0000","4156829853","4155098550","608575"
"E20021104255","Contractor","Dannels Electric Inc","823","Greenwood","Av","CA","94401","6503750797","6504004378","480106"
"E20021104258","Contractor","Ming Wah Construction Co.","2431","Balboa","St","CA","94121","4153868921",,"480431"
"E200301072565","Contractor","Michael Wines Construction","3233","Rio Lindo","Av","CA","95448-0000","4157756699","7078531021","540219"
"E200301082580","Contractor","Niland Builders","1122","Clovelly","Ln","CA","94010-0000","6506921786","6507032668","761312"
"E200301082592","Contractor","Thunder Electric Inc.","584","Castro","St","CA","94114-0000","4152559473","4152559553","613915"
"E200301082595","Contractor","Leo's Electric Company","281","Oxford","St","CA","94134-0000","4155873669","4158288225","510550"
"E200301082604","Contractor","Kacey Construction","422","Madrid","St","CA","94112","4153371082","4159900309","615317"
"E200301082610","Contractor","Current Solutions Elect","182","Holladay","Av","CA","94110-0000","4152857800","4157306810","735959"
"E200301102676","Contractor","Spaulding & Spaulding Inc",,"639 Bair Island Road  #1",,"CA","94063","6503692066","6507661009","657167"
"E200301082616","Contractor","Adam Electric","75","Clearview","Dr","CA","94015-0000","4152447474","6509914499","549940"
"E200301082619","Contractor","Ben Franklin Electric","2337","Meadow Ln",,"CA","95667","5306269796","9162049796","664114"
"E200301092625","Contractor","Ace Service","2200","Cesar Chavez #4","St","CA","94010-0000","4156480411","4157202575","513238"
"E200301092628","Contractor","Sasco",,"Pier 28 At Embarcadero 2/f Mailbox #12",,"CA","94105-0000","4082737216","4082063241","583536"
"E200301092637","Contractor","Sasco",,"Pier 28 At Embarcadero 2/f Mailbox #12",,"CA","94105-0000","4082737216","4082063241","583536"
"E200305208106","Contractor","Mars General Electric Inc","1740","19th","Av","CA","94122","4152038230","4152038230","735754"
"E200306028639","Contractor","Wah Wong Construction Co.","622","27th","Av","CA","94121-0000","4158280800",,"705046"
"E200306028641","Contractor","Wah Wong Construction Co.","622","27th","Av","CA","94121-0000","4158280800",,"705046"
"E200306038666","Contractor","Mars General Electric Inc","1740","19th","Av","CA","94122","4152038230","4152038230","735754"
"E200306038667","Contractor","Mars General Electric Inc","1740","19th","Av","CA","94122","4152038230","4152038230","735754"
"E200305208105","Contractor","Mars General Electric Inc","1740","19th","Av","CA","94122","4152038230","4152038230","735754"
"E200301092646","Contractor","Ideal Carpentry** See Contractor's Note*","255","Crestlake","Dr","CA","94132-0000","4155873341","4153075498","631349"
"E200301102682","Contractor","Woo Electric","309","Cornwall","St","CA","94118","4157511523","4152902385","255051"
"E200301102685","Contractor","The Only Electricians On Earth",,"P.o. Box 996",,"CA","95416","4154597322","6502705160","417596"
"E200302284671","Contractor","Ace Automatic Garage Door","2250","Jerrold","St","CA","94124-0000","4158267686","4157470024","494000"
"E200303034677","Contractor","Hutchings Construction Co.","10505","Garcia","Ln","CA","95020-0000","4089666676",,"238658"
"E200303034680","Contractor","Capitol Electric Const","480","9th","St","CA","94103","4158612900","4153415048","391802"
"E200303034683","Contractor","Rite Electric","1044","Revere Av Ste C-88","Av","CA","94124-0000","4158220116","4154249168","765162"
"E200303034686","Contractor","Capitol Electric Const","480","9th","St","CA","94103","4158612900","4153415048","391802"
"E200303034689","Contractor","Capitol Electric Const","480","9th","St","CA","94103","4158612900","4153415048","391802"
"E200303034692","Contractor","G C Electric","161","Cora","St","CA","94134-0000","4158288259","4155318228","636918"
"E200303034707","Contractor","Sierra Electric Co","3112","Geary","Bl","CA","94118","4157522850",,"184594"
"E200303034710","Contractor","Delao Electric Co","617","Moraga","St","CA","94122-0000","4156817011","4157476900","766407"
"E200303034713","Contractor","Jimmy's Electric","2276","18th","Av","CA","94116-0000","4155661888","4157608238","411108"
"E200303034716","Contractor","Rainbow Choy Hung & Co","2674","22nd","Av","CA","94116","4155646147","4153095088","380786"
"E200303034725","Contractor","Yuco Electrical","5370","Olive","Dr","CA","94521-0000",,"4157061843","756720"
"E200303034728","Contractor","K W Electrical Co","2006","34th","Av","CA","94116","4159991175","4159991175","805808"
"E200303034731","Contractor","Sure, Inc.","1728","Ocean","Av","CA","94112-0000","4152212888","4152987298","561658"
"E200303044734","Contractor","Sierra Electric Co","3112","Geary","Bl","CA","94118","4157522850",,"184594"
"E200303044737","Contractor","Peter Dodds Electric Inc.","458","Corbett","Av","CA","94114-0000","4154408500","4158502548","518085"
"E200303044740","Contractor","Veterans Electric","494","29th","Av","CA","94121-0000","4156723176","4156723176","748879"
"E200303044746","Contractor","New City Construction Group Inc","951","Rutland Street",,"CA","94134-0000","4158823939","4158505259","779910"
"E200303044749","Contractor","J. Ho Construction Inc","176","Elder","Av","CA","94030-0000","4158066896","4158066896","680425"
"E200303044758","Contractor","Starlite Electric  Inc.",,"Po Box 882283",,"CA","94188-0000","4156488888","4156022058","716595"
"E200303044761","Contractor","Brookline Aries Electric","121","Santa Rosa","Av","CA","94112","4152395393","4152395393","273651"
"E200303044767","Contractor","Rod Muscio Electrical","901","Palmetto Avenue Suite D",,"CA","94044","6503595360","6502223390","309056"
"E200303044770","Contractor","Mc Millan Electric","1950","Cesar Chavez","St","CA","94124-0000","4158265100","4150000000","268179"
"E200303044773","Contractor","Mc Millan Electric","1950","Cesar Chavez","St","CA","94124-0000","4158265100","4150000000","268179"
"E200303044776","Contractor","Rod Muscio Electrical","901","Palmetto Avenue Suite D",,"CA","94044","6503595360","6502223390","309056"
"E200303044779","Contractor","Artistic Lighting & Electric",,"P.o. Box 5488",,"CA","94948","4153829500","4158505347","380928"
"E200303044782","Contractor","Rod Muscio Electrical","901","Palmetto Avenue Suite D",,"CA","94044","6503595360","6502223390","309056"
"E200303054785","Contractor","Lynch Electric & Sons Inc.","1160","Industrial",,"CA","94070-0000","6505941054","6502222175","741108"
"E200303054788","Contractor","M J B Electric","511","Burlingame","Av","CA","94010-0000","6503750849","6502800314","264901"
"E200303054794","Contractor","City Overhead Doors Inc.","5976","Mission","St","CA","94112","6507564226",,"292393"
"E200303054797","Contractor","Reed Electric Company Inc Dba Century El","221","Oak","St","CA","94102","4158616522","4153366522","300955"
"E200303054800","Contractor","Powell Electric","102","Labrea","Wy","CA","94903","4154797486","4158272202","675140"
"E200303054803","Contractor","Reed Electric Company Inc Dba Century El","221","Oak","St","CA","94102","4158616522","4153366522","300955"
"E200303054806","Contractor","City Overhead Doors Inc.","5976","Mission","St","CA","94112","6507564226",,"292393"
"E200303054809","Contractor","Cupertino Electric Inc.","1740","Cesar Chavez","St","CA","94124-0000","4158508145","4158508145","174637"
"E200303054812","Contractor","Metropolitan Electrical Construction","2400","03rd","St","CA","94107","4156423020","4156423000","401047"
"E200303054818","Contractor","J Y Electrical Construction Co Inc",,"P O Box 34338",,"CA","94134-0000","4155591567","4155591567","777162"
"E200306038672","Contractor","City Overhead Doors Inc.","5976","Mission","St","CA","94112","6507564226",,"292393"
"E200306038673","Contractor","Rick's Electric Co","470","Arch","St","CA","94132","4155876978","4158670602","606748"
"E200306038674","Contractor","H C L Construction Inc.",,"P.o. Box 860",,"CA","94957-0000","4153708373","4158161447","817671"
"E200306038675","Contractor","W. Wong Construction Co. Inc.","205","13th","St","CA","94103-0000","4158610763",,"400494"
"E200306038678","Contractor","Castellino Electric","448","Elm","Av","CA","94066","6508737445","4157227296","566204"
"E200306038679","Contractor","Decker Electric Co Inc","350","Sansome","St","CA","94104-0000","4155521622","4155138395","003779"
"E200306038680","Contractor","Sabah International Incorporated","5925","Stoneridge","Dr","CA","94588","9252497786","9257878190","381218"
"E200306038681","Contractor","Dynalectric Company","375","Alabama Street Suite 300","St","CA","94110-0000","4154874700","4154874756","749757"
"E200306038682","Contractor","T C Electric Inc","130","Ridge","Rd","CA","94930-0000","4154535373","4152540630","617753"
"E200306038683","Contractor","San Francisco Electric Co","1222","20th","St","CA","94107","4156486228","4153091779","636319"
"E200306038684","Contractor","Linebarger Const & Plbg","2464","14th Avenue","*","CA","94116","4157310699","4159390611","333093"
"E200306038686","Contractor","Reed Electric Company Inc Dba Century El","221","Oak","St","CA","94102","4158616522","4153366522","300955"
"E200306038687","Contractor","Reed Electric Company Inc Dba Century El","221","Oak","St","CA","94102","4158616522","4153366522","300955"
"E200306038688","Contractor","Brookline Aries Electric","121","Santa Rosa","Av","CA","94112","4152395393","4152395393","273651"
"E200306038689","Contractor","Brother  Company *** Check I.d. ***","763","Vienna","St","CA","94112-0000","4156527280","4156527280","702388"
"E200306038690","Contractor","Baycor Builders Inc","460","Peachstone","Tr","CA","94903-0000","5432800",,"801500"
"E200306038691","Contractor","Brother  Company *** Check I.d. ***","763","Vienna","St","CA","94112-0000","4156527280","4156527280","702388"
"E200306038692","Contractor","Bass Electric","390","Swift","Av","CA","94080-0000","4152951600","4157472409","765671"
"E200306038695","Contractor","Bass Electric","390","Swift","Av","CA","94080-0000","4152951600","4157472409","765671"
"E200306038696","Contractor","Clipper Construction Inc.","2281","Market","St","CA","94114","4156214733","4157407531","723585"
"E200306038697","Contractor","B K L Construction","38","Sloat","Bl","CA","94132-0000","4156642368","4157305598","757766"
"E200306038698","Contractor","Delta Builders Inc.","1460","Egbert","Av","CA","94124-0000","4152826655","4157169214","791253"
"E200306038699","Contractor","Mc Crane Construction",,"P.o.box 2734",,"CA","94710","5105276312","5109143138","580987"
"E200306048701","Contractor","Flash Electric **Ck Id******","235","Sadowa","St","CA","94112-0000","4155869809","4157251923","750261"
"E200306048702","Contractor","Michael Mccarthy Elec/ Dba:dmacs Electr","25","Noe","St","CA","94114-0000","4152217311","4155966415","740455"
"E200306048703","Contractor","Pagco Construction, Inc.","250","Napoleon","St","CA","94124-2135","4157404012","4157407156","708416"
"E200306048704","Contractor","Michael Mccarthy Elec/ Dba:dmacs Electr","25","Noe","St","CA","94114-0000","4152217311","4155966415","740455"
"E200306048705","Contractor","Pagco Construction, Inc.","250","Napoleon","St","CA","94124-2135","4157404012","4157407156","708416"
"E200306048706","Contractor","Michael Mccarthy Elec/ Dba:dmacs Electr","25","Noe","St","CA","94114-0000","4152217311","4155966415","740455"
"E200306048707","Contractor","Gary Liu Construction (Ask For Id)","947","Madrid","St","CA","94112-0000","4156026602","4156026602","767752"
"E200306048710","Contractor","Loi Electric Company","67","Dorado","Tr","CA","94112","4157601787","4157601787","507233"
"E200306048713","Contractor","Angelo E Granadeno","412","Pope","St","CA","94112-0000","4159879362",,"786096"
"E20021104267","Contractor","Mannon Construction","10880","Ettrick","St","CA","94605-0000","5108787247","4155091983","531142"
"E20021104270","Contractor","Eltech Electric","18","Vista","Ct","CA","94080-0000","6507370369","4157061888","671679"
"E20021104273","Contractor","Mannon Construction","10880","Ettrick","St","CA","94605-0000","5108787247","4155091983","531142"
"E20021104276","Contractor","R & S Erection Of S F Inc","715","Cesar Chavez","St","CA","94124","4159817590",,"411190"
"E20021105297","Contractor","Steinberg Tom Electric Co","14","Water","St","CA","94565","9254582970","9259631727","523878"
"E20021105306","Contractor","Dwan Elevator Company","699","4th","St","CA","94607-0000","4155523074",,"140423"
"E20021105315","Contractor","Sasco",,"Pier 28 At Embarcadero 2/f Mailbox #12",,"CA","94105-0000","4082737216","4082063241","583536"
"E20021105318","Contractor","C B F Inc","675","Davis","St","CA","94111-1403","4154953085","4153857390","335873"
"E20021105321","Contractor","Electrical Services Co",,"9835 Kitty Lane",,"CA","94603","5104300399",,"410561"
"E20021105324","Contractor","Rite Electric","1044","Revere Av Ste C-88","Av","CA","94124-0000","4158220116","4154249168","765162"
"E20021105330","Contractor","Cupertino Electric Inc.","1740","Cesar Chavez","St","CA","94124-0000","4158508145","4158508145","174637"
"E20021105339","Contractor","Navarro Electric","5","El Quanito","Wy","CA","94010-0000","4155598408","4155598408","792604"
"E20021105345","Contractor","Sierra Electric Co","3112","Geary","Bl","CA","94118","4157522850",,"184594"
"E20021105348","Contractor","S W Electric","100","Pinehurst","Wy","CA","94127-0000","4153338423",,"755227"
"E20021105351","Contractor","Delta Electric","300","N San Mateo","Dr","CA","94401","6503479090","4156991844","313147"
"E20021106357","Contractor","Bajada Electric Inc",,"Po Box 5729",,"CA","94083","6509973032","4157600059","409957"
"E20021106360","Contractor","Automatic  Garage Door Of Marin","285","Belmarin Keys","Bl","CA","94949-0000","4158830725",,"550241"
"E20021106363","Contractor","Param Electric","1966","Tice Valley","Bl","CA","94549-2203","9259352294","5108472667","659713"
"E20021106366","Contractor","Ike's Electric","3546","19th","St","CA","94110","4158616417","4157549787","339028"
"E20021106375","Contractor","J L Electric","50","Sola","Av","CA","94116-0000","4155642341","4153072777","494866"
"E20021106378","Contractor","D C S  Construction Services Inc","160","Pixley","St","CA","94123","4159319365","4159877572","427457"
"E20021106381","Contractor","Anton Electric","4804","Mission","St","CA","94112-0000","6505836577","4155313687","416945"
"E20021106387","Contractor","Anton Electric","4804","Mission","St","CA","94112-0000","6505836577","4155313687","416945"
"E20021106390","Contractor","Bay City Garage Doors","26","Escanyo","Dr","CA","94080","6509527879","6508682158","260972"
"E20021106393","Contractor","K Lui General Const,","853","Vista Grande",,"CA","94030-0000","6506927228","4152699893","478553"
"E20021106396","Contractor","Wu's Electric Company","1242","Athens","St","CA","94112-0000","4153341798","4155163961","744549"
"E20021106399","Contractor","Automatic  Garage Door Of Marin","285","Belmarin Keys","Bl","CA","94949-0000","4158830725",,"550241"
"E20021107408","Contractor","City Construction Co","3649","Lawton","St","CA","94122-0000","4156612628","4155095025","667361"
"E20021107411","Contractor","Young Electric Co","195","Erie","St","CA","94103-0000","4156483355","4152308622","390749"
"E20021107414","Contractor","Young Electric Co","195","Erie","St","CA","94103-0000","4156483355","4152308622","390749"
"E20021107417","Contractor","G Martin Electric Corp",,"P.o. Box 12274",,"CA","94112-0274","4152852525",,"678104"
"E20021107420","Contractor","J. L. Electric Co","36","Exeter","St","CA","94124","4154683307","4155163316","519079"
"E200301102691","Contractor","Techno Electric Corp.","1221","York","St","CA","94110-0000","4158241894","4157253495","768497"
"E200301102694","Contractor","Allen Electric Inc /Clearchoice","12333","Saratoga Sunnyvale Rd #3c",,"CA","95070-0000","4085360311",,"804423"
"E200301102697","Contractor","Lam Pui  Electrical & Plumbing Inc.","2900","Yorba","St","CA","94116-0000","4157533217","4152988369","373337"
"E200301102700","Contractor","Metropolitan Electrical Construction","2400","03rd","St","CA","94107","4156423020","4156423000","401047"
"E200301102703","Contractor","Metropolitan Electrical Construction","2400","03rd","St","CA","94107","4156423020","4156423000","401047"
"E200301102706","Contractor","Cupertino Electric Inc.","1740","Cesar Chavez","St","CA","94124-0000","4158508145","4158508145","174637"
"E200301102712","Contractor","Pagco Construction, Inc.","250","Napoleon","St","CA","94124-2135","4157404012","4157407156","708416"
"E200301102715","Contractor","Celtic Electric","318","Channing","Rd","CA","94010-4748","4157244545","4157244545","499258"
"E200301132718","Contractor","City Overhead Doors Inc.","5976","Mission","St","CA","94112","6507564226",,"292393"
"E200301132721","Contractor","K  And P Electric","850","South Van Ness",,"CA","94110-0000","4156425995","4155160169","806977"
"E200301132724","Contractor","Urey-W-Electrical Co Inc * See Note ***","1336","P.o. Box",,"CA","94030-0000","4158790188","4158790188","643000"
"E200301132730","Contractor","Gary R. Jones Electric Inc","1350","Desmond","Ln","CA","95658-0000","9167995074","5308879510","727155"
"E200301132736","Contractor","Edlen Electrical Exhibition Svcs Of Ca","6705","South Eastern","Av","NV","89119-0000","6502250900","6502250900","957900"
"E200301132742","Contractor","Edlen Electrical Exhibition Svcs Of Ca","6705","South Eastern","Av","NV","89119-0000","6502250900","6502250900","957900"
"E200301132745","Contractor","J Y Electrical Construction Co Inc",,"P O Box 34338",,"CA","94134-0000","4155591567","4155591567","777162"
"E200301132748","Contractor","J Y Electrical Construction Co Inc",,"P O Box 34338",,"CA","94134-0000","4155591567","4155591567","777162"
"E200301132751","Contractor","Decker Electric Co Inc","350","Sansome","St","CA","94104-0000","4155521622","4155138395","003779"
"E200301132754","Contractor","Mcclure Electric Inc","45","Rausch","St","CA","94103","4158645656","4158507071","248877"
"E200301132757","Contractor","Sierra Electric Co","3112","Geary","Bl","CA","94118","4157522850",,"184594"
"E200301132760","Contractor","Navarro Electric","5","El Quanito","Wy","CA","94010-0000","4155598408","4155598408","792604"
"E200301132766","Contractor","Mal Rogers Electric","201","Laidley","St","CA","94131-0000","4156471817","4155192780","701032"
"E200301142775","Contractor","Four Seasons","1801","Western","Av","CA","94952",,,"307981"
"E200301142778","Contractor","Rod Muscio Electrical","901","Palmetto Avenue Suite D",,"CA","94044","6503595360","6502223390","309056"
"E200301142781","Contractor","Castellino Electric","448","Elm","Av","CA","94066","6508737445","4157227296","566204"
"E200301142784","Contractor","Marble Electric","352","Coleridge","St","CA","94110","4158213204","4154128151","591393"
"E200301142787","Contractor","Techno Electric Corp.","1221","York","St","CA","94110-0000","4158241894","4157253495","768497"
"E200301142790","Contractor","Wells Electrical, Inc","2177","Jerrold Avenue Building 2",,"CA","94124-0000","4152557831","4158198341","681529"
"E200301142793","Contractor","Wells Electrical, Inc","2177","Jerrold Avenue Building 2",,"CA","94124-0000","4152557831","4158198341","681529"
"E200301142799","Contractor","Genesis Electric","1609","Notre Dame",,"CA","94002-0000","6502197040","6505969005","740937"
"E200301142802","Contractor","Capitol Electric Const","480","9th","St","CA","94103","4158612900","4153415048","391802"
"E200301142805","Contractor","Metropolitan Electrical Construction","2400","03rd","St","CA","94107","4156423020","4156423000","401047"
"E200301142808","Contractor","Mc Millan Electric","1950","Cesar Chavez","St","CA","94124-0000","4158265100","4150000000","268179"
"E200301142811","Contractor","Sierra Electric Co","3112","Geary","Bl","CA","94118","4157522850",,"184594"
"E200301142817","Contractor","Paganini Electric Corp(see Signatories)","190","Hubbell","St","CA","94107","4155753900",,"309677"
"E200301142820","Contractor","Klestoff Electric","2685","Isabelle","Av","CA","94403","6504836988","6504836988","384406"
"E200303054821","Contractor","A & G Electric","20406","Redwood","Rd","CA","94546-0000","5108814615","5103852444","758068"
"E200303054824","Contractor","A & G Electric","20406","Redwood","Rd","CA","94546-0000","5108814615","5103852444","758068"
"E200303054830","Contractor","Bay City Garage Doors","26","Escanyo","Dr","CA","94080","6509527879","6508682158","260972"
"E200303064836","Contractor","B B J   Electric, Inc","1661","Innes","Av","CA","94124-0000","4155991499","4157402854","670906"
"E200303064839","Contractor","Mc Millan Electric","1950","Cesar Chavez","St","CA","94124-0000","4158265100","4150000000","268179"
"E200303064842","Contractor","Capitol Electric Const","480","9th","St","CA","94103","4158612900","4153415048","391802"
"E200303064845","Contractor","Terry's Electric","3205","Meadowbrook Rd",,"CA","94509-0000","6506529804","4158463310","384300"
"E200303064854","Contractor","Benchmark Construction","60","Hauen","Dr","CA","94014-0000","6509973745","6508260278","724516"
"E200303064857","Contractor","J.w. Electrical  & Const.","1088","Huron","Av","CA","94112-0000","4153867556","4152903333","418061"
"E200303064860","Contractor","Urey-W-Electrical Co Inc * See Note ***","1336","P.o. Box",,"CA","94030-0000","4158790188","4158790188","643000"
"E200303064866","Contractor","Stort's Electric","68","St. Marys Avenue, # 1",,"CA","94112-0000","4158455330","4158455330","413976"
"E200303064869","Contractor","T C Electric Inc","130","Ridge","Rd","CA","94930-0000","4154535373","4152540630","617753"
"E200303064872","Contractor","Gj Construction","11","Keystone","Wy","CA","94127-0000","4155862610",,"788696"
"E200303064875","Contractor","Rivera's Heating & Air Conditioning","9836","Lawlor","St","CA","94605-0000","5103768922","5106390824","783459"
"E200303064878","Contractor","Golden Light & Electric","3270","21st","St","CA","94110","4158242364","4153098421","680419"
"E200303064881","Contractor","Lai's E & H Electric Inc.","1766","40th","Av","CA","94122","4157596878","4158507722","659426"
"E200303064884","Contractor","Tri Power Group","85","Nicholson","Ln","CA","95134-0000","9255838214","4086391675","779172"
"E200303064887","Contractor","Michael Mccarthy Elec/ Dba:dmacs Electr","25","Noe","St","CA","94114-0000","4152217311","4155966415","740455"
"E200303064890","Contractor","Jimmy's Electric","2276","18th","Av","CA","94116-0000","4155661888","4157608238","411108"
"E200303064893","Contractor","Jimmy's Electric","2276","18th","Av","CA","94116-0000","4155661888","4157608238","411108"
"E200303074908","Contractor","Wells Electrical, Inc","2177","Jerrold Avenue Building 2",,"CA","94124-0000","4152557831","4158198341","681529"
"E200303074912","Contractor","A L V Construction Inc","526","Vera","Av","CA","94061-0000","6502988820","6506700804","779131"
"E200303074918","Contractor","Golden Gate Eletric Co","35691","Palomares","Rd","CA","94546","5108811300","5107740208","565292"
"E200303074921","Contractor","Thomason Construction","890","Marin","Dr","CA","94941-0000","4153888716","4152799237","734150"
"E200303074930","Contractor","Bay Alarm Company","60","Berry","Dr","CA","94553-0000","9258084336","9255955300","261003"
"E200303074933","Contractor","Navarro Electric","5","El Quanito","Wy","CA","94010-0000","4155598408","4155598408","792604"
"E200303074936","Contractor","Sabah International Incorporated","5925","Stoneridge","Dr","CA","94588","9252497786","9257878190","381218"
"E200303074939","Contractor","Marc Loran","1655","12th","Av","CA","94122","4155950427","4155950427","445446"
"E200303074945","Contractor","Dynalectric Company","375","Alabama Street Suite 300","St","CA","94110-0000","4154874700","4154874756","749757"
"E200303074948","Contractor","A S F Electric Inc","76","Hill","St","CA","94014","6507559032","6507559032","720540"
"E200303074951","Contractor","A S F Electric Inc","76","Hill","St","CA","94014","6507559032","6507559032","720540"
"E200306048716","Contractor","W E B Electric","35","Michael","Ln","CA","94030-0000","6506926404","6504653830","561577"
"E200306048718","Contractor","Dietsch Montaldo Keeneyand Dietsch",,"213 Acadia Street",,"CA","94131","4155863289","4156993070","508795"
"E200306048720","Contractor","Mc Millan Electric","1950","Cesar Chavez","St","CA","94124-0000","4158265100","4150000000","268179"
"E200306048721","Contractor","Being Of Svc. Electric/dba: Bos Electric","1241","Andersen","Dr","CA","94901","4154575190","4152467827","475181"
"E200306048722","Contractor","Mc Millan Electric","1950","Cesar Chavez","St","CA","94124-0000","4158265100","4150000000","268179"
"E200306048723","Contractor","Mc Millan Electric","1950","Cesar Chavez","St","CA","94124-0000","4158265100","4150000000","268179"
"E200306048724","Contractor","Jimmy's Electric","2276","18th","Av","CA","94116-0000","4155661888","4157608238","411108"
"E200306048725","Contractor","Jimmy's Electric","2276","18th","Av","CA","94116-0000","4155661888","4157608238","411108"
"E200306048726","Contractor","Jimmy's Electric","2276","18th","Av","CA","94116-0000","4155661888","4157608238","411108"
"E200306048727","Contractor","Cupertino Electric Inc.","1740","Cesar Chavez","St","CA","94124-0000","4158508145","4158508145","174637"
"E200306048729","Contractor","Jimmy's Electric","2276","18th","Av","CA","94116-0000","4155661888","4157608238","411108"
"E200306048730","Contractor","K W Electrical Co","2006","34th","Av","CA","94116","4159991175","4159991175","805808"
"E200306048732","Contractor","K W Electrical Co","2006","34th","Av","CA","94116","4159991175","4159991175","805808"
"E200306048733","Contractor","Power Electric","406","Wildwood","Dr","CA","94080","6506159748","6502070638","726742"
"E200306048734","Contractor","K W Electrical Co","2006","34th","Av","CA","94116","4159991175","4159991175","805808"
"E200306048735","Contractor","Jimmy's Electric","2276","18th","Av","CA","94116-0000","4155661888","4157608238","411108"
"E200306048736","Contractor","Gil's  Electrical",,"15934 Bayberry Ln",,"CA","94580","5109284886","5109284886","736298"
"E200306048737","Contractor","Jimmy's Electric","2276","18th","Av","CA","94116-0000","4155661888","4157608238","411108"
"E200306048738","Contractor","Yee Construction Inc.","3007","Ulloa","St","CA","94116-0000","4157538328","4156998869","747681"
"E200306048739","Contractor","Jimmy's Electric","2276","18th","Av","CA","94116-0000","4155661888","4157608238","411108"
"E200306048741","Contractor","Jimmy's Electric","2276","18th","Av","CA","94116-0000","4155661888","4157608238","411108"
"E200306048742","Contractor","Simplex Grinnell","6952","Preston Ave, Suite A",,"CA","94550-0000","9252730100",,"802591"
"E200306048743","Contractor","Polytec Construction Co.*** See Notes*","656","Toland","Pl","CA","94124-0000","4156827782","4152150784","406739"
"E200306048744","Contractor","Jimmy's Electric","2276","18th","Av","CA","94116-0000","4155661888","4157608238","411108"
"E200306048745","Contractor","Simplex Grinnell","6952","Preston Ave, Suite A",,"CA","94550-0000","9252730100",,"802591"
"E200306048746","Contractor","Jimmy's Electric","2276","18th","Av","CA","94116-0000","4155661888","4157608238","411108"
"E200306048747","Contractor","Jimmy's Electric","2276","18th","Av","CA","94116-0000","4155661888","4157608238","411108"
"E200306048748","Contractor","Simplex Grinnell","6952","Preston Ave, Suite A",,"CA","94550-0000","9252730100",,"802591"
"E200306048751","Contractor","Jimmy's Electric","2276","18th","Av","CA","94116-0000","4155661888","4157608238","411108"
"E200306048753","Contractor","Wing Tai  Electrical","579","Silver","Av","CA","94112-0000","4157939003","4156990968","358015"
"E200306048755","Contractor","G C Electric","161","Cora","St","CA","94134-0000","4158288259","4155318228","636918"
"E200306048756","Contractor","Jimmy's Electric","2276","18th","Av","CA","94116-0000","4155661888","4157608238","411108"
"E200306048757","Contractor","Jimmy's Electric","2276","18th","Av","CA","94116-0000","4155661888","4157608238","411108"
"E200306048758","Contractor","Jimmy's Electric","2276","18th","Av","CA","94116-0000","4155661888","4157608238","411108"
"E200306048759","Contractor","Wf Wong Construction","1330","42nd","Av","CA","94122-0000","4157591603","4156017388","751829"
"E200306048760","Contractor","Starlite Electric  Inc.",,"Po Box 882283",,"CA","94188-0000","4156488888","4156022058","716595"
"E200306048761","Contractor","Jimmy's Electric","2276","18th","Av","CA","94116-0000","4155661888","4157608238","411108"
"E200306048762","Contractor","Jimmy's Electric","2276","18th","Av","CA","94116-0000","4155661888","4157608238","411108"
"E200306048763","Contractor","Jimmy's Electric","2276","18th","Av","CA","94116-0000","4155661888","4157608238","411108"
"E200306048764","Contractor","Jimmy's Electric","2276","18th","Av","CA","94116-0000","4155661888","4157608238","411108"
"E20021107426","Contractor","Mcclure Electric Inc","45","Rausch","St","CA","94103","4158645656","4158507071","248877"
"E20021107432","Contractor","Bayview Electric","1790","La Salle","Av","CA","94124","4158301961","4152460681","709398"
"E20021107435","Contractor","Rod Muscio Electrical","901","Palmetto Avenue Suite D",,"CA","94044","6503595360","6502223390","309056"
"E20021107438","Contractor","Rod Muscio Electrical","901","Palmetto Avenue Suite D",,"CA","94044","6503595360","6502223390","309056"
"E20021107441","Contractor","T C Electric Inc","130","Ridge","Rd","CA","94930-0000","4154535373","4152540630","617753"
"E20021107444","Contractor","T C Electric Inc","130","Ridge","Rd","CA","94930-0000","4154535373","4152540630","617753"
"E20021107447","Contractor","T C Electric Inc","130","Ridge","Rd","CA","94930-0000","4154535373","4152540630","617753"
"E20021107450","Contractor","Mc Millan Electric","1950","Cesar Chavez","St","CA","94124-0000","4158265100","4150000000","268179"
"E20021107453","Contractor","W. Bradley Electric","90","Hill","Rd","CA","94945-0000","4158981400","4157165134","390741"
"E20021107456","Contractor","Donald Lewis Gen. Contr.inc.","17","Edge Wood","Wy","CA","94901-0000","4157132298","4157132298","742228"
"E20021107468","Contractor","R & R Electric","1201","Shafter","Av","CA","94124-0000","5105694718","5103851572","760346"
"E20021107471","Contractor","R & R Electric","1201","Shafter","Av","CA","94124-0000","5105694718","5103851572","760346"
"E20021107480","Contractor","Jimmy's Electric","2276","18th","Av","CA","94116-0000","4155661888","4157608238","411108"
"E20021107483","Contractor","Jimmy's Electric","2276","18th","Av","CA","94116-0000","4155661888","4157608238","411108"
"E20021107486","Contractor","Ideal Electric","1079","Springfield","Dr","CA","94030-0000","6506921427","4153415518","949850"
"E20021107492","Contractor","Toni's  Construction Inc","2425","16th","Av","CA","94116-0000","4156818280","4152790579","551504"
"E20021108498","Contractor","Automatic Garage Door","2285","Revere","Av","CA","94124-0000","4156486413","4152980444","671116"
"E20021108501","Contractor","Pacific General Elec Co","1880","Fulton","St","CA","94117","4155717835","4153059244","392058"
"E20021108504","Contractor","Tam's Electric Inc","558","Goettingen","St","CA","94134-0000","4158504939","4158504939","558739"
"E20021108510","Contractor","Fire Protection Retrofit Specialist","1015","Howard","St","CA","94103-0000","4152827010","4157169394","638976"
"E20021108513","Contractor","City Overhead Doors Inc.","5976","Mission","St","CA","94112","6507564226",,"292393"
"E20021108516","Contractor","Guan's Electrical","125","Gennessee.","St","CA","94112","4155853188","4158069259","530508"
"E20021108519","Contractor","North Star Electric Co",,"1177 California","St","CA","94108-0000","4157756929",,"563896"
"E20021108522","Contractor","Being Of Svc. Electric/dba: Bos Electric","1241","Andersen","Dr","CA","94901","4154575190","4152467827","475181"
"E20021108525","Contractor","J Y Electrical Construction Co Inc",,"P O Box 34338",,"CA","94134-0000","4155591567","4155591567","777162"
"E20021108528","Contractor","Mc Millan Electric","1950","Cesar Chavez","St","CA","94124-0000","4158265100","4150000000","268179"
"E20021108531","Contractor","Guan's Electrical","125","Gennessee.","St","CA","94112","4155853188","4158069259","530508"
"E20021108534","Contractor","Jimmy's Electric","2276","18th","Av","CA","94116-0000","4155661888","4157608238","411108"
"E20021108537","Contractor","Kazavis Electric","1633","Dolores","St","CA","94110-0000","4156418481","4156402069","405494"
"E20021112546","Contractor","Loi Electric Company","67","Dorado","Tr","CA","94112","4157601787","4157601787","507233"
"E20021112549","Contractor","Aaron Electric Co.","4200","Moraga","St","CA","94122-0000","4156641124","4158590948","425741"
"E20021112558","Contractor","Britannia Construction, Inc.","255","South Maple","Av","CA","94080","6507426490",,"515005"
"E20021112561","Contractor","L. Y . Electrical Co.","191","Schwerin","St","CA","94134","4155855017","4152258377","609290"
"E20021112567","Contractor","Thomas A Lucchesi Electric","1542","48th","Av","CA","94122-0000","4156829853","4155098550","608575"
"E20021112573","Contractor","Quality Systems Installallations Ltd.","212","Shaw Rd. Ste. 3",,"CA","94080-6613","6508759000","6503330123","597671"
"E20021112576","Contractor","Jimmy's Electric","2276","18th","Av","CA","94116-0000","4155661888","4157608238","411108"
"E200301142823","Contractor","New World Homes And Landscapes*note**","751","Haight","St","CA","94117-0000","4155031000","4157069907","741558"
"E200301142826","Contractor","Ruby Plumbing & Electrical","1234","Geneva","Av","CA","94112-0000","4153379133","4153379133","748426"
"E200301152829","Contractor","Upscale Construction Inc","2151","Union St #1",,"CA","94123","4155637550","4158069511","707506"
"E200301152832","Contractor","Delta Electric","300","N San Mateo","Dr","CA","94401","6503479090","4156991844","313147"
"E200301152835","Contractor","Le Shan Luo Electric","143","Madison","St","CA","94134-0000","4157881088","4159908113","623557"
"E200301152841","Contractor","Crown Electric Inc","85","Columbia","Sq","CA","94103","4156217756","4155597432","109815"
"E200301152844","Contractor","Mcfarland Group","801","Mountain","Bl","CA","94611-1824","5106544660","5102206421","599631"
"E200301152850","Contractor","Jimmy's Electric","2276","18th","Av","CA","94116-0000","4155661888","4157608238","411108"
"E200301152853","Contractor","Vertrans","5045","Fulton","Dr","CA","94585-0000","7078642005",,"443286"
"E200301152856","Contractor","M & M Electric","2247","Cumming Rd",,"CA","94513-0000","9259326074","5107156560","810447"
"E200301152859","Contractor","Atlas/pellizzari Electri",,"450 Howland St",,"CA","94062-0000","6503641204","6507436653","375862"
"E200301152862","Contractor","Chasov Electrical Voice & Data","1546","Portola","Dr","CA","94127-0000","4156827582","4153787298","785830"
"E200301152868","Contractor","M V Construction","467","Valencia","St","CA","94103","4158630882","4152987769","588276"
"E200301152871","Contractor","Brookline Aries Electric","121","Santa Rosa","Av","CA","94112","4152395393","4152395393","273651"
"E200301162874","Contractor","Tri Valley Door Systems Inc","1912","02nd St",,"CA","94550-0000","9253710496",,"733575"
"E200301162877","Contractor","Tri Valley Door Systems Inc","1912","02nd St",,"CA","94550-0000","9253710496",,"733575"
"E200301162880","Contractor","Tri Valley Door Systems Inc","1912","02nd St",,"CA","94550-0000","9253710496",,"733575"
"E200301162883","Contractor","S L Electric  Inc.","2655","34th","Av","CA","94116-0000","4155868988","4155868988","823707"
"E200301162886","Contractor","A & E Electric","139","Lee Ave",,"CA","94112","4155873414","4155779086","522000"
"E200301162892","Contractor","San Francisco Electric Co","1222","20th","St","CA","94107","4156486228","4153091779","636319"
"E200301162898","Contractor","Siu Yee Keung","707","4th","Av","CA","94118","4153872532","4158234477","280268"
"E200301162904","Contractor","King Electric","4933","Hillsborough","Dr","CA","94954-9562","4154592214","4154592214","555872"
"E200301162910","Contractor","Capitol Electric Const","480","9th","St","CA","94103","4158612900","4153415048","391802"
"E200301162913","Contractor","Aaron Electric Co.","4200","Moraga","St","CA","94122-0000","4156641124","4158590948","425741"
"E200301162916","Contractor","David Arnold Olson","1103","Crespy","Dr","CA","94044-0000","6508731588","6505336110","309775"
"E200301172919","Contractor","Klestoff Electric","2685","Isabelle","Av","CA","94403","6504836988","6504836988","384406"
"E200301172922","Contractor","Sierra Electric Co","3112","Geary","Bl","CA","94118","4157522850",,"184594"
"E200301172925","Contractor","Grand American Construction Co","816","Victoria","St","CA","94127-0000","4157228213","4157228213","702689"
"E200301172928","Contractor","Mc Millan Electric","1950","Cesar Chavez","St","CA","94124-0000","4158265100","4150000000","268179"
"E200301172934","Contractor","Peterson Power & Light","1275","Danmann","Av","CA","94044-0000","6507382596","4155315616","451053"
"E200301172937","Contractor","Tk Construction & Active Sign Inc.","195","Tamal Vista","Bl","CA","94925-0000","4082976640","4085923721","622021"
"E200301172940","Contractor","Sun Shing Construction Co",,"1635 23rd Ave",,"CA","94122-3310","4157168112","4158066687","707090"
"E200301172943","Contractor","Paganini Electric Corp(see Signatories)","190","Hubbell","St","CA","94107","4155753900",,"309677"
"E200301172946","Contractor","Lai's E & H Electric Inc.","1766","40th","Av","CA","94122","4157596878","4158507722","659426"
"E200301212952","Contractor","Mal Waters Electrical",,"P. O. Box 1341",,"CA","94044","6503593860","4152255756","495619"
"E200301212958","Contractor","Ace Automatic Garage Door","2250","Jerrold","St","CA","94124-0000","4158267686","4157470024","494000"
"E200301212961","Contractor","S F Garage Company Inc.","12","Gough","St","CA","94103-0000","4158260606","4156020077","684863"
"E200301212964","Contractor","C B F Inc","675","Davis","St","CA","94111-1403","4154953085","4153857390","335873"
"E200303074954","Contractor","Paganini Electric Corp(see Signatories)","190","Hubbell","St","CA","94107","4155753900",,"309677"
"E200303074957","Contractor","Rosendin Electric, Inc.","880","Mabury","Rd","CA","95133-0000","4152843112","4158501090","142881"
"E200303074963","Contractor","Rainbow Choy Hung & Co","2674","22nd","Av","CA","94116","4155646147","4153095088","380786"
"E200303104966","Contractor","Bay Electric","1288","Columbus","Av","CA","94133-0000","4155635645","4156409849","810652"
"E200303104972","Contractor","A/c Construction","647","Santa Barbara","Av","CA","94030-0000","4155174068","4155174068","402322"
"E200303104978","Contractor","Bolt Electric",,"P O Box 460012",,"CA","94122","4157532658","4153173461","594705"
"E200303104981","Contractor","Starlite Electric  Inc.",,"Po Box 882283",,"CA","94188-0000","4156488888","4156022058","716595"
"E200303104984","Contractor","Jian Min Construction","322","Aviador","Av","CA","94030-0000","4156133510","4157168127","880419"
"E200303104987","Contractor","Tj Ward & Associates Dba Facilities Grp","400","Brannan","St","CA","94107-0000","4155165654","4155165654","796000"
"E200303104996","Contractor","Mc Millan Electric","1950","Cesar Chavez","St","CA","94124-0000","4158265100","4150000000","268179"
"E200303104999","Contractor","Mc Millan Electric","1950","Cesar Chavez","St","CA","94124-0000","4158265100","4150000000","268179"
"E200303105011","Contractor","Ruby Plumbing & Electrical","1234","Geneva","Av","CA","94112-0000","4153379133","4153379133","748426"
"E200303105017","Contractor","J L Electric","39","Wabash Terrace",,"CA","94134-0000","4158411266","4157972581","793274"
"E200303105020","Contractor","L. Y . Electrical Co.","191","Schwerin","St","CA","94134","4155855017","4152258377","609290"
"E200303105023","Contractor","Paganini Electric Corp(see Signatories)","190","Hubbell","St","CA","94107","4155753900",,"309677"
"E200303115035","Contractor","E. J. Weber Elect.co Inc","895","Innes","Av","CA","94124-","4156419300","4155040481","744147"
"E200303115038","Contractor","Joseph T. Hayes","23","Blossom","Dr","CA","94901-0000","4154826003","4159874075","675817"
"E200303115044","Contractor","Guos Construction Co","357","London","St","CA","94112-0000","4155868146","4155318229","735902"
"E200303115047","Contractor","Edward W. Scott","1555","Burke Suite L","St","CA","94124-0000","4155190654","4155190654","190426"
"E200303115050","Contractor","A S F Electric Inc","76","Hill","St","CA","94014","6507559032","6507559032","720540"
"E200303115053","Contractor","Jimmy's Electric","2276","18th","Av","CA","94116-0000","4155661888","4157608238","411108"
"E200303115056","Contractor","Jimmy's Electric","2276","18th","Av","CA","94116-0000","4155661888","4157608238","411108"
"E200303115059","Contractor","Rosendin Electric, Inc.","880","Mabury","Rd","CA","95133-0000","4152843112","4158501090","142881"
"E200303115062","Contractor","Flash Electric **Ck Id******","235","Sadowa","St","CA","94112-0000","4155869809","4157251923","750261"
"E200303115065","Contractor","Dynalectric Company","375","Alabama Street Suite 300","St","CA","94110-0000","4154874700","4154874756","749757"
"E200303115068","Contractor","Rod Muscio Electrical","901","Palmetto Avenue Suite D",,"CA","94044","6503595360","6502223390","309056"
"E200303115071","Contractor","Rod Muscio Electrical","901","Palmetto Avenue Suite D",,"CA","94044","6503595360","6502223390","309056"
"E200303115074","Contractor","Rod Muscio Electrical","901","Palmetto Avenue Suite D",,"CA","94044","6503595360","6502223390","309056"
"E200303115077","Contractor","Chasov Electrical Voice & Data","1546","Portola","Dr","CA","94127-0000","4156827582","4153787298","785830"
"E200303115080","Contractor","Chasov Electrical Voice & Data","1546","Portola","Dr","CA","94127-0000","4156827582","4153787298","785830"
"E200303115083","Contractor","Rod Muscio Electrical","901","Palmetto Avenue Suite D",,"CA","94044","6503595360","6502223390","309056"
"E200303125086","Contractor","Yuco Electrical","5370","Olive","Dr","CA","94521-0000",,"4157061843","756720"
"E200303125089","Contractor","R Electric","394","Bancroft","Wy","CA","94044-0000","6503559352","4153105559","753925"
"E200303125092","Contractor","W E B Electric","35","Michael","Ln","CA","94030-0000","6506926404","6504653830","561577"
"E200303125095","Contractor","Rod Muscio Electrical","901","Palmetto Avenue Suite D",,"CA","94044","6503595360","6502223390","309056"
"E200303125098","Contractor","Rod Muscio Electrical","901","Palmetto Avenue Suite D",,"CA","94044","6503595360","6502223390","309056"
"E200306048765","Contractor","Jimmy's Electric","2276","18th","Av","CA","94116-0000","4155661888","4157608238","411108"
"E200306048766","Contractor","Jimmy's Electric","2276","18th","Av","CA","94116-0000","4155661888","4157608238","411108"
"E200306048767","Contractor","Wells Electrical, Inc","2177","Jerrold Avenue Building 2",,"CA","94124-0000","4152557831","4158198341","681529"
"E200306048768","Contractor","Jimmy's Electric","2276","18th","Av","CA","94116-0000","4155661888","4157608238","411108"
"E200306048769","Contractor","Wells Electrical, Inc","2177","Jerrold Avenue Building 2",,"CA","94124-0000","4152557831","4158198341","681529"
"E200306058771","Contractor","P & L Electric Co","816","Ellis","Dr","CA","94015","6509973292",,"424079"
"E200306058777","Contractor","Tam's Electric Inc","558","Goettingen","St","CA","94134-0000","4158504939","4158504939","558739"
"E200306058779","Contractor","S L Electric  Inc.","2655","34th","Av","CA","94116-0000","4155868988","4155868988","823707"
"E200306058781","Contractor","Rainbow Choy Hung & Co","2674","22nd","Av","CA","94116","4155646147","4153095088","380786"
"E200306058782","Contractor","John Cahalane Electric","142","Joost","Av","CA","94131-0000","4153342188","4152712562","640863"
"E200306058783","Contractor","John Cahalane Electric","142","Joost","Av","CA","94131-0000","4153342188","4152712562","640863"
"E200306058784","Contractor","Davis Electric","5921","Landis","Av","CA","95608-0000","9164891643","9165418129","759196"
"E200306058785","Contractor","Metropolitan Electrical Construction","2400","03rd","St","CA","94107","4156423020","4156423000","401047"
"E200306058786","Contractor","Electrical Systems","506","Southhill","Bl","CA","94014","4154695414","4158676625","712456"
"E200306058787","Contractor","Metropolitan Electrical Construction","2400","03rd","St","CA","94107","4156423020","4156423000","401047"
"E200306058788","Contractor","Davis Electric","5921","Landis","Av","CA","95608-0000","9164891643","9165418129","759196"
"E200306058791","Contractor","Rod Muscio Electrical","901","Palmetto Avenue Suite D",,"CA","94044","6503595360","6502223390","309056"
"E200306058792","Contractor","A S F Electric Inc","76","Hill","St","CA","94014","6507559032","6507559032","720540"
"E200306058793","Contractor","Cal Bees Construction Co",,"863 38th Av","*","CA","94121-0000","4152215471","4155160985","524209"
"E200306058794","Contractor","Lam Pui  Electrical & Plumbing Inc.","2900","Yorba","St","CA","94116-0000","4157533217","4152988369","373337"
"E200306058797","Contractor","J & L Construction Co.","1216","32nd","Av","CA","94122-0000","4157530862","4155096868","427779"
"E200306058798","Contractor","West Electric And Lighting","465","Ely Rd North",,"CA","94954-0000","4153103547","4153103547","756912"
"E200306058799","Contractor","Aaa Electric Co.","1519","C Day","Av","CA","94403-0000","4152395224","6502919887","299419"
"E200306058800","Contractor","A M Rocca Inc.","4722","Mission","St","CA","94112-0000","4152390484","4154254789","757461"
"E200306058801","Contractor","Cupertino Electric Inc.","1740","Cesar Chavez","St","CA","94124-0000","4158508145","4158508145","174637"
"E200306058802","Contractor","A M Rocca Inc.","4722","Mission","St","CA","94112-0000","4152390484","4154254789","757461"
"E200306058803","Contractor","Siu Yee Keung","707","4th","Av","CA","94118","4153872532","4158234477","280268"
"E200306058804","Contractor","D A M Construction(* Always *Ask For Id)","450","Taraval","St","CA","94116","4155862422","4157203119","717976"
"E200306058805","Contractor","Siu Yee Keung","707","4th","Av","CA","94118","4153872532","4158234477","280268"
"E200306058806","Contractor","Dynalectric Company","375","Alabama Street Suite 300","St","CA","94110-0000","4154874700","4154874756","749757"
"E20021112591","Contractor","San Francisco Electric Co","1222","20th","St","CA","94107","4156486228","4153091779","636319"
"E20021112594","Contractor","Metropolitan Electrical Construction","2400","03rd","St","CA","94107","4156423020","4156423000","401047"
"E20021112597","Contractor","Bing Quan Li","808","31st","Av","CA","94121","4158313662","4158122475","738042"
"E20021112600","Contractor","Moran Lighting & Electric","1139","Cole","St","CA","94117","4157318652","4158718373","563134"
"E20021112603","Contractor","Metropolitan Electrical Construction","2400","03rd","St","CA","94107","4156423020","4156423000","401047"
"E20021112606","Contractor","M S  Electric","315","Baden","St","CA","94131-0000","4155163961","4155163961","770756"
"E20021112609","Contractor","T & T Electric Corp","2526","32rd","Av","CA","94116-0000","4156654098","4157134273","789346"
"E20021112612","Contractor","Better Electric","241","Bartlett","St","CA","94110","4155502364","4153704891","523084"
"E20021113618","Contractor","G C Electric","161","Cora","St","CA","94134-0000","4158288259","4155318228","636918"
"E20021113621","Contractor","Delta Electric","300","N San Mateo","Dr","CA","94401","6503479090","4156991844","313147"
"E20021113624","Contractor","Rinaldi Construction","223","14th","Av","CA","94118-0000","4154249085","4154249085","497873"
"E20021113630","Contractor","Leo's Electric Company","281","Oxford","St","CA","94134-0000","4155873669","4158288225","510550"
"E20021113633","Contractor","Dannels Electric Inc","823","Greenwood","Av","CA","94401","6503750797","6504004378","480106"
"E20021113639","Contractor","Rod Muscio Electrical","901","Palmetto Avenue Suite D",,"CA","94044","6503595360","6502223390","309056"
"E20021113642","Contractor","Rod Muscio Electrical","901","Palmetto Avenue Suite D",,"CA","94044","6503595360","6502223390","309056"
"E20021113645","Contractor","Rod Muscio Electrical","901","Palmetto Avenue Suite D",,"CA","94044","6503595360","6502223390","309056"
"E20021113648","Contractor","Rod Muscio Electrical","901","Palmetto Avenue Suite D",,"CA","94044","6503595360","6502223390","309056"
"E20021113651","Contractor","Techno Electric Corp.","1221","York","St","CA","94110-0000","4158241894","4157253495","768497"
"E20021113657","Contractor","Bay Alarm Company","60","Berry","Dr","CA","94553-0000","9258084336","9255955300","261003"
"E20021113675","Contractor","Ed Sullivan Elect Co","286","Valencia","St","CA","94103-0000","4153107932","4153107932","252903"
"E20021114684","Contractor","Metropolitan Electrical Construction","2400","03rd","St","CA","94107","4156423020","4156423000","401047"
"E20021114699","Contractor","H A Bowen Electric Inc","2055","Williams","St","CA","94577","5104830500","5103850927","384915"
"E20021114702","Contractor","Mc Millan Electric","1950","Cesar Chavez","St","CA","94124-0000","4158265100","4150000000","268179"
"E20021114705","Contractor","Decker Electric Co Inc","350","Sansome","St","CA","94104-0000","4155521622","4155138395","003779"
"E20021114708","Contractor","E. J. Weber Elect.co Inc","895","Innes","Av","CA","94124-","4156419300","4155040481","744147"
"E20021114711","Contractor","C.p. Home Repairs Gen.",,"#1 Still St.",,"CA","94112","4154520955","4153366962","700312"
"E20021114714","Contractor","Cupertino Electric Inc.","1740","Cesar Chavez","St","CA","94124-0000","4158508145","4158508145","174637"
"E20021114717","Contractor","Moreno Electric Co.","650","Broadmoor","Bl","CA","94577-0000","5105530394","5107504924","783307"
"E20021114726","Contractor","Loi Electric Company","67","Dorado","Tr","CA","94112","4157601787","4157601787","507233"
"E20021114732","Contractor","Paganini Electric Corp(see Signatories)","190","Hubbell","St","CA","94107","4155753900",,"309677"
"E20021114741","Contractor","Yiu Cheong Construction Co Inc","3222","Anza","St","CA","94121","4157514662","4158676215","670461"
"E20021115747","Contractor","Tri Valley Door Systems Inc","1912","02nd St",,"CA","94550-0000","9253710496",,"733575"
"E200301212967","Contractor","C B F Inc","675","Davis","St","CA","94111-1403","4154953085","4153857390","335873"
"E200301212970","Contractor","C B F Inc","675","Davis","St","CA","94111-1403","4154953085","4153857390","335873"
"E200301212973","Contractor","Dowling Electric","1582","34th","Av","CA","94122-0000","4157133575","4157133575","768020"
"E200301212976","Contractor","Rainbow Choy Hung & Co","2674","22nd","Av","CA","94116","4155646147","4153095088","380786"
"E200301212979","Contractor","Cupertino Electric Inc.","1740","Cesar Chavez","St","CA","94124-0000","4158508145","4158508145","174637"
"E200301212988","Contractor","Jimmy's Electric","2276","18th","Av","CA","94116-0000","4155661888","4157608238","411108"
"E200301212991","Contractor","Express Project Construction Co","2507","47th Avenue",,"CA","94116-0000","6131811",,"787605"
"E200301212997","Contractor","Bajada Electric Inc",,"Po Box 5729",,"CA","94083","6509973032","4157600059","409957"
"E200301223003","Contractor","G C Electric","161","Cora","St","CA","94134-0000","4158288259","4155318228","636918"
"E200301223006","Contractor","Brookline Aries Electric","121","Santa Rosa","Av","CA","94112","4152395393","4152395393","273651"
"E200301223012","Contractor","Automatic Garage Door","2285","Revere","Av","CA","94124-0000","4156486413","4152980444","671116"
"E200301223015","Contractor","Wells Electrical, Inc","2177","Jerrold Avenue Building 2",,"CA","94124-0000","4152557831","4158198341","681529"
"E200301223018","Contractor","M S  Electric","315","Baden","St","CA","94131-0000","4155163961","4155163961","770756"
"E200301223021","Contractor","Chasov Electrical Voice & Data","1546","Portola","Dr","CA","94127-0000","4156827582","4153787298","785830"
"E200301223024","Contractor","Ruby Plumbing & Electrical","1234","Geneva","Av","CA","94112-0000","4153379133","4153379133","748426"
"E200301223027","Contractor","Decker Electric Co Inc","350","Sansome","St","CA","94104-0000","4155521622","4155138395","003779"
"E200301223033","Contractor","Rankin And Rankin Inc","8655","Washington","Bl","CA","95678-0000","9167829001",,"455174"
"E200301223036","Contractor","Polytec Construction Co.*** See Notes*","656","Toland","Pl","CA","94124-0000","4156827782","4152150784","406739"
"E200301223039","Contractor","Bay Electric","1288","Columbus","Av","CA","94133-0000","4155635645","4156409849","810652"
"E200301223042","Contractor","J B E Construction","965","86th","Av","CA","94621-0000","4152257758","4152257758","767980"
"E200301223048","Contractor","B B J   Electric, Inc","1661","Innes","Av","CA","94124-0000","4155991499","4157402854","670906"
"E200301223051","Contractor","L & L Electric","56","Flora","St","CA","94124","4158225970","4152355670","706156"
"E200301223054","Contractor","Ray Tom Construction","1362","Geneva","Av","CA","94112","4155843015","4157161088","524717"
"E200301223057","Contractor","Bay City Garage Doors","26","Escanyo","Dr","CA","94080","6509527879","6508682158","260972"
"E200301233060","Contractor","O'flynn Electric","76","Collins","St","CA","94118-0000","4156476171","4155314447","710791"
"E200301233069","Contractor","Starlite Electric  Inc.",,"Po Box 882283",,"CA","94188-0000","4156488888","4156022058","716595"
"E200301233078","Contractor","Century Design & Construction","1427","Capuchino","Av","CA","94010-0000","6503409218","4156017983","642210"
"E200301233081","Contractor","Metropolitan Electrical Construction","2400","03rd","St","CA","94107","4156423020","4156423000","401047"
"E200301233084","Contractor","Metropolitan Electrical Construction","2400","03rd","St","CA","94107","4156423020","4156423000","401047"
"E200301233087","Contractor","Otto's Construction","1102","York St, #A",,"CA","94110-0000","1453050681","4153050681","781220"
"E200301233093","Contractor","Astorga Const Company","289","Minerva","St","CA","94112-0000","4158466896","4158466896","309814"
"E200301233096","Contractor","Ferrera Electric Inc.","108","Wayland","St","CA","94134","4154682248","4158602248","355775"
"E200305208131","Contractor","Chan Electric Work","216","Thrift","St","CA","94112-0000","4155860524","4156378044","598804"
"E200305208134","Contractor","Byington Electric Corp","424","Treat","Av","CA","94110","4156216500","4157408168","253479"
"E200305208136","Contractor","Kevin Sweeney","111","Hillside","Dr","CA","94062-0000","6508514422",,"483857"
"E200305208137","Contractor","Basic Modular Facilities Inc","723","El Camino","Pz","CA","94066-0000","6503500212","4159995323","509052"
"E200305208139","Contractor","Loi Electric Company","67","Dorado","Tr","CA","94112","4157601787","4157601787","507233"
"E200305208140","Contractor","Toni's  Construction Inc","2425","16th","Av","CA","94116-0000","4156818280","4152790579","551504"
"E200305218141","Contractor","R Electric","394","Bancroft","Wy","CA","94044-0000","6503559352","4153105559","753925"
"E200305218143","Contractor","Longo Electric Inc","364","Blodgett","St","CA","94931-0000","4154312156","4157402204","525176"
"E200305218144","Contractor","Longo Electric Inc","364","Blodgett","St","CA","94931-0000","4154312156","4157402204","525176"
"E200305218146","Contractor","Delta Electric","300","N San Mateo","Dr","CA","94401","6503479090","4156991844","313147"
"E200305218147","Contractor","Wung Wah Construction Co","2110","22nd","Av","CA","94116-0000","4152421998","4158169921","565278"
"E200305218148","Contractor","Wung Wah Construction Co","2110","22nd","Av","CA","94116-0000","4152421998","4158169921","565278"
"E200305218150","Contractor","M & M Electric Co","250","Tocoloma","Av","CA","94134-0000","4154671500","4157252832","483394"
"E200305218151","Contractor","Ace Service","2200","Cesar Chavez #4","St","CA","94010-0000","4156480411","4157202575","513238"
"E200305218152","Contractor","Grand American Construction Co","816","Victoria","St","CA","94127-0000","4157228213","4157228213","702689"
"E200305218156","Contractor","Call Us Now (Prime Electric)",,"P.o.box 1466",,"CA","94070-0000","6505921235","6504301703","759893"
"E200305218158","Contractor","T & T Electric Corp","2526","32rd","Av","CA","94116-0000","4156654098","4157134273","789346"
"E200305218159","Contractor","Wong's Electric Co *Check Id*","2902","Jennings","St","CA","94124","4158228618","4156139798","581997"
"E200305218160","Contractor","Marzullo Electric Co","9100","Bodega Highway",,"CA","95472-0000","7075680945","7076961071","430615"
"E200305218161","Contractor","Golden Gate Eletric Co","35691","Palomares","Rd","CA","94546","5108811300","5107740208","565292"
"E200305218162","Contractor","C B F Inc","675","Davis","St","CA","94111-1403","4154953085","4153857390","335873"
"E200305218163","Contractor","C B F Inc","675","Davis","St","CA","94111-1403","4154953085","4153857390","335873"
"E200305218165","Contractor","Industrial Electric Co","1155","Chess Dr #122",,"CA","94404","6503493698","6505339798","253951"
"E200305218166","Contractor","C B F Inc","675","Davis","St","CA","94111-1403","4154953085","4153857390","335873"
"E200305218167","Contractor","Astorga Const Company","289","Minerva","St","CA","94112-0000","4158466896","4158466896","309814"
"E200305218170","Contractor","Ideal Electric","2425","Ashby","Av","CA","94705-0000","5107574094","5107574094","805007"
"E200305218171","Contractor","Ike's Electric","3546","19th","St","CA","94110","4158616417","4157549787","339028"
"E200305218172","Contractor","Astorga Const Company","289","Minerva","St","CA","94112-0000","4158466896","4158466896","309814"
"E200306058807","Contractor","Paganini Electric Corp(see Signatories)","190","Hubbell","St","CA","94107","4155753900",,"309677"
"E200306058808","Contractor","Paganini Electric Corp(see Signatories)","190","Hubbell","St","CA","94107","4155753900",,"309677"
"E200306058809","Contractor","Celtic Electric","318","Channing","Rd","CA","94010-4748","4157244545","4157244545","499258"
"E200306058810","Contractor","Celtic Electric","318","Channing","Rd","CA","94010-4748","4157244545","4157244545","499258"
"E200306058811","Contractor","Le Shan Luo Electric","143","Madison","St","CA","94134-0000","4157881088","4159908113","623557"
"E200306058813","Contractor","Loi Electric Company","67","Dorado","Tr","CA","94112","4157601787","4157601787","507233"
"E200306058814","Contractor","Tim Grogan Builders Inc","348","Todd B","Rd","CA","95407-0000","7075861350","7079749378","692820"
"E200306058815","Contractor","M And K Electric Company","1334","39th","Av","CA","94122","4157598247","4157165969","583287"
"E200306068816","Contractor","Tri Valley Door Systems Inc","1912","02nd St",,"CA","94550-0000","9253710496",,"733575"
"E200306068817","Contractor","Lai's E & H Electric Inc.","1766","40th","Av","CA","94122","4157596878","4158507722","659426"
"E200306068818","Contractor","Mal Rogers Electric","201","Laidley","St","CA","94131-0000","4156471817","4155192780","701032"
"E200306068820","Contractor","Lai's E & H Electric Inc.","1766","40th","Av","CA","94122","4157596878","4158507722","659426"
"E200306068821","Contractor","Mal Rogers Electric","201","Laidley","St","CA","94131-0000","4156471817","4155192780","701032"
"E200306068822","Contractor","Mal Rogers Electric","201","Laidley","St","CA","94131-0000","4156471817","4155192780","701032"
"E200306068829","Contractor","City Overhead Doors Inc.","5976","Mission","St","CA","94112","6507564226",,"292393"
"E200306068830","Contractor","D C S  Construction Services Inc","160","Pixley","St","CA","94123","4159319365","4159877572","427457"
"E200306068831","Contractor","R & S Erection Of S F Inc","715","Cesar Chavez","St","CA","94124","4159817590",,"411190"
"E200306068832","Contractor","Tak Tam Electric Co","1383","22nd","Av","CA","94122","4156819585","4159398210","416921"
"E200306068833","Contractor","Sasco",,"Pier 28 At Embarcadero 2/f Mailbox #12",,"CA","94105-0000","4082737216","4082063241","583536"
"E200306068837","Contractor","Rortech Electric","60","Oakmont","Av","CA","94901-0000","4154997704","4153027812","500138"
"E200301072505","Contractor","Canning Electric Inc","1228","Folsom","St","CA","94103-0000","4157539335","4153109103","710973"
"E200301092649","Contractor","Inter  Electric","872","Navaronne","Wy","CA","94518-0000","9253635358","4158506374","734067"
"E200301092652","Contractor","Inter  Electric","872","Navaronne","Wy","CA","94518-0000","9253635358","4158506374","734067"
"E20021104261","Contractor","Canning Electric Inc","1228","Folsom","St","CA","94103-0000","4157539335","4153109103","710973"
"E200301223009","Contractor","Canning Electric Inc","1228","Folsom","St","CA","94103-0000","4157539335","4153109103","710973"
"E200302284650","Contractor","Rudolph Caler/lumen Electric","1418","Bradley","Av","CA","94401","4153486014","4155591537","729477"
"E200306028621","Contractor","Ges/tse Electrical Svrc",,"601c Dna Way",,"CA","94080-0000","5102595376",,"730029"
"E200306028622","Contractor","Ges/tse Electrical Svrc",,"601c Dna Way",,"CA","94080-0000","5102595376",,"730029"
"E200303034719","Contractor","Ges/tse Electrical Svrc",,"601c Dna Way",,"CA","94080-0000","5102595376",,"730029"
"E200301233075","Contractor","Cps Signs",,"7730 Enterprises Dr.",,"CA","94560","5107932471",,"689320"
"E200301092643","Contractor","Kin Construction","82","Tingley","St","CA","94112-0000","4152392126",,"713714"
"E200301233090","Contractor","Hercules Builders","1485","Bayshore Bl",,"CA","94124-0000","5107246774",,"612983"
"E200301092655","Contractor","Mega Electric ** Check I.d.**",,"P.o. Box 31732",,"CA","94131","4154697799","4157607440","734066"
"E200301092661","Contractor","Mega Electric ** Check I.d.**",,"P.o. Box 31732",,"CA","94131","4154697799","4157607440","734066"
"E200303034695","Contractor","Matrix Seismic Corp","291","Geary","St","CA","94102-0000","4156526025","4156526025","719187"
"E20021106405","Contractor","Matrix Seismic Corp","291","Geary","St","CA","94102-0000","4156526025","4156526025","719187"
"E200306068834","Contractor","Trans -City Construction","159","Judson","Av","CA","94112","4155871229","4152608308","706911"
"E200302284614","Contractor","Building Silhouetts","764","Almond","Av","CA","94080","4152259877","4152259877","518841"
"E200612183827","Contractor","Bolt Elec & Lght Svcs Inc","1670","Alvarado","St","CA","94577","5103521575","5103768583","656706"
"E200306048711","Contractor","Kwong Electric & Alarm","338","N Canal","St","CA","94080-0000","4158502566","4158502566","656474"
"E200303034674","Contractor","M T Electric","765","Humboldt","Rd","CA","94005","4154684623","4154202252","544527"
"E200306048750","Contractor","Lung Fung  Const & Elec Co","50","Seal Rock","Dr","CA","94121","4152211238","4159991238","543950"
"E200303034698","Contractor","Earthquake Enterprises Inc
Dba Hethering","4200","California St., Ste. 111",,"CA","94118","4157509595","4158504310","664033"
"E200303034701","Contractor","Ks Channing Road Electric","18","Channing","Rd","CA","94010-0000","6503445664","4158501800","604827"
"E200303034704","Contractor","S & W  Electric  Inc.","1663","34th","Av","CA","94122-0000","4155046893","4159909135","614654"
"E20021106369","Contractor","S & W  Electric  Inc.","1663","34th","Av","CA","94122-0000","4155046893","4159909135","614654"
"E20021106372","Contractor","S & W  Electric  Inc.","1663","34th","Av","CA","94122-0000","4155046893","4159909135","614654"
"E200301152847","Contractor","S & W  Electric  Inc.","1663","34th","Av","CA","94122-0000","4155046893","4159909135","614654"
"E200306048770","Contractor","S & W  Electric  Inc.","1663","34th","Av","CA","94122-0000","4155046893","4159909135","614654"
"E200301212985","Contractor","S & W  Electric  Inc.","1663","34th","Av","CA","94122-0000","4155046893","4159909135","614654"
"E200305218168","Contractor","S & W  Electric  Inc.","1663","34th","Av","CA","94122-0000","4155046893","4159909135","614654"
"E200305218169","Contractor","S & W  Electric  Inc.","1663","34th","Av","CA","94122-0000","4155046893","4159909135","614654"
"E200303034722","Contractor","Tai Lam Mak","1310","Murchison Dr",,"CA","94030-0000","4158236691","4158236691","467912"
"E200306048749","Contractor","Amco Construction Co.","16175","Via Chiquita","St","CA","94580-0000","4158068208",,"468574"
"E200306048752","Contractor","W L Electrical Co","3300","Vicente","St","CA","94116","4157316929","4158591580","469778"
"E20021114681","Contractor","Tai Lam Mak","1310","Murchison Dr",,"CA","94030-0000","4158236691","4158236691","467912"
"E200303044743","Contractor","Rathmore Electric","282","Richards","Bl","CA","95476-0000","4157161875","4157161875","748367"
"E200306068823","Contractor","Rathmore Electric","282","Richards","Bl","CA","95476-0000","4157161875","4157161875","748367"
"E200303044752","Contractor","Jin Mong Construction Inc","672","Lisbon St",,"CA","94112-0000","4157268866",,"806393"
"E200303044755","Contractor","Spiteri Builders Corp.","989","Shasta","St","CA","94063-0000","6504553506","6504553506","653707"
"E200305218145","Contractor","L.g. Construction Co.,inc","1032","Irving","St","CA","94122-0000","4158101802","4158101802","656193"
"E200303054791","Contractor","Prestige Electric","91","West Tenth Street",,"CA","94565-0000","6508720277","6505205049","811542"
"E200301172931","Contractor","Honeywell International, Inc","2603","Camino Ramon Ste 200",,"CA","94583-0000","5102652016","5105890694","809777"
"E200301223045","Contractor","Micheletti  Electrical Inc","151","Alice B Toklas","Pl","CA","94109-0000","4157402317","4157402317","811546"
"E200306038676","Contractor","Norcal Electric","936","Detroit","Av","CA","94518-0000","9258080122","9254519292","780957"
"E200306038677","Contractor","Norcal Electric","936","Detroit","Av","CA","94518-0000","9258080122","9254519292","780957"
"E200306038685","Contractor","Corporate Interior Solutions","25546","Seaboard","Ln","CA","94545-0000","5106708800","5107739039","776470"
"E200306038693","Contractor","G P Electric Inc","285","Castenada","Dr","CA","94030-0000","6503039280","6503039280","698946"
"E200306038694","Contractor","G P Electric Inc","285","Castenada","Dr","CA","94030-0000","6503039280","6503039280","698946"
"E20021104285","Contractor","Best Value Electrical","276","Seneca","Av","CA","94112","4155847706","4157137621","695383"
"E200305218173","Contractor","Best Value Electrical","276","Seneca","Av","CA","94112","4155847706","4157137621","695383"
"E200306048700","Contractor","3d Remodeling Inc",,"P.o.box 2812",,"CA","94551-0000","9254495477",,"459683"
"E200301132763","Contractor","Curtis Electrical Co.","1220","Tuolumne Road",,"CA","94030-0000","4153088789","4153088789","725968"
"E20021107477","Contractor","Curtis Electrical Co.","1220","Tuolumne Road",,"CA","94030-0000","4153088789","4153088789","725968"
"E200306048708","Contractor","Sparky's Electric","915","Cayuga","Av","CA","94112-0000","4157327917","4155057923","770194"
"E200306048719","Contractor","Shamrock Electrical Services","3615","Reposo","Wy","CA","94002-0000","6508028629","6502450464","771716"
"E20021112570","Contractor","Platinum Electric Inc","945","Taraval","St","CA","94116-0000","4156434649","4088385990","760914"
"E200301152838","Contractor","Property Mgmnt Merchandisea","308","Jessie","St","CA","94103-0000","4152849000","4157203645","764415"
"E200303105002","Contractor","Edward Fitzgerald Electric","436","Miller Creek","Rd","CA","94903-0000","4152527546","4157403161","768826"
"E200301233066","Contractor","Edward Fitzgerald Electric","436","Miller Creek","Rd","CA","94903-0000","4152527546","4157403161","768826"
"E200306048709","Contractor","Yeung Kong Electric","2928","Fulton","St","CA","94118-0000","4157525451","4152155231","472255"
"E20021105327","Contractor","Yeung Kong Electric","2928","Fulton","St","CA","94118-0000","4157525451","4152155231","472255"
"E200303104975","Contractor","Yeung Kong Electric","2928","Fulton","St","CA","94118-0000","4157525451","4152155231","472255"
"E20021104264","Contractor","Derek Rock","3730","Castaic","Ct","CA","95691-0000","4152607880","4152607880","805003"
"E200306058775","Contractor","Derek Rock","3730","Castaic","Ct","CA","95691-0000","4152607880","4152607880","805003"
"E200305218157","Contractor","Nevis Electric","423","Linda","Av","CA","94611-0000","5109239823",,"793661"
"E20021104279","Contractor","Elliott Remodeling","2808","School","St","CA","94602-2710","5105340780","4156014938","603227"
"E20021105300","Contractor","Aspire Construction","4045","Miller","Wy","CA","95817-0000","9164526364",,"640679"
"E20021106384","Contractor","Complete Decon, Inc","4690","East 2nd St #3",,"CA","94510-0000","7075903229",,"650353"
"E20021105303","Contractor","F R M Builders","1725","Alemany","Bl","CA","94112","4158672898","4158672898","633561"
"E20021105309","Contractor","Huey Const Mngmt Co Inc - Dba M H Const.","2000","Oakdale","Av","CA","94124-0000","4155589778","4152710631","575228"
"E20021105312","Contractor","Stewart Cheung Const","1277","41st","Av","CA","94122","4156656391","4156990235","362539"
"E20021106402","Contractor","Bay Area Technical Electric","198","Dutton","Av","CA","94577-0000","5104308083","5106826187","802116"
"E200301102709","Contractor","Economy Electric Service",,"735 Hickey Blvd #500",,"CA","94044","4155850513","4154123847","488745"
"E200303064863","Contractor","So Electric","81","Lyell","St","CA","94112-0000","4158109376","4158109376","492576"
"E200301162895","Contractor","Shanahan Electric","151","Holmes","Av","CA","94903","4154791929","4152181929","488137"
"E200301132727","Contractor","Rortech Electric","60","Oakmont","Av","CA","94901-0000","4154997704","4153027812","500138"
"E200306068835","Contractor","Rortech Electric","60","Oakmont","Av","CA","94901-0000","4154997704","4153027812","500138"
"E200306068836","Contractor","Rortech Electric","60","Oakmont","Av","CA","94901-0000","4154997704","4153027812","500138"
"E200301132733","Contractor","Fhj Electric","207","7th","Av","CA","94401-0000","6503447244","6508880240","771002"
"E200303104993","Contractor","Dirk O Madsen Door","2205","Hilltop","Dr","CA","96002-0000","8777241037",,"639439"
"E200301132769","Contractor","Giga Electric & Data Corp.","526","Maria","Dr","CA","94954-0000","7077699040","4158509650","799086"
"E200301162901","Contractor","Elite Power Inc","4200","82nd","St","CA","95826-0000",,,"807924"
"E200301212982","Contractor","European Quality Electric","37494","Glenmoor","Dr","CA","94536-0000","5104684495",,"760234"
"E200301142814","Contractor","Steiny & Co Inc","27","Sheridan","St","CA","94590","7075526900","7079801647","161273"
"E200903107456","Contractor","Iturralde Construction Co","40","Topeka Ave",,"CA","94124-0000",,,"842787"
"E200303054827","Contractor","A-Claim Builders Corporation**see Note**","6630","Highway 9",,"CA","95018-0000","8313359600","6502222806","775802"
"E200306058772","Contractor","Advanced Installation Services Llc","2855","Volpey","Wy","CA","94587-0000","5104416200","5104416200","1041776"
"E200306058773","Contractor","Advanced Installation Services Llc","2855","Volpey","Wy","CA","94587-0000","5104416200","5104416200","1041776"
"E200306058774","Contractor","Advanced Installation Services Llc","2855","Volpey","Wy","CA","94587-0000","5104416200","5104416200","1041776"
"E200303054833","Contractor","Yoho Construction","3263","20th","St","CA","94110","4156951437","4152542935","549759"
"E200306048754","Contractor","Barri Electric Company","61","Napoleon St",,"CA","94124-0000","4154686477","4157165412","799446"
"E20021107465","Contractor","Barri Electric Company","61","Napoleon St",,"CA","94124-0000","4154686477","4157165412","799446"
"E20021114729","Contractor","Eagle's General Const Co","459","Anita","Dr","CA","94030","6506474990",,"550505"
"E200303064848","Contractor","Service West Inc","2054","Burroughs","Av","CA","94577-0000","5107463700","5107144577","570176"
"E200306068824","Contractor","Service West Inc","2054","Burroughs","Av","CA","94577-0000","5107463700","5107144577","570176"
"E200306068825","Contractor","Service West Inc","2054","Burroughs","Av","CA","94577-0000","5107463700","5107144577","570176"
"E200306068827","Contractor","Service West Inc","2054","Burroughs","Av","CA","94577-0000","5107463700","5107144577","570176"
"E200306068828","Contractor","Service West Inc","2054","Burroughs","Av","CA","94577-0000","5107463700","5107144577","570176"
"E200303064851","Contractor","Built To Last",,"P.o.box 4892",,"CA","94596-0892","9253359333","9253684573","577892"
"E200301233072","Contractor","Westsun  Electric Company","1935","Monterey","Ct","CA","95051-0000","4152652233","4152652233","579800"
"E200306068826","Contractor","Acme Electric","2822","Matthews","St","CA","94702-0000",,,"575840"
"E200303064896","Contractor","Sun Electric Systems  ***See Notes***","608","Campbell","Av","CA","94134-0000","4152859725",,"417061"
"E200303074902","Contractor","E L Electrical Co","2101","Bayshore","Bl","CA","94134","4154686161","4159716721","589005"
"E200303074905","Contractor","E L Electrical Co","2101","Bayshore","Bl","CA","94134","4154686161","4159716721","589005"
"E200306058778","Contractor","Midland Electric",,"P. O. Box 3746",,"CA","94064","6503659666","6503331248","590314"
"E20021113678","Contractor","Midland Electric",,"P. O. Box 3746",,"CA","94064","6503659666","6503331248","590314"
"E200303074915","Contractor","Summit Construction","407","Bonnie","St","CA","94014-0000","4157590885","4157590885","651908"
"E200303074924","Contractor","Woodstone Construction","1965","Market","St","CA","94103","4156269944","4157409565","710759"
"E20021114693","Contractor","John O Connor","49","Rockway","Av","CA","94127","4156642930","4157249771","715379"
"E200303074927","Contractor","Emmaneel &  Son","1795","El Camino Real",,"CA","94030","6509911462","6504380524","545147"
"E200701314780","Contractor","Zone 4 Power Inc","338","North Canal","St","CA","94080-0000","6505833744","6502221264","797500"
"E200306048717","Contractor","Oliveira Sign Service","290","So Jefferson","St","CA","95620",,,"492533"
"E200306048740","Contractor","Zeus Electric *Check For I.d*",,"Po Box 140","Rd","CA","94070-0000","6505914343","6506425057","720919"
"E200303115041","Contractor","Perera Electric","1418","1/2 Addison","St","CA","94702-0000","5107040904","5108125804","577036"
"E20021107489","Contractor","W & J Plumbing Co.","1346","26th","Av","CA","94122","4155645796","4155093732","486546"
"E20021112540","Contractor","Certified Electric Incorporated","14781","Pomerado","Rd","CA","92064-0000","8005211495","4155736592","789089"
"E20021112555","Contractor","Certified Electric Incorporated","14781","Pomerado","Rd","CA","92064-0000","8005211495","4155736592","789089"
"E20021112543","Contractor","Am-Cro Electric","1074","Haven","Av","CA","94402-0000","6502075791","6508391239","788328"
"E20021112552","Contractor","B V Electric","2400","Taraval","St","CA","94116-0000","4156669990","4156669990","760262"
"E20021112579","Contractor","Trimen Electrical Eng Inc","1190","Shafter","Av","CA","94124-0000","4156711010","4157603364","427419"
"E20021112582","Contractor","Bay West Electric, Inc.",,"P.o. Box 2266",,"CA","94621-0000","8004250566","5108675595","748871"
"E20021112588","Contractor","Bay West Electric, Inc.",,"P.o. Box 2266",,"CA","94621-0000","8004250566","5108675595","748871"
"E200306058790","Contractor","Lis Electric Inc**see Note***","3254","19th","St","CA","94110-0000","4155501850","4157404298","740165"
"E20021113627","Contractor","Logan Design & Construction","9","Prospect","Av","CA","94103-0000","4154314586","4152184295","751239"
"E200301152865","Contractor","Perfect Lighting",,"P.o. Box 160",,"CA","94914-0000","4158701121","4152509060","375126"
"E200301162907","Contractor","Barrett Brown Const",,"823 1/2 Mission","Av","CA","94901-0000","4640679",,"640318"
"E200301172949","Contractor","Robert L Mitchell General Contractor","7650","Lakeville","Hy","CA","94954-0000","7077754409","4152866258","540393"
"E200305218155","Contractor","Sunny Neon Sign System","598","Patterson","Bl","CA","94523-0000","9256749900","9253828576","753033"
"E200301212955","Contractor","M G West Co","611","Mission","St","CA","94105-0000","4154307214","4158063353","006531"
"E200303074960","Contractor","Trevor Doherty Electric Inc","1653","Alabama","St","CA","94110-0000","4158269353","4157252291","804614"
"E200303104969","Contractor","M. C. Electric","1962","36th","Av","CA","94116-0000","4156812845","4158197030","688182"
"E200301212994","Contractor","Myles Davis Electric Inc","3041","California Blvd Ste B",,"CA","94558-0000","8008463900","7076883391","735016"
"E200303105005","Contractor","Electric Bill's Company Inc","483","Las Colindas","Rd","CA","94903","4154911881","4152798100","332309"
"E200303105008","Contractor","M G Electric","137","Ashton","Av","CA","94112-0000","4153344898","4153364079","812531"
"E200303115032","Contractor","T D I Systems Furniture Inc","4020","Clipper","Ct","CA","94538-0000","4087330202","4086398891","799879"
"E20021113615","Contractor","Power Plus Temporary Utility Service","681","Parker","St","CA","92868-0000","9165031073","7072270872","523596"
"E200306058780","Contractor","David W Searcy Dba Dad's Construction Co","150","Carmel","Av","CA","94044-0000",,,"662177"
"E200306058789","Contractor","Kum Lun Wong Construction","683","6th","Av","CA","94118","4157510568","4155096678","284664"
"E200306058795","Contractor","Fire & Security & Alarm Co/ F.s.a.c.","1552","Beach","St","CA","94608-0000","5104289194","5106931111","690774"
"E200306058796","Contractor","Robert Howard Builders Inc.","562","Ellsworth","St","CA","94110-0000","4156435579","4156137448","717914"
"E20021113672","Contractor","Pacific    Services",,"Po Box   1491",,"CA","95061","8314598669","8313328669","711126"
"E20021113660","Contractor","Lam Fai Construction Corp License Suspen","6316","California","St","CA","94121-0000","4158671169","4158671169","788234"
"E20021113663","Contractor","Kill-A-Watt Energy Management","4268","22nd","St","CA","94114","4152824770","4155966741","528407"
"E20021113666","Contractor","Kill-A-Watt Energy Management","4268","22nd","St","CA","94114","4152824770","4155966741","528407"
"E20021113669","Contractor","Kamco","7","Atlantic","Av","CA","94066","6508712957",,"609594"
"E20021114687","Contractor","Kamco","7","Atlantic","Av","CA","94066","6508712957",,"609594"
"E20021114690","Contractor","Kamco","7","Atlantic","Av","CA","94066","6508712957",,"609594"
"E200305208132","Contractor","Wei Suen","1542","39th","Av","CA","94122","4158679093","4158679093","611177"
"E20021114696","Contractor","Jb Builders","520","26th","Av","CA","94121","4157514551","4158060876","526279"
"E20021114720","Contractor","Great Wall, Inc.",,"P.o. 347015",,"CA","94134-0000","4157532912","4152973228","501908"
"E20021114723","Contractor","St. Francis Construction","1684","Page","St","CA","94117","4156261079",,"422783"
"E20021114735","Contractor","Perez Construction","3355","Rubin","Dr","CA","94602-0000","5102680882","5107731345","553852"
"E20021114744","Contractor","Hawk N Lee Co","1609","Noriega","St","CA","94122","4156816325","4158231685","324708"
"E200301233102","Contractor","Cresci Electric Inc.",,"Pier 50 B Mailbox #16",,"CA","94107-0000","4153102144","4153415309","287343"
"E200305208133","Contractor","Cresci Electric Inc.",,"Pier 50 B Mailbox #16",,"CA","94107-0000","4153102144","4153415309","287343"
"E200305218142","Contractor","Gill's Electric Company Inc.","909","7th","St","CA","94607-0000","5104512929","5107730098","195222"
"E200305218149","Contractor","3- Way Electric",,"2715 San Bruno Ave.",,"CA","94134","6504018407","6503030435","730764"
"E200305218153","Contractor","Hein Lighting & Electric","5030","Blum","Rd","CA","94553-0000","9259391528","9257666229","651358"
"E200305218154","Contractor","Alert Door Service Inc","925","North Amphlett","Bl","CA","94401-0000","6503427521","6502085012","398025"
"E200305218164","Contractor","Dawning Electric Co","1639","15th","Av","CA","94122","4157532816","4153080088","317646"
"E200306068838","Contractor","David M Leitch",,"P O Box 3885",,"CA","94939","4154605151","4152654418","281600"
"E200306068839","Contractor","Grgich Electric Co","1690","Hayes","St","CA","94117","4154416767","4157301930","414160"
"E200306068841","Contractor","A S F Electric Inc","76","Hill","St","CA","94014","6507559032","6507559032","720540"
"E200306068842","Contractor","A S F Electric Inc","76","Hill","St","CA","94014","6507559032","6507559032","720540"
"E200306068843","Contractor","Leo's Electric Company","281","Oxford","St","CA","94134-0000","4155873669","4158288225","510550"
"E200306068844","Contractor","K Y J Construction Company","2379","31st","Av","CA","94116-0000","4155660728","4152607536","781240"
"E200306068845","Contractor","Shanahan Electric","151","Holmes","Av","CA","94903","4154791929","4152181929","488137"
"E200306068847","Contractor","Shanahan Electric","151","Holmes","Av","CA","94903","4154791929","4152181929","488137"
"E200306068848","Contractor","Jimmy's Electric","2276","18th","Av","CA","94116-0000","4155661888","4157608238","411108"
"E200306068849","Contractor","Jimmy's Electric","2276","18th","Av","CA","94116-0000","4155661888","4157608238","411108"
"E200306068850","Contractor","Jimmy's Electric","2276","18th","Av","CA","94116-0000","4155661888","4157608238","411108"
"E200306068851","Contractor","Jimmy's Electric","2276","18th","Av","CA","94116-0000","4155661888","4157608238","411108"
"E20021115750","Contractor","Young Electric Co","195","Erie","St","CA","94103-0000","4156483355","4152308622","390749"
"E20021115756","Contractor","Wen Ben Wang","2130","25th","Av","CA","94116-0000","4156829072","4156995492","770474"
"E20021115759","Contractor","E.j. Builders","300","Quintara Street",,"CA","94116-0000","4153334787","4153707386","637491"
"E20021115765","Contractor","G L Construction Company","266","Girard","St","CA","94134-0000","4153309181","4157135400","755010"
"E20021115768","Contractor","Ward-Tek Inc.","325","Old County","Rd","CA","94002-0000","6506317383","6502699098","458614"
"E20021115771","Contractor","Veterans Electric","494","29th","Av","CA","94121-0000","4156723176","4156723176","748879"
"E20021115774","Contractor","Cliff Russell**see Note***","3580","Greenhill","Rd","CA","95404-0000","7075421632","4158471813","804972"
"E20021115777","Contractor","Superior Electric Inc","1031","Serpentine","Ln","CA","94566-0000","9254854460","9255255218","758120"
"E20021115780","Contractor","Intelligent Technologies & Services Inc","1031","Serpentine","Ln","CA","94566-4799","9254843701","9255255242","592289"
"E20021115783","Contractor","Construction Technologies","493","Norfolk","Dr","CA","944044","6503598986","6502966890","747199"
"E20021115789","Contractor","S W Electric Co","100","Pinehurst","St","CA","94127-0000","4153085197","4153375322","762831"
"E20021115795","Contractor","Kamco","7","Atlantic","Av","CA","94066","6508712957",,"609594"
"E20021118798","Contractor","Mc Millan Electric","1950","Cesar Chavez","St","CA","94124-0000","4158265100","4150000000","268179"
"E20021118801","Contractor","B B J   Electric, Inc","1661","Innes","Av","CA","94124-0000","4155991499","4157402854","670906"
"E20021118804","Contractor","B B J   Electric, Inc","1661","Innes","Av","CA","94124-0000","4155991499","4157402854","670906"
"E20021118807","Contractor","Min's Electric Inc","810","46th","Av","CA","94121-0000","4156098588","4156098588","761414"
"E20021118810","Contractor","T & T Electric Corp","2526","32rd","Av","CA","94116-0000","4156654098","4157134273","789346"
"E20021118813","Contractor","Service West Inc","2054","Burroughs","Av","CA","94577-0000","5107463700","5107144577","570176"
"E20021118816","Contractor","Mal Waters Electrical",,"P. O. Box 1341",,"CA","94044","6503593860","4152255756","495619"
"E20021118819","Contractor","Y D Construction Co. Inc.","120","Gordon","Wy","CA","94044-0000","4159710789","4159710789","780263"
"E20021118822","Contractor","Core Communications, Inc.","562","E. Weddell","Dr","CA","94089-0000",,,"662511"
"E20021118825","Contractor","Core Communications, Inc.","562","E. Weddell","Dr","CA","94089-0000",,,"662511"
"E20021118828","Contractor","Core Communications, Inc.","562","E. Weddell","Dr","CA","94089-0000",,,"662511"
"E20021118831","Contractor","Core Communications, Inc.","562","E. Weddell","Dr","CA","94089-0000",,,"662511"
