"Agency, Board, Commission, Branch",Meeting Title,Short Description,Start Date & Time,End Date & Time,Meeting Location,City,State,Details,Public Comment Accepted,Contact Name,Phone Number,Contact Email,Web Link (optional),Map Link,Calendar Link,ADA Contact,ADA Contact Phone,ADA Contact Email,Webinar/Webcast?,Webinar/Webcast Link,Public Call-In Number,Call-in Access Code,Agenda URL,Owner,Agenda Upload,Map Location,Weblink to Meeting Minutes/Summaries,2010 House Districts,2010 Senate Districts,Counties
Oregon State Weed Board,Oregon State Weed Board Meeting,OSWB Grant Winter Meeting,02/19/2014 08:30:00 AM,02/20/2014 12:00:00 PM,"Oregon Deparment of Agriculture, 635 Capitol Street NE,Basement Hearings Room", Salem,OR,The board will be awarding noxious weed control grants and considering adjustments to the state noxious weed list.,Yes,Jo Davis,503-986-4621,jdavis@oda.state.or.us,,,,Jo Davis,503-986-4621,jdavis@oda.state.or.us,,,,,http://www.oregon.gov/ODA/PLANT/WEEDS/Pages/index.aspx,tristen.l.berg@state.or.us,,,,,,
Oregon State Weed Board,Oregon State Weed Board Meeting,OSWB Fall Meeting,09/20/2012 08:30:00 AM,09/20/2012 04:30:00 PM,"The Dalles Inn, 112 W 2nd Street",The Dalles,OR,"<p>The Dalles Inn, 112 W 2<span style=""font-family:helvetica;""><span style=""font-family:helvetica;"">nd </span></span><span>Street,The Dalles, OR 97058</span></p>
<p>. September 20 8:30 am to 4:30 pm</p>",,Jo Davis,(503) 986-4757,jdavis@oda.state.or.us,,,,Jo Davis,(503) 986-4757,jdavis@oda.state.or.us,,,,,,tristen.l.berg@state.or.us,,,,,,
Oregon State Weed Board,Oregon State Weed Board Meeting,Oregon State Weed Board Summer Meeting,08/08/2013 08:00:00 AM,08/09/2013 01:30:00 PM,"Chateau at the Oregon National Caves, 20000 Caves Hwy", Cave Junction,OR,"August 8, 2013 
Chateau at the Oregon National Caves, 20000 Caves Hwy, Cave Junction, OR 97523
7:30 a.m. Gather and coffee
8:00 Welcome and Introductions – Jim Harris, OSWB Chairman
8:05 Approval of February 2013 Meeting Minutes
8:15 ODA Program Update, Tim Butler, ODA
8:45 SouthCentral Project Update, Mike Crumbrine, ODA
9:00 Illinois knotweed Project, Tim Leyba, CEEN
9:20 Tour Info and Logistics – Carri Pirosko, ODA
9:30-11:00 Weed Board Break-Out Sessions
11:00 Meet in Chateau parking lot, depart for Alyssum Field Tour
12:00 LUNCH Lunch upon arrival at Illinois Valley Airport, Smoke Jumper Hall
Lunch presentation, The Alyssum Story, Team Alyssum Partners
1:15 Alyssum Tour Stop #1, Airport, speakers: ODA-Suzanne,Carri, and others
2:30 Alyssum Tour Stop #2, TNC, Speakers: Gordon Lyford, Molly Morison
3:30 Alyssum Tour Stop #3, Private Landowner Field, TBA
4:15 Barbed goatgrass Stop #4, Wayside Botanical Garden, Speaker: Carri Pirosko
4:45 DEPART for Grants Pass, lodging at Riverside Inn, 986 SE 6th St, Grants Pass

Friday, August 9, 2013
BLM, Grants Pass Interagency Office, 2164 NE Spalding Ave, Grants Pass, OR 97526
8:00 a.m. Welcome and Introductions – Jim Harris, OSWB Chairman
8:15 Douglas County Weed Grant projects, Chrissy Morgan
9:00 Yellow floating heart, Barb Mumblo (pending)
9:20 BREAK Break
9:30 Juniper Update from the Eastside (pending)
10:00 Depart for Garlic Mustard Tour, Tom Pearce Park, 3700 Pearce Park Rd, Grants Pass
10:30 Garlic Mustard Weed Grant Project– Jackson/Josephine CWMA Partners
11:30 Aquatic Weeds of SW Oregon Grant Project- Josephine SWCD, Chris Pirosko
12:30 LUNCH Lunch for staff and speakers at Tom Pearce Park Picnic Shelter
1:30 State Weed Board Meeting Adjourn.
",,Jo Davis,503-986-4621,jdavis@oda.state.or.us,,,,Jo Davis,503-986-4621,jdavis@oda.state.or.us,,,,,,tristen.l.berg@state.or.us,,,,,,
Oregon State Weed Board,Winter Meeting ,Oregon State Weed Board Meeting,02/25/2013 08:00:00 AM,02/26/2013 12:00:00 PM,"Oregon Department of Agriculture, Basement Hearings Rm, 635 Capitol Street NE", Salem,OR,"Winter meeting of the Oregon State Weed Board and grant review.

2/25/13 from 8:00am to 5:00pm
2/26/13 from 8:00am to 12:00pm",,Jo Davis,(503) 986-4757,jdavis@oda.state.or.us,,,,Jo Davis,(503) 986-4757,jdavis@oda.state.or.us,,,,,,tristen.l.berg@state.or.us,,,,,,
