"full_library_name","address","county","type_of_library","mailing_address","phone_number","fax_number","email_address","website","library_system_membership","geo_address","full_address"
"Yamhill County Law Library","536 NE 5th St., McMinnville, OR 97128","Yamhill","Special","535 NE 5th St., McMinnville, OR 97128","(503) 434-7444",,"library@co.yamhill.or.us",,,"POINT (-123.193522 45.211433)","POINT (-123.193522 45.211433)"
"Multnomah County Library - Woodstock Library","6008 SE 49th Ave, Portland, OR 97206","Multnomah","Public",,"(503)988-5123","(503)988-5173",,,"NONE","POINT (-122.612413 45.478859)","POINT (-122.612413 45.478859)"
"Baker County Public Library - Haines Branch Library","818 Cole St., Haines, OR 97833","Baker","Public",,"(541) 856-3309",,"haines@bakerlib.org",,"NONE","POINT (-117.937906 44.912858)","POINT (-117.937906 44.912858)"
"Winston Library","440 SE Grape Ave, Winston, OR 97496","Douglas","Public","PO Box 638, Winston, OR 97496","(541) 679-5501",,,"https://winslibrary.com/","NONE","POINT (-123.407187 43.116061)","POINT (-123.407187 43.116061)"
"George Fox University - Murdock Learning Resource Center","416 N Meridian St., Newberg, OR 97132-2698",,"Academic",,"503-554-2410","503-554-3599",,"http://library.georgefox.edu/",,"POINT (-122.970549 45.303586)","POINT (-122.970549 45.303586)"
"Josephine Community Library District - Illinois Valley Branch Library","209 West Palmer, Cave Junction, OR 97523","Josephine","Public","200 NW C Street, Grants Pass, OR 97526","541-592-4778",,,"http://www.josephinelibrary.org","NONE","POINT (-123.647687 42.168361)","POINT (-123.647687 42.168361)"
"Jackson County Library Services Business Office","205 South Central Ave., Medford, OR 97501","Jackson","Public",,"(541) 774-8679","(541) 774-6748","info.@jcls.org","http://www.jcls.org",,"POINT (-122.870122 42.324345)","POINT (-122.870122 42.324345)"
"Benton County Law Library","559 NW Monroe Avenue, Corvallis, OR 97330","Benton","Special","Sunset Building, 4077 SW Research Way, Corvallis, OR 97333","(541) 766-6673",,"martha.a.jenkins@co.benton.or.us","http://www.co.benton.or.us/boc/law_library.php",,"POINT (-123.263818 44.565082)","POINT (-123.263818 44.565082)"
"Jefferson County Library District","241 SE 7TH St, Madras, OR 97741-1610","Jefferson","Public","241 SE 7th St, Madras, OR 97741","(541) 475-3351","(541) 475-7434","library@jcld.org","http://www.jcld.org","NONE",,
"Klamath County Library - Bonanza Branch Library","31703 HIGHWAY 70, Bonanza, OR 97623","Klamath","Public","PO Box 218, Bonanza, OR 97623","(541) 545-6944","(541) 545-6944","bonanzastaff@klamathlibrary.org","http://www.klamathlibrary.org","NONE",,
"Banks Public Library","42461 NW Market St, Banks, OR 97106","Washington","Public","42461 NW Market St, Banks, OR 97106","(503) 324-1382","(503) 324-7017",,"http://www.wccls.org","WCCLS","POINT (-123.113802 45.619679)","POINT (-123.113802 45.619679)"
"Multnomah County Library - Sellwood-Moreland Library","7860 SE 13th Ave, Portland, OR 97202","Multnomah","Public",,"(502) 988-5123",,,"https://multcolib.org/","NONE","POINT (-122.652993 45.467789)","POINT (-122.652993 45.467789)"
"Warrenton Community Library","160 S. Main Ave, Warrenton, OR 97146","Clatsop","Public","PO Box 250, Warrenton, OR 97146","(503) 861-8156",,"warrentoncl@gmail.com","http://www.warrentonlibrary.org","NONE","POINT (-123.924954 46.16421)","POINT (-123.924954 46.16421)"
"Oregon Historical Society Research Library","1200 SW Park Avenue, Portland, OR 97205","Multnomah","Special","1200 SW Park Avenue, Portland, OR 97205","(503) 306-5240",,"libreference@ohs.org","http://ohs.org",,"POINT (-122.68247 45.516149)","POINT (-122.68247 45.516149)"
"Klamath County Library - Chemult Branch Library","120 Damon Street, Chemult, OR 97731","Klamath","Public","PO Box 155, Chemult, OR 97731","(541) 365-2412","(541) 365-2412","chemultstaff@klamathlibrary.org","http://www.klamathlibrary.org","NONE","POINT (-121.783663 43.214986)","POINT (-121.783663 43.214986)"
"Pendleton Public Library","502 SW Dorion Ave, Pendleton, OR 97801","Umatilla","Public","502 SW Dorion Ave, Pendleton, OR 97801","(541) 966-0380","(541) 966-0382","jennifer.costley@ci.pendleton.or.us","https://pendleton.or.us/library","UCSLD","POINT (-118.791573 45.670235)","POINT (-118.791573 45.670235)"
"Oregon Trail Library District","200 S Main St, Boardman, OR 97818","Morrow","Public","PO Box 849, Boardman, OR 97818","(541) 481-2665","(541) 481-2668","kstreet@otld.org","https://www.otld.org/","NONE","POINT (-119.700766 45.835036)","POINT (-119.700766 45.835036)"
"Linn-Benton Community College","6500 SW Pacific Blvd., Albany, OR 97321-3774","Linn","Academic",,"541-917-4638","541-917-4692","libref@linnbenton.edu","http://library.linnbenton.edu",,"POINT (-123.109852 44.588423)","POINT (-123.109852 44.588423)"
"Baker County Public Library - Sumpter Branch Library","245 S Mill St, Sumpter, OR 97877","Baker","Public","PO Box 67, Sumpter, OR 97877","(541) 894-2253",,"sumpter@bakerlib.org",,"NONE","POINT (-118.201849 44.744206)","POINT (-118.201849 44.744206)"
"Bushnell University - E P Kellenberger Library","1188 Kincaid, Eugene, OR 97401-3727","Lane","Academic","828 East 11th Ave., Eugene, OR 97401","541-684-7235","541-684-7333","librarian@bushnell.edu","https://www.bushnell.edu/academics/library/",,"POINT (-123.078634 44.046761)","POINT (-123.078634 44.046761)"
"Klamath County Library - Chiloquin Branch Library","140 S 1st Ave, Chiloquin, OR 97624","Klamath","Public","PO Box 666, Chiloquin, OR 97624","(541) 783-3315","(541) 783-3315","chiloquinstaff@klamathlibrary.org","http://www.klamathlibrary.org","NONE","POINT (-121.863551 42.575566)","POINT (-121.863551 42.575566)"
"Oakland Public Library","637 NE Locust St, Oakland, OR 97462","Douglas","Public",,"(541) 459-9784",,"libraryclerk.oaklandcitylibrary@gmail.com","https://oaklandor.biblionix.com/catalog/","NONE","POINT (-123.294031 43.423767)","POINT (-123.294031 43.423767)"
"Molalla Public Library","201 E Fifth St, Molalla, OR 97038","Clackamas","Public","PO Box 1289, Molalla, OR 97038","(503) 829-2593","(503) 759-3486","moref@lincc.lib.or.us","http://www.cityofmolalla.com/library","LINCC","POINT (-122.57745 45.143719)","POINT (-122.57745 45.143719)"
"Albany Public Library","2450 14th Avenue SE, Albany, OR 97322","Linn","Public","2450 14th Avenue SE, Albany, OR 97322","(541) 917-7580","(541) 917-7586","AskAlbany@cityofalbany.net","http://library.cityofalbany.net","NONE","POINT (-123.075018 44.628636)","POINT (-123.075018 44.628636)"
"Gutenberg College","1883 University Street, Eugene, OR 97403","Lane","Academic",,"541-683-5141","541-683-6997",,"http://www.gutenberg.edu/student_life/library_services.php",,"POINT (-123.074674 44.039165)","POINT (-123.074674 44.039165)"
"Columbia Gorge Community College Library","400 E Scenic Drive, The Dalles, OR 97058-3434","Wasco","Academic",,"541-506-6081","541-506-6082","library@cgcc.edu","http://www.cgcc.edu/library",,"POINT (-121.188397 45.590932)","POINT (-121.188397 45.590932)"
"Lyons Public Library","279 Eighth Street, Lyons, OR 97358","Linn","Public","448 Cedar, Lyons, OR 97358","(503) 859-2366",,"lyonspl@ccrls.org","http://lyons.ccrls.org/","CCRLS","POINT (-122.613147 44.774972)","POINT (-122.613147 44.774972)"
"Confederated Tribes of Coos, Lower Umpqua & Siuslaw Tribal Library","1245 Fulton Ave., Coos Bay, OR 97420","Coos","Tribal","1245 Fulton Ave., Coos Bay, OR 97420","(541) 888-1317",,,"https://ctclusi.org/",,"POINT (-124.265368 43.383301)","POINT (-124.265368 43.383301)"
"Multnomah County Library","919 NE 19th Avenue, Suite 250, Portland, OR 97232","Multnomah","Public","919 NE 19th Avenue, Suite 250, Portland, OR 97232","(503) 988-7870","(503) 988-5441","https://multcolib.org/we-can-help-anything","http://www.multcolib.org","NONE","POINT (-122.646471 45.528303)","POINT (-122.646471 45.528303)"
"North Plains Public Library","31334 NW Commercial St., North Plains, OR 97133","Washington","Public","31360 NW Commercial St., North Plains, OR 97133","(503) 647-5051","(503) 647-5043","info@nplibrary.org","https://www.northplains.org/library","WCCLS","POINT (-122.999651 45.597654)","POINT (-122.999651 45.597654)"
"Beaverton City Library","12375 SW 5th St, Beaverton, OR 97005","Washington","Public","12375 SE 5th St, Beaverton, OR 97005","(503) 644-2197","(503) 574-3436","librarymail@beavertonoregon.gov","http://www.beavertonlibrary.org","WCCLS","POINT (-122.804195 45.48332)","POINT (-122.804195 45.48332)"
"Confederated Tribes of Grand Ronde Library","9615 Grand Ronde Road, Building L, Grand Ronde, OR 97347","Polk","Tribal","9615 Grand Ronde Road, Grand Ronde, OR 97347","503-879-1488","503 879-2286","Kathy.Cole@grandronde.org","http://www.grandronde.org/departments/education/library/",,"POINT (-123.611844 45.074677)","POINT (-123.611844 45.074677)"
"Jackson County Library Services - Rogue River Branch Library","412 E Main St, Rogue River, OR 97537","Jackson","Public",,"(541) 864-8850","(541) 864-8871","info@jcls.org","http://www.jcls.org","NONE","POINT (-123.165414 42.432924)","POINT (-123.165414 42.432924)"
"Columbia Basin Fish & Wildlife Library (fka StreamNet Library)","700 N.E. Multnomah St., Suite 515, Portland, OR 97232","Multnomah","Special","700 N.E. Multnomah St, Suite 1200, Portland, OR 97232","(503) 238-0667",,"Fishlib@critfc.org","http://www.streamnetlibrary.org",,"POINT (-122.658016 45.531498)","POINT (-122.658016 45.531498)"
"Klamath County Library - Malin Branch Library","2307 Front St, Malin, OR 97632","Klamath","Public","PO Box 525, Malin, OR 97632","(541) 723-5210","(541) 723-5210","malinstaff@klamathlibrary.org","http://www.klamathlibrary.org","NONE","POINT (-121.406894 42.013248)","POINT (-121.406894 42.013248)"
"Sandy Public Library","38980 Proctor Blvd, Sandy, OR 97055","Clackamas","Public","38980 Proctor Blvd, Sandy, OR 97055","(503) 668-5537","(503) 668-3153","saref@lincc.org","http://www.ci.sandy.or.us/library","LINCC","POINT (-122.26192 45.397297)","POINT (-122.26192 45.397297)"
"Jackson County Library Services - Gold Hill Branch Library","202 Dardanelles Street, Gold Hill, OR 97525","Jackson","Public","PO Box 258, Gold Hill, OR 97525","(541) 855-1994","(541) 855-1994","info@jcls.org","http://www.jcls.org","NONE","POINT (-123.048859 42.43141)","POINT (-123.048859 42.43141)"
"Multnomah County Library - Belmont Library","1038 SE Cesar Chavez BLVD, Portland, OR 97214","Multnomah","Public",,"503.988.5123",,,,"NONE","POINT (-122.622923 45.515215)","POINT (-122.622923 45.515215)"
"Gladstone Public Library","135 E Dartmouth, Gladstone, OR 97027","Clackamas","Public","135 E Dartmouth, Gladstone, OR 97027","(503) 656-2411","(503) 655-2438","gladstonepubliclibrary@gmail.com","http://gladstonepubliclibrary.org/","LINCC","POINT (-122.593856 45.380509)","POINT (-122.593856 45.380509)"
"Jackson County Library Services - Prospect Branch Library","150 Mill Creek Dr, Prospect, OR 97536","Jackson","Public",,"(541) 560-3668","(541) 560-3668","info@jcls.org","http://www.jcls.org","NONE","POINT (-122.488702 42.753809)","POINT (-122.488702 42.753809)"
"Glendale Community Library","190 Third Street, Glendale, OR 97442","Douglas","Volunteer","PO Box 907, Glendale, OR 97442","(541) 832-2360","(541) 832-2360",,"https://www.libraryglendale.org/","NONE","POINT (-123.427568 42.736703)","POINT (-123.427568 42.736703)"
"Monmouth Public Library","168 Ecols St. S., Monmouth, OR 97361","Polk","Public","PO Box 10, Monmouth, OR 97361","(503) 838-1932","(503) 838-3899",,"http://www.ci.monmouth.or.us/library","CCRLS","POINT (-123.231783 44.847769)","POINT (-123.231783 44.847769)"
"Emma Humphrey Library","150 A St E, Vale, OR 97918","Malheur","Public","150 A St E, Vale, OR 97918","(541) 473-3902",,"valecitylibrary@gmail.com","https://www.cityofvale.com/government/departments/emma-humphrey-library/","NONE","POINT (-117.239682 43.981893)","POINT (-117.239682 43.981893)"
"Klamath County Library - Keno Branch Library","15555 Hwy. 66, Space 8, Keno, OR 97627","Klamath","Public","PO Box 283, Keno, OR 97627","(541) 273-0750","(541) 273-0750","kenostaff@klamathlibrary.org","http://www.klamathlibrary.org","NONE","POINT (-121.93179 42.125542)","POINT (-121.93179 42.125542)"
"Lake County Library - Paisley Branch Library","513 Mill St, Paisley, OR 97636","Lake","Public","PO Box 99, Paisley, OR 97636","(541) 943-3911",,"janm@lakecountylibrary.org","http://www.lakecountylibrary.org/","NONE","POINT (-120.544083 42.693862)","POINT (-120.544083 42.693862)"
"Salem Public Library - West Salem Branch Library","395 Glen Creek Road NW, Salem, OR 97304","Marion","Public","P.O. Box 14810, Salem, OR 97309","(503) 588-6301","(503)-588-6397",,,"CCRLS","POINT (-123.048641 44.950174)","POINT (-123.048641 44.950174)"
"Portland Community College - Cascade Campus","705 N Killingsworth, Portland, OR 97217-2399",,"Academic","PO Box 19000, Portland, OR 97280-0990","971 722 5322",,"https://www.pcc.edu/library/about/people/contact/email-a-librarian/","http://www.pcc.edu/library/",,"POINT (-122.674635 45.562689)","POINT (-122.674635 45.562689)"
"Cow Creek Band of Umpqua Indians Tribal Library","2371 Stephens Street Suite 100, Roseburg, OR 97470","Douglas","Tribal","2371 Stephens Street Suite 100, Roseburg, OR 97470","(541) 672-9405",,"info@cowcreek.com","https://www.cowcreek-nsn.gov/",,"POINT (-123.352794 43.238649)","POINT (-123.352794 43.238649)"
"Scio Public Library","38957 NW 1st, Scio, OR 97374","Linn","Public","PO Box 37, Scio, OR 97374","(503) 394-3342","(503) 394-2340","lmurray.cityofscio@smt-net.com","http://ci.scio.or.us/library.htm","NONE","POINT (-122.849806 44.704709)","POINT (-122.849806 44.704709)"
"Jackson County Library Services - Phoenix Branch Library","510 W 1st St, Phoenix, OR 97535","Jackson","Public","PO Box 277, Phoenix, OR 97535","(541) 535-7090","(541) 535-7090","info@jcls.org","http://www.jcls.org","NONE","POINT (-122.819462 42.27156)","POINT (-122.819462 42.27156)"
"Tillamook County Library","1716 Third St, Tillamook, OR 97141","Tillamook","Public","1716 Third St, Tillamook, OR 97141","(503) 842-4792","(503) 815-8194",,"http://tillabook.org/","NONE","POINT (-123.846541 45.456324)","POINT (-123.846541 45.456324)"
"Washington County Law Library","111 NE Lincoln Street, Hillsboro, OR 97124","Washington","Special","111 NE Lincoln Street, Hillsboro, OR 97124","(503) 846-8880","(503) 846-3515","lawlibrary@co.washington.or.us","http://www.co.washington.or.us/LawLibrary/index.cfm",,"POINT (-122.989303 45.523946)","POINT (-122.989303 45.523946)"
"Myrtle Creek Library","231 Division Street, Myrtle Creek, OR 97457","Douglas","Volunteer","PO Box 57, Myrtle Creek, OR 97457","(541) 863-5945","(541) 863-5945",,"https://www.friendsofmyrtlecreeklibrary.org/hours-and-contact","NONE","POINT (-123.284713 43.027478)","POINT (-123.284713 43.027478)"
"Grant County Library","507 S Canyon Blvd, John Day, OR 97845","Grant","Public","507 S Canyon Blvd, John Day, OR 97845","(541) 575-1992","541-575-1380","grant047@ortelco.net","http://www.grantcountylibrary.net","NONE","POINT (-118.952469 44.410238)","POINT (-118.952469 44.410238)"
"Washington County Cooperative Library Services - West Slope Community Library","3678 SW 78th Ave., Portland, OR 97225","Washington","Public","3678 SW 78th Ave, Portland, OR 97225","(503) 292-6416","(503) 292-6932","kristent@wccls.org","http://wccls.org","WCCLS","POINT (-122.757737 45.493128)","POINT (-122.757737 45.493128)"
"Umatilla County Special Library District","425 S Main, Pendleton, OR 97801","Umatilla","Public","PO Box 1689, Pendleton, OR 97801","(541) 276-6449",,"director@ucsld.org","http://www.ucsld.org","UCSLD","POINT (-118.786134 45.670495)","POINT (-118.786134 45.670495)"
"Columbia County Law Library","270 S. First St., St. Helens, OR 97051","Columbia","Special","PO Box 1400, St. Helens, OR 97051","(503) 396-5344",,"Ccll@columbiacll.org",,,"POINT (-122.797886 45.862699)","POINT (-122.797886 45.862699)"
"Jackson County Library Services - Ruch Branch Library","7919 HIGHWAY 238, JACKSONVILLE, OR 97530-9729","Jackson","Public",,"(541) 899-7438","(541) 899-7438","info@jcls.org","http://www.jcls.org","NONE",,
"Baker County Public Library - Richland Branch Library","42008 Moody Rd, Richland, OR 97870","Baker","Public",,"(541) 893-6088",,"richland@bakerlib.org",,"NONE","POINT (-117.162934 44.769503)","POINT (-117.162934 44.769503)"
"Baker County Public Library - Bookmobile","2400 Resort St, Baker City, OR 97814","Baker","Public",,"(541) 403-1390",,"bookmobile@bakerlib.org",,"NONE","POINT (-117.828984 44.781058)","POINT (-117.828984 44.781058)"
"Oregon Institute of Technology Libraries - Wilsonville Library","27500 SW Parkway Ave., Wilsonville, OR 97070-9296",,"Academic","27500 SW Parkway Ave, Wilsonville, OR 97070","(503) 821-1258","(503) 218-1126",,"http://www.oit.edu/libraries/about/collections/wilsonville",,"POINT (-122.768345 45.322847)","POINT (-122.768345 45.322847)"
"Willamette University - Mark O. Hatfield Library","900 State St., Salem, OR 97301-3930","Marion","Academic","900 State St., Salem, OR 97301-3930","503-370-6312","503-370-6141",,"http://library.willamette.edu/",,"POINT (-123.029549 44.937624)","POINT (-123.029549 44.937624)"
"Klamath County Library - Gilchrist Branch Library","138306 Michigan Ave, Gilchrist, OR 97737","Klamath","Public","PO Box 633, Gilchrist, OR 97737","(541) 433-2186","(541) 433-2186","gilchriststaff@klamathlibrary.org","http://www.klamathlibrary.org","NONE","POINT (-121.68665 43.477367)","POINT (-121.68665 43.477367)"
"Cottage Grove Public Library","700 E Gibbs Ave, Cottage Grove, OR 97424","Lane","Public","700 E Gibbs Ave, Cottage Grove, OR 97424","(541) 942-3828",,"library@cottagegrove.org","http://cottagegrove.org/library","NONE","POINT (-123.060682 43.798723)","POINT (-123.060682 43.798723)"
"Umatilla County Law Library","216 SE 4th Street, Room 330, Pendleton, OR 97801","Umatilla","Special","216 SE 4th Street, Room 330, Pendleton, OR 97801","(541) 278-6306",,"law@umatillacounty.net",,,"POINT (-118.783435 45.673395)","POINT (-118.783435 45.673395)"
"Tillamook County Library - Manzanita Branch Library","571 Laneda, Manzanita, OR 97130","Tillamook","Public",,"503-368-6665",,,,"NONE","POINT (-123.931597 45.719221)","POINT (-123.931597 45.719221)"
"Pacific Bible College","28 Fir St., Suite 212, Medford, OR 97501","Jackson","Academic","28 Fir St., Suite 212, Medford, OR 97501","541-776-9942","541-770-9065","terry.p@pacificbible.edu","https://pacificbible.edu/academics/library/",,"POINT (-122.873649 42.324841)","POINT (-122.873649 42.324841)"
"Elgin Public Library","1699 Division Street, Elgin, OR 97827","Union","Public","1699 Division Street, Elgin, OR 97827","(541) 437-2860","(541) 437-0997","publiclibrary@cityofelginor.org","https://cityofelginor.org/city-library","NONE","POINT (-117.926582 45.564886)","POINT (-117.926582 45.564886)"
"Chetco Community Public Library","405 Alder St, Brookings, OR 97415","Curry","Public","405 Alder St, Brookings, OR 97415","(541) 469-7738","(541) 469-6746","contact@chetcolibrary.org","http://www.chetcolibrary.org","NONE","POINT (-124.276004 42.052487)","POINT (-124.276004 42.052487)"
"Maitripa Institute","1119 SE Market Street, Portland, OR 97214","Multnomah","Academic",,"503-235-2477","503-231-6408","library@maitripa.org","http://www.maitripa.org/library/",,"POINT (-122.654525 45.510804)","POINT (-122.654525 45.510804)"
"Ontario Library District - Ontario Community Library Bookmobile","388 SW 2nd Ave, Ontario, OR 97914","Malheur","Public","388 S.W. 2nd Ave, Ontario, OR 97914","5418896371","541-889-4279","ontariolibrarydirector@gmail.com","http://www.ontariolibrarydistrict.org","NONE","POINT (-116.968141 44.025617)","POINT (-116.968141 44.025617)"
"Baker County Public Library - Halfway Branch Library","260 Gover Lane, Halfway, OR 97834","Baker","Public","PO Box 922, Halfway, OR 97834","(541) 742-5279",,"halfway@bakerlib.org",,"NONE","POINT (-117.108932 44.875371)","POINT (-117.108932 44.875371)"
"Lane Community College - Library","4000 E 30th Ave, Eugene, OR 97405-0640","Lane","Academic","4000 E 30th Ave, Eugene, OR 97405-0640","541-463-5220","541-463-4150",,"https://library.lanecc.edu",,"POINT (-123.034706 44.014138)","POINT (-123.034706 44.014138)"
"Multnomah County Library - Northwest Library","2300 NW Thurman St., Portland, OR 97210","Multnomah","Public",,"503-988-5123",,,,"NONE","POINT (-122.699199 45.535497)","POINT (-122.699199 45.535497)"
"Deschutes Public Library System - East Bend Library","62080 Dean Swift Road, Bend, OR 97701","Deschutes","Public","62080 Dean Swift Road, Bend, OR 97701","(541) 330-3760",,,"http://www.deschuteslibrary.org/eastbend/","NONE","POINT (-121.271204 44.054383)","POINT (-121.271204 44.054383)"
"Harrisburg Public Library","354 Smith St, Harrisburg, OR 97446","Linn","Public","PO Box 378, Harrisburg, OR 97446","(541) 995-6949","(541) 995-9244","lross@ci.harrisburg.or.us","http://www.ci.harrisburg.or.us/library","NONE","POINT (-123.17024 44.272322)","POINT (-123.17024 44.272322)"
"Keizer Community Library","980 Chemawa Road NE, Keizer, OR 97303","Marion","Volunteer","980 Chemawa Road NE, Keizer, OR 97303","(503) 390-2370",,"books.keizerlibrary@gmail.com","http://www.keizerlibrary.org/home",,"POINT (-123.018974 44.996896)","POINT (-123.018974 44.996896)"
"Agness Community Library District","03925 Cougar Lane, Agness, OR 97406","Curry","Public","PO Box 33, Agness, OR 97406","(541) 247-6323","(541) 247-6323","Agnesscommunitylibrary@gmail.com","https://agnesscommunitylibrary.weebly.com/",,"POINT (-124.06995 42.556862)","POINT (-124.06995 42.556862)"
"Pacific Northwest College Of Art at Willamette University - PNCA at Willamette","511 NW Broadway, Portland, OR 97209","Multnomah","Academic","511 NW Broadway, Portland, OR 97209","503-821-8966",,"pnca-library@willamette.edu","http://library.pnca.edu",,"POINT (-122.677578 45.526978)","POINT (-122.677578 45.526978)"
"Pacific Evangelical School of Ministry","11501 SE Sunnyside Rd., Suite 300, Happy Valley, OR 97015","Clackamas","Academic","11501 SE Sunnyside Rd., Suite 300, Happy Valley, OR 97015","(503) 427-0000",,,"http://pesm.scoolaid.net/bin/home",,"POINT (-122.544871 45.432171)","POINT (-122.544871 45.432171)"
"Warm Springs Community Library","1144 Warm Springs Street, Warm Springs, OR 97761","Jefferson","Tribal","PO Box C, 1144 Warm Springs Street, Warm Springs, OR 97761","541-553-1078",,,"https://warmsprings-nsn.gov/",,"POINT (-121.269191 44.763461)","POINT (-121.269191 44.763461)"
"Treasure Valley Community College - Library","650 College Blvd, Ontario, OR 97914-3423","Malheur","Academic",,"541-881-5929","541-881-2724","librarian@tvcc.cc","https://www.tvcc.cc/library/",,"POINT (-116.974443 44.022129)","POINT (-116.974443 44.022129)"
"Adams Public Library","190 North Main Street, Adams, OR 97810","Umatilla","Public","PO Box 20, Adams, OR 97810","(541) 566-3038","(541) 566-2077","library@cityofadamsoregon.com","http://www.cityofadamsoregon.com","UCSLD","POINT (-118.563071 45.767466)","POINT (-118.563071 45.767466)"
"Jackson County Library Services - White City Branch Library","3143 Ave C, White City, OR 97503","Jackson","Public",,"(541) 864-8880","(541) 864-8889","info@jcls.org","http://www.jcls.org","NONE","POINT (-122.834417 42.43684)","POINT (-122.834417 42.43684)"
"Helix Public Library","119 Columbia St, Helix, OR 97835","Umatilla","Public","PO Box 324, Helix, OR 97835","(541) 457-6130","(541) 457-6130","helixlibrary@helixtel.com","http://helixlibrary.weebly.com","UCSLD","POINT (-118.657654 45.849623)","POINT (-118.657654 45.849623)"
"Athena Public Library","418 E Main St, Athena, OR 97813","Umatilla","Public","PO Box 450, Athena, OR 97813","(541) 566-2470","(541) 566-2470","athenalibrary@cityofathena.com","http://athenalibrary.weebly.com/","UCSLD","POINT (-118.488657 45.811707)","POINT (-118.488657 45.811707)"
"Sacred Heart Medical Center at RiverBend","3333 RiverBend Drive, Springfield, OR 97477","Lane","Special","Sacred Heart Medical Center @ RiverBend, 3333 RiverBend Drive, Springfield, OR 97477","(541) 222-2280","(541) 222-2289","libraryshmc@peacehealth.org","http://www.peacehealth.org/Oregon/HIL/hilhome.htm",,"POINT (-123.028624 44.081376)","POINT (-123.028624 44.081376)"
"Jackson County Library Services - Butte Falls Branch Library","626 Fir Ave., Butte Falls, OR 97522","Jackson","Public","PO Box 138, Butte Falls, OR 97522","(541) 865-3511","(541) 865-3511","info@jcls.org","http://www.jcls.org","NONE","POINT (-122.567328 42.541836)","POINT (-122.567328 42.541836)"
"Western Oregon University - Hamersly Library","345 N Monmouth Ave, Monmouth, OR 97361-1314","Polk","Academic",,"503-838-8418","503-838-8399",,"https://wou.edu/library/",,"POINT (-123.237317 44.851955)","POINT (-123.237317 44.851955)"
"Pacific University Library","2043 College Way, Forest Grove, OR 97116-1797","Washington","Academic",,"503-352-2204","503-352-1416",,"http://www.lib.pacificu.edu/",,"POINT (-123.111022 45.521418)","POINT (-123.111022 45.521418)"
"Klamath Community College - Learning Resource Center","7390 S 6th St, Klamath Falls, OR 97603","Klamath","Academic",,"541-880-2206","541-885-7758",,"https://www.klamathcc.edu/Academics/LRC",,"POINT (-121.700733 42.197768)","POINT (-121.700733 42.197768)"
"Jackson County Library Services - Medford Branch Library","205 S Central Ave, Medford, OR 97501","Jackson","Public",,"(541) 774-8689","(541) 774-6748","info@jcls.org","http://www.jcls.org","NONE","POINT (-122.870122 42.324345)","POINT (-122.870122 42.324345)"
"Southern Wasco County Library","507 Grant Ave, Maupin, OR 97037","Wasco","Public","PO Box 328, Maupin, OR 97037","(541) 395-2208",,"southernwascolibrary@gmail.com","http://wascocountylibrary.com/","WCLSD","POINT (-121.081958 45.175694)","POINT (-121.081958 45.175694)"
"Oregon State University - Guin Library","2030 SE Marine Science Dr, Newport, OR 97365-5296","Lincoln","Academic","2030 SE Marine Science Dr, Newport, OR 97365","541-867-0249",,"hmsc.library@oregonstate.edu","http://guin.library.oregonstate.edu/",,"POINT (-124.047161 44.622148)","POINT (-124.047161 44.622148)"
"Umpqua Community College Library","1140 Umpqua College Rd., Roseburg, OR 97470-0226","Douglas","Academic","PO Box 967, Roseburg, OR 97470","541-440-4640","541-440-4637",,"http://www.umpqua.edu/library",,"POINT (-123.333625 43.289031)","POINT (-123.333625 43.289031)"
"Multnomah County Library - Midland Regional Library","805 SE 122nd Ave, Portland, OR 97233","Multnomah","Public",,"503-988-5123",,,"http://www.multcolib.org/agcy/mid.html","NONE","POINT (-122.537736 45.516263)","POINT (-122.537736 45.516263)"
"Klamath County Loyd De Lap Law Library","126 S. Third St., Klamath Falls, OR 97601","Klamath","Special","126 S. Third St., Klamath Falls, OR 97601","(541) 882-8895 x30","(541) 882-6166","lawlibrary@klamathlibrary.org","https://klamathlibrary.org/loyd-de-lap-law-library",,"POINT (-121.784577 42.222545)","POINT (-121.784577 42.222545)"
"Canyonville Library","250 N. Main Street, Canyonville, OR 97417","Douglas","Volunteer","PO Box 147, Canyonville, OR 97417","(541) 839-4727",,"canyonvillelibrary@gmail.com",,"NONE","POINT (-123.280618 42.929944)","POINT (-123.280618 42.929944)"
"Flora M. Laird Memorial Library","435 5th St, Myrtle Point, OR 97458","Coos","Public","435 5th St, Myrtle Point, OR 97458","(541) 572-2591","(541) 572-5168","myrtlepointlibrary@gmail.com","https://www.ci.myrtlepoint.or.us/general/page/flora-m-laird-memorial-library","CCLSD","POINT (-124.142129 43.063859)","POINT (-124.142129 43.063859)"
"Arlington Public Library","500 W First St, Arlington, OR 97812","Gilliam","Public","PO Box 339, Arlington, OR 97812","541-705-2555","541-705-2575","arlingtonpubliclibraryor97812@gmail.com","http://arlington.ploud.net/","NONE","POINT (-120.20381 45.717713)","POINT (-120.20381 45.717713)"
"Lower Umpqua Library District","395 Winchester Ave, Reedsport, OR 97467","Douglas","Public","395 Winchester Ave, Reedsport, OR 97467","(541) 271-3500","(541) 271-1027","library@luld.org","https://www.luld.org/","NONE","POINT (-124.096175 43.701814)","POINT (-124.096175 43.701814)"
"Langlois Library District","48234 HIGHWAY 101, LANGLOIS OR 97450-9730","Curry","Public","PO Box 277, Langlois, OR 97450","(541) 348-2066","(541) 348-2066","langloislibrary@gmail.com","http://www.langloispubliclibrary.org","NONE",,
"River Road Santa Clara Volunteer Library","105 Oakleigh Lane, Eugene, OR 97404","Lane","Volunteer","105 Oakleigh Lane, Eugene, OR 97404","(541) 607-1882",,"rrscvl@live.com","http://rrscvollib.org",,"POINT (-123.119696 44.07799)","POINT (-123.119696 44.07799)"
"Deschutes Public Library System - Sunriver Library","56855 Venture Lane, Sunriver, OR 97707","Deschutes","Public","56855 Venture Lane, Sunriver, OR 97707","(541) 312-1080","(541) 593-9286",,"http://www.deschuteslibrary.org/sunriver/","NONE","POINT (-121.434899 43.86631)","POINT (-121.434899 43.86631)"
"Tillamook Bay Community College","4301 Third Street, Tillamook, OR 97141","Tillamook","Academic","4301 Third Street, Tillamook, OR 97141","503-842-8222 ext. 1720","503 842 8334",,"http://tillamookbaycc.edu/library/",,"POINT (-123.813465 45.456913)","POINT (-123.813465 45.456913)"
"Coquille Indian Tribe Library","495 Miluk Dr., Coos Bay, OR 97420","Coos","Tribal","3050 Tremont Blvd., North Bend, OR 97459","541-751-2004","541-888-2418","bridgettwheeler@coquilletribe.org","http://www.coquilletribe.org/",,"POINT (-124.294023 43.358036)","POINT (-124.294023 43.358036)"
"Union Carnegie Public Library","182 N Main St, Union, OR 97883","Union","Public","PO Box 928, Union, OR 97883","(541) 562-5811","(541) 562-2028","library@cityofunion.com","https://cityofunion.com/directory/city-library/","NONE","POINT (-117.865489 45.209771)","POINT (-117.865489 45.209771)"
"Multnomah County Library - Hollywood Library","4040 NE Tillamook St, Portland, OR 97212","Multnomah","Public",,"503-988-5123",,,,"NONE","POINT (-122.62154 45.537781)","POINT (-122.62154 45.537781)"
"Lake Oswego Public Library","706 4th St, Lake Oswego, OR 97034","Clackamas","Public","706 4th St, Lake Oswego, OR 97034","(503) 636-7628","(503) 635-4171","loref@ci.oswego.or.us","http://lakeoswegolibrary.org","LINCC","POINT (-122.667008 45.424114)","POINT (-122.667008 45.424114)"
"University Of Oregon - Architecture & Allied Arts Branch Library","200 Lawrence Hall, Eugene, OR 97403-5429","Lane","Academic",,"541-346-3637","541-346-2205",,"http://library.uoregon.edu/aaa/staff.html",,"POINT (-123.098805 44.057669)","POINT (-123.098805 44.057669)"
"State Library of Oregon","250 Winter St. NE, Salem, OR 97301","Marion","Special","250 Winter St. NE, Salem, OR 97301","(503) 378-5030","(503) 585-8059",,"http://www.oregon.gov/OSL/",,"POINT (-123.031504 44.940029)","POINT (-123.031504 44.940029)"
"Ukiah Public-School Library","201 Hill St, Ukiah, OR 97880","Umatilla","Public","PO Box 218, Ukiah, OR 97880","(541) 427-3735","(541) 427-3432",,"http://ukiahlibrary.weebly.com/","UCSLD","POINT (-118.933315 45.135629)","POINT (-118.933315 45.135629)"
"Hood River County Library District - Parkdale Branch Library","7300 Clear Creek Road, Parkdale, OR 97041","Hood River","Public","502 State St, Hood River, OR 97031","541-352-6502",,"info@hoodriverlibrary.org","http://www.hoodriverlibrary.org/","NONE","POINT (-121.596931 45.51879)","POINT (-121.596931 45.51879)"
"Deschutes Public Library System - Downtown Bend Library","601 NW Wall St, Bend, OR 97703","Deschutes","Public",,"541-617-7050","541-617-7059",,"http://www.deschuteslibrary.org/bend/","NONE","POINT (-121.316272 44.057079)","POINT (-121.316272 44.057079)"
"National Railway Historical Society Library - Pacific Northwest Chapter","503 NW Irving St, Portland, OR 97209-3715","Multnomah","Special","800 NW 6th Ave, Room 1, Portland, OR 97209-3715","(503) 226-6747","(503) 230-0572","library@pnwc-nrhs.org","http://www.pnwc-nrhs.org/library_main.html",,"POINT (-122.67557 45.528104)","POINT (-122.67557 45.528104)"
"Lewis And Clark College - Aubrey R. Watzek Library","615 S Palatine Hill Road, Portland, OR 97219-7899",,"Academic",,"503-768-7274","503-768-7282",,"http://library.lclark.edu",,"POINT (-122.672562 45.450485)","POINT (-122.672562 45.450485)"
"Sweet Home Public Library","1101 13th Ave, Sweet Home, OR 97386","Linn","Public","1101 13th Ave, Sweet Home, OR 97386","(541) 367-5007","(541) 367-3754","mdazey@sweethomeor.gov","https://www.sweethomeor.gov/","NONE","POINT (-122.728944 44.39636)","POINT (-122.728944 44.39636)"
"Curry Public Library District","94341 3rd Street, Gold Beach, OR 97444","Curry","Public","94341 3rd Street, Gold Beach, OR 97444","(541) 247-7246","(541) 247-4411","currylibrary@cplib.net","http://www.currypubliclibrary.org","NONE","POINT (-124.415583 42.41264)","POINT (-124.415583 42.41264)"
"Jackson County Library Services - Applegate Branch Library","18485 North Applegate Road, Applegate, OR 97527-9459","Jackson","Public",,"(541) 846-7346","(541) 846-7346","info@jcls.org","http://www.jcls.org","NONE","POINT (-123.176513 42.258026)","POINT (-123.176513 42.258026)"
"Southwestern Oregon Community College - Library","1988 Newmark, Coos Bay, OR 97420-2912","Coos","Academic",,"541-888-7270",,"library@socc.edu","http://www.socc.edu/library/",,"POINT (-124.255202 43.391675)","POINT (-124.255202 43.391675)"
"Cannon Beach Library","131 N. Hemlock, Cannon Beach, OR 97110","Clatsop","Volunteer","PO Box 486, Cannon Beach, OR 97110","(503) 436-1391",,"info@cannonbeachlibrary.org","https://www.cannonbeachlibrary.org",,"POINT (-123.960879 45.897084)","POINT (-123.960879 45.897084)"
"State of Oregon Law Library","1163 State St., 2850 Broadway St. NE, Salem, OR 97303","Marion","Special","1163 State St., Salem, OR 97301","(503) 986-5640",,"state.law.library@ojd.state.or.us","http://oregon.gov/soll",,"POINT (-123.027797 44.937175)","POINT (-123.027797 44.937175)"
"Planetree Health Resource Center","200 E. 4th St., The Dalles, OR 97058","Wasco","Special","200 E. 4th St., The Dalles, OR 97058","(541) 296-8444",,,"http://www.mcmc.net/PlanetreeResources/Default.aspx?blrb=PlanetreeServices.aspx",,"POINT (-121.184134 45.600513)","POINT (-121.184134 45.600513)"
"Dallas Public Library","950 Main St, Dallas, OR 97338","Polk","Public","950 Main St, Dallas, OR 97338","(503) 623-2633","(503) 623-7357","dalref@ccrls.org","http://www.ci.dallas.or.us/library","CCRLS","POINT (-123.316666 44.919998)","POINT (-123.316666 44.919998)"
"Forest Grove City Library","2114 Pacific Ave, Forest Grove, OR 97116","Washington","Public","2114 Pacific Ave, Forest Grove, OR 97116","(503) 992-3247","(503) 992-3333","info@forestgrove-or.gov","https://www.forestgrove-or.gov/library","WCCLS","POINT (-123.109846 45.51966)","POINT (-123.109846 45.51966)"
"Wallowa Public Library","201 E 1st St, Wallowa, OR 97885","Wallowa","Public","PO Box 486, Wallowa, OR 97885","(541) 886-4265","541-886-4565","wallowapubliclibrary@gmail.com","http://galepages.com/wallowa","NONE","POINT (-117.527758 45.570181)","POINT (-117.527758 45.570181)"
"Rogue Community College - Library","3345 Redwood Highway, Grants Pass, OR 97527-9298",,"Academic",,"541-956-7152","541-471-3588",,"http://go.roguecc.edu/department/rcc-libraries",,"POINT (-123.394917 42.414629)","POINT (-123.394917 42.414629)"
"Oregon State University - Valley Library","121 The Valley Library, Corvallis, OR 97331","Benton","Academic","121 The Valley Library, Corvallis, OR 97331-4501","541-737-3411","541-737-3453",,"http://osulibrary.oregonstate.edu/",,"POINT (-92.586395 34.548388)","POINT (-92.586395 34.548388)"
"Dora Public Library","56125 Goldbrick Rd, Myrtle Point, OR 97458","Coos","Public","56125 Goldbrick Rd, Myrtle Point, OR 97458","(541) 572-6009","(541) 572-3084","dorapublic@gmail.com","https://dorapubliclibrary.org/","CCLSD","POINT (-123.95013 43.144584)","POINT (-123.95013 43.144584)"
"Port Orford Public Library","1421 Oregon St, Port Orford, OR 97465","Curry","Public","PO Box 130, Port Orford, OR 97465","(541) 332-5622","(541) 332-2140","polibrary2012@gmail.com","http://www.polibrary.org","NONE","POINT (-124.497397 42.750164)","POINT (-124.497397 42.750164)"
"Joseph Public Library","201 N Main St, Joseph, OR 97846","Wallowa","Public","PO Box 15, Joseph, OR 97846","(541) 432-0141","(541) 432-3832","josephpl@eoni.com","https://www.josephoregon.org/index.php/city-services/library","NONE","POINT (-117.2299 45.353517)","POINT (-117.2299 45.353517)"
"Lebanon Public Library","55 Academy Street, Lebanon, OR 97355","Linn","Public","55 Academy Street, Lebanon, OR 97355","(541) 258-4926",,"libraryinfo@ci.lebanon.or.us","http://www.ci.lebanon.or.us/library","NONE","POINT (-122.908307 44.544247)","POINT (-122.908307 44.544247)"
"Deschutes Public Library System - Redmond Library","827 SW Deschutes Ave., Redmond, OR 97756","Deschutes","Public","827 SW Deschutes Ave., Redmond, OR 97756","(541) 312-1050","(541) 548-6358",,"http://www.deschuteslibrary.org/redmond/","NONE","POINT (-121.177261 44.273544)","POINT (-121.177261 44.273544)"
"Alvadore Community Library","90829 Alvadore Road, Alvadore, OR 97448","Lane","Volunteer","PO BOX 36, Junction City, OR 97409","(541) 461-4933",,,,,"POINT (-123.264147 44.12654)","POINT (-123.264147 44.12654)"
"Multnomah County Library - Holgate Library","7905 SE Holgate Blvd, Portland, OR 97206","Multnomah","Public",,"503-988-5123",,,,"NONE","POINT (-122.582112 45.490254)","POINT (-122.582112 45.490254)"
"Beaverton City Library - Murray Scholls","11200 SW Murray Scholls Place Suite 102, Beaverton, OR 97007-9702","Washington","Public","11200 SW Murray Scholls Place Suite 102, Beaverton, OR 97007-9702","503-644-2197 option 6","(503) 350-3645","librarymail@beavertonoregon.gov","http://www.beavertonlibrary.org","WCCLS","POINT (-122.828523 45.438454)","POINT (-122.828523 45.438454)"
"Jefferson Public Library","150 N 2nd Suite B, Jefferson, OR 97352","Marion","Public","PO Box 1068, Jefferson, OR 97352","(541) 327-3826","(541) 327-3120","jeffpl@ccrls.org","https://jeffersonpubliclibrary.org/","CCRLS","POINT (-123.010224 44.717906)","POINT (-123.010224 44.717906)"
"Pilot Rock Public Library","144 N. Alder Pl, Pilot Rock, OR 97868","Umatilla","Public","PO Box 520, Pilot Rock, OR 97868","(541) 443-3285","(541) 443-2253","pilotrockpl@centurytel.net","http://www.pilotrockpubliclibrary.weebly.com","UCSLD","POINT (-118.833701 45.483085)","POINT (-118.833701 45.483085)"
"Dufur School/Community Library","802 NE Fifth St, Dufur, OR 97021","Wasco","Public","802 NE 5th, Dufur, OR 97021","(541) 467-2509","(541) 467-2589","sarah.tierney@dufur.k12.or.us","http://www.dufur.k12.or.us","NONE","POINT (-121.124682 45.454903)","POINT (-121.124682 45.454903)"
"George Fox University - Portland Center Library","12753 SW 68th Avenue, Portland, OR 97223-8355",,"Academic",,"503-554- 6130","503-554-6134",,"http://library.georgefox.edu/",,"POINT (-122.746863 45.428239)","POINT (-122.746863 45.428239)"
"Garden Home Community Library","7475 SW Oleson Rd, Portland, OR 97223","Washington","Public","7475 SW Oleson Rd, Portland, OR 97223","(503) 245-9932",,,"http://gardenhomelibrary.org/","WCCLS","POINT (-122.752313 45.466735)","POINT (-122.752313 45.466735)"
"McMinnville Public Library - McMinnville Public Library Bookmobile","225 NW Adams, McMinnville, OR 97128","Yamhill","Public",,"(503) 435-5550",,"libref@mcminnvilleoregon.gov","http://www.maclibrary.org","CCRLS","POINT (-123.199131 45.209384)","POINT (-123.199131 45.209384)"
"Klamath County Library - Bly Branch Library","61100 Metler St., Bly, OR 97622","Klamath","Public","PO Box 366, Bly, OR 97622","(541) 353-2299","(541) 353-2299","blystaff@klamathlibrary.org","http://www.klamathlibrary.org","NONE","POINT (-121.044294 42.394247)","POINT (-121.044294 42.394247)"
"Washington County Cooperative Library Services","111 NE Lincoln St., MS# 58, Hillsboro, OR 97124","Washington","Public","111 NE Lincoln St, MS# 58, Hillsboro, OR 97124","(503) 846-3222","(503) 846-3220","webmaster@wccls.org","http://www.wccls.org","WCCLS","POINT (-122.989303 45.523946)","POINT (-122.989303 45.523946)"
"Dayville City Library","1 Park Lane, Dayville, OR 97825","Grant","Volunteer","PO Box 321, Dayville, OR 97825","(541) 987-2188",,"dville@ortelco.net",,,"POINT (-119.534234 44.466743)","POINT (-119.534234 44.466743)"
"Jackson County Library Services - Talent Branch Library","101 Home St, Talent, OR 97540","Jackson","Public","PO Box 597, Talent, OR 97540","(541) 535-4163","(541) 535-4163","info@jcls.org","http://www.jcls.org","NONE","POINT (-122.789489 42.245038)","POINT (-122.789489 42.245038)"
"Coos County Library Service District","525 W Anderson Ave, Coos Bay, OR 97420","Coos","Public","525 West Anderson Ave, Coos Bay, OR 97420","541-269-1101","(541) 269-7567",,"http://www.cooslibraries.org","CCLSD","POINT (-124.217207 43.367189)","POINT (-124.217207 43.367189)"
"Tillamook County Library - Pacific City Branch Library","6200 Camp St, Cloverdale, OR 97135","Tillamook","Public",,"5039656163",,,,"NONE","POINT (-123.960996 45.204806)","POINT (-123.960996 45.204806)"
"Roseburg Public Library","1409 NE Diamond Lake Blvd., Ste. 100, Roseburg, OR 97470","Douglas","Public","1409 NE Diamond Lake Blvd., Ste. 100, Roseburg, OR 97470","(541) 492-7050",,"library@cityofroseburg.org","http://www.cityofroseburg.org/departments/library/","NONE","POINT (-123.340611 43.213576)","POINT (-123.340611 43.213576)"
"Baker County Public Library - Huntington Branch Library","55 E. Jefferson, Huntington, OR 97907","Baker","Public","PO BOX 130, Huntington, OR 97907","(541) 869-2440","(541) 869-2440","huntington@bakerlib.org",,"NONE","POINT (-117.266963 44.349732)","POINT (-117.266963 44.349732)"
"Linfield University Libraries - Nicholson Library","900 S Baker St, McMinnville, OR 97128-6894",,"Academic",,"503-883-2261","503-883-2566",,"https://www.linfield.edu/linfield-libraries/",,"POINT (-123.200574 45.203272)","POINT (-123.200574 45.203272)"
"O'Brien Memorial Library","54745 McKenzie River Dr., Rainbow, OR 97413","Lane","Volunteer","P.O. Box 291, Blue River, OR 97413","(541) 228-5385",,"OBrienLibrary@gmail.com","https://www.obrienlibrary.org/","NONE","POINT (-122.225406 44.169313)","POINT (-122.225406 44.169313)"
"Weston Public Library","108 E Main St, Weston, OR 97886","Umatilla","Public","PO Box 550, Weston, OR 97886","(541) 566-2378",,"wcolibrary@cityofwestonoregon.com","http://westonpubliclibrary.com","UCSLD","POINT (-118.424765 45.813582)","POINT (-118.424765 45.813582)"
"McMinnville Public Library","225 NW Adams St, McMinnville, OR 97128","Yamhill","Public","225 NW Adams St, McMinnville, OR 97128","(503) 435-5555",,"libref@mcminnvilleoregon.gov","https://www.mcminnvilleoregon.gov/library","CCRLS","POINT (-123.199131 45.209384)","POINT (-123.199131 45.209384)"
"Douglas County Law Library","Justice Building - Room 305, 1036 SE Douglas Street, Roseburg, OR 97470","Douglas","Special","Justice Building - Room 305, 1036 SE Douglas Street, Roseburg, OR 97470","(541) 440-4341",,"dclawlib@co.douglas.or.us","http://www.co.douglas.or.us/lawlib/",,"POINT (-123.341529 43.210272)","POINT (-123.341529 43.210272)"
"Klamath County Library - Sprague River Branch Library","Sprague River Hwy, 23402 Sprague River Rd, Sprague River, OR 97639","Klamath","Public","PO Box 29, Sprague River, OR 97639","(541) 533-2769","(541) 533-2769","spragueriverstaff@klamathlibrary.org","http://www.klamathlibrary.org","NONE","POINT (-121.504198 42.455306)","POINT (-121.504198 42.455306)"
"Oregon Trail Library District - OTLD Heppner Branch","444 Main St, Heppner, OR 97836","Morrow","Public","PO Box 325, Heppner, OR 97836","541-676-9964","541-676-5900","asherman@otld.org","https://www.otld.org/","NONE","POINT (-119.553391 45.356838)","POINT (-119.553391 45.356838)"
"Klamath County Library - South Suburban Branch Library","3625 Summers Lane, Klamath Falls, OR 97603","Klamath","Public",,"(541) 273-3679","(541) 273-3679","ssubstaff@klamathlibrary.org","http://www.klamathlibrary.org","NONE","POINT (-121.737694 42.193271)","POINT (-121.737694 42.193271)"
"Multnomah County Library - St. Johns Library","7510 N Charleston Ave, Portland, OR 97203","Multnomah","Public",,"503-988-5123",,,,"NONE","POINT (-122.751464 45.590111)","POINT (-122.751464 45.590111)"
"Cedar Mill Community Library - Bethany Branch Library","15325 NW Central Drive Suite J-8, Portland, OR 97229","Washington","Public",,"(503) 617-7323",,,"http://library.cedarmill.org/",,"POINT (-122.835084 45.554547)","POINT (-122.835084 45.554547)"
"Walla Walla University - Portland Campus Library","10345 SE Market, Portland, OR 97216-2998",,"Academic",,"503-251-6115","503-251-6249",,"https://www.wallawalla.edu/academics/libraries/portland-library/",,"POINT (-122.556328 45.511574)","POINT (-122.556328 45.511574)"
"Driftwood Public Library","801 SW Hwy 101, Lincoln City, OR 97367","Lincoln","Public","801 SW Hwy 101 #201, Lincoln City, OR 97367","(541) 996-2277",,"librarian@driftwoodlib.org","http://www.driftwoodlib.org","LCLD","POINT (-87.983491 41.548108)","POINT (-87.983491 41.548108)"
"Lake County Library District","26 S. G St., Lakeview, OR 97630","Lake","Public","26 S. G St., Lakeview, OR 97630","(541) 947-6019","(541) 947-2346","info@lakecountylibrary.org","http://www.lakecountylibrary.org","NONE","POINT (-120.34702 42.188937)","POINT (-120.34702 42.188937)"
"The Dalles-Wasco County Library","722 Court St, The Dalles, OR 97058","Wasco","Public","722 Court St, The Dalles, OR 97058","(541) 296-2815","(541) 296-4179","jwavrunek@ci.the-dalles.or.us","http://wascocountylibrary.com","WCLSD","POINT (-121.185594 45.599333)","POINT (-121.185594 45.599333)"
"Southern Oregon University","1290 Ashland St, Ashland, OR 97520-5076","Jackson","Academic","1250 Siskiyou Blvd, Ashland, OR 97520-5076","541-552-6441","541-552-6429",,"http://hanlib.sou.edu",,"POINT (-122.694861 42.185462)","POINT (-122.694861 42.185462)"
"Umatilla Public Library","700 6th St, Umatilla, OR 97882","Umatilla","Public","PO Box 820, Umatilla, OR 97882","(541) 922-5704","(541) 922-5708","library@umatilla-city.org","https://www.umatilla-city.org/library","UCSLD","POINT (-119.344693 45.917184)","POINT (-119.344693 45.917184)"
"Reed College - E. V. Hauser Memorial Library","3203 SE Woodstock Blvd, Portland, OR 97202-8199","Multnomah","Academic",,"503-777-7702","503-777-7786",,"https://library.reed.edu/",,"POINT (-122.63001 45.479231)","POINT (-122.63001 45.479231)"
"Multnomah County Library - Capitol Hill Library","10723 SW Capitol Hwy, Portland, OR 97219","Multnomah","Public",,"503.988.5123",,,,"NONE","POINT (-122.725015 45.447853)","POINT (-122.725015 45.447853)"
"Jackson County Library Services - Eagle Point Branch Library","239 West Main St, Eagle Point, OR 97524","Jackson","Public","PO Box 459, Eagle Point, OR 97524","(541) 826-3313","(541) 826-3313","info@jcls.org","http://www.jcls.org","NONE","POINT (-122.80489 42.473605)","POINT (-122.80489 42.473605)"
"Fossil Public Library","401 Main St, Fossil, OR 97830","Wheeler","Public","PO Box 467, Fossil, OR 97830","(541) 763-2046","(541) 763-2124","libraryfossil46@gmail.com",,"NONE","POINT (-120.213708 45.0004)","POINT (-120.213708 45.0004)"
"Portland State University Library - Branford P. Millar Library","1875 SW Park Avenue, Portland, OR 97201","Multnomah","Academic","PO Box 1151, Portland, OR 97207-1151","503-725-5874","503-725-4524",,"https://library.pdx.edu/",,"POINT (-122.68563 45.511431)","POINT (-122.68563 45.511431)"
"Tillamook County Library - Bay City Branch Library","5525 B St, Bay City, OR 97107","Tillamook","Public",,"503-337-0231",,,,"NONE","POINT (-123.89065 45.524594)","POINT (-123.89065 45.524594)"
"Josephine Community Library District - Williams Branch Library","20695 Williams Highway, Williams, OR 97544","Josephine","Public","200 NW C Street, Grants Pass, OR 97526","541-846-7020",,,"http://www.josephinelibrary.org","NONE","POINT (-123.273781 42.21893)","POINT (-123.273781 42.21893)"
"University of Oregon - UO Portland Library and Learning Commons","70 NW Couch St, Portland, OR 97209","Multnomah","Academic","70 NW Couch St, Portland, OR 97209","(503) 412-3671","(503) 412-3670","pdxlib@uoregon.edu","http://library.uoregon.edu/portland/index.html",,"POINT (-122.671154 45.523873)","POINT (-122.671154 45.523873)"
"Nyssa Public Library","319 Main St., Nyssa, OR 97913","Malheur","Public","319 Main St, Nyssa, OR 97913","(541) 372-2978","(541) 372-0206","nyssalibrary@nyssacity.org","http://www.nyssacity.org/nyssa-library.html","NONE","POINT (-116.997344 43.876781)","POINT (-116.997344 43.876781)"
"Sherwood Public Library","22560 SW Pine St, Sherwood, OR 97140","Washington","Public","22560 SW Pine St, Sherwood, OR 97140","(503) 625-6688","(503) 625-4254","askusSPL@wccls.org","http://www.sherwoodoregon.gov/library","WCCLS","POINT (-122.840448 45.356468)","POINT (-122.840448 45.356468)"
"Sheridan Public Library","142 NW Yamhill Street, Sheridan, OR 97378-1843","Yamhill","Public","PO Box 248, Sheridan, OR 97378-1843","(503) 843-3420","(503) 843-2561","ggorham@cityofsheridanor.com","https://www.cityofsheridanor.com/library","CCRLS","POINT (-123.395805 45.100298)","POINT (-123.395805 45.100298)"
"Corvallis-Benton County Public Library - Alsea Community Library","19192 Alsea Hwy, Alsea, OR 97324","Benton","Public","19192 Alsea Hwy, Alsea, OR 97324","(541) 487-5061","(541) 487-5061",,"http://www.cbcpl.net","NONE","POINT (-123.59386 44.382325)","POINT (-123.59386 44.382325)"
"Estacada Public Library","825 NW Wade, Estacada, OR 97023","Clackamas","Public","825 NW Wade St., Estacada, OR 97023","(503) 630-8273",,"eslibrary@lincc.org","https://www.cityofestacada.org/library","LINCC","POINT (-122.337943 45.297152)","POINT (-122.337943 45.297152)"
"Klamath Tribal Library","501 Chiloquin Blvd., Chiloquin, OR 97624","Klamath","Tribal","PO Box 436, Chiloquin, OR 97624","(541) 783-2219",,,,,"POINT (-121.874112 42.57562)","POINT (-121.874112 42.57562)"
"Mosier Valley Library","203 3rd St, Mosier, OR 97040","Wasco","Volunteer","PO Box 525, Mosier, OR 97040","541-478-3495",,,,,"POINT (-121.077274 45.175055)","POINT (-121.077274 45.175055)"
"Siuslaw Public Library District","1460 9th St, Florence, OR 97439","Lane","Public","1460 9th Street, Florence, OR 97439","(541) 997-3132","(541) 997-6473","ref@siuslawlibrary.org","http://www.siuslawlibrary.info/","NONE","POINT (-124.104617 43.974658)","POINT (-124.104617 43.974658)"
"Bandon Public Library","1204 11th St SW, Bandon, OR 97411","Coos","Public","1204 11th St SW, Bandon, OR 97411","(541) 347-3221","(541) 347-9363",,"https://www.cityofbandon.org/general/page/library","CCLSD","POINT (-124.429748 43.11347)","POINT (-124.429748 43.11347)"
"Ontario Community Library","388 SW 2nd Ave, Ontario, OR 97914","Malheur","Public","388 SW 2nd Ave, Ontario, OR 97914","(541) 889-6371","(541) 889-4279","malheurlibrarystaff@yahoo.com","http://www.ontariocommunitylibrary.org/","NONE","POINT (-116.968141 44.025617)","POINT (-116.968141 44.025617)"
"C. Giles Hunt Memorial Library","210 E Central Ave, Sutherlin, OR 97479","Douglas","Public","210 E Central Ave, Sutherlin, OR 97479","(541) 459-9161",,"SutherlinLibrary@gmail.com","https://www.sutherlinlibrary.org/","NONE","POINT (-123.311094 43.390493)","POINT (-123.311094 43.390493)"
"Tigard Public Library","13500 SW Hall Blvd, Tigard, OR 97223","Washington","Public","13500 SW Hall Blvd, Tigard, OR 97223","(503) 684-6537","(503) 598-7515",,"http://www.tigard-or.gov/library","WCCLS","POINT (-122.765724 45.421846)","POINT (-122.765724 45.421846)"
"Sherman County Public/School Library","65912 High School Loop, Moro, OR 97039","Sherman","Public","65912 High School Loop, Moro, OR 97039","(541) 565-3279","(541) 565-3319","mmartin@sherman.k12.or.us","http://shermancountypsl.weebly.com/","NONE","POINT (-120.741619 45.473106)","POINT (-120.741619 45.473106)"
"Jackson County Genealogy Library","3405 South Pacific Highway, Medford, OR 97501","Jackson","Special","3405 South Pacific Highway, Medford, OR 97501","(541) 512-2340",,"reception@rvgslibrary.org","http://www.rvgslibrary.org",,"POINT (-122.835708 42.289444)","POINT (-122.835708 42.289444)"
"Oregon State University Library - Cascades Campus Library","1500 SW Chandler Ave, Tykeson Hall 202, Bend, OR 97702","Deschutes","Academic","1500 SW Chandler Ave, Bend, OR 97702","(541) 322-2079",,,"http://www.osucascades.edu/library",,"POINT (-121.333579 44.042144)","POINT (-121.333579 44.042144)"
"Klamath County Library - Senior Center Branch Library","2045 Arthur Street, Klamath Falls, OR 97603","Klamath","Public","126 South Third Street, Klamath Falls, OR 97601","(541) 205-8220",,"seniorcenterstaff@klamathlibrary.org","http://www.klamathlibrary.org","NONE","POINT (-121.748697 42.209432)","POINT (-121.748697 42.209432)"
"Waldport Public Library","460 NW Hemlock, Waldport, OR 97394","Lincoln","Public","PO Box 1357, Waldport, OR 97394","(541) 563-5880","(541) 563-6237","waldportlibrary@waldportlibrary.org","http://www.waldportlibrary.org","LCLD","POINT (-124.065931 44.426931)","POINT (-124.065931 44.426931)"
"Fern Ridge Library District","88026 Territorial Rd, Veneta, OR 97487","Lane","Public","PO Box 397, Veneta, OR 97487","(541) 935-7512","(541) 935-8013","staff@fernridgelibrary.org","http://www.fernridgelibrary.org","NONE","POINT (-123.351575 44.046522)","POINT (-123.351575 44.046522)"
"Mount Angel Abbey","1 Abbey Drive, Saint Benedict, OR 97373-9999","Marion","Academic",,"503-845-3102",,,"http://www.mountangelabbey.org/library",,"POINT (-122.774968 45.056123)","POINT (-122.774968 45.056123)"
"Yachats Public Library","560 W 7th St., Yachats, OR 97498","Lincoln","Public","PO Box 817, Yachats, OR 97498","(541) 547-3741","(541) 547-3741","yachatspl@actionnet.net","http://www.yachatsoregon.org","NONE","POINT (-124.107005 44.314455)","POINT (-124.107005 44.314455)"
"Lane County Law Library","125 East 8th Avenue, Public Service Building, Eugene, OR 97401","Lane","Special","125 East 8th Avenue, Public Service Building, Eugene, OR 97401","(541) 682-4337","(541) 682-4315","lclawlib@co.lane.or.us","http://www.lanecounty.org/lawlibrary",,"POINT (-123.090442 44.050993)","POINT (-123.090442 44.050993)"
"Deschutes Public Library System - La Pine Library","16425 1st St, La Pine, OR 97739","Deschutes","Public","16425 1st St, La Pine, OR 97739","541-312-1090","541-536-0752",,"http://www.deschuteslibrary.org/lapine/","NONE","POINT (-121.505098 43.674573)","POINT (-121.505098 43.674573)"
"University Of Oregon - John E. Jaqua Law Library","1515 Agate St, Eugene, OR 97403","Lane","Academic","1515 Agate St, 1221 University of Oregon, Eugene, OR 97403-1221","541-346-3088","541-346-1669","lawcirc@uoregon.edu","http://libweb.uoregon.edu/law/",,"POINT (-123.06966 44.045914)","POINT (-123.06966 44.045914)"
"Lane Library District","64 W. Oregon Ave., Creswell, OR 97426","Lane","Public","PO Box  366, Creswell, OR 97426","(541) 895-3053","(541) 895-3507","service.desk@creswell-library.org","http://www.creswell-library.org","NONE","POINT (-123.019653 43.91785)","POINT (-123.019653 43.91785)"
"Lakeside Public Library","915 N Lake, Lakeside, OR 97449","Coos","Public","PO Box R, Lakeside, OR 97449","(541) 759-4432","(541) 759-4752","cyoung@coastlinelibrarynetwork.org","http://www.cooslibraries.org","CCLSD","POINT (-124.173881 43.575929)","POINT (-124.173881 43.575929)"
"Lincoln County Library District - Siletz Public Library","255 SE S Gaither St, Siletz, OR 97380","Lincoln","Public","P.O. Box 130, Siletz, OR 97380","(541) 444-2855","(541) 444-2855","siletz@siletzlibrary.org","http://www.siletzpubliclibrary.org","LCLD","POINT (-123.918035 44.721106)","POINT (-123.918035 44.721106)"
"Multnomah County Library - Rockwood Library","17917 SE Stark St, Portland, OR 97233","Multnomah","Public",,"503-988-5123",,,,"NONE","POINT (-122.478984 45.519153)","POINT (-122.478984 45.519153)"
"Hazel M. Lewis Library","511 3rd Ave, Powers, OR 97466","Coos","Public","PO Box 559, Powers, OR 97466","(541) 439-5311","(541) 439-5311","jbedwell@coastlinelibrarynetwork.org","https://www.cooslibraries.org","CCLSD","POINT (-124.070259 42.88163)","POINT (-124.070259 42.88163)"
"St. Helens Public Library","375 S 18th St, Ste A, St. Helens, OR 97051","Columbia","Public","375 S 18th St, Ste A, St. Helens, OR 97051","(503) 397-4544","(503) 366-3020","shpl@sthelensoregon.gov","https://www.sthelensoregon.gov/library","NONE","POINT (-122.814039 45.854941)","POINT (-122.814039 45.854941)"
"Yoncalla Library","194 Birch Street, Yoncalla, OR 97499","Douglas","Public","PO Box 157, Yoncalla, OR 97499","(541) 849-2128","(541) 849-2128","yoncallalibrary@gmail.com","https://yoncalla-library.business.site","NONE","POINT (-123.284584 43.599819)","POINT (-123.284584 43.599819)"
"Cove Public Library","606 Main St, Cove, OR 97824","Union","Volunteer","PO Box 31, Cove, OR 97824","(541) 568-5001",,,"http://coveoregon.org/cove-library/",,"POINT (-117.811431 45.296965)","POINT (-117.811431 45.296965)"
"University of Western States - W. A. Budden Library","2900 NE 132nd, Portland, OR 97230-3099",,"Academic",,"503-251-5752","503-251-5759",,"https://www.uws.edu/community/library/",,"POINT (-122.527005 45.543486)","POINT (-122.527005 45.543486)"
"Jackson County Library Services - Shady Cove Library","22477 HIGHWAY 62, SHADY COVE OR 97539-9718","Jackson","Public","PO Box 502, Shady Cove, OR 97539","(541) 878-2270","(541) 878-2270","info@jcls.org","http://www.jcls.org","NONE",,
"Stanfield Public Library","180 West Coe Ave, Stanfield, OR 97875","Umatilla","Public","PO Box 489, Stanfield, OR 97875","(541) 449-1254","(541) 449-3264","library@cityofstanfield.com","https://cityofstanfield.com/library/","UCSLD","POINT (-119.218699 45.780538)","POINT (-119.218699 45.780538)"
"Siuslaw Public Library District - Mapleton Branch Library","88148 Riverview Avenue, Mapleton, OR 97453","Lane","Public",,"(541) 268-4033",,,,"NONE","POINT (-123.862565 44.036683)","POINT (-123.862565 44.036683)"
"Multnomah County Library - Multnomah County Central Library","801 SW 10th Ave, Portland, OR 97205","Multnomah","Public","205 NE Russell St, Portland, OR 97212","503-988-5123",,,,"NONE","POINT (-122.682466 45.519341)","POINT (-122.682466 45.519341)"
"Riddle City Library","637 1st St, Riddle, OR 97469","Douglas","Volunteer","PO Box 990, Riddle, OR 97469","(541) 874-2070","(541) 874-2070",,"https://riddlelibrary.org/","NONE","POINT (-123.287762 43.600568)","POINT (-123.287762 43.600568)"
"North Bend Public Library","1800 Sherman Avenue, North Bend, OR 97459","Coos","Public","1800 Sherman Avenue, North Bend, OR 97459","(541) 756-0400","(541) 756-1073","hlagasse@coastlinelibrarynetwork.org","http://northbendoregon.us/library","CCLSD","POINT (-124.224035 43.408901)","POINT (-124.224035 43.408901)"
"Astoria Public Library","450 10th St, Astoria, OR 97103","Clatsop","Public","450 10th St, Astoria, OR 97103","(503) 325-7323",,"comments@astorialibrary.org","http://astorialibrary.org","NONE","POINT (-123.832772 46.188039)","POINT (-123.832772 46.188039)"
"Chemeketa Cooperative Regional Library Service","4000 Lancaster Dr NE, Salem, OR 97309","Marion","Public","PO Box 14007, Salem, OR 97309","(503) 399-5165","(503) 399-7316",,"http://www.ccrls.org","CCRLS","POINT (-122.983392 44.976325)","POINT (-122.983392 44.976325)"
"Hermiston Public Library","235 E Gladys Ave, Hermiston, OR 97838","Umatilla","Public","235 E Gladys Ave, Hermiston, OR 97838","(541) 567-2882","(541) 667-5055","library@hermiston.or.us","http://www.hermistonlibrary.us","UCSLD","POINT (-119.288087 45.841422)","POINT (-119.288087 45.841422)"
"Clatsop County Law Library","749 Commercial St, Astoria, OR 97103","Clatsop","Special","PO Box 910, 749 Commercial St, Astoria, OR 97103","(503) 325-8601",,"cscheick@co.clatsop.or.us",,,"POINT (-123.835192 46.189098)","POINT (-123.835192 46.189098)"
"Multnomah County Library - Gregory Heights Library","7921 NE Sandy Blvd, Portland, OR 97213","Multnomah","Public",,"503-988-5123",,,,"NONE","POINT (-122.581067 45.55143)","POINT (-122.581067 45.55143)"
"New Hope Christian College - Flint Memorial Library","2155 Bailey Hill Rd., Eugene, OR 97405-1194","Lane","Academic",,"541-485-1780","541-343-5801","library@newhope.edu","http://www.newhope.edu/library/",,"POINT (-123.154594 44.034815)","POINT (-123.154594 44.034815)"
"Halsey City Library","773 W 1st Street, Halsey, OR 97348","Linn","Public","PO Box 10, Halsey, OR 97348","(541) 369-2705","(541) 369-2521","library@cityofhalsey.com","https://www.cityofhalsey.com/library%20home.htm",,"POINT (-123.10887 44.383565)","POINT (-123.10887 44.383565)"
"Clatsop Community College - Dora Badollet Library","1680 Lexington Ave., Astoria, OR 97103-3609","Clatsop","Academic","1680 Lexington Ave., Astoria, OR 97103-3609","503-338-2462","503-338-2387",,"http://lrc.clatsopcc.edu/",,"POINT (-123.821884 46.183485)","POINT (-123.821884 46.183485)"
"Coos Bay Public Library","525 Anderson, Coos Bay, OR 97420","Coos","Public","525 Anderson, Coos Bay, OR 97420","(541) 269-1101","(541) 269-7567","bayref@coosbaylibrary.org","http://www.coosbaylibrary.org","CCLSD","POINT (-124.217207 43.367189)","POINT (-124.217207 43.367189)"
"Tillamook County Library - Rockaway Branch Library","120 N. Coral, Rockaway, OR 97136","Tillamook","Public",,"503-355-2665",,,,"NONE","POINT (-123.94187 45.613541)","POINT (-123.94187 45.613541)"
"Corvallis-Benton County Public Library - Philomath Community Library","1050 Applegate, Philomath, OR 97370","Benton","Public","PO Box 400, Philomath, OR 97370","(541) 929-3016","(541) 929-5934",,"http://www.cbcpl.net","NONE","POINT (-123.370871 44.539146)","POINT (-123.370871 44.539146)"
"Mt. Hood Community College - Library","26000 SE Stark St, Gresham, OR 97030-3300",,"Academic",,"503-491-7161","503-491-7389","reference@mhcc.edu","http://www.mhcc.edu/library/",,"POINT (-122.396172 45.518941)","POINT (-122.396172 45.518941)"
"Multnomah County Library - Gresham Library","385 NW Miller Ave, Gresham, OR 97030","Multnomah","Public",,"503.988.5123",,,,"NONE","POINT (-122.432567 45.500719)","POINT (-122.432567 45.500719)"
"Mary Gilkey Public Library","416 Ferry St, Dayton, OR 97114","Yamhill","Public","PO Box 339, Dayton, OR 97114","(503) 864-2221","(503) 864-2956","cpark@ci.dayton.or.us","http://www.ci.dayton.or.us","CCRLS","POINT (-123.076094 45.220505)","POINT (-123.076094 45.220505)"
"Multnomah County Library - North Portland Library","512 N Killingsworth St, Portland, OR 97217","Multnomah","Public",,"503-988-5123",,,,"NONE","POINT (-122.671504 45.562702)","POINT (-122.671504 45.562702)"
"Western Seminary - Cline-Tunnell Library","5511 SE Hawthorne Blvd, Portland, OR 97215-3399",,"Academic",,"503-517-1840","503-517-1801","library@westernseminary.edu","http://www.westernseminary.edu/library",,"POINT (-122.605677 45.511755)","POINT (-122.605677 45.511755)"
"Willamina Public Library","382 NE C St, Willamina, OR 97396","Yamhill","Public","PO Box 273, Willamina, OR 97396","(503) 876-6182","(503) 876-1121","frosts@ci.willamina.or.us","http://willamina.ccrls.org/","CCRLS","POINT (-123.486417 45.082303)","POINT (-123.486417 45.082303)"
"Wasco County Library Service District","511 Washington St., Suite 302, The Dalles, OR 97058","Wasco","Public","722 Court St., The Dalles, OR 97058","(541) 296-2815","(541) 296-4179",,"http://wascocountylibrary.com/","WCLSD","POINT (-121.183724 45.599431)","POINT (-121.183724 45.599431)"
"Multnomah University - John & Mary Mitchell Library","8435 NE Glisan St, Portland, OR 97220-5898",,"Academic",,"503-251-5322","503-254-1268",,"http://www.multnomah.edu/resources/campus-resources/mitchell-library/",,"POINT (-122.575939 45.526401)","POINT (-122.575939 45.526401)"
"Tillamook County Library - Garibaldi Branch Library","107 Sixth St, 107 6th St, Garibaldi, OR 97118","Tillamook","Public","PO Box 485, Garibaldi, OR 97118","503-332-2100",,,,"NONE","POINT (-123.913976 45.559698)","POINT (-123.913976 45.559698)"
"Eugene Public Library - Bethel","1990 Echo Hollow Rd., Eugene, OR 97402","Lane","Public",,"541-682-5450","541-682-5770","LibraryAskUs@ci.eugene.or.us","http://www.eugene-or.gov/library","NONE","POINT (-123.168118 44.083507)","POINT (-123.168118 44.083507)"
"Sandy Public Library - Hoodland Library","24525 E Welches Rd, Welches, OR 97067","Clackamas","Public","PO Box 298, Welches, OR 97067","(503) 622-3460",,,"http://www.ci.sandy.or.us/library","LINCC","POINT (-121.963356 45.345829)","POINT (-121.963356 45.345829)"
"Baker County Public Library","2400 Resort St, Baker City, OR 97814","Baker","Public","2400 Resort St, Baker City, OR 97814","(541) 523-6419","(541) 523-9088","info@bakerlib.org","http://www.bakerlib.org","NONE","POINT (-117.828984 44.781058)","POINT (-117.828984 44.781058)"
"Corvallis-Benton County Public Library - Monroe Community Library","380 N. Fifth St, Monroe, OR 97456","Benton","Public","PO Box 21, Monroe, OR 97456","(541) 847-5174","(541) 847-5173",,"http://www.cbcpl.net","NONE","POINT (-123.298126 44.319108)","POINT (-123.298126 44.319108)"
"Chemeketa Community College - Library","4000 Lancaster Dr NE, Salem, OR 97309","Marion","Academic","PO Box 14007, Salem, OR 97309","503-399-5043","503-399-5214",,"http://library.chemeketa.edu",,"POINT (-122.983392 44.976325)","POINT (-122.983392 44.976325)"
"Clackamas County Library - Oak Lodge Library","16201 SE McLoughlin Blvd., Oak Grove, OR 97267","Clackamas","Public",,"(503) 655-8543",,"oaklodge@lincc.org","http://www.clackamas.us/lib","LINCC","POINT (-122.624219 45.40598)","POINT (-122.624219 45.40598)"
"St. Charles Medical Library","2500 NE Neff Rd, Bend, OR 97701","Deschutes","Special","2500 NE Neff Rd, Bend, OR 97701","(541) 706-6430",,"library@stcharleshealthcare.org","http://stcharlesmedicallibrary.org",,"POINT (-121.266708 44.065757)","POINT (-121.266708 44.065757)"
"Multnomah County Library - Troutdale Library","2451 SW Cherry Park Rd, Troutdale, OR 97060","Multnomah","Public","2451 SW Cherry Park Rd, Troutdale, OR 97060","(503) 988-5123","(503) 988-5441",,"http://www.multcolib.org/","NONE","POINT (-122.409342 45.529108)","POINT (-122.409342 45.529108)"
"Toledo Public Library","173 NW 7th St, Toledo, OR 97391","Lincoln","Public","173 NW 7th St, Toledo, OR 97391","(541) 336-3132",,"toledolibrary@cityoftoledo.org","http://www.cityoftoledo.org/library/","LCLD","POINT (-123.938846 44.625506)","POINT (-123.938846 44.625506)"
"Warner Pacific University - Otto F. Linn Library","2219 SE 68th Ave, Portland, OR 97215-4099",,"Academic",,"503-517-1102","503-517-1351","library@warnerpacific.edu","http://www.warnerpacific.edu/academics/library/",,"POINT (-122.593711 45.506827)","POINT (-122.593711 45.506827)"
"Oregon City Public Library","606 John Adams St., Oregon City, OR 97045","Clackamas","Public","606 John Adams St., Oregon City, OR 97045","(503) 657-8269",,"gwilliams@orcity.org","http://www.orcity.org/library","LINCC","POINT (-122.60449 45.355653)","POINT (-122.60449 45.355653)"
"National University of Natural Medicine Library","049 SW Porter, Portland, OR 97201-4848","Multnomah","Academic",,"503-552-1542","503-552-1547",,"http://library.nunm.edu/",,"POINT (-122.678358 45.501552)","POINT (-122.678358 45.501552)"
"Klamath County Library - Merrill Branch Library","365 W Front St, Merrill, OR 97633","Klamath","Public",,"(541) 798-5393","(541) 798-5393","merrillstaff@klamathlibrary.org","http://www.klamathlibrary.org","NONE","POINT (-121.60286 42.023978)","POINT (-121.60286 42.023978)"
"Eugene Public Library - Sheldon","1566 Coburg Rd, Eugene, OR 97401","Lane","Public",,"541-682-5450","541-682-5781","LibraryAskUs@ci.eugene.or.us","http://www.eugene-or.gov/library","NONE","POINT (-123.068119 44.079763)","POINT (-123.068119 44.079763)"
"Oregon Institute Of Technology Libraries","3201 Campus Drive, Klamath Falls, OR 97601-8801","Klamath","Academic","Oregon Tech Library - LRC 216, 3201 Campus Drive, Klamath Falls, OR 97601-8801","541-885-1772","541-885-1777","libtech@oit.edu","http://www.oit.edu/libraries",,"POINT (-121.782271 42.254213)","POINT (-121.782271 42.254213)"
"Silver Falls Library District","410 S Water St, Silverton, OR 97381","Marion","Public","410 S Water St, Silverton, OR 97381","(503) 873-5173","(503) 873-6227","silvfals@ccrls.org","http://www.silverfallslibrary.org","CCRLS","POINT (-122.781081 45.002851)","POINT (-122.781081 45.002851)"
"Lake County Library - Silver Lake Branch Library","65521 HIGHWAY 31, SILVER LAKE OR 97638-9511","Lake","Public","PO Box 87, Silver Lake, OR 97638","(541) 576-2146",,"rosav@lakecountylibrary.org",,"NONE",,
"Oregon Coast Community College Library","400 SE College Way, Newport, OR 97366","Lincoln","Academic","400 SE College Way, Newport, OR 97366","541-867-8526",,"library.services@oregoncoastcc.org","http://www.oregoncoastcc.org/library/",,"POINT (-124.044592 44.603591)","POINT (-124.044592 44.603591)"
"Burns Paiute Tribal Library","100 Pasigo St., Burns, OR 97720","Harney","Tribal","100 Pasigo St., Burns, OR 97720",,,,"https://burnspaiute-nsn.gov/departments/education/",,"POINT (-119.076356 43.611018)","POINT (-119.076356 43.611018)"
"University Of Portland - Clark Library","5000 N Willamette Blvd 97203, Portland, OR 97203","Multnomah","Academic",,"503-943-7111","503-943-7491","library@up.edu","http://library.up.edu",,"POINT (-122.725435 45.574789)","POINT (-122.725435 45.574789)"
"Ledding Library","10660 SE 21st Ave, Milwaukie, OR 97222","Clackamas","Public","10660 SE 21st Ave, Milwaukie, OR 97222","(503) 786-7580",,,"http://www.milwaukieoregon.gov/library","LINCC","POINT (-122.640669 45.446117)","POINT (-122.640669 45.446117)"
"Springfield Public Library","225 5th St, Springfield, OR 97477","Lane","Public","225 5th St, Springfield, OR 97477","(541) 726-3766","(541) 726-3747","library@springfield-or.gov","http://wheremindsgrow.org","NONE","POINT (-123.019538 44.04732)","POINT (-123.019538 44.04732)"
"Jackson County Library Services - Ashland Branch Library","410 Siskiyou Blvd, Ashland, OR 97520","Jackson","Public",,"(541) 774-6980","(541) 774-6892","info@jcls.org","http://www.jcls.org","NONE","POINT (-122.70947 42.194204)","POINT (-122.70947 42.194204)"
"Corban University - Library","5000 Deer Park Dr SE, Salem, OR 97317-9392","Marion","Academic","5000 Deer Park Drive SE, Salem, OR 97317","503-375-7016","503-375-7196","library@corban.edu","http://inside.corban.edu/library",,"POINT (-122.96185 44.88345)","POINT (-122.96185 44.88345)"
"Echo Public Library","20 S. Bonanza, Echo, OR 97826","Umatilla","Public","PO Box 9, Echo, OR 97826","541-376-6038","541-376-6040","dave@echo-oregon.com","https://echo-oregon.com/library/","UCSLD","POINT (-119.195058 45.741807)","POINT (-119.195058 45.741807)"
"University Of Oregon - Knight Library","1299 University of Oregon, Eugene, OR 97403-1299","Lane","Academic",,"541-346-3053","541-346-3485",,"http://libweb.uoregon.edu",,"POINT (-123.074673 44.044741)","POINT (-123.074673 44.044741)"
"Gaston Community Library","116 Front St, Gaston, OR 97119","Washington","Volunteer","P.O. Box 129, Gaston, OR 97119","(503) 985-3464",,"gastonlibrarian@comcast.net","http://gastoncommunitylibrary.org",,"POINT (-123.140027 45.437903)","POINT (-123.140027 45.437903)"
"Cedar Mill Community Library","1080 NW Saltzman Rd, Portland, OR 97229","Washington","Public","1080 NW Saltzman Rd, Portland, OR 97229","(503) 644-0043","(503) 644-3964","cedarmill@wccls.org","http://library.cedarmill.org/","WCCLS","POINT (-122.806634 45.527211)","POINT (-122.806634 45.527211)"
"Confederated Tribes of Siletz Tribal Library","201 S.E. Swan Avenue, Siletz, OR 97380","Lincoln","Tribal","PO Box 549, Siletz, OR 97380","(541) 444-2532",,,"http://www.ctsi.nsn.us",,"POINT (-123.916702 44.720227)","POINT (-123.916702 44.720227)"
"Multnomah County Library - Hillsdale Library","1525 SW Sunset Blvd., Portland, OR 97239","Multnomah","Public",,"503-988-5123",,,,"NONE","POINT (-122.694364 45.479688)","POINT (-122.694364 45.479688)"
"Eugene Public Library - Downtown Library","100 W 10th Ave, Eugene, OR 97401","Lane","Public","100 W 10th Ave, Eugene, OR 97401","(541) 682-5450","(541) 682-5898","LibraryAskUs@ci.eugene.or.us","http://www.eugene-or.gov/library","NONE","POINT (-123.09504 44.048842)","POINT (-123.09504 44.048842)"
"North Douglas Library District","205 West A Ave, Drain, OR 97435","Douglas","Public","PO Box 128, Drain, OR 97435","(541) 836-2648",,"info@ndld.org","https://www.ndld.org/","NONE","POINT (-123.316747 43.662094)","POINT (-123.316747 43.662094)"
"Albany Public Library - Albany Downtown Carnegie Library","302 Ferry Street SW, Albany, OR 97321","Linn","Public","301 Ferry Street SW, Albany, OR 97321","(541) 917-7585","(541) 917-7586","AskAlbany@cityofalbany.net","http://library.cityofalbany.net","NONE","POINT (-123.108316 44.635249)","POINT (-123.108316 44.635249)"
"Central Oregon Community College","2600 NW College Way, Bend, OR 97703-5998","Deschutes","Academic","2600 NW College Way, Bend, OR 97703","541-383-7560","541-383-7507",,"http://www.cocc.edu/Library/",,"POINT (-121.347712 44.069344)","POINT (-121.347712 44.069344)"
"Josephine Community Library District - Grants Pass Main Branch Library","200 NW C Street, Grants Pass, OR 97526","Josephine","Public","200 NW C Street, Grants Pass, OR 97526","(541) 476-0571",,"info@josephinelibrary.org","http://www.josephinelibrary.org/","NONE","POINT (-123.326899 42.442672)","POINT (-123.326899 42.442672)"
"Multnomah County Library - Fairview-Columbia Library","1520 NE Village St., Fairview, OR 97024","Multnomah","Public",,"503.988.5123",,,,"NONE","POINT (-122.439482 45.532236)","POINT (-122.439482 45.532236)"
"Newberg Public Library","503 E Hancock St, Newberg, OR 97132","Yamhill","Public","503 E Hancock St, Newberg, OR 97132","(503) 538-7323",,"nplibrary@newbergoregon.gov","https://www.newbergoregon.gov/library","CCRLS","POINT (-122.974632 45.301131)","POINT (-122.974632 45.301131)"
"Brownsville Community Library","146 Spaulding Ave, Brownsville, OR 97327","Linn","Public","PO Box 68, Brownsville, OR 97327","(541) 466-5454",,"library@ci.brownsville.or.us","http://www.brownsvillecommunitylibrary.org","NONE","POINT (-122.983779 44.394219)","POINT (-122.983779 44.394219)"
"Columbia City Community Library","2000 2nd Street, Columbia City, OR 97018","Columbia","Volunteer","PO Box 189, 1840 Second Street, Columbia City, OR 97018","(503) 366-8020",,"ccclibrary@live.com","https://www.freewebs.com/cccomlibrary/",,"POINT (-122.80948 45.891567)","POINT (-122.80948 45.891567)"
"Tualatin Public Library","18878 SW Martinazzi Ave, Tualatin, OR 97062","Washington","Public","18878 SW Martinazzi Ave, Tualatin, OR 97062","(503) 691-3074","(503) 692-3512","librarymail@tualatin.gov","http://www.tualatinoregon.gov/library","WCCLS","POINT (-122.758747 45.383534)","POINT (-122.758747 45.383534)"
"Ione Library District","385 West 2nd St, Ione, OR 97843","Morrow","Public","PO Box 125, Ione, OR 97843","(541)561-9828",,"ionelibrary@gmail.com","https://www.ionepubliclibrary.com/","NONE","POINT (-119.828661 45.500567)","POINT (-119.828661 45.500567)"
"Lincoln County Library District","141 NW 11th, Newport, OR 97365","Lincoln","Public","PO Box 2027, Newport, OR 97365","(541) 265-3066","(541) 265-3066","lcld@lincolncolibrarydist.org","https://lincolnlibrary.specialdistrict.org","LCLD","POINT (-124.053664 44.644717)","POINT (-124.053664 44.644717)"
"Oregon Health & Science University","3181 SW Sam Jackson Park Rd - LIB, , Portland, OR 97239-3098","Multnomah","Academic","3181 SW Sam Jackson Park Rd - LIB, Portland, OR 97239-3098","503-494-3462","503-494-3322","library@ohsu.libanswers.com","http://www.ohsu.edu/library",,"POINT (-122.68677 45.4992)","POINT (-122.68677 45.4992)"
"Salem Public Library","585 Liberty St SE, Salem, OR 97301","Marion","Public","585 Liberty St SE, Salem, OR 97301","(503) 588-6315","(503) 589-2011","library@cityofsalem.net","http://www.salemlibrary.org","CCRLS","POINT (-123.041201 44.935281)","POINT (-123.041201 44.935281)"
"Oregon Trail Library District - OTLD Irrigon Branch","490 NE Main Street, Irrigon, OR 97844","Morrow","Public","PO Box 9, Irrigon, OR 97844","(541)922-0138","(541)922-6300","lhauner@otld.org","https://www.otld.org/","NONE","POINT (-119.495332 45.895802)","POINT (-119.495332 45.895802)"
"Marion County Law Library","234 High Street SE, Salem, OR 97301","Marion","Special","Marion County Law Library, PO Box 14500, Salem, OR 97309-5036","(503) 588-5090","(503) 373-4386","lawlibrary@co.marion.or.us","http://www.co.marion.or.us/LC/LawLibrary",,"POINT (-123.037812 44.938425)","POINT (-123.037812 44.938425)"
"Lowell Public Library, Closed","107 E. 3rd St., Lowell, OR 97452","Lane","Public","PO Box 490, Lowell, OR 97452","(541) 937-2157","(541) 937-2936","JCaudle@ci.lowell.or.us",,,"POINT (-122.781747 43.921842)","POINT (-122.781747 43.921842)"
"Seaside Public Library","1131 Broadway St, Seaside, OR 97138","Clatsop","Public","1131 Broadway, Seaside, OR 97138","(503) 738-6742","(503) 738-6552","seasidepl@gmail.com","http://www.seasidelibrary.org","NONE","POINT (-123.919146 45.993129)","POINT (-123.919146 45.993129)"
"Lake County Library - Christmas Valley Branch Library","57334 Christmas Tree Lane, Christmas Valley, OR 97641","Lake","Public","PO Box 87, Christmas Valley, OR 97641","(541) 576-2336","(541) 576-2336","juliec@lakecountylibrary.org","http://www.lakecountylibrary.org/","NONE","POINT (-120.680976 43.239679)","POINT (-120.680976 43.239679)"
"Coquille Public Library","105 N Birch St, Coquille, OR 97423","Coos","Public","105 N Birch St, Coquille, OR 97423","(541) 396-2166",,"ssands@coastlinelibrarynetwork.org","https://coquillepubliclibrary.org/","CCLSD","POINT (-124.190756 43.175541)","POINT (-124.190756 43.175541)"
"Newport Public Library","35 NW Nye St, Newport, OR 97365","Lincoln","Public","35 NW Nye St, Newport, OR 97365","(541) 265-2153",,"reference@newportlibrary.org","http://www.newportlibrary.org","LCLD","POINT (-124.055643 44.636986)","POINT (-124.055643 44.636986)"
"Stayton Public Library","515 N First Ave, Stayton, OR 97383","Marion","Public","515 N First Ave, Stayton, OR 97383","(503) 769-3313","(503) 769-3218","staytonpl@ccrls.org","http://www.staytonoregon.gov/page/library_home","CCRLS","POINT (-122.794371 44.799125)","POINT (-122.794371 44.799125)"
"Woodburn Public Library","280 Garfield St, Woodburn, OR 97071","Marion","Public","280 Garfield St, Woodburn, OR 97071","(503) 982-5262","(503) 982-5258","reference@ci.woodburn.or.us","https://www.woodburn-or.gov/library","CCRLS","POINT (-122.857981 45.143026)","POINT (-122.857981 45.143026)"
"Process Work Institute - GRADUATE SCHOOL","2049 NW Hoyt St, Portland, OR 97209",,"Academic",,"503-223-8188","503-227-7003",,"https://www.processwork.edu",,"POINT (-122.69353 45.527034)","POINT (-122.69353 45.527034)"
"Multnomah County Library - Albina Library","3605 NE 15th Ave, Portland, OR 97212","Multnomah","Public",,"503-988-5123",,,,"NONE","POINT (-122.650397 45.548892)","POINT (-122.650397 45.548892)"
"Amity Public Library","307 S Trade St, Amity, OR 97101","Yamhill","Public","PO Box 470, Amity, OR 97101","(503) 835-8181",,,"https://www.cityofamityoregon.org/library","CCRLS","POINT (-123.206208 45.117191)","POINT (-123.206208 45.117191)"
"Oregon College Of Oriental Medicine","75 NW Couch Street, Portland, OR 97209","Multnomah","Academic",,"503-253-3443 x 132",,"librarian@ocom.edu","https://library.ocom.edu/",,"POINT (-122.671064 45.523872)","POINT (-122.671064 45.523872)"
"Enterprise Public Library","101 NE First St, Enterprise, OR 97828","Wallowa","Public","101 NE First St, Enterprise, OR 97828","(541) 426-3906","(541) 426-3395","enterpl@eoni.com","http://www.enterpriseoregon.org","NONE","POINT (-117.276305 45.425804)","POINT (-117.276305 45.425804)"
"Klamath County Library Service District","126 S Third St, Klamath Falls, OR 97601","Klamath","Public","126 S Third St, Klamath Falls, OR 97601","(541) 882-8895","(541) 882-6166",,"http://www.klamathlibrary.org","NONE","POINT (-121.784577 42.222545)","POINT (-121.784577 42.222545)"
"Mt. Angel Public Library","290 E. Charles St, Mt. Angel, OR 97362","Marion","Public","PO Box 870, Mt. Angel, OR 97362","(503) 845-6401",,"library.mountangel@ccrls.org","http://mountangel.ccrls.org/","CCRLS","POINT (-122.797871 45.067809)","POINT (-122.797871 45.067809)"
"Multnomah County Library - Kenton Library","8226 N. Denver Ave, Portland, OR 97217","Multnomah","Public","8226 N. Denver Ave, Portland, OR 97217","(503) 988-5123","(503) 988-5441",,"http://www.multcolib.org/","NONE","POINT (-122.686888 45.582892)","POINT (-122.686888 45.582892)"
"Hood River County Library District","502 State St, Hood River, OR 97031","Hood River","Public","502 State St, Hood River, OR 97031","541-386-2535",,"info@hoodriverlibrary.org","http://www.hoodriverlibrary.org/","NONE","POINT (-121.515597 45.708179)","POINT (-121.515597 45.708179)"
"Jackson County Library Services - Central Point Branch Library","116 South Third Street, Central Point, OR 97502","Jackson","Public",,"(541) 664-3228",,"info@jcls.org","http://www.jcls.org","NONE","POINT (-122.914071 42.37382)","POINT (-122.914071 42.37382)"
"F. Maxine and Thomas W. Cook Memorial Library","2006 4th Street, La Grande, OR 97850","Union","Public","2006 4th Street, La Grande, OR 97850","(541) 962-1339",,"cbushman@cookmemoriallibrary.org","https://www.cookmemoriallibrary.org/","NONE","POINT (-118.096407 45.330328)","POINT (-118.096407 45.330328)"
"Vernonia Public Library","701 Weed Ave, Vernonia, OR 97064","Columbia","Public","701 Weed Ave, Vernonia, OR 97064","(503) 429-1818","(503) 429-0729","library@vernonia-or.gov","https://www.vernonia-or.gov/departments/library/","NONE","POINT (-123.19649 45.858083)","POINT (-123.19649 45.858083)"
"Clackamas Community College Library","19600 Molalla Ave, Oregon City, OR 97045-7998","Clackamas","Academic",,"503-594-6323","503-655-8925","reference@clackamas.edu","http://library.clackamas.edu",,"POINT (-122.579593 45.323744)","POINT (-122.579593 45.323744)"
"Eastern Oregon University Library","1 University Blvd, La Grande, OR 97850-2899","Union","Academic","1 University Boulevard, OR","541-962-3792",,,"http://library.eou.edu",,"POINT (-118.093198 45.321201)","POINT (-118.093198 45.321201)"
"Oregon OSHA Resource Center","350 Winter St NE, Room 26, Salem, OR 97301","Marion","Special","350 Winter St NE, Salem, OR 97301","1-800-922-2689","(503) 947-7463","osha.resource@state.or.us","http://www.orosha.org/standards/resource_center.html",,"POINT (-123.030838 44.94127)","POINT (-123.030838 44.94127)"
"Leaburg Library","42888 McKenzie Hwy, Walterville, OR 97489","Lane","Volunteer","PO Box 267, Walterville, OR 97489","(541) 896-3112",,,"http://www.leaburglibrary.weebly.com",,"POINT (-122.675605 44.107185)","POINT (-122.675605 44.107185)"
"Corvallis-Benton County Public Library","645 NW Monroe Ave, Corvallis, OR 97330","Benton","Public","645 NW Monroe Ave, Corvallis, OR 97330","(541) 766-6928","(541) 766-6915",,"http://www.cbcpl.net","NONE","POINT (-123.264563 44.56527)","POINT (-123.264563 44.56527)"
"Cornelius Public Library","1370 N Adair St, Cornelius, OR 97113","Washington","Public","1355 N Barlow St, Cornelius, OR 97113","(503) 357-4093","(503) 357-7775","library@ci.cornelius.or.us","http://www.ci.cornelius.or.us/library","WCCLS","POINT (-123.055217 45.52092)","POINT (-123.055217 45.52092)"
"Willamette University - J. W. Long Law Library","245 Winter St SE, Salem, OR 97301-3916","Marion","Academic","245 Winter St SE, Salem, OR 97301-3916","503-370-6386","503-375-5426",,"http://www.willamette.edu/wucl/longlib/index.html",,"POINT (-123.033818 44.935336)","POINT (-123.033818 44.935336)"
"Hillsboro Public Library - Brookwood Library","2850 NE Brookwood Parkway, Hillsboro, OR 97124","Washington","Public","2850 NE Brookwood Parkway, Hillsboro, OR 97124","(503) 615-6500","(503) 615-6601",,"https://www.hillsboro-oregon.gov/our-city/departments/library","WCCLS","POINT (-122.93698 45.543238)","POINT (-122.93698 45.543238)"
"Milton-Freewater Public Library","8 SW Eighth Ave, Milton-Freewater, OR 97862-1501","Umatilla","Public","8 SW Eighth Ave, Milton-Freewater, OR 97862-1501","(541) 938-8247","(541) 938-8254","librarycirculation@milton-freewater-or.gov","http://www.mfcity.com/library","UCSLD","POINT (-118.385336 45.927644)","POINT (-118.385336 45.927644)"
"Rainier City Library","106 B St, Rainier, OR 97048","Columbia","Public","PO Box 100, Rainier, OR 97048","(503) 556-7301","(503) 556-3200",,"http://www.cityofrainier.com/?view=library","NONE","POINT (-122.855747 45.140077)","POINT (-122.855747 45.140077)"
"Scappoose Public Library","52469 SE 2nd St, Scappoose, OR 97056","Columbia","Public","PO Box 400, Scappoose, OR 97056","(503) 543-7123","(503) 543-7161","scappl@scappooselibrary.org","http://www.scappooselibrary.org","NONE","POINT (-122.876321 45.756581)","POINT (-122.876321 45.756581)"
"Deschutes Public Library District","507 NW Wall St, Bend, OR 97703","Deschutes","Public","507 NW Wall St, Bend, OR 97703","(541) 312-1020","(541) 389-2982",,"http://www.deschuteslibrary.org","NONE","POINT (-121.317282 44.056159)","POINT (-121.317282 44.056159)"
"Portland Community College - Sylvania Campus","12000 SW 49th Ave, Portland, OR 97219-7199",,"Academic","PO Box 19000, Portland, OR 97280-0990","971-722-4935","971 722--4977","https://www.pcc.edu/library/about/people/contact/email-a-librarian/","http://www.pcc.edu/library",,"POINT (-122.727122 45.439574)","POINT (-122.727122 45.439574)"
"Linn County Law Library","304 Broadalbin St SW, Albany, OR 97321","Linn","Special","304 Broadalbin St SW, Albany, OR 97321","(541) 924 - 6902",,"aboedigheimer@co.linn.or.us","http://www.co.linn.or.us/Law%20Library/default.htm",,"POINT (-123.107127 44.635804)","POINT (-123.107127 44.635804)"
"Oregon Health & Science University - Isabel McDonald Library","505 NW 185th Ave, Beaverton, OR 97006-3499",,"Special",,"503-690-5309","503-690-5243","onprclib@ohsu.edu","http://www.ohsu.edu/xd/education/library/about/onprc-isabel-mcdonald-library.cfm?WT_rank=1#",,"POINT (-122.867568 45.52298)","POINT (-122.867568 45.52298)"
"Josephine Community Library District - Wolf Creek Branch Library","102 Ruth Avenue, Wolf Creek, OR 97497","Josephine","Public","200 NW C Street, Grants Pass, OR 97526","541-866-2606",,,,"NONE","POINT (-123.39687 42.695344)","POINT (-123.39687 42.695344)"
"University Of Oregon - Institute of Marine Biology Library","63466 Boat Basin Drive, Charleston, OR 97420-1221",,"Academic","PO Box 5389, Charleston, OR 97420","541-888-2581 X 219","541-888-3391",,,,"POINT (-124.328583 43.345474)","POINT (-124.328583 43.345474)"
"University Of Oregon - Mathematics Library","1021 East 13th Ave, Eugene, OR 97403-3914","Lane","Academic",,"541-346-3023",,"mathlib.uoregon.edu","https://library.uoregon.edu/scilib/mathlib",,"POINT (-123.068224 44.045523)","POINT (-123.068224 44.045523)"
"Clatskanie Library District","11 Lillich St, Clatskanie, OR 97016","Columbia","Public","PO Box 577, Clatskanie, OR 97016","(503) 728-3732","(503) 728-4304","admin@clatskanielibrary.org","http://www.clatskanielibrary.org/","NONE","POINT (-123.20213 46.10547)","POINT (-123.20213 46.10547)"
"Canby Public Library","220 NE 2nd Ave, Canby, OR 97013","Clackamas","Public","220 NE 2nd Ave, Canby, OR 97013","(503) 266-3394","(503) 266-1709","CanbyInfo@lincc.org","http://www.canbylibrary.org","LINCC","POINT (-122.691769 45.264098)","POINT (-122.691769 45.264098)"
"Oregon Trail Library District - OTLD Boardman Branch","200 S Main, Boardman, OR 97818","Morrow","Public","PO Box 849, Boardman, OR 97818","(541) 481-2665","(541) 481-2668","kstreet@otld.org","https://www.otld.org/","NONE","POINT (-119.700766 45.835036)","POINT (-119.700766 45.835036)"
"West Linn Public Library","1595 Burns St, West Linn, OR 97068","Clackamas","Public","1595 Burns St, West Linn, OR 97068","(503) 656-7853","(503) 742-8632","wlref@lincc.org","http://westlinnoregon.gov/library/","LINCC","POINT (-122.613833 45.367323)","POINT (-122.613833 45.367323)"
"Gilliam County Public Library","134 S Main, Condon, OR 97823","Gilliam","Public","PO Box 34, Condon, OR 97823","(541) 384-6052","(541) 384-6052","gclibrary@co.gilliam.or.us","http://www.co.gilliam.or.us/government/library/index.php","NONE","POINT (-120.184831 45.237483)","POINT (-120.184831 45.237483)"
"Oregon Institute of Technology Libraries - Shaw Historical Library at Oregon Tech","3201 Campus Drive, Klamath Falls, OR 97601-8801","Klamath","Academic","Shaw Historical Library, 3201 Campus Drive, Klamath Falls, OR 97601-8801","(541) 885-1686","(541) 885-1777","shawlib@oit.edu","http://www.oit.edu/shaw",,"POINT (-121.782271 42.254213)","POINT (-121.782271 42.254213)"
"Portland Community College - Rock Creek Campus","17705 NW Springville Rd, Building 9 - 2nd FloOR Portland, OR 97229",,"Academic","PO Box 19000, Portland, OR 97280-0990","971 722-7413","971 722--5318","https://www.pcc.edu/library/about/people/contact/email-a-librarian/","http://www.pcc.edu/library/",,"POINT (-122.85873 45.563046)","POINT (-122.85873 45.563046)"
"Birthingway College of Midwifery, Not Available at this Time","4997 Southwest Normandy Place, Beaverton, OR 97005-3635","Washington","Academic","12113 SE Foster Rd, Portland, OR 97266","503-760-3131",,"library@birthingway.edu","http://birthingway.edu/library/",,"POINT (-122.824426 45.483618)","POINT (-122.824426 45.483618)"
"Harney County Library","80 West D St, Burns, OR 97720","Harney","Public","80 West  D St, Burns, OR 97720","(541) 573-6670","(541) 573-1571","harneycl@harneycountylibrary.org","http://www.harneycountylibrary.org","NONE","POINT (-119.05529 43.592163)","POINT (-119.05529 43.592163)"
"Tillamook County Library - Tillamook County Library Bookmobile","1716 Third St, Tillamook, OR 97141","Tillamook","Public",,,,,,"NONE","POINT (-123.846541 45.456324)","POINT (-123.846541 45.456324)"
"Jackson County Library Services - Jacksonville Branch Library","340 West C Street, Jacksonville, OR 97530","Jackson","Public","PO Box 490, Jacksonville, OR 97530","(541) 899-1665","(541) 899-1665","info@jcls.org","http://www.jcls.org","NONE","POINT (-122.968684 42.315271)","POINT (-122.968684 42.315271)"
"Confederated Tribes of Umatilla Library","Tamastslikt Cultural Institute, 47106 Wildhorse Blvd., Pendleton, OR 97801","Umatilla","Tribal","Tamastslikt Cultural Institute, 47106 Wildhorse Blvd., Pendleton, OR 97801","(541) 429-7721",,"malissa.minthorn@tamastslikt.org","http://www.tamastslikt.org",,"POINT (-118.664803 45.650663)","POINT (-118.664803 45.650663)"
"Blue Mountain Community College","2411 NW Carden Ave, Pendleton, OR 97801-1000","Umatilla","Academic","PO Box 100, Pendleton, OR 97801","541- 278-5916",,"onlinelibrary@bluecc.edu","http://www.bluecc.edu/library",,"POINT (-118.81383 45.675622)","POINT (-118.81383 45.675622)"
"Happy Valley Library","13793 SE Sieben Park Way, Happy Valley, OR 97015","Clackamas","Public","13793 SE Sieben Park Way, Happy Valley, OR 97015","503 -783-3456",,"library@happyvalleyor.gov","https://www.happyvalleyor.gov/community/happy-valley-library/","LINCC","POINT (-122.513576 45.42204)","POINT (-122.513576 45.42204)"
"Wilsonville Public Library","8200 SW Wilsonville Rd, Wilsonville, OR 97070","Clackamas","Public","8200 SW Wilsonville Rd, Wilsonville, OR 97070","(503) 682-2744","(503) 682-8685","reference@wilsonvillelibrary.org","http://www.wilsonvillelibrary.org","LINCC","POINT (-122.761012 45.302904)","POINT (-122.761012 45.302904)"
"Deschutes Public Library System - Sisters Library","110 N Cedar St, Sisters, OR 97759","Deschutes","Public","PO Box 1209, Sisters, OR 97759","(541) 312-1070","(541) 549-9620",,"http://www.deschuteslibrary.org/sisters/","NONE","POINT (-121.545092 44.291822)","POINT (-121.545092 44.291822)"
"Independence Public Library","175 Monmouth St, Independence, OR 97351","Polk","Public","175 Monmouth St, Independence, OR 97351","(503) 838-1811","(503) 838-4486","achristensen@ci.independence.or.us","http://www.ci.independence.or.us/library","CCRLS","POINT (-123.185699 44.851123)","POINT (-123.185699 44.851123)"
"LINCC Library Services - Network","1810 Red Soils Court, #110, Oregon City, OR 97045","Clackamas","Public","1810 Red Soils Court, #110, Oregon City, OR 97045","(503) 723-4888","(503) 655-8238","contact@lincc.org","http://www.lincc.org","LINCC","POINT (-122.5949 45.33153)","POINT (-122.5949 45.33153)"
"North Powder City Library","290 E St, North Powder, OR 97867","Union","Public","PO Box 309, North Powder, OR 97867","(541) 898-2175","(541) 898-2175","npcitylibrary1@gmail.com","https://sagelib.org/member/north-powder-city-library","NONE","POINT (-117.920729 45.029187)","POINT (-117.920729 45.029187)"
"Hillsboro Public Library - Shute Park Library","775 SE Tenth Avenue, Hillsboro, OR 97123","Washington","Public","775 SE Tenth Avenue, Hillsboro, OR 97123","(503) 615-6500","(503) 615-6501",,"https://www.hillsboro-oregon.gov/our-city/departments/library","WCCLS","POINT (-122.974028 45.514032)","POINT (-122.974028 45.514032)"
"Portland Community College - Southeast Campus","2305 S.E. 82nd Ave., Portland, OR 97216","Multnomah","Academic","PO Box 19000, Portland, OR 97289-0900","(971) 722-6187",,"https://www.pcc.edu/library/about/people/contact/email-a-librarian/","http://www.pcc.edu/library/",,"POINT (-122.578728 45.506208)","POINT (-122.578728 45.506208)"
"Aloha Community Library","17455 SW Farmington Rd, Suite 26A, Aloha, OR 97007","Washington","Public","P.O. Box 6561, Aloha, OR 97007","503-259-0185",,"info@alohalibrary.org","http://alohalibrary.org","WCCLS","POINT (-122.858615 45.479285)","POINT (-122.858615 45.479285)"
"Junction City Public Library","726 Greenwood St, Junction City, OR 97448","Lane","Public","PO Box 280, Junction City, OR 97448","(541) 998-8942","(000) 000-0000","MSchneider@ci.junction-city.or.us","http://junctioncity.ploud.net/","NONE","POINT (-123.202607 44.220326)","POINT (-123.202607 44.220326)"
"Linfield University Libraries - Portland Campus Library","2255 NW 22nd Ave, Portland, OR 97210",,"Academic",,"503-413-7820","503-229-8016",,"https://www.linfield.edu/linfield-libraries/",,"POINT (-122.696926 45.539106)","POINT (-122.696926 45.539106)"
"Crook County Library","175 NW Meadow Lakes Dr, Prineville, OR 97754","Crook","Public","175 NW Meadow Lakes Dr, Prineville, OR 97754","(541) 447-7978","(541) 447-1308","library@crooklib.org","http://www.crooklib.org","NONE","POINT (-120.856965 44.301532)","POINT (-120.856965 44.301532)"
"Spray Public/School Library","303 Park Ave., Spray, OR 97874","Wheeler","Public","PO Box 230, Spray, OR 97874","(541) 468-2226","(541) 468-2630","ljohnson@spray.k12.or.us",,"NONE","POINT (-119.793004 44.833654)","POINT (-119.793004 44.833654)"
