"Agency, Board, Commission, Branch",Meeting Title,Short Description,Start Date & Time,End Date & Time,Meeting Location,City,State,Details,Public Comment Accepted,Contact Name,Phone Number,Contact Email,Web Link (optional),Map Link,Calendar Link,ADA Contact,ADA Contact Phone,ADA Contact Email,Webinar/Webcast?,Webinar/Webcast Link,Public Call-In Number,Call-in Access Code,Agenda URL,Owner,Agenda Upload,Map Location,Weblink to Meeting Minutes/Summaries,2010 House Districts,2010 Senate Districts,Counties
Construction Contractors Board,CCB Board Meeting,,02/19/2020 09:30:00 AM,02/19/2020 12:30:00 PM,"201 High Street, 1st Floor Hearings Room",OR - Oregon,OR,,Yes,Sara Heinz,,sara.heinz@ccb.state.or.us,,,,,,,,,,,,,,,,,,
Construction Contractors Board,CCB Board Meeting,,02/19/2020 09:30:00 AM,02/19/2020 12:30:00 PM,"201 High Street, 1st Floor Hearings Room",OR - Oregon,OR,,Yes,Sara Heinz,,sara.heinz@ccb.state.or.us,,,,,,,,,,,https://www.oregon.gov/CCB/board/Pages/board-info.aspx,,,,,,,
Construction Contractors Board,CCB Board Meeting,,12/04/2019 09:30:00 AM,12/04/2019 01:00:00 PM,"201 High Street, 1st Floor Hearings Room", Salem,OR,,Yes,Sara Heinz,,sara.heinz@ccb.state.or.us,,,,Sara Heinz,,sara.heinz@ccb.state.or.us,,,,,,,,,,,,
Construction Contractors Board,CCB Board Meeting with Executive Session,,12/02/2020 08:30:00 AM,12/02/2020 11:30:00 AM,GoTo Meeting,Salem,OR,,Yes,Sara Heinz,,sara.heinz@ccb.state.or.us,,,,,,,true,https://global.gotomeeting.com/join/858778037,1 (646) 749-3122,858-778-037,,,,,,,,
Construction Contractors Board,CCB Stakeholder Meeeting re SB 205 & SB 207,CCB Stakeholder Meeting,10/10/2013 01:30:00 PM,10/10/2013 03:00:00 AM,"Conf. Rm B, 700 Summer St NE Ste 300", Salem,OR,CCB Stakeholder meeting to discuss implementation of SB 205 and SB 207 (2013).  ,Yes,Cathy Dixon,503-934-2185,catherine.a.dixon@state.or.us,http://www.oregon.gov/ccb/Pages/board.aspx,,,,,,,,,,,catherine.a.dixon@state.or.us,,,,,,
Construction Contractors Board,CCB New Contractor Workshop,New Contractor Workshop,07/16/2013 01:00:00 PM,07/16/2013 03:00:00 PM,"Blue Mountin Comm. College, 1901 Main St VAOI Bldg", Baker City,OR,"The 90-minute workshop is designed to “un-complicate” contractor licensing requirements and assist Oregonians thinking about obtaining a CCB license to take the next step to obtaining a CCB license. CCB staff will discuss the process involved in becoming licensed including:  1) Choosing a business entity and CCB license endorsement; 2) License, bonding and insurance requirements, and 3) Pre-licensure education and testing requirements.

",Yes,Cathy Dixon,503-934-2185,catherine.a.dixon@state.or.us,http://www.oregon.gov/ccb,,,,,,,,,,,catherine.a.dixon@state.or.us,,,,,,
Construction Contractors Board,CCB Board Meeting,Board Meeting,09/17/2014 09:00:00 AM,09/17/2014 12:00:00 PM,700 Summer St NE Suite 300 Conf Rm B, Salem,OR,CCB Board Meeting,Yes,Cathy Dixon,503-934-2185,catherine.a.dixon@state.or.us,,,,,,,,,,,http://www.oregon.gov/ccb,catherine.a.dixon@state.or.us,https://data.oregon.gov/views/7by4-z82s/files/XHlvHJ6yvojRPa9aV_fJDw_mlSYYFOekt_nRAoxt6Uw?filename=application%2Fpdf%3B+charset%3Dbinary,,,,,
Construction Contractors Board,New Contractor Workshop,New Contractor Workshop,08/22/2013 01:00:00 PM,08/22/2013 03:00:00 PM,"Treasure Valley Community College ÛÒ SBDC, 650 College Blvd.", Ontario,OR,"New Contractor Workshop:
The 90-minute workshop is designed to “un-complicate” contractor licensing requirements and assist Oregonians thinking about obtaining a CCB license to take the next step to obtaining a CCB license. CCB staff will discuss the process involved in becoming licensed including:  1) Choosing a business entity and CCB license endorsement; 2) License, bonding and insurance requirements, and 3) Pre-licensure education and testing requirements.
",Yes,Cathy Dixon,503 9034-2185,catherine.a.dixon@state.or.us,http://www.oregon.gov/ccb,,,,,,,,,,,catherine.a.dixon@state.or.us,,,,,,
Construction Contractors Board,CCB Board Meeting Rulemaking Hearing,Rulemaking Hearing,04/22/2014 11:00:00 AM,04/22/2014 11:30:00 AM,"West Salem Roths IGA Hospitality Center, 425 Glen Creek Rd", Salem,OR,"Housekeeping and Cite Reference Revisions:
812-003-0260 is amended to correct cite references to match 2013 legislative changes and to correct the term Home Energy Performance Score Contractor; the word “Score” was left out the rule when filed.

812-005-0250 is amended to correct cite references and to remove redundant language in 812-0250(3)(d).

812-002-0640, 812-003-0100, 812-003-0160, 812-003-0190, 812-003-0390, 812-005-0200, 812-005-0210, 812-020-0071, 812-022-0000, 812-022-0005, 812-022-0011, 812-022-0016, 812-022-0018, 812-022-0033, 812-022-0036, 812-022-0037, 812-022-0040, 812-022-0042, 812-022-0045, 812-022-0047, 812-032-0000, 812-032-0100, 812-032-0110, 812-032-0120, 812-032-0123, 812-032-0130, 812-032-0135, 812-032-0140 and 812-032-0150 are amended to correct cite references.
",Yes,Cathy Dixon,503-934-2185,catherine.a.dixon@state.or.us,http://www.oregon.gov/ccb/Pages/board.aspx,,,,,,,,,,,catherine.a.dixon@state.or.us,,,,,,
Construction Contractors Board,Cancelled - CCB Stakeholder Meeting re SB 783,Stakeholder Meeting,10/11/2013 09:00:00 AM,10/11/2013 10:00:00 AM,"700 Summer St NE Ste 300, Conf. Rm B", Salem,OR,"Meeting CANCELLED.

Meeting to gather input from CCB stakeholders regarding implementation of SB 783.  CCB is seeking input, concerns, suggestions and recommendations on SB 783.",Yes,Cathy Dixon,503-934-2185,catherine.a.dixon@state.or.us,http://www.oregon.gov/ccb/Pages/board.aspx,,,,503 934-2185,catherine.a.dixon@state.or.us,,,,,,catherine.a.dixon@state.or.us,https://data.oregon.gov/views/7by4-z82s/files/00000000-0000-0000-0000-000000000000?,,http://www.oregon.gov/ccb/Pages/board.aspx,,,
Construction Contractors Board,CCB Board Meeting,Board Meeting,12/02/2014 08:30:00 AM,12/02/2014 02:00:00 PM,"Peru Room (306), Broadway Commons", Salem,OR,Board Meeting,Yes,Cathy Dixon,503-934-2185,catherine.a.dixon@state.or.us,,,,,,,,,,,http://www.oregon.gov/ccb,catherine.a.dixon@state.or.us,,,,,,
Construction Contractors Board,Special Board Meeting,Special Board Meeting,02/13/2014 03:00:00 PM,02/13/2014 04:00:00 PM,700 Summer St NE Ste 300 Conf Rm B, Salem,OR,Special Board Meeting,No,Cathy Dixon,503 934-2185,catherine.a.dixon@state.or.us,,,,,,,,,,,,catherine.a.dixon@state.or.us,https://data.oregon.gov/views/7by4-z82s/files/1h5VO7HQrj5AqQDosqaYGnJpSkC9PQJ6CQYwjTvM9YQ?filename=application%2Fpdf%3B+charset%3Dbinary,,,,,
Construction Contractors Board,Special Board Meeting,Special Board Meeting,02/13/2014 03:00:00 PM,02/13/2014 04:00:00 PM,700 Summer St NE Ste 300 Conf Rm B, Salem,OR,Special Board Meeting,No,Cathy Dixon,503 934-2185,catherine.a.dixon@state.or.us,,,,,,,,,,,http://ccbed.ccb.state.or.us/WebPDF/CCB/board/agenda.pdf,catherine.a.dixon@state.or.us,,,,,,
Construction Contractors Board,CCB Board Meeting,Board Meeting,01/28/2014 08:30:00 AM,01/28/2014 02:00:00 PM,"West Salem Roths IGA Hospitality Center, 425 Glen Creek Rd", Salem,OR,"CCB Board meeting, Appeal Committee and rulemaking hearing.",Yes,Cathy Dixon,503-934-2185,catherine.a.dixon@state.or.us,http://www.oregon.gov/ccb/Pages/board.aspx,,,,,,,,,,,catherine.a.dixon@state.or.us,,,,,,
Construction Contractors Board,CCB New Contractor Workshop,New Contractor Workshop,07/24/2013 01:00:00 PM,07/24/2013 03:00:00 PM,"Klamath Comm. Collge - SBDC, 7390 S 6th St", Klamath Falls,OR,"New Contractor Workshop:
The 90-minute workshop is designed to “un-complicate” contractor licensing requirements and assist Oregonians thinking about obtaining a CCB license to take the next step to obtaining a CCB license. CCB staff will discuss the process involved in becoming licensed including:  1) Choosing a business entity and CCB license endorsement; 2) License, bonding and insurance requirements, and 3) Pre-licensure education and testing requirements.

",Yes,Cathy Dixon,503-934-2185,catherine.a.dixon@state.or.us,http://www.oregon.gov/ccb,,,,,,,,,,,catherine.a.dixon@state.or.us,,,,,,
Construction Contractors Board,CCB New Contractor Workshop,New Contractor Workshop,07/18/2013 01:00:00 PM,07/18/2013 03:00:00 PM,"Columbia Gorge Comm. College - SBDC, 400 East Scenic Dr, Lecture Hall Bldg 2", The Dalles,OR,"New Contractor Workshop:
The 90-minute workshop is designed to “un-complicate” contractor licensing requirements and assist Oregonians thinking about obtaining a CCB license to take the next step to obtaining a CCB license. CCB staff will discuss the process involved in becoming licensed including:  1) Choosing a business entity and CCB license endorsement; 2) License, bonding and insurance requirements, and 3) Pre-licensure education and testing requirements.
",Yes,Cathy Dixon,503-934-2185,catherine.a.dixon@state.or.us,http://www.oregon.gov/ccb,,,,,,,,,,,catherine.a.dixon@state.or.us,,,,,,
Construction Contractors Board,CCB Town Hall Style Stakeholder Meeting,Stakeholder Meeting,07/16/2013 08:30:00 AM,07/16/2013 11:30:00 AM,"Blue Mountain Comm College, 1901 Main St VAOI Bldg", Baker City,OR,"Town Hall Style Stakeholder Meeting:
The meetings will provide contractors, citizens and others interested in construction licensing regulations, an opportunity to offer input and opinions on matters facing construction contractors, future regulatory reforms, and how the CCB can better serve Oregonians.",Yes,Cathy Dixon,503-934-2185,catherine.a.dixon@state.or.us,http://www.oregon.gov/ccb,,,,,,,,,,,catherine.a.dixon@state.or.us,,,,,,
Construction Contractors Board,Stakeholder Meeting - re SB 783,Stakeholder Meeting,09/06/2013 09:00:00 AM,09/06/2013 10:00:00 AM,"CCB 700 Summer St NE Suite 300, Salem", Salem,OR,"CCB Stakeholder meeting to review major portions of SB 783 and obtain stakeholder concerns, suggestions, input and recommendations.",Yes,Cathy Dixon,503 934-2185,catherine.a.dixon@state.or.us,http://www.oregon.gov/ccb,,,,,,,,,,,catherine.a.dixon@state.or.us,,,,,,
Construction Contractors Board,CCB New Contractor Workshop,New Contractor Workshop,07/26/2013 01:00:00 PM,07/26/2013 03:00:00 PM,"Lane Community College - SBDC, 101 West 10th Ave Rm 303", Eugene,OR,"New Contractor Workshop:
The 90-minute workshop is designed to “un-complicate” contractor licensing requirements and assist Oregonians thinking about obtaining a CCB license to take the next step to obtaining a CCB license. CCB staff will discuss the process involved in becoming licensed including:  1) Choosing a business entity and CCB license endorsement; 2) License, bonding and insurance requirements, and 3) Pre-licensure education and testing requirements.

",Yes,Cathy Dixon,503-934-2185,catherine.a.dixon@state.or.us,http://www.oregon.gov/ccb,,,,,,,,,,,catherine.a.dixon@state.or.us,,,,,,
Construction Contractors Board,Town Hall Style Stakeholder Meeting,Stakeholder Meeting,08/22/2013 09:30:00 AM,08/22/2013 11:30:00 AM,"Treasure Valley Community College ÛÒ SBDC, 650 College Blvd.", Ontario,OR,"Town Hall Style Stakeholder Meeting:
The meetings will provide contractors, citizens and others interested in construction licensing regulations, an opportunity to offer input and opinions on matters facing construction contractors, future regulatory reforms, and how the CCB can better serve Oregonians.
",Yes,Cathy Dixon,503 934-2185,catherine.a.dixon@state.or.us,http://www.oregon.gov/ccb,,,,,,,,,,,catherine.a.dixon@state.or.us,,,,,,
Construction Contractors Board,CCB Town Hall Style Stakeholder Meeting,Stakeholder Meeting,07/25/2013 09:30:00 AM,07/25/2013 11:30:00 AM,"Rogue Community College, 3345 Redwood Hwy, Auditorium", Grants Pass,OR,"Town Hall Style Stakeholder Meeting:
The meetings will provide contractors, citizens and others interested in construction licensing regulations, an opportunity to offer input and opinions on matters facing construction contractors, future regulatory reforms, and how the CCB can better serve Oregonians.

",Yes,Cathy Dixon,503-934-2185,catherine.a.dixon@state.or.us,http://www.oregon.gov/ccb,,,,,,,,,,,catherine.a.dixon@state.or.us,,,,,,
Construction Contractors Board,New Contractor Workshop,New Contractor Workshop,08/24/2013 09:00:00 AM,08/24/2013 12:00:00 PM,"Blue Mountain Community College ÛÒ SBDC, Pendleton Campus, 2411 NW Carden Avenue Rm M-7 (Morrow Hall)", Pendleton,OR,"New Contractor Workshop:
The 90-minute workshop is designed to “un-complicate” contractor licensing requirements and assist Oregonians thinking about obtaining a CCB license to take the next step to obtaining a CCB license. CCB staff will discuss the process involved in becoming licensed including:  1) Choosing a business entity and CCB license endorsement; 2) License, bonding and insurance requirements, and 3) Pre-licensure education and testing requirements.
",Yes,Cathy Dixon,503-934-2185,catherine.a.dixon@state.or.us,http://www.oregon.gov/ccb,,,,,,,,,,,catherine.a.dixon@state.or.us,,,,,,
Construction Contractors Board,Town Hall Style Stakeholder Meeting,Stakeholder Meeting,08/23/2013 09:30:00 AM,08/23/2013 11:30:00 AM,"Eastern Oregon University ÛÒ SBDC, 1607 Gekeler Lane", La Grande,OR,"Town Hall Style Stakeholder Meeting:
The meetings will provide contractors, citizens and others interested in construction licensing regulations, an opportunity to offer input and opinions on matters facing construction contractors, future regulatory reforms, and how the CCB can better serve Oregonians.
",Yes,Cathy Dixon,503-934-2185,catherine.a.dixon@state.or.us,http://www.oregon.gov/ccb,,,,,,,,,,,catherine.a.dixon@state.or.us,,,,,,
Construction Contractors Board,CCB Town Hall Style Stakeholder Meeting,Stakeholder Meeting,07/18/2013 09:30:00 AM,07/18/2013 11:30:00 AM,"Columbia Gorge Comm. College - SBDC, 400 East Scenic Dr Lecture Hall Bldg 2", The Dalles,OR,"Town Hall Style Stakeholder Meeting:
The meetings will provide contractors, citizens and others interested in construction licensing regulations, an opportunity to offer input and opinions on matters facing construction contractors, future regulatory reforms, and how the CCB can better serve Oregonians.",Yes,Cathy Dixon,503-934-2185,catherine.a.dixon@state.or.us,http://www.oregon.gov/ccb,,,,,,,,,,,catherine.a.dixon@state.or.us,,,,,,
Construction Contractors Board,CCB Board Rulemaking Hearing,CCB Rulemaking Hearing,10/28/2014 11:00:00 AM,10/28/2014 11:30:00 AM,"1300 Broadway St NE, Peru Room (306)", Salem,OR,CCB rulemaking hearing scheduled to begin at 11:00 a.m.  The rule notice is posted on CCB's website:  http://www.oregon.gov/ccb/pages/Rule_notices.aspx,Yes,Cathy Dixon,503-934-2185,catherine.a.dixon@state.or.us,http://www.oregon.gov/ccb/Pages/board.aspx,,,Cathy Dixon,503-934-2185,,,,,,http://www.oregon.gov/ccb/Pages/board.aspx,catherine.a.dixon@state.or.us,,,,,,
Construction Contractors Board,New Contractor Workshop,New Contractor Workshop,06/25/2013 01:00:00 PM,06/25/2013 03:00:00 PM,"Clackamas Community College SBDC, 7736 SE Harmony Road, Room 145, OIT Building",Clackamas,OR,"The 90-minute workshop is designed to “un-complicate” contractor licensing requirements and assist Oregonians thinking about obtaining a CCB license to take the next step to obtaining a CCB license. CCB staff will discuss the process involved in becoming licensed including:  1) Choosing a business entity and CCB license endorsement; 2) License, bonding and insurance requirements, and 3) Pre-licensure education and testing requirements.",Yes,Cathy Dixon,(503) 934-2185,catherine.a.dixon@state.or.us,,,,,,,,,,,,catherine.a.dixon@state.or.us,,,,,,
Construction Contractors Board,CCB Town Hall Style Stakeholder Meeting,Stakeholder Meeting,07/17/2013 09:30:00 AM,07/17/2013 11:30:00 AM,"Blue Mountain Comm. College - SBDC, 2411 NW Carden Rm M", Pendleton,OR,"Town Hall Style Stakeholder Meeting:
The meetings will provide contractors, citizens and others interested in construction licensing regulations, an opportunity to offer input and opinions on matters facing construction contractors, future regulatory reforms, and how the CCB can better serve Oregonians.
",Yes,Cathy Dixon,503-934-2185,catherine.a.dixon@state.or.us,http://www.oregon.gov/ccb,,,,,,,,,,,catherine.a.dixon@state.or.us,,,,,,
Construction Contractors Board,New Contractors Workshop,New Contractors Workshop,08/23/2013 01:00:00 PM,08/23/2013 03:00:00 PM,"Eastern Oregon University ÛÒ SBDC, 1607 Gekeler Lane", La Grande,OR,"New Contractor Workshop:
The 90-minute workshop is designed to “un-complicate” contractor licensing requirements and assist Oregonians thinking about obtaining a CCB license to take the next step to obtaining a CCB license. CCB staff will discuss the process involved in becoming licensed including:  1) Choosing a business entity and CCB license endorsement; 2) License, bonding and insurance requirements, and 3) Pre-licensure education and testing requirements.
",Yes,Cathy Dixon,503-934-2185,catherine.a.dixon@state.or.us,http://www.oregon.gov/ccb,,,,,,,,,,,catherine.a.dixon@state.or.us,,,,,,
Construction Contractors Board,June 2015 Board Meeting,Board Meeting,06/23/2015 09:30:00 AM,06/23/2015 12:00:00 PM,"Peru Room (306), Broadway Commons",Salem,OR,,Yes,Catherine Dixon,503-934-2185,catherine.a.dixon@state.or.us,,,,,,,,,,,http://www.oregon.gov/CCB/board/Pages/board-info.aspx,,,,http://www.oregon.gov/CCB/board/Pages/board-info.aspx,,,
Construction Contractors Board,Stakeholder/Town Hall Meeting,Stakeholder/Town Hall Meeting,06/27/2013 09:30:00 AM,06/27/2013 11:30:00 AM,Clatsop Community College ÛÒ SBDC, Seaside,OR,"The meetings will provide contractors, citizens and others interested in construction licensing regulations, an opportunity to offer input and opinions on matters facing construction contractors, future regulatory reforms, and how the CCB can better serve Oregonians.
",Yes,Cathy Dixon,(503) 934-2185,catherine.a.dixon@state.or.us,,,,,,,,,,,,catherine.a.dixon@state.or.us,,,,,,
Construction Contractors Board,Board Meeting,Board Meeting,10/22/2013 08:30:00 AM,10/22/2013 02:00:00 PM,"West Salem Roth's Hospitality Center, Santiam Rm", Salem,OR,Board meeting and possible Appeal Committee Meeting and rulemaking hearing at 11:00 a.m.,Yes,Cathy Dixon,(503) 934-2185,catherine.a.dixon@state.or.us,,,,,,,,,,,,catherine.a.dixon@state.or.us,,,,,,
Construction Contractors Board,CCB Town Hall Style Stakeholder Meeting,Stakeholder Meeting,07/26/2013 09:30:00 AM,07/26/2013 11:30:00 AM,"Lane Community College - SBDC, 101 West 10th Ave Rm 303", Eugene,OR,"Town Hall Style Stakeholder Meeting:
The meetings will provide contractors, citizens and others interested in construction licensing regulations, an opportunity to offer input and opinions on matters facing construction contractors, future regulatory reforms, and how the CCB can better serve Oregonians.

",Yes,Cathy Dixon,503-934-2185,catherine.a.dixon@state.or.us,http://www.oregon.gov/ccb,,,,,,,,,,,catherine.a.dixon@state.or.us,,,,,,
Construction Contractors Board,Feb 2015 Board Meeting,Board Meeting,02/24/2015 09:30:00 AM,02/24/2015 12:00:00 PM,"Peru Room (306), Broadway Commons",Salem,OR,,Yes,Catherine Dixon,503-934-2185,catherine.a.dixon@state.or.us,,,,,,,,,,,http://www.oregon.gov/CCB/board/Pages/board-info.aspx,,,,http://www.oregon.gov/CCB/board/Pages/board-info.aspx,,,
Construction Contractors Board,January 2015 Board Meeting,Board Meeting,01/27/2015 09:30:00 AM,01/27/2015 12:00:00 PM,"700 Summer St NE, Conference Room B", Salem,OR,,Yes,Catherine Dixon,503-934-2185,catherine.a.dixon@state.or.us,,,,,,,,,,,http://www.oregon.gov/CCB/board/Pages/board-info.aspx,,,,http://www.oregon.gov/CCB/board/Pages/board-info.aspx,,,
Construction Contractors Board,New Contractor Workshop,New Contractor Workshop,06/28/2013 01:00:00 PM,06/28/2013 03:00:00 PM,Oregon Coast Community College - SBDC , Newport,OR,"The 90-minute workshop is designed to “un-complicate” contractor licensing requirements and assist Oregonians thinking about obtaining a CCB license to take the next step to obtaining a CCB license. CCB staff will discuss the process involved in becoming licensed including:  1) Choosing a business entity and CCB license endorsement; 2) License, bonding and insurance requirements, and 3) Pre-licensure education and testing requirements.

The meeting will be held at Clackamas Community College SBDC, 7736 SE Harmony Road, Room 172, OIT Building, Clackamas, Oregon.
",Yes,Cathy Dixon,(503) 934-2185,catherine.a.dixon@state.or.us,,,,,,,,,,,,catherine.a.dixon@state.or.us,,,,,,
Construction Contractors Board,Rulemaking Hearing,Rule Hearing,05/20/2015 10:00:00 AM,05/20/2015 11:00:00 AM,"700 Summer St NE Suite 300, Conf Rm B",Salem,OR,CCB rulemaking hearing regarding the home inspector exam.  See rulemaking hearing notices on CCB's webpage:  http://www.oregon.gov/CCB/laws-rules/Pages/proposed-rules.aspx. ,Yes,Catherine Dixon,503-934-2185,catherine.a.dixon@state.or.us,,,,,,,,,,,,,,,http://www.oregon.gov/CCB/laws-rules/Pages/proposed-rules.aspx,,,
Construction Contractors Board,CCB Board Meeting,Board Meeting,10/28/2014 08:30:00 AM,10/28/2014 02:00:00 PM,"Peru Room (306), Broadway Commons", Salem,OR,Board meeting,Yes,Cathy Dixon,503-934-2185,catherine.a.dixon@state.or.us,,,,Cathy Dixon,503-934-2185,,,,,,http://www.oregon.gov/CCB,catherine.a.dixon@state.or.us,,,,,,
Construction Contractors Board,CCB Board Meeting,Board Meeting,04/22/2014 10:30:00 AM,04/22/2014 04:00:00 PM,"West Salem Roths IGA Hospitality Center, 425 Glen Creek Rd", Salem,OR,CCB Board meeting and rulemaking hearing.,Yes,Cathy Dixon,503-934-2185,catherine.a.dixon@state.or.us,http://www.oregon.gov/ccb/Pages/board.aspx,,,,,,,,,,,catherine.a.dixon@state.or.us,,,,,,
Construction Contractors Board,New Contractor Workshop,New Contractor Workshop,06/27/2013 01:00:00 PM,06/27/2013 03:00:00 PM,Clatsop Community College ÛÒ SBDC, Seaside,OR,"The 90-minute workshop is designed to “un-complicate” contractor licensing requirements and assist Oregonians thinking about obtaining a CCB license to take the next step to obtaining a CCB license. CCB staff will discuss the process involved in becoming licensed including:  1) Choosing a business entity and CCB license endorsement; 2) License, bonding and insurance requirements, and 3) Pre-licensure education and testing requirements.

The meeting will be held at Clackamas Community College SBDC, 7736 SE Harmony Road, Room 172, OIT Building, Clackamas, Oregon.
",Yes,Cathy Dixon,(503) 934-2185,catherine.a.dixon@state.or.us,,,,,,,,,,,,catherine.a.dixon@state.or.us,,,,,,
Construction Contractors Board,CCB Stakeholder Meeting re HB 2801,CCB Stakeholder Meeting,10/11/2013 01:30:00 AM,10/11/2013 02:30:00 AM,"CCB Conf. Rm B, 700 Summer St NE Ste 300", Salem,OR,CCB Stakeholder meeting to discuss implementation of HB 2801 stakeholder input.,Yes,Cathy Dixon,503-934-2185,catherine.a.dixon@state.or.us,http://www.oregon.gov/ccb/Pages/board.aspx,,,,,,,,,,,catherine.a.dixon@state.or.us,,,,,,
Construction Contractors Board,Board Meeting,Board Meeting,12/03/2013 08:30:00 AM,12/03/2013 02:00:00 PM,"West Salem Roth's Hospitality Center, Santiam Rm", Salem,OR,Board meeting and possible Appeal Committee Meeting.,Yes,Cathy Dixon,(503) 934-2185,catherine.a.dixon@state.or.us,,,,,,,,,,,,catherine.a.dixon@state.or.us,,,,,,
Construction Contractors Board,CCB Town Hall Style Stakeholder Meeting,Stakeholder Meeting,07/19/2013 09:30:00 AM,07/19/2013 11:30:00 AM,"Central Oregon Comm College - SBDC, 1027 NW Trenton Ave", Bend,OR,"Town Hall Style Stakeholder Meeting:
The meetings will provide contractors, citizens and others interested in construction licensing regulations, an opportunity to offer input and opinions on matters facing construction contractors, future regulatory reforms, and how the CCB can better serve Oregonians.

",Yes,Cathy Dixon,503-934-2185,catherine.a.dixon@state.or.us,http://www.oregon.gov/ccb,,,,,,,,,,,catherine.a.dixon@state.or.us,,,,,,
Construction Contractors Board,CCB New Contractors Workshop,New Contractor Workshop,07/25/2013 01:00:00 PM,07/25/2013 03:00:00 PM,"Rogue Community College, 3345 Redwood Hwy Auditorum", Grants Pass,OR,"New Contractor Workshop:
The 90-minute workshop is designed to “un-complicate” contractor licensing requirements and assist Oregonians thinking about obtaining a CCB license to take the next step to obtaining a CCB license. CCB staff will discuss the process involved in becoming licensed including:  1) Choosing a business entity and CCB license endorsement; 2) License, bonding and insurance requirements, and 3) Pre-licensure education and testing requirements.

",Yes,Cathy Dixon,503-934-2185,catherine.a.dixon@state.or.us,http://www.oregon.gov/ccb,,,,,,,,,,,catherine.a.dixon@state.or.us,,,,,,
Construction Contractors Board,CCB New Contractor Workshop,New Contractor Workshop,07/17/2013 01:00:00 PM,07/17/2013 03:00:00 PM,"Blue Mountain Comm. College - SBDC, 2411 NW Carden Rm M", Pendleton,OR,"New Contractor Workshop:
The 90-minute workshop is designed to “un-complicate” contractor licensing requirements and assist Oregonians thinking about obtaining a CCB license to take the next step to obtaining a CCB license. CCB staff will discuss the process involved in becoming licensed including:  1) Choosing a business entity and CCB license endorsement; 2) License, bonding and insurance requirements, and 3) Pre-licensure education and testing requirements.
",Yes,Cathy Dixon,503-934-2185,catherine.a.dixon@state.or.us,http://www.oregon.gov/ccb,,,,,,,,,,,catherine.a.dixon@state.or.us,,,,,,
Construction Contractors Board,CCB Board Meeting,Board Meeting,06/24/2014 08:30:00 AM,06/24/2014 12:00:00 PM,"West Salem Roths IGA Hospitality Center, 425 Glen Creek Rd", Salem,OR,CCB Board meeting and possible Appeal Committee meeting.,Yes,Cathy Dixon,503-934-2185,catherine.a.dixon@state.or.us,http://www.oregon.gov/ccb/Pages/board.aspx,,,,,,,,,,,catherine.a.dixon@state.or.us,,,,,,
Construction Contractors Board,CCB Board Meeting,Board Meeting,12/02/2014 08:30:00 AM,12/02/2014 02:00:00 PM,"Peru Room (306), Broadway Commons", Salem,OR,Board Meeting,Yes,Cathy Dixon,503-934-2185,catherine.a.dixon@state.or.us,,,,,,,,,,,http://www.oregon.gov/ccb,catherine.a.dixon@state.or.us,,,,,,
Construction Contractors Board,CCB Town Hall Style Stakeholder Meeting,Stakeholder Meeting,07/24/2013 09:30:00 AM,07/24/2013 11:30:00 AM,"Klamath Comm. College - SBDC, 7390 S 6th St", Klamath Falls,OR,"Town Hall Style Stakeholder Meeting:
The meetings will provide contractors, citizens and others interested in construction licensing regulations, an opportunity to offer input and opinions on matters facing construction contractors, future regulatory reforms, and how the CCB can better serve Oregonians.

",Yes,Cathy Dixon,503-934-2185,catherine.a.dixon@state.or.us,http://www.oregon.gov/ccb,,,,,,,,,,,catherine.a.dixon@state.or.us,,,,,,
Construction Contractors Board,March 2015 Board Meeting,Board Meeting,03/24/2015 09:30:00 AM,03/24/2015 12:00:00 PM,"700 Summer St NE, Conference Room B",Salem,OR,,Yes,Catherine Dixon,503-934-2185,catherine.a.dixon@state.or.us,,,,,,,,,,,http://www.oregon.gov/CCB/board/Pages/board-info.aspx,,,,http://www.oregon.gov/CCB/board/Pages/board-info.aspx,,,
Construction Contractors Board,Construction Contractors Board Meeting,Board Meeting,01/27/2016 09:30:00 AM,01/27/2016 11:00:00 AM,201 High St. SE, Salem,OR,"CCB Board Meeting
See our website: http://www.oregon.gov/CCB/board/Pages/board-info.aspx",Yes,Leslie Culpepper,503-934-2228,leslie.culpepper@state.or.us,,,,Leslie Culpepper,503-934-2228,leslie.culpepper@state.or.us,,,,,http://www.oregon.gov/CCB/board/Pages/board-info.aspx,,,,http://www.oregon.gov/CCB/board/Pages/minutes.aspx,,,
Construction Contractors Board,CCB Rulemaking Hearing,Rule Hearing,06/24/2014 11:00:00 AM,06/24/2014 11:30:00 AM,"West Salem Roths IGA, Hospitatility Center, Oregon Room, 425 Glen Creek Rd", Salem,OR,"CCB rulemaking hearing.  A copy of the full text is on CCB’s (Construction Contractors Board) website at www.oregon.gov/CCB.   

Here is a link to the document.  
http://ccbed.ccb.state.or.us/New_Web/laws/new_rule_notices.htm 

 ",Yes,Cathy Dixon,503-934-2185,catherine.a.dixon@state.or.us,,,,,,,,,,,,catherine.a.dixon@state.or.us,,,,,,
Construction Contractors Board,April 2015 Board Meeting,Board Meeting,04/28/2015 09:30:00 AM,04/28/2015 12:00:00 PM,"Peru Room (306), Broadway Commons",Salem,OR,,Yes,Catherine Dixon,503-934-2185,catherine.a.dixon@state.or.us,,,,,,,,,,,http://www.oregon.gov/CCB/board/Pages/board-info.aspx,,,,http://www.oregon.gov/CCB/board/Pages/board-info.aspx,,,
Construction Contractors Board,Stakeholder/Town Hall Meeting,Stakeholder/Town Hall Meeting,06/28/2013 09:30:00 AM,06/28/2013 11:30:00 AM,Oregon Coast Community College - SBDC , Newport,OR,"The meetings will provide contractors, citizens and others interested in construction licensing regulations, an opportunity to offer input and opinions on matters facing construction contractors, future regulatory reforms, and how the CCB can better serve Oregonians.",Yes,Cathy Dixon,(503) 934-2185,catherine.a.dixon@state.or.us,,,,,,,,,,,,catherine.a.dixon@state.or.us,,,,,,
Construction Contractors Board,Special Board Meeting,Special Board Meeting,06/03/2014 01:00:00 PM,06/03/2014 05:00:00 PM,700 Summer St NE Conf Rm B, Salem,OR,Special Board Meeting held at CCB offices.  Brainstorming. ,,Cathy Dixon,503-934-2185,catherine.a.dixon@state.or.us,,,,,,,,,,,,catherine.a.dixon@state.or.us,,,,,,
Construction Contractors Board,Board Meeting,Board Meeting,04/23/2013 08:30:00 AM,04/23/2013 03:00:00 PM,"West Salem Roth's Hospitality Center, Santian Rm", Salem,OR,Board meeting and Appeal Committee meeting.,Yes,Cathy Dixon,(503) 934-2185,catherine.a.dixon@state.or.us,,,,,,,,,,,,catherine.a.dixon@state.or.us,,,,,,
Construction Contractors Board,CCB Stakeholder Meeting re SB 783,Stakeholder Meeting,10/18/2013 10:00:00 AM,10/18/2013 11:00:00 AM,"Conf. Rm B, 700 Summer St NE Ste 300", Salem,OR,Construction Contractors Board Stakeholder meeting on SB 783 implementation and draft rules.,Yes,Cathy Dixon,503-934-2185,catherine.a.dixon@state.or.us,,,,,,,,,,,,catherine.a.dixon@state.or.us,,,,,,
Construction Contractors Board,Board Meeting,Board Meeting,02/26/2013 08:30:00 AM,02/26/2013 03:00:00 PM,Cancelled, Salem,OR,Meeting has been cancelled,,Cathy Dixon,,catherine.a.dixon@state.or.us,,,,,,,,,,,,catherine.a.dixon@state.or.us,,,,,,
Construction Contractors Board,Board Meeting,Board Meeting,08/20/2013 08:30:00 AM,08/20/2013 02:00:00 PM,"West Salem Roth's Hospitality Center, Santiam Rm", Salem,OR,Board meeting and possible Appeal Committee Meeting.,Yes,Cathy Dixon,(503) 934-2185,catherine.a.dixon@state.or.us,,,,,,,,,,,,catherine.a.dixon@state.or.us,,,,,,
Construction Contractors Board,August 2015 Board Meeting,Board Meeting,08/25/2015 09:30:00 AM,08/25/2015 12:30:00 PM,"201 High St SE Suite 600, Board Room",Salem,OR,CCB Board meeting.,Yes,Catherine Dixon,503-934-2185,catherine.a.dixon@state.or.us,,,,,,,,,,,,,,,http://www.oregon.gov/CCB/board/Pages/board-info.aspx%20,,,
Construction Contractors Board,Sept 2015 Board Meeting,Board Meeting,09/22/2015 09:30:00 AM,09/22/2015 12:30:00 PM,"201 High St SE Suite 600, Board Room",Salem,OR,CCB Board meeting.  Website www.oregon.gov/CCB,yes,Catherine Dixon,503-934-2185,catherine.a.dixon@state.or.us,,,,,,,,,,,,,,,http://www.oregon.gov/CCB/board/Pages/board-info.aspx%20,,,
Construction Contractors Board,May 2015 Board Meeting,Board Meeting,05/26/2015 09:30:00 AM,05/26/2015 12:00:00 PM,"700 Summer St NE, Conference Room B",Salem,OR,,Yes,Catherine Dixon,503-934-2185,catherine.a.dixon@state.or.us,,,,,,,,,,,http://www.oregon.gov/CCB/board/Pages/board-info.aspx,,,,http://www.oregon.gov/CCB/board/Pages/board-info.aspx,,,
Construction Contractors Board,Dec 2015 Board Meeting,,12/01/2015 09:30:00 AM,12/01/2015 12:30:00 PM,"201 High St SE Suite 600, Board Room",Salem,OR,CCB Board meeting.  Website: www.oregon.gov/ccb,yes,Caterine Dixon,503-934-2185,catherine.a.dixon@state.or.us,,,,,,,,,,,,,,,http://www.oregon.gov/CCB/board/Pages/board-info.aspx%20,,,
Construction Contractors Board,Nov 2015 Board Meeting,,11/03/2015 09:30:00 AM,11/03/2015 12:30:00 AM,"201 High St SE Suite 600, Board Room", Salem,OR,CCB Board meeting. Website: www.oregon.gov/ccb,yes,Catherine Dixon,503-934-2185,catherine.a.dixon@state.or.us,,,,,,,,,,,,,,,http://www.oregon.gov/CCB/board/Pages/board-info.aspx%20,,,
Construction Contractors Board,Construction Contractors Teleconference Board Meeting,Board Meeting,09/28/2016 09:30:00 AM,09/28/2016 12:30:00 PM,201 High St. SE, Salem,OR,CCB Board Meeting. See our website: http://www.oregon.gov/CCB/board/Pages/board-info.aspx,Yes,Leslie Culpepper,503-934-2228,leslie.culpepper@state.or.us,,,,Leslie Culpepper,503-934-2228,leslie.culpepper@state.or.us,,,,,http://www.oregon.gov/CCB/board/Pages/board-info.aspx,,,,http://www.oregon.gov/CCB/board/Pages/minutes.aspx,,,
Construction Contractors Board,Stakeholder/Town Hall Meeting,Stakeholder/Town Hall Meeting,06/25/2013 09:30:00 AM,06/25/2013 11:30:00 AM,7736 SE Harmony Rd Room 145 OIT Bldg,Clackamas,OR,"Stakeholder/town hall style meeting. The meetings will provide contractors, citizens and others interested in construction licensing regulations, an opportunity to offer input and opinions on matters facing construction contractors, future regulatory reforms, and how the CCB can better serve Oregonians.

The meeting will be held at Clackamas Community College SBDC, 7736 SE Harmony Road, Room 172, OIT Building, Clackamas, Oregon.",Yes,Cathy Dixon,(503) 934-2185,catherine.a.dixon@state.or.us,,,,,,,,,,,,catherine.a.dixon@state.or.us,,,,,,
Construction Contractors Board,Construction Contractors Board Meeting,Board Meeting,04/27/2016 09:30:00 AM,04/27/2016 12:30:00 PM,201 High St. SE, Salem,OR,CCB Board meeting. See our website: http://www.oregon.gov/CCB/board/Pages/board-info.aspx,Yes,Leslie Culpepper,503-934-2228,leslie.culpepper@state.or.us,,,,Leslie Culpepper,503-934-2228,leslie.culpepper@state.or.us,,,,,http://www.oregon.gov/CCB/board/Pages/board-info.aspx,,,,http://www.oregon.gov/CCB/board/Pages/minutes.aspx,,,
Construction Contractors Board,Public Comment Hearing,Public Comment Hearing,11/19/2018 08:00:00 AM,11/19/2018 09:00:00 AM,"201 High St SE, Suite 600", Salem,OR,,Yes,Sara Heinz,,sara.heinz@state.or.us,,,,Sara Heinz,,sara.heinz@state.or.us,,,,,,,,,,,,
Construction Contractors Board,Construction Contractors Board Teleconference Board Meeting,Construction Contractors Board Teleconference Board Meeting,05/24/2017 09:30:00 AM,05/24/2017 11:00:00 AM,"201 High St SE, 1st Floor",Salem,OR,,Yes,Leslie Culpepper,503-934-2228,leslie.culpepper@state.or.us,,,,Leslie Culpepper,503-934-2228,leslie.culpepper@state.or.us,,,,,,,,,http://www.oregon.gov/CCB/board/Pages/minutes.aspx,,,
Construction Contractors Board,Construction Contractors Board Meeting,Board Meeting,10/26/2016 09:00:00 AM,10/26/2016 11:00:00 AM,201 High St. SE, Salem,OR,CCB Board Meeting. See our website: http://www.oregon.gov/CCB/board/Pages/board-info.aspx,Yes,Leslie Culpepper,503-934-2228,leslie.culpepper@state.or.us,,,,Leslie Culpepper,503-934-2228,leslie.culpepper@state.or.us,,,,,http://www.oregon.gov/CCB/board/Pages/board-info.aspx,,,,http://www.oregon.gov/CCB/board/Pages/minutes.aspx,,,
Construction Contractors Board,Construction Contractors Board Meeting,Construction Contractors Board Meeting,04/26/2017 09:30:00 AM,04/26/2017 12:30:00 PM,"201 High St SE, 1st Floor", Salem,OR,,Yes,Leslie Culpepper,503-934-2228,leslie.culpepper@state.or.us,,,,Leslie Culpepper,503-934-2228,leslie.culpepper@state.or.us,,,,,,,,,http://www.oregon.gov/CCB/board/Pages/minutes.aspx,,,
Construction Contractors Board,CCB Board Meeting,CCB Board Meeting,12/05/2018 09:30:00 AM,12/05/2018 12:00:00 PM,"201 High Street SE, 6th floor", Salem,OR,CCB Board Meeting,Yes,Sara Heinz,503-934-2217,sara.heinz@state.or.us,,,,Sara Heinz,503-934-2217,sara.heinz@state.or.us,,,,,,,,,http://www.oregon.gov/CCB/board/Pages/minutes.aspx,,,
Construction Contractors Board,Proposed Rulemaking Hearing,Rules Hearing,04/15/2016 10:00:00 AM,04/15/2016 11:00:00 AM,"201 High St. SE, Suite 600", Salem,OR,"Proposed Rulemaking Hearing
",Yes,Leslie Culpepper,503-934-2228,leslie.culpepper@state.or.us,,,,Leslie Culpepper,503-934-2228,leslie.culpepper@state.or.us,,,,,,,,,http://www.oregon.gov/CCB/laws-rules/Pages/proposed-rules.aspx,,,
Construction Contractors Board,Rulemaking Hearing,Rulemaking Hearing,10/20/2017 09:00:00 AM,10/20/2017 10:00:00 AM,"201 High Street SE, 6th floor", Salem,OR,http://www.oregon.gov/CCB/laws-rules/Pages/proposed-rules.aspx,Yes,Leslie Culpepper,503-934-2228,leslie.culpepper@state.or.us,,,,Leslie Culpepper,503-934-2228,leslie.culpepper@state.or.us,,,,,,,,,,,,
Construction Contractors Board,Rulemaking Hearing,Rulemaking Hearing,02/15/2018 08:00:00 AM,02/15/2018 09:00:00 AM,"201 High Street SE, 6th floor",Salem,OR,"CCB Rulemaking hearing for rules relating to temporary RMIs, bond forms, criminal convictions, DRS meetings, penalties, lead-based paint contractors, home inspector CE and old DRS practices. 

http://www.oregon.gov/CCB/laws-rules/Pages/proposed-rules.aspx",Yes,Leslie Culpepper,503-934-2228,leslie.culpepper@state.or.us,,,,Leslie Culpepper,503-934-2228,leslie.culpepper@state.or.us,,,,,,,,,,,,
Construction Contractors Board,CCB Board Meeting,CCB Board Meeting,12/21/2017 09:00:00 PM,12/20/2017 09:45:00 AM,"201 High Street SE, 6th floor", Salem,OR,,No,Leslie Culpepper,503-934-2228,leslie.culpepper@state.or.us,,,,Leslie Culpepper,503-934-2228,leslie.culpepper@state.or.us,,,,,,,,,http://www.oregon.gov/CCB/board/Pages/minutes.aspx,,,
Construction Contractors Board,Construction Contractors Board Meeting,Construction Contractors Board Meeting,08/23/2017 09:30:00 AM,08/23/2017 12:30:00 PM,"201 High St SE, 1st Floor", Salem,OR,,Yes,Leslie Culpepper,503-934-2228,leslie.culpepper@state.or.us,,,,Leslie Culpepper,503-934-2228,leslie.culpepper@state.or.us,,,,,,,,,http://www.oregon.gov/CCB/board/Pages/minutes.aspx,,,
Construction Contractors Board,Construction Contractors Board Meeting,Board Meeting,03/23/2016 09:30:00 AM,03/23/2016 11:30:00 AM,201 High St. SE, Salem,OR,"CCB Board Meeting
See our website: http://www.oregon.gov/CCB/board/Pages/board-info.aspx ",Yes,Leslie Culpepper,503-934-2228,leslie.culpepper@state.or.us,,,,Leslie Culpepper,503-934-2228,leslie.culpepper@state.or.us,,,,,,,,,http://www.oregon.gov/CCB/board/Pages/minutes.aspx,,,
Construction Contractors Board,Construction Contractors Board Teleconference Board Meeting,Construction Contractors Board Teleconference Board Meeting,01/25/2017 09:30:00 AM,01/25/2017 11:00:00 AM,"201 High St SE, 1st Floor", Salem,OR,,Yes,Leslie Culpepper,503-934-2228,leslie.culpepper@state.or.us,,,,Leslie Culpepper,503-934-2228,leslie.culpepper@state.or.us,,,,,,,,,http://www.oregon.gov/CCB/board/Pages/minutes.aspx,,,
Construction Contractors Board,Construction Contractors Board Meeting,Construction Contractors Board Meeting,10/25/2017 09:30:00 AM,10/25/2017 12:30:00 PM,"201 High St SE, 1st Floor", Salem,OR,,Yes,Leslie Culpepper,503-934-2228,leslie.culpepper@state.or.us,,,,Leslie Culpepper,503-934-2228,leslie.culpepper@state.or.us,,,,,,,,,http://www.oregon.gov/CCB/board/Pages/minutes.aspx,,,
Construction Contractors Board,Construction Contractors Board Meeting,Board Meeting,02/24/2016 09:30:00 AM,02/24/2016 12:30:00 AM,201 High St. SE, Salem,OR," CCB Board Meeting, see our website: http://www.oregon.gov/CCB/board/Pages/board-info.aspx ",Yes,Leslie Culpepper,503-934-2228,leslie.culpepper@state.or.us,,,,Leslie Culpepper,503-934-2228,leslie.culpepper@state.or.us,,,,,http://www.oregon.gov/CCB/board/Pages/board-info.aspx,,,,http://www.oregon.gov/CCB/board/Pages/minutes.aspx,,,
Construction Contractors Board,Construction Contractors Board Meeting,Board Meeting,07/27/2016 09:30:00 AM,07/27/2016 12:30:00 PM,201 High St. SE,Salem,OR,CCB Board Meeting. See our website: http://www.oregon.gov/CCB/board/Pages/board-info.aspx,Yes,Leslie Culpepper,503-934-2228,leslie.culpepper@state.or.us,,,,Leslie Culpepper,503-934-2228,leslie.culpepper@state.or.us,,,,,http://www.oregon.gov/CCB/board/Pages/board-info.aspx,,,,http://www.oregon.gov/CCB/board/Pages/minutes.aspx,,,
Construction Contractors Board,(Stakeholders/DCBS) Hiring Subcommittee Meeting,(Stakeholders/DCBS) Hiring Subcommittee Meeting,03/13/2018 12:30:00 PM,03/13/2018 05:00:00 PM,"201 High Street SE, 1st floor", Salem,OR,"This meeting is held primarily in executive session, which is closed to the public. ",No,Leslie Culpepper,503-934-2228,leslie.culpepper@state.or.us,,,,Leslie Culpepper,503-934-2228,leslie.culpepper@state.or.us,,,,,,,,,,,,
Construction Contractors Board,Construction Contractors Board Meeting,Construction Contractors Board Meeting,02/22/2017 09:30:00 AM,02/22/2017 12:30:00 PM,"201 High St SE, 1st Floor", Salem,OR,,Yes,Leslie Culpepper,503-934-2228,leslie.culpepper@state.or.us,,,,Leslie Culpepper,503-934-2228,leslie.culpepper@state.or.us,,,,,,,,,http://www.oregon.gov/CCB/board/Pages/minutes.aspx,,,
Construction Contractors Board,Construction Contractors Board Meeting,Board Meeting,12/07/2016 09:30:00 AM,12/07/2016 12:30:00 PM,201 High St. SE, Salem,OR,CCB Board Meeting. See our website: http://www.oregon.gov/CCB/board/Pages/board-info.aspx,Yes,Leslie Culpepper,503-934-2228,leslie.culpepper@state.or.us,,,,Leslie Culpepper,503-934-2228,leslie.culpepper@state.or.us,,,,,http://www.oregon.gov/CCB/board/Pages/board-info.aspx,,,,http://www.oregon.gov/CCB/board/Pages/minutes.aspx,,,
Construction Contractors Board,Construction Contractors Board Meeting,Board Meeting,05/16/2016 09:00:00 AM,05/16/2016 02:00:00 PM,201 High St. SE, Salem,OR,CCB Strategic Planning Board Meeting,No,Leslie Culpepper,503-934-2228,leslie.culpepper@state.or.us,,,,Leslie Culpepper,503-934-2228,leslie.culpepper@state.or.us,,,,,http://www.oregon.gov/CCB/board/Pages/board-info.aspx,,,,http://www.oregon.gov/CCB/board/Pages/minutes.aspx,,,
Construction Contractors Board,Construction Contractors Board Teleconference Board Meeting,Construction Contractors Board Teleconference Board Meeting,12/28/2016 08:00:00 AM,12/28/2016 08:45:00 AM,"201 High St SE, 1st Floor", Salem,OR,,No,Leslie Culpepper,503-934-2228,leslie.culpepper@state.or.us,,,,Leslie Culpepper,503-934-2228,leslie.culpepper@state.or.us,,,,,,,,,,,,
Construction Contractors Board,Construction Contractors Board Teleconference Board Meeting,Construction Contractors Board Teleconference Board Meeting,03/22/2017 09:30:00 AM,03/22/2017 11:00:00 AM,"201 High St SE, 1st Floor",Salem,OR,,Yes,Leslie Culpepper,503-934-2228,leslie.culpepper@state.or.us,,,,Leslie Culpepper,503-934-2228,leslie.culpepper@state.or.us,,,,,,,,,http://www.oregon.gov/CCB/board/Pages/minutes.aspx,,,
Construction Contractors Board,CCB Board Meeting,,10/24/2018 09:30:00 AM,10/24/2018 12:30:00 PM,201 High St SE, Salem,OR,,,Sara Heinz,,sara.heinz@state.or.us,,,,,,,,,,,,,,,,,,
Construction Contractors Board,Construction Contractors Appeals Committee Meeting,Construction Contractors Appeals Committee Meeting,12/07/2016 08:00:00 AM,12/07/2016 09:30:00 AM,"201 High St SE, 1st Floor", Salem,OR,,No,Leslie Culpepper,503-934-2228,leslie.culpepper@state.or.us,,,,Leslie Culpepper,503-934-2228,leslie.culpepper@state.or.us,,,,,,,,,,,,
Construction Contractors Board,CCB Board Meeting,CCB Board Meeting,04/05/2018 09:30:00 AM,04/05/2018 12:30:00 PM,"201 High Street SE, 1st floor", Salem,OR,,,Leslie Culpepper,503-934-2228,leslie.culpepper@state.or.us,,,,Leslie Culpepper,503-934-2228,leslie.culpepper@state.or.us,,,,,,,,,,,,
Construction Contractors Board,(CCB Staff/DCBS) Hiring Subcommittee Meeting,(CCB Staff/DCBS) Hiring Subcommittee Meeting,03/13/2018 12:30:00 PM,03/13/2018 05:00:00 PM,"201 High Street SE, 2nd floor", Salem,OR,"This meeting takes place primarily in executive session, which is closed to the public.",No,Leslie Culpepper,503-934-2228,leslie.culpepper@state.or.us,,,,Leslie Culpepper,503-934-2228,leslie.culpepper@state.or.us,,,,,,,,,,,,
Construction Contractors Board,Construction Contractors Rulemaking Hearing,Construction Contractors Rulemaking Hearing,06/15/2017 11:00:00 AM,06/15/2017 12:00:00 PM,"201 High St SE, 6th Floor",Salem ,OR,Proposed Rulemaking Hearing,Yes,Leslie Culpepper,503-934-2228,leslie.culpepper@state.or.us,,,,Leslie Culpepper,503-934-2228,leslie.culpepper@state.or.us,,,,,,,,,http://www.oregon.gov/CCB/laws-rules/Pages/proposed-rules.aspx,,,
Construction Contractors Board,Construction Contractors Board Teleconference Board Meeting,Construction Contractors Board Teleconference Board Meeting,07/26/2017 09:30:00 AM,07/26/2017 11:00:00 AM,"201 High St SE, 1st Floor", Salem,OR,,Yes,Leslie Culpepper,503-934-2228,leslie.culpepper@state.or.us,,,,Leslie Culpepper,503-934-2228,leslie.culpepper@state.or.us,,,,,,,,,http://www.oregon.gov/CCB/board/Pages/minutes.aspx,,,
Construction Contractors Board,CCB Rulemaking Hearing,Rulemaking Hearing,08/15/2018 08:00:00 AM,08/15/2018 09:00:00 AM,"201 High Street SE, 6th floor",Salem,OR,"Rule making hearing 
https://www.oregon.gov/CCB/laws-rules/Pages/proposed-rules.aspx",,Leslie Culpepper,503-934-2228,leslie.culpepper@state.or.us,,,,Leslie Culpepper,503-934-2228,leslie.culpepper@state.or.us,,,,,,,,,,,,
Construction Contractors Board,CCB Board Meeting,CCB Board Meeting,03/28/2018 09:30:00 AM,03/28/2018 12:30:00 PM,"201 High Street SE, 1st floor",Salem,OR,,,Leslie Culpepper,503-934-2228,leslie.culpepper@state.or.us,,,,Leslie Culpepper,503-934-2228,leslie.culpepper@state.or.us,,,,,,,,,,,,
Construction Contractors Board,Construction Contractors Board Teleconference Board Meeting,Construction Contractors Board Teleconference Board Meeting,09/27/2017 09:30:00 AM,09/27/2017 11:00:00 AM,"201 High St SE, 1st Floor",Salem,OR,,Yes,Leslie Culpepper,503-934-2228,leslie.culpepper@state.or.us,,,,Leslie Culpepper,503-934-2228,leslie.culpepper@state.or.us,,,,,,,,,http://www.oregon.gov/CCB/board/Pages/minutes.aspx,,,
Construction Contractors Board,CCB (Board/Governor’s Office/DCBS) Hiring Subcommittee Meeting,CCB (Board/Governor’s Office/DCBS) Hiring Subcommittee Meeting,03/13/2018 12:30:00 PM,03/13/2018 05:00:00 PM,"201 High Street SE, 6th floor",Salem,OR,"This meeting takes place primarily in executive session, which is closed to the public.",No,Leslie Culpepper,503-934-2228,leslie.culpepper@state.or.us,,,,Leslie Culpepper,503-934-2228,leslie.culpepper@state.or.us,,,,,,,,,,,,
Construction Contractors Board,Construction Contractors Board Meeting,Construction Contractors Board Meeting,06/28/2017 09:30:00 AM,06/28/2017 12:30:00 PM,"201 High St SE, 1st Floor", Salem,OR,,Yes,Leslie Culpepper,503-934-2228,leslie.culpepper@state.or.us,,,,Leslie Culpepper,503-934-2228,leslie.culpepper@state.or.us,,,,,,,,,http://www.oregon.gov/CCB/board/Pages/minutes.aspx,,,
Construction Contractors Board,Construction Contractors Board Meeting,Board Meeting,03/23/2016 09:30:00 AM,03/23/2016 11:00:00 AM,201 High St. SE, Salem,OR,CCB Board meeting. See our website: http://www.oregon.gov/CCB/board/Pages/board-info.aspx,Yes,Leslie Culpepper,503-934-2228,leslie.culpepper@state.or.us,,,,Leslie Culpepper,503-934-2228,leslie.culpepper@state.or.us,,,,,http://www.oregon.gov/CCB/board/Pages/board-info.aspx,,,,http://www.oregon.gov/CCB/board/Pages/minutes.aspx,,,
Construction Contractors Board,CCB Board Meeting,CCB Board Meeting,06/27/2018 09:30:00 AM,06/27/2018 12:00:00 PM,"201 High Street SE, 6th floor", Salem,OR,CCB Board Meeting,Yes,Leslie Culpepper,503-934-2228,leslie.culpepper@state.or.us,,,,Leslie Culpepper,503-934-2228,leslie.culpepper@state.or.us,,,,,,,,,http://www.oregon.gov/CCB/board/Pages/minutes.aspx,,,
Construction Contractors Board,CCB Board Meeting,CCB Board Meeting,04/25/2018 09:30:00 AM,04/25/2018 12:00:00 PM,"201 High Street SE, 1st floor", Salem,OR,CCB Board Meeting,Yes,Leslie Culpepper,503-934-2228,leslie.culpepper@state.or.us,,,,Leslie Culpepper,503-934-2228,leslie.culpepper@state.or.us,,,,,,,,,http://www.oregon.gov/CCB/board/Pages/minutes.aspx,,,
Construction Contractors Board,Construction Contractors Board Meeting,Board Meeting,05/25/2016 09:30:00 AM,05/25/2016 12:30:00 PM,201 High St. SE, Salem,OR,CCB Board meeting. See our website: http://www.oregon.gov/CCB/board/Pages/board-info.aspx,Yes,Leslie Culpepper,503-934-2228,leslie.culpepper@state.or.us,,,,Leslie Culpepper,503-934-2228,leslie.culpepper@state.or.us,,,,,http://www.oregon.gov/CCB/board/Pages/board-info.aspx,,,,http://www.oregon.gov/CCB/board/Pages/minutes.aspx,,,
Construction Contractors Board,Construction Contractors Board Meeting,Board Meeting,06/29/2016 09:30:00 AM,06/29/2016 11:00:00 AM,201 High St. SE, Salem,OR,CCB Board Meeting. See our website: http://www.oregon.gov/CCB/board/Pages/board-info.aspx,Yes,Leslie Culpepper,503-934-2228,leslie.culpepper@state.or.us,,,,Leslie Culpepper,503-934-2228,leslie.culpepper@state.or.us,,,,,http://www.oregon.gov/CCB/board/Pages/board-info.aspx,,,,http://www.oregon.gov/CCB/board/Pages/minutes.aspx,,,
Construction Contractors Board,Construction Contractors Appeals Committee Meeting,Construction Contractors Appeals Committee Meeting,06/12/2017 09:30:00 AM,06/12/2017 12:00:00 PM,"201 High St SE, 1st Floor", Salem,OR,Construction Contractors Appeals Committee Meeting,No,Leslie Culpepper,503-934-2228,leslie.culpepper@state.or.us,,,,Leslie Culpepper,503-934-2228,leslie.culpepper@state.or.us,,,,,,,,,,,,
Construction Contractors Board,Construction Contractors Appeals Committee Meeting,Construction Contractors Appeals Committee Meeting,10/26/2016 08:00:00 AM,10/26/2016 09:00:00 AM,"201 High St SE, 1st Floor", Salem,OR,Construction Contractors Appeals Committee Meeting,No,Leslie Culpepper,503-934-2228,leslie.culpepper@state.or.us,,,,Leslie Culpepper,503-934-2228,leslie.culpepper@state.or.us,,,,,http://www.oregon.gov/CCB/Documents/pdf/CCB%20Board/JUSTICE-CCB_-_Appeal_Committee_Meeting_Agenda.pdf,,,,,,,
Construction Contractors Board,CCB Board Meeting,CCB Board Meeting,10/24/2018 09:30:00 AM,10/24/2018 12:00:00 PM,"201 High Street SE, 1st Floor", Salem,OR,CCB Board Meeting,Yes,Sara Heinz,,sara.heinz@state.or.us,,,,Sara Heinz,,sara.heinz@state.or.us,,,,,,,,,http://www.oregon.gov/CCB/board/Pages/minutes.aspx,,,
Construction Contractors Board,CCB Board Meeting,CCB Board Meeting,03/08/2018 09:00:00 AM,03/09/2018 10:00:00 AM,"201 High Street SE, 6th floor", Salem,OR,,Yes,Leslie Culpepper,503-934-2228,leslie.culpepper@state.or.us,,,,Leslie Culpepper,503-934-2228,leslie.culpepper@state.or.us,,,,,,,,,,,,
Construction Contractors Board,Construction Contractors Appeals Committee Meeting,Construction Contractors Appeals Committee Meeting,12/07/2016 08:00:00 AM,12/07/2016 09:30:00 AM,"201 High St SE, 1st Floor", Salem,OR,,No,Leslie Culpepper,503-934-2228,leslie.culpepper@state.or.us,,,,Leslie Culpepper,503-934-2228,leslie.culpepper@state.or.us,,,,,,,,,,,,
Construction Contractors Board,CANCELLED: August 24 Construction Contractors Board Meeting,Board Meeting,08/24/2016 09:30:00 AM,08/24/2016 11:00:00 AM,201 High St. SE, Salem,OR,This meeting of the CCB Board has been cancelled. See our website: http://www.oregon.gov/CCB/board/Pages/board-info.aspx,Yes,Leslie Culpepper,503-934-2228,leslie.culpepper@state.or.us,,,,Leslie Culpepper,503-934-2228,leslie.culpepper@state.or.us,,,,,http://www.oregon.gov/CCB/board/Pages/board-info.aspx,,,,http://www.oregon.gov/CCB/board/Pages/minutes.aspx,,,
Construction Contractors Board,CCB Board Meeting,CCB Board Meeting,02/28/2018 09:30:00 AM,02/28/2018 12:00:00 PM,"201 High Street SE, 6th floor", Salem,OR,CCB Board Meeting,Yes,Leslie Culpepper,503-934-2228,leslie.culpepper@state.or.us,,,,Leslie Culpepper,503-934-2228,leslie.culpepper@state.or.us,,,,,,,,,http://www.oregon.gov/CCB/board/Pages/minutes.aspx,,,
Construction Contractors Board,CCB Board Meeting,CCB Board Meeting,01/24/2018 09:30:00 AM,01/24/2018 12:00:00 PM,"201 High Street SE, 6th floor", Salem,OR,CCB Board Meeting,Yes,Leslie Culpepper,503-934-2228,leslie.culpepper@state.or.us,,,,Leslie Culpepper,503-934-2228,leslie.culpepper@state.or.us,,,,,,,,,http://www.oregon.gov/CCB/board/Pages/minutes.aspx,,,
Construction Contractors Board,Construction Contractors Teleconference Board Meeting,Construction Contractors Board Teleconference Board Meeting,02/01/2017 09:00:00 AM,02/01/2017 10:00:00 AM,"201 High St SE, 6th Floor",Salem,OR,,No,Leslie Culpepper,503-934-2228,leslie.culpepper@state.or.us,,,,Leslie Culpepper,503-934-2228,leslie.culpepper@state.or.us,,,,,,,,,,,,
Construction Contractors Board,CCB Board Meeting,CCB Board Meeting,08/22/2018 09:30:00 AM,08/22/2018 12:00:00 PM,"201 High Street SE, 6th floor", Salem,OR,CCB Board Meeting,Yes,Leslie Culpepper,,leslie.culpepper@state.or.us,,,,Leslie Culpepper,,leslie.culpepper@state.or.us,,,,,,,,,http://www.oregon.gov/CCB/board/Pages/minutes.aspx,,,
Construction Contractors Board,CCB Rulemaking Hearing,Rulemaking Hearing,06/15/2018 08:00:00 AM,05/25/2018 09:00:00 AM,"201 High Street SE, 6th floor", Salem,OR,"CCB has initiated the rulemaking process for permanent rules relating to a pilot pre-license project. The rule making hearing will take place on June 15th at 8:00 a.m.
http://www.oregon.gov/CCB/laws-rules/Pages/proposed-rules.aspx ",Yes,Leslie Culpepper,503-934-2228,leslie.culpepper@state.or.us,,,,Leslie Culpepper,503-934-2228,leslie.culpepper@state.or.us,,,,,,,,,,,,
Construction Contractors Board,Construction Contractors Board Teleconference Board Meeting,Construction Contractors Board Teleconference Board Meeting,12/06/2017 09:30:00 AM,12/06/2017 11:00:00 AM,"201 High St SE, 1st Floor", Salem,OR,,Yes,Leslie Culpepper,503-934-2228,leslie.culpepper@state.or.us,,,,Leslie Culpepper,503-934-2228,leslie.culpepper@state.or.us,,,,,,,,,http://www.oregon.gov/CCB/board/Pages/minutes.aspx,,,
Construction Contractors Board,CCB Board Meeting,,08/28/2019 09:30:00 AM,08/01/2019 01:00:00 PM,"201 High St SE, 1st Floor Hearings Room", Salem,OR,,Yes,Sara Heinz,,sara.heinz@ccb.state.or.us,,,,,,,,,,,,,,,,,,
Construction Contractors Board,CCB Board Meeting,,06/26/2019 09:30:00 AM,06/26/2019 12:30:00 PM,"201 High St SE, 1st Floor, Hearings Room", Salem,OR,,Yes,Sara Heinz,503-934-2214,sara.heinz@ccb.state.or.us,,,,,,,,,,,http://www.oregon.gov/CCB/board/Pages/board-info.aspx (http://www.oregon.gov/CCB/board/Pages/board-info.aspx%20),,,,,,,
Construction Contractors Board,CCB Board Meeting,CCB Board Meeting,02/27/2019 09:30:00 AM,02/27/2019 12:30:00 PM,"201 High Street SE, 1st Floor Hearings Room", Salem,OR,,Yes,Sara Heinz,503-934-2217,sara.heinz@state.or.us,,,https://www.oregon.gov/CCB/board/Pages/board-info.aspx,,,,,,,,,,,,https://www.oregon.gov/CCB/board/Pages/minutes.aspx,,,
Construction Contractors Board,CCB Appeals Committee Meeting,,08/28/2019 09:30:00 AM,08/28/2019 11:30:00 AM,"201 High St SE, 1st Floor Hearings Room", Salem,OR,,,Sara Heinz,,sara.heinz@ccb.state.or.us,,,,,,,,,,,,,,,,,,
Construction Contractors Board,CCB Board Administrator Hiring Subcommittee Meeting,,04/22/2019 10:00:00 AM,04/22/2019 12:00:00 PM,"201 High St SE, 6th Floor Board Room", Salem,OR,,Yes,Sara Heinz,503-934-2217,sara.heinz@ccb.state.or.us,,,,,,,,,,,https://www.oregon.gov/CCB/board/Pages/board-info.aspx,,,,,,,
Construction Contractors Board,CCB Teleconference Board Meeting,,05/22/2019 09:30:00 AM,05/22/2019 10:30:00 AM,"201 High St SE, 1st Floor Hearings Room", Salem,OR,,Yes,Sara Heinz,503-934-2217,sara.heinz@ccb.state.or.us,,,,,,,,,None,,https://www.oregon.gov/CCB/board/Pages/board-info.aspx,,,,,,,
Construction Contractors Board,CCB Board Meeting,,10/23/2019 09:30:00 AM,10/23/2019 01:00:00 PM,"201 High St SE, 1st Floor Hearings Room", Salem,OR,,Yes,Sara Heinz,,sara.heinz@ccb.state.or.us,,,,,,,,,,,https://www.oregon.gov/CCB/board/Pages/board-info.aspx,,,,,,,
Construction Contractors Board,CCB Board Meeting,,04/24/2019 09:30:00 AM,04/24/2019 12:30:00 PM,"201 High St SE, 1st Floor Hearings Room",Salem,OR,,Yes,Sara Heinz,503-934-2217,sara.heinz@ccb.state.or.us,,,,,,,,,,,https://www.oregon.gov/CCB/board/Pages/board-info.aspx,,,,https://www.oregon.gov/CCB/board/Pages/minutes.aspx,,,
Construction Contractors Board,CCB Board Teleconference Meeting,,03/18/2020 11:00:00 AM,03/18/2020 12:00:00 PM,"201 High Street, 1st Floor Hearings Room",Salem,OR,Emergency meeting to initiate rulemaking.,,Sara Heinz,503-934-2217,sara.heinz@ccb.state.or.us,,,,,,,,,,,,,,,,,,
Construction Contractors Board,CCB Appeals Committee Public Meeting and Executive Session,,09/23/2020 09:30:00 AM,09/23/2020 12:00:00 PM,GoTo Meeting, Salem,OR,"CCB Appeal Committee Meeting
Wed, Sep 23, 2020 9:30 AM - 11:30 AM (PDT)

Please join my meeting from your computer, tablet or smartphone.

https://global.gotomeeting.com/join/859140789

You can also dial in using your phone.
(For supported devices, tap a one-touch number below to join instantly.)

United States: +1 (571) 317-3122
- One-touch: tel:+15713173122,,859140789#

Access Code: 859-140-789

Join from a video-conferencing room or system.
Dial in or type: 67.217.95.2 or inroomlink.goto.com
Meeting ID: 859 140 789
Or dial directly: 859140789@67.217.95.2 or 67.217.95.2##859140789


New to GoToMeeting? Get the app now and be ready when your first meeting starts: https://global.gotomeeting.com/install/859140789
",,Sara Heinz,,sara.heinz@ccb.state.or.us,,,,,,,,,,,,,,,,,,
Construction Contractors Board,CCB Board Teleconference Meeting,,04/22/2020 09:30:00 AM,04/22/2020 12:30:00 PM,"201 High Street, 1st Floor Hearings Room", Salem,OR,Public Comment will be accepted in person. Social distancing guidelines of 6 feet will be adhered to. Hand sanitizer is available.,Yes,Sara Heinz,,sara.heinz@ccb.state.or.us,,,,,,,,,,,,,,,,,,
Construction Contractors Board,CCB Board Teleconference Meeting,,06/24/2020 09:30:00 AM,06/24/2020 12:00:00 PM,GoTo Meeting , Salem,OR,"This meeting will be held via GoTo Meeting. The call in information is provided below.


",Yes,Sara Heinz,,sara.heinz@ccb.state.or.us,,,,,,,,,1 (646) 749-3122,541-053-589,https://www.oregon.gov/ccb/board/Pages/board-info.aspx,,,,,,,
Construction Contractors Board,CCB Board Teleconference Meeting,,06/24/2020 09:30:00 AM,06/24/2020 12:00:00 PM,201 High Street,Salem,OR,"This meeting will be held via GoTo Meeting. The call in information is provided below.


",Yes,Sara Heinz,,sara.heinz@ccb.state.or.us,,,,,,,,,1 (646) 749-3122,541-053-589,https://www.oregon.gov/ccb/board/Pages/board-info.aspx,,,,,,,
Construction Contractors Board,CCB Board Teleconference Meeting,,08/26/2020 09:30:00 AM,08/26/2020 12:00:00 PM,GoTo Meeting, Salem,OR,,Yes,Sara Heinz,503-934-2217,sara.heinz@ccb.state.or.us,,,,,,,true,https://global.gotomeeting.com/join/510382061,+1 (646) 749-3122,510-382-061,,,,,,,,
Construction Contractors Board,CCB Board Meeting and Appeal Committee with Executive Session,,10/28/2020 09:30:00 AM,10/28/2020 12:00:00 PM,GoTo Meeting,Salem,OR,,Yes,Sara M Heinz,503-934-2217,sara.heinz@ccb.state.or.us,,,,,,,true,https://global.gotomeeting.com/join/573121557,1-224-501-3412,573-121-557,,,,,,,,
Construction Contractors Board,CCB Board Teleconference Meeting,,10/27/2021 08:30:00 AM,10/27/2021 11:30:00 AM,GoTo Meeting,Salem,OR,,Yes,Sara Heinz,5039342217,sara.heinz@ccb.oregon.gov,,,,,,,,https://global.gotomeeting.com/join/993481829,(571) 317-3122,993-481-829,,,,,,,,
Construction Contractors Board,CCB Board Meeting with Executive Session,,02/24/2021 08:30:00 AM,02/24/2021 10:30:00 AM,GoTo Meeting,Salem,OR,,Yes,Sara Heinz,,sara.heinz@ccb.state.or.us,,,,,,,,,1-646-749-3122,228-495-949,,,,,,,,
Construction Contractors Board,CCB Board Teleconference Meeting,,04/27/2022 08:30:00 AM,04/27/2022 11:30:00 AM,GoTo Meeting,Salem,OR,,Yes,Sara Heinz,,sara.heinz@ccb.oregon.gov,,,,,,,,https://meet.goto.com/697728149  (https://meet.goto.com/697728149%20),+1 (408) 650-3123 ,697-728-149,,,,,,,,
Construction Contractors Board,CCB Board Teleconference Meeting,,08/25/2021 08:30:00 AM,08/25/2021 11:30:00 AM,GoTo Meeting, Salem,OR,,Yes,Leslie Culpepper,,leslie.culpepper@ccb.oregon.gov,,,,,,,,https://global.gotomeeting.com/join/460377757  (https://global.gotomeeting.com/join/460377757%20),1-872-240-3412,460-377-757,,,,,,,,
Construction Contractors Board,CCB Board Teleconference Meeting,,04/28/2021 08:30:00 AM,04/28/2021 11:30:00 AM,GoTo Meeting,SALEM,OR,,Yes,Sara Heinz,503-934-2217,sara.heinz@ccb.state.or.us,,,,,,,,,1-646-749-3122,686-859-405,,,,,,,,
Construction Contractors Board,CCB Board Teleconference Meeting,,06/23/2021 08:30:00 AM,06/23/2021 11:30:00 AM,GoTo Meeting,SALEM,OR,,Yes,Sara Heinz,5039342217,sara.heinz@ccb.oregon.gov,,,,,,,,https://global.gotomeeting.com/join/678362221,1-872-240-3212,678-362-221,,,,,,,,
Construction Contractors Board,CCB Board Teleconference Meeting,,02/23/2022 08:30:00 AM,02/23/2022 11:30:00 AM,GoTo Meeting,Salem,OR,,Yes,Sara Heinz,,sara.heinz@ccb.oregon.gov,,,,,,,true,https://global.gotomeeting.com/join/243767117,(224) 501-3412,243-767-117,,,,,,,,
Construction Contractors Board,CCB Board Teleconference Meeting,,12/01/2021 08:30:00 AM,12/01/2021 11:30:00 AM,GoTo Meeting, Salem,OR,,Yes,Sara Heinz,,sara.heinz@ccb.oregon.gov,,,,,,,true,https://global.gotomeeting.com/join/372375701,1-646-749-3122,372-375-701,,,,,,,,
Construction Contractors Board,CCB Board Meeting,,08/24/2022 08:30:00 AM,08/24/2022 11:30:00 AM,"201 High Street SE, 1st Floor Hearings Room OR GoTo Meeting",Salem,OR,,,Julie Nadeau,503-934-2217,julie.t.nadeau@ccb.oregon.gov,,,,,,,,,GoTo Meeting Call In: 1 (571) 317-3112,Access Code: 515-188-397,https://www.oregon.gov/ccb/board/Pages/board-info.aspx,,,,https://www.oregon.gov/ccb/board/Pages/minutes.aspx,,,
Construction Contractors Board,Rule Making Public Hearing,,05/18/2022 11:00:00 AM,05/18/2022 12:00:00 PM,"201 High St, 1st Floor Hearings Room",Salem,OR,"This hearing will also be made available via GoTo Meeting, call in information is below.",Yes,Sara Heinz,5039342217,sara.heinz@ccb.oregon.gov,,,,,,,,https://meet.goto.com/875652757,1-571-317-3112,875-652-757,,,,,,,,
Construction Contractors Board,CCB Board Meeting,,06/22/2022 08:30:00 AM,06/22/2022 11:30:00 AM,"201 High Street SE, 1st Floor Hearings Room OR GoTo Meeting",Salem,OR,,Yes,Julie Nadeau,503-934-2217,julie.t.nadeau@ccb.oregon.gov,,,,,,,,https://meet.goto.com/768093669,571-317-3122,768-093-669,https://www.oregon.gov/ccb/board/Pages/board-info.aspx,,,,https://www.oregon.gov/ccb/board/Pages/board-info.aspx,,,
