"business_name","entity_type","address","city","state","zip_code"
"UNITED METHODIST CHURCH, OREGON CITY, OREGON","DOMESTIC NONPROFIT CORPORATION","18955 S SOUTH END RD","OREGON CITY","OR","97045"
"UNITED METHODIST CHURCH, OREGON CITY, OREGON","DOMESTIC NONPROFIT CORPORATION","18955 S SOUTH END RD","OREGON CITY","OR","97045"
"UNITED METHODIST CHURCH, OREGON CITY, OREGON","DOMESTIC NONPROFIT CORPORATION","18955 S SOUTH END RD","OREGON CITY","OR","97045"
"UNITED METHODIST CHURCH, OREGON CITY, OREGON","DOMESTIC NONPROFIT CORPORATION","18955 S SOUTH END RD","OREGON CITY","OR","97045"
"UNITED METHODIST CHURCH, OREGON CITY, OREGON","DOMESTIC NONPROFIT CORPORATION","18955 S SOUTH END RD","OREGON CITY","OR","97045"
"WILLAMETTE UNIVERSITY","DOMESTIC NONPROFIT CORPORATION","900 STATE ST","SALEM","OR","97301"
"WILLAMETTE UNIVERSITY","DOMESTIC NONPROFIT CORPORATION","900 STATE ST","SALEM","OR","97301"
"WILLAMETTE UNIVERSITY","DOMESTIC NONPROFIT CORPORATION","900 STATE ST","SALEM","OR","97301"
"WILLAMETTE UNIVERSITY","DOMESTIC NONPROFIT CORPORATION","900 STATE ST","SALEM","OR","97301"
"WILLAMETTE UNIVERSITY","DOMESTIC NONPROFIT CORPORATION","900 STATE ST","SALEM","OR","97301"
"PACIFIC UNIVERSITY","DOMESTIC NONPROFIT CORPORATION","2043 COLLEGE WAY","FOREST GROVE","OR","97116"
"PACIFIC UNIVERSITY","DOMESTIC NONPROFIT CORPORATION","2043 COLLEGE WAY","FOREST GROVE","OR","97116"
"PACIFIC UNIVERSITY","DOMESTIC NONPROFIT CORPORATION","2043 COLLEGE WAY","FOREST GROVE","OR","97116"
"PACIFIC UNIVERSITY","DOMESTIC NONPROFIT CORPORATION","2043 COLLEGE WAY","FOREST GROVE","OR","97116"
"PACIFIC UNIVERSITY","DOMESTIC NONPROFIT CORPORATION","2043 COLLEGE WAY","FOREST GROVE","OR","97116"
"GRAND LODGE OF ANCIENT FREE AND ACCEPTED MASONS OF OREGON","DOMESTIC NONPROFIT CORPORATION","2150 MASONIC WAY","FOREST GROVE","OR","97116"
"GRAND LODGE OF ANCIENT FREE AND ACCEPTED MASONS OF OREGON","DOMESTIC NONPROFIT CORPORATION","2150 MASONIC WAY","FOREST GROVE","OR","97116"
"GRAND LODGE OF ANCIENT FREE AND ACCEPTED MASONS OF OREGON","DOMESTIC NONPROFIT CORPORATION","2150 MASONIC WAY","FOREST GROVE","OR","97116"
"GRAND LODGE OF ANCIENT FREE AND ACCEPTED MASONS OF OREGON","DOMESTIC NONPROFIT CORPORATION","2150 MASONIC WAY","FOREST GROVE","OR","97116"
"GRAND LODGE OF ANCIENT FREE AND ACCEPTED MASONS OF OREGON","DOMESTIC NONPROFIT CORPORATION","2150 MASONIC WAY","FOREST GROVE","OR","97116"
"GRAND LODGE OF OREGON I.O.O.F.","DOMESTIC NONPROFIT CORPORATION","3202 SE HOLGATE BLVD","PORTLAND","OR","97202"
"GRAND LODGE OF OREGON I.O.O.F.","DOMESTIC NONPROFIT CORPORATION","3202 SE HOLGATE BLVD","PORTLAND","OR","97202"
"GRAND LODGE OF OREGON I.O.O.F.","DOMESTIC NONPROFIT CORPORATION","3202 SE HOLGATE BLVD","PORTLAND","OR","97202"
"GRAND LODGE OF OREGON I.O.O.F.","DOMESTIC NONPROFIT CORPORATION","3202 SE HOLGATE BLVD","PORTLAND","OR","97202"
"GRAND LODGE OF OREGON I.O.O.F.","DOMESTIC NONPROFIT CORPORATION","3202 SE HOLGATE BLVD","PORTLAND","OR","97202"
"CONGREGATION BETH ISRAEL","DOMESTIC NONPROFIT CORPORATION","1972 NW FLANDERS STREET","PORTLAND","OR","97209"
"CONGREGATION BETH ISRAEL","DOMESTIC NONPROFIT CORPORATION","1972 NW FLANDERS ST","PORTLAND","OR","97209"
"CONGREGATION BETH ISRAEL","DOMESTIC NONPROFIT CORPORATION","1972 NW FLANDERS ST","PORTLAND","OR","97209"
"CONGREGATION BETH ISRAEL","DOMESTIC NONPROFIT CORPORATION","1972 NW FLANDERS ST","PORTLAND","OR","97209"
"CONGREGATION BETH ISRAEL","DOMESTIC NONPROFIT CORPORATION","1972 NW FLANDERS ST","PORTLAND","OR","97209"
"THE FIRST PRESBYTERIAN CHURCH OF PORTLAND","DOMESTIC NONPROFIT CORPORATION","1200 SW ALDER ST","PORTLAND","OR","97205"
"THE FIRST PRESBYTERIAN CHURCH OF PORTLAND","DOMESTIC NONPROFIT CORPORATION","1200 SW ALDER ST","PORTLAND","OR","97205"
"THE FIRST PRESBYTERIAN CHURCH OF PORTLAND","DOMESTIC NONPROFIT CORPORATION","1200 SW ALDER ST","PORTLAND","OR","97205"
"THE FIRST PRESBYTERIAN CHURCH OF PORTLAND","DOMESTIC NONPROFIT CORPORATION","1200 SW ALDER ST","PORTLAND","OR","97205"
"THE FIRST PRESBYTERIAN CHURCH OF PORTLAND","DOMESTIC NONPROFIT CORPORATION","1200 SW ALDER ST","PORTLAND","OR","97205"
"FIRST UNITARIAN CHURCH OF PORTLAND, OREGON","DOMESTIC NONPROFIT CORPORATION","1034 SW 13TH AVE","PORTLAND","OR","97205"
"FIRST UNITARIAN CHURCH OF PORTLAND, OREGON","DOMESTIC NONPROFIT CORPORATION","7434 N ALMA AVE","PORTLAND","OR","97203"
"FIRST UNITARIAN CHURCH OF PORTLAND, OREGON","DOMESTIC NONPROFIT CORPORATION","1011 SW 12TH AVE","PORTLAND","OR","97205"
"FIRST UNITARIAN CHURCH OF PORTLAND, OREGON","DOMESTIC NONPROFIT CORPORATION","1034 SW 13TH AVE","PORTLAND","OR","97205"
"FIRST UNITARIAN CHURCH OF PORTLAND, OREGON","DOMESTIC NONPROFIT CORPORATION","7065 SW VERMONT ST","PORTLAND","OR","97223"
"SPENCER BUTTE LODGE NO. 9, INDEPENDENT ORDER OF ODD FELLOWS","DOMESTIC NONPROFIT CORPORATION","1233 CHARNELTON ST","EUGENE","OR","97404"
"SPENCER BUTTE LODGE NO. 9, INDEPENDENT ORDER OF ODD FELLOWS","DOMESTIC NONPROFIT CORPORATION","89010 FIR BUTTE RD","EUGENE","OR","97402"
"SPENCER BUTTE LODGE NO. 9, INDEPENDENT ORDER OF ODD FELLOWS","DOMESTIC NONPROFIT CORPORATION","1233 CHARNELTON","EUGENE","OR","97401"
"SPENCER BUTTE LODGE NO. 9, INDEPENDENT ORDER OF ODD FELLOWS","DOMESTIC NONPROFIT CORPORATION","350 PEARL ST #412","EUGENE","OR","97401"
"SPENCER BUTTE LODGE NO. 9, INDEPENDENT ORDER OF ODD FELLOWS","DOMESTIC NONPROFIT CORPORATION","PO BOX 1404","VENETA","OR","97487"
"LEWIS & CLARK COLLEGE","DOMESTIC NONPROFIT CORPORATION","615 S PALATINE HILL ROAD MSC 33","PORTLAND","OR","97219"
"LEWIS & CLARK COLLEGE","DOMESTIC NONPROFIT CORPORATION","LEWIS AND CLARK COLLEGE","PORTLAND","OR","97219"
"LEWIS & CLARK COLLEGE","DOMESTIC NONPROFIT CORPORATION","333 SW 5TH AVE STE 400","PORTLAND","OR","97204"
"LEWIS & CLARK COLLEGE","DOMESTIC NONPROFIT CORPORATION","615 S PALATINE HILL RD MSC 33","PORTLAND","OR","97219"
"LEWIS & CLARK COLLEGE","DOMESTIC NONPROFIT CORPORATION","LEWIS AND CLARK COLLEGE","PORTLAND","OR","97219"
"WASCO LODGE # 15 A.F. & A.M.","DOMESTIC NONPROFIT CORPORATION","P O BOX 172","THE DALLES","OR","97058"
"WASCO LODGE # 15 A.F. & A.M.","DOMESTIC NONPROFIT CORPORATION","PO BOX 252","MOSIER","OR","97040"
"WASCO LODGE # 15 A.F. & A.M.","DOMESTIC NONPROFIT CORPORATION","105 W 3RD ST","THE DALLES","OR","97058"
"WASCO LODGE # 15 A.F. & A.M.","DOMESTIC NONPROFIT CORPORATION","1725 E 16TH","THE DALLES","OR","97058"
"WASCO LODGE # 15 A.F. & A.M.","DOMESTIC NONPROFIT CORPORATION","PO BOX 33","WASCO","OR","97065"
"FIRST BAPTIST CHURCH, A CORPORATION, OF PORTLAND, OREGON","DOMESTIC NONPROFIT CORPORATION","909 SW 11TH AVE","PORTLAND","OR","97205"
"FIRST BAPTIST CHURCH, A CORPORATION, OF PORTLAND, OREGON","DOMESTIC NONPROFIT CORPORATION","909 SW 11TH AVE","PORTLAND","OR","97205"
"FIRST BAPTIST CHURCH, A CORPORATION, OF PORTLAND, OREGON","DOMESTIC NONPROFIT CORPORATION","909 SW 11TH AVE","PORTLAND","OR","97205"
"FIRST BAPTIST CHURCH, A CORPORATION, OF PORTLAND, OREGON","DOMESTIC NONPROFIT CORPORATION","909 SW 11TH AVE","PORTLAND","OR","97205"
"FIRST BAPTIST CHURCH, A CORPORATION, OF PORTLAND, OREGON","DOMESTIC NONPROFIT CORPORATION","909 SW 11TH AVE","PORTLAND","OR","97205"
"UNITED CHURCH OF CHRIST, CONGREGATIONAL, OF THE DALLES, OREGON","DOMESTIC NONPROFIT CORPORATION","PO BOX 2190","THE DALLES","OR","97058"
"UNITED CHURCH OF CHRIST, CONGREGATIONAL, OF THE DALLES, OREGON","DOMESTIC NONPROFIT CORPORATION","2445 E. 15TH ST.","THE DALLES","OR","97058"
"UNITED CHURCH OF CHRIST, CONGREGATIONAL, OF THE DALLES, OREGON","DOMESTIC NONPROFIT CORPORATION","111 E 5TH ST","THE DALLES","OR","97058"
"UNITED CHURCH OF CHRIST, CONGREGATIONAL, OF THE DALLES, OREGON","DOMESTIC NONPROFIT CORPORATION","401 E 3RD ST STE 105","THE DALLES","OR","97058"
"UNITED CHURCH OF CHRIST, CONGREGATIONAL, OF THE DALLES, OREGON","DOMESTIC NONPROFIT CORPORATION","401 E 3RD ST STE 105","THE DALLES","OR","97058"
"UNITED CHURCH OF CHRIST, CONGREGATIONAL, OF THE DALLES, OREGON","DOMESTIC NONPROFIT CORPORATION","401 E 3RD ST STE 105","THE DALLES","OR","97058"
"UNITED CHURCH OF CHRIST, CONGREGATIONAL, OF THE DALLES, OREGON","DOMESTIC NONPROFIT CORPORATION","401 E 3RD ST STE 105","THE DALLES","OR","97058"
"UNITED CHURCH OF CHRIST, CONGREGATIONAL, OF THE DALLES, OREGON","DOMESTIC NONPROFIT CORPORATION","2522 OLD DUFUR RD","THE DALLES","OR","97058"
"LAKE OSWEGO UNITED METHODIST CHURCH","DOMESTIC NONPROFIT CORPORATION","C/O TRUSTEES","LAKE OSWEGO","OR","97034"
"LAKE OSWEGO UNITED METHODIST CHURCH","DOMESTIC NONPROFIT CORPORATION","1665 SW MIDVALE RD","PORTLAND","OR","97219"
"LAKE OSWEGO UNITED METHODIST CHURCH","DOMESTIC NONPROFIT CORPORATION","1855 SO SHORE BLVD","LAKE OSWEGO","OR","97034"
"LAKE OSWEGO UNITED METHODIST CHURCH","DOMESTIC NONPROFIT CORPORATION","1665 SW MIDVALE RD","PORTLAND","OR","97219"
"LAKE OSWEGO UNITED METHODIST CHURCH","DOMESTIC NONPROFIT CORPORATION","887 SIXTH STREET","LAKE OSWEGO","OR","97034"
"FIRST BAPTIST CHURCH OF SALEM","DOMESTIC NONPROFIT CORPORATION","395 MARION ST NE","SALEM","OR","97301"
"FIRST BAPTIST CHURCH OF SALEM","DOMESTIC NONPROFIT CORPORATION","1325 CLEAR LAKE RD NE","KEIZER","OR","97303"
"FIRST BAPTIST CHURCH OF SALEM","DOMESTIC NONPROFIT CORPORATION","395 MARION ST NE","SALEM","OR","97301"
"FIRST BAPTIST CHURCH OF SALEM","DOMESTIC NONPROFIT CORPORATION","395 MARION ST NE","SALEM","OR","97301"
"FIRST BAPTIST CHURCH OF SALEM","DOMESTIC NONPROFIT CORPORATION","16655 ELLENDALE RD","DALLAS","OR","97338"
"SAMARITAN LODGE NO. 2, OF THE INDEPENDENT ORDER OF ODD FELLOWS","DOMESTIC NONPROFIT CORPORATION","10282 SE MAIN ST","MILWAUKIE","OR","97222"
"SAMARITAN LODGE NO. 2, OF THE INDEPENDENT ORDER OF ODD FELLOWS","DOMESTIC NONPROFIT CORPORATION","10282 SE MAIN ST","MILWAUKIE","OR","97222"
"SAMARITAN LODGE NO. 2, OF THE INDEPENDENT ORDER OF ODD FELLOWS","DOMESTIC NONPROFIT CORPORATION","10282 SE MAIN ST","MILWAUKIE","OR","97222"
"SAMARITAN LODGE NO. 2, OF THE INDEPENDENT ORDER OF ODD FELLOWS","DOMESTIC NONPROFIT CORPORATION","10282 SE MAIN ST","MILWAUKIE","OR","97222"
"SAMARITAN LODGE NO. 2, OF THE INDEPENDENT ORDER OF ODD FELLOWS","DOMESTIC NONPROFIT CORPORATION","10282 SE MAIN ST","MILWAUKIE","OR","97222"
"LA GRANDE LODGE NO. FORTY ONE ANCIENT FREE AND ACCEPTED MASONS","DOMESTIC NONPROFIT CORPORATION","PO BOX 3025","LA GRANDE","OR","97850"
"LA GRANDE LODGE NO. FORTY ONE ANCIENT FREE AND ACCEPTED MASONS","DOMESTIC NONPROFIT CORPORATION","62916 FRUITDALE LN","LA GRANDE","OR","97850"
"LA GRANDE LODGE NO. FORTY ONE ANCIENT FREE AND ACCEPTED MASONS","DOMESTIC NONPROFIT CORPORATION","1303 1/2 ADAMS AVE","LA GRANDE","OR","97850"
"LA GRANDE LODGE NO. FORTY ONE ANCIENT FREE AND ACCEPTED MASONS","DOMESTIC NONPROFIT CORPORATION","1303 1/2 ADAMS AVE","LA GRANDE","OR","97850"
"LA GRANDE LODGE NO. FORTY ONE ANCIENT FREE AND ACCEPTED MASONS","DOMESTIC NONPROFIT CORPORATION","1610 OAK ST","LA GRANDE","OR","97850"
"THE YOUNG MEN'S CHRISTIAN ASSOCIATION OF COLUMBIA-WILLAMETTE","DOMESTIC NONPROFIT CORPORATION","851 SW SIXTH AVE #1500","PORTLAND","OR","97204"
"THE YOUNG MEN'S CHRISTIAN ASSOCIATION OF COLUMBIA-WILLAMETTE","DOMESTIC NONPROFIT CORPORATION","9500 SW BARBUR BLVD STE 200","PORTLAND","OR","97219"
"THE YOUNG MEN'S CHRISTIAN ASSOCIATION OF COLUMBIA-WILLAMETTE","DOMESTIC NONPROFIT CORPORATION","9500 SW BARBUR BLVD SUITE 200","PORTLAND","OR","97219"
"THE YOUNG MEN'S CHRISTIAN ASSOCIATION OF COLUMBIA-WILLAMETTE","DOMESTIC NONPROFIT CORPORATION","851 SW SIXTH AVE #1500","PORTLAND","OR","97204"
"THE YOUNG MEN'S CHRISTIAN ASSOCIATION OF COLUMBIA-WILLAMETTE","DOMESTIC NONPROFIT CORPORATION","9500 SW BARBUR BLVD STE 200","PORTLAND","OR","97219"
"COLUMBIA LODGE NO. 5, I.O.O.F.","DOMESTIC NONPROFIT CORPORATION","1100 W 18TH ST","THE DALLES","OR","97058"
"COLUMBIA LODGE NO. 5, I.O.O.F.","DOMESTIC NONPROFIT CORPORATION","22411 NW DAIRY CREEK RD","NORTH PLAINS","OR","97133"
"COLUMBIA LODGE NO. 5, I.O.O.F.","DOMESTIC NONPROFIT CORPORATION","1100 W 18TH ST","THE DALLES","OR","97058"
"COLUMBIA LODGE NO. 5, I.O.O.F.","DOMESTIC NONPROFIT CORPORATION","128 NE HAYES","HILLSBORO","OR","97123"
"COLUMBIA LODGE NO. 5, I.O.O.F.","DOMESTIC NONPROFIT CORPORATION","2565 THREE MILE RD","THE DALLES","OR","97058"
"BARNUM LODGE NO. 7 INDEPENDENT ORDER OF ODD FELLOWS","DOMESTIC NONPROFIT CORPORATION","223 SW 2ND ST","CORVALLIS","OR","97333"
"BARNUM LODGE NO. 7 INDEPENDENT ORDER OF ODD FELLOWS","DOMESTIC NONPROFIT CORPORATION","223 SW 2ND","CORVALLIS","OR","97333"
"BARNUM LODGE NO. 7 INDEPENDENT ORDER OF ODD FELLOWS","DOMESTIC NONPROFIT CORPORATION","223 SW 2ND","CORVALLIS","OR","97333"
"BARNUM LODGE NO. 7 INDEPENDENT ORDER OF ODD FELLOWS","DOMESTIC NONPROFIT CORPORATION","223 SW 2ND","CORVALLIS","OR","97333"
"BARNUM LODGE NO. 7 INDEPENDENT ORDER OF ODD FELLOWS","DOMESTIC NONPROFIT CORPORATION","223 SW 2ND ST","CORVALLIS","OR","97333"
"FIRST UNITED METHODIST CHURCH OF HILLSBORO, OREGON","DOMESTIC NONPROFIT CORPORATION","168 NE 8TH AVENUE","HILLSBORO","OR","97124"
"FIRST UNITED METHODIST CHURCH OF HILLSBORO, OREGON","DOMESTIC NONPROFIT CORPORATION","168 NE 8TH AVENUE","HILLSBORO","OR","97124"
"FIRST UNITED METHODIST CHURCH OF HILLSBORO, OREGON","DOMESTIC NONPROFIT CORPORATION","168 NE 8TH AVENUE","HILLSBORO","OR","97124"
"FIRST UNITED METHODIST CHURCH OF HILLSBORO, OREGON","DOMESTIC NONPROFIT CORPORATION","168 NE 8TH AVE","HILLSBORO","OR","97124"
"FIRST UNITED METHODIST CHURCH OF HILLSBORO, OREGON","DOMESTIC NONPROFIT CORPORATION","168 NE 8TH AVENUE","HILLSBORO","OR","97124"
"LEE MISSION CEMETERY","DOMESTIC NONPROFIT CORPORATION","LEE MISSION CEMETERY","SALEM","OR","97308"
"LEE MISSION CEMETERY","DOMESTIC NONPROFIT CORPORATION","4776 JEAN COURT NE","SALEM","OR","97305"
"LEE MISSION CEMETERY","DOMESTIC NONPROFIT CORPORATION","2104 D ST NE","SALEM","OR","97301"
"LEE MISSION CEMETERY","DOMESTIC NONPROFIT CORPORATION","4776 JEAN CT NE","SALEM","OR","97305"
"LEE MISSION CEMETERY","DOMESTIC NONPROFIT CORPORATION","3625 COOLEY DR NE","SALEM","OR","97305"
"FIRST AFRICAN METHODIST EPISCOPAL ZION CHURCH OF PORTLAND, OREGON","DOMESTIC NONPROFIT CORPORATION","109 N SKIDMORE ST","PORTLAND","OR","97217"
"FIRST AFRICAN METHODIST EPISCOPAL ZION CHURCH OF PORTLAND, OREGON","DOMESTIC NONPROFIT CORPORATION","4304 N VANCOUVER AVE","PORTLAND","OR","97217"
"FIRST AFRICAN METHODIST EPISCOPAL ZION CHURCH OF PORTLAND, OREGON","DOMESTIC NONPROFIT CORPORATION","4304 N VANCOUVER AVE","PORTLAND","OR","97217"
"FIRST AFRICAN METHODIST EPISCOPAL ZION CHURCH OF PORTLAND, OREGON","DOMESTIC NONPROFIT CORPORATION","6911 N HAIGHT AVE","PORTLAND","OR","97217"
"FIRST AFRICAN METHODIST EPISCOPAL ZION CHURCH OF PORTLAND, OREGON","DOMESTIC NONPROFIT CORPORATION","6911 N HAIGHT AVE","PORTLAND","OR","97217"
"THE FIRST UNITED METHODIST CHURCH OF SALEM","DOMESTIC NONPROFIT CORPORATION","3995 TAYSIDES ST S","SALEM","OR","97302"
"THE FIRST UNITED METHODIST CHURCH OF SALEM","DOMESTIC NONPROFIT CORPORATION","600 STATE ST","SALEM","OR","97301"
"THE FIRST UNITED METHODIST CHURCH OF SALEM","DOMESTIC NONPROFIT CORPORATION","BUSINESS ADMINISTRATOR","SALEM","OR","97301"
"THE FIRST UNITED METHODIST CHURCH OF SALEM","DOMESTIC NONPROFIT CORPORATION","1810 FAIRMOUNT AVE S","SALEM","OR","97302"
"PACIFIC LODGE NO 50 OF ANCIENT FREE AND ACCEPTED MASONS","DOMESTIC NONPROFIT CORPORATION","4742 LIBERTY ROAD S #589","SALEM","OR","97302"
"PACIFIC LODGE NO 50 OF ANCIENT FREE AND ACCEPTED MASONS","DOMESTIC NONPROFIT CORPORATION","1915 RAINIER DR E","MONMOUTH","OR","97361"
"PACIFIC LODGE NO 50 OF ANCIENT FREE AND ACCEPTED MASONS","DOMESTIC NONPROFIT CORPORATION","1625 BRUSH COLLEGE RD NW","SALEM","OR","97304"
"PACIFIC LODGE NO 50 OF ANCIENT FREE AND ACCEPTED MASONS","DOMESTIC NONPROFIT CORPORATION","2510 ROUND TABLE AVE SE","SALEM","OR","97306"
"PACIFIC LODGE NO 50 OF ANCIENT FREE AND ACCEPTED MASONS","DOMESTIC NONPROFIT CORPORATION","2510 ROUND TABLE AVE","SALEM","OR","97306"
"UNION LODGE #3 A.F. & A.M","DOMESTIC NONPROFIT CORPORATION","PO BOX 453","MCMINNVILLE","OR","97128"
"UNION LODGE #3 A.F. & A.M","DOMESTIC NONPROFIT CORPORATION","2052 SW MARIE DRIVE","MCMINNVILLE","OR","97128"
"UNION LODGE #3 A.F. & A.M","DOMESTIC NONPROFIT CORPORATION","235 3RD ST","MCMINNVILLE","OR","97128"
"UNION LODGE #3 A.F. & A.M","DOMESTIC NONPROFIT CORPORATION","340 NE HILL ST","SHERIDAN","OR","97378"
"UNION LODGE #3 A.F. & A.M","DOMESTIC NONPROFIT CORPORATION","340 NE HILL ST","SHERIDAN","OR","97378"
"ORODELL CANAL COMPANY","DOMESTIC NONPROFIT CORPORATION","PO BOX 3238","LA GRANDE","OR","97850"
"ORODELL CANAL COMPANY","DOMESTIC NONPROFIT CORPORATION","63344 HALLEY ROAD","LA GRANDE","OR","97850"
"ORODELL CANAL COMPANY","DOMESTIC NONPROFIT CORPORATION","62065 BLACKHAWK TRAIL","LA GRANDE","OR","97850"
"ORODELL CANAL COMPANY","DOMESTIC NONPROFIT CORPORATION","62065 BLACKHAWK TRAIL","LA GRANDE","OR","97850"
"ORODELL CANAL COMPANY","DOMESTIC NONPROFIT CORPORATION","62065 BLACKHAWK TRAIL","LA GRANDE","OR","97850"
"THE FIRST CHRISTIAN CHURCH IN SALEM OREGON","DOMESTIC NONPROFIT CORPORATION","685 MARION ST NE","SALEM","OR","97301"
"THE FIRST CHRISTIAN CHURCH IN SALEM OREGON","DOMESTIC NONPROFIT CORPORATION","3404 12TH ST SE","SALEM","OR","97302"
"THE FIRST CHRISTIAN CHURCH IN SALEM OREGON","DOMESTIC NONPROFIT CORPORATION","685 MARION ST NE","SALEM","OR","97301"
"THE FIRST CHRISTIAN CHURCH IN SALEM OREGON","DOMESTIC NONPROFIT CORPORATION","685 MARION ST NE","SALEM","OR","97301"
"THE FIRST CHRISTIAN CHURCH IN SALEM OREGON","DOMESTIC NONPROFIT CORPORATION","5907 ORDARD HEIGHTS RD NW","SALEM","OR","97304"
"THE FIRST PRESBYTERIAN CHURCH OF SALEM, OREGON","DOMESTIC NONPROFIT CORPORATION","770 CHEMEKETA ST NE","SALEM","OR","97301"
"THE FIRST PRESBYTERIAN CHURCH OF SALEM, OREGON","DOMESTIC NONPROFIT CORPORATION","770 CHEMEKETA ST NE","SALEM","OR","97301"
"THE FIRST PRESBYTERIAN CHURCH OF SALEM, OREGON","DOMESTIC NONPROFIT CORPORATION","770 CHEMEKETA ST NE","SALEM","OR","97301"
"THE FIRST PRESBYTERIAN CHURCH OF SALEM, OREGON","DOMESTIC NONPROFIT CORPORATION","770 CHEMEKETA ST NE","SALEM","OR","97301"
"THE FIRST PRESBYTERIAN CHURCH OF SALEM, OREGON","DOMESTIC NONPROFIT CORPORATION","770 CHEMEKETA ST NE","SALEM","OR","97301"
"TRINITY EPISCOPAL CATHEDRAL, PORTLAND, OREGON","DOMESTIC NONPROFIT CORPORATION","147 NW 19TH AVE","PORTLAND","OR","97209"
"TRINITY EPISCOPAL CATHEDRAL, PORTLAND, OREGON","DOMESTIC NONPROFIT CORPORATION","147 NW 19TH AVE","PORTLAND","OR","97209"
"TRINITY EPISCOPAL CATHEDRAL, PORTLAND, OREGON","DOMESTIC NONPROFIT CORPORATION","147 NW 19TH AVE","PORTLAND","OR","97209"
"TRINITY EPISCOPAL CATHEDRAL, PORTLAND, OREGON","DOMESTIC NONPROFIT CORPORATION","147 NW 19TH AVE","PORTLAND","OR","97209"
"TRINITY EPISCOPAL CATHEDRAL, PORTLAND, OREGON","DOMESTIC NONPROFIT CORPORATION","147 NW 19TH AVE","PORTLAND","OR","97209"
"THE AUMSVILLE CEMETERY ASSOCIATION","DOMESTIC NONPROFIT CORPORATION","615 MAIN STREET","AUMSVILLE","OR","97325"
"THE AUMSVILLE CEMETERY ASSOCIATION","DOMESTIC NONPROFIT CORPORATION","8489 MILL CREEK ROAD SE","AUMSVILLE","OR","97325"
"THE AUMSVILLE CEMETERY ASSOCIATION","DOMESTIC NONPROFIT CORPORATION","615 MAIN STREET","AUMSVILLE","OR","97325"
"THE AUMSVILLE CEMETERY ASSOCIATION","DOMESTIC NONPROFIT CORPORATION","615 MAIN STREET","AUMSVILLE","OR","97325"
"THE AUMSVILLE CEMETERY ASSOCIATION","DOMESTIC NONPROFIT CORPORATION","8489 MILL CREEK ROAD SE","AUMSVILLE","OR","97325"
"CHAMPOEG CEMETERY ASSOCIATION","DOMESTIC NONPROFIT CORPORATION","21117 CASE RD NE","AURORA","OR","97002"
"CHAMPOEG CEMETERY ASSOCIATION","DOMESTIC NONPROFIT CORPORATION","20938 CASE RD NE","AURORA","OR","97002"
"CHAMPOEG CEMETERY ASSOCIATION","DOMESTIC NONPROFIT CORPORATION","21117 CASE RD NE","AURORA","OR","97002"
"CHAMPOEG CEMETERY ASSOCIATION","DOMESTIC NONPROFIT CORPORATION","21117 CASE RD NE","AURORA","OR","97002"
"CHAMPOEG CEMETERY ASSOCIATION","DOMESTIC NONPROFIT CORPORATION","21117 CASE RD NE","AURORA","OR","97002"
"THE FIRST BAPTIST CHURCH OF OREGON CITY","DOMESTIC NONPROFIT CORPORATION","PO BOX 1686","OREGON CITY","OR","97045"
"THE FIRST BAPTIST CHURCH OF OREGON CITY","DOMESTIC NONPROFIT CORPORATION","819 JOHN ADAMS","OREGON CITY","OR","97045"
"THE FIRST BAPTIST CHURCH OF OREGON CITY","DOMESTIC NONPROFIT CORPORATION","819 JOHN ADAMS","OREGON CITY","OR","97045"
"THE FIRST BAPTIST CHURCH OF OREGON CITY","DOMESTIC NONPROFIT CORPORATION","819 JOHN ADAMS","OREGON CITY","OR","97045"
"THE FIRST BAPTIST CHURCH OF OREGON CITY","DOMESTIC NONPROFIT CORPORATION","819 JOHN ADAMS","OREGON CITY","OR","97045"
"THE FIRST SPIRITUAL RELIGIOUS ASSOCIATION OF CLACKAMAS COUNTY","DOMESTIC NONPROFIT CORPORATION","PO BOX 718","CANBY","OR","97013"
"THE FIRST SPIRITUAL RELIGIOUS ASSOCIATION OF CLACKAMAS COUNTY","DOMESTIC NONPROFIT CORPORATION","10244 S NEW ERA RD #2","CANBY","OR","97013"
"THE FIRST SPIRITUAL RELIGIOUS ASSOCIATION OF CLACKAMAS COUNTY","DOMESTIC NONPROFIT CORPORATION","10244 S NEW ERA RD","CANBY","OR","97013"
"THE FIRST SPIRITUAL RELIGIOUS ASSOCIATION OF CLACKAMAS COUNTY","DOMESTIC NONPROFIT CORPORATION","10244 S NEW ERA RD #2","CANBY","OR","97013"
"THE FIRST SPIRITUAL RELIGIOUS ASSOCIATION OF CLACKAMAS COUNTY","DOMESTIC NONPROFIT CORPORATION","10244 S NEW ERA RD #3","CANBY","OR","97013"
"JEWISH FAMILY AND CHILD SERVICE","DOMESTIC NONPROFIT CORPORATION","1221 SW YAMHILL ST STE 301","PORTLAND","OR","97205"
"JEWISH FAMILY AND CHILD SERVICE","DOMESTIC NONPROFIT CORPORATION","1221 SW YAMHILL STE 301","PORTLAND","OR","97205"
"JEWISH FAMILY AND CHILD SERVICE","DOMESTIC NONPROFIT CORPORATION","1221 SW YAMHILL STE 301","PORTLAND","OR","97205"
"JEWISH FAMILY AND CHILD SERVICE","DOMESTIC NONPROFIT CORPORATION","1221 SW YAMHILL ST STE 301","PORTLAND","OR","97205"
"JEWISH FAMILY AND CHILD SERVICE","DOMESTIC NONPROFIT CORPORATION","1221 SW YAMHILL ST STE 301","PORTLAND","OR","97205"
"ROMAN CATHOLIC ARCHBISHOP OF PORTLAND IN OREGON, AND SUCCESSORS, A CORPORATION SOLE","DOMESTIC NONPROFIT CORPORATION","2838 E BURNSIDE ST","PORTLAND","OR","97214"
"ROMAN CATHOLIC ARCHBISHOP OF PORTLAND IN OREGON, AND SUCCESSORS, A CORPORATION SOLE","DOMESTIC NONPROFIT CORPORATION","2838 E BURNSIDE ST","PORTLAND","OR","97214"
"ROMAN CATHOLIC ARCHBISHOP OF PORTLAND IN OREGON, AND SUCCESSORS, A CORPORATION SOLE","DOMESTIC NONPROFIT CORPORATION","2838 E BURNSIDE ST","PORTLAND","OR","97214"
"ROMAN CATHOLIC ARCHBISHOP OF PORTLAND IN OREGON, AND SUCCESSORS, A CORPORATION SOLE","DOMESTIC NONPROFIT CORPORATION","2838 E BURNSIDE ST","PORTLAND","OR","97214"
"THE ST. ANDREW'S SOCIETY OF OREGON","DOMESTIC NONPROFIT CORPORATION","111 SW 5TH AVE SUITE 3675","PORTLAND","OR","97204"
"THE ST. ANDREW'S SOCIETY OF OREGON","DOMESTIC NONPROFIT CORPORATION","15861 SW SUNDEW DRIVE","TIGARD","OR","97223"
"THE ST. ANDREW'S SOCIETY OF OREGON","DOMESTIC NONPROFIT CORPORATION","111 SW 5TH AVE SUITE 3675","PORTLAND","OR","97204"
"THE ST. ANDREW'S SOCIETY OF OREGON","DOMESTIC NONPROFIT CORPORATION","111 SW 5TH AVE SUITE 3675","PORTLAND","OR","97204"
"THE ST. ANDREW'S SOCIETY OF OREGON","DOMESTIC NONPROFIT CORPORATION","111 SW 5TH AVE STE 3675","PORTLAND","OR","97204"
"HARDING GRANGE, NO. 122 OF THE PATRONS OF HUSBANDRY","DOMESTIC NONPROFIT CORPORATION","16118 S GERBER RD","OREGON CITY","OR","97045"
"HARDING GRANGE, NO. 122 OF THE PATRONS OF HUSBANDRY","DOMESTIC NONPROFIT CORPORATION","16443 S GERBER RD","OREGON CITY","OR","97045"
"HARDING GRANGE, NO. 122 OF THE PATRONS OF HUSBANDRY","DOMESTIC NONPROFIT CORPORATION","21552 S FISHERS MILL RD","OREGON CITY","OR","97045"
"HARDING GRANGE, NO. 122 OF THE PATRONS OF HUSBANDRY","DOMESTIC NONPROFIT CORPORATION","16118 S GERBER RD","OREGON CITY","OR","97045"
"HARDING GRANGE, NO. 122 OF THE PATRONS OF HUSBANDRY","DOMESTIC NONPROFIT CORPORATION","733 SAINT JAMES PL.","MOLALLA","OR","97038"
"MYRTLE LODGE NO. 38 INDEPENDENT ORDER OF ODD FELLOWS","DOMESTIC NONPROFIT CORPORATION","PO BOX 1806","MYRTLE CREEK","OR","97457"
"MYRTLE LODGE NO. 38 INDEPENDENT ORDER OF ODD FELLOWS","DOMESTIC NONPROFIT CORPORATION","PO BOX 1806","MYRTLE CREEK","OR","97457"
"MYRTLE LODGE NO. 38 INDEPENDENT ORDER OF ODD FELLOWS","DOMESTIC NONPROFIT CORPORATION","221 N MAIN ST","MYRTLE CREEK","OR","97457"
"MYRTLE LODGE NO. 38 INDEPENDENT ORDER OF ODD FELLOWS","DOMESTIC NONPROFIT CORPORATION","183 WINTER GREEN DR","RIDDLE","OR","97469"
"MYRTLE LODGE NO. 38 INDEPENDENT ORDER OF ODD FELLOWS","DOMESTIC NONPROFIT CORPORATION","183 WINTER GREEN DR","RIDDLE","OR","97469"
"THE FIRST BAPTIST CHURCH OF ALBANY","DOMESTIC NONPROFIT CORPORATION","420 3RD AVE SE","ALBANY","OR","97321"
"THE FIRST BAPTIST CHURCH OF ALBANY","DOMESTIC NONPROFIT CORPORATION","1416 28TH AVE SE","ALBANY","OR","97322"
"THE FIRST BAPTIST CHURCH OF ALBANY","DOMESTIC NONPROFIT CORPORATION","420 3RD AVE SE","ALBANY","OR","97321"
"THE FIRST BAPTIST CHURCH OF ALBANY","DOMESTIC NONPROFIT CORPORATION","420 3RD AVE SE","ALBANY","OR","97321"
"THE FIRST BAPTIST CHURCH OF ALBANY","DOMESTIC NONPROFIT CORPORATION","35447 KNOX BUTTE RD E","ALBANY","OR","97322"
"THE FIRST PRESBYTERIAN CHURCH OF ROSEBURG","DOMESTIC NONPROFIT CORPORATION","823 SE LANE","ROSEBURG","OR","97470"
"THE FIRST PRESBYTERIAN CHURCH OF ROSEBURG","DOMESTIC NONPROFIT CORPORATION","823 SE LANE","ROSEBURG","OR","97470"
"THE FIRST PRESBYTERIAN CHURCH OF ROSEBURG","DOMESTIC NONPROFIT CORPORATION","823 SE LANE","ROSEBURG","OR","97470"
"THE FIRST PRESBYTERIAN CHURCH OF ROSEBURG","DOMESTIC NONPROFIT CORPORATION","823 SE LANE","ROSEBURG","OR","97470"
"HOLBROOK LODGE NO. THIRTY ANCIENT FREE AND ACCEPTED MASONS","DOMESTIC NONPROFIT CORPORATION","2019 MAIN ST","FOREST GROVE","OR","97116"
"HOLBROOK LODGE NO. THIRTY ANCIENT FREE AND ACCEPTED MASONS","DOMESTIC NONPROFIT CORPORATION","2019 MAIN ST","FOREST GROVE","OR","97116"
"HOLBROOK LODGE NO. THIRTY ANCIENT FREE AND ACCEPTED MASONS","DOMESTIC NONPROFIT CORPORATION","2019 MAIN ST","FOREST GROVE","OR","97116"
"HOLBROOK LODGE NO. THIRTY ANCIENT FREE AND ACCEPTED MASONS","DOMESTIC NONPROFIT CORPORATION","2019 MAIN ST","FOREST GROVE","OR","97116"
"HOLBROOK LODGE NO. THIRTY ANCIENT FREE AND ACCEPTED MASONS","DOMESTIC NONPROFIT CORPORATION","2019 MAIN ST","FOREST GROVE","OR","97116"
"ASHLAND LODGE NO. 23 OF THE ORDER OF ANCIENT FREE AND ACCEPTED MASONS","DOMESTIC NONPROFIT CORPORATION","570 CLOVER LN","ASHLAND","OR","97520"
"ASHLAND LODGE NO. 23 OF THE ORDER OF ANCIENT FREE AND ACCEPTED MASONS","DOMESTIC NONPROFIT CORPORATION","167 FAITH CIRCLE","TALENT","OR","97540"
"ASHLAND LODGE NO. 23 OF THE ORDER OF ANCIENT FREE AND ACCEPTED MASONS","DOMESTIC NONPROFIT CORPORATION","570 CLOVER LANE","ASHLAND","OR","97520"
"ASHLAND LODGE NO. 23 OF THE ORDER OF ANCIENT FREE AND ACCEPTED MASONS","DOMESTIC NONPROFIT CORPORATION","2395 E MCANDREWS RD","MEDFORD","OR","97504"
"ASHLAND LODGE NO. 23 OF THE ORDER OF ANCIENT FREE AND ACCEPTED MASONS","DOMESTIC NONPROFIT CORPORATION","2395 E MCANDREWS RD","MEDFORD","OR","97504"
"GERMAN AMERICAN SOCIETY","DOMESTIC NONPROFIT CORPORATION","5626 NE ALAMEDA ST","PORTLAND","OR","97213"
"GERMAN AMERICAN SOCIETY","DOMESTIC NONPROFIT CORPORATION","5626 NE ALAMEDA ST","PORTLAND","OR","97213"
"GERMAN AMERICAN SOCIETY","DOMESTIC NONPROFIT CORPORATION","5626 NE ALAMEDA ST","PORTLAND","OR","97213"
"GERMAN AMERICAN SOCIETY","DOMESTIC NONPROFIT CORPORATION","5626 NE ALAMEDA ST","PORTLAND","OR","97213"
"GERMAN AMERICAN SOCIETY","DOMESTIC NONPROFIT CORPORATION","5626 NE ALAMEDA ST","PORTLAND","OR","97213"
"MONTEZUMA LODGE NO 50, OF THE INDEPENDENT ORDER OF ODD FELLOWS","DOMESTIC NONPROFIT CORPORATION","PO BOX 278","HILLSBORO","OR","97123"
"MONTEZUMA LODGE NO 50, OF THE INDEPENDENT ORDER OF ODD FELLOWS","DOMESTIC NONPROFIT CORPORATION","21080 SW ORNDUFF","HILLSBORO","OR","97123"
"MONTEZUMA LODGE NO 50, OF THE INDEPENDENT ORDER OF ODD FELLOWS","DOMESTIC NONPROFIT CORPORATION","267 E MAIN ST","HILLSBORO","OR","97123"
"MONTEZUMA LODGE NO 50, OF THE INDEPENDENT ORDER OF ODD FELLOWS","DOMESTIC NONPROFIT CORPORATION","37290 NW HAHN RD","BANKS","OR","97106"
"MONTEZUMA LODGE NO 50, OF THE INDEPENDENT ORDER OF ODD FELLOWS","DOMESTIC NONPROFIT CORPORATION","37290 NW HAHN RD","BANKS","OR","97106"
"THE TUALATIN PLAINS PRESBYTERIAN CHURCH","DOMESTIC NONPROFIT CORPORATION","KATHERINE KINNEAR","HILLSBORO","OR","97124"
"THE TUALATIN PLAINS PRESBYTERIAN CHURCH","DOMESTIC NONPROFIT CORPORATION","3034 NE 4TH PL","HILLSBORO","OR","97124"
"THE TUALATIN PLAINS PRESBYTERIAN CHURCH","DOMESTIC NONPROFIT CORPORATION","30685 NW SCOTCH CHURCH RD","HILLSBORO","OR","97124"
"THE TUALATIN PLAINS PRESBYTERIAN CHURCH","DOMESTIC NONPROFIT CORPORATION","30685 NW SCOTCH CHURCH RD","HILLSBORO","OR","97124"
"THE TUALATIN PLAINS PRESBYTERIAN CHURCH","DOMESTIC NONPROFIT CORPORATION","1185 SW BROOKWOOD AVE","HILLSBORO","OR","97123"
"HUBBARD CEMETERY ASSOCIATION","DOMESTIC NONPROFIT CORPORATION","PO BOX 266","HUBBARD","OR","97032"
"HUBBARD CEMETERY ASSOCIATION","DOMESTIC NONPROFIT CORPORATION","12880 SAUNDERS LANE NE","HUBBARD","OR","97032"
"HUBBARD CEMETERY ASSOCIATION","DOMESTIC NONPROFIT CORPORATION","12880 SAUNDERS LANE NE","HUBBARD","OR","97032"
"HUBBARD CEMETERY ASSOCIATION","DOMESTIC NONPROFIT CORPORATION","12880 SAUNDERS LANE NE","HUBBARD","OR","97032"
"HUBBARD CEMETERY ASSOCIATION","DOMESTIC NONPROFIT CORPORATION","12880 SAUNDERS LANE NE","HUBBARD","OR","97032"
"LEBANON LODGE NO. 47, I.O.O.F. OF THE INDEPENDENT ORDER OF ODD FELLOWS","DOMESTIC NONPROFIT CORPORATION","20 E ASH ST","LEBANON","OR","97355"
"LEBANON LODGE NO. 47, I.O.O.F. OF THE INDEPENDENT ORDER OF ODD FELLOWS","DOMESTIC NONPROFIT CORPORATION","1370 W 4TH ST","HALSEY","OR","97348"
"LEBANON LODGE NO. 47, I.O.O.F. OF THE INDEPENDENT ORDER OF ODD FELLOWS","DOMESTIC NONPROFIT CORPORATION","20 E ASH ST","LEBANON","OR","97355"
"LEBANON LODGE NO. 47, I.O.O.F. OF THE INDEPENDENT ORDER OF ODD FELLOWS","DOMESTIC NONPROFIT CORPORATION","790 W AIRWAY RD","LEBANON","OR","97355"
"LEBANON LODGE NO. 47, I.O.O.F. OF THE INDEPENDENT ORDER OF ODD FELLOWS","DOMESTIC NONPROFIT CORPORATION","790 W AIRWAY RD","LEBANON","OR","97355"
"BLANCO LODGE NO. 48, ANCIENT FREE AND ACCEPTED MASONS","DOMESTIC NONPROFIT CORPORATION","MIKE SULLIVAN","COOS BAY","OR","97420"
"BLANCO LODGE NO. 48, ANCIENT FREE AND ACCEPTED MASONS","DOMESTIC NONPROFIT CORPORATION","1785 OCEAN BLVD NW","COOS BAY","OR","97420"
"BLANCO LODGE NO. 48, ANCIENT FREE AND ACCEPTED MASONS","DOMESTIC NONPROFIT CORPORATION","2002 UNION AVE","NORTH BEND","OR","97459"
"BLANCO LODGE NO. 48, ANCIENT FREE AND ACCEPTED MASONS","DOMESTIC NONPROFIT CORPORATION","60 CYPRESS POINT","COOS BAY","OR","97420"
"BLANCO LODGE NO. 48, ANCIENT FREE AND ACCEPTED MASONS","DOMESTIC NONPROFIT CORPORATION","PO BOX 12","COOS BAY","OR","97420"
"DIERDORFF LODGE NO. 54 OF THE INDEPENDENT ORDER OF ODD FELLOWS","DOMESTIC NONPROFIT CORPORATION","PO BOX 454","SCIO","OR","97374"
"DIERDORFF LODGE NO. 54 OF THE INDEPENDENT ORDER OF ODD FELLOWS","DOMESTIC NONPROFIT CORPORATION","PO BOX 454","SCIO","OR","97374"
"DIERDORFF LODGE NO. 54 OF THE INDEPENDENT ORDER OF ODD FELLOWS","DOMESTIC NONPROFIT CORPORATION","2ND & MAIN ST","SCIO","OR","97374"
"DIERDORFF LODGE NO. 54 OF THE INDEPENDENT ORDER OF ODD FELLOWS","DOMESTIC NONPROFIT CORPORATION","38952 HWY 226","SCIO","OR","97374"
"DIERDORFF LODGE NO. 54 OF THE INDEPENDENT ORDER OF ODD FELLOWS","DOMESTIC NONPROFIT CORPORATION","PO BOX 454","SCIO","OR","97374"
"PEARL LODGE NO 66, A. F. & A. M.","DOMESTIC NONPROFIT CORPORATION","P O BOX 61","TURNER","OR","97392"
"PEARL LODGE NO 66, A. F. & A. M.","DOMESTIC NONPROFIT CORPORATION","5210 HARDING LN SE","TURNER","OR","97392"
"PEARL LODGE NO 66, A. F. & A. M.","DOMESTIC NONPROFIT CORPORATION","5140 CHICAGO ST","TURNER","OR","97392"
"PEARL LODGE NO 66, A. F. & A. M.","DOMESTIC NONPROFIT CORPORATION","7742 TREBBER ST NE","KEIZER","OR","97303"
"PEARL LODGE NO 66, A. F. & A. M.","DOMESTIC NONPROFIT CORPORATION","PO BOX 545","LYONS","OR","97358"
"CRESWELL PIONEER CEMETERY","DOMESTIC NONPROFIT CORPORATION","82738 HOWE LANE","CRESWELL","OR","97426"
"CRESWELL PIONEER CEMETERY","DOMESTIC NONPROFIT CORPORATION","32680 DEBERRY RD","CRESWELL","OR","97426"
"CRESWELL PIONEER CEMETERY","DOMESTIC NONPROFIT CORPORATION","82738 HOWE LANE","CRESWELL","OR","97426"
"CRESWELL PIONEER CEMETERY","DOMESTIC NONPROFIT CORPORATION","82590 BUTTE RD","CRESWELL","OR","97426"
"CRESWELL PIONEER CEMETERY","DOMESTIC NONPROFIT CORPORATION","82590 BUTTE RD","CRESWELL","OR","97426"
"STAYTON LODGE NO 64, OF THE INDEPENDENT ORDER OF ODD FELLOWS","DOMESTIC NONPROFIT CORPORATION","C/O CHRISTINE WANNER","STAYTON","OR","97383"
"STAYTON LODGE NO 64, OF THE INDEPENDENT ORDER OF ODD FELLOWS","DOMESTIC NONPROFIT CORPORATION","704 SW DALMATIAN ST","SUBLIMITY","OR","97385"
"STAYTON LODGE NO 64, OF THE INDEPENDENT ORDER OF ODD FELLOWS","DOMESTIC NONPROFIT CORPORATION","122 N 3RD","STAYTON","OR","97383"
"STAYTON LODGE NO 64, OF THE INDEPENDENT ORDER OF ODD FELLOWS","DOMESTIC NONPROFIT CORPORATION","1715 WILMINGTON PL","STAYTON","OR","97383"
"STAYTON LODGE NO 64, OF THE INDEPENDENT ORDER OF ODD FELLOWS","DOMESTIC NONPROFIT CORPORATION","1715 WILMINGTON PL","STAYTON","OR","97383"
"THE FIRST CHRISTIAN CHURCH AT PORTLAND, OREGON","DOMESTIC NONPROFIT CORPORATION","1314 SW PARK AVE","PORTLAND","OR","97201"
"THE FIRST CHRISTIAN CHURCH AT PORTLAND, OREGON","DOMESTIC NONPROFIT CORPORATION","1314 SW PARK AVE","PORTLAND","OR","97201"
"THE FIRST CHRISTIAN CHURCH AT PORTLAND, OREGON","DOMESTIC NONPROFIT CORPORATION","1314 SW PARK AVE","PORTLAND","OR","97201"
"THE FIRST CHRISTIAN CHURCH AT PORTLAND, OREGON","DOMESTIC NONPROFIT CORPORATION","601 SW 2ND AVE STE 2100","PORTLAND","OR","97204"
"THE FIRST CHRISTIAN CHURCH AT PORTLAND, OREGON","DOMESTIC NONPROFIT CORPORATION","1314 SW PARK AVE","PORTLAND","OR","97201"
"THE RIGHT WORTHY GRAND ENCAMPMENT OF THE INDEPENDENT ORDER OF ODD FELLOWS OF THE STATE OF OREGON","DOMESTIC NONPROFIT CORPORATION","1225 S 8TH ST","INDEPENDENCE","OR","97351"
"THE RIGHT WORTHY GRAND ENCAMPMENT OF THE INDEPENDENT ORDER OF ODD FELLOWS OF THE STATE OF OREGON","DOMESTIC NONPROFIT CORPORATION","1225 S 8TH ST","INDEPENDENCE","OR","97351"
"THE RIGHT WORTHY GRAND ENCAMPMENT OF THE INDEPENDENT ORDER OF ODD FELLOWS OF THE STATE OF OREGON","DOMESTIC NONPROFIT CORPORATION","1225 S 8TH ST","INDEPENDENCE","OR","97351"
"THE RIGHT WORTHY GRAND ENCAMPMENT OF THE INDEPENDENT ORDER OF ODD FELLOWS OF THE STATE OF OREGON","DOMESTIC NONPROFIT CORPORATION","1225 S 8TH ST","INDEPENDENCE","OR","97351"
"THE RIGHT WORTHY GRAND ENCAMPMENT OF THE INDEPENDENT ORDER OF ODD FELLOWS OF THE STATE OF OREGON","DOMESTIC NONPROFIT CORPORATION","1225 S 8TH ST","INDEPENDENCE","OR","97351"
"MERIDIAN UNITED CHURCH OF CHRIST","DOMESTIC NONPROFIT CORPORATION","6750 SW BOECKMAN RD","WILSONVILLE","OR","97070"
"MERIDIAN UNITED CHURCH OF CHRIST","DOMESTIC NONPROFIT CORPORATION","6750 SW BOECKMAN RD","WILSONVILLE","OR","97070"
"MERIDIAN UNITED CHURCH OF CHRIST","DOMESTIC NONPROFIT CORPORATION","6750 SW BOECKMAN ROAD","WILSONVILLE","OR","97070"
"MERIDIAN UNITED CHURCH OF CHRIST","DOMESTIC NONPROFIT CORPORATION","27100 SW WOOD","WILSONVILLE","OR","97070"
"MERIDIAN UNITED CHURCH OF CHRIST","DOMESTIC NONPROFIT CORPORATION","6750 SW BOECKMAN RD","WILSONVILLE","OR","97070"
"FERGUSON CHAPTER NUMBER FIVE ROYAL ARCH MASONS","DOMESTIC NONPROFIT CORPORATION","PO BOX 149","CORVALLIS","OR","97339"
"FERGUSON CHAPTER NUMBER FIVE ROYAL ARCH MASONS","DOMESTIC NONPROFIT CORPORATION","7885 NW RIDGEWOOD","CORVALLIS","OR","97330"
"FERGUSON CHAPTER NUMBER FIVE ROYAL ARCH MASONS","DOMESTIC NONPROFIT CORPORATION","306 SW MADISON AVE","CORVALLIS","OR","97339"
"FERGUSON CHAPTER NUMBER FIVE ROYAL ARCH MASONS","DOMESTIC NONPROFIT CORPORATION","306 SW MADISON AVE","CORVALLIS","OR","97339"
"FERGUSON CHAPTER NUMBER FIVE ROYAL ARCH MASONS","DOMESTIC NONPROFIT CORPORATION","PO BOX 149","CORVALLIS","OR","97339"
"THE OREGON HUMANE SOCIETY","DOMESTIC NONPROFIT CORPORATION","1067 NE COLUMBIA BLVD","PORTLAND","OR","97211"
"THE OREGON HUMANE SOCIETY","DOMESTIC NONPROFIT CORPORATION","1067 NE COLUMBIA BLVD","PORTLAND","OR","97211"
"THE OREGON HUMANE SOCIETY","DOMESTIC NONPROFIT CORPORATION","1067 NE COLUMBIA BLVD","PORTLAND","OR","97211"
"THE OREGON HUMANE SOCIETY","DOMESTIC NONPROFIT CORPORATION","111 SW FIFTH AVE STE 3675","PORTLAND","OR","97204"
"THE OREGON HUMANE SOCIETY","DOMESTIC NONPROFIT CORPORATION","1067 NE COLUMBIA BLVD","PORTLAND","OR","97211"
"THE SOCIETY OF THE SISTERS OF THE HOLY NAMES OF JESUS AND MARY","DOMESTIC NONPROFIT CORPORATION","PO BOX 398","MARYLHURST","OR","97036"
"THE SOCIETY OF THE SISTERS OF THE HOLY NAMES OF JESUS AND MARY","DOMESTIC NONPROFIT CORPORATION","17590 GLEASON DR","LAKE OSWEGO","OR","97034"
"THE SOCIETY OF THE SISTERS OF THE HOLY NAMES OF JESUS AND MARY","DOMESTIC NONPROFIT CORPORATION","17590 GLEASON DR","LAKE OSWEGO","OR","97034"
"THE SOCIETY OF THE SISTERS OF THE HOLY NAMES OF JESUS AND MARY","DOMESTIC NONPROFIT CORPORATION","17590 GLEASON DR","LAKE OSWEGO","OR","97034"
"THE SOCIETY OF THE SISTERS OF THE HOLY NAMES OF JESUS AND MARY","DOMESTIC NONPROFIT CORPORATION","17590 GLEASON DR","LAKE OSWEGO","OR","97034"
"MULTNOMAH CHAPTER NO 1 ROYAL ARCH MASONS","DOMESTIC NONPROFIT CORPORATION","6143 SHAW HWY SE","AUMSVILLE","OR","97325"
"MULTNOMAH CHAPTER NO 1 ROYAL ARCH MASONS","DOMESTIC NONPROFIT CORPORATION","6143 SHAW HWY SE","AUMSVILLE","OR","97325"
"MULTNOMAH CHAPTER NO 1 ROYAL ARCH MASONS","DOMESTIC NONPROFIT CORPORATION","4090 COMMERCIAL ST SE","SALEM","OR","97302"
"MULTNOMAH CHAPTER NO 1 ROYAL ARCH MASONS","DOMESTIC NONPROFIT CORPORATION","6143 SHAW HWY SE","AUMSVILLE","OR","97325"
"MULTNOMAH CHAPTER NO 1 ROYAL ARCH MASONS","DOMESTIC NONPROFIT CORPORATION","1388 CLEAR LAKE RD","KEIZER","OR","97303"
"YAMHILL CHRISTIAN CHURCH","DOMESTIC NONPROFIT CORPORATION","PO BOX 37","YAMHILL","OR","97148"
"YAMHILL CHRISTIAN CHURCH","DOMESTIC NONPROFIT CORPORATION","140 S OLIVE ST","YAMHILL","OR","97148"
"YAMHILL CHRISTIAN CHURCH","DOMESTIC NONPROFIT CORPORATION","265 W MAIN ST","YAMHILL","OR","97148"
"YAMHILL CHRISTIAN CHURCH","DOMESTIC NONPROFIT CORPORATION","185 W CAMELLIA ST","YAMHILL","OR","97148"
"YAMHILL CHRISTIAN CHURCH","DOMESTIC NONPROFIT CORPORATION","19301 NW ADEOCK RD","YAMHILL","OR","97148"
"BETHEL CONGREGATIONAL UNITED CHURCH OF CHRIST","DOMESTIC NONPROFIT CORPORATION","5150 SW WATSON AVE","BEAVERTON","OR","97005"
"BETHEL CONGREGATIONAL UNITED CHURCH OF CHRIST","DOMESTIC NONPROFIT CORPORATION","5150 SW WATSON AVE","BEAVERTON","OR","97005"
"BETHEL CONGREGATIONAL UNITED CHURCH OF CHRIST","DOMESTIC NONPROFIT CORPORATION","5150 SW WATSON AVE","BEAVERTON","OR","97005"
"BETHEL CONGREGATIONAL UNITED CHURCH OF CHRIST","DOMESTIC NONPROFIT CORPORATION","5150 SW WATSON AVE","BEAVERTON","OR","97005"
"BETHEL CONGREGATIONAL UNITED CHURCH OF CHRIST","DOMESTIC NONPROFIT CORPORATION","5150 SW WATSON AVE","BEAVERTON","OR","97005"
"RECTOR, WARDENS, AND VESTRY OF THE PARISH OF SAINT DAVID OF WALES","DOMESTIC NONPROFIT CORPORATION","2800 SE HARRISON","PORTLAND","OR","97214"
"RECTOR, WARDENS, AND VESTRY OF THE PARISH OF SAINT DAVID OF WALES","DOMESTIC NONPROFIT CORPORATION","2800 SE HARRISON","PORTLAND","OR","97214"
"RECTOR, WARDENS, AND VESTRY OF THE PARISH OF SAINT DAVID OF WALES","DOMESTIC NONPROFIT CORPORATION","2800 SE HARRISON","PORTLAND","OR","97214"
"RECTOR, WARDENS, AND VESTRY OF THE PARISH OF SAINT DAVID OF WALES","DOMESTIC NONPROFIT CORPORATION","2800 SE HARRISON","PORTLAND","OR","97214"
"RECTOR, WARDENS, AND VESTRY OF THE PARISH OF SAINT DAVID OF WALES","DOMESTIC NONPROFIT CORPORATION","2800 SE HARRISON","PORTLAND","OR","97214"
"FIRST IMMANUEL EVANGELICAL LUTHERAN CHURCH","DOMESTIC NONPROFIT CORPORATION","2058 NW JOHNSON ST","PORTLAND","OR","97209"
"FIRST IMMANUEL EVANGELICAL LUTHERAN CHURCH","DOMESTIC NONPROFIT CORPORATION","1816 NW IRVING ST","PORTLAND","OR","97209"
"FIRST IMMANUEL EVANGELICAL LUTHERAN CHURCH","DOMESTIC NONPROFIT CORPORATION","1816 NW IRVING ST","PORTLAND","OR","97209"
"FIRST IMMANUEL EVANGELICAL LUTHERAN CHURCH","DOMESTIC NONPROFIT CORPORATION","15270 SW SPARROW LOOP","BEAVERTON","OR","97007"
"UNITED CHURCH OF CHRIST (CONGREGATIONAL) OF FOREST GROVE","DOMESTIC NONPROFIT CORPORATION","PO BOX 265","FOREST GROVE","OR","97116"
"UNITED CHURCH OF CHRIST (CONGREGATIONAL) OF FOREST GROVE","DOMESTIC NONPROFIT CORPORATION","2728 BALLAD LANE","FOREST GROVE","OR","97116"
"UNITED CHURCH OF CHRIST (CONGREGATIONAL) OF FOREST GROVE","DOMESTIC NONPROFIT CORPORATION","2032 COLLEGE WAY","FOREST GROVE","OR","97116"
"UNITED CHURCH OF CHRIST (CONGREGATIONAL) OF FOREST GROVE","DOMESTIC NONPROFIT CORPORATION","3327 HILLSIDE WAY","FOREST GROVE","OR","97116"
"UNITED CHURCH OF CHRIST (CONGREGATIONAL) OF FOREST GROVE","DOMESTIC NONPROFIT CORPORATION","2024 30TH AVENUE","FOREST GROVE","OR","97116"
"WILLOW LODGE, NO. 66 OF THE INDEPENDENT ORDER OF ODD FELLOWS","DOMESTIC NONPROFIT CORPORATION","PO BOX 542","HEPPNER","OR","97836"
"WILLOW LODGE, NO. 66 OF THE INDEPENDENT ORDER OF ODD FELLOWS","DOMESTIC NONPROFIT CORPORATION","PO BOX 542","HEPPNER","OR","97836"
"WILLOW LODGE, NO. 66 OF THE INDEPENDENT ORDER OF ODD FELLOWS","DOMESTIC NONPROFIT CORPORATION","239 N MAIN STREET","HEPPNER","OR","97836"
"WILLOW LODGE, NO. 66 OF THE INDEPENDENT ORDER OF ODD FELLOWS","DOMESTIC NONPROFIT CORPORATION","180 ROCK ST","HEPPNER","OR","97836"
"WILLOW LODGE, NO. 66 OF THE INDEPENDENT ORDER OF ODD FELLOWS","DOMESTIC NONPROFIT CORPORATION","PO BOX 991","HEPPNER","OR","97836"
"THE FIRST BAPTIST CHURCH OF MCMINNVILLE, OREGON","DOMESTIC NONPROFIT CORPORATION","ATTN: TREASURER","MCMINNVILLE","OR","97128"
"THE FIRST BAPTIST CHURCH OF MCMINNVILLE, OREGON","DOMESTIC NONPROFIT CORPORATION","578 NW HILLCREST ST","MCMINNVILLE","OR","97128"
"THE FIRST BAPTIST CHURCH OF MCMINNVILLE, OREGON","DOMESTIC NONPROFIT CORPORATION","125 SE COWLS","MCMINNVILLE","OR","97128"
"THE FIRST BAPTIST CHURCH OF MCMINNVILLE, OREGON","DOMESTIC NONPROFIT CORPORATION","956 NE SAMSON ST","MCMINNVILLE","OR","97128"
"THE FIRST BAPTIST CHURCH OF MCMINNVILLE, OREGON","DOMESTIC NONPROFIT CORPORATION","1240 SE BROOKS ST","MCMINNVILLE","OR","97128"
"THE RIVER VIEW CEMETERY ASSOCIATION OF PORTLAND","DOMESTIC NONPROFIT CORPORATION","5034 SW HILLTOP LN","PORTLAND","OR","97221"
"THE RIVER VIEW CEMETERY ASSOCIATION OF PORTLAND","DOMESTIC NONPROFIT CORPORATION","8421 S MACADAM AVE","PORTLAND","OR","97219"
"THE RIVER VIEW CEMETERY ASSOCIATION OF PORTLAND","DOMESTIC NONPROFIT CORPORATION","8421 S MACADAM AVE","PORTLAND","OR","97219"
"THE RIVER VIEW CEMETERY ASSOCIATION OF PORTLAND","DOMESTIC NONPROFIT CORPORATION","121 SW MORRISON #1020","PORTLAND","OR","97204"
"GRACE EPISCOPAL CHURCH","DOMESTIC NONPROFIT CORPORATION","PO BOX 145","ASTORIA","OR","97103"
"GRACE EPISCOPAL CHURCH","DOMESTIC NONPROFIT CORPORATION","1545 FRANKLIN AVE","ASTORIA","OR","97103"
"GRACE EPISCOPAL CHURCH","DOMESTIC NONPROFIT CORPORATION","1545 FRANKLIN AVE","ASTORIA","OR","97103"
"GRACE EPISCOPAL CHURCH","DOMESTIC NONPROFIT CORPORATION","800 EXCHANGE ST STE 330","ASTORIA","OR","97103"
"GRACE EPISCOPAL CHURCH","DOMESTIC NONPROFIT CORPORATION","1545 FRANKLIN AVE","ASTORIA","OR","97103"
"MOUNT UNION CEMETERY ASSOCIATION","DOMESTIC NONPROFIT CORPORATION","PO BOX 1025","PHILOMATH","OR","97370"
"MOUNT UNION CEMETERY ASSOCIATION","DOMESTIC NONPROFIT CORPORATION","336 MOUNT UNION AVE","PHILOMATH","OR","97370"
"MOUNT UNION CEMETERY ASSOCIATION","DOMESTIC NONPROFIT CORPORATION","2987 MOUNT UNION AVE","CORVALLIS","OR","97333"
"MOUNT UNION CEMETERY ASSOCIATION","DOMESTIC NONPROFIT CORPORATION","2987 MOUNT UNION AVE","CORVALLIS","OR","97333"
"MOUNT UNION CEMETERY ASSOCIATION","DOMESTIC NONPROFIT CORPORATION","3575 SW 49TH ST","CORVALLIS","OR","97333"
"THE GRAND LODGE OF OREGON KNIGHTS OF PYTHIAS","DOMESTIC NONPROFIT CORPORATION","PO BOX 126","GASTON","OR","97119"
"THE GRAND LODGE OF OREGON KNIGHTS OF PYTHIAS","DOMESTIC NONPROFIT CORPORATION","46243 SW PATTON VALLEY RD","GASTON","OR","97119"
"THE GRAND LODGE OF OREGON KNIGHTS OF PYTHIAS","DOMESTIC NONPROFIT CORPORATION","301 CHURCH ST","GASTON","OR","97119"
"THE GRAND LODGE OF OREGON KNIGHTS OF PYTHIAS","DOMESTIC NONPROFIT CORPORATION","301 CHURCH ST","GASTON","OR","97119"
"THE GRAND LODGE OF OREGON KNIGHTS OF PYTHIAS","DOMESTIC NONPROFIT CORPORATION","23572 VANGIE LANE","DUNDEE","OR","97115"
"FIRST CHRISTIAN CHURCH OF FOREST GROVE","DOMESTIC NONPROFIT CORPORATION","2231 19TH AVE","FOREST GROVE","OR","97116"
"FIRST CHRISTIAN CHURCH OF FOREST GROVE","DOMESTIC NONPROFIT CORPORATION","2231 19TH AVE","FOREST GROVE","OR","97116"
"FIRST CHRISTIAN CHURCH OF FOREST GROVE","DOMESTIC NONPROFIT CORPORATION","2231 19TH AVE","FOREST GROVE","OR","97116"
"FIRST CHRISTIAN CHURCH OF FOREST GROVE","DOMESTIC NONPROFIT CORPORATION","2231 19TH AVE","FOREST GROVE","OR","97116"
"FIRST CHRISTIAN CHURCH OF FOREST GROVE","DOMESTIC NONPROFIT CORPORATION","2231 19TH AVE","FOREST GROVE","OR","97116"
"FIRST BAPTIST CHURCH OF COOS BAY","DOMESTIC NONPROFIT CORPORATION","PO BOX 38","COOS BAY","OR","97420"
"FIRST BAPTIST CHURCH OF COOS BAY","DOMESTIC NONPROFIT CORPORATION","1140 S 10TH ST","COOS BAY","OR","97420"
"FIRST BAPTIST CHURCH OF COOS BAY","DOMESTIC NONPROFIT CORPORATION","1140 S 10TH ST","COOS BAY","OR","97420"
"FIRST BAPTIST CHURCH OF COOS BAY","DOMESTIC NONPROFIT CORPORATION","1140 S 10TH","COOS BAY","OR","97420"
"FIRST BAPTIST CHURCH OF COOS BAY","DOMESTIC NONPROFIT CORPORATION","1140 S 10TH ST","COOS BAY","OR","97420"
"SPRINGFIELD LODGE, NO. 70 OF THE INDEPENDENT ORDER OF ODD FELLOWS","DOMESTIC NONPROFIT CORPORATION","342 MAIN STREET","SPRINGFIELD","OR","97477"
"SPRINGFIELD LODGE, NO. 70 OF THE INDEPENDENT ORDER OF ODD FELLOWS","DOMESTIC NONPROFIT CORPORATION","36990 HILLS CR RD","SPRINGFIELD","OR","97478"
"SPRINGFIELD LODGE, NO. 70 OF THE INDEPENDENT ORDER OF ODD FELLOWS","DOMESTIC NONPROFIT CORPORATION","342 MAIN ST","SPRINGFIELD","OR","97477"
"SPRINGFIELD LODGE, NO. 70 OF THE INDEPENDENT ORDER OF ODD FELLOWS","DOMESTIC NONPROFIT CORPORATION","342 MAIN STREET","SPRINGFIELD","OR","97477"
"SPRINGFIELD LODGE, NO. 70 OF THE INDEPENDENT ORDER OF ODD FELLOWS","DOMESTIC NONPROFIT CORPORATION","36990 HILLS CR RD","SPRINGFIELD","OR","97478"
"UNION CEMETERY ASSOCIATION OF FOREST GROVE","DOMESTIC NONPROFIT CORPORATION","PO BOX 334","FOREST GROVE","OR","97116"
"UNION CEMETERY ASSOCIATION OF FOREST GROVE","DOMESTIC NONPROFIT CORPORATION","2016 MAIN ST","FOREST GROVE","OR","97116"
"UNION CEMETERY ASSOCIATION OF FOREST GROVE","DOMESTIC NONPROFIT CORPORATION","499 WATERCREST DR","FOREST GROVE","OR","97116"
"UNION CEMETERY ASSOCIATION OF FOREST GROVE","DOMESTIC NONPROFIT CORPORATION","2016 MAIN ST","FOREST GROVE","OR","97116"
"UNION CEMETERY ASSOCIATION OF FOREST GROVE","DOMESTIC NONPROFIT CORPORATION","70 N SOLMAR DR","SEQUIM","WA","98382"
"RECTOR WARDENS AND VESTRY OF THE PARISH OF ST. PAULS","DOMESTIC NONPROFIT CORPORATION","1444 LIBERTY ST SE","SALEM","OR","97302"
"RECTOR WARDENS AND VESTRY OF THE PARISH OF ST. PAULS","DOMESTIC NONPROFIT CORPORATION","1444 LIBERTY ST SE","SALEM","OR","97302"
"RECTOR WARDENS AND VESTRY OF THE PARISH OF ST. PAULS","DOMESTIC NONPROFIT CORPORATION","1444 LIBERTY ST SE","SALEM","OR","97302"
"RECTOR WARDENS AND VESTRY OF THE PARISH OF ST. PAULS","DOMESTIC NONPROFIT CORPORATION","1444 LIBERTY ST SE","SALEM","OR","97302"
"RECTOR WARDENS AND VESTRY OF THE PARISH OF ST. PAULS","DOMESTIC NONPROFIT CORPORATION","1444 LIBERTY ST SE","SALEM","OR","97302"
"TEMPLE BAPTIST CHURCH OF PORTLAND, OREGON","DOMESTIC NONPROFIT CORPORATION","1319 NE 7TH AVE","PORTLAND","OR","97232"
"TEMPLE BAPTIST CHURCH OF PORTLAND, OREGON","DOMESTIC NONPROFIT CORPORATION","2232 NE 30TH  AVE","PORTLAND","OR","97212"
"TEMPLE BAPTIST CHURCH OF PORTLAND, OREGON","DOMESTIC NONPROFIT CORPORATION","1319 NE 7TH AVE","PORTLAND","OR","97232"
"TEMPLE BAPTIST CHURCH OF PORTLAND, OREGON","DOMESTIC NONPROFIT CORPORATION","1319 NE 7TH AVE","PORTLAND","OR","97232"
"TEMPLE BAPTIST CHURCH OF PORTLAND, OREGON","DOMESTIC NONPROFIT CORPORATION","2232 NE 30TH AVE","PORTLAND","OR","97212"
"THE APOSTOLIC LUTHERAN CHURCH","DOMESTIC NONPROFIT CORPORATION","92732 FERN HILL RD","ASTORIA","OR","97103"
"THE APOSTOLIC LUTHERAN CHURCH","DOMESTIC NONPROFIT CORPORATION","92732 FERNHILL RD","ASTORIA","OR","97103"
"THE APOSTOLIC LUTHERAN CHURCH","DOMESTIC NONPROFIT CORPORATION","10TH & IRVING AVE","ASTORIA","OR","97103"
"THE APOSTOLIC LUTHERAN CHURCH","DOMESTIC NONPROFIT CORPORATION","92732 FERN HILL RD","ASTORIA","OR","97103"
"THE APOSTOLIC LUTHERAN CHURCH","DOMESTIC NONPROFIT CORPORATION","92732 FERNHILL RD","ASTORIA","OR","97103"
"GRACE CHURCH PORTLAND","DOMESTIC NONPROFIT CORPORATION","1431 SW 12TH AVE","PORTLAND","OR","97201"
"GRACE CHURCH PORTLAND","DOMESTIC NONPROFIT CORPORATION","1431 SW 12TH AVE","PORTLAND","OR","97201"
"GRACE CHURCH PORTLAND","DOMESTIC NONPROFIT CORPORATION","1431 SW 12TH AVE","PORTLAND","OR","97201"
"GRACE CHURCH PORTLAND","DOMESTIC NONPROFIT CORPORATION","1431 SW 12TH","PORTLAND","OR","97201"
"GRACE CHURCH PORTLAND","DOMESTIC NONPROFIT CORPORATION","3829 NE 76TH AVE","PORTLAND","OR","97213"
"PEACE FIRST LUTHERAN CHURCH","DOMESTIC NONPROFIT CORPORATION","725 33RD STREET","ASTORIA","OR","97103"
"PEACE FIRST LUTHERAN CHURCH","DOMESTIC NONPROFIT CORPORATION","725 33RD STREET","ASTORIA","OR","97103"
"PEACE FIRST LUTHERAN CHURCH","DOMESTIC NONPROFIT CORPORATION","725 33RD STREET","ASTORIA","OR","97103"
"PEACE FIRST LUTHERAN CHURCH","DOMESTIC NONPROFIT CORPORATION","725 33RD STREET","ASTORIA","OR","97103"
"PEACE FIRST LUTHERAN CHURCH","DOMESTIC NONPROFIT CORPORATION","725 33RD STREET","ASTORIA","OR","97103"
"FIRST BAPTIST CHURCH OF LA GRANDE, UNION COUNTY, OREGON","DOMESTIC NONPROFIT CORPORATION","1110 SPRING ST","LA GRANDE","OR","97850"
"FIRST BAPTIST CHURCH OF LA GRANDE, UNION COUNTY, OREGON","DOMESTIC NONPROFIT CORPORATION","1110 SPRING AVE","LA GRANDE","OR","97850"
"FIRST BAPTIST CHURCH OF LA GRANDE, UNION COUNTY, OREGON","DOMESTIC NONPROFIT CORPORATION","1702 6TH ST","LA GRANDE","OR","97850"
"FIRST BAPTIST CHURCH OF LA GRANDE, UNION COUNTY, OREGON","DOMESTIC NONPROFIT CORPORATION","1110 SPRING AVE","LA GRANDE","OR","97850"
"FIRST BAPTIST CHURCH OF LA GRANDE, UNION COUNTY, OREGON","DOMESTIC NONPROFIT CORPORATION","1110 SPRING AVE","LA GRANDE","OR","97850"
"THE PINE GROVE CEMETERY ASSOCIATION","DOMESTIC NONPROFIT CORPORATION","30383 PEORIA RD","SHEDD","OR","97377"
"THE PINE GROVE CEMETERY ASSOCIATION","DOMESTIC NONPROFIT CORPORATION","27252 IRISH BEND LOOP","HALSEY","OR","97348"
"THE PINE GROVE CEMETERY ASSOCIATION","DOMESTIC NONPROFIT CORPORATION","29200 PINE GROVE DR","HALSEY","OR","97348"
"THE PINE GROVE CEMETERY ASSOCIATION","DOMESTIC NONPROFIT CORPORATION","30383 PEORIA RD","SHEDD","OR","97377"
"THE PINE GROVE CEMETERY ASSOCIATION","DOMESTIC NONPROFIT CORPORATION","30383 PEORIA RD","SHEDD","OR","97377"
"THE UNITED METHODIST CHURCH OF ARLINGTON, OREGON","DOMESTIC NONPROFIT CORPORATION","PO BOX 417","ARLINGTON","OR","97812"
"THE UNITED METHODIST CHURCH OF ARLINGTON, OREGON","DOMESTIC NONPROFIT CORPORATION","PO BOX 275","ARLINGTON","OR","97812"
"THE UNITED METHODIST CHURCH OF ARLINGTON, OREGON","DOMESTIC NONPROFIT CORPORATION","150 E HEMLOCK ST","ARLINGTON","OR","97812"
"THE UNITED METHODIST CHURCH OF ARLINGTON, OREGON","DOMESTIC NONPROFIT CORPORATION","30 SHANE DRIVE","ARLINGTON","OR","97812"
"THE UNITED METHODIST CHURCH OF ARLINGTON, OREGON","DOMESTIC NONPROFIT CORPORATION","18048 MIDDLE ROCK CREEK LANE","ARLINGTON","OR","97812"
"ST. HELENS LODGE A. F. & A. M.","DOMESTIC NONPROFIT CORPORATION","315 NORTH 18TH ST","SAINT HELENS","OR","97051"
"ST. HELENS LODGE A. F. & A. M.","DOMESTIC NONPROFIT CORPORATION","PO BOX 595","SCAPPOOSE","OR","97056"
"ST. HELENS LODGE A. F. & A. M.","DOMESTIC NONPROFIT CORPORATION","315 N 18TH","SAINT HELENS","OR","97051"
"ST. HELENS LODGE A. F. & A. M.","DOMESTIC NONPROFIT CORPORATION","315 NORTH 18TH ST","SAINT HELENS","OR","97051"
"ST. HELENS LODGE A. F. & A. M.","DOMESTIC NONPROFIT CORPORATION","56569 CASCADE VIEW DR","WARREN","OR","97053"
"THE BOYS AND GIRLS AID SOCIETY OF OREGON","DOMESTIC NONPROFIT CORPORATION","9320 SW BARBUR BLVD SUITE 200","PORTLAND","OR","97219"
"THE BOYS AND GIRLS AID SOCIETY OF OREGON","DOMESTIC NONPROFIT CORPORATION","9320 SW BARBUR BLVD STE 200","PORTLAND","OR","97219"
"THE BOYS AND GIRLS AID SOCIETY OF OREGON","DOMESTIC NONPROFIT CORPORATION","9320 SW BARBUR BLVD SUITE 200","PORTLAND","OR","97219"
"THE BOYS AND GIRLS AID SOCIETY OF OREGON","DOMESTIC NONPROFIT CORPORATION","9320 SW BARBUR BLVD STE 200","PORTLAND","OR","97219"
"THE BOYS AND GIRLS AID SOCIETY OF OREGON","DOMESTIC NONPROFIT CORPORATION","9320 SW BARBUR BLVD STE 200","PORTLAND","OR","97219"
"THE GREENWOOD CEMETERY OF LANE COUNTY, OREGON","DOMESTIC NONPROFIT CORPORATION","42916 LEABURG DR","LEABURG","OR","97489"
"THE GREENWOOD CEMETERY OF LANE COUNTY, OREGON","DOMESTIC NONPROFIT CORPORATION","306 74TH ST","SPRINGFIELD","OR","97478"
"THE GREENWOOD CEMETERY OF LANE COUNTY, OREGON","DOMESTIC NONPROFIT CORPORATION","42916 LEABURG DR","LEABURG","OR","97489"
"THE GREENWOOD CEMETERY OF LANE COUNTY, OREGON","DOMESTIC NONPROFIT CORPORATION","42916 LEABURG DR","LEABURG","OR","97489"
"THE GREENWOOD CEMETERY OF LANE COUNTY, OREGON","DOMESTIC NONPROFIT CORPORATION","42916 LEABURG DR","LEABURG","OR","97489"
"COTTAGE GROVE LODGE NO. 51, ANCIENT FREE AND ACCEPTED MASONS","DOMESTIC NONPROFIT CORPORATION","130 E C STREET","HALSEY","OR","97348"
"COTTAGE GROVE LODGE NO. 51, ANCIENT FREE AND ACCEPTED MASONS","DOMESTIC NONPROFIT CORPORATION","33322 ROW RIVER RD","COTTAGE GROVE","OR","97424"
"COTTAGE GROVE LODGE NO. 51, ANCIENT FREE AND ACCEPTED MASONS","DOMESTIC NONPROFIT CORPORATION","33322 ROW RIVER RD","COTTAGE GROVE","OR","97424"
"COTTAGE GROVE LODGE NO. 51, ANCIENT FREE AND ACCEPTED MASONS","DOMESTIC NONPROFIT CORPORATION","78080 MOSBY CRK RD","COTTAGE GROVE","OR","97424"
"GOLDEN RULE LODGE NO. 78 OF THE INDEPENDENT ORDER OF ODD FELLOWS","DOMESTIC NONPROFIT CORPORATION","JAMES SIMPSON 101 SE H ST","GRANTS PASS","OR","97526"
"GOLDEN RULE LODGE NO. 78 OF THE INDEPENDENT ORDER OF ODD FELLOWS","DOMESTIC NONPROFIT CORPORATION","101 SE H ST","GRANTS PASS","OR","97526"
"GOLDEN RULE LODGE NO. 78 OF THE INDEPENDENT ORDER OF ODD FELLOWS","DOMESTIC NONPROFIT CORPORATION","101 SE H ST","GRANTS PASS","OR","97526"
"GOLDEN RULE LODGE NO. 78 OF THE INDEPENDENT ORDER OF ODD FELLOWS","DOMESTIC NONPROFIT CORPORATION","101 SE H ST","GRANTS PASS","OR","97526"
"GOLDEN RULE LODGE NO. 78 OF THE INDEPENDENT ORDER OF ODD FELLOWS","DOMESTIC NONPROFIT CORPORATION","101 SE H ST","GRANTS PASS","OR","97526"
"HEPPNER METHODIST CHURCH","DOMESTIC NONPROFIT CORPORATION","64598 SANDHOLLOW RD","HEPPNER","OR","97836"
"HEPPNER METHODIST CHURCH","DOMESTIC NONPROFIT CORPORATION","64598 SANDHOLLOW RD","HEPPNER","OR","97836"
"HEPPNER METHODIST CHURCH","DOMESTIC NONPROFIT CORPORATION","HEPPNER UNITED METHODIST CHURCH","HEPPNER","OR","97836"
"HEPPNER METHODIST CHURCH","DOMESTIC NONPROFIT CORPORATION","64598 SANDHOLLOW RD","HEPPNER","OR","97836"
"HEPPNER METHODIST CHURCH","DOMESTIC NONPROFIT CORPORATION","64598 SANDHOLLOW RD","HEPPNER","OR","97836"
"FIRST PRESBYTERIAN CHURCH OF LA GRANDE UNION CO. OR.","DOMESTIC NONPROFIT CORPORATION","1308 WASHINGTON","LA GRANDE","OR","97850"
"FIRST PRESBYTERIAN CHURCH OF LA GRANDE UNION CO. OR.","DOMESTIC NONPROFIT CORPORATION","1602 SIXTH ST","LA GRANDE","OR","97850"
"FIRST PRESBYTERIAN CHURCH OF LA GRANDE UNION CO. OR.","DOMESTIC NONPROFIT CORPORATION","1308 WASHINGTON","LA GRANDE","OR","97850"
"FIRST PRESBYTERIAN CHURCH OF LA GRANDE UNION CO. OR.","DOMESTIC NONPROFIT CORPORATION","1602 6TH ST","LA GRANDE","OR","97850"
"FIRST PRESBYTERIAN CHURCH OF LA GRANDE UNION CO. OR.","DOMESTIC NONPROFIT CORPORATION","3300 N UNION","LA GRANDE","OR","97850"
"THE DORA CEMETERY ASSOCIATION","DOMESTIC NONPROFIT CORPORATION","ATTN: ERNIE KEWSON","KEIZER","OR","97303"
"THE DORA CEMETERY ASSOCIATION","DOMESTIC NONPROFIT CORPORATION","340 CROSS CREEK DR","ROSEBURG","OR","97471"
"THE DORA CEMETERY ASSOCIATION","DOMESTIC NONPROFIT CORPORATION","1811 STONE HEDGE DR NE","KEIZER","OR","97303"
"THE DORA CEMETERY ASSOCIATION","DOMESTIC NONPROFIT CORPORATION","1811 STONE HEDGE DR NE","KEIZER","OR","97303"
"THE DORA CEMETERY ASSOCIATION","DOMESTIC NONPROFIT CORPORATION","1811 STONE HEDGE DR NE","KEIZER","OR","97303"
"PRINEVILLE LODGE NO. 76 OF ANCIENT FREE AND ACCEPTED MASONS","DOMESTIC NONPROFIT CORPORATION","PO BOX 306","PRINEVILLE","OR","97754"
"PRINEVILLE LODGE NO. 76 OF ANCIENT FREE AND ACCEPTED MASONS","DOMESTIC NONPROFIT CORPORATION","15653 SE PAUITE","PRINEVILLE","OR","97754"
"PRINEVILLE LODGE NO. 76 OF ANCIENT FREE AND ACCEPTED MASONS","DOMESTIC NONPROFIT CORPORATION","EAST 3RD ST","PRINEVILLE","OR","97754"
"PRINEVILLE LODGE NO. 76 OF ANCIENT FREE AND ACCEPTED MASONS","DOMESTIC NONPROFIT CORPORATION","10311 SE JUNIPER CANYON ROAD","PRINEVILLE","OR","97754"
"PRINEVILLE LODGE NO. 76 OF ANCIENT FREE AND ACCEPTED MASONS","DOMESTIC NONPROFIT CORPORATION","PO BOX 306","PRINEVILLE","OR","97754"
"GRAND RONDE VALLEY LODGE NO. 56 A.F. & A.M.","DOMESTIC NONPROFIT CORPORATION","PO BOX 587","UNION","OR","97883"
"GRAND RONDE VALLEY LODGE NO. 56 A.F. & A.M.","DOMESTIC NONPROFIT CORPORATION","PO BOX 587","UNION","OR","97883"
"GRAND RONDE VALLEY LODGE NO. 56 A.F. & A.M.","DOMESTIC NONPROFIT CORPORATION","125 W CENTER ST","UNION","OR","97883"
"GRAND RONDE VALLEY LODGE NO. 56 A.F. & A.M.","DOMESTIC NONPROFIT CORPORATION","125 W CENTER ST","UNION","OR","97883"
"GRAND RONDE VALLEY LODGE NO. 56 A.F. & A.M.","DOMESTIC NONPROFIT CORPORATION","PO BOX 857","UNION","OR","97883"
"THE FIRST BAPTIST CHURCH OF MEDFORD OREGON","DOMESTIC NONPROFIT CORPORATION","PO BOX 1667","MEDFORD","OR","97501"
"THE FIRST BAPTIST CHURCH OF MEDFORD OREGON","DOMESTIC NONPROFIT CORPORATION","3508 S VILLAGE DR","MEDFORD","OR","97504"
"THE FIRST BAPTIST CHURCH OF MEDFORD OREGON","DOMESTIC NONPROFIT CORPORATION","649 CRATER LAKE AVE","MEDFORD","OR","97504"
"THE FIRST BAPTIST CHURCH OF MEDFORD OREGON","DOMESTIC NONPROFIT CORPORATION","3521 E BARNETT RD","MEDFORD","OR","97504"
"THE FIRST BAPTIST CHURCH OF MEDFORD OREGON","DOMESTIC NONPROFIT CORPORATION","1701 PANORAMA DR","MEDFORD","OR","97504"
"FIRST PRESBYTERIAN CHURCH OF ASHLAND","DOMESTIC NONPROFIT CORPORATION","PO BOX 626","ASHLAND","OR","97520"
"FIRST PRESBYTERIAN CHURCH OF ASHLAND","DOMESTIC NONPROFIT CORPORATION","725 INDIANA ST","ASHLAND","OR","97520"
"FIRST PRESBYTERIAN CHURCH OF ASHLAND","DOMESTIC NONPROFIT CORPORATION","1615 CLARK","ASHLAND","OR","97520"
"FIRST PRESBYTERIAN CHURCH OF ASHLAND","DOMESTIC NONPROFIT CORPORATION","1615 CLARK AVE","ASHLAND","OR","97520"
"FIRST PRESBYTERIAN CHURCH OF ASHLAND","DOMESTIC NONPROFIT CORPORATION","2105 E MAIN ST","ASHLAND","OR","97520"
"ASTORIA LODGE NO. 2, UNITED FINNISH KALEVA BROTHERS AND SISTERS","DOMESTIC NONPROFIT CORPORATION","855 GLASGOW","ASTORIA","OR","97103"
"ASTORIA LODGE NO. 2, UNITED FINNISH KALEVA BROTHERS AND SISTERS","DOMESTIC NONPROFIT CORPORATION","PO BOX 146","ASTORIA","OR","97103"
"ASTORIA LODGE NO. 2, UNITED FINNISH KALEVA BROTHERS AND SISTERS","DOMESTIC NONPROFIT CORPORATION","244 W MARINE DR","ASTORIA","OR","97103"
"ASTORIA LODGE NO. 2, UNITED FINNISH KALEVA BROTHERS AND SISTERS","DOMESTIC NONPROFIT CORPORATION","244 W MARINE DR SUOMI HALL","ASTORIA","OR","97103"
"ASTORIA LODGE NO. 2, UNITED FINNISH KALEVA BROTHERS AND SISTERS","DOMESTIC NONPROFIT CORPORATION","855 GLASGOW","ASTORIA","OR","97103"
"MORELAND PRESBYTERIAN CHURCH OF PORTLAND, OREGON","DOMESTIC NONPROFIT CORPORATION","1814 SE BYBEE BLVD","PORTLAND","OR","97202"
"MORELAND PRESBYTERIAN CHURCH OF PORTLAND, OREGON","DOMESTIC NONPROFIT CORPORATION","3426 SE CRYSTAL SPRINGS BLVD","PORTLAND","OR","97202"
"MORELAND PRESBYTERIAN CHURCH OF PORTLAND, OREGON","DOMESTIC NONPROFIT CORPORATION","1814 SE BYBEE BLVD","PORTLAND","OR","97202"
"MORELAND PRESBYTERIAN CHURCH OF PORTLAND, OREGON","DOMESTIC NONPROFIT CORPORATION","4715 SE 32ND AVE","PORTLAND","OR","97202"
"MORELAND PRESBYTERIAN CHURCH OF PORTLAND, OREGON","DOMESTIC NONPROFIT CORPORATION","1814 SE BYBEE BLVD","PORTLAND","OR","97202"
"HARNEY LODGE NO 77 OF THE INDEPENDENT ORDER OF ODD FELLOWS","DOMESTIC NONPROFIT CORPORATION","PO BOX 514","BURNS","OR","97720"
"HARNEY LODGE NO 77 OF THE INDEPENDENT ORDER OF ODD FELLOWS","DOMESTIC NONPROFIT CORPORATION","11 FAIRVIEW HTS LP","BURNS","OR","97720"
"HARNEY LODGE NO 77 OF THE INDEPENDENT ORDER OF ODD FELLOWS","DOMESTIC NONPROFIT CORPORATION","1210 TAYLOR STREET","BURNS","OR","97720"
"HARNEY LODGE NO 77 OF THE INDEPENDENT ORDER OF ODD FELLOWS","DOMESTIC NONPROFIT CORPORATION","11 FARIVIEW HTS LP","BURNS","OR","97720"
"HARNEY LODGE NO 77 OF THE INDEPENDENT ORDER OF ODD FELLOWS","DOMESTIC NONPROFIT CORPORATION","11 FAIRVIEW HTS LP","BURNS","OR","97720"
"ST. MARY'S PARISH, EPISCOPAL, OF EUGENE, OREGON","DOMESTIC NONPROFIT CORPORATION","1300 PEARL ST","EUGENE","OR","97401"
"ST. MARY'S PARISH, EPISCOPAL, OF EUGENE, OREGON","DOMESTIC NONPROFIT CORPORATION","1300 PEARL ST","EUGENE","OR","97401"
"ST. MARY'S PARISH, EPISCOPAL, OF EUGENE, OREGON","DOMESTIC NONPROFIT CORPORATION","1300 PEARL ST","EUGENE","OR","97401"
"ST. MARY'S PARISH, EPISCOPAL, OF EUGENE, OREGON","DOMESTIC NONPROFIT CORPORATION","1300 PEARL ST","EUGENE","OR","97401"
"ST. MARY'S PARISH, EPISCOPAL, OF EUGENE, OREGON","DOMESTIC NONPROFIT CORPORATION","1300 PEARL ST","EUGENE","OR","97401"
"FIRST PRESBYTERIAN CHURCH, NEWPORT, OREG","DOMESTIC NONPROFIT CORPORATION","227 NE 12TH STREET","NEWPORT","OR","97365"
"FIRST PRESBYTERIAN CHURCH, NEWPORT, OREG","DOMESTIC NONPROFIT CORPORATION","227 NE 12TH ST","NEWPORT","OR","97365"
"FIRST PRESBYTERIAN CHURCH, NEWPORT, OREG","DOMESTIC NONPROFIT CORPORATION","227 NE 12TH ST","NEWPORT","OR","97365"
"FIRST PRESBYTERIAN CHURCH, NEWPORT, OREG","DOMESTIC NONPROFIT CORPORATION","227 NE 12TH STREET","NEWPORT","OR","97365"
"FIRST PRESBYTERIAN CHURCH, NEWPORT, OREG","DOMESTIC NONPROFIT CORPORATION","227 NE 12TH STREET","NEWPORT","OR","97365"
"FIRST BAPTIST CHURCH OF EUGENE, OREGON","DOMESTIC NONPROFIT CORPORATION","3550 FOX MEADOW RD","EUGENE","OR","97408"
"FIRST BAPTIST CHURCH OF EUGENE, OREGON","DOMESTIC NONPROFIT CORPORATION","3555 PRESTON ST","EUGENE","OR","97401"
"FIRST BAPTIST CHURCH OF EUGENE, OREGON","DOMESTIC NONPROFIT CORPORATION","3550 FOX MEADOW RD","EUGENE","OR","97408"
"FIRST BAPTIST CHURCH OF EUGENE, OREGON","DOMESTIC NONPROFIT CORPORATION","3550 FOX MEADOW RD","EUGENE","OR","97408"
"FIRST BAPTIST CHURCH OF EUGENE, OREGON","DOMESTIC NONPROFIT CORPORATION","3366 ROSEMONT WAY","EUGENE","OR","97401"
"WOMEN'S FOUNDATION OF OREGON","DOMESTIC NONPROFIT CORPORATION","221 NW 2ND AVE","PORTLAND","OR","97209"
"WOMEN'S FOUNDATION OF OREGON","DOMESTIC NONPROFIT CORPORATION","221 NW 2ND AVE","PORTLAND","OR","97209"
"WOMEN'S FOUNDATION OF OREGON","DOMESTIC NONPROFIT CORPORATION","221 NW 2ND AVE","PORTLAND","OR","97209"
"WOMEN'S FOUNDATION OF OREGON","DOMESTIC NONPROFIT CORPORATION","221 NW 2ND AVE","PORTLAND","OR","97209"
"WOMEN'S FOUNDATION OF OREGON","DOMESTIC NONPROFIT CORPORATION","221 NW 2ND AVE","PORTLAND","OR","97209"
"THE CHRISTIAN CHURCH OF HILLSBORO OREGON","DOMESTIC NONPROFIT CORPORATION","540 NE EDISION ST","HILLSBORO","OR","97124"
"THE CHRISTIAN CHURCH OF HILLSBORO OREGON","DOMESTIC NONPROFIT CORPORATION","540 NE EDISON ST","HILLSBORO","OR","97124"
"THE CHRISTIAN CHURCH OF HILLSBORO OREGON","DOMESTIC NONPROFIT CORPORATION","540 NE EDISON","HILLSBORO","OR","97124"
"THE CHRISTIAN CHURCH OF HILLSBORO OREGON","DOMESTIC NONPROFIT CORPORATION","540 NE EDISON","HILLSBORO","OR","97124"
"THE CHRISTIAN CHURCH OF HILLSBORO OREGON","DOMESTIC NONPROFIT CORPORATION","540 NE EDISON ST","HILLSBORO","OR","97124"
"FIRST BAPTIST CHURCH OF HILLSBORO OREGON","DOMESTIC NONPROFIT CORPORATION","PO BOX 186","HILLSBORO","OR","97123"
"FIRST BAPTIST CHURCH OF HILLSBORO OREGON","DOMESTIC NONPROFIT CORPORATION","1094 SE 35TH AVE","HILLSBORO","OR","97123"
"FIRST BAPTIST CHURCH OF HILLSBORO OREGON","DOMESTIC NONPROFIT CORPORATION","177 NE LINCOLN ST","HILLSBORO","OR","97124"
"FIRST BAPTIST CHURCH OF HILLSBORO OREGON","DOMESTIC NONPROFIT CORPORATION","177 NE LINCOLN ST","HILLSBORO","OR","97124"
"FIRST BAPTIST CHURCH OF HILLSBORO OREGON","DOMESTIC NONPROFIT CORPORATION","177 NE LINCOLN ST","HILLSBORO","OR","97124"
"PIONEER UNITED METHODIST CHURCH OF PORTLAND","DOMESTIC NONPROFIT CORPORATION","1505 SW 18TH AVE","PORTLAND","OR","97201"
"PIONEER UNITED METHODIST CHURCH OF PORTLAND","DOMESTIC NONPROFIT CORPORATION","6241 SW QUIETCREEK DR","CORVALLIS","OR","97333"
"PIONEER UNITED METHODIST CHURCH OF PORTLAND","DOMESTIC NONPROFIT CORPORATION","7528 N CHARLESTON AVE","PORTLAND","OR","97203"
"PIONEER UNITED METHODIST CHURCH OF PORTLAND","DOMESTIC NONPROFIT CORPORATION","1505 SW 18TH AVE","PORTLAND","OR","97201"
"PIONEER UNITED METHODIST CHURCH OF PORTLAND","DOMESTIC NONPROFIT CORPORATION","1535 SE TACOMA ST","PORTLAND","OR","97202"
"FIRST CONGREGATIONAL CHURCH, INC., HILLSBORO, OREGON","DOMESTIC NONPROFIT CORPORATION","494 E MAIN","HILLSBORO","OR","97123"
"FIRST CONGREGATIONAL CHURCH, INC., HILLSBORO, OREGON","DOMESTIC NONPROFIT CORPORATION","494 E MAIN","HILLSBORO","OR","97123"
"FIRST CONGREGATIONAL CHURCH, INC., HILLSBORO, OREGON","DOMESTIC NONPROFIT CORPORATION","494 E MAIN","HILLSBORO","OR","97123"
"FIRST CONGREGATIONAL CHURCH, INC., HILLSBORO, OREGON","DOMESTIC NONPROFIT CORPORATION","494 E MAIN","HILLSBORO","OR","97123"
"FIRST CONGREGATIONAL CHURCH, INC., HILLSBORO, OREGON","DOMESTIC NONPROFIT CORPORATION","494 E MAIN ST","HILLSBORO","OR","97123"
"THE RECTOR WARDENS AND VESTRYMEN OF THE CHURCH OF THE REDEEMER","DOMESTIC NONPROFIT CORPORATION","EPISCOPAL CHURCH OF THE REDEEMER","PENDLETON","OR","97801"
"THE RECTOR WARDENS AND VESTRYMEN OF THE CHURCH OF THE REDEEMER","DOMESTIC NONPROFIT CORPORATION","PO BOX 1061","PENDLETON","OR","97801"
"THE RECTOR WARDENS AND VESTRYMEN OF THE CHURCH OF THE REDEEMER","DOMESTIC NONPROFIT CORPORATION","241 SE 2ND ST","PENDLETON","OR","97801"
"THE RECTOR WARDENS AND VESTRYMEN OF THE CHURCH OF THE REDEEMER","DOMESTIC NONPROFIT CORPORATION","773 NW 23RD ST","PENDLETON","OR","97801"
"THE RECTOR WARDENS AND VESTRYMEN OF THE CHURCH OF THE REDEEMER","DOMESTIC NONPROFIT CORPORATION","801 NW 8TH ST","PENDLETON","OR","97801"
"FIRST BAPTIST CHURCH OF INDEPENDENCE, POLK COUNTY, STATE OF OREGON","DOMESTIC NONPROFIT CORPORATION","PO BOX 416","INDEPENDENCE","OR","97351"
"FIRST BAPTIST CHURCH OF INDEPENDENCE, POLK COUNTY, STATE OF OREGON","DOMESTIC NONPROFIT CORPORATION","PO BOX 416","INDEPENDENCE","OR","97351"
"FIRST BAPTIST CHURCH OF INDEPENDENCE, POLK COUNTY, STATE OF OREGON","DOMESTIC NONPROFIT CORPORATION","1505 MONMOUTH ST","INDEPENDENCE","OR","97351"
"FIRST BAPTIST CHURCH OF INDEPENDENCE, POLK COUNTY, STATE OF OREGON","DOMESTIC NONPROFIT CORPORATION","4450 INDEPENDENCE HWY","INDEPENDENCE","OR","97351"
"FIRST BAPTIST CHURCH OF INDEPENDENCE, POLK COUNTY, STATE OF OREGON","DOMESTIC NONPROFIT CORPORATION","4450 INDEPENDENCE HIGHWAY","INDEPENDENCE","OR","97351"
"LAKE OSWEGO UNITED CHURCH OF CHRIST (CONGREGATIONAL)","DOMESTIC NONPROFIT CORPORATION","1111 SW COUNTRY CLUB ROAD","LAKE OSWEGO","OR","97034"
"LAKE OSWEGO UNITED CHURCH OF CHRIST (CONGREGATIONAL)","DOMESTIC NONPROFIT CORPORATION","1111 COUNTRY CLUB RD","LAKE OSWEGO","OR","97034"
"LAKE OSWEGO UNITED CHURCH OF CHRIST (CONGREGATIONAL)","DOMESTIC NONPROFIT CORPORATION","1111 COUNTRY CLUB ROAD","LAKE OSWEGO","OR","97034"
"LAKE OSWEGO UNITED CHURCH OF CHRIST (CONGREGATIONAL)","DOMESTIC NONPROFIT CORPORATION","1111 SW COUNTRY CLUB RD","LAKE OSWEGO","OR","97034"
"LAKE OSWEGO UNITED CHURCH OF CHRIST (CONGREGATIONAL)","DOMESTIC NONPROFIT CORPORATION","1111 COUNTRY CLUB RD","LAKE OSWEGO","OR","97034"
"THE FIRST CONGREGATIONAL CHURCH OF CORVALLIS OREGON","DOMESTIC NONPROFIT CORPORATION","4515 SW WEST HILLS RD","CORVALLIS","OR","97333"
"THE FIRST CONGREGATIONAL CHURCH OF CORVALLIS OREGON","DOMESTIC NONPROFIT CORPORATION","4515 SW WEST HILLS RD","CORVALLIS","OR","97333"
"THE FIRST CONGREGATIONAL CHURCH OF CORVALLIS OREGON","DOMESTIC NONPROFIT CORPORATION","4515 SW WEST HILLS RD","CORVALLIS","OR","97333"
"THE FIRST CONGREGATIONAL CHURCH OF CORVALLIS OREGON","DOMESTIC NONPROFIT CORPORATION","2985 NW PRINCESS ST","CORVALLIS","OR","97330"
"THE FIRST CONGREGATIONAL CHURCH OF CORVALLIS OREGON","DOMESTIC NONPROFIT CORPORATION","4515 SW WEST HILLS RD","CORVALLIS","OR","97333"
"THE FIRST CHRISTIAN CHURCH OF MEDFORD JACKSON CO., OR.","DOMESTIC NONPROFIT CORPORATION","1900 CRATER LAKE AVE","MEDFORD","OR","97504"
"THE FIRST CHRISTIAN CHURCH OF MEDFORD JACKSON CO., OR.","DOMESTIC NONPROFIT CORPORATION","1900 CRATER LAKE AVE","MEDFORD","OR","97504"
"THE FIRST CHRISTIAN CHURCH OF MEDFORD JACKSON CO., OR.","DOMESTIC NONPROFIT CORPORATION","1900 CRATER LAKE AVE","MEDFORD","OR","97504"
"THE FIRST CHRISTIAN CHURCH OF MEDFORD JACKSON CO., OR.","DOMESTIC NONPROFIT CORPORATION","1900 CRATER LAKE AVE","MEDFORD","OR","97504"
"FIRST UNITED METHODIST CHURCH OF LEBANON, LINN COUNTY OREGON","DOMESTIC NONPROFIT CORPORATION","1890 S 2ND ST","LEBANON","OR","97355"
"FIRST UNITED METHODIST CHURCH OF LEBANON, LINN COUNTY OREGON","DOMESTIC NONPROFIT CORPORATION","37466 SODAVILLE CUTOFF","LEBANON","OR","97355"
"FIRST UNITED METHODIST CHURCH OF LEBANON, LINN COUNTY OREGON","DOMESTIC NONPROFIT CORPORATION","UNITED METHODIST CHURCH","LEBANON","OR","97355"
"FIRST UNITED METHODIST CHURCH OF LEBANON, LINN COUNTY OREGON","DOMESTIC NONPROFIT CORPORATION","1890 S 2ND","LEBANON","OR","97355"
"FIRST UNITED METHODIST CHURCH OF LEBANON, LINN COUNTY OREGON","DOMESTIC NONPROFIT CORPORATION","3294 FOXGLOVE ST","LEBANON","OR","97355"
"MONROE CEMETERY ASSOCIATION","DOMESTIC NONPROFIT CORPORATION","PO BOX 534","MONROE","OR","97456"
"MONROE CEMETERY ASSOCIATION","DOMESTIC NONPROFIT CORPORATION","PO BOX 144","MONROE","OR","97456"
"MONROE CEMETERY ASSOCIATION","DOMESTIC NONPROFIT CORPORATION","MONROE CEMETERY","MONROE","OR",
"MONROE CEMETERY ASSOCIATION","DOMESTIC NONPROFIT CORPORATION","625 DEPOT ST","MONROE","OR","97456"
"MONROE CEMETERY ASSOCIATION","DOMESTIC NONPROFIT CORPORATION","PO BOX 208","MONROE","OR","97456"
"THE LA GRANDE UNITED METHODIST CHURCH, INC.","DOMESTIC NONPROFIT CORPORATION","1612 FOURTH ST","LAGRANDE","OR","97850"
"THE LA GRANDE UNITED METHODIST CHURCH, INC.","DOMESTIC NONPROFIT CORPORATION","1612 FOURTH ST","LA GRANDE","OR","97850"
"THE LA GRANDE UNITED METHODIST CHURCH, INC.","DOMESTIC NONPROFIT CORPORATION","1612 FOURTH ST","LA GRANDE","OR","97850"
"THE LA GRANDE UNITED METHODIST CHURCH, INC.","DOMESTIC NONPROFIT CORPORATION","1612 FOURTH ST","LAGRANDE","OR","97850"
"BLUE MOUNTAIN LODGE NO 34 A.F.& A.M","DOMESTIC NONPROFIT CORPORATION","PO BOX 598","BAKER CITY","OR","97814"
"BLUE MOUNTAIN LODGE NO 34 A.F.& A.M","DOMESTIC NONPROFIT CORPORATION","2193 MAIN ST","BAKER CITY","OR","97814"
"BLUE MOUNTAIN LODGE NO 34 A.F.& A.M","DOMESTIC NONPROFIT CORPORATION","2193 MAIN ST","BAKER CITY","OR","97814"
"BLUE MOUNTAIN LODGE NO 34 A.F.& A.M","DOMESTIC NONPROFIT CORPORATION","2193 MAIN ST","BAKER CITY","OR","97814"
"BLUE MOUNTAIN LODGE NO 34 A.F.& A.M","DOMESTIC NONPROFIT CORPORATION","2193 MAIN ST","BAKER CITY","OR","97814"
"TILLAMOOK UNITED METHODIST CHURCH","DOMESTIC NONPROFIT CORPORATION","3808 12TH ST","TILLAMOOK","OR","97141"
"TILLAMOOK UNITED METHODIST CHURCH","DOMESTIC NONPROFIT CORPORATION","3808 12TH","TILLAMOOK","OR","97141"
"TILLAMOOK UNITED METHODIST CHURCH","DOMESTIC NONPROFIT CORPORATION","3808 12TH ST","TILLAMOOK","OR","97141"
"TILLAMOOK UNITED METHODIST CHURCH","DOMESTIC NONPROFIT CORPORATION","3808 12TH ST","TILLAMOOK","OR","97141"
"FIRST CHURCH OF CHRIST OF OAKLAND DOUGLAS COUNTY OREGON","DOMESTIC NONPROFIT CORPORATION","PO BOX 120","OAKLAND","OR","97462"
"FIRST CHURCH OF CHRIST OF OAKLAND DOUGLAS COUNTY OREGON","DOMESTIC NONPROFIT CORPORATION","2270 EAGLE LOOP","SUTHERLIN","OR","97479"
"FIRST CHURCH OF CHRIST OF OAKLAND DOUGLAS COUNTY OREGON","DOMESTIC NONPROFIT CORPORATION","1400 NE OAK","OAKLAND","OR","97462"
"FIRST CHURCH OF CHRIST OF OAKLAND DOUGLAS COUNTY OREGON","DOMESTIC NONPROFIT CORPORATION","1400 NE OAK","OAKLAND","OR","97462"
"FIRST CHURCH OF CHRIST OF OAKLAND DOUGLAS COUNTY OREGON","DOMESTIC NONPROFIT CORPORATION","799 BAIMBRIDGE ROAD","OAKLAND","OR","97462"
"ZION LUTHERAN CHURCH OF PORTLAND","DOMESTIC NONPROFIT CORPORATION","1015 SW 18TH AVE","PORTLAND","OR","97205"
"ZION LUTHERAN CHURCH OF PORTLAND","DOMESTIC NONPROFIT CORPORATION","14831 SE RIVER FOREST DR","MILWAUKIE","OR","97267"
"ZION LUTHERAN CHURCH OF PORTLAND","DOMESTIC NONPROFIT CORPORATION","1015 SW 18TH AVE","PORTLAND","OR","97205"
"ZION LUTHERAN CHURCH OF PORTLAND","DOMESTIC NONPROFIT CORPORATION","15270 COYOTE COURT","SHERWOOD","OR","97140"
"ZION LUTHERAN CHURCH OF PORTLAND","DOMESTIC NONPROFIT CORPORATION","252 NW SEBLAR CT","PORTLAND","OR","97210"
"AMERICAN BAPTIST CHURCHES OF OREGON","DOMESTIC NONPROFIT CORPORATION","PO BOX 30","MARYLHURST","OR","97036"
"AMERICAN BAPTIST CHURCHES OF OREGON","DOMESTIC NONPROFIT CORPORATION","245 S BANCROFT ST","PORTLAND","OR","97239"
"AMERICAN BAPTIST CHURCHES OF OREGON","DOMESTIC NONPROFIT CORPORATION","245 S BANCROFT ST","PORTLAND","OR","97201"
"AMERICAN BAPTIST CHURCHES OF OREGON","DOMESTIC NONPROFIT CORPORATION","245 S BANCROFT ST","PORTLAND","OR","97239"
"AMERICAN BAPTIST CHURCHES OF OREGON","DOMESTIC NONPROFIT CORPORATION","245 S BANCROFT ST","PORTLAND","OR","97239"
"FIRST UNITED METHODIST CHURCH OF ASTORIA","DOMESTIC NONPROFIT CORPORATION","1076 FRANKLIN AVE","ASTORIA","OR","97103"
"FIRST UNITED METHODIST CHURCH OF ASTORIA","DOMESTIC NONPROFIT CORPORATION","1414 16TH ST","ASTORIA","OR","97103"
"FIRST UNITED METHODIST CHURCH OF ASTORIA","DOMESTIC NONPROFIT CORPORATION","1076 FRANKLIN AVE","ASTORIA","OR","97103"
"FIRST UNITED METHODIST CHURCH OF ASTORIA","DOMESTIC NONPROFIT CORPORATION","9839 BARENDSE RD","ASTORIA","OR","97103"
"FIRST UNITED METHODIST CHURCH OF ASTORIA","DOMESTIC NONPROFIT CORPORATION","45 SKYLINE AVE","ASTORIA","OR","97103"
"FIRST BAPTIST CHURCH OF ENTERPRISE, OREGON","DOMESTIC NONPROFIT CORPORATION","PO BOX 446","ENTERPRISE","OR","97828"
"FIRST BAPTIST CHURCH OF ENTERPRISE, OREGON","DOMESTIC NONPROFIT CORPORATION","P O BOX 390","JOSEPH","OR","97846"
"FIRST BAPTIST CHURCH OF ENTERPRISE, OREGON","DOMESTIC NONPROFIT CORPORATION","1420 WEST NORTH ST","ENTERPRISE","OR","97828"
"FIRST BAPTIST CHURCH OF ENTERPRISE, OREGON","DOMESTIC NONPROFIT CORPORATION","1420 WEST NORTH ST","ENTERPRISE","OR","97828"
"FIRST BAPTIST CHURCH OF ENTERPRISE, OREGON","DOMESTIC NONPROFIT CORPORATION","506 RESIDENCE ST","ENTERPRISE","OR","97828"
"SPRINGWATER PRESBYTERIAN CHURCH","DOMESTIC NONPROFIT CORPORATION","PO BOX 1017","ESTACADA","OR","97023"
"SPRINGWATER PRESBYTERIAN CHURCH","DOMESTIC NONPROFIT CORPORATION","21750 S RIDGE RD","OREGON CITY","OR","97045"
"SPRINGWATER PRESBYTERIAN CHURCH","DOMESTIC NONPROFIT CORPORATION","24553 S SPRINGWATER RD","ESTACADA","OR","97023"
"SPRINGWATER PRESBYTERIAN CHURCH","DOMESTIC NONPROFIT CORPORATION","25180 S SPRINGWATER RD","ESTACADA","OR","97023"
"SPRINGWATER PRESBYTERIAN CHURCH","DOMESTIC NONPROFIT CORPORATION","26955 S SKINNER RD","ESTACADA","OR","97023"
"THE UNITED METHODIST CHURCH OF COTTAGE GROVE","DOMESTIC NONPROFIT CORPORATION","334 WASHINGTON","COTTAGE GROVE","OR","97424"
"THE UNITED METHODIST CHURCH OF COTTAGE GROVE","DOMESTIC NONPROFIT CORPORATION","1580 FAIRVIEWE PLACE","COTTAGE GROVE","OR","97424"
"THE UNITED METHODIST CHURCH OF COTTAGE GROVE","DOMESTIC NONPROFIT CORPORATION","334 WASHINGTON AVE","COTTAGE GROVE","OR","97424"
"THE UNITED METHODIST CHURCH OF COTTAGE GROVE","DOMESTIC NONPROFIT CORPORATION","78593 HALDERMAN RD","COTTAGE GROVE","OR","97424"
"THE UNITED METHODIST CHURCH OF COTTAGE GROVE","DOMESTIC NONPROFIT CORPORATION","78593 HALDERMAN RD","COTTAGE GROVE","OR","97424"
"SPIRIT OF THE VALLEY UNITED METHODIST CHURCH","DOMESTIC NONPROFIT CORPORATION","PO BOX 36","HALSEY","OR","97348"
"SPIRIT OF THE VALLEY UNITED METHODIST CHURCH","DOMESTIC NONPROFIT CORPORATION","29932 PECKENPAUGH RD","SHEDD","OR","97377"
"SPIRIT OF THE VALLEY UNITED METHODIST CHURCH","DOMESTIC NONPROFIT CORPORATION","611 3RD","HALSEY","OR","97348"
"SPIRIT OF THE VALLEY UNITED METHODIST CHURCH","DOMESTIC NONPROFIT CORPORATION","29932 PECKENPAUGH RD","SHEDD","OR","97377"
"SPIRIT OF THE VALLEY UNITED METHODIST CHURCH","DOMESTIC NONPROFIT CORPORATION","29932 PECKENPAUGH RD","SHEDD","OR","97377"
"PIONEER PRESBYTERIAN CHURCH ON CLATSOP PLAINS","DOMESTIC NONPROFIT CORPORATION","33324 PATRIOT WAY","WARRENTON","OR","97146"
"PIONEER PRESBYTERIAN CHURCH ON CLATSOP PLAINS","DOMESTIC NONPROFIT CORPORATION","92229 WALLUSKI LP","ASTORIA","OR","97103"
"PIONEER PRESBYTERIAN CHURCH ON CLATSOP PLAINS","DOMESTIC NONPROFIT CORPORATION","33324 PATRIOT WAY","WARRENTON","OR","97146"
"PIONEER PRESBYTERIAN CHURCH ON CLATSOP PLAINS","DOMESTIC NONPROFIT CORPORATION","92229 WALLUSKI LOOP","ASTORIA","OR","97103"
"PIONEER PRESBYTERIAN CHURCH ON CLATSOP PLAINS","DOMESTIC NONPROFIT CORPORATION","92229 WALLUSKI LP","ASTORIA","OR","97103"
"SHERIDAN LODGE NO. 87 I.O.O.F.","DOMESTIC NONPROFIT CORPORATION","PO BOX 393","SHERIDAN","OR","97378"
"SHERIDAN LODGE NO. 87 I.O.O.F.","DOMESTIC NONPROFIT CORPORATION","338 SW RAIL ROAD","SHERIDAN","OR","97378"
"SHERIDAN LODGE NO. 87 I.O.O.F.","DOMESTIC NONPROFIT CORPORATION","143 SW MONROE ST","SHERIDAN","OR","97378"
"SHERIDAN LODGE NO. 87 I.O.O.F.","DOMESTIC NONPROFIT CORPORATION","143 SW MONROE","SHERIDAN","OR","97378"
"SHERIDAN LODGE NO. 87 I.O.O.F.","DOMESTIC NONPROFIT CORPORATION","25415 SW WEST VALLEY HWY","SHERIDAN","OR","97378"
"THE FIRST PRESBYTERIAN CHURCH OF WOODBURN","DOMESTIC NONPROFIT CORPORATION","PO BOX 333","WOODBURN","OR","97071"
"THE FIRST PRESBYTERIAN CHURCH OF WOODBURN","DOMESTIC NONPROFIT CORPORATION","1365 GREENVIEW DR","WOODBURN","OR","97071"
"THE FIRST PRESBYTERIAN CHURCH OF WOODBURN","DOMESTIC NONPROFIT CORPORATION","950 N BOONES FERRY RD","WOODBURN","OR","97071"
"THE FIRST PRESBYTERIAN CHURCH OF WOODBURN","DOMESTIC NONPROFIT CORPORATION","500 MARSHALL ST","WOODBURN","OR","97071"
"THE FIRST PRESBYTERIAN CHURCH OF WOODBURN","DOMESTIC NONPROFIT CORPORATION","2104 LILAC WAY","WOODBURN","OR","97071"
"SPRING VALLEY PRESBYTERIAN CHURCH","DOMESTIC NONPROFIT CORPORATION","C/O HANK CHERRY","SALEM","OR","97304"
"SPRING VALLEY PRESBYTERIAN CHURCH","DOMESTIC NONPROFIT CORPORATION","4403 WALLACE RD NW","SALEM","OR","97304"
"SPRING VALLEY PRESBYTERIAN CHURCH","DOMESTIC NONPROFIT CORPORATION","4885 BRUSH COLLEGE RD NW","SALEM","OR","97304"
"SPRING VALLEY PRESBYTERIAN CHURCH","DOMESTIC NONPROFIT CORPORATION","2362 37TH PL NW","SALEM","OR","97304"
"SPRING VALLEY PRESBYTERIAN CHURCH","DOMESTIC NONPROFIT CORPORATION","2362 37TH PL","SALEM","OR","97304"
"PARISH OF ST. MARK","DOMESTIC NONPROFIT CORPORATION","THE PARISH OF SAINT MARK","PORTLAND","OR","97209"
"PARISH OF ST. MARK","DOMESTIC NONPROFIT CORPORATION","1025 NW 21ST AVE","PORTLAND","OR","97209"
"PARISH OF ST. MARK","DOMESTIC NONPROFIT CORPORATION","1025 NW 21ST AVE","PORTLAND","OR","97209"
"PARISH OF ST. MARK","DOMESTIC NONPROFIT CORPORATION","1025 NW 21ST AVE","PORTLAND","OR","97209"
"PARISH OF ST. MARK","DOMESTIC NONPROFIT CORPORATION","1025 NW 21ST AVE","PORTLAND","OR","97209"
"THE FIRST BAPTIST CHURCH OF HAINES","DOMESTIC NONPROFIT CORPORATION","PO BOX 153","HAINES","OR","97833"
"THE FIRST BAPTIST CHURCH OF HAINES","DOMESTIC NONPROFIT CORPORATION","13541 LITTLE MUDDY CK LN","HAINES","OR","97833"
"THE FIRST BAPTIST CHURCH OF HAINES","DOMESTIC NONPROFIT CORPORATION","714 COLE ST","HAINES","OR","97833"
"THE FIRST BAPTIST CHURCH OF HAINES","DOMESTIC NONPROFIT CORPORATION","13541 LITTLE MUDDY CK LN","HAINES","OR","97833"
"THE FIRST BAPTIST CHURCH OF HAINES","DOMESTIC NONPROFIT CORPORATION","13541 LITTLE MUDDY CK LN","HAINES","OR","97833"
"WARNER GRANGE NO 117 OF THE PATRONS OF HUSBANDRY","DOMESTIC NONPROFIT CORPORATION","WARNER GRANGE #117","OREGON CITY","OR","97045"
"WARNER GRANGE NO 117 OF THE PATRONS OF HUSBANDRY","DOMESTIC NONPROFIT CORPORATION","2708 SUNSET AVE","WEST LINN","OR","97068"
"WARNER GRANGE NO 117 OF THE PATRONS OF HUSBANDRY","DOMESTIC NONPROFIT CORPORATION","WARNER GRANGE # 117","CANBY","OR","97013"
"WARNER GRANGE NO 117 OF THE PATRONS OF HUSBANDRY","DOMESTIC NONPROFIT CORPORATION","12368 S NEW ERA RD","OREGON CITY","OR","97045"
"WARNER GRANGE NO 117 OF THE PATRONS OF HUSBANDRY","DOMESTIC NONPROFIT CORPORATION","12368 S NEW ERA RD","OREGON CITY","OR","97045"
"ST. PAULS PROTESTANT EPISCOPAL CHURCH OF DALLES CITY, OREGON","DOMESTIC NONPROFIT CORPORATION","1805 MINNESOTA ST","THE DALLES","OR","97058"
"ST. PAULS PROTESTANT EPISCOPAL CHURCH OF DALLES CITY, OREGON","DOMESTIC NONPROFIT CORPORATION","1805 MINNESOTA ST","THE DALLES","OR","97058"
"ST. PAULS PROTESTANT EPISCOPAL CHURCH OF DALLES CITY, OREGON","DOMESTIC NONPROFIT CORPORATION","1805 MINNESOTA ST","THE DALLES","OR","97058"
"ST. PAULS PROTESTANT EPISCOPAL CHURCH OF DALLES CITY, OREGON","DOMESTIC NONPROFIT CORPORATION","1805 MINNESOTA ST","THE DALLES","OR","97058"
"ST. PAULS PROTESTANT EPISCOPAL CHURCH OF DALLES CITY, OREGON","DOMESTIC NONPROFIT CORPORATION","1805 MINNESOTA","THE DALLES","OR","97058"
"UNITED METHODIST CHURCH OF FOREST GROVE","DOMESTIC NONPROFIT CORPORATION","1726 CEDAR ST","FOREST GROVE","OR","97116"
"UNITED METHODIST CHURCH OF FOREST GROVE","DOMESTIC NONPROFIT CORPORATION","1726 CEDAR ST","FOREST GROVE","OR","97116"
"UNITED METHODIST CHURCH OF FOREST GROVE","DOMESTIC NONPROFIT CORPORATION","1726 CEDAR ST","FOREST GROVE","OR","97116"
"UNITED METHODIST CHURCH OF FOREST GROVE","DOMESTIC NONPROFIT CORPORATION","1726 CEDAR ST","FOREST GROVE","OR","97116"
"UNITED METHODIST CHURCH OF FOREST GROVE","DOMESTIC NONPROFIT CORPORATION","1726 CEDAR ST","FOREST GROVE","OR","97116"
"TILLAMOOK LODGE NO. 94 I.O.O.F. OF THE STATE OF OREGON","DOMESTIC NONPROFIT CORPORATION","PO BOX 44","TILLAMOOK","OR","97141"
"TILLAMOOK LODGE NO. 94 I.O.O.F. OF THE STATE OF OREGON","DOMESTIC NONPROFIT CORPORATION","PO BOX 44","TILLAMOOK","OR","97141"
"TILLAMOOK LODGE NO. 94 I.O.O.F. OF THE STATE OF OREGON","DOMESTIC NONPROFIT CORPORATION","3130 GIENGER RD","TILLAMOOK","OR","97141"
"TILLAMOOK LODGE NO. 94 I.O.O.F. OF THE STATE OF OREGON","DOMESTIC NONPROFIT CORPORATION","7800 TRASK RIVER RD","TILLAMOOK","OR","97141"
"TILLAMOOK LODGE NO. 94 I.O.O.F. OF THE STATE OF OREGON","DOMESTIC NONPROFIT CORPORATION","PO BOX 44","TILLAMOOK","OR","97141"
"CHRISTIAN CHURCH ASSOCIATION OF COQUILLE, OREGON, INC.","DOMESTIC NONPROFIT CORPORATION","625 E 10TH ST","COQUILLE","OR","97423"
"CHRISTIAN CHURCH ASSOCIATION OF COQUILLE, OREGON, INC.","DOMESTIC NONPROFIT CORPORATION","625 E 10TH ST","COQUILLE","OR","97423"
"CHRISTIAN CHURCH ASSOCIATION OF COQUILLE, OREGON, INC.","DOMESTIC NONPROFIT CORPORATION","625 E 10TH ST","COQUILLE","OR","97423"
"CHRISTIAN CHURCH ASSOCIATION OF COQUILLE, OREGON, INC.","DOMESTIC NONPROFIT CORPORATION","625 E 10TH ST","COQUILLE","OR","97423"
"CHRISTIAN CHURCH ASSOCIATION OF COQUILLE, OREGON, INC.","DOMESTIC NONPROFIT CORPORATION","1621 N BIRCH","COQUILLE","OR","97423"
"MULTNOMAH LAW LIBRARY","DOMESTIC NONPROFIT CORPORATION","1050 SW SIXTH AVE SUITE 180","PORTLAND","OR","97204"
"MULTNOMAH LAW LIBRARY","DOMESTIC NONPROFIT CORPORATION","121 SW MORRISON STREET SUITE 600","PORTLAND","OR","97204"
"MULTNOMAH LAW LIBRARY","DOMESTIC NONPROFIT CORPORATION","1050 SW SIXTH AVE SUITE 180","PORTLAND","OR","97204"
"MULTNOMAH LAW LIBRARY","DOMESTIC NONPROFIT CORPORATION","1050 SW SIXTH AVE SUITE 180","PORTLAND","OR","97204"
"MULTNOMAH LAW LIBRARY","DOMESTIC NONPROFIT CORPORATION","620 SW MAIN ST STE 205","PORTLAND","OR","97205"
"ST. JAMES EVANGELICAL LUTHERAN CHURCH OF PORTLAND, OREGON","DOMESTIC NONPROFIT CORPORATION","1315 SW PARK AVE","PORTLAND","OR","97201"
"ST. JAMES EVANGELICAL LUTHERAN CHURCH OF PORTLAND, OREGON","DOMESTIC NONPROFIT CORPORATION","653 NW 112TH AVENUE","PORTLAND","OR","97229"
"ST. JAMES EVANGELICAL LUTHERAN CHURCH OF PORTLAND, OREGON","DOMESTIC NONPROFIT CORPORATION","1315 SW PARK AVE","PORTLAND","OR","97201"
"ST. JAMES EVANGELICAL LUTHERAN CHURCH OF PORTLAND, OREGON","DOMESTIC NONPROFIT CORPORATION","707 SW WASHINGTON STE 1100","PORTLAND","OR","97205"
"ST. JAMES EVANGELICAL LUTHERAN CHURCH OF PORTLAND, OREGON","DOMESTIC NONPROFIT CORPORATION","9265 SW 8TH DR","PORTLAND","OR","97219"
"THE FIRST PRESBYTERIAN CHURCH OF NEWBERG, OREGON","DOMESTIC NONPROFIT CORPORATION","501 MISSION DRIVE","NEWBERG","OR","97132"
"THE FIRST PRESBYTERIAN CHURCH OF NEWBERG, OREGON","DOMESTIC NONPROFIT CORPORATION","501 MISSION DRIVE","NEWBERG","OR","97132"
"THE FIRST PRESBYTERIAN CHURCH OF NEWBERG, OREGON","DOMESTIC NONPROFIT CORPORATION","501 MISSION DRIVE","NEWBERG","OR","97132"
"THE FIRST PRESBYTERIAN CHURCH OF NEWBERG, OREGON","DOMESTIC NONPROFIT CORPORATION","501 MISSION DRIVE","NEWBERG","OR","97132"
"THE FIRST PRESBYTERIAN CHURCH OF NEWBERG, OREGON","DOMESTIC NONPROFIT CORPORATION","501 MISSION DRIVE","NEWBERG","OR","97132"
"FIRST CONGREGATIONAL UNITED CHURCH OF CHRIST","DOMESTIC NONPROFIT CORPORATION","1050 E 23RD ST","EUGENE","OR","97405"
"FIRST CONGREGATIONAL UNITED CHURCH OF CHRIST","DOMESTIC NONPROFIT CORPORATION","1050 E 23RD","EUGENE","OR","97405"
"FIRST CONGREGATIONAL UNITED CHURCH OF CHRIST","DOMESTIC NONPROFIT CORPORATION","1050 E 23RD AVE","EUGENE","OR","97403"
"FIRST CONGREGATIONAL UNITED CHURCH OF CHRIST","DOMESTIC NONPROFIT CORPORATION","675 OAK STREET SUITE 400","EUGENE","OR","97401"
"FIRST CONGREGATIONAL UNITED CHURCH OF CHRIST","DOMESTIC NONPROFIT CORPORATION","1050 E 23RD","EUGENE","OR","97405"
"ARLINGTON CLUB","DOMESTIC NONPROFIT CORPORATION","811 SW SALMON ST","PORTLAND","OR","97205"
"ARLINGTON CLUB","DOMESTIC NONPROFIT CORPORATION","811 SW SALMON ST","PORTLAND","OR","97205"
"ARLINGTON CLUB","DOMESTIC NONPROFIT CORPORATION","811 SW SALMON ST","PORTLAND","OR","97205"
"ARLINGTON CLUB","DOMESTIC NONPROFIT CORPORATION","811 SW SALMON ST","PORTLAND","OR","97205"
"ARLINGTON CLUB","DOMESTIC NONPROFIT CORPORATION","811 SW SALMON ST","PORTLAND","OR","97205"
"TRINITY EVANGELICAL LUTHERAN CHURCH OF PORTLAND, OREGON","DOMESTIC NONPROFIT CORPORATION","5520 NE KILLINGSWORTH","PORTLAND","OR","97218"
"TRINITY EVANGELICAL LUTHERAN CHURCH OF PORTLAND, OREGON","DOMESTIC NONPROFIT CORPORATION","9608 NE PRESCOTT ST","PORTLAND","OR","97220"
"TRINITY EVANGELICAL LUTHERAN CHURCH OF PORTLAND, OREGON","DOMESTIC NONPROFIT CORPORATION","5520 NE KILLINGSWORTH ST","PORTLAND","OR","97218"
"TRINITY EVANGELICAL LUTHERAN CHURCH OF PORTLAND, OREGON","DOMESTIC NONPROFIT CORPORATION","5520 NE KILLINGSWORTH","PORTLAND","OR","97218"
"TRINITY EVANGELICAL LUTHERAN CHURCH OF PORTLAND, OREGON","DOMESTIC NONPROFIT CORPORATION","6616 NE DURHAM AVE","PORTLAND","OR","97211"
"CALVARY BAPTIST CHURCH OF COVE, OREGON","DOMESTIC NONPROFIT CORPORATION","PO BOX 248","COVE","OR","97824"
"CALVARY BAPTIST CHURCH OF COVE, OREGON","DOMESTIC NONPROFIT CORPORATION","705 MAIN ST","COVE","OR","97824"
"CALVARY BAPTIST CHURCH OF COVE, OREGON","DOMESTIC NONPROFIT CORPORATION","707 MAIN STREET","COVE","OR","97824"
"CALVARY BAPTIST CHURCH OF COVE, OREGON","DOMESTIC NONPROFIT CORPORATION","705 MAIN STREET","COVE","OR","97824"
"CALVARY BAPTIST CHURCH OF COVE, OREGON","DOMESTIC NONPROFIT CORPORATION","69841 HAEFER LN","COVE","OR","97824"
"LEGACY GOOD SAMARITAN HOSPITAL AND MEDICAL CENTER","DOMESTIC NONPROFIT CORPORATION","ALEXANDER GLADNEY","PORTLAND","OR","97209"
"LEGACY GOOD SAMARITAN HOSPITAL AND MEDICAL CENTER","DOMESTIC NONPROFIT CORPORATION","1919 NW LOVEJOY ST","PORTLAND","OR","97209"
"LEGACY GOOD SAMARITAN HOSPITAL AND MEDICAL CENTER","DOMESTIC NONPROFIT CORPORATION","1015 NW 22ND AVE","PORTLAND","OR","97210"
"LEGACY GOOD SAMARITAN HOSPITAL AND MEDICAL CENTER","DOMESTIC NONPROFIT CORPORATION","1919 NW LOVEJOY ST","PORTLAND","OR","97209"
"LEGACY GOOD SAMARITAN HOSPITAL AND MEDICAL CENTER","DOMESTIC NONPROFIT CORPORATION","1919 NW LOVEJOY ST","PORTLAND","OR","97209"
"CLIFFSIDE CEMETERY ASSOCIATION, INC.","DOMESTIC NONPROFIT CORPORATION","PO BOX 2010","SANDY","OR","97055"
"CLIFFSIDE CEMETERY ASSOCIATION, INC.","DOMESTIC NONPROFIT CORPORATION","39925 SE FISH HATCHERY RD","SANDY","OR","97055"
"CLIFFSIDE CEMETERY ASSOCIATION, INC.","DOMESTIC NONPROFIT CORPORATION","15635 SE TENEYCK RD","SANDY","OR","97055"
"CLIFFSIDE CEMETERY ASSOCIATION, INC.","DOMESTIC NONPROFIT CORPORATION","39925 SE FISH HATCHERY RD","SANDY","OR","97055"
"CLIFFSIDE CEMETERY ASSOCIATION, INC.","DOMESTIC NONPROFIT CORPORATION","16429 SE SIRI LOOP","DAMASCUS","OR","97089"
"MULTNOMAH ATHLETIC CLUB","DOMESTIC NONPROFIT CORPORATION","601 SW SECOND AVE STE 2100","PORTLAND","OR","97204"
"MULTNOMAH ATHLETIC CLUB","DOMESTIC NONPROFIT CORPORATION","1849 SW SALMON ST","PORTLAND","OR","97205"
"MULTNOMAH ATHLETIC CLUB","DOMESTIC NONPROFIT CORPORATION","1849 SW SALMON ST","PORTLAND","OR","97205"
"MULTNOMAH ATHLETIC CLUB","DOMESTIC NONPROFIT CORPORATION","601 SW SECOND AVENUE SUITE 2100","PORTLAND","OR","97204"
"MULTNOMAH ATHLETIC CLUB","DOMESTIC NONPROFIT CORPORATION","1849 SW SALMON ST","PORTLAND","OR","97205"
"FIRST PRESBYTERIAN CHURCH OF MYRTLE POINT OREGON","DOMESTIC NONPROFIT CORPORATION","337 RAILROAD AVENUE","MYRTLE POINT","OR","97458"
"FIRST PRESBYTERIAN CHURCH OF MYRTLE POINT OREGON","DOMESTIC NONPROFIT CORPORATION","59088 LEE VALLEY RD","MYRTLE POINT","OR","97458"
"FIRST PRESBYTERIAN CHURCH OF MYRTLE POINT OREGON","DOMESTIC NONPROFIT CORPORATION","337 RAILROAD AVE","MYRTLE POINT","OR","97458"
"FIRST PRESBYTERIAN CHURCH OF MYRTLE POINT OREGON","DOMESTIC NONPROFIT CORPORATION","337 RAILROAD AVENUE","MYRTLE POINT","OR","97458"
"FIRST PRESBYTERIAN CHURCH OF MYRTLE POINT OREGON","DOMESTIC NONPROFIT CORPORATION","337 RAILROAD AVENUE","MYRTLE POINT","OR","97458"
"RIVERSIDE COMMUNITY CHURCH OF HOOD RIVER","DOMESTIC NONPROFIT CORPORATION","PO BOX 656","HOOD RIVER","OR","97031"
"RIVERSIDE COMMUNITY CHURCH OF HOOD RIVER","DOMESTIC NONPROFIT CORPORATION","1806 MARKHAM RD","HOOD RIVER","OR","97031"
"RIVERSIDE COMMUNITY CHURCH OF HOOD RIVER","DOMESTIC NONPROFIT CORPORATION","317 STATE ST","HOOD RIVER","OR","97031"
"RIVERSIDE COMMUNITY CHURCH OF HOOD RIVER","DOMESTIC NONPROFIT CORPORATION","1634 5TH AVE","HOOD RIVER","OR","97031"
"RIVERSIDE COMMUNITY CHURCH OF HOOD RIVER","DOMESTIC NONPROFIT CORPORATION","607 RIDGEVIEW","HOOD RIVER","OR","97031"
"SMITH MEMORIAL PRESBYTERIAN CHURCH OF FAIRVIEW OREGON","DOMESTIC NONPROFIT CORPORATION","PO BOX 69","FAIRVIEW","OR","97024"
"SMITH MEMORIAL PRESBYTERIAN CHURCH OF FAIRVIEW OREGON","DOMESTIC NONPROFIT CORPORATION","PO BOX 251","FAIRVIEW","OR","97024"
"SMITH MEMORIAL PRESBYTERIAN CHURCH OF FAIRVIEW OREGON","DOMESTIC NONPROFIT CORPORATION","2420 NE FAIRVIEW AVE","FAIRVIEW","OR","97024"
"SMITH MEMORIAL PRESBYTERIAN CHURCH OF FAIRVIEW OREGON","DOMESTIC NONPROFIT CORPORATION","21005 NE BIG FIR LANE","DUNDEE","OR","97115"
"SMITH MEMORIAL PRESBYTERIAN CHURCH OF FAIRVIEW OREGON","DOMESTIC NONPROFIT CORPORATION","PO BOX 34","FAIRVIEW","OR","97024"
"UNION CEMETERY ASSOCIATION OF LONG TOM, LANE COUNTY, OREGON","DOMESTIC NONPROFIT CORPORATION","PO BOX 26","ELMIRA","OR","97437"
"UNION CEMETERY ASSOCIATION OF LONG TOM, LANE COUNTY, OREGON","DOMESTIC NONPROFIT CORPORATION","PO BOX 26","ELMIRA","OR","97437"
"UNION CEMETERY ASSOCIATION OF LONG TOM, LANE COUNTY, OREGON","DOMESTIC NONPROFIT CORPORATION","23789 WARTHEN RD","ELMIRA","OR","97437"
"UNION CEMETERY ASSOCIATION OF LONG TOM, LANE COUNTY, OREGON","DOMESTIC NONPROFIT CORPORATION","23789 WARTHEN RD","ELMIRA","OR","97437"
"UNION CEMETERY ASSOCIATION OF LONG TOM, LANE COUNTY, OREGON","DOMESTIC NONPROFIT CORPORATION","4134 ANGELA CT","BELLINGHAM","WA","98229"
"THE FIRST CHRISTIAN CHURCH OF TILLAMOOK CITY OREGON","DOMESTIC NONPROFIT CORPORATION","2203 4TH STREET","TILLAMOOK","OR","97141"
"THE FIRST CHRISTIAN CHURCH OF TILLAMOOK CITY OREGON","DOMESTIC NONPROFIT CORPORATION","1816 NINTH ST","TILLAMOOK","OR","97141"
"THE FIRST CHRISTIAN CHURCH OF TILLAMOOK CITY OREGON","DOMESTIC NONPROFIT CORPORATION","2203 FOURTH ST","TILLAMOOK","OR","97141"
"THE FIRST CHRISTIAN CHURCH OF TILLAMOOK CITY OREGON","DOMESTIC NONPROFIT CORPORATION","5513 THIRD ST","TILLAMOOK","OR","97141"
"THE FIRST CHRISTIAN CHURCH OF TILLAMOOK CITY OREGON","DOMESTIC NONPROFIT CORPORATION","2750 NIELSEN RD","TILLAMOOK","OR","97141"
"WARDENS AND VESTRY OF THE CHURCH OF THE GOOD SAMARITAN, CORVALLIS, BENTON COUNTY, OREGON","DOMESTIC NONPROFIT CORPORATION","333 NW 35TH ST","CORVALLIS","OR","97330"
"WARDENS AND VESTRY OF THE CHURCH OF THE GOOD SAMARITAN, CORVALLIS, BENTON COUNTY, OREGON","DOMESTIC NONPROFIT CORPORATION","333 NW 35TH","CORVALLIS","OR","97330"
"WARDENS AND VESTRY OF THE CHURCH OF THE GOOD SAMARITAN, CORVALLIS, BENTON COUNTY, OREGON","DOMESTIC NONPROFIT CORPORATION","333 NW 35TH ST","CORVALLIS","OR","97330"
"WARDENS AND VESTRY OF THE CHURCH OF THE GOOD SAMARITAN, CORVALLIS, BENTON COUNTY, OREGON","DOMESTIC NONPROFIT CORPORATION","333 NW 35TH ST","CORVALLIS","OR","97330"
"WARDENS AND VESTRY OF THE CHURCH OF THE GOOD SAMARITAN, CORVALLIS, BENTON COUNTY, OREGON","DOMESTIC NONPROFIT CORPORATION","333 NW 35TH","CORVALLIS","OR","97330"
"THE FIRST BAPTIST CHURCH OF NEWBERG","DOMESTIC NONPROFIT CORPORATION","PO BOX 1","NEWBERG","OR","97132"
"THE FIRST BAPTIST CHURCH OF NEWBERG","DOMESTIC NONPROFIT CORPORATION","15805 NE HWY 240","NEWBERG","OR","97132"
"THE FIRST BAPTIST CHURCH OF NEWBERG","DOMESTIC NONPROFIT CORPORATION","1619 E 2ND ST","NEWBERG","OR","97132"
"THE FIRST BAPTIST CHURCH OF NEWBERG","DOMESTIC NONPROFIT CORPORATION","15805 NE HWY 240","NEWBERG","OR","97132"
"THE FIRST BAPTIST CHURCH OF NEWBERG","DOMESTIC NONPROFIT CORPORATION","20402 NE NEIDERBERGER RD","DUNDEE","OR","97115"
"OREGON-IDAHO ANNUAL CONFERENCE OF THE UNITED METHODIST CHURCH","DOMESTIC NONPROFIT CORPORATION","1505 SW 18TH AVENUE","PORTLAND","OR","97201"
"OREGON-IDAHO ANNUAL CONFERENCE OF THE UNITED METHODIST CHURCH","DOMESTIC NONPROFIT CORPORATION","6241 SW QUIETCREEK DR","CORVALLIS","OR","97333"
"OREGON-IDAHO ANNUAL CONFERENCE OF THE UNITED METHODIST CHURCH","DOMESTIC NONPROFIT CORPORATION","1505 SW 18TH AVE","PORTLAND","OR","97201"
"OREGON-IDAHO ANNUAL CONFERENCE OF THE UNITED METHODIST CHURCH","DOMESTIC NONPROFIT CORPORATION","1505 SW 18TH AVE","PORTLAND","OR","97201"
"OREGON-IDAHO ANNUAL CONFERENCE OF THE UNITED METHODIST CHURCH","DOMESTIC NONPROFIT CORPORATION","1535 SE TACOMA ST","PORTLAND","OR","97202"
"THE FIRST PRESBYTERIAN CHURCH OF BANDON","DOMESTIC NONPROFIT CORPORATION","592 EDISON AVE SW","BANDON","OR","97411"
"THE FIRST PRESBYTERIAN CHURCH OF BANDON","DOMESTIC NONPROFIT CORPORATION","PO BOX 1278","BANDON","OR","97411"
"THE FIRST PRESBYTERIAN CHURCH OF BANDON","DOMESTIC NONPROFIT CORPORATION","592 EDISON AVE SW","BANDON","OR","97411"
"THE FIRST PRESBYTERIAN CHURCH OF BANDON","DOMESTIC NONPROFIT CORPORATION","2640 WHALE WATCH WAY","BANDON","OR","97411"
"THE FIRST PRESBYTERIAN CHURCH OF BANDON","DOMESTIC NONPROFIT CORPORATION","PO BOX ;85","BANDON","OR","97411"
"WEST HILLS COMMUNITY CHURCH","DOMESTIC NONPROFIT CORPORATION","1650 BRUSH COLLEGE RD NW","SALEM","OR","97304"
"WEST HILLS COMMUNITY CHURCH","DOMESTIC NONPROFIT CORPORATION","1650 BRUSH COLLEGE RD NW","SALEM","OR","97304"
"WEST HILLS COMMUNITY CHURCH","DOMESTIC NONPROFIT CORPORATION","1650 BRUSH COLLEGE RD NW","SALEM","OR","97304"
"WEST HILLS COMMUNITY CHURCH","DOMESTIC NONPROFIT CORPORATION","1650 BRUSH COLLEGE RD NW","SALEM","OR","97304"
"WEST HILLS COMMUNITY CHURCH","DOMESTIC NONPROFIT CORPORATION","1650 BRUSH COLLEGE RD NW","SALEM","OR","97304"
"WOODBURN UNITED METHODIST CHURCH","DOMESTIC NONPROFIT CORPORATION","1345 INDEPENDENCE AVE","WOODBURN","OR","97071"
"WOODBURN UNITED METHODIST CHURCH","DOMESTIC NONPROFIT CORPORATION","700 N CASCADE DR","WOODBURN","OR","97071"
"WOODBURN UNITED METHODIST CHURCH","DOMESTIC NONPROFIT CORPORATION","700 N CASCADE DR","WOODBURN","OR","97071"
"WOODBURN UNITED METHODIST CHURCH","DOMESTIC NONPROFIT CORPORATION","950 N CASCADE DR #356","WOODBURN","OR","97071"
"COTTAGE GROVE LODGE NO. 68 OF THE INDEPENDENT ORDER OF ODD FELLOWS","DOMESTIC NONPROFIT CORPORATION","PO BOX 1213","COTTAGE GROVE","OR","97424"
"COTTAGE GROVE LODGE NO. 68 OF THE INDEPENDENT ORDER OF ODD FELLOWS","DOMESTIC NONPROFIT CORPORATION","78590 ECHO HOLLOW LANE","COTTAGE GROVE","OR","97424"
"COTTAGE GROVE LODGE NO. 68 OF THE INDEPENDENT ORDER OF ODD FELLOWS","DOMESTIC NONPROFIT CORPORATION","319 E MAIN STREET","COTTAGE GROVE","OR","97424"
"COTTAGE GROVE LODGE NO. 68 OF THE INDEPENDENT ORDER OF ODD FELLOWS","DOMESTIC NONPROFIT CORPORATION","34863 ROW RIVER RD","COTTAGE GROVE","OR","97424"
"COTTAGE GROVE LODGE NO. 68 OF THE INDEPENDENT ORDER OF ODD FELLOWS","DOMESTIC NONPROFIT CORPORATION","215 1/2 N 9TH ST","COTTAGE GROVE","OR","97424"
"THE FIRST CHRISTIAN CHURCH OF THE DALLES, OREGON","DOMESTIC NONPROFIT CORPORATION","909 COURT ST","THE DALLES","OR","97058"
"THE FIRST CHRISTIAN CHURCH OF THE DALLES, OREGON","DOMESTIC NONPROFIT CORPORATION","909 COURT ST","THE DALLES","OR","97058"
"THE FIRST CHRISTIAN CHURCH OF THE DALLES, OREGON","DOMESTIC NONPROFIT CORPORATION","909 COURT ST","THE DALLES","OR","97058"
"THE FIRST CHRISTIAN CHURCH OF THE DALLES, OREGON","DOMESTIC NONPROFIT CORPORATION","909 COURT ST","THE DALLES","OR","97058"
"THE FIRST CHRISTIAN CHURCH OF THE DALLES, OREGON","DOMESTIC NONPROFIT CORPORATION","2532 E 10TH STREET","THE DALLES","OR","97058"
"THE FIRST BAPTIST CHURCH OF ATHENA, OREGON","DOMESTIC NONPROFIT CORPORATION","PO BOX 539","ATHENA","OR","97813"
"THE FIRST BAPTIST CHURCH OF ATHENA, OREGON","DOMESTIC NONPROFIT CORPORATION","PO BOX 417","ATHENA","OR","97813"
"THE FIRST BAPTIST CHURCH OF ATHENA, OREGON","DOMESTIC NONPROFIT CORPORATION","413 N 5TH ST","ATHENA","OR","97813"
"THE FIRST BAPTIST CHURCH OF ATHENA, OREGON","DOMESTIC NONPROFIT CORPORATION","413 N 5TH ST","ATHENA","OR","97813"
"THE FIRST BAPTIST CHURCH OF ATHENA, OREGON","DOMESTIC NONPROFIT CORPORATION","PO BOX 655","ATHENA","OR","97813"
"SMYRNA UNITED CHURCH OF CHRIST","DOMESTIC NONPROFIT CORPORATION","31119 S HWY 170","CANBY","OR","97013"
"SMYRNA UNITED CHURCH OF CHRIST","DOMESTIC NONPROFIT CORPORATION","4989 SHORELINE DR N","KEIZER","OR","97303"
"SMYRNA UNITED CHURCH OF CHRIST","DOMESTIC NONPROFIT CORPORATION","31119 S HWY 170","CANBY","OR","97013"
"SMYRNA UNITED CHURCH OF CHRIST","DOMESTIC NONPROFIT CORPORATION","32441 S KROPF RD","CANBY","OR","97013"
"SMYRNA UNITED CHURCH OF CHRIST","DOMESTIC NONPROFIT CORPORATION","32441 S KROPF RD","CANBY","OR","97013"
"FALLS CITY UNITED METHODIST CHURCH","DOMESTIC NONPROFIT CORPORATION","PO BOX 473","FALLS CITY","OR","97344"
"FALLS CITY UNITED METHODIST CHURCH","DOMESTIC NONPROFIT CORPORATION","3585 BARNHART RD","DALLAS","OR","97338"
"FALLS CITY UNITED METHODIST CHURCH","DOMESTIC NONPROFIT CORPORATION","242 NORTH MAIN ST","FALLS CITY","OR","97344"
"FALLS CITY UNITED METHODIST CHURCH","DOMESTIC NONPROFIT CORPORATION","22280 GOOSENECK CREEK RD","SHERIDAN","OR","97378"
"FALLS CITY UNITED METHODIST CHURCH","DOMESTIC NONPROFIT CORPORATION","PO BOX 399","FALLS CITY","OR","97344"
"FIRST PRESBYTERIAN CHURCH OF COTTAGE GROVE, OREGON","DOMESTIC NONPROFIT CORPORATION","216 S 3RD ST","COTTAGE GROVE","OR","97424"
"FIRST PRESBYTERIAN CHURCH OF COTTAGE GROVE, OREGON","DOMESTIC NONPROFIT CORPORATION","216 S 3RD ST","COTTAGE GROVE","OR","97424"
"FIRST PRESBYTERIAN CHURCH OF COTTAGE GROVE, OREGON","DOMESTIC NONPROFIT CORPORATION","4265 SOUTHRIDGE CT","EUGENE","OR","97405"
"FIRST PRESBYTERIAN CHURCH OF COTTAGE GROVE, OREGON","DOMESTIC NONPROFIT CORPORATION","216 S 3RD ST","COTTAGE GROVE","OR","97424"
"PEACE LUTHERAN CHURCH OF PORTLAND","DOMESTIC NONPROFIT CORPORATION","2201 N ROSA PARKS WAY","PORTLAND","OR","97217"
"PEACE LUTHERAN CHURCH OF PORTLAND","DOMESTIC NONPROFIT CORPORATION","2201 N ROSA PARKS WAY","PORTLAND","OR","97217"
"PEACE LUTHERAN CHURCH OF PORTLAND","DOMESTIC NONPROFIT CORPORATION","2201 N ROSA PARKS WAY","PORTLAND","OR","97217"
"PEACE LUTHERAN CHURCH OF PORTLAND","DOMESTIC NONPROFIT CORPORATION","2201 N PORTLAND BLVD","PORTLAND","OR","97217"
"PEACE LUTHERAN CHURCH OF PORTLAND","DOMESTIC NONPROFIT CORPORATION","2201 N ROSA PARKS WAY","PORTLAND","OR","97217"
"THE FIRST FREE METHODIST CHURCH OF SALEM, OREGON","DOMESTIC NONPROFIT CORPORATION","4455 SILVERTON RD NE","SALEM","OR","97305"
"THE FIRST FREE METHODIST CHURCH OF SALEM, OREGON","DOMESTIC NONPROFIT CORPORATION","4455 SILVERTON RD NE","SALEM","OR","97305"
"THE FIRST FREE METHODIST CHURCH OF SALEM, OREGON","DOMESTIC NONPROFIT CORPORATION","4455 SILVERTON RD NE","SALEM","OR","97305"
"THE FIRST FREE METHODIST CHURCH OF SALEM, OREGON","DOMESTIC NONPROFIT CORPORATION","4455 SILVERTON RD NE","SALEM","OR","97305"
"THE FIRST FREE METHODIST CHURCH OF SALEM, OREGON","DOMESTIC NONPROFIT CORPORATION","1869 MAY ST NE","KEIZER","OR","97303"
"THE FAMILY YOUNG MEN'S CHRISTIAN ASSOCIATION OF MARION AND POLK COUNTIES","DOMESTIC NONPROFIT CORPORATION","PO BOX 110","SALEM","OR","97308"
"THE FAMILY YOUNG MEN'S CHRISTIAN ASSOCIATION OF MARION AND POLK COUNTIES","DOMESTIC NONPROFIT CORPORATION","PO BOX 110","SALEM","OR","97308"
"THE FAMILY YOUNG MEN'S CHRISTIAN ASSOCIATION OF MARION AND POLK COUNTIES","DOMESTIC NONPROFIT CORPORATION","544 FERRY ST SE STE 3","SALEM","OR","97301"
"THE FAMILY YOUNG MEN'S CHRISTIAN ASSOCIATION OF MARION AND POLK COUNTIES","DOMESTIC NONPROFIT CORPORATION","544 FERRY ST SE STE 3","SALEM","OR","97301"
"THE FAMILY YOUNG MEN'S CHRISTIAN ASSOCIATION OF MARION AND POLK COUNTIES","DOMESTIC NONPROFIT CORPORATION","PO BOX 110","SALEM","OR","97308"
"FIRST BAPTIST CHURCH OF CORVALLIS OREGON","DOMESTIC NONPROFIT CORPORATION","125 NW 10TH ST","CORVALLIS","OR","97330"
"FIRST BAPTIST CHURCH OF CORVALLIS OREGON","DOMESTIC NONPROFIT CORPORATION","1480 NW 15TH ST","CORVALLIS","OR","97330"
"FIRST BAPTIST CHURCH OF CORVALLIS OREGON","DOMESTIC NONPROFIT CORPORATION","125 NW 10TH ST","CORVALLIS","OR","97330"
"FIRST BAPTIST CHURCH OF CORVALLIS OREGON","DOMESTIC NONPROFIT CORPORATION","2400 NW MASER DR","CORVALLIS","OR","97330"
"FIRST BAPTIST CHURCH OF CORVALLIS OREGON","DOMESTIC NONPROFIT CORPORATION","2400 NW MASER DR","CORVALLIS","OR","97330"
"FIRST BAPTIST CHURCH OF RIDDLE","DOMESTIC NONPROFIT CORPORATION","PO BOX 166","RIDDLE","OR","97469"
"FIRST BAPTIST CHURCH OF RIDDLE","DOMESTIC NONPROFIT CORPORATION","PO BOX 668","RIDDLE","OR","97469"
"FIRST BAPTIST CHURCH OF RIDDLE","DOMESTIC NONPROFIT CORPORATION","143 MAIN ST","RIDDLE","OR","97469"
"FIRST BAPTIST CHURCH OF RIDDLE","DOMESTIC NONPROFIT CORPORATION","139 COPPER WAY","RIDDLE","OR","97469"
"FIRST BAPTIST CHURCH OF RIDDLE","DOMESTIC NONPROFIT CORPORATION","PO BOX 23","RIDDLE","OR","97469"
"FIRST CHRISTIAN CHURCH AT SILVERTON, OREGON","DOMESTIC NONPROFIT CORPORATION","402 N 1ST ST","SILVERTON","OR","97381"
"FIRST CHRISTIAN CHURCH AT SILVERTON, OREGON","DOMESTIC NONPROFIT CORPORATION","402 N FIRST","SILVERTON","OR","97381"
"FIRST CHRISTIAN CHURCH AT SILVERTON, OREGON","DOMESTIC NONPROFIT CORPORATION","402 N 1ST ST","SILVERTON","OR","97381"
"FIRST CHRISTIAN CHURCH AT SILVERTON, OREGON","DOMESTIC NONPROFIT CORPORATION","402 N FIRST ST","SILVERTON","OR","97381"
"FIRST CHRISTIAN CHURCH AT SILVERTON, OREGON","DOMESTIC NONPROFIT CORPORATION","402 N FIRST","SILVERTON","OR","97381"
"FIRST CHRISTIAN CHURCH OF EUGENE","DOMESTIC NONPROFIT CORPORATION","OPERATIONS ADMINISTRATOR","EUGENE","OR","97401"
"FIRST CHRISTIAN CHURCH OF EUGENE","DOMESTIC NONPROFIT CORPORATION","1166 OAK ST","EUGENE","OR","97401"
"FIRST CHRISTIAN CHURCH OF EUGENE","DOMESTIC NONPROFIT CORPORATION","1166 OAK ST","EUGENE","OR","97401"
"FIRST CHRISTIAN CHURCH OF EUGENE","DOMESTIC NONPROFIT CORPORATION","1166 OAK ST","EUGENE","OR","97401"
"FIRST CHRISTIAN CHURCH OF EUGENE","DOMESTIC NONPROFIT CORPORATION","1166 OAK ST","EUGENE","OR","97401"
"UNION POINT CEMETERY ASSOCIATION","DOMESTIC NONPROFIT CORPORATION","PO BOX 245","BANKS","OR","97106"
"UNION POINT CEMETERY ASSOCIATION","DOMESTIC NONPROFIT CORPORATION","24535 NW GREEN MTN RD","BANKS","OR","97106"
"UNION POINT CEMETERY ASSOCIATION","DOMESTIC NONPROFIT CORPORATION","41500 BANKS RD","BANKS","OR","97106"
"UNION POINT CEMETERY ASSOCIATION","DOMESTIC NONPROFIT CORPORATION","24535 NW GREEN MOUNTAIN RD","BANKS","OR","97106"
"UNION POINT CEMETERY ASSOCIATION","DOMESTIC NONPROFIT CORPORATION","37655 NW HAHN RD","BANKS","OR","97106"
"FIRST CHRISTIAN CHURCH OF GRANTS PASS, OREGON","DOMESTIC NONPROFIT CORPORATION","305 SW H STREET","GRANTS PASS","OR","97526"
"FIRST CHRISTIAN CHURCH OF GRANTS PASS, OREGON","DOMESTIC NONPROFIT CORPORATION","305 SW H ST","GRANTS PASS","OR","97526"
"FIRST CHRISTIAN CHURCH OF GRANTS PASS, OREGON","DOMESTIC NONPROFIT CORPORATION","305 SW H ST","GRANTS PASS","OR","97526"
"FIRST CHRISTIAN CHURCH OF GRANTS PASS, OREGON","DOMESTIC NONPROFIT CORPORATION","305 SW H ST","GRANTS PASS","OR","97526"
"FIRST CHRISTIAN CHURCH OF GRANTS PASS, OREGON","DOMESTIC NONPROFIT CORPORATION","305 SW H ST","GRANTS PASS","OR","97526"
"OAKVILLE PRESBYTERIAN CHURCH","DOMESTIC NONPROFIT CORPORATION","29970 CHURCH DR","SHEDD","OR","97377"
"OAKVILLE PRESBYTERIAN CHURCH","DOMESTIC NONPROFIT CORPORATION","31308 PEORIA RD","SHEDD","OR","97377"
"OAKVILLE PRESBYTERIAN CHURCH","DOMESTIC NONPROFIT CORPORATION","29970 CHURCH DR","SHEDD","OR","97377"
"OAKVILLE PRESBYTERIAN CHURCH","DOMESTIC NONPROFIT CORPORATION","29970 CHURCH DR","SHEDD","OR","97377"
"OAKVILLE PRESBYTERIAN CHURCH","DOMESTIC NONPROFIT CORPORATION","31160 PEORIA RD","SHEDD","OR","97377"
"WILDERVILLE COMMUNITY CHURCH","DOMESTIC NONPROFIT CORPORATION","WILDERVILLE UNITED METHODIST CHURCH","WILDERVILLE","OR","97543"
"WILDERVILLE COMMUNITY CHURCH","DOMESTIC NONPROFIT CORPORATION","743 LINCOLN RD","GRANTS PASS","OR","97526"
"WILDERVILLE COMMUNITY CHURCH","DOMESTIC NONPROFIT CORPORATION","7970 REDWOOD HWY","WILDERVILLE","OR","97543"
"WILDERVILLE COMMUNITY CHURCH","DOMESTIC NONPROFIT CORPORATION","WILDERVILLE UNITED METHODIST CHURCH","WILDERVILLE","OR","97543"
"WILDERVILLE COMMUNITY CHURCH","DOMESTIC NONPROFIT CORPORATION","1252 REDWOOD AVE #14","GRANTS PASS","OR","97527"
"TRUSTEES OF THE FIRST UNITED METHODIST CHURCH OF THE DALLES, OREGON","DOMESTIC NONPROFIT CORPORATION","305 E 11TH ST","THE DALLES","OR","97058"
"TRUSTEES OF THE FIRST UNITED METHODIST CHURCH OF THE DALLES, OREGON","DOMESTIC NONPROFIT CORPORATION","1022 E 12TH STREET","THE DALLES","OR","97058"
"TRUSTEES OF THE FIRST UNITED METHODIST CHURCH OF THE DALLES, OREGON","DOMESTIC NONPROFIT CORPORATION","305 E 11TH ST","THE DALLES","OR","97058"
"TRUSTEES OF THE FIRST UNITED METHODIST CHURCH OF THE DALLES, OREGON","DOMESTIC NONPROFIT CORPORATION","5025 CHENOWITH RD","THE DALLES","OR","97058"
"TRUSTEES OF THE FIRST UNITED METHODIST CHURCH OF THE DALLES, OREGON","DOMESTIC NONPROFIT CORPORATION","812 E 20TH ST","THE DALLES","OR","97058"
"EUREKA CEMETERY & MAUSOLEUM ASSOCIATION","DOMESTIC NONPROFIT CORPORATION","PO BOX 1762","NEWPORT","OR","97365"
"EUREKA CEMETERY & MAUSOLEUM ASSOCIATION","DOMESTIC NONPROFIT CORPORATION","PO BOX 623","SILETZ","OR","97380"
"EUREKA CEMETERY & MAUSOLEUM ASSOCIATION","DOMESTIC NONPROFIT CORPORATION","1101 NE YAQUINA HEIGHTS DR","NEWPORT","OR","97365"
"EUREKA CEMETERY & MAUSOLEUM ASSOCIATION","DOMESTIC NONPROFIT CORPORATION","1101 NE YAQUINA HEIGHTS DR","NEWPORT","OR","97365"
"EUREKA CEMETERY & MAUSOLEUM ASSOCIATION","DOMESTIC NONPROFIT CORPORATION","PO BOX 623","SILETZ","OR","97380"
"SHIELDS CEMETERY ASSOCIATION","DOMESTIC NONPROFIT CORPORATION","PO BOX 165","LORANE","OR","97451"
"SHIELDS CEMETERY ASSOCIATION","DOMESTIC NONPROFIT CORPORATION","27721 LORANE ORCHARD LANE","LORANE","OR","97451"
"SHIELDS CEMETERY ASSOCIATION","DOMESTIC NONPROFIT CORPORATION","27721 LORANE ORCHARD ROAD","LORANE","OR","97451"
"SHIELDS CEMETERY ASSOCIATION","DOMESTIC NONPROFIT CORPORATION","27721 LORANE ORDCHARD RD","LORANE","OR","97451"
"SHIELDS CEMETERY ASSOCIATION","DOMESTIC NONPROFIT CORPORATION","81613 BALM LANE","CRESWELL","OR","97426"
"BUTTEVILLE COMMUNITY CHURCH","DOMESTIC NONPROFIT CORPORATION","10858 ARNDT RD NE","AURORA","OR","97002"
"BUTTEVILLE COMMUNITY CHURCH","DOMESTIC NONPROFIT CORPORATION","17835 MONNIER RD NE","HUBBARD","OR","97032"
"BUTTEVILLE COMMUNITY CHURCH","DOMESTIC NONPROFIT CORPORATION","10858 ARNDT RD NE","AURORA","OR","97002"
"BUTTEVILLE COMMUNITY CHURCH","DOMESTIC NONPROFIT CORPORATION","17454 S NORTH END RD","OREGON CITY","OR","97045"
"BUTTEVILLE COMMUNITY CHURCH","DOMESTIC NONPROFIT CORPORATION","17454 S NORTH END RD","OREGON CITY","OR","97045"
"JEFFERSON UNITED METHODIST CHURCH","DOMESTIC NONPROFIT CORPORATION","PO BOX 76","JEFFERSON","OR","97352"
"JEFFERSON UNITED METHODIST CHURCH","DOMESTIC NONPROFIT CORPORATION","245 N THIRD ST","JEFFERSON","OR","97352"
"JEFFERSON UNITED METHODIST CHURCH","DOMESTIC NONPROFIT CORPORATION","310 N 2ND ST","JEFFERSON","OR","97352"
"JEFFERSON UNITED METHODIST CHURCH","DOMESTIC NONPROFIT CORPORATION","268 N 3RD ST","JEFFERSON","OR","97352"
"JEFFERSON UNITED METHODIST CHURCH","DOMESTIC NONPROFIT CORPORATION","1261 HAZEL ST","JEFFERSON","OR","97352"
"THURSTON CHRISTIAN CHURCH","DOMESTIC NONPROFIT CORPORATION","6680 THURSTON RD","SPRINGFIELD","OR","97478"
"THURSTON CHRISTIAN CHURCH","DOMESTIC NONPROFIT CORPORATION","6680 THURSTON RD","SPRINGFIELD","OR","97478"
"THURSTON CHRISTIAN CHURCH","DOMESTIC NONPROFIT CORPORATION","6680 THURSTON RD","SPRINGFIELD","OR","97478"
"THURSTON CHRISTIAN CHURCH","DOMESTIC NONPROFIT CORPORATION","6680 THURSTON RD","SPRINGFIELD","OR","97478"
"THURSTON CHRISTIAN CHURCH","DOMESTIC NONPROFIT CORPORATION","6680 THURSTON RD","SPRINGFIELD","OR","97478"
"TRINITY UNITED METHODIST CHURCH","DOMESTIC NONPROFIT CORPORATION","3915 SE STEELE ST","PORTLAND","OR","97202"
"TRINITY UNITED METHODIST CHURCH","DOMESTIC NONPROFIT CORPORATION","5336 SE 52ND AVE","PORTLAND","OR","97206"
"TRINITY UNITED METHODIST CHURCH","DOMESTIC NONPROFIT CORPORATION","3915 SE STEELE ST","PORTLAND","OR","97202"
"TRINITY UNITED METHODIST CHURCH","DOMESTIC NONPROFIT CORPORATION","5336 SE 52ND AVE","PORTLAND","OR","97206"
"TRINITY UNITED METHODIST CHURCH","DOMESTIC NONPROFIT CORPORATION","4424 SE CRYSTAL SPRINGS","PORTLAND","OR","97206"
"PORTLAND ART MUSEUM","DOMESTIC NONPROFIT CORPORATION","1219 SW PARK AVE","PORTLAND","OR","97205"
"PORTLAND ART MUSEUM","DOMESTIC NONPROFIT CORPORATION","EXECUTIVE DIRECTOR","PORTLAND","OR","97205"
"PORTLAND ART MUSEUM","DOMESTIC NONPROFIT CORPORATION","1219 SW PARK AVE","PORTLAND","OR","97205"
"PORTLAND ART MUSEUM","DOMESTIC NONPROFIT CORPORATION","1219 SW PARK AVE","PORTLAND","OR","97205"
"PORTLAND ART MUSEUM","DOMESTIC NONPROFIT CORPORATION","1219 SW PARK AVE","PORTLAND","OR","97205"
"THE WESTMINSTER PRESBYTERIAN CHURCH OF PORTLAND, OREGON","DOMESTIC NONPROFIT CORPORATION","ATTN FINANCIAL SECRETARY","PORTLAND","OR","97212"
"THE WESTMINSTER PRESBYTERIAN CHURCH OF PORTLAND, OREGON","DOMESTIC NONPROFIT CORPORATION","2805 NE 32ND PL","PORTLAND","OR","97212"
"THE WESTMINSTER PRESBYTERIAN CHURCH OF PORTLAND, OREGON","DOMESTIC NONPROFIT CORPORATION","1624 NE HANCOCK","PORTLAND","OR","97212"
"THE WESTMINSTER PRESBYTERIAN CHURCH OF PORTLAND, OREGON","DOMESTIC NONPROFIT CORPORATION","2805 NE 32ND PL","PORTLAND","OR","97212"
"THE WESTMINSTER PRESBYTERIAN CHURCH OF PORTLAND, OREGON","DOMESTIC NONPROFIT CORPORATION","2445 SW TIMBERLINE DR","PORTLAND","OR","97225"
"SAINT PAUL'S PARISH OF OREGON CITY OREGON","DOMESTIC NONPROFIT CORPORATION","822 WASHINGTON ST","OREGON CITY","OR","97045"
"SAINT PAUL'S PARISH OF OREGON CITY OREGON","DOMESTIC NONPROFIT CORPORATION","2227 MATTERHORN CT","WEST LINN","OR","97068"
"SAINT PAUL'S PARISH OF OREGON CITY OREGON","DOMESTIC NONPROFIT CORPORATION","822 WASHINGTON ST","OREGON CITY","OR","97045"
"SAINT PAUL'S PARISH OF OREGON CITY OREGON","DOMESTIC NONPROFIT CORPORATION","812 WASHINGTON ST","OREGON CITY","OR","97045"
"SAINT PAUL'S PARISH OF OREGON CITY OREGON","DOMESTIC NONPROFIT CORPORATION","14404 WEBSTER ROAD #210","MILWAUKIE","OR","97267"
"CHURCH OF CHRIST, COTTAGE GROVE, OREGON","DOMESTIC NONPROFIT CORPORATION","195 NORTH 6TH ST","COTTAGE GROVE","OR","97424"
"CHURCH OF CHRIST, COTTAGE GROVE, OREGON","DOMESTIC NONPROFIT CORPORATION","1513 JASON LEE","COTTAGE GROVE","OR","97424"
"CHURCH OF CHRIST, COTTAGE GROVE, OREGON","DOMESTIC NONPROFIT CORPORATION","195 N 6TH ST","COTTAGE GROVE","OR","97424"
"CHURCH OF CHRIST, COTTAGE GROVE, OREGON","DOMESTIC NONPROFIT CORPORATION","195 N 6TH ST","COTTAGE GROVE","OR","97424"
"CHURCH OF CHRIST, COTTAGE GROVE, OREGON","DOMESTIC NONPROFIT CORPORATION","80268 DELIGHT VALLEY SCHOOL RD","COTTAGE GROVE","OR","97424"
"MOUNT TABOR PRESBYTERIAN CHURCH OF PORTLAND","DOMESTIC NONPROFIT CORPORATION","5441 SE BELMONT ST","PORTLAND","OR","97215"
"MOUNT TABOR PRESBYTERIAN CHURCH OF PORTLAND","DOMESTIC NONPROFIT CORPORATION","19659 SOUTH CREEK RD","OREGON CITY","OR","97045"
"MOUNT TABOR PRESBYTERIAN CHURCH OF PORTLAND","DOMESTIC NONPROFIT CORPORATION","5441 SE BELMONT ST","PORTLAND","OR","97215"
"MOUNT TABOR PRESBYTERIAN CHURCH OF PORTLAND","DOMESTIC NONPROFIT CORPORATION","4307 NE BRAZEE ST","PORTLAND","OR","97213"
"MOUNT TABOR PRESBYTERIAN CHURCH OF PORTLAND","DOMESTIC NONPROFIT CORPORATION","PO 33142","PORTLAND","OR","97292"
"HAINES UNITED METHODIST CHURCH","DOMESTIC NONPROFIT CORPORATION","ATTN: SUSAN TRIPLETT","HAINES","OR","97833"
"HAINES UNITED METHODIST CHURCH","DOMESTIC NONPROFIT CORPORATION","3205 CARTER ST","BAKER CITY","OR","97814"
"HAINES UNITED METHODIST CHURCH","DOMESTIC NONPROFIT CORPORATION","AHINES UMC","HAINES","OR","97833"
"HAINES UNITED METHODIST CHURCH","DOMESTIC NONPROFIT CORPORATION","15477 SKY RANCH LANE","HAINES","OR","97833"
"HAINES UNITED METHODIST CHURCH","DOMESTIC NONPROFIT CORPORATION","PO BOX 181","HAINES","OR","97833"
"THE FIRST COVENANT CHURCH OF PORTLAND, OREGON","DOMESTIC NONPROFIT CORPORATION","107 NE 45TH AVE","PORTLAND","OR","97213"
"THE FIRST COVENANT CHURCH OF PORTLAND, OREGON","DOMESTIC NONPROFIT CORPORATION","107 NE 45TH","PORTLAND","OR","97213"
"THE FIRST COVENANT CHURCH OF PORTLAND, OREGON","DOMESTIC NONPROFIT CORPORATION","107 NE 45TH AVE","PORTLAND","OR","97213"
"THE FIRST COVENANT CHURCH OF PORTLAND, OREGON","DOMESTIC NONPROFIT CORPORATION","107 NE 45TH","PORTLAND","OR","97213"
"THE FIRST COVENANT CHURCH OF PORTLAND, OREGON","DOMESTIC NONPROFIT CORPORATION","107 NE 45TH AVE","PORTLAND","OR","97213"
"MARION FRIENDS CHURCH","DOMESTIC NONPROFIT CORPORATION","5997 STAYTON RD SE","TURNER","OR","97392"
"MARION FRIENDS CHURCH","DOMESTIC NONPROFIT CORPORATION","5602 LIPSCOMB ST SE","SALEM","OR","97317"
"MARION FRIENDS CHURCH","DOMESTIC NONPROFIT CORPORATION","5997 STAYTON RD SE","TURNER","OR","97392"
"MARION FRIENDS CHURCH","DOMESTIC NONPROFIT CORPORATION","MARION FRIENDS CHURCH","TURNER","OR","97392"
"MARION FRIENDS CHURCH","DOMESTIC NONPROFIT CORPORATION","6308 STAYTON RD SE","TURNER","OR","97392"
"GRACE BAPTIST CHURCH OF PORTLAND, OREGON","DOMESTIC NONPROFIT CORPORATION","200 SE 76TH AVE","PORTLAND","OR","97215"
"GRACE BAPTIST CHURCH OF PORTLAND, OREGON","DOMESTIC NONPROFIT CORPORATION","8602 NE GLISAN ST","PORTLAND","OR","97220"
"GRACE BAPTIST CHURCH OF PORTLAND, OREGON","DOMESTIC NONPROFIT CORPORATION","200 SE 76TH AVE","PORTLAND","OR","97215"
"GRACE BAPTIST CHURCH OF PORTLAND, OREGON","DOMESTIC NONPROFIT CORPORATION","8602 NE GLISAN ST","PORTLAND","OR","97220"
"GRACE BAPTIST CHURCH OF PORTLAND, OREGON","DOMESTIC NONPROFIT CORPORATION","19011 SE TICKLE CREEK","BORING","OR","97009"
"YAMHILL-CARLTON PIONEER MEMORIAL CEMETERY ASSOCIATION","DOMESTIC NONPROFIT CORPORATION","4481 NW MCLOUGHLIN DR","YAMHILL","OR","97148"
"YAMHILL-CARLTON PIONEER MEMORIAL CEMETERY ASSOCIATION","DOMESTIC NONPROFIT CORPORATION","19200 NE WOODLAND LOOP","YAMHILL","OR","97148"
"YAMHILL-CARLTON PIONEER MEMORIAL CEMETERY ASSOCIATION","DOMESTIC NONPROFIT CORPORATION","19200 NE WOODLAND LOOP RD","YAMHILL","OR","97148"
"YAMHILL-CARLTON PIONEER MEMORIAL CEMETERY ASSOCIATION","DOMESTIC NONPROFIT CORPORATION","19200 NE WOODLAND LOOP RD","YAMHILL","OR","97148"
"CORNELIUS UNITED METHODIST CHURCH","DOMESTIC NONPROFIT CORPORATION","PO BOX 466","CORNELIUS","OR","97113"
"CORNELIUS UNITED METHODIST CHURCH","DOMESTIC NONPROFIT CORPORATION","1500 S BEECH ST","CORNELIUS","OR","97113"
"CORNELIUS UNITED METHODIST CHURCH","DOMESTIC NONPROFIT CORPORATION","1095 S BEECH ST","CORNELIUS","OR","97113"
"CORNELIUS UNITED METHODIST CHURCH","DOMESTIC NONPROFIT CORPORATION","465 S 19TH PL","CORNELIUS","OR","97113"
"CORNELIUS UNITED METHODIST CHURCH","DOMESTIC NONPROFIT CORPORATION","1497 S ALPINE","CORNELIUS","OR","97113"
"THE FIRST UNITED METHODIST CHURCH OF EUGENE, OREGON","DOMESTIC NONPROFIT CORPORATION","PO BOX 5369","EUGENE","OR","97405"
"THE FIRST UNITED METHODIST CHURCH OF EUGENE, OREGON","DOMESTIC NONPROFIT CORPORATION","986 BROOKSIDE DR","EUGENE","OR","97405"
"THE FIRST UNITED METHODIST CHURCH OF EUGENE, OREGON","DOMESTIC NONPROFIT CORPORATION","1376 OLIVE ST","EUGENE","OR","97401"
"THE FIRST UNITED METHODIST CHURCH OF EUGENE, OREGON","DOMESTIC NONPROFIT CORPORATION","1376 OLIVE ST","EUGENE","OR","97401"
"THE FIRST UNITED METHODIST CHURCH OF EUGENE, OREGON","DOMESTIC NONPROFIT CORPORATION","2643 ALMADEN","EUGENE","OR","97405"
"FIRST CHRISTIAN CHURCH OF CANBY, OREGON","DOMESTIC NONPROFIT CORPORATION","444 N HOLLY","CANBY","OR","97013"
"FIRST CHRISTIAN CHURCH OF CANBY, OREGON","DOMESTIC NONPROFIT CORPORATION","1475 N HAZELNUT CT","CANBY","OR","97013"
"FIRST CHRISTIAN CHURCH OF CANBY, OREGON","DOMESTIC NONPROFIT CORPORATION","444 N HOLLY","CANBY","OR","97013"
"FIRST CHRISTIAN CHURCH OF CANBY, OREGON","DOMESTIC NONPROFIT CORPORATION","444 N HOLLY","CANBY","OR","97013"
"FIRST CHRISTIAN CHURCH OF CANBY, OREGON","DOMESTIC NONPROFIT CORPORATION","7391 S LONE ELDER RD","CANBY","OR","97013"
"FIRST CONGREGATIONAL CHURCH OF THE UNITED CHURCH OF CHRIST","DOMESTIC NONPROFIT CORPORATION","700 MARION ST NE","SALEM","OR","97301"
"FIRST CONGREGATIONAL CHURCH OF THE UNITED CHURCH OF CHRIST","DOMESTIC NONPROFIT CORPORATION","700 MARION ST NE","SALEM","OR","97301"
"FIRST CONGREGATIONAL CHURCH OF THE UNITED CHURCH OF CHRIST","DOMESTIC NONPROFIT CORPORATION","700 MARION ST NE","SALEM","OR","97301"
"FIRST CONGREGATIONAL CHURCH OF THE UNITED CHURCH OF CHRIST","DOMESTIC NONPROFIT CORPORATION","700 MARION ST NE","SALEM","OR","97301"
"FIRST CONGREGATIONAL CHURCH OF THE UNITED CHURCH OF CHRIST","DOMESTIC NONPROFIT CORPORATION","700 MARION ST NE","SALEM","OR","97301"
"MONMOUTH CHRISTIAN CHURCH","DOMESTIC NONPROFIT CORPORATION","959 CHURCH STREET W","MONMOUTH","OR","97361"
"MONMOUTH CHRISTIAN CHURCH","DOMESTIC NONPROFIT CORPORATION","959 CHURCH ST W","MONMOUTH","OR","97361"
"MONMOUTH CHRISTIAN CHURCH","DOMESTIC NONPROFIT CORPORATION","959 CHURCH ST W","MONMOUTH","OR","97361"
"MONMOUTH CHRISTIAN CHURCH","DOMESTIC NONPROFIT CORPORATION","959 CHURCH ST W","MONMOUTH","OR","97361"
"MONMOUTH CHRISTIAN CHURCH","DOMESTIC NONPROFIT CORPORATION","959 CHURCH ST W","MONMOUTH","OR","97361"
"PROVIDENCE VINEYARD","DOMESTIC NONPROFIT CORPORATION","35787 RICHARDSON GAP RD","SCIO","OR","97374"
"PROVIDENCE VINEYARD","DOMESTIC NONPROFIT CORPORATION","42342 FISH HATCHERY DR","SCIO","OR","97374"
"PROVIDENCE VINEYARD","DOMESTIC NONPROFIT CORPORATION","35787 RICHARDSON GAP RD","SCIO","OR","97374"
"PROVIDENCE VINEYARD","DOMESTIC NONPROFIT CORPORATION","38764 NE ASH ST","SCIO","OR","97374"
"PROVIDENCE VINEYARD","DOMESTIC NONPROFIT CORPORATION","38727 HUNGRY HILL RD","SCIO","OR","97374"
"ZOAR EVANGELICAL LUTHERAN CHURCH OF CANBY, CLACKAMAS COUNTY, OREGON","DOMESTIC NONPROFIT CORPORATION","190 SW THIRD AVE","CANBY","OR","97013"
"ZOAR EVANGELICAL LUTHERAN CHURCH OF CANBY, CLACKAMAS COUNTY, OREGON","DOMESTIC NONPROFIT CORPORATION","11697 S SALMONBERRY DR","OREGON CITY","OR","97045"
"ZOAR EVANGELICAL LUTHERAN CHURCH OF CANBY, CLACKAMAS COUNTY, OREGON","DOMESTIC NONPROFIT CORPORATION","190 SW THIRD AVE","CANBY","OR","97013"
"ZOAR EVANGELICAL LUTHERAN CHURCH OF CANBY, CLACKAMAS COUNTY, OREGON","DOMESTIC NONPROFIT CORPORATION","27700 S OGLESBY RD","CANBY","OR","97013"
"ZOAR EVANGELICAL LUTHERAN CHURCH OF CANBY, CLACKAMAS COUNTY, OREGON","DOMESTIC NONPROFIT CORPORATION","368 SE 16TH AVE","CANBY","OR","97013"
"SVENSKA SALLSKAPET LINNEA","DOMESTIC NONPROFIT CORPORATION","PO BOX 3401","PORTLAND","OR","97208"
"SVENSKA SALLSKAPET LINNEA","DOMESTIC NONPROFIT CORPORATION","15660 SE CIELO ST","DAMASCUS","OR","97089"
"SVENSKA SALLSKAPET LINNEA","DOMESTIC NONPROFIT CORPORATION","111 NE 11TH AVE","PORTLAND","OR","97232"
"SVENSKA SALLSKAPET LINNEA","DOMESTIC NONPROFIT CORPORATION","1911 SE 26TH","PORTLAND","OR","97214"
"SVENSKA SALLSKAPET LINNEA","DOMESTIC NONPROFIT CORPORATION","230 NE 56TH AVE","PORTLAND","OR","97213"
"THE BUTTEVILLE CEMETERY ASSOCIATION OF BUTTEVILLE, OREGON","DOMESTIC NONPROFIT CORPORATION","BERNADINE CROCO","LEBANON","OR","97355"
"THE BUTTEVILLE CEMETERY ASSOCIATION OF BUTTEVILLE, OREGON","DOMESTIC NONPROFIT CORPORATION","1828 SW 6TH AVE","CAMAS","WA","98607"
"THE BUTTEVILLE CEMETERY ASSOCIATION OF BUTTEVILLE, OREGON","DOMESTIC NONPROFIT CORPORATION","SCHULTZ RD","AURORA","OR","97002"
"THE BUTTEVILLE CEMETERY ASSOCIATION OF BUTTEVILLE, OREGON","DOMESTIC NONPROFIT CORPORATION","875 WEST D ST","LEBANON","OR","97355"
"THE BUTTEVILLE CEMETERY ASSOCIATION OF BUTTEVILLE, OREGON","DOMESTIC NONPROFIT CORPORATION","23746 1ST NE BUTTERVILLE","AURORA","OR","97002"
"FIRST CHRISTIAN CHURCH OF JUNCTION CITY OREGON","DOMESTIC NONPROFIT CORPORATION","1250 NYSSA ST","JUNCTION CITY","OR","97448"
"FIRST CHRISTIAN CHURCH OF JUNCTION CITY OREGON","DOMESTIC NONPROFIT CORPORATION","4626 MARSHALL AVE","EUGENE","OR","97402"
"FIRST CHRISTIAN CHURCH OF JUNCTION CITY OREGON","DOMESTIC NONPROFIT CORPORATION","1250 NYSSA ST","JUNCTION CITY","OR","97448"
"FIRST CHRISTIAN CHURCH OF JUNCTION CITY OREGON","DOMESTIC NONPROFIT CORPORATION","1171 OAK ST","JUNCTION CITY","OR","97448"
"FIRST CHRISTIAN CHURCH OF JUNCTION CITY OREGON","DOMESTIC NONPROFIT CORPORATION","1210 ROSE ST","JUNCTION CITY","OR","97448"
"HELMET LODGE NO. 33 KNIGHTS OF PYTHIAS","DOMESTIC NONPROFIT CORPORATION","420 W 12TH AVE","EUGENE","OR","97401"
"HELMET LODGE NO. 33 KNIGHTS OF PYTHIAS","DOMESTIC NONPROFIT CORPORATION","602 ARGON AVE","EUGENE","OR","97404"
"HELMET LODGE NO. 33 KNIGHTS OF PYTHIAS","DOMESTIC NONPROFIT CORPORATION","420 W 12TH AVE","EUGENE","OR","97401"
"HELMET LODGE NO. 33 KNIGHTS OF PYTHIAS","DOMESTIC NONPROFIT CORPORATION","602 ARGON AVE","EUGENE","OR","97404"
"HELMET LODGE NO. 33 KNIGHTS OF PYTHIAS","DOMESTIC NONPROFIT CORPORATION","1705 BRYANT CT","COTTAGE GROVE","OR","97424"
"NORTHWEST YEARLY MEETING OF FRIENDS CHURCH","DOMESTIC NONPROFIT CORPORATION","200 N MERIDIAN ST","NEWBERG","OR","97132"
"NORTHWEST YEARLY MEETING OF FRIENDS CHURCH","DOMESTIC NONPROFIT CORPORATION","200 N MERIDIAN ST","NEWBERG","OR","97132"
"NORTHWEST YEARLY MEETING OF FRIENDS CHURCH","DOMESTIC NONPROFIT CORPORATION","200 N MERIDIAN ST","NEWBERG","OR","97132"
"NORTHWEST YEARLY MEETING OF FRIENDS CHURCH","DOMESTIC NONPROFIT CORPORATION","200 N MERIDIAN ST","NEWBERG","OR","97132"
