"registry_number","business_name","entity_type","nonprofit_type","address","address_continued","city","state","zip_code"
"23109697","HELIX ADVANCEMENT PARTNERSHIP NETWORK","DOMESTIC NONPROFIT CORPORATION","PUBLIC BENEFIT","46269 HUDEMAN RD",,"ADAMS","OR","97810"
"188619796","WILD HORSE GRANGE INCORPORATED","DOMESTIC NONPROFIT CORPORATION","PUBLIC BENEFIT","49054 MIDWAY RD",,"ADAMS","OR","97810"
"34080994","OWYHEE WATERSHED COUNCIL","DOMESTIC NONPROFIT CORPORATION","PUBLIC BENEFIT","106 OWYHEE ST",,"ADRIAN","OR","97901"
"160734191","ADRIAN 2040","DOMESTIC NONPROFIT CORPORATION","PUBLIC BENEFIT","647 RUSSET RD",,"ADRIAN","OR","97901"
"8005688","AGNESS COMMUNITY LIBRARY ASSOCIATION","DOMESTIC NONPROFIT CORPORATION","PUBLIC BENEFIT","03925 COUGAR LANE",,"AGNESS","OR","97406"
"5463112","BOYS & GIRLS CLUB OF ALBANY","DOMESTIC NONPROFIT CORPORATION","PUBLIC BENEFIT","1215 HILL ST SE",,"ALBANY","OR","97322"
"5856018","UNITED WAY OF LINN, BENTON AND LINCOLN COUNTIES","DOMESTIC NONPROFIT CORPORATION","PUBLIC BENEFIT","1127 HILL ST SE",,"ALBANY","OR","97321"
"7182215","KNOX BUTTE CEMETARY ASSOCIATION, INC.","DOMESTIC NONPROFIT CORPORATION","PUBLIC BENEFIT","1113 HILL ST SE STE H",,"ALBANY","OR","97322"
"9436015","ALBANY BOYS & GIRLS CLUB FOUNDATION, INC.","DOMESTIC NONPROFIT CORPORATION","PUBLIC BENEFIT","2650 NE TUSCAN LN",,"ALBANY","OR","97321"
"11157211","FISH OF ALBANY, INC.","DOMESTIC NONPROFIT CORPORATION","PUBLIC BENEFIT","1035 SE 2ND AVE",,"ALBANY","OR","97321"
"13111018","POWELL CEMETERY ASSOCIATION INC.","DOMESTIC NONPROFIT CORPORATION","PUBLIC BENEFIT","997 EDGEWOOD DR NW",,"ALBANY","OR","97321"
"13169610","THE CHAMBERLIN HOUSE, INC.","DOMESTIC NONPROFIT CORPORATION","PUBLIC BENEFIT","421 WATER AVE NE","STE 2300","ALBANY","OR","97321"
"14778419","CHRISTMAS STORYBOOK LAND, INC.","DOMESTIC NONPROFIT CORPORATION","PUBLIC BENEFIT","3136 QUAIL AVE SE",,"ALBANY","OR","97322"
"20410312","ALBANY PUBLIC SCHOOLS FOUNDATION","DOMESTIC NONPROFIT CORPORATION","PUBLIC BENEFIT","130 W 1ST AVE",,"ALBANY","OR","97321"
"7859382","CASA OF LINN COUNTY, INC.","DOMESTIC NONPROFIT CORPORATION","PUBLIC BENEFIT","100 CALAPOOIA ST SW",,"ALBANY","OR","97321"
"9135583","WREN COMMUNITY CEMETERY ASSOCIATION, INC","DOMESTIC NONPROFIT CORPORATION","PUBLIC BENEFIT","5346 ERMINE ST SE",,"ALBANY","OR","97322"
"13043187","THE COMMUNITY AFTER-SCHOOL PROGRAM","DOMESTIC NONPROFIT CORPORATION","PUBLIC BENEFIT","250 BROADALBIN SW STE 255",,"ALBANY","OR","97321"
"14602387","HISTORIC CAROUSEL AND MUSEUM","DOMESTIC NONPROFIT CORPORATION","PUBLIC BENEFIT","503 1ST AVE W",,"ALBANY","OR","97321"
"21878988","ALBANY MENNONITE HOME/VILLAGE FOUNDATION, INC.","DOMESTIC NONPROFIT CORPORATION","PUBLIC BENEFIT","5353 COLUMBUS STREET SE",,"ALBANY","OR","97322"
"28561488","SWEET HOME ALUMNI FOUNDATION","DOMESTIC NONPROFIT CORPORATION","PUBLIC BENEFIT","35959 EICHER RD SE",,"ALBANY","OR","97322"
"29985686","THE ALBANY PUBLIC LIBRARY FOUNDATION","DOMESTIC NONPROFIT CORPORATION","PUBLIC BENEFIT","732 BROADALBIN SW",,"ALBANY","OR","97321"
"31996283","ALBANY AREA HABITAT FOR HUMANITY","DOMESTIC NONPROFIT CORPORATION","PUBLIC BENEFIT","130 WEST 1ST AVE",,"ALBANY","OR","97321"
"31996283","ALBANY AREA HABITAT FOR HUMANITY","DOMESTIC NONPROFIT CORPORATION","PUBLIC BENEFIT","130 WEST 1ST AVE",,"ALBANY","OR","97321"
"31996283","ALBANY AREA HABITAT FOR HUMANITY","DOMESTIC NONPROFIT CORPORATION","PUBLIC BENEFIT","130 WEST 1ST AVE",,"ALBANY","OR","97321"
"31996283","ALBANY AREA HABITAT FOR HUMANITY","DOMESTIC NONPROFIT CORPORATION","PUBLIC BENEFIT","130 WEST 1ST AVE",,"ALBANY","OR","97321"
"31996283","ALBANY AREA HABITAT FOR HUMANITY","DOMESTIC NONPROFIT CORPORATION","PUBLIC BENEFIT","130 WEST 1ST AVE",,"ALBANY","OR","97321"
"31996283","ALBANY AREA HABITAT FOR HUMANITY","DOMESTIC NONPROFIT CORPORATION","PUBLIC BENEFIT","130 WEST 1ST AVE",,"ALBANY","OR","97321"
"31996283","ALBANY AREA HABITAT FOR HUMANITY","DOMESTIC NONPROFIT CORPORATION","PUBLIC BENEFIT","130 WEST 1ST AVE",,"ALBANY","OR","97321"
"31996283","ALBANY AREA HABITAT FOR HUMANITY","DOMESTIC NONPROFIT CORPORATION","PUBLIC BENEFIT","130 WEST 1ST AVE",,"ALBANY","OR","97321"
"32242083","ALBANY PARTNERSHIP FOR HOUSING AND COMMUNITY DEVELOPMENT","DOMESTIC NONPROFIT CORPORATION","PUBLIC BENEFIT","130 1ST AVE W",,"ALBANY","OR","97321"
"43867688","ABC HOUSE, INC","DOMESTIC NONPROFIT CORPORATION","PUBLIC BENEFIT","100 CALAPOOIA ST SW","PO BOX 983","ALBANY","OR","97321"
"43867688","ABC HOUSE, INC","DOMESTIC NONPROFIT CORPORATION","PUBLIC BENEFIT","100 CALAPOOIA ST SW","PO BOX 983","ALBANY","OR","97321"
"43867688","ABC HOUSE, INC","DOMESTIC NONPROFIT CORPORATION","PUBLIC BENEFIT","100 CALAPOOIA ST SW","PO BOX 983","ALBANY","OR","97321"
"43867688","ABC HOUSE, INC","DOMESTIC NONPROFIT CORPORATION","PUBLIC BENEFIT","100 CALAPOOIA ST SW","PO BOX 983","ALBANY","OR","97321"
"48354880","LINN COUNTY VICTIM IMPACT PANEL, INC.","DOMESTIC NONPROFIT CORPORATION","PUBLIC BENEFIT","300 4TH AVE SW LINN COUNTY COURTHOUSE","2600 SW PACIFIC BOULEVARD","ALBANY","OR","97321"
"55640883","FRIENDS OF LINN COUNTY","DOMESTIC NONPROFIT CORPORATION","PUBLIC BENEFIT","30680 HORSESHOE DR SW",,"ALBANY","OR","97321"
"57430382","CAMP ATTITUDE, OREGON, INC.","DOMESTIC NONPROFIT CORPORATION","PUBLIC BENEFIT","1320 NW THORN DR",,"ALBANY","OR","97321"
"58143380","SWEET HOME COMMUNITY FOUNDATION","DOMESTIC NONPROFIT CORPORATION","PUBLIC BENEFIT","2158 BURKHART ST SE",,"ALBANY","OR","97322"
"60085884","FETAL ALCOHOL SPECTRUM CONSULTATION, EDUCATION AND TRAINING SERVICES , INC.","DOMESTIC NONPROFIT CORPORATION","PUBLIC BENEFIT","4654 NW POWERS AVE",,"ALBANY","OR","97321"
"60478386","MARIO AND ALMA PASTEGA FAMILY FOUNDATION","DOMESTIC NONPROFIT CORPORATION","PUBLIC BENEFIT","1823 SPRINGHILL DR NE",,"ALBANY","OR","97321"
"60974384","CORVALLIS CARING PLACE","DOMESTIC NONPROFIT CORPORATION","PUBLIC BENEFIT","5353 COLUMBUS ST SE",,"ALBANY","OR","97322"
"65724685","MID-WILLAMETTE FAMILY YMCA FOUNDATION","DOMESTIC NONPROFIT CORPORATION","PUBLIC BENEFIT","3201 PACIFIC BLVD SW",,"ALBANY","OR","97321"
"74160780","BENTON FURNITURE SHARE","DOMESTIC NONPROFIT CORPORATION","PUBLIC BENEFIT","3160 SE 14TH AVE",,"ALBANY","OR","97322"
"74417883","EDUCARE AFRICA","DOMESTIC NONPROFIT CORPORATION","PUBLIC BENEFIT","100 CALAPOOIA ST SW",,"ALBANY","OR","97321"
"74417883","EDUCARE AFRICA","DOMESTIC NONPROFIT CORPORATION","PUBLIC BENEFIT","100 CALAPOOIA ST SW",,"ALBANY","OR","97321"
"74417883","EDUCARE AFRICA","DOMESTIC NONPROFIT CORPORATION","PUBLIC BENEFIT","100 CALAPOOIA ST SW",,"ALBANY","OR","97321"
"74417883","EDUCARE AFRICA","DOMESTIC NONPROFIT CORPORATION","PUBLIC BENEFIT","100 CALAPOOIA ST SW",,"ALBANY","OR","97321"
"317297","HEAD START IN LINCOLN COUNTY","DOMESTIC NONPROFIT CORPORATION","PUBLIC BENEFIT","250 SW BROADALBIN SUITE A",,"ALBANY","OR","97321"
"1573690","OREGON TURFGRASS FOUNDATION","DOMESTIC NONPROFIT CORPORATION","PUBLIC BENEFIT","3212 NW SPARKS AVE",,"ALBANY","OR","97321"
"5436993","WEST ALBANY SPORTS FOUNDATION","DOMESTIC NONPROFIT CORPORATION","PUBLIC BENEFIT","3212 NW SPARKS AVENUE",,"ALBANY","OR","97321"
"13460696","HOUSING, EMPLOYMENT & LEARNING PROGRAMS FOR SELF-SUFFICENCY","DOMESTIC NONPROFIT CORPORATION","PUBLIC BENEFIT","250 BROADALBIN ST SW STE 2A",,"ALBANY","OR","97321"
"15282593","WEST LANE CHARTER SCHOOL","DOMESTIC NONPROFIT CORPORATION","PUBLIC BENEFIT","436 1ST AVE W",,"ALBANY","OR","97321"
"17412792","FIRST CHRISTIAN CHURCH PREPRIMARY SCHOOL","DOMESTIC NONPROFIT CORPORATION","PUBLIC BENEFIT","100 CALAPOOIA ST SW",,"ALBANY","OR","97321"
"17412792","FIRST CHRISTIAN CHURCH PREPRIMARY SCHOOL","DOMESTIC NONPROFIT CORPORATION","PUBLIC BENEFIT","100 CALAPOOIA ST SW",,"ALBANY","OR","97321"
"17412792","FIRST CHRISTIAN CHURCH PREPRIMARY SCHOOL","DOMESTIC NONPROFIT CORPORATION","PUBLIC BENEFIT","100 CALAPOOIA ST SW",,"ALBANY","OR","97321"
"17412792","FIRST CHRISTIAN CHURCH PREPRIMARY SCHOOL","DOMESTIC NONPROFIT CORPORATION","PUBLIC BENEFIT","100 CALAPOOIA ST SW",,"ALBANY","OR","97321"
"18112292","K-9 HOMEFINDERS & RESCUE, INC.","DOMESTIC NONPROFIT CORPORATION","PUBLIC BENEFIT","34533 OAKVILLE RD SW",,"ALBANY","OR","97321"
"18536490","PARKSIDE COURT APARTMENTS","DOMESTIC NONPROFIT CORPORATION","PUBLIC BENEFIT","130 1ST AVE W",,"ALBANY","OR","97321"
"30010995","STRENGTHENING RURAL FAMILIES","DOMESTIC NONPROFIT CORPORATION","PUBLIC BENEFIT","5885 NESTUCCA AVE NE",,"ALBANY","OR","97321"
"31433790","LINN DRUG INTERVENTION PROGRAM, INC.","DOMESTIC NONPROFIT CORPORATION","PUBLIC BENEFIT","420 SW 3RD AVE STE 102",,"ALBANY","OR","97321"
"38379095","LINN COUNTY VETERANS MEMORIAL ASSOCIATION","DOMESTIC NONPROFIT CORPORATION","PUBLIC BENEFIT","1928 SPICER WAYSIDE",,"ALBANY","OR","97321"
"42453597","WEST ALBANY BULLDOG BOOSTER CLUB","DOMESTIC NONPROFIT CORPORATION","PUBLIC BENEFIT","2100 ELM ST SW",,"ALBANY","OR","97321"
"45928298","OAKVILLE YOUTH MEMORIAL SCHOLARSHIP FOUNDATION","DOMESTIC NONPROFIT CORPORATION","PUBLIC BENEFIT","201 W FIRST ST","PO BOX 40","ALBANY","OR","97321"
"46896296","LOVE INC OF LINN COUNTY","DOMESTIC NONPROFIT CORPORATION","PUBLIC BENEFIT","35656 OAKVILLE RD",,"ALBANY","OR","97321"
"54803698","LINN COUNTY CULTURAL COALITION","DOMESTIC NONPROFIT CORPORATION","PUBLIC BENEFIT","3010 FERRY ST SW",,"ALBANY","OR","97322"
"61887395","GLOBAL NUTRITION EMPOWERMENT","DOMESTIC NONPROFIT CORPORATION","PUBLIC BENEFIT","3025 NW HURLEYWOOD DR",,"ALBANY","OR","97321"
"69940097","THE JIREH PROJECT","DOMESTIC NONPROFIT CORPORATION","PUBLIC BENEFIT","6423 SEDONA RD",,"ALBANY","OR","97321"
"70009296","MERCY HOUSE INTERNATIONAL, INC.","DOMESTIC NONPROFIT CORPORATION","PUBLIC BENEFIT","411 2ND AVE SW",,"ALBANY","OR","97321"
"78006393","CASCADES WEST COMMUNITY DEVELOPMENT CORPORATION","DOMESTIC NONPROFIT CORPORATION","PUBLIC BENEFIT","C/O OCWCOG","1400 QUEEN AVENUE SE SUITE 201","ALBANY","OR","97322"
"79960291","BLUESUN, INC.","DOMESTIC NONPROFIT CORPORATION","PUBLIC BENEFIT","130 WEST 1ST AVE",,"ALBANY","OR","97321"
"83583790","NEW ROOTS HOUSING","DOMESTIC NONPROFIT CORPORATION","PUBLIC BENEFIT","1250 QUEEN AVE SE",,"ALBANY","OR","97322"
"86073294","VETS HELPING VETS HQ","DOMESTIC NONPROFIT CORPORATION","PUBLIC BENEFIT","237 SW 3RD AVE",,"ALBANY","OR","97321"
"91753997","WILLAMETTE COMMUNITY GARDENS","DOMESTIC NONPROFIT CORPORATION","PUBLIC BENEFIT","1088 FRONT AVE NE",,"ALBANY","OR","97321"
"95115391","CAREER TECH HIGH SCHOOL","DOMESTIC NONPROFIT CORPORATION","PUBLIC BENEFIT","250 BROADALBIN ST SW STE 2A",,"ALBANY","OR","97321"
"98581094","LINN DEFENDERS, INC.","DOMESTIC NONPROFIT CORPORATION","PUBLIC BENEFIT","EVASHEVSKI, ELLIOTT, CIHAK & HEDIGER, PC","100 CALAPOOIA ST SW","ALBANY","OR","97321"
"103026191","GOD'S HANDS REACHING HAITI","DOMESTIC NONPROFIT CORPORATION","PUBLIC BENEFIT","RYAN HAAN","130 W FIRST AVENUE","ALBANY","OR","97321"
"103026191","GOD'S HANDS REACHING HAITI","DOMESTIC NONPROFIT CORPORATION","PUBLIC BENEFIT","RYAN HAAN","130 W FIRST AVENUE","ALBANY","OR","97321"
"103026191","GOD'S HANDS REACHING HAITI","DOMESTIC NONPROFIT CORPORATION","PUBLIC BENEFIT","RYAN HAAN","130 W FIRST AVENUE","ALBANY","OR","97321"
"103026191","GOD'S HANDS REACHING HAITI","DOMESTIC NONPROFIT CORPORATION","PUBLIC BENEFIT","RYAN HAAN","130 W FIRST AVENUE","ALBANY","OR","97321"
"103026191","GOD'S HANDS REACHING HAITI","DOMESTIC NONPROFIT CORPORATION","PUBLIC BENEFIT","RYAN HAAN","130 W FIRST AVENUE","ALBANY","OR","97321"
"103026191","GOD'S HANDS REACHING HAITI","DOMESTIC NONPROFIT CORPORATION","PUBLIC BENEFIT","RYAN HAAN","130 W FIRST AVENUE","ALBANY","OR","97321"
"103026191","GOD'S HANDS REACHING HAITI","DOMESTIC NONPROFIT CORPORATION","PUBLIC BENEFIT","RYAN HAAN","130 W FIRST AVENUE","ALBANY","OR","97321"
"103026191","GOD'S HANDS REACHING HAITI","DOMESTIC NONPROFIT CORPORATION","PUBLIC BENEFIT","RYAN HAAN","130 W FIRST AVENUE","ALBANY","OR","97321"
"105426597","SOUTH WILLAMETTE VALLEY HONOR FLIGHT","DOMESTIC NONPROFIT CORPORATION","PUBLIC BENEFIT","2217 40TH AVE SE",,"ALBANY","OR","97322"
"108272790","HOPE INTERNATIONAL, INC.","DOMESTIC NONPROFIT CORPORATION","PUBLIC BENEFIT","917 19TH AVE SE","SUITE C","ALBANY","OR","97321"
"108636291","THE HAPPY CAT CLUB","DOMESTIC NONPROFIT CORPORATION","PUBLIC BENEFIT","3090 RAILROAD ST SE",,"ALBANY","OR","97322"
"109459099","NERDS ABROAD","DOMESTIC NONPROFIT CORPORATION","PUBLIC BENEFIT","1250 HILL ST SE",,"ALBANY","OR","97322"
"119112498","DORIS AND BILL SCHARPF FOUNDATION","DOMESTIC NONPROFIT CORPORATION","PUBLIC BENEFIT","920 ELM ST SW",,"ALBANY","OR","97321"
"120134192","TEA EVENTS PDX INC","DOMESTIC NONPROFIT CORPORATION","PUBLIC BENEFIT","2609 4TH AVE SE",,"ALBANY","OR","97321"
"121041990","ALBANY PARKS & RECREATION FOUNDATION","DOMESTIC NONPROFIT CORPORATION","PUBLIC BENEFIT","SCOTT COWGILL","130 FIRST AVENUE W","ALBANY","OR","97321"
"121041990","ALBANY PARKS & RECREATION FOUNDATION","DOMESTIC NONPROFIT CORPORATION","PUBLIC BENEFIT","SCOTT COWGILL","130 FIRST AVENUE W","ALBANY","OR","97321"
"121041990","ALBANY PARKS & RECREATION FOUNDATION","DOMESTIC NONPROFIT CORPORATION","PUBLIC BENEFIT","SCOTT COWGILL","130 FIRST AVENUE W","ALBANY","OR","97321"
"121041990","ALBANY PARKS & RECREATION FOUNDATION","DOMESTIC NONPROFIT CORPORATION","PUBLIC BENEFIT","SCOTT COWGILL","130 FIRST AVENUE W","ALBANY","OR","97321"
"121041990","ALBANY PARKS & RECREATION FOUNDATION","DOMESTIC NONPROFIT CORPORATION","PUBLIC BENEFIT","SCOTT COWGILL","130 FIRST AVENUE W","ALBANY","OR","97321"
"121041990","ALBANY PARKS & RECREATION FOUNDATION","DOMESTIC NONPROFIT CORPORATION","PUBLIC BENEFIT","SCOTT COWGILL","130 FIRST AVENUE W","ALBANY","OR","97321"
"121041990","ALBANY PARKS & RECREATION FOUNDATION","DOMESTIC NONPROFIT CORPORATION","PUBLIC BENEFIT","SCOTT COWGILL","130 FIRST AVENUE W","ALBANY","OR","97321"
"121041990","ALBANY PARKS & RECREATION FOUNDATION","DOMESTIC NONPROFIT CORPORATION","PUBLIC BENEFIT","SCOTT COWGILL","130 FIRST AVENUE W","ALBANY","OR","97321"
"123422198","ALBANY HEIGHTS HOMEOWNERS ASSOCIATION","DOMESTIC NONPROFIT CORPORATION","PUBLIC BENEFIT","1319 29TH AVE SE",,"ALBANY","OR","97322"
"130110893","ALBANY SAFETY FOUNDATION","DOMESTIC NONPROFIT CORPORATION","PUBLIC BENEFIT","2023 KODIAK AVE SW",,"ALBANY","OR","97321"
"130928591","CIVIL RIGHTS FOR SENIORS A NON-PROFIT CORPORATION","DOMESTIC NONPROFIT CORPORATION","PUBLIC BENEFIT","1640 BROADWAY ST SW",,"ALBANY","OR","97321"
"130271190","PRO NOSTALGIA DRAG RACING ASSOCIATION","DOMESTIC NONPROFIT CORPORATION","PUBLIC BENEFIT","2687 QUINCE ST NW",,"ALBANY","OR","97321"
"131890394","RYKERS FOUNDATION FOR POMPE DISEASE","DOMESTIC NONPROFIT CORPORATION","PUBLIC BENEFIT","2946 NE DRIFT CT",,"ALBANY","OR","97321"
"134512094","REGENERATIVE ROOTS","DOMESTIC NONPROFIT CORPORATION","PUBLIC BENEFIT","840 LAUREL PL NW",,"ALBANY","OR","97321"
"134863091","WILLAMETTE QUALITY CARE","DOMESTIC NONPROFIT CORPORATION","PUBLIC BENEFIT","2601 UMATILLA ST SW APT 3",,"ALBANY","OR","97321"
"137107496","RIDERS NEEDING ASSISTANCE","DOMESTIC NONPROFIT CORPORATION","PUBLIC BENEFIT","891 N POINTE DR NW",,"ALBANY","OR","97321"
"140595497","ELAKHA ALLIANCE","DOMESTIC NONPROFIT CORPORATION","PUBLIC BENEFIT","4184 CLAY PL SE",,"ALBANY","OR","97322"
"141437293","GINGLES CEMETERY ASSOCIATION","DOMESTIC NONPROFIT CORPORATION","PUBLIC BENEFIT","7682 NW SPRINGHILL DR",,"ALBANY","OR","97321"
"151543098","BYOG","DOMESTIC NONPROFIT CORPORATION","PUBLIC BENEFIT","560 FAIRMONT DR NE",,"ALBANY","OR","97322"
"152539392","CUMBERLAND COMMUNITY EVENTS CENTER","DOMESTIC NONPROFIT CORPORATION","PUBLIC BENEFIT","201 1ST AVE W",,"ALBANY","OR","97321"
"155061394","VILLAGE RESOURCES","DOMESTIC NONPROFIT CORPORATION","PUBLIC BENEFIT","5050 SE COLUMBUS #158",,"ALBANY","OR","97322"
"157583692","REDHAWKS FLIGHT CLUB, INC.","DOMESTIC NONPROFIT CORPORATION","PUBLIC BENEFIT","SCOTT G COWGILL","130 FIRST AVE W","ALBANY","OR","97321"
"157583692","REDHAWKS FLIGHT CLUB, INC.","DOMESTIC NONPROFIT CORPORATION","PUBLIC BENEFIT","SCOTT G COWGILL","130 FIRST AVE W","ALBANY","OR","97321"
"157583692","REDHAWKS FLIGHT CLUB, INC.","DOMESTIC NONPROFIT CORPORATION","PUBLIC BENEFIT","SCOTT G COWGILL","130 FIRST AVE W","ALBANY","OR","97321"
"157583692","REDHAWKS FLIGHT CLUB, INC.","DOMESTIC NONPROFIT CORPORATION","PUBLIC BENEFIT","SCOTT G COWGILL","130 FIRST AVE W","ALBANY","OR","97321"
"157583692","REDHAWKS FLIGHT CLUB, INC.","DOMESTIC NONPROFIT CORPORATION","PUBLIC BENEFIT","SCOTT G COWGILL","130 FIRST AVE W","ALBANY","OR","97321"
"157583692","REDHAWKS FLIGHT CLUB, INC.","DOMESTIC NONPROFIT CORPORATION","PUBLIC BENEFIT","SCOTT G COWGILL","130 FIRST AVE W","ALBANY","OR","97321"
"157583692","REDHAWKS FLIGHT CLUB, INC.","DOMESTIC NONPROFIT CORPORATION","PUBLIC BENEFIT","SCOTT G COWGILL","130 FIRST AVE W","ALBANY","OR","97321"
"157583692","REDHAWKS FLIGHT CLUB, INC.","DOMESTIC NONPROFIT CORPORATION","PUBLIC BENEFIT","SCOTT G COWGILL","130 FIRST AVE W","ALBANY","OR","97321"
"159309690","LINN ECONOMIC DEVELOPMENT GROUP","DOMESTIC NONPROFIT CORPORATION","PUBLIC BENEFIT","321 1ST AVE E STE 3A",,"ALBANY","OR","97321"
"162391990","YOUNG ROOTS OREGON","DOMESTIC NONPROFIT CORPORATION","PUBLIC BENEFIT","1216 33RD AVE SE",,"ALBANY","OR","97322"
"170199393","THE LORD'S PORTER","DOMESTIC NONPROFIT CORPORATION","PUBLIC BENEFIT","2660 IMPERIAL DRIVE NW",,"ALBANY","OR","97321"
"171936397","DAM WORTH IT COMPANY","DOMESTIC NONPROFIT CORPORATION","PUBLIC BENEFIT","130 1ST AVENUE WEST",,"ALBANY","OR","97321"
"172992993","ACCOUNT-ABILITY OREGON","DOMESTIC NONPROFIT CORPORATION","PUBLIC BENEFIT","3875 DOGWOOD AVE SE",,"ALBANY","OR","97322"
"173640690","HGOF CHARITABLE ACTION","DOMESTIC NONPROFIT CORPORATION","PUBLIC BENEFIT","212 1ST AVE SE # 100",,"ALBANY","OR","97321"
"180940398","THE COMFORT & JOY PROJECT","DOMESTIC NONPROFIT CORPORATION","PUBLIC BENEFIT","C/O AMVETS","1215 PACIFIC BLVD SE","ALBANY","OR","97321"
"181962797","PERLENFEIN FAMILY FOUNDATION","DOMESTIC NONPROFIT CORPORATION","PUBLIC BENEFIT","631 KOUNS DR NW",,"ALBANY","OR","97321"
"182284399","RISE ABOVE THE DISORDER","DOMESTIC NONPROFIT CORPORATION","PUBLIC BENEFIT","314 CASTING ST SE",,"ALBANY","OR","97322"
"185513398","RESTORE AMERICA ONE LIFE AT A TIME INC","DOMESTIC NONPROFIT CORPORATION","PUBLIC BENEFIT","2225 SE PACIFIC BLVD","SUITE 107","ALBANY","OR","97321"
"188777198","HANGING WITH THE FELLAS","DOMESTIC NONPROFIT CORPORATION","PUBLIC BENEFIT","889 MEADOW CT NE",,"ALBANY","OR","97322"
"192854991","VALENCIA COOPER SECOND CHANCE OPPORTUNITY SCHOLARSHIP AWARD INC.","DOMESTIC NONPROFIT CORPORATION","PUBLIC BENEFIT","100 CALAPOOIA ST SW",,"ALBANY","OR","97321"
"192854991","VALENCIA COOPER SECOND CHANCE OPPORTUNITY SCHOLARSHIP AWARD INC.","DOMESTIC NONPROFIT CORPORATION","PUBLIC BENEFIT","100 CALAPOOIA ST SW",,"ALBANY","OR","97321"
"192854991","VALENCIA COOPER SECOND CHANCE OPPORTUNITY SCHOLARSHIP AWARD INC.","DOMESTIC NONPROFIT CORPORATION","PUBLIC BENEFIT","100 CALAPOOIA ST SW",,"ALBANY","OR","97321"
"192854991","VALENCIA COOPER SECOND CHANCE OPPORTUNITY SCHOLARSHIP AWARD INC.","DOMESTIC NONPROFIT CORPORATION","PUBLIC BENEFIT","100 CALAPOOIA ST SW",,"ALBANY","OR","97321"
"6231211","IMAGINE POSSIBILITIES, INC.","DOMESTIC NONPROFIT CORPORATION","PUBLIC BENEFIT","4450 SW 184TH",,"ALOHA","OR","97007"
"10518918","EDWARDS CENTER, INC.","DOMESTIC NONPROFIT CORPORATION","PUBLIC BENEFIT","4375 SW EDWARDS PL",,"ALOHA","OR","97078"
"22780985","ALOHA HIGH BOOSTER CLUB, INC.","DOMESTIC NONPROFIT CORPORATION","PUBLIC BENEFIT","18550 SW KINNAMAN RD",,"ALOHA","OR","97007"
"45718285","SHERIFF'S OFFICE FOUNDATION OF WASHINGTON COUNTY, OREGON","DOMESTIC NONPROFIT CORPORATION","PUBLIC BENEFIT","18525 SW VINCENT STREET",,"ALOHA","OR","97007"
"54727483","FAMILIES FOR INDEPENDENT LIVING","DOMESTIC NONPROFIT CORPORATION","PUBLIC BENEFIT","17900 SW FRANCES ST",,"ALOHA","OR","97006"
"57581788","MACWILLIAMS FAMILY FOUNDATION","DOMESTIC NONPROFIT CORPORATION","PUBLIC BENEFIT","20145 SW NANCY LANE",,"ALOHA","OR","97007"
"71998281","SWEDISH ROOTS IN OREGON","DOMESTIC NONPROFIT CORPORATION","PUBLIC BENEFIT","7639 SW CRISP DRIVE",,"ALOHA","OR","97007"
"25516196","CENTURY COMMUNITY FOOTBALL","DOMESTIC NONPROFIT CORPORATION","PUBLIC BENEFIT","19890 SW PIKE STREET",,"ALOHA","OR","97078"
"30372296","DAYTIME ENRICHMENT ACTIVITIES & RECREATION, INC.","DOMESTIC NONPROFIT CORPORATION","PUBLIC BENEFIT","17900 SW FRANCES STREET",,"ALOHA","OR","97003"
"51235498","ASIAN EDUCATION FOUNDATION","DOMESTIC NONPROFIT CORPORATION","PUBLIC BENEFIT","7472 SW 195TH PL",,"ALOHA","OR","97007"
"72713697","OREGON STATE BUTTON SOCIETY","DOMESTIC NONPROFIT CORPORATION","PUBLIC BENEFIT","21147 SW DANA CT.",,"ALOHA","OR","97003"
"108506296","ALOHA WARRIORS SOFTBALL","DOMESTIC NONPROFIT CORPORATION","PUBLIC BENEFIT","19886 SW SONIA LN",,"ALOHA","OR","97007"
"110205598","ALOHA COMMUNITY FARMERS MARKET","DOMESTIC NONPROFIT CORPORATION","PUBLIC BENEFIT","19890 SW PIKE ST",,"ALOHA","OR","97078"
"113696892","MARLEE V FUND","DOMESTIC NONPROFIT CORPORATION","PUBLIC BENEFIT","21845 SW YORK ST",,"ALOHA","OR","97003"
"116273798","HILLSBORO YOUTH USA SOFTBALL","DOMESTIC NONPROFIT CORPORATION","PUBLIC BENEFIT","20522 SW LYON COURT",,"ALOHA","OR","97078"
"127165298","ALOHA BREEZE SOFTBALL-COMBS","DOMESTIC NONPROFIT CORPORATION","PUBLIC BENEFIT","20522 SW LYON CT",,"ALOHA","OR","97078"
"168379395","ROSE CITY RABBIT RESCUE","DOMESTIC NONPROFIT CORPORATION","PUBLIC BENEFIT","5250 SW 197TH AVENUE",,"ALOHA","OR","97078"
"180110190","OUTDOOR RECREATIONAL CONQUEST","DOMESTIC NONPROFIT CORPORATION","PUBLIC BENEFIT","4647 SW MASTERS LOOP APT 146",,"ALOHA","OR","97078"
"187809497","THE FLIP MUSEUM INC.","DOMESTIC NONPROFIT CORPORATION","PUBLIC BENEFIT","18525 SW VINCENT ST",,"ALOHA","OR","97078"
"193778090","NORTHWEST BASEBALL ASSOCIATION","DOMESTIC NONPROFIT CORPORATION","PUBLIC BENEFIT","19523 SW ALDERWOOD COURT",,"ALOHA","OR","97003"
"6340715","THE CLEMENS FOUNDATION","DOMESTIC NONPROFIT CORPORATION","PUBLIC BENEFIT","386 E ALDER ST",,"ALSEA","OR","97324"
"14253710","ALSEA RURAL HEALTH CARE INC.","DOMESTIC NONPROFIT CORPORATION","PUBLIC BENEFIT","26421 FUDGE RD",,"ALSEA","OR","97324"
"51258789","ALSEA COMMUNITY EFFORT","DOMESTIC NONPROFIT CORPORATION","PUBLIC BENEFIT","27329 ALSEA HWY",,"ALSEA","OR","97324"
"177994390","ALSEA HISTORICAL SOCIETY","DOMESTIC NONPROFIT CORPORATION","PUBLIC BENEFIT","19752 SHANGRILA LN",,"ALSEA","OR","97324"
"64570485","AMITY SCHOOL DISTRICT FOUNDATION","DOMESTIC NONPROFIT CORPORATION","PUBLIC BENEFIT","807 TRADE STREET",,"AMITY","OR","97101"
"36362796","EOLA HILLS CHARTER SCHOOL","DOMESTIC NONPROFIT CORPORATION","PUBLIC BENEFIT","9015 COMMUNITY CLUB RD",,"AMITY","OR","97101"
"126515691","AMITY WARRIORS YOUTH FASTPITCH","DOMESTIC NONPROFIT CORPORATION","PUBLIC BENEFIT","803 GOUCHER ST",,"AMITY","OR","97101"
"132095894","AMITY VOLLEYBALL CLUB","DOMESTIC NONPROFIT CORPORATION","PUBLIC BENEFIT","8228 SE EOLA HILLS ROAD",,"AMITY","OR","97101"
"171372494","AMITY TRACK CLUB","DOMESTIC NONPROFIT CORPORATION","PUBLIC BENEFIT","8228 SE EOLA HILLS RD",,"AMITY","OR","97101"
"53872280","ROGUE VALLEY FOOD SYSTEM NETWORK","DOMESTIC NONPROFIT CORPORATION","PUBLIC BENEFIT","4311 THOMPSON CREEK RD",,"APPLEGATE","OR","97530"
"8564684","NORTH COAST LAND CONSERVANCY, INC.","DOMESTIC NONPROFIT CORPORATION","PUBLIC BENEFIT","32042 E SHINGLE MILL LN",,"ARCH CAPE","OR","97102"
"56344683","LOWER NEHALEM WATERSHED COUNCIL","DOMESTIC NONPROFIT CORPORATION","PUBLIC BENEFIT","80285 WOODLAND HEIGHTS RD",,"ARCH CAPE","OR","97102"
"9951690","COLUMBIA HILLS MANOR, INC.","DOMESTIC NONPROFIT CORPORATION","PUBLIC BENEFIT","1500 MAIN",,"ARLINGTON","OR","97812"
"13555495","ARLINGTON CHILD CARE CENTER","DOMESTIC NONPROFIT CORPORATION","PUBLIC BENEFIT","PO BOX 598","1115 W FIFTH","ARLINGTON","OR","97812"
"77985191","ARLINGTON COMMUNITY CHARTER SCHOOL","DOMESTIC NONPROFIT CORPORATION","PUBLIC BENEFIT","1200 MAIN ST",,"ARLINGTON","OR","97812"
"88598496","ARLINGTON COMMUNITY PRESCHOOL","DOMESTIC NONPROFIT CORPORATION","PUBLIC BENEFIT","1290 MAIN STREET",,"ARLINGTON","OR","97812"
"117048991","ARLINGTON EDUCATION FOUNDATION","DOMESTIC NONPROFIT CORPORATION","PUBLIC BENEFIT","14957 HERITAGE LN",,"ARLINGTON","OR","97812"
"3978913","OREGON SHAKESPEARE FESTIVAL ASSOCIATION","DOMESTIC NONPROFIT CORPORATION","PUBLIC BENEFIT","15 S PIONEER ST",,"ASHLAND","OR","97520"
"6135610","SOUTHERN OREGON UNIVERSITY FOUNDATION","DOMESTIC NONPROFIT CORPORATION","PUBLIC BENEFIT","1250 SISKIYOU BLVD",,"ASHLAND","OR","97520"
"7862618","OREGON SHAKESPEARE FESTIVAL ENDOWMENT FUND","DOMESTIC NONPROFIT CORPORATION","PUBLIC BENEFIT","15 S PIONEER ST",,"ASHLAND","OR","97520"
"8192916","ROGUE VALLEY SYMPHONY ASSOCIATION","DOMESTIC NONPROFIT CORPORATION","PUBLIC BENEFIT","33 N FIRST ST STE 1",,"ASHLAND","OR","97520"
"10586410","LIVING OPPORTUNITIES, INCORPORATED","DOMESTIC NONPROFIT CORPORATION","PUBLIC BENEFIT","747 NORMAL AVE",,"ASHLAND","OR","97520"
"11265618","GEOS INSTITUTE","DOMESTIC NONPROFIT CORPORATION","PUBLIC BENEFIT","2007 MAE ST",,"ASHLAND","OR","97520"
"12055612","ASHLAND COMMUNITY HOSPITAL FOUNDATION","DOMESTIC NONPROFIT CORPORATION","PUBLIC BENEFIT","123 CLEAR CREEK DRIVE STE 101",,"ASHLAND","OR","97520"
"14856413","FRED A. TAYLER MEMORIAL FOUNDATION","DOMESTIC NONPROFIT CORPORATION","PUBLIC BENEFIT","7696 HYATT PRAIRIE RD","PO BOX 820","ASHLAND","OR","97520"
"15702012","ASHLAND SUPPORTIVE HOUSING AND COMMUNITY OUTREACH, INC.","DOMESTIC NONPROFIT CORPORATION","PUBLIC BENEFIT","693B WASHINGTON ST",,"ASHLAND","OR","97520"
"16495517","PEACE HOUSE","DOMESTIC NONPROFIT CORPORATION","PUBLIC BENEFIT","923 PLUM RIDGE DR",,"ASHLAND","OR","97520"
"21041512","SODA MOUNTAIN WILDERNESS COUNCIL","DOMESTIC NONPROFIT CORPORATION","PUBLIC BENEFIT","15187 HWY 66",,"ASHLAND","OR","97520"
"13849583","COLESTIN RURAL FIRE DISTRICT","DOMESTIC NONPROFIT CORPORATION","PUBLIC BENEFIT","1701 COLESTIN RD",,"ASHLAND","OR","97520"
"14764781","WESTERN INTERNATIONAL BAND CLINIC","DOMESTIC NONPROFIT CORPORATION","PUBLIC BENEFIT","407 TERRACE ST",,"ASHLAND","OR","97520"
"15444789","KIWANIS YOUTH FOUNDATION OF SOUTHERN OREGON, INC.","DOMESTIC NONPROFIT CORPORATION","PUBLIC BENEFIT","525 E MAIN ST",,"ASHLAND","OR","97520"
"15837883","ASHLAND SCHOOLS FOUNDATION","DOMESTIC NONPROFIT CORPORATION","PUBLIC BENEFIT","100 WALKER AVE",,"ASHLAND","OR","97520"
"20963286","RESOLVE CENTER FOR DISPUTE RESOLUTION AND RESTORATIVE JUSTICE","DOMESTIC NONPROFIT CORPORATION","PUBLIC BENEFIT","345 MAPLE ST",,"ASHLAND","OR","97520"
"24795882","ASHLAND COMMUNITY THEATRE, INC.","DOMESTIC NONPROFIT CORPORATION","PUBLIC BENEFIT","570 FAITH AVE",,"ASHLAND","OR","97520"
"29430089","MT. ASHLAND ASSOCIATION","DOMESTIC NONPROFIT CORPORATION","PUBLIC BENEFIT","693 WASHINGTON ST STE A",,"ASHLAND","OR","97520"
"30068886","THE ELMER C. BIEGEL FAMILY MEMORIAL FOUNDATION","DOMESTIC NONPROFIT CORPORATION","PUBLIC BENEFIT","7696 HYATT PRAIRIE RD","PO BOX 820","ASHLAND","OR","97520"
"42341388","ASHLAND PARKS FOUNDATION","DOMESTIC NONPROFIT CORPORATION","PUBLIC BENEFIT","340 S PIONEER ST",,"ASHLAND","OR","97520"
"42740084","ASHLAND WATER POLO","DOMESTIC NONPROFIT CORPORATION","PUBLIC BENEFIT","2693 TAKELMA WAY",,"ASHLAND","OR","97520"
"48909188","MULTICULTURAL ASSOCIATION OF SOUTHERN OREGON","DOMESTIC NONPROFIT CORPORATION","PUBLIC BENEFIT","1650 SUNSET ST",,"ASHLAND","OR","97520"
"53593282","THE PINEHURST SCHOOL FOUNDATION","DOMESTIC NONPROFIT CORPORATION","PUBLIC BENEFIT","2697 CLAY CREEK WAY",,"ASHLAND","OR","97520"
"55863485","JEFFERSON BAROQUE ORCHESTRA, INC.","DOMESTIC NONPROFIT CORPORATION","PUBLIC BENEFIT","4882 HIGHWAY 66",,"ASHLAND","OR","97520"
"60678381","THE WILL M. AND MARGARET DODGE MEMORIAL FOUNDATION","DOMESTIC NONPROFIT CORPORATION","PUBLIC BENEFIT","7696 HYATT PRAIRIE RD","PO BOX 820","ASHLAND","OR","97520"
"63663588","KLAMATH SISKIYOU WILDLANDS CENTER","DOMESTIC NONPROFIT CORPORATION","PUBLIC BENEFIT","562 A STREET",,"ASHLAND","OR","97520"
"66426884","DHANAKOSHA FOUNDATION","DOMESTIC NONPROFIT CORPORATION","PUBLIC BENEFIT","108 NEPAL RD",,"ASHLAND","OR","97520"
"66551780","THE DOMESTIC VIOLENCE FOUNDATION","DOMESTIC NONPROFIT CORPORATION","PUBLIC BENEFIT","59 MANZANITA",,"ASHLAND","OR","97520"
"67525981","LEGACY FOUNDATION","DOMESTIC NONPROFIT CORPORATION","PUBLIC BENEFIT","44 SCENIC DR",,"ASHLAND","OR","97520"
"69542687","SOUTHERN OREGON FILM SOCIETY","DOMESTIC NONPROFIT CORPORATION","PUBLIC BENEFIT","389 E MAIN ST",,"ASHLAND","OR","97520"
"72010581","ENERGY MEDICINE INSTITUTE","DOMESTIC NONPROFIT CORPORATION","PUBLIC BENEFIT","777 E MAIN ST",,"ASHLAND","OR","97520"
"73352883","ARMADILLO TECHNICAL INSTITUTE","DOMESTIC NONPROFIT CORPORATION","PUBLIC BENEFIT","351 AVERY ST",,"ASHLAND","OR","97520"
"75072885","KLAMATH BIRD OBSERVATORY","DOMESTIC NONPROFIT CORPORATION","PUBLIC BENEFIT","2425 SISKIYOU BLVD",,"ASHLAND","OR","97520"
"75497082","SCIENCEWORKS HANDS-ON MUSEUM","DOMESTIC NONPROFIT CORPORATION","PUBLIC BENEFIT","1500 E MAIN ST",,"ASHLAND","OR","97520"
"76465484","FOUNDATION FOR THE LAW OF TIME","DOMESTIC NONPROFIT CORPORATION","PUBLIC BENEFIT","2090 CREEK DR",,"ASHLAND","OR","97520"
"708594","ROGUE VALLEY FARM TO SCHOOL","DOMESTIC NONPROFIT CORPORATION","PUBLIC BENEFIT","223 5TH STREET",,"ASHLAND","OR","97520"
"4591293","ASHLAND EMERGENCY FOOD BANK","DOMESTIC NONPROFIT CORPORATION","PUBLIC BENEFIT","560 CLOVER LN","PO BOX 3578","ASHLAND","OR","97520"
"11004397","OREGON STAGE WORKS, INC.","DOMESTIC NONPROFIT CORPORATION","PUBLIC BENEFIT","191 A ST",,"ASHLAND","OR","97520"
"11690799","ASHLAND SCHOOL OF ENVIRONMENTAL TECHNOLOGY","DOMESTIC NONPROFIT CORPORATION","PUBLIC BENEFIT","1080 PLEASANT WAY",,"ASHLAND","OR","97520"
"19035799","SISKIYOU CULTURAL ARTS INSTITUTE","DOMESTIC NONPROFIT CORPORATION","PUBLIC BENEFIT","192 ORANGE AVE",,"ASHLAND","OR","97520"
"19093897","MEDFORD AMERICAN LITTLE LEAGUE, INC.","DOMESTIC NONPROFIT CORPORATION","PUBLIC BENEFIT","628 CROWSON RD",,"ASHLAND","OR","97520"
"22109193","JACKSON COUNTY SART","DOMESTIC NONPROFIT CORPORATION","PUBLIC BENEFIT","43 MORNINGLIGHT DR",,"ASHLAND","OR","97520"
"22528194","SISKIYOU FIELD INSTITUTE","DOMESTIC NONPROFIT CORPORATION","PUBLIC BENEFIT","596 HELMAN",,"ASHLAND","OR","97520"
"23506090","THE CENTER FOR SOCIAL ECOLOGY AND PUBLIC POLICY","DOMESTIC NONPROFIT CORPORATION","PUBLIC BENEFIT","256 SIXTH ST",,"ASHLAND","OR","97520"
"23940794","THE JEFFERSON CENTER","DOMESTIC NONPROFIT CORPORATION","PUBLIC BENEFIT","1160 FERN ST",,"ASHLAND","OR","97520"
"24083099","LONG WAY HOME","DOMESTIC NONPROFIT CORPORATION","PUBLIC BENEFIT","227 W HERSEY ST",,"ASHLAND","OR","97520"
"24230997","DISABLED UNITED IN DIRECT EMPOWERMENT","DOMESTIC NONPROFIT CORPORATION","PUBLIC BENEFIT","805 GLENDALE AVE",,"ASHLAND","OR","97520"
"23764194","JEFFERSON COMMUNICATIONS COUNCIL","DOMESTIC NONPROFIT CORPORATION","PUBLIC BENEFIT","311 SHERIDAN ST",,"ASHLAND","OR","97520"
"27217496","THE MEDERI FOUNDATION","DOMESTIC NONPROFIT CORPORATION","PUBLIC BENEFIT","1945 ASHLAND MINE RD",,"ASHLAND","OR","97520"
"27814995","ARTNOW","DOMESTIC NONPROFIT CORPORATION","PUBLIC BENEFIT","15 NORTH MAIN ST",,"ASHLAND","OR","97520"
"29640596","SECOND STREET MUSICIANS, INC.","DOMESTIC NONPROFIT CORPORATION","PUBLIC BENEFIT","1500 SISKIYOU BLVD",,"ASHLAND","OR","97520"
"33385899","ASHLAND ART WORKS","DOMESTIC NONPROFIT CORPORATION","PUBLIC BENEFIT","2165 BIRCHWOOD",,"ASHLAND","OR","97520"
"41736497","SISKIYOU OUT BACK TRAIL RUN","DOMESTIC NONPROFIT CORPORATION","PUBLIC BENEFIT","255 GRANITE ST",,"ASHLAND","OR","97520"
"42615690","ALAN AND PRISCILLA OPPENHEIMER FOUNDATION","DOMESTIC NONPROFIT CORPORATION","PUBLIC BENEFIT","110 S LAUREL ST",,"ASHLAND","OR","97520"
"49245699","NATIVES OF ONE WIND INDIGENOUS ALLIANCE","DOMESTIC NONPROFIT CORPORATION","PUBLIC BENEFIT","320 HIGH STREET #1",,"ASHLAND","OR","97520"
"49280191","LEELA FOUNDATION","DOMESTIC NONPROFIT CORPORATION","PUBLIC BENEFIT","542 WASHINGTON ST STE 104",,"ASHLAND","OR","97520"
"53448495","PATRICIA ZOLINE FAMILY FOUNDATION","DOMESTIC NONPROFIT CORPORATION","PUBLIC BENEFIT","240 NUTLEY ST",,"ASHLAND","OR","97520"
"57617293","ROTARY CLUB OF ROGUE VALLEY AFTER FIVE","DOMESTIC NONPROFIT CORPORATION","PUBLIC BENEFIT","560 REITEN DR",,"ASHLAND","OR","97520"
"61594892","ASHLAND NEW PLAYS FESTIVAL","DOMESTIC NONPROFIT CORPORATION","PUBLIC BENEFIT","251 OTIS STREET","ATTN KATE WOLF-PIZOR SECRETARY","ASHLAND","OR","97520"
"69766997","ASHLAND FOOTBALL CLUB","DOMESTIC NONPROFIT CORPORATION","PUBLIC BENEFIT","450 SISKIYOU BLVD STE 5",,"ASHLAND","OR","97520"
"69945898","UBUNTUWORKS PEACE EDUCATION PROJECT","DOMESTIC NONPROFIT CORPORATION","PUBLIC BENEFIT","2026 ASHLAND MINE RD",,"ASHLAND","OR","97520"
"70223095","SISKIYOU MOUNTAIN CLUB","DOMESTIC NONPROFIT CORPORATION","PUBLIC BENEFIT","#7","33 N 3RD ST","ASHLAND","OR","97520"
"73239197","EYES TO BURMA","DOMESTIC NONPROFIT CORPORATION","PUBLIC BENEFIT","709 WASHINGTON ST",,"ASHLAND","OR","97520"
"74599599","ASHLAND AT HOME","DOMESTIC NONPROFIT CORPORATION","PUBLIC BENEFIT","1289 MUNSON DR",,"ASHLAND","OR","97520"
"74829897","BEE GIRL","DOMESTIC NONPROFIT CORPORATION","PUBLIC BENEFIT","285 WIGHTMAN ST",,"ASHLAND","OR","97520"
"75095795","KAPI'OANUENUE","DOMESTIC NONPROFIT CORPORATION","PUBLIC BENEFIT","44 SCHOFIELD ST",,"ASHLAND","OR","97520"
"75327396","SO PRIDE","DOMESTIC NONPROFIT CORPORATION","PUBLIC BENEFIT","2180 BRICHWOOD LANE",,"ASHLAND","OR","97520"
"75849795","SOUTHERN OREGON TIME BANK","DOMESTIC NONPROFIT CORPORATION","PUBLIC BENEFIT","2940 OLD HWY 99 S",,"ASHLAND","OR","97520"
"77127299","HOLOENERGETIC HEALING FOUNDATION","DOMESTIC NONPROFIT CORPORATION","PUBLIC BENEFIT","1106 PARADISE LN",,"ASHLAND","OR","97520"
"77991397","GREENSPRINGS LEARNING COMMUNITY","DOMESTIC NONPROFIT CORPORATION","PUBLIC BENEFIT","15097 HIGHWAY 66",,"ASHLAND","OR","97520"
"79154895","ASHLAND YOUTH BASEBALL","DOMESTIC NONPROFIT CORPORATION","PUBLIC BENEFIT","1228 ROSE LN",,"ASHLAND","OR","97520"
"79729894","THE NEIGHBORHOOD FOOD PROJECT, INC.","DOMESTIC NONPROFIT CORPORATION","PUBLIC BENEFIT","219 ALMOND ST",,"ASHLAND","OR","97520"
"85012392","MEDFORD UNITED FUTBOL CLUB","DOMESTIC NONPROFIT CORPORATION","PUBLIC BENEFIT","2305 ASHLAND ST",,"ASHLAND","OR","97520"
"86389690","OPTIONS FOR HOMELESS RESIDENTS OF ASHLAND","DOMESTIC NONPROFIT CORPORATION","PUBLIC BENEFIT","611 SISKIYOU BLVD #4",,"ASHLAND","OR","97520"
"88259297","ASHLAND FOOD ANGELS","DOMESTIC NONPROFIT CORPORATION","PUBLIC BENEFIT","472 WALKER AVE",,"ASHLAND","OR","97520"
"89742598","ASHLAND HIGH ARTS ADVOCATES","DOMESTIC NONPROFIT CORPORATION","PUBLIC BENEFIT","201 S MOUNTAIN AVE",,"ASHLAND","OR","97520"
"92933697","EQUAMORE FOUNDATION","DOMESTIC NONPROFIT CORPORATION","PUBLIC BENEFIT","4723 HIGHWAY 66",,"ASHLAND","OR","97520"
"101853497","BIODIVERSITY RESEARCH COLLECTIVE","DOMESTIC NONPROFIT CORPORATION","PUBLIC BENEFIT","324 AVERY STREET",,"ASHLAND","OR","97520"
"104407697","PERINATAL RESCUE NETWORK","DOMESTIC NONPROFIT CORPORATION","PUBLIC BENEFIT","416 WIMER ST",,"ASHLAND","OR","97520"
"104690599","SHARKEY FOUNDATION","DOMESTIC NONPROFIT CORPORATION","PUBLIC BENEFIT","21 SOUTH SECOND STREET",,"ASHLAND","OR","97520"
"104774591","JEFFERSON STATE CHORAL COALITION","DOMESTIC NONPROFIT CORPORATION","PUBLIC BENEFIT","12621 DEAD INDIAN MEMORIAL RD",,"ASHLAND","OR","97520"
"104985494","TLC TRANSITIONAL LIFE CARE","DOMESTIC NONPROFIT CORPORATION","PUBLIC BENEFIT","6744 HIGHWAY 66",,"ASHLAND","OR","97520"
"105067193","THE QUEPASANA FOUNDATION","DOMESTIC NONPROFIT CORPORATION","PUBLIC BENEFIT","10880 CORP RANCH ROAD",,"ASHLAND","OR","97520"
"108611492","BRAVA! OPERA THEATER","DOMESTIC NONPROFIT CORPORATION","PUBLIC BENEFIT","2048 HYATT PRAIRIE RD",,"ASHLAND","OR","97520"
"110478294","POST GROWTH INSTITUTE","DOMESTIC NONPROFIT CORPORATION","PUBLIC BENEFIT","7583 HWY 66",,"ASHLAND","OR","97520"
"110809597","ACTION RELIEF SERVICES","DOMESTIC NONPROFIT CORPORATION","PUBLIC BENEFIT","465 W NEVADA ST",,"ASHLAND","OR","97520"
"112874995","MUSICA MATRIX INC.","DOMESTIC NONPROFIT CORPORATION","PUBLIC BENEFIT","194 LOGAN DR",,"ASHLAND","OR","97520"
"113885099","CASCADE GIRL","DOMESTIC NONPROFIT CORPORATION","PUBLIC BENEFIT","208 OAK STREET #112",,"ASHLAND","OR","97520"
"114047095","WATCHABLE WILDLIFE FOUNDATION, INC.","DOMESTIC NONPROFIT CORPORATION","PUBLIC BENEFIT","987 B ST",,"ASHLAND","OR","97520"
"114314594","COLLABORATIVE THEATRE PROJECT, INC.","DOMESTIC NONPROFIT CORPORATION","PUBLIC BENEFIT","486 BEACH ST",,"ASHLAND","OR","97520"
"115693798","COMMUNITY COUNSELING CENTER OF ASHLAND","DOMESTIC NONPROFIT CORPORATION","PUBLIC BENEFIT","600 SISKIYOU BLVD",,"ASHLAND","OR","97520"
"116292699","AAUW ASHLAND","DOMESTIC NONPROFIT CORPORATION","PUBLIC BENEFIT","WALSH TAX SERVICES","663 A ST","ASHLAND","OR","97520"
"118163591","THE KARL LADUE WODAKOTA FOUNDATION","DOMESTIC NONPROFIT CORPORATION","PUBLIC BENEFIT","320 HIGH ST UNIT 1",,"ASHLAND","OR","97520"
"119241891","FOR THE LOVE OF CODY","DOMESTIC NONPROFIT CORPORATION","PUBLIC BENEFIT","1021 HIAWATHA PL",,"ASHLAND","OR","97520"
"119326197","OREGON CANNABIS EDUCATION AND RESOURCE CENTER INC.","DOMESTIC NONPROFIT CORPORATION","PUBLIC BENEFIT","850 BESWICK WAY",,"ASHLAND","OR","97520"
"119884294","OPEN FLOOR COMMUNITY BALLROOM ASSOCIATION","DOMESTIC NONPROFIT CORPORATION","PUBLIC BENEFIT","1252 OLD WILLOW LANE",,"ASHLAND","OR","97520"
"120653399","PACIFIC RIM BOWL","DOMESTIC NONPROFIT CORPORATION","PUBLIC BENEFIT","450 SISKIYOU BLVD STE 5",,"ASHLAND","OR","97520"
"120860994","LIVIA GENISE PRODUCTIONS","DOMESTIC NONPROFIT CORPORATION","PUBLIC BENEFIT","840 OAK KNOLL DRIVE",,"ASHLAND","OR","97520"
"122575491","PITBULLS AND PROFESSIONALS INCORPORATED","DOMESTIC NONPROFIT CORPORATION","PUBLIC BENEFIT","212 VISTA STREET",,"ASHLAND","OR","97520"
"123356396","FRONTIER GIRLS TROOP #348","DOMESTIC NONPROFIT CORPORATION","PUBLIC BENEFIT","3005 HIGHWAY 66",,"ASHLAND","OR","97520"
"124321795","VISION QUILT","DOMESTIC NONPROFIT CORPORATION","PUBLIC BENEFIT","1067 EMIGRANT CREEK RD",,"ASHLAND","OR","97520"
"124389891","CENTER FOR THE NEW NORTHWEST","DOMESTIC NONPROFIT CORPORATION","PUBLIC BENEFIT","115 NOB HILL STREET",,"ASHLAND","OR","97520"
"125142091","CULTURE OF PEACE COMMISSIONS","DOMESTIC NONPROFIT CORPORATION","PUBLIC BENEFIT","2560 EAGLE CREEK LN",,"ASHLAND","OR","97520"
"125445692","SOUTHERN OREGON CONTRA DANCE","DOMESTIC NONPROFIT CORPORATION","PUBLIC BENEFIT","1995 TOLMAN CREEK RD",,"ASHLAND","OR","97520"
"125132290","AMAHORO CHILDREN & COMMUNITY TEAM","DOMESTIC NONPROFIT CORPORATION","PUBLIC BENEFIT","1845 DRAGON FLY LN",,"ASHLAND","OR","97520"
"126078997","HEARTISAN FOUNDATION","DOMESTIC NONPROFIT CORPORATION","PUBLIC BENEFIT","1106 PARADISE LN",,"ASHLAND","OR","97520"
"127313096","SOUTHERN OREGON GEOCACHING","DOMESTIC NONPROFIT CORPORATION","PUBLIC BENEFIT","96 WIGHTMAN STREET APT 3",,"ASHLAND","OR","97520"
"127572097","DEVELOPMENT LEAGUE OF SOUTHERN OREGON","DOMESTIC NONPROFIT CORPORATION","PUBLIC BENEFIT","552 B ST",,"ASHLAND","OR","97520"
"128452992","PAM MARSH FOR OREGON","DOMESTIC NONPROFIT CORPORATION","PUBLIC BENEFIT","642 OAK ST",,"ASHLAND","OR","97520"
"129557591","ASHLAND CHILDREN'S THEATRE","DOMESTIC NONPROFIT CORPORATION","PUBLIC BENEFIT","240 VAN NESS AVE",,"ASHLAND","OR","97520"
"133416693","TOYMAKERS OF ASHLAND","DOMESTIC NONPROFIT CORPORATION","PUBLIC BENEFIT","841 BESWICK WAY",,"ASHLAND","OR","97520"
"141510198","RIDING BEYOND","DOMESTIC NONPROFIT CORPORATION","PUBLIC BENEFIT","864 PEROZZI",,"ASHLAND","OR","97520"
"143319390","MOUNTAIN MEADOWS COMMUNITY FOUNDATION, INC.","DOMESTIC NONPROFIT CORPORATION","PUBLIC BENEFIT","583 NANDINA ST",,"ASHLAND","OR","97520"
"144371390","OREGON EXTENSION","DOMESTIC NONPROFIT CORPORATION","PUBLIC BENEFIT","15097 HWY 66",,"ASHLAND","OR","97520"
"145016697","FOLKSOUL FARM","DOMESTIC NONPROFIT CORPORATION","PUBLIC BENEFIT","624 W VALLEY VIEW RD",,"ASHLAND","OR","97520"
"145725099","PLAY ON SHAKESPEARE","DOMESTIC NONPROFIT CORPORATION","PUBLIC BENEFIT","450 SISKIYOU BLVD","SUITE 3","ASHLAND","OR","97520"
"148976798","KEEPING ALL WOMEN SAFE K.A.W.S.","DOMESTIC NONPROFIT CORPORATION","PUBLIC BENEFIT","635 LIT WAY",,"ASHLAND","OR","97520"
"149298994","ASHLAND FOLK COLLECTIVE","DOMESTIC NONPROFIT CORPORATION","PUBLIC BENEFIT","188 CENTRAL AVE",,"ASHLAND","OR","97520"
"149505497","ILLEGAL THE PROJECT","DOMESTIC NONPROFIT CORPORATION","PUBLIC BENEFIT","604 FAIR OAKS COURT",,"ASHLAND","OR","97520"
"152380797","HEALTH RESEARCH INSTITUTE","DOMESTIC NONPROFIT CORPORATION","PUBLIC BENEFIT","1639 JACKSON ROAD",,"ASHLAND","OR","97520"
"155817092","ASHLAND DEVO","DOMESTIC NONPROFIT CORPORATION","PUBLIC BENEFIT","315 RANDY ST",,"ASHLAND","OR","97520"
"156605298","FRIENDS OF JACK DORR","DOMESTIC NONPROFIT CORPORATION","PUBLIC BENEFIT","1024 PARK ST",,"ASHLAND","OR","97520"
"156552995","PARKER HOUSE PROJECT","DOMESTIC NONPROFIT CORPORATION","PUBLIC BENEFIT","1433 BUTLER CREEK RD",,"ASHLAND","OR","97520"
"159129791","VIDA LIBRE","DOMESTIC NONPROFIT CORPORATION","PUBLIC BENEFIT","267 PALM AVE",,"ASHLAND","OR","97520"
"159890798","FRIENDS OF CATHEDRAL TREES SANCTUARY","DOMESTIC NONPROFIT CORPORATION","PUBLIC BENEFIT","309 HILLCREST ST",,"ASHLAND","OR","97520"
"159954495","WITH LOVE","DOMESTIC NONPROFIT CORPORATION","PUBLIC BENEFIT","730 LIBERTY ST",,"ASHLAND","OR","97520"
"161464491","CIRCLE FAITH FUTURE","DOMESTIC NONPROFIT CORPORATION","PUBLIC BENEFIT","669 PRIM ST",,"ASHLAND","OR","97520"
"161846499","THE ASHLAND FOOD PROJECT","DOMESTIC NONPROFIT CORPORATION","PUBLIC BENEFIT","140 SUSAN LANE",,"ASHLAND","OR","97520"
"163445696","SOUTHERN OREGON JOBS WITH JUSTICE","DOMESTIC NONPROFIT CORPORATION","PUBLIC BENEFIT","1 CORRAL LN UNIT 52",,"ASHLAND","OR","97520"
"164840796","GOLDEN RULE REENTRY","DOMESTIC NONPROFIT CORPORATION","PUBLIC BENEFIT","2305 ASHLAND ST # C-350",,"ASHLAND","OR","97520"
"166420399","EMERGING FUTURES NETWORK","DOMESTIC NONPROFIT CORPORATION","PUBLIC BENEFIT","1080 PLEASANT WAY",,"ASHLAND","OR","97520"
"167547299","GLOBAL FORCE FOR HEALING","DOMESTIC NONPROFIT CORPORATION","PUBLIC BENEFIT","1209 ORCHID ST",,"ASHLAND","OR","97520"
"166978099","THE ASHLAND CHRONICLE CORPORATION","DOMESTIC NONPROFIT CORPORATION","PUBLIC BENEFIT","893 PLUM RIDGE DR",,"ASHLAND","OR","97520"
"168078096","THANGTONG GYALPO INSTITUTE","DOMESTIC NONPROFIT CORPORATION","PUBLIC BENEFIT","1985 COLESTIN RD",,"ASHLAND","OR","97520"
"169334597","LOCAL INNOVATION WORKS","DOMESTIC NONPROFIT CORPORATION","PUBLIC BENEFIT","123 N WIGHTMAN ST",,"ASHLAND","OR","97520"
"169385193","ARTS AND ECOLOGY INSTITUTE","DOMESTIC NONPROFIT CORPORATION","PUBLIC BENEFIT","40 GRANITE ST APT 6",,"ASHLAND","OR","97520"
"169634392","ASHLAND JR. GRIZZLIES","DOMESTIC NONPROFIT CORPORATION","PUBLIC BENEFIT","267 MEADOW DR",,"ASHLAND","OR","97520"
"171287098","BE THE CHANGE ROGUE","DOMESTIC NONPROFIT CORPORATION","PUBLIC BENEFIT","798 OAK STREET",,"ASHLAND","OR","97520"
"172191190","ROGUE FOOD UNITES","DOMESTIC NONPROFIT CORPORATION","PUBLIC BENEFIT","567 WALKER AVE",,"ASHLAND","OR","97520"
"172636293","RE-CREATE RE-COVERY, INC","DOMESTIC NONPROFIT CORPORATION","PUBLIC BENEFIT","459 WILLOW ST",,"ASHLAND","OR","97520"
"172735590","FRESH START FOUNDATION INC.","DOMESTIC NONPROFIT CORPORATION","PUBLIC BENEFIT","64 LINCOLN ST",,"ASHLAND","OR","97520"
"173616294","NEW EARTH CENTRAL INC","DOMESTIC NONPROFIT CORPORATION","PUBLIC BENEFIT","2172 BIRCHWOOD LN",,"ASHLAND","OR","97520"
"174555590","CASCADE BUILDERS ASSOCIATION","DOMESTIC NONPROFIT CORPORATION","PUBLIC BENEFIT","484 NEIL CREEK RD",,"ASHLAND","OR","97520"
"180727993","DUNN RANCH CENTER FOR FOOD AND AGRICULTURE","DOMESTIC NONPROFIT CORPORATION","PUBLIC BENEFIT","4424 HWY 66",,"ASHLAND","OR","97520"
"183267690","ELECTRIFY ASHLAND","DOMESTIC NONPROFIT CORPORATION","PUBLIC BENEFIT","880 GLENDOWER ST",,"ASHLAND","OR","97520"
"183720094","ASHLAND.NEWS","DOMESTIC NONPROFIT CORPORATION","PUBLIC BENEFIT","564 LIBERTY ST",,"ASHLAND","OR","97520"
"184688498","LEGACY EARTHKEEPERS ACADEMY OF PERMACULTURE","DOMESTIC NONPROFIT CORPORATION","PUBLIC BENEFIT","219 W HERSEY ST",,"ASHLAND","OR","97520"
"185660397","WOMEN WHO HAVE YOUR BACK (WWHYB)","DOMESTIC NONPROFIT CORPORATION","PUBLIC BENEFIT","325 STONERIDGE AVE",,"ASHLAND","OR","97520"
"186389699","WILD ROOTS COMMUNITY CENTER","DOMESTIC NONPROFIT CORPORATION","PUBLIC BENEFIT","3000 BUCKHORN SPRINGS ROAD",,"ASHLAND","OR","97520"
"187517991","FUTURE FORWARD, INC.","DOMESTIC NONPROFIT CORPORATION","PUBLIC BENEFIT","702 PRIM ST",,"ASHLAND","OR","97520"
"190689597","JIM TEECE & DENA MATTHEWS FOUNDATION","DOMESTIC NONPROFIT CORPORATION","PUBLIC BENEFIT","864 NEIL CREEK RD",,"ASHLAND","OR","97520"
"189396998","ASHLAND CLIMATE COLLABORATIVE","DOMESTIC NONPROFIT CORPORATION","PUBLIC BENEFIT","333 HIGH ST",,"ASHLAND","OR","97520"
"194618097","HOLISTIC EDUCATION REVIEW JOURNAL","DOMESTIC NONPROFIT CORPORATION","PUBLIC BENEFIT","575 REITEN DR",,"ASHLAND","OR","97520"
"195483897","THE ATITLAN ALLIANCE","DOMESTIC NONPROFIT CORPORATION","PUBLIC BENEFIT","321 CLAY STREET SPACE 109",,"ASHLAND","OR","97520"
"6069512","COLUMBIA LUTHERAN CHARITIES","DOMESTIC NONPROFIT CORPORATION","PUBLIC BENEFIT","2111 EXCHANGE ST",,"ASTORIA","OR","97103"
"6416119","CLATSOP COMMUNITY COLLEGE FOUNDATION","DOMESTIC NONPROFIT CORPORATION","PUBLIC BENEFIT","295 W NIAGARA AVE",,"ASTORIA","OR","97103"
"10949311","CLATSOP EMERGENCY FOOD BANK INC.","DOMESTIC NONPROFIT CORPORATION","PUBLIC BENEFIT","770 34TH ST",,"ASTORIA","OR","97103"
"11396215","THE HARBOR, INC","DOMESTIC NONPROFIT CORPORATION","PUBLIC BENEFIT","801 COMMERCIAL ST",,"ASTORIA","OR","97103"
"13529516","CRESTVIEW-GREENWOOD CEMETERY ASSOCIATION","DOMESTIC NONPROFIT CORPORATION","PUBLIC BENEFIT","91569 HWY 202",,"ASTORIA","OR","97103"
"21113915","CLATSOP COUNTY 4-H ASSOCIATION","DOMESTIC NONPROFIT CORPORATION","PUBLIC BENEFIT","2001 MARINE DR STE 210",,"ASTORIA","OR","97103"
"6709984","LEWIS & CLARK CEMETERY ASSOCIATION, INC.","DOMESTIC NONPROFIT CORPORATION","PUBLIC BENEFIT","89840 LEWIS AND CLARK ROAD",,"ASTORIA","OR","97103"
"14677082","CLATSOP COMMUNITY ACTION","DOMESTIC NONPROFIT CORPORATION","PUBLIC BENEFIT","364 9TH ST",,"ASTORIA","OR","97103"
"36621282","THE HEALING CIRCLE, INC.","DOMESTIC NONPROFIT CORPORATION","PUBLIC BENEFIT","1054 EXCHANGE ST",,"ASTORIA","OR","97103"
"41542986","BUTTERFLIES FOREVER","DOMESTIC NONPROFIT CORPORATION","PUBLIC BENEFIT","91906 LEWIS AND CLARK RD",,"ASTORIA","OR","97103"
"53799087","ASTORIA PARKS, RECREATION AND COMMUNITY FOUNDATION","DOMESTIC NONPROFIT CORPORATION","PUBLIC BENEFIT","92591 ASTOR DR",,"ASTORIA","OR","97103"
"55649983","KNAPPA SCHOOLS FOUNDATION","DOMESTIC NONPROFIT CORPORATION","PUBLIC BENEFIT","42903 OLD HIGHWAY 30",,"ASTORIA","OR","97103"
"56991384","WILDLIFE CENTER OF THE NORTH COAST","DOMESTIC NONPROFIT CORPORATION","PUBLIC BENEFIT","89686 HIGHWAY 202",,"ASTORIA","OR","97103"
"64659981","NORTH COAST CHORALE","DOMESTIC NONPROFIT CORPORATION","PUBLIC BENEFIT","118 BOND ST",,"ASTORIA","OR","97103"
"66025983","ANDREW'S FUND","DOMESTIC NONPROFIT CORPORATION","PUBLIC BENEFIT","818 COMMERCIAL #403",,"ASTORIA","OR","97103"
"66955486","CLATSOP COUNTY CHILD ABUSE ASSESSMENT CENTER LIMITED","DOMESTIC NONPROFIT CORPORATION","PUBLIC BENEFIT","1230 MARINE DR STE 301",,"ASTORIA","OR","97103"
"67311788","CLATSOP CASA PROGRAM, INC.","DOMESTIC NONPROFIT CORPORATION","PUBLIC BENEFIT","818 COMMERCIAL ST STE 401",,"ASTORIA","OR","97103"
"67490780","AMERICAN COLLEGE OF NATUROPATHIC OBSTETRICS","DOMESTIC NONPROFIT CORPORATION","PUBLIC BENEFIT","1490 COMMERCIAL ST STE 200","SUITE 200","ASTORIA","OR","97103"
"68367888","RIVERFRONT TROLLEY ASSOCIATION, INC.","DOMESTIC NONPROFIT CORPORATION","PUBLIC BENEFIT","990 ASTOR STREET",,"ASTORIA","OR","97103"
"69255082","LOWER COLUMBIA PRESERVATION SOCIETY","DOMESTIC NONPROFIT CORPORATION","PUBLIC BENEFIT","389 12TH ST",,"ASTORIA","OR","97103"
"1519594","CLATSOP COUNTY JUNIOR MARKET AUCTION ASSOCIATION","DOMESTIC NONPROFIT CORPORATION","PUBLIC BENEFIT","91382 LEWIS & CLARK RD",,"ASTORIA","OR","97103"
"4467395","NORTH COAST WATERSHED ASSOCIATION","DOMESTIC NONPROFIT CORPORATION","PUBLIC BENEFIT","818 COMMERCIAL ST","SUITE 308","ASTORIA","OR","97103"
"13457791","BROWNSMEAD FARMERS' CLUB","DOMESTIC NONPROFIT CORPORATION","PUBLIC BENEFIT","42779 FISH LN",,"ASTORIA","OR","97103"
"14229793","NORTH COAST SYMPHONIC BAND ASSOCIATION","DOMESTIC NONPROFIT CORPORATION","PUBLIC BENEFIT","35185 ORCHARD LANE",,"ASTORIA","OR","97103"
"17111592","ASTORIA REGATTA/RIEDEL SCHOLARSHIP ENDOWMENT FUND","DOMESTIC NONPROFIT CORPORATION","PUBLIC BENEFIT","1960 3RD ST",,"ASTORIA","OR","97103"
"23142995","WICKIUP SENIOR CITIZEN CENTER","DOMESTIC NONPROFIT CORPORATION","PUBLIC BENEFIT","92650 SVENSEN MARKET RD",,"ASTORIA","OR","97103"
"23403892","HANTHORN CANNERY FOUNDATION","DOMESTIC NONPROFIT CORPORATION","PUBLIC BENEFIT","100 39TH ST",,"ASTORIA","OR","97103"
"31138993","KNAPPA SCHOOLS PARENT CLUB INCORPORATED","DOMESTIC NONPROFIT CORPORATION","PUBLIC BENEFIT","43789 SYLVANDALE LN",,"ASTORIA","OR","97103"
"39954193","ADVANCING CLATSOP TEENS IN VOCATIONAL EDUCATION","DOMESTIC NONPROFIT CORPORATION","PUBLIC BENEFIT","37285 TOWHEE DR",,"ASTORIA","OR","97103"
"42879098","CLATSOP CRUISE HOSTS, INC.","DOMESTIC NONPROFIT CORPORATION","PUBLIC BENEFIT","1024 MARINE DR",,"ASTORIA","OR","97103"
"58805095","STAR OF THE SEA CATHOLIC FOUNDATION","DOMESTIC NONPROFIT CORPORATION","PUBLIC BENEFIT","92591 ASTOR DR",,"ASTORIA","OR","97103"
"64075998","CASCADIA CONCERT OPERA","DOMESTIC NONPROFIT CORPORATION","PUBLIC BENEFIT","1264 JEROME AVE",,"ASTORIA","OR","97103"
"64671598","ASTORIA PARENT CLUB","DOMESTIC NONPROFIT CORPORATION","PUBLIC BENEFIT","1100 KLASKANINE AVE",,"ASTORIA","OR","97103"
"70075297","NORTH COAST FOOD WEB","DOMESTIC NONPROFIT CORPORATION","PUBLIC BENEFIT","577 18TH ST",,"ASTORIA","OR","97103"
"71365598","VESPER EMMANUEL CHURCH","DOMESTIC NONPROFIT CORPORATION","PUBLIC BENEFIT","35955 BINDER SLOUGH LN",,"ASTORIA","OR","97103"
"75484692","ASTORIA BASEBALL FOUNDATION","DOMESTIC NONPROFIT CORPORATION","PUBLIC BENEFIT","1336 IRVING AVE",,"ASTORIA","OR","97103"
"77869494","CLATSOP CARE FOUNDATION","DOMESTIC NONPROFIT CORPORATION","PUBLIC BENEFIT","646 16TH STREET",,"ASTORIA","OR","97103"
"89476395","TENOR GUITAR FOUNDATION","DOMESTIC NONPROFIT CORPORATION","PUBLIC BENEFIT","91906 LEWIS AND CLARK ROAD",,"ASTORIA","OR","97103"
"96707196","ANGELS FOR SARA SANCTUARY","DOMESTIC NONPROFIT CORPORATION","PUBLIC BENEFIT","90522 RIP CHRISTENSEN RD",,"ASTORIA","OR","97103"
"103254595","ASTORIA OREGON PUBLIC LIBRARY FOUNDATION","DOMESTIC NONPROFIT CORPORATION","PUBLIC BENEFIT","1268 KENSINGTON AVE",,"ASTORIA","OR","97103"
"104749890","OBON SOCIETY","DOMESTIC NONPROFIT CORPORATION","PUBLIC BENEFIT","818 COMMERCIAL ST STE 103",,"ASTORIA","OR","97103"
"109275297","MOSAC","DOMESTIC NONPROFIT CORPORATION","PUBLIC BENEFIT","100 39TH ST STE 206",,"ASTORIA","OR","97103"
"111369096","ASTORIA FIBER ARTS STUDIO","DOMESTIC NONPROFIT CORPORATION","PUBLIC BENEFIT","90220 YOUNGS RIVER ROAD",,"ASTORIA","OR","97103"
"111360392","SALVAGE CHIEF (LSM380) FOUNDATION","DOMESTIC NONPROFIT CORPORATION","PUBLIC BENEFIT","100 39TH ST",,"ASTORIA","OR","97103"
"114769193","ASTORIA WARMING CENTER","DOMESTIC NONPROFIT CORPORATION","PUBLIC BENEFIT","875 FRANKLIN AVE",,"ASTORIA","OR","97103"
"120422894","FRIENDS OF MCCLURE PARK","DOMESTIC NONPROFIT CORPORATION","PUBLIC BENEFIT","8TH STREET AND FRANKLIN AVE",,"ASTORIA","OR","97103"
"120859194","LOWER COLUMBIA Q CENTER","DOMESTIC NONPROFIT CORPORATION","PUBLIC BENEFIT","171 W BOND ST",,"ASTORIA","OR","97103"
"131515397","THE TREEHOUSE LIFE, INC.","DOMESTIC NONPROFIT CORPORATION","PUBLIC BENEFIT","90757 LAZY CREEK RD",,"ASTORIA","OR","97103"
"135666899","CLATSOP SHOT AND AWE","DOMESTIC NONPROFIT CORPORATION","PUBLIC BENEFIT","90630 FORT CLATSOP RD",,"ASTORIA","OR","97103"
"138686399","PELICAN SCIENCE","DOMESTIC NONPROFIT CORPORATION","PUBLIC BENEFIT","375 3RD ST",,"ASTORIA","OR","97103"
"139236996","LIFEBOAT SERVICES","DOMESTIC NONPROFIT CORPORATION","PUBLIC BENEFIT","596 ALAMEDA AVE",,"ASTORIA","OR","97103"
"146732391","SYNAPSE FITNESS FOUNDATION","DOMESTIC NONPROFIT CORPORATION","PUBLIC BENEFIT","380 SOUTH ST",,"ASTORIA","OR","97103"
"150853399","FRIENDS OF THE FAIR-CLATSOP COUNTY","DOMESTIC NONPROFIT CORPORATION","PUBLIC BENEFIT","10 NIMITZ DR APT 3",,"ASTORIA","OR","97103"
"153016994","ASTORIA ARTS AND MOVEMENT CENTER","DOMESTIC NONPROFIT CORPORATION","PUBLIC BENEFIT","3409 IRVING AVE",,"ASTORIA","OR","97103"
"156365497","COAST PREGNANCY CLINIC","DOMESTIC NONPROFIT CORPORATION","PUBLIC BENEFIT","279 6TH STREET",,"ASTORIA","OR","97103"
"160610995","COPELAND COMMONS","DOMESTIC NONPROFIT CORPORATION","PUBLIC BENEFIT","92027 GLASGOW DRIVE",,"ASTORIA","OR","97103"
"160860996","PACIFIC NORTHWEST DISTRICT OF KEY CLUB INTERNATIONAL, INC.","DOMESTIC NONPROFIT CORPORATION","PUBLIC BENEFIT","1024 MARINE DR",,"ASTORIA","OR","97103"
"161476297","FRIENDS OF THE UNSHELTERED","DOMESTIC NONPROFIT CORPORATION","PUBLIC BENEFIT","357 COMMERCIAL ST",,"ASTORIA","OR","97103"
"181157695","RAINPETAL ECOVILLAGE, INC.","DOMESTIC NONPROFIT CORPORATION","PUBLIC BENEFIT","357 COMMERCIAL ST",,"ASTORIA","OR","97103"
"183674499","NORTH COAST PRIDE","DOMESTIC NONPROFIT CORPORATION","PUBLIC BENEFIT","1170 COMMERCIAL ST",,"ASTORIA","OR","97103"
"184145598","ARTS COUNCIL OF CLATSOP COUNTY","DOMESTIC NONPROFIT CORPORATION","PUBLIC BENEFIT","2870 LOG BRONC WAY",,"ASTORIA","OR","97103"
"184345099","TEN FIFTEEN PRODUCTIONS","DOMESTIC NONPROFIT CORPORATION","PUBLIC BENEFIT","1015 COMMERCIAL ST",,"ASTORIA","OR","97103"
"189185896","ART ROOM","DOMESTIC NONPROFIT CORPORATION","PUBLIC BENEFIT","4479 COMMERCIAL ST",,"ASTORIA","OR","97103"
"189461693","ASTORIA SENIOR CELEBRATION COMMITTEE","DOMESTIC NONPROFIT CORPORATION","PUBLIC BENEFIT","855 EXCHANGE ST",,"ASTORIA","OR","97103"
"193040798","JEANNETTE ADAMS MEMORIAL ART SCHOLARSHIP","DOMESTIC NONPROFIT CORPORATION","PUBLIC BENEFIT","1139 EXCHANGE STREET",,"ASTORIA","OR","97103"
"196545793","LEMONADE FOUNDATION","DOMESTIC NONPROFIT CORPORATION","PUBLIC BENEFIT","666 FLORENCE AVE",,"ASTORIA","OR","97103"
"197205694","CITIZENS FOR ASTORIA OREGON","DOMESTIC NONPROFIT CORPORATION","PUBLIC BENEFIT","1170 COMMERCIAL ST","SUITE 213-B","ASTORIA","OR","97103"
"9918798","TRIANGLE LITTLE LEAGUE","DOMESTIC NONPROFIT CORPORATION","PUBLIC BENEFIT","51711 JOHNSON RD",,"ATHENA","OR","97813"
"79197399","ATHENA WESTON EDUCATION FOUNDATION","DOMESTIC NONPROFIT CORPORATION","PUBLIC BENEFIT","375 SOUTH 5TH STREET",,"ATHENA","OR","97813"
"155329197","ATHENA WESTON YOUTH SPORTS","DOMESTIC NONPROFIT CORPORATION","PUBLIC BENEFIT","844 N 6TH STREET",,"ATHENA","OR","97813"
"85130699","SALEM FOR ALL!","DOMESTIC NONPROFIT CORPORATION","PUBLIC BENEFIT","9007 SILVER FALLS HWY SE",,"AUMSVILLE","OR","97325"
"118542299","TY HART MEMORIAL SCHOLARSHIP","DOMESTIC NONPROFIT CORPORATION","PUBLIC BENEFIT","9467 STAYTON RD SE",,"AUMSVILLE","OR","97325"
"128635992","SAFEBUILD ALLIANCE FOUNDATION","DOMESTIC NONPROFIT CORPORATION","PUBLIC BENEFIT","7940 STONEFIELD CT SE",,"AUMSVILLE","OR","97325"
"167075499","DAL RIATA","DOMESTIC NONPROFIT CORPORATION","PUBLIC BENEFIT","10663 PORTER RD SE",,"AUMSVILLE","OR","97325"
"176751593","POKEBLUE","DOMESTIC NONPROFIT CORPORATION","PUBLIC BENEFIT","910 OLNEY ST SE",,"AUMSVILLE","OR","97325"
"177310092","SEA STAR FARM SANCTUARY, INC.","DOMESTIC NONPROFIT CORPORATION","PUBLIC BENEFIT","5987 SHAW CENTER PLACE SE",,"AUMSVILLE","OR","97325"
"186779790","BOX FOUNDATION","DOMESTIC NONPROFIT CORPORATION","PUBLIC BENEFIT","9859 WILLAMETTE ST",,"AUMSVILLE","OR","97325"
"196354790","SOMMERS FAMILY FUND","DOMESTIC NONPROFIT CORPORATION","PUBLIC BENEFIT","9780 WILLAMETTE STREET",,"AUMSVILLE","OR","97325"
"59519","CHAMPOEG CEMETERY ASSOCIATION","DOMESTIC NONPROFIT CORPORATION","PUBLIC BENEFIT","21117 CASE RD NE",,"AURORA","OR","97002"
"6413017","THE AURORA COMMUNITY CEMETERY ASSOCIATION, INCORPORATED","DOMESTIC NONPROFIT CORPORATION","PUBLIC BENEFIT","21217 OAK LANE",,"AURORA","OR","97002"
"66809493","""MEOW VILLAGE""","DOMESTIC NONPROFIT CORPORATION","PUBLIC BENEFIT","14625 KASEL CT NE",,"AURORA","OR","97002"
"107804593","NORTH MARION HIGH SCHOOL BOOSTERS","DOMESTIC NONPROFIT CORPORATION","PUBLIC BENEFIT","12877 MAPLE LEAF CT NE",,"AURORA","OR","97002"
"119710796","NORTH WILLAMETTE VALLEY FRIENDS OF MUSIC","DOMESTIC NONPROFIT CORPORATION","PUBLIC BENEFIT","24850 NE PRAIRIE VIEW DR",,"AURORA","OR","97002"
"129564696","AURORA CAREER TECHNICAL EDUCATION, INC.","DOMESTIC NONPROFIT CORPORATION","PUBLIC BENEFIT","14629 EHLEN ROAD NE",,"AURORA","OR","97002"
"159288092","A RAY OF HOPE, TODAY!","DOMESTIC NONPROFIT CORPORATION","PUBLIC BENEFIT","10013 WISEACRE LN NE",,"AURORA","OR","97002"
"159463992","NORTH MARION SERVICES TEAM","DOMESTIC NONPROFIT CORPORATION","PUBLIC BENEFIT","21533 LIBERTY STREET NE",,"AURORA","OR","97002"
"161342093","WILDCAT SOFTBALL FOUNDATION","DOMESTIC NONPROFIT CORPORATION","PUBLIC BENEFIT","22821 BOONES FERRY RD NE",,"AURORA","OR","97002"
"162693791","HEARING FOR CHILDREN SOCIETY","DOMESTIC NONPROFIT CORPORATION","PUBLIC BENEFIT","23022 YEARY LANE NE",,"AURORA","OR","97002"
"188772090","NORTH MARION GRADUATION PROJECT","DOMESTIC NONPROFIT CORPORATION","PUBLIC BENEFIT","20256 GRIM RD",,"AURORA","OR","97002"
"196595194","U CAN UNITED","DOMESTIC NONPROFIT CORPORATION","PUBLIC BENEFIT","26097 NE BUTTEVILLE ROAD",,"AURORA","OR","97002"
"198293897","AURORA EMERGENCY PREPAREDNESS","DOMESTIC NONPROFIT CORPORATION","PUBLIC BENEFIT","21311 MAIN ST NE",,"AURORA","OR","97002"
"12446613","UPPER COW CREEK COMMUNITY CENTER, INC.","DOMESTIC NONPROFIT CORPORATION","PUBLIC BENEFIT","17244 UPPER COW CREEK RD",,"AZALEA","OR","97410"
"20730412","MOUNTAIN GROVE CENTER","DOMESTIC NONPROFIT CORPORATION","PUBLIC BENEFIT","3554 UPPER COW CREEK ROAD",,"AZALEA","OR","97410"
"79289394","OREGON SCHOLASTIC CLAY TARGET PROGRAM, INC.","DOMESTIC NONPROFIT CORPORATION","PUBLIC BENEFIT","669 STARVEOUT CREEK RD",,"AZALEA","OR","97410"
"4379111","VETERANS MEMORIAL CLUB","DOMESTIC NONPROFIT CORPORATION","PUBLIC BENEFIT","1835 4TH STREET",,"BAKER CITY","OR","97814"
"8066011","NEW DIRECTIONS NORTHWEST, INC.","DOMESTIC NONPROFIT CORPORATION","PUBLIC BENEFIT","3425 13TH ST",,"BAKER CITY","OR","97814"
"11514817","STEP FORWARD ACTIVITIES, INC.","DOMESTIC NONPROFIT CORPORATION","PUBLIC BENEFIT","3720 10TH ST",,"BAKER CITY","OR","97814"
"20781118","MAYDAY, INC.","DOMESTIC NONPROFIT CORPORATION","PUBLIC BENEFIT","2601 OAK ST",,"BAKER CITY","OR","97814"
"14707483","OREGON TRAIL PRESERVATION TRUST, INC.","DOMESTIC NONPROFIT CORPORATION","PUBLIC BENEFIT","2790 MAIN ST",,"BAKER CITY","OR","97814"
"18809780","SEVEN GENERATIONS","DOMESTIC NONPROFIT CORPORATION","PUBLIC BENEFIT","1641 WASHINGTON AVE",,"BAKER CITY","OR","97814"
"33951583","THE BAKER COUNTY LIBRARY FOUNDATION, INC.","DOMESTIC NONPROFIT CORPORATION","PUBLIC BENEFIT","2400 RESORT ST",,"BAKER CITY","OR","97814"
"39142880","CASA OF EASTERN OREGON, INC.","DOMESTIC NONPROFIT CORPORATION","PUBLIC BENEFIT","2024 MAIN ST",,"BAKER CITY","OR","97814"
"13240296","HAINES COMMUNITY CHARITABLE FUND","DOMESTIC NONPROFIT CORPORATION","PUBLIC BENEFIT","GUYER & ASSOCIATES","2790 MAIN ST","BAKER CITY","OR","97814"
"20829891","FRIENDS OF THE FAIRGROUNDS, BAKER CITY, OREGON, INC.","DOMESTIC NONPROFIT CORPORATION","PUBLIC BENEFIT","41280 US HWY 30",,"BAKER CITY","OR","97814"
"24232795","ANTHONY LAKES OUTDOOR RECREATION ASSOCIATION","DOMESTIC NONPROFIT CORPORATION","PUBLIC BENEFIT","2790 MAIN ST",,"BAKER CITY","OR","97814"
"24232795","ANTHONY LAKES OUTDOOR RECREATION ASSOCIATION","DOMESTIC NONPROFIT CORPORATION","PUBLIC BENEFIT","2790 MAIN ST",,"BAKER CITY","OR","97814"
"24232795","ANTHONY LAKES OUTDOOR RECREATION ASSOCIATION","DOMESTIC NONPROFIT CORPORATION","PUBLIC BENEFIT","2790 MAIN ST",,"BAKER CITY","OR","97814"
"24232795","ANTHONY LAKES OUTDOOR RECREATION ASSOCIATION","DOMESTIC NONPROFIT CORPORATION","PUBLIC BENEFIT","2790 MAIN ST",,"BAKER CITY","OR","97814"
"24232795","ANTHONY LAKES OUTDOOR RECREATION ASSOCIATION","DOMESTIC NONPROFIT CORPORATION","PUBLIC BENEFIT","2790 MAIN ST",,"BAKER CITY","OR","97814"
"24232795","ANTHONY LAKES OUTDOOR RECREATION ASSOCIATION","DOMESTIC NONPROFIT CORPORATION","PUBLIC BENEFIT","2790 MAIN ST",,"BAKER CITY","OR","97814"
"24232795","ANTHONY LAKES OUTDOOR RECREATION ASSOCIATION","DOMESTIC NONPROFIT CORPORATION","PUBLIC BENEFIT","2790 MAIN ST",,"BAKER CITY","OR","97814"
"24232795","ANTHONY LAKES OUTDOOR RECREATION ASSOCIATION","DOMESTIC NONPROFIT CORPORATION","PUBLIC BENEFIT","2790 MAIN ST",,"BAKER CITY","OR","97814"
"39826292","GEORGE & MARION BUERKEL, OSCAR & ELLA ZOELLNER FOUNDATION","DOMESTIC NONPROFIT CORPORATION","PUBLIC BENEFIT","3990 KIRKWAY DR",,"BAKER CITY","OR","97814"
"57187297","BAKER CHARTER SCHOOLS ORGANIZATION","DOMESTIC NONPROFIT CORPORATION","PUBLIC BENEFIT","1831 1ST ST",,"BAKER CITY","OR","97814"
"58938896","BAKER LOVES BIKES","DOMESTIC NONPROFIT CORPORATION","PUBLIC BENEFIT","3451 BROADWAY ST",,"BAKER CITY","OR","97814"
"62367397","BAKER COUNTY COMMUNITY COLLEGE FOUNDATION","DOMESTIC NONPROFIT CORPORATION","PUBLIC BENEFIT","2790 MAIN ST",,"BAKER CITY","OR","97814"
"67230194","BAKER CITY BRONC & BULL RIDING, INC.","DOMESTIC NONPROFIT CORPORATION","PUBLIC BENEFIT","990 PARK ST",,"BAKER CITY","OR","97814"
"78503894","BAKER COUNTY 4-H/FFA LIVESTOCK AUCTION ASSOCIATION","DOMESTIC NONPROFIT CORPORATION","PUBLIC BENEFIT","2790 MAIN ST",,"BAKER CITY","OR","97814"
"110249893","BAKER ART GUILD","DOMESTIC NONPROFIT CORPORATION","PUBLIC BENEFIT","3451 BROADWAY ST",,"BAKER CITY","OR","97814"
"127155596","SPC MABRY JAMES ANDERS MEMORIAL FOUNDATION","DOMESTIC NONPROFIT CORPORATION","PUBLIC BENEFIT","14817 LONGBOW LANE",,"BAKER CITY","OR","97814"
"127237097","BHUTAN CULTURAL EXCHANGE","DOMESTIC NONPROFIT CORPORATION","PUBLIC BENEFIT","2045 14TH STREET",,"BAKER CITY","OR","97814"
"135041796","BAKER COMMUNITY SPORTS COMPLEX","DOMESTIC NONPROFIT CORPORATION","PUBLIC BENEFIT","2790 MAIN ST",,"BAKER CITY","OR","97814"
"138740592","OREGON FRATERNAL ORDER OF POLICE FOUNDATION","DOMESTIC NONPROFIT CORPORATION","PUBLIC BENEFIT","1768 AUBURN AVENUE",,"BAKER CITY","OR","97814"
"146061999","ACTORS STUDIO, INC.","DOMESTIC NONPROFIT CORPORATION","PUBLIC BENEFIT","2260 CHERRY ST",,"BAKER CITY","OR","97814"
"148036593","LAUNCH PAD BAKER","DOMESTIC NONPROFIT CORPORATION","PUBLIC BENEFIT","3755 CEDAR ST",,"BAKER CITY","OR","97814"
"161466595","OREGON CLUB VOLLEYBALL OF EASTERN OREGON","DOMESTIC NONPROFIT CORPORATION","PUBLIC BENEFIT","28202 LOVE RANCH ROAD",,"BAKER CITY","OR","97814"
"163761795","MIRACLES HOMES OF HOPE","DOMESTIC NONPROFIT CORPORATION","PUBLIC BENEFIT","18392 GRIFFIN GULTCH LANE",,"BAKER CITY","OR","97814"
"164618598","BAKER SOCCER UNITED","DOMESTIC NONPROFIT CORPORATION","PUBLIC BENEFIT","1790 4TH STREET",,"BAKER CITY","OR","97814"
"165026593","BAKER RELIEF NURSERY","DOMESTIC NONPROFIT CORPORATION","PUBLIC BENEFIT","2304 2ND STREET",,"BAKER CITY","OR","97814"
"166470196","THE EMERGE FOUNDATION","DOMESTIC NONPROFIT CORPORATION","PUBLIC BENEFIT","2250 4TH ST",,"BAKER CITY","OR","97814"
"177499598","THE FINANCIAL LITERACY FOUNDATION OF AMERICA, INC.","DOMESTIC NONPROFIT CORPORATION","PUBLIC BENEFIT","2790 MAIN ST",,"BAKER CITY","OR","97814"
"181584799","SNAKE RIVER MUSIC GARDENS","DOMESTIC NONPROFIT CORPORATION","PUBLIC BENEFIT","3055 10TH STREET","UNIT I","BAKER CITY","OR","97814"
"194695996","JUSTUSFORBAKERCOUNTY","DOMESTIC NONPROFIT CORPORATION","PUBLIC BENEFIT","20539 MEDICAL SPRINGS HWY",,"BAKER CITY","OR","97814"
"16357014","SOUTH COAST BUSINESS EMPLOYMENT CORPORATION","DOMESTIC NONPROFIT CORPORATION","PUBLIC BENEFIT","304 HWY 101",,"BANDON","OR","97411"
"45979085","PORT OF BANDON ECONOMIC DEVELOPMENT FUND","DOMESTIC NONPROFIT CORPORATION","PUBLIC BENEFIT","1205 BALTIMORE AVE",,"BANDON","OR","97411"
"52001188","CYBERLYNX","DOMESTIC NONPROFIT CORPORATION","PUBLIC BENEFIT","775 10TH ST SE",,"BANDON","OR","97411"
"63801782","BANDON COMMUNITY YOUTH CENTER, INC.","DOMESTIC NONPROFIT CORPORATION","PUBLIC BENEFIT","101 11TH STREET SW",,"BANDON","OR","97411"
"9594292","SEVEN FIRES FOUNDATION","DOMESTIC NONPROFIT CORPORATION","PUBLIC BENEFIT","89001 HIGHWAY 42 S",,"BANDON","OR","97411"
"12218491","COQUILLE RIVER LIGHTHOUSE KEEPERS FOUNDATION, INC.","DOMESTIC NONPROFIT CORPORATION","PUBLIC BENEFIT","621 MICHIGAN AVE NE",,"BANDON","OR","97411"
"18786491","GOOD NEIGHBORS","DOMESTIC NONPROFIT CORPORATION","PUBLIC BENEFIT","2636 CARYLL CT SW",,"BANDON","OR","97411"
"21992193","ROTARY CLUB OF PORT ORFORD COMMUNITY SERVICE FUND","DOMESTIC NONPROFIT CORPORATION","PUBLIC BENEFIT","87862 BILL CREEK LN",,"BANDON","OR","97411"
"28415198","FLORAS LAKE RESERVE, INC.","DOMESTIC NONPROFIT CORPORATION","PUBLIC BENEFIT","640 2ND ST SE STE B",,"BANDON","OR","97411"
"31657794","BANDON COMMUNITY SWIMMING POOL DEVELOPMENT CORPORATION","DOMESTIC NONPROFIT CORPORATION","PUBLIC BENEFIT","1250 TISH-A-TANG LANE",,"BANDON","OR","97411"
"42838292","SOUTHERN COOS HEALTH FOUNDATION","DOMESTIC NONPROFIT CORPORATION","PUBLIC BENEFIT","900 11TH ST SE",,"BANDON","OR","97411"
"56918890","BANDON COMMUNITY HEALTH CENTER","DOMESTIC NONPROFIT CORPORATION","PUBLIC BENEFIT","1010 SE FIRST ST STE 110",,"BANDON","OR","97411"
"64570592","ARTULA INSTITUTE FOR ARTS AND ENVIRONMENTAL EDUCATION","DOMESTIC NONPROFIT CORPORATION","PUBLIC BENEFIT","325 2ND ST SE",,"BANDON","OR","97411"
"64604193","ANIMAL SHELTER AIDE","DOMESTIC NONPROFIT CORPORATION","PUBLIC BENEFIT","2605 LINCOLN AVE SW",,"BANDON","OR","97411"
"70695292","GREATER BANDON BY-THE-SEA ASSOCIATION","DOMESTIC NONPROFIT CORPORATION","PUBLIC BENEFIT","53485 SAFE ROAD",,"BANDON","OR","97411"
"76436493","THE TREE OF HUMANITY","DOMESTIC NONPROFIT CORPORATION","PUBLIC BENEFIT","53540 SAFE ROAD",,"BANDON","OR","97411"
"94076990","KIDS NEWS","DOMESTIC NONPROFIT CORPORATION","PUBLIC BENEFIT","640 HARRISON AVE",,"BANDON","OR","97411"
"96697793","BANDON COMMUNITY RADIO","DOMESTIC NONPROFIT CORPORATION","PUBLIC BENEFIT","825 2ND ST SE",,"BANDON","OR","97411"
"127623395","BANDON ROTARY FOUNDATION","DOMESTIC NONPROFIT CORPORATION","PUBLIC BENEFIT","1075 ALABAMA STREET",,"BANDON","OR","97411"
"151110393","FARM SCHOOLED","DOMESTIC NONPROFIT CORPORATION","PUBLIC BENEFIT","49191 HWY 101",,"BANDON","OR","97411"
"172263999","COOS COUNTY CULTURAL COALITION","DOMESTIC NONPROFIT CORPORATION","PUBLIC BENEFIT","470 JUNE AVE SE",,"BANDON","OR","97411"
"178336195","AMERICAN AQUIFERS","DOMESTIC NONPROFIT CORPORATION","PUBLIC BENEFIT","87996 BILL CREEK LN",,"BANDON","OR","97411"
"186787199","BANDON YOUTH SPORTS","DOMESTIC NONPROFIT CORPORATION","PUBLIC BENEFIT","1090 OREGON AVE SE",,"BANDON","OR","97411"
"189772891","GAIA'S BLUEPRINT","DOMESTIC NONPROFIT CORPORATION","PUBLIC BENEFIT","89656 HALLIBURTON LN",,"BANDON","OR","97411"
"543017","UNION POINT CEMETERY ASSOCIATION","DOMESTIC NONPROFIT CORPORATION","PUBLIC BENEFIT","24535 NW GREEN MOUNTAIN RD",,"BANKS","OR","97106"
"27949080","BANKS SUMMER BASEBALL, INC.","DOMESTIC NONPROFIT CORPORATION","PUBLIC BENEFIT","42053 NW BUCKSHIRE ST",,"BANKS","OR","97106"
"57995285","BRADLEY'S EQUINE ASSISTED THERAPEUTIC RIDING CENTER, INC.","DOMESTIC NONPROFIT CORPORATION","PUBLIC BENEFIT","41919 NW WILKESBORO RD",,"BANKS","OR","97106"
"25937798","OREGON COALITION FOR EDUCATING ANGLERS","DOMESTIC NONPROFIT CORPORATION","PUBLIC BENEFIT","17280 NW DAVIDSON RD",,"BANKS","OR","97106"
"143203297","DAN HILGER MEMORIAL FOUNDATION","DOMESTIC NONPROFIT CORPORATION","PUBLIC BENEFIT","18470 NW HILLTOP PL",,"BANKS","OR","97106"
"197040893","TUALATIN KENNEL CLUB","DOMESTIC NONPROFIT CORPORATION","PUBLIC BENEFIT","23525 NW HOWELL DR",,"BANKS","OR","97106"
"197085997","PORTLAND KENNEL CLUB INC","DOMESTIC NONPROFIT CORPORATION","PUBLIC BENEFIT","23525 NW HOWELL DR",,"BANKS","OR","97106"
"56198386","WATT BROTHERS SCHOLARS TRUST","DOMESTIC NONPROFIT CORPORATION","PUBLIC BENEFIT","6230 MAIN ST",,"BAY CITY","OR","97107"
"155708291","FIREWEED POETRY OF OREGON","DOMESTIC NONPROFIT CORPORATION","PUBLIC BENEFIT","5550 OCEAN AVE",,"BAY CITY","OR","97107"
"171808299","PACIFIC NW FIRE RELIEF","DOMESTIC NONPROFIT CORPORATION","PUBLIC BENEFIT","6850 BASELINE RD",,"BAY CITY","OR","97107"
"74694481","BEAVERCREEK CHARITABLE TRUST","DOMESTIC NONPROFIT CORPORATION","PUBLIC BENEFIT","15677 S LELAND RD",,"BEAVERCREEK","OR","97004"
"76615989","VILLAGE FOCUS, INTERNATIONAL","DOMESTIC NONPROFIT CORPORATION","PUBLIC BENEFIT","19511 S UPPER HIGHLAND DR",,"BEAVERCREEK","OR","97004"
"123690893","CNB SEEN","DOMESTIC NONPROFIT CORPORATION","PUBLIC BENEFIT","16101 S LELAND RD",,"BEAVERCREEK","OR","97004"
"188775697","TRIPLE R EQUINE SANCTUARY- RESCUE, REHABILITATE, REHOME.","DOMESTIC NONPROFIT CORPORATION","PUBLIC BENEFIT","20771 S UPPER HIGHLAND ROAD",,"BEAVERCREEK","OR","97004"
"193568699","HEART PROJECTS","DOMESTIC NONPROFIT CORPORATION","PUBLIC BENEFIT","22490 S FOREST PARK RD",,"BEAVERCREEK","OR","97004"
"9625112","SPECIAL OLYMPICS OREGON, INC.","DOMESTIC NONPROFIT CORPORATION","PUBLIC BENEFIT","8313 SW CIRRUS DR",,"BEAVERTON","OR","97008"
"11213014","DOMESTIC VIOLENCE RESOURCE CENTER, INC.","DOMESTIC NONPROFIT CORPORATION","PUBLIC BENEFIT","735 SW 158TH AVE",,"BEAVERTON","OR","97006"
"13352117","OREGON SPORTS HALL OF FAME & MUSEUM, INC.","DOMESTIC NONPROFIT CORPORATION","PUBLIC BENEFIT","4840 SW WESTERN AVE #100",,"BEAVERTON","OR","97005"
"14295513","FOREIGN MISSION FOUNDATION","DOMESTIC NONPROFIT CORPORATION","PUBLIC BENEFIT","12220 SW FIRST ST",,"BEAVERTON","OR","97005"
"14723811","ADAPTIVE SPORTS NORTHWEST","DOMESTIC NONPROFIT CORPORATION","PUBLIC BENEFIT","4840 SW WESTERN AVE",,"BEAVERTON","OR","97005"
"15257017","SPECIALIZED HOUSING, INCORPORATED","DOMESTIC NONPROFIT CORPORATION","PUBLIC BENEFIT","4140 SW 109TH AVENUE",,"BEAVERTON","OR","97005"
"15342413","SEQUOIA MENTAL HEALTH SERVICES, INC.","DOMESTIC NONPROFIT CORPORATION","PUBLIC BENEFIT","4585 SW 185TH AVE",,"BEAVERTON","OR","97078"
"16930919","SPECIALIZED HOUSING II, INCORPORATED","DOMESTIC NONPROFIT CORPORATION","PUBLIC BENEFIT","4140 SW 109TH AVE",,"BEAVERTON","OR","97005"
"17037417","THE MCMINNVILLE MONTESSORI SCHOOL","DOMESTIC NONPROFIT CORPORATION","PUBLIC BENEFIT","5770 SW CRANBERRY CT",,"BEAVERTON","OR","97007"
"17623315","SPECIALIZED HOUSING V, INCORPORATED","DOMESTIC NONPROFIT CORPORATION","PUBLIC BENEFIT","4140 SW 109TH AVE",,"BEAVERTON","OR","97005"
"20091112","REEDVILLE BASEBALL, INC.","DOMESTIC NONPROFIT CORPORATION","PUBLIC BENEFIT","1090 SW TOBIAS WAY",,"BEAVERTON","OR","97003"
"20360210","PACIFIC NORTHWEST PGA JUNIOR GOLF FUND, INC.","DOMESTIC NONPROFIT CORPORATION","PUBLIC BENEFIT","4130 SW 117TH AVE #202",,"BEAVERTON","OR","97005"
"20761714","THE OSCPA EDUCATIONAL FOUNDATION","DOMESTIC NONPROFIT CORPORATION","PUBLIC BENEFIT","10206 SW LAUREL ST",,"BEAVERTON","OR","97005"
"20929519","SPECIALIZED HOUSING VI, INCORPORATED","DOMESTIC NONPROFIT CORPORATION","PUBLIC BENEFIT","4140 SW 109TH AVE",,"BEAVERTON","OR","97005"
"857482","PARKINSON'S RESOURCES OF OREGON","DOMESTIC NONPROFIT CORPORATION","PUBLIC BENEFIT","8880 SW NIMBUS AVE STE B",,"BEAVERTON","OR","97008"
"8691487","INSTITUTE FOR SCIENCE, ENGINEERING AND PUBLIC POLICY INCORPORATED","DOMESTIC NONPROFIT CORPORATION","PUBLIC BENEFIT","15389 NW WOODED WAY",,"BEAVERTON","OR","97006"
"12543880","BEAVERTON EDUCATION FOUNDATION","DOMESTIC NONPROFIT CORPORATION","PUBLIC BENEFIT","3800 SW CEDAR HILLS BLVD #168",,"BEAVERTON","OR","97005"
"15631088","JAPANESE AMERICAN MUSEUM OF OREGON","DOMESTIC NONPROFIT CORPORATION","PUBLIC BENEFIT","40 SW 147TH PL",,"BEAVERTON","OR","97006"
"15669583","THE CEDAR CORPORATION","DOMESTIC NONPROFIT CORPORATION","PUBLIC BENEFIT","4585 SW 185TH AVE",,"BEAVERTON","OR","97078"
"21158787","THE YOUTH EDUCATION AND SPORTS FOUNDATION","DOMESTIC NONPROFIT CORPORATION","PUBLIC BENEFIT","18295 SW ALTON ST",,"BEAVERTON","OR","97006"
"25328386","PORTLAND KAYAK AND CANOE TEAM, INC.","DOMESTIC NONPROFIT CORPORATION","PUBLIC BENEFIT","12055 SW KEAS CT",,"BEAVERTON","OR","97008"
"25767484","GRIFFITH PARK ATHLETIC CLUB JUNIOR RACQUETBALL ASSOCIATION","DOMESTIC NONPROFIT CORPORATION","PUBLIC BENEFIT","16369 SW CINNABAR CT",,"BEAVERTON","OR","97007"
"28346880","SPECIALIZED HOUSING VII","DOMESTIC NONPROFIT CORPORATION","PUBLIC BENEFIT","4140 SW 109TH AVE",,"BEAVERTON","OR","97005"
"29400280","THE PALAU FOUNDATION FOR WORLD EVANGELISM","DOMESTIC NONPROFIT CORPORATION","PUBLIC BENEFIT","1500 NW 167TH PLACE",,"BEAVERTON","OR","97006"
"29414281","TRANSITIONAL YOUTH","DOMESTIC NONPROFIT CORPORATION","PUBLIC BENEFIT","1500 NW 167TH PL",,"BEAVERTON","OR","97006"
"37498789","WILLAMETTE VALLEY TRACK AND FIELD, INC.","DOMESTIC NONPROFIT CORPORATION","PUBLIC BENEFIT","4840 SW WESTERN AVE STE 100",,"BEAVERTON","OR","97005"
"35618180","REBUILDING TOGETHER, WASHINGTON COUNTY INC.","DOMESTIC NONPROFIT CORPORATION","PUBLIC BENEFIT","12550 SW 3RD ST",,"BEAVERTON","OR","97005"
"37738184","SPECIALIZED HOUSING VIII, INC.","DOMESTIC NONPROFIT CORPORATION","PUBLIC BENEFIT","4140 SW 109TH AVE",,"BEAVERTON","OR","97005"
"37802287","SPECIALIZED HOUSING, INC. I","DOMESTIC NONPROFIT CORPORATION","PUBLIC BENEFIT","4140 SW 109TH AVE",,"BEAVERTON","OR","97005"
"38307484","BEAVERTON TOGETHER, INC.","DOMESTIC NONPROFIT CORPORATION","PUBLIC BENEFIT","13895 SW HARNESS LN",,"BEAVERTON","OR","97008"
"40581886","COMMUNITY ACCESS SERVICES II, INC.","DOMESTIC NONPROFIT CORPORATION","PUBLIC BENEFIT","1815 NW 169TH PL STE 1060",,"BEAVERTON","OR","97006"
"40662181","BEAVERTON LIBRARY FOUNDATION","DOMESTIC NONPROFIT CORPORATION","PUBLIC BENEFIT","12375 SW 5TH ST",,"BEAVERTON","OR","97005"
"42893685","NIKE FOUNDATION","DOMESTIC NONPROFIT CORPORATION","PUBLIC BENEFIT","ONE BOWERMAN DR",,"BEAVERTON","OR","97005"
"50918789","ALOHA YOUTH FOOTBALL","DOMESTIC NONPROFIT CORPORATION","PUBLIC BENEFIT","6185 SW 166TH AVE",,"BEAVERTON","OR","97007"
"54497582","METRO LEAGUE INTERSCHOLASTIC SKI RACING ASSOCIATION","DOMESTIC NONPROFIT CORPORATION","PUBLIC BENEFIT","10465 SW DAVIES ROAD",,"BEAVERTON","OR","97008"
"54722286","OREGON YOUTH SOCCER FOUNDATION","DOMESTIC NONPROFIT CORPORATION","PUBLIC BENEFIT","7920 SW CIRRUS DR",,"BEAVERTON","OR","97008"
"55028980","BIRTHINGWAY COLLEGE OF MIDWIFERY","DOMESTIC NONPROFIT CORPORATION","PUBLIC BENEFIT","4997 SW NORMANDY PL",,"BEAVERTON","OR","97005"
"55428180","FALLS CREEK RETREAT CENTER","DOMESTIC NONPROFIT CORPORATION","PUBLIC BENEFIT","4800 SW GRIFFITH DR STE 320",,"BEAVERTON","OR","97005"
"57672488","SELF-DETERMINATION RESOURCES, INC.","DOMESTIC NONPROFIT CORPORATION","PUBLIC BENEFIT","12770 SW 1ST ST",,"BEAVERTON","OR","97005"
"60296887","LEADERSHIP BEAVERTON","DOMESTIC NONPROFIT CORPORATION","PUBLIC BENEFIT","12600 SW CRESCENT ST #160",,"BEAVERTON","OR","97005"
"61038189","FEAR NO MUSIC","DOMESTIC NONPROFIT CORPORATION","PUBLIC BENEFIT","13020 SW TRIGGER DR",,"BEAVERTON","OR","97008"
"62157483","OREGON TECHNOLOGY BUSINESS CENTER","DOMESTIC NONPROFIT CORPORATION","PUBLIC BENEFIT","3800 SW CEDAR HILLS BLVD SUITE 260",,"BEAVERTON","OR","97005"
"63636881","ANDISHEH CENTER","DOMESTIC NONPROFIT CORPORATION","PUBLIC BENEFIT","9790 SW 151ST AVE",,"BEAVERTON","OR","97007"
"69662683","BEAVERTON ARTS FOUNDATION, INC.","DOMESTIC NONPROFIT CORPORATION","PUBLIC BENEFIT","12725 SW MILLIKAN WAY STE 240",,"BEAVERTON","OR","97005"
"72317689","PACIFIC OFFICE AUTOMATION CHARITABLE FOUNDATION","DOMESTIC NONPROFIT CORPORATION","PUBLIC BENEFIT","14747 NW GREENBRIER PARKWAY",,"BEAVERTON","OR","97006"
"73625882","TAXPAYERS ASSOCIATION OF OREGON","DOMESTIC NONPROFIT CORPORATION","PUBLIC BENEFIT","11080 SW ALLEN BLVD STE 400B",,"BEAVERTON","OR","97005"
"73907785","TOUCHMARK FOUNDATION","DOMESTIC NONPROFIT CORPORATION","PUBLIC BENEFIT","5150 SW GRIFFITH DR",,"BEAVERTON","OR","97005"
"73907785","TOUCHMARK FOUNDATION","DOMESTIC NONPROFIT CORPORATION","PUBLIC BENEFIT","5150 SW GRIFFITH DR",,"BEAVERTON","OR","97005"
"75006685","RE/MAX EQUITY GROUP FOUNDATION","DOMESTIC NONPROFIT CORPORATION","PUBLIC BENEFIT","9790 SW NIMBUS AVE",,"BEAVERTON","OR","97008"
"78109882","PORTLAND DOWNTOWN LIONS FOUNDATION, INC.","DOMESTIC NONPROFIT CORPORATION","PUBLIC BENEFIT","8625 SW CASCADE AVE","STE 200","BEAVERTON","OR","97008"
"78962686","RAIL-VOLUTION","DOMESTIC NONPROFIT CORPORATION","PUBLIC BENEFIT","4875 SW 149TH AVE",,"BEAVERTON","OR","97007"
"1131291","TIGARD PUBLIC LIBRARY FOUNDATION","DOMESTIC NONPROFIT CORPORATION","PUBLIC BENEFIT","4900 SW GRIFFITH DR STE 131",,"BEAVERTON","OR","97005"
"895391","VISION ACTION NETWORK","DOMESTIC NONPROFIT CORPORATION","PUBLIC BENEFIT","3700 SW MURRAY BLVD SUITE 2200",,"BEAVERTON","OR","97005"
"2145290","A PROMISE OF HEALTH","DOMESTIC NONPROFIT CORPORATION","PUBLIC BENEFIT","13205 SW WHISTLING WAY",,"BEAVERTON","OR","97008"
"2605194","TAXPAYER FOUNDATION OF OREGON","DOMESTIC NONPROFIT CORPORATION","PUBLIC BENEFIT","6425 SW KING BLVD",,"BEAVERTON","OR","97008"
"1591791","DEFUNKT THEATRE","DOMESTIC NONPROFIT CORPORATION","PUBLIC BENEFIT","1426 NW 189TH WAY APT #12",,"BEAVERTON","OR","97006"
"4450995","UNITED HOMECARE SERVICES","DOMESTIC NONPROFIT CORPORATION","PUBLIC BENEFIT","13650 SW 21ST ST",,"BEAVERTON","OR","97008"
"5048392","OMEGA GYMNASTICS BOOSTER CLUB","DOMESTIC NONPROFIT CORPORATION","PUBLIC BENEFIT","9700 SW HARVEST COURT","SUITE180","BEAVERTON","OR","97005"
"6440291","SPECIALIZED HOUSING III, INCORPORATED","DOMESTIC NONPROFIT CORPORATION","PUBLIC BENEFIT","4140 SW 109TH AVE",,"BEAVERTON","OR","97005"
"6498190","SOUTHRIDGE BASEBALL ASSOCIATION","DOMESTIC NONPROFIT CORPORATION","PUBLIC BENEFIT","9625 SW 125TH AVE",,"BEAVERTON","OR","97008"
"9747098","VILLAGE HOME EDUCATION RESOURCE CENTER","DOMESTIC NONPROFIT CORPORATION","PUBLIC BENEFIT","5150 SW WATSON",,"BEAVERTON","OR","97005"
"10641595","GREATER PORTLAND TENNIS COUNCIL","DOMESTIC NONPROFIT CORPORATION","PUBLIC BENEFIT","15707 SW WALKER RD",,"BEAVERTON","OR","97006"
"13125299","COMMUNITY HOUSING FUND","DOMESTIC NONPROFIT CORPORATION","PUBLIC BENEFIT","3700 SW MURRAY BLVD STE 2200",,"BEAVERTON","OR","97005"
"13374095","THE LACELEAF CORPORATION","DOMESTIC NONPROFIT CORPORATION","PUBLIC BENEFIT","4585 SW 185TH AVE",,"BEAVERTON","OR","97078"
"14272397","FORWARD STRIDE","DOMESTIC NONPROFIT CORPORATION","PUBLIC BENEFIT","23839 SW DANIEL RD",,"BEAVERTON","OR","97078"
"14692693","THE BRIDGE HOUSING CORPORATION","DOMESTIC NONPROFIT CORPORATION","PUBLIC BENEFIT","10700 SW BEAVERTON-HILLSDALE HWY #412",,"BEAVERTON","OR","97005"
"14692693","THE BRIDGE HOUSING CORPORATION","DOMESTIC NONPROFIT CORPORATION","PUBLIC BENEFIT","10700 SW BEAVERTON-HILLSDALE HWY #412",,"BEAVERTON","OR","97005"
"16721896","LIBERTY COMMUNITY FOOTBALL","DOMESTIC NONPROFIT CORPORATION","PUBLIC BENEFIT","8470 NE SWIRE ST",,"BEAVERTON","OR","97006"
"16669491","FUNNY FARM EARLY LEARNING CENTER INCORPORATED","DOMESTIC NONPROFIT CORPORATION","PUBLIC BENEFIT","8415 SW MORGAN DR",,"BEAVERTON","OR","97008"
"17789397","CATHOLIC ENGAGED ENCOUNTER OF OREGON, INC.","DOMESTIC NONPROFIT CORPORATION","PUBLIC BENEFIT","1329 SW 178TH PL",,"BEAVERTON","OR","97003"
"18105890","PARENT SUPPORT CENTER, INC.","DOMESTIC NONPROFIT CORPORATION","PUBLIC BENEFIT","4130 SW 117TH AVE A #226",,"BEAVERTON","OR","97005"
"19249192","TUALATIN VALLEY CREATES","DOMESTIC NONPROFIT CORPORATION","PUBLIC BENEFIT","7080 SW TIERRA DEL MAR DR",,"BEAVERTON","OR","97007"
"20386595","CRESCENT ISLAMIC MONTESSORI SCHOOL","DOMESTIC NONPROFIT CORPORATION","PUBLIC BENEFIT","9730 SW 168TH PL",,"BEAVERTON","OR","97007"
"21994991","OREGON REFEREE COMMITTEE, INC.","DOMESTIC NONPROFIT CORPORATION","PUBLIC BENEFIT","4840 SW WESTERN AVE STE 300",,"BEAVERTON","OR","97005"
"22262893","SPARKLE FOSTER FUND, INCORPORATED","DOMESTIC NONPROFIT CORPORATION","PUBLIC BENEFIT","16100 SW SUMAC",,"BEAVERTON","OR","97007"
"25515594","SPECIAL HOOP CAMP INCORPORATED","DOMESTIC NONPROFIT CORPORATION","PUBLIC BENEFIT","16230 NW GIANOLA CT",,"BEAVERTON","OR","97006"
"25830795","BRIDGE MEADOWS","DOMESTIC NONPROFIT CORPORATION","PUBLIC BENEFIT","16115 SW BLACKBIRD",,"BEAVERTON","OR","97007"
"25144593","ISING COMMUNITY CHOIR","DOMESTIC NONPROFIT CORPORATION","PUBLIC BENEFIT","15112 SW SAPPHIRE DRIVE",,"BEAVERTON","OR","97007"
"28514495","HEART FOR THE HOMELESS, INC.","DOMESTIC NONPROFIT CORPORATION","PUBLIC BENEFIT","1500 NW BETHANY BLVD",,"BEAVERTON","OR","97006"
"29129996","PURE LIFE ALLIANCE","DOMESTIC NONPROFIT CORPORATION","PUBLIC BENEFIT","1500 NW 167TH PL",,"BEAVERTON","OR","97006"
"28318590","ST. STEPHEN'S ACADEMY","DOMESTIC NONPROFIT CORPORATION","PUBLIC BENEFIT","7275 SW HALL BLVD",,"BEAVERTON","OR","97008"
"39697198","PACIFIC PUG RESCUE","DOMESTIC NONPROFIT CORPORATION","PUBLIC BENEFIT","11770 SW TIMBERLINE",,"BEAVERTON","OR","97008"
"40987695","KINGS FOR THE KIDS, INC.","DOMESTIC NONPROFIT CORPORATION","PUBLIC BENEFIT","13275 SW 31ST ST",,"BEAVERTON","OR","97008"
"40766297","SOMALI BANTU CITIZENS GROUP","DOMESTIC NONPROFIT CORPORATION","PUBLIC BENEFIT","13665 SW LARCH PL APT 33",,"BEAVERTON","OR","97005"
"48627293","HOMEPLATE YOUTH SERVICES","DOMESTIC NONPROFIT CORPORATION","PUBLIC BENEFIT","12520 SW 3RD ST",,"BEAVERTON","OR","97005"
"49655194","METRO YOUTH LACROSSE LEAGUE, INC.","DOMESTIC NONPROFIT CORPORATION","PUBLIC BENEFIT","17433 SW OCTOBER CT",,"BEAVERTON","OR","97003"
"51102490","AMANI.GCP","DOMESTIC NONPROFIT CORPORATION","PUBLIC BENEFIT","6225 SW 148TH AVE",,"BEAVERTON","OR","97007"
"51489897","PACIFIC NORTHWEST PROPERTIES FOUNDATION","DOMESTIC NONPROFIT CORPORATION","PUBLIC BENEFIT","C/O PACIFIC NW PROPERTIES","6600 SW 105TH AVE STE 175","BEAVERTON","OR","97008"
"53250594","BEAVERTON HISTORICAL SOCIETY","DOMESTIC NONPROFIT CORPORATION","PUBLIC BENEFIT","7050 SW BEL AIRE DR",,"BEAVERTON","OR","97008"
"53309192","SAFE PASSAGE TO MOTHERHOOD","DOMESTIC NONPROFIT CORPORATION","PUBLIC BENEFIT","3095 SW 118TH AVENUE",,"BEAVERTON","OR","97005"
"55553995","SOUTHRIDGE HIGH SCHOOL SKI TEAM, INC.","DOMESTIC NONPROFIT CORPORATION","PUBLIC BENEFIT","8711 SW AMICUS TER",,"BEAVERTON","OR","97007"
"58462095","SPRUCE PLACE INC","DOMESTIC NONPROFIT CORPORATION","PUBLIC BENEFIT","4585 SW 185TH AVE",,"BEAVERTON","OR","97078"
"60383594","BEAVERTON CIVIC THEATRE","DOMESTIC NONPROFIT CORPORATION","PUBLIC BENEFIT","5645 SW MAIN AVENUE","ATTN MELISSA RILEY","BEAVERTON","OR","97005"
"61585999","OREGON WEIMARANER RESCUE, INC.","DOMESTIC NONPROFIT CORPORATION","PUBLIC BENEFIT","12525 SW 3RD ST",,"BEAVERTON","OR","97005"
"62098091","TRANSCENDING HOPE","DOMESTIC NONPROFIT CORPORATION","PUBLIC BENEFIT","990 NW 161ST TER",,"BEAVERTON","OR","97006"
"62788592","HOUSING INDEPENDENCE INC.","DOMESTIC NONPROFIT CORPORATION","PUBLIC BENEFIT","3245 SW 182ND AVENUE RSC",,"BEAVERTON","OR","97006"
"64116099","INDO PROJECT, INC.","DOMESTIC NONPROFIT CORPORATION","PUBLIC BENEFIT","16284 SW CORNELIAN WAY",,"BEAVERTON","OR","97007"
"64519797","ARTMAX ACADEMY","DOMESTIC NONPROFIT CORPORATION","PUBLIC BENEFIT","11125 SW CHICKADEE TERR",,"BEAVERTON","OR","97007"
"66519993","THE PERLAN PROJECT, INC.","DOMESTIC NONPROFIT CORPORATION","PUBLIC BENEFIT","7415 SW HART PL",,"BEAVERTON","OR","97008"
"68337394","TUALATIN VALLEY WATER EMPLOYEES, INC.","DOMESTIC NONPROFIT CORPORATION","PUBLIC BENEFIT","1850 SW 170TH AVE",,"BEAVERTON","OR","97003"
"68659698","SUSAN LYNNE MCCORMICK SPELLING AND GEOGRAPHY BEE","DOMESTIC NONPROFIT CORPORATION","PUBLIC BENEFIT","4800 SW GRIFFITH DRIVE SUITE 320",,"BEAVERTON","OR","97005"
"69429992","FINE ART STARTS","DOMESTIC NONPROFIT CORPORATION","PUBLIC BENEFIT","4420 SW ST MARY'S DR",,"BEAVERTON","OR","97078"
"69900398","NORTHWEST RUSSIAN AMERICAN COMMUNITY CENTER","DOMESTIC NONPROFIT CORPORATION","PUBLIC BENEFIT","7955 SW EVERETT CT",,"BEAVERTON","OR","97007"
"72161996","BABY BEES CHILDCARE CENTER, INC","DOMESTIC NONPROFIT CORPORATION","PUBLIC BENEFIT","6958 SW 202ND TER",,"BEAVERTON","OR","97078"
"74940090","RECLAIMING LIVES MINISTRIES","DOMESTIC NONPROFIT CORPORATION","PUBLIC BENEFIT","6939 SW 158TH AVE",,"BEAVERTON","OR","97007"
"77386291","BEAVERTON DOWNTOWN ASSOCIATION, INC.","DOMESTIC NONPROFIT CORPORATION","PUBLIC BENEFIT","6775 SW BRIARCLIFF CIR",,"BEAVERTON","OR","97008"
"77549799","CRGC EDUCATIONAL FOUNDATION, INCORPORATED","DOMESTIC NONPROFIT CORPORATION","PUBLIC BENEFIT","16100 NW CORNELL RD STE 200",,"BEAVERTON","OR","97006"
"77651595","THE MEDIA FOUNDATION, INC","DOMESTIC NONPROFIT CORPORATION","PUBLIC BENEFIT","16131 SW SUMAC ST",,"BEAVERTON","OR","97007"
"78066199","RP SUNSHINE","DOMESTIC NONPROFIT CORPORATION","PUBLIC BENEFIT","14165 SW YEARLING CT",,"BEAVERTON","OR","97008"
"78958890","HOPE CHINESE CHARTER SCHOOL","DOMESTIC NONPROFIT CORPORATION","PUBLIC BENEFIT","3500 SW 104TH AVE",,"BEAVERTON","OR","97005"
"82557993","SUPPORTERS OF THE OREGON CONSORTIUM FOR NURSING EDUCATION","DOMESTIC NONPROFIT CORPORATION","PUBLIC BENEFIT","6287 SW KAMEN PL",,"BEAVERTON","OR","97078"
"85240092","MUSICA MAESTRALE","DOMESTIC NONPROFIT CORPORATION","PUBLIC BENEFIT","355 NW SILVERADO DR",,"BEAVERTON","OR","97006"
"87128394","SHERWOOD 4 KIDS SAKE","DOMESTIC NONPROFIT CORPORATION","PUBLIC BENEFIT","4425 SW 109TH AVE",,"BEAVERTON","OR","97005"
"90508590","LATIF KAPADIA MEMORIAL WELFARE TRUST USA CHAPTER, INC.","DOMESTIC NONPROFIT CORPORATION","PUBLIC BENEFIT","16617 SW TIMBERLAND DR",,"BEAVERTON","OR","97007"
"91923897","WESTSIDE PAL","DOMESTIC NONPROFIT CORPORATION","PUBLIC BENEFIT","6740 SW VALE CT",,"BEAVERTON","OR","97008"
"94997096","FRIENDS OF BEAVERTON BASKETBALL, INC.","DOMESTIC NONPROFIT CORPORATION","PUBLIC BENEFIT","13540 SW HYLAND PARK CT",,"BEAVERTON","OR","97008"
"95675691","WORLD SCHOLARSHIP INITIATIVE","DOMESTIC NONPROFIT CORPORATION","PUBLIC BENEFIT","9120 SW QUINT TERRACE",,"BEAVERTON","OR","97008"
"95878592","OREGON - JALISCO4KIDS.ORG","DOMESTIC NONPROFIT CORPORATION","PUBLIC BENEFIT","12220 SW PIONEER LN","APT 145","BEAVERTON","OR","97008"
"96952297","WESTVIEW YOUTH BASEBALL","DOMESTIC NONPROFIT CORPORATION","PUBLIC BENEFIT","16655 NW NORWALK DR",,"BEAVERTON","OR","97006"
"103511994","TEAM COLE","DOMESTIC NONPROFIT CORPORATION","PUBLIC BENEFIT","3211 NW 165TH PLACE",,"BEAVERTON","OR","97006"
"105148399","BEAVERTON HIGH SCHOOL SUCCESS FUND","DOMESTIC NONPROFIT CORPORATION","PUBLIC BENEFIT","8100 SW BERRYHILL CT",,"BEAVERTON","OR","97008"
"105679898","WESTVIEW WRESTLING","DOMESTIC NONPROFIT CORPORATION","PUBLIC BENEFIT","16152 NW OAKHILLS DR",,"BEAVERTON","OR","97006"
"105590699","NEW CONCEPT ASSOCIATION","DOMESTIC NONPROFIT CORPORATION","PUBLIC BENEFIT","20564 NW BRENTFORD TERRACE",,"BEAVERTON","OR","97006"
"106173693","EXPERIENCE THEATRE PROJECT","DOMESTIC NONPROFIT CORPORATION","PUBLIC BENEFIT","16172 SW BRIDLE HILLS DR",,"BEAVERTON","OR","97007"
"106771090","MUSTARD SEED FAITH FOUNDATION","DOMESTIC NONPROFIT CORPORATION","PUBLIC BENEFIT","19010 SW SHAW STREET",,"BEAVERTON","OR","97078"
"106771090","MUSTARD SEED FAITH FOUNDATION","DOMESTIC NONPROFIT CORPORATION","PUBLIC BENEFIT","19010 SW SHAW STREET",,"BEAVERTON","OR","97078"
"109842195","SANAGA-YONG CHIMPANZEE RESCUE","DOMESTIC NONPROFIT CORPORATION","PUBLIC BENEFIT","700 SW 126TH AVENUE",,"BEAVERTON","OR","97005"
"109908392","CAREER RESOURCES NETWORK","DOMESTIC NONPROFIT CORPORATION","PUBLIC BENEFIT","17298 SW BERKELEY LANE",,"BEAVERTON","OR","97006"
"110633096","RENEWAL HOUSE NORTHWEST","DOMESTIC NONPROFIT CORPORATION","PUBLIC BENEFIT","10930 SOUTHWEST WALKER ROAD",,"BEAVERTON","OR","97005"
"113517692","THE GENO MORGAN FOUNDATION","DOMESTIC NONPROFIT CORPORATION","PUBLIC BENEFIT","17314 NW CAMELBACK LANE",,"BEAVERTON","OR","97006"
"113733497","ASSOCIATION OF RUSSIAN SPEAKING COMPATRIOTS US","DOMESTIC NONPROFIT CORPORATION","PUBLIC BENEFIT","2510 SW 200TH CT",,"BEAVERTON","OR","97003"
"115121592","OREGON ROWING UNLIMITED - PDX","DOMESTIC NONPROFIT CORPORATION","PUBLIC BENEFIT","11765 SW TIMBERLINE DR",,"BEAVERTON","OR","97008"
"115200495","TIMOTHY B CAMPBELL MEMORIAL SCHOLARSHIP FOUNDATION","DOMESTIC NONPROFIT CORPORATION","PUBLIC BENEFIT","15255 SW SWAN CT",,"BEAVERTON","OR","97007"
"115183592","ATHLETICS FOR CHARACTER AND EDUCATION ACE","DOMESTIC NONPROFIT CORPORATION","PUBLIC BENEFIT","1800 SW 132ND AVE",,"BEAVERTON","OR","97005"
"117470799","HIKE IT BABY","DOMESTIC NONPROFIT CORPORATION","PUBLIC BENEFIT","15788 SW SNOWY OWL LN",,"BEAVERTON","OR","97007"
"117845792","SOL COLLABORATIVE","DOMESTIC NONPROFIT CORPORATION","PUBLIC BENEFIT","15600 SW PLEASANT VALLEY RD",,"BEAVERTON","OR","97007"
"118003193","OREGON BLAZE FASTPITCH","DOMESTIC NONPROFIT CORPORATION","PUBLIC BENEFIT","12810 SW HART ROAD",,"BEAVERTON","OR","97008"
"118170497","KURUBA","DOMESTIC NONPROFIT CORPORATION","PUBLIC BENEFIT","10210 SW GRABHORN RD",,"BEAVERTON","OR","97007"
"118316090","VALOR GLOBAL FOUNDATION","DOMESTIC NONPROFIT CORPORATION","PUBLIC BENEFIT","3350 SW 182ND AVE",,"BEAVERTON","OR","97003"
"120435292","PORTLAND MONDAY DEBTORS ANONYMOUS","DOMESTIC NONPROFIT CORPORATION","PUBLIC BENEFIT","6230 SW HALL BLVD APT 1",,"BEAVERTON","OR","97008"
"120637095","PARADIGM PUBLIC HEALTH SOLUTIONS","DOMESTIC NONPROFIT CORPORATION","PUBLIC BENEFIT","6856 SW STAR JASMINE PL",,"BEAVERTON","OR","97008"
"120307798","OREGON VIOLA SOCIETY","DOMESTIC NONPROFIT CORPORATION","PUBLIC BENEFIT","15465 SW GULL COURT",,"BEAVERTON","OR","97007"
"121985493","BADEBLEH ~ LIFTING UP LIBERIA, INC. (BLULI)","DOMESTIC NONPROFIT CORPORATION","PUBLIC BENEFIT","2372 NW SCHMIDT WAY #121",,"BEAVERTON","OR","97006"
"123096190","FAMILY PROMISE OF GREATER WASHINGTON COUNTY","DOMESTIC NONPROFIT CORPORATION","PUBLIC BENEFIT","4900 SW GRIFFITH DR STE 131",,"BEAVERTON","OR","97005"
"124013194","EAST PORTLAND DAYCARE SERVICES","DOMESTIC NONPROFIT CORPORATION","PUBLIC BENEFIT","2510 SW 200TH CT",,"BEAVERTON","OR","97003"
"124923897","423 COMMUNITIES INTERNATIONAL","DOMESTIC NONPROFIT CORPORATION","PUBLIC BENEFIT","8125 SW FOXGLOVE PL",,"BEAVERTON","OR","97008"
"125580290","MOUNTAINSIDE YOUTH FOOTBALL ASSOCIATION","DOMESTIC NONPROFIT CORPORATION","PUBLIC BENEFIT","10142 SW SNOWGOOSE SPL",,"BEAVERTON","OR","97007"
"125769794","PUBLIC CITIZEN THEATRE","DOMESTIC NONPROFIT CORPORATION","PUBLIC BENEFIT","20661 SW GRACIE ST",,"BEAVERTON","OR","97006"
"126617299","THIN BLUE LINE FOUNDATION","DOMESTIC NONPROFIT CORPORATION","PUBLIC BENEFIT","1500 NW 167TH PLACE",,"BEAVERTON","OR","97006"
"126977099","LIGHT 2 THE WORLD, INC.","DOMESTIC NONPROFIT CORPORATION","PUBLIC BENEFIT","17477 SW FOREST HOLLOW STREET",,"BEAVERTON","OR","97007"
"127474898","POLITISIT","DOMESTIC NONPROFIT CORPORATION","PUBLIC BENEFIT","1915 NE STUCKI AVE STE 308",,"BEAVERTON","OR","97006"
"127737799","THE FISHBACK FAMILY FOUNDATION","DOMESTIC NONPROFIT CORPORATION","PUBLIC BENEFIT","4145 SW WATSON AVE STE 515",,"BEAVERTON","OR","97005"
"128893591","ANSWER2CANCER","DOMESTIC NONPROFIT CORPORATION","PUBLIC BENEFIT","7299 SW LINETTE WAY",,"BEAVERTON","OR","97007"
"129269999","PAID IN FULL OREGON","DOMESTIC NONPROFIT CORPORATION","PUBLIC BENEFIT","1500 NW 167TH PLACE",,"BEAVERTON","OR","97006"
"131411092","LIVING LUCID","DOMESTIC NONPROFIT CORPORATION","PUBLIC BENEFIT","10065 SW CLARK HILL ROAD",,"BEAVERTON","OR","97007"
"131598690","AKASHVAANI FOUNDATION INC.","DOMESTIC NONPROFIT CORPORATION","PUBLIC BENEFIT","13024 SW 165TH AVE",,"BEAVERTON","OR","97007"
"132862897","FUTBOL CLUB ACADEMICOS","DOMESTIC NONPROFIT CORPORATION","PUBLIC BENEFIT","1396 SW 209TH AVE",,"BEAVERTON","OR","97003"
"132864596","PAN AFRICAN FESTIVAL","DOMESTIC NONPROFIT CORPORATION","PUBLIC BENEFIT","6625 SW 207",,"BEAVERTON","OR","97078"
"132992991","ROOTED 2 SERVE, INC.","DOMESTIC NONPROFIT CORPORATION","PUBLIC BENEFIT","6090 SW LYNMAR PL",,"BEAVERTON","OR","97078"
"133265991","MICHAEL ALLEN HARRISON'S PLAY IT FORWARD","DOMESTIC NONPROFIT CORPORATION","PUBLIC BENEFIT","15655 NW PERIMETER DR",,"BEAVERTON","OR","97006"
"133392399","CENTURY YOUTH BASKETBALL","DOMESTIC NONPROFIT CORPORATION","PUBLIC BENEFIT","13145 SW THATCHER DR",,"BEAVERTON","OR","97008"
"134631191","SOLID BRASS PDX, INC.","DOMESTIC NONPROFIT CORPORATION","PUBLIC BENEFIT","20687 SW ROCKPORT LN",,"BEAVERTON","OR","97006"
"136041290","IDA B. WELLS BASKETBALL CLUB","DOMESTIC NONPROFIT CORPORATION","PUBLIC BENEFIT","17672 NW SHADY FIR LOOP",,"BEAVERTON","OR","97006"
"136047891","MIT SCHOOL","DOMESTIC NONPROFIT CORPORATION","PUBLIC BENEFIT","1800 NW 169TH PLACE SUITE A250",,"BEAVERTON","OR","97006"
"137201497","ROSE CITY KAPPA FOUNDATION","DOMESTIC NONPROFIT CORPORATION","PUBLIC BENEFIT","16480 SW VIKING COURT",,"BEAVERTON","OR","97007"
"139987093","STOP ANIMAL SEXUAL ASSAULT","DOMESTIC NONPROFIT CORPORATION","PUBLIC BENEFIT","17710 NW CORNELL RD","APT 1","BEAVERTON","OR","97006"
"141023598","HAKI COMMUNITY ORGANIZATION","DOMESTIC NONPROFIT CORPORATION","PUBLIC BENEFIT","19767 SW MARLIN DR",,"BEAVERTON","OR","97007"
"142481894","MAITREE PDX","DOMESTIC NONPROFIT CORPORATION","PUBLIC BENEFIT","16765 SW BLACKBERRY LANE",,"BEAVERTON","OR","97007"
"143202091","CHRISTIAN RESEARCH","DOMESTIC NONPROFIT CORPORATION","PUBLIC BENEFIT","15499 NW NORWICH STREET",,"BEAVERTON","OR","97007"
"144181898","TIGARD CERT INC.","DOMESTIC NONPROFIT CORPORATION","PUBLIC BENEFIT","4800 SW GRIFFITH DR STE 320",,"BEAVERTON","OR","97005"
"144814092","WESTSIDE FOOD BRIGADE","DOMESTIC NONPROFIT CORPORATION","PUBLIC BENEFIT","19884 SW YOCOM LN",,"BEAVERTON","OR","97007"
"145108692","CURVY CHIC CLOSET FOUNDATION","DOMESTIC NONPROFIT CORPORATION","PUBLIC BENEFIT","3291 SW 174TH AVE",,"BEAVERTON","OR","97003"
"145225793","WESTSIDE RIDERS ASSOCIATION","DOMESTIC NONPROFIT CORPORATION","PUBLIC BENEFIT","11856 SW 175TH AVE",,"BEAVERTON","OR","97007"
"145568192","RISEN COMMUNITY","DOMESTIC NONPROFIT CORPORATION","PUBLIC BENEFIT","6217 SW CROSS CREEK AVE",,"BEAVERTON","OR","97078"
"148560998","PERUVIAN CULTURAL FESTIVAL AND EVENTS","DOMESTIC NONPROFIT CORPORATION","PUBLIC BENEFIT","6230 SW ZABACO TERRACE",,"BEAVERTON","OR","97078"
"150051499","2D4D","DOMESTIC NONPROFIT CORPORATION","PUBLIC BENEFIT","7080 SW TIERRA DEL MAR DR",,"BEAVERTON","OR","97007"
"150459197","3 R'S EQUINE THERAPY CENTER","DOMESTIC NONPROFIT CORPORATION","PUBLIC BENEFIT","15675 SW REDBIRD ST",,"BEAVERTON","OR","97007"
"150644996","SOS LOST PET RESCUE NW, INC.","DOMESTIC NONPROFIT CORPORATION","PUBLIC BENEFIT","4770 SW 141ST AVE",,"BEAVERTON","OR","97005"
"150768191","ENLIGHTENMENT SANGHA","DOMESTIC NONPROFIT CORPORATION","PUBLIC BENEFIT","9750 SW MARJORIE LN APT 1",,"BEAVERTON","OR","97008"
"152157195","DDG GIVES, INC.","DOMESTIC NONPROFIT CORPORATION","PUBLIC BENEFIT","1915 NE STUCKI AVE STE 250",,"BEAVERTON","OR","97006"
"152244696","PGC EDUCATIONAL FOUNDATION, INC.","DOMESTIC NONPROFIT CORPORATION","PUBLIC BENEFIT","5075 SW GRIFFITH DR STE 220",,"BEAVERTON","OR","97005"
"153063293","OREGON YOUTH LACROSSE","DOMESTIC NONPROFIT CORPORATION","PUBLIC BENEFIT","7255 SW ALPINE DR",,"BEAVERTON","OR","97008"
"153862991","LET'S PEER UP","DOMESTIC NONPROFIT CORPORATION","PUBLIC BENEFIT","12725 SW 159TH CT",,"BEAVERTON","OR","97007"
"153839791","NTC SCHOOL DE BRUG PORTLAND","DOMESTIC NONPROFIT CORPORATION","PUBLIC BENEFIT","17476 SW CLEMENTINE ST",,"BEAVERTON","OR","97007"
"154386099","MERCY CONNECTIONS","DOMESTIC NONPROFIT CORPORATION","PUBLIC BENEFIT","8165 SW CONNEMARA TERRACE",,"BEAVERTON","OR","97008"
"154120191","COOPER MOUNTAIN ELEMENTARY CHESS CLUB","DOMESTIC NONPROFIT CORPORATION","PUBLIC BENEFIT","17755 SW COOPER MOUNTAIN LN",,"BEAVERTON","OR","97007"
"156421894","GUARD OUR DOMINION, INC.","DOMESTIC NONPROFIT CORPORATION","PUBLIC BENEFIT","4550 SW HALL BLVD",,"BEAVERTON","OR","97005"
"156455595","JX2 ATHLETICS, INC.","DOMESTIC NONPROFIT CORPORATION","PUBLIC BENEFIT","15418 NW WHITE FOX DR",,"BEAVERTON","OR","97006"
"157146292","MENTE","DOMESTIC NONPROFIT CORPORATION","PUBLIC BENEFIT","15458 SW MALLARD DR STE 101",,"BEAVERTON","OR","97007"
"159220590","SCARLET SAILS CULTURAL FOUNDATION","DOMESTIC NONPROFIT CORPORATION","PUBLIC BENEFIT","14960 SW RUBY STREET",,"BEAVERTON","OR","97007"
"159818393","OREGON LACROSSE FOUNDATION","DOMESTIC NONPROFIT CORPORATION","PUBLIC BENEFIT","4840 SW WESTERN AVE #600",,"BEAVERTON","OR","97005"
"160024890","NEW THAI VERSION FOUNDATION","DOMESTIC NONPROFIT CORPORATION","PUBLIC BENEFIT","4800 SW GRIFFITH DRIVE","#320","BEAVERTON","OR","97005"
"160076999","WESTSIDE QUEER RESOURCE CENTER","DOMESTIC NONPROFIT CORPORATION","PUBLIC BENEFIT","5870 SW 167TH AVE",,"BEAVERTON","OR","97007"
"160500493","TA YEIYARI TE PA' YE XEIYANI","DOMESTIC NONPROFIT CORPORATION","PUBLIC BENEFIT","5265 SW 153RD AVE",,"BEAVERTON","OR","97007"
"161191896","CONCEPT CITY R&D, INC.","DOMESTIC NONPROFIT CORPORATION","PUBLIC BENEFIT","7079 SW 156TH AVENUE",,"BEAVERTON","OR","97007"
"165424194","SONRISE BOXING T.E.A.M.","DOMESTIC NONPROFIT CORPORATION","PUBLIC BENEFIT","6426 SW ONASSIS PL",,"BEAVERTON","OR","97007"
"165558496","BEAVERTON RESOURCE CENTER","DOMESTIC NONPROFIT CORPORATION","PUBLIC BENEFIT","13565 SW WALKER RD",,"BEAVERTON","OR","97005"
"166825894","MAKERFORCE","DOMESTIC NONPROFIT CORPORATION","PUBLIC BENEFIT","13160 SW GLENN CT",,"BEAVERTON","OR","97008"
"167304196","PLANTING SEEDS COMMUNITY OF BEAVERTON","DOMESTIC NONPROFIT CORPORATION","PUBLIC BENEFIT","9188 SW PLATINUM PLACE",,"BEAVERTON","OR","97007"
"167576496","THE FOUNDATION FOR PSYCHOANALYTIC EXPANSION AND ACCESSIBILITY","DOMESTIC NONPROFIT CORPORATION","PUBLIC BENEFIT","14240 SW YEARLING WAY",,"BEAVERTON","OR","97008"
"168932599","EAST AFRICA ENERGY SOLUTIONS","DOMESTIC NONPROFIT CORPORATION","PUBLIC BENEFIT","14940 SW SCHOLLS FERRY RD # M # 1O3",,"BEAVERTON","OR","97007"
"169649291","EVERY BODY ATHLETICS","DOMESTIC NONPROFIT CORPORATION","PUBLIC BENEFIT","4436 NW GLENLAKES PLACE",,"BEAVERTON","OR","97006"
"169910198","EUDAEMONIA EQUINE CONNECTIONS, INC.","DOMESTIC NONPROFIT CORPORATION","PUBLIC BENEFIT","1865 NW 169TH PL #201",,"BEAVERTON","OR","97006"
"170348297","THE DESI PROJECT","DOMESTIC NONPROFIT CORPORATION","PUBLIC BENEFIT","1129 NW TURNBERRY TER",,"BEAVERTON","OR","97006"
"171918593","CHANCE HOUSE INC.","DOMESTIC NONPROFIT CORPORATION","PUBLIC BENEFIT","6900 SW 105TH AVE STE A",,"BEAVERTON","OR","97008"
"174151390","WE CARE","DOMESTIC NONPROFIT CORPORATION","PUBLIC BENEFIT","16264 SW GAGE LN",,"BEAVERTON","OR","97006"
"169856391","AIM HIGH PDX","DOMESTIC NONPROFIT CORPORATION","PUBLIC BENEFIT","16500 NW BETHANY CT STE 150",,"BEAVERTON","OR","97006"
"175845891","WAKEUP BEAVERTON!","DOMESTIC NONPROFIT CORPORATION","PUBLIC BENEFIT","12555 SW 4TH STREET",,"BEAVERTON","OR","97005"
"176167295","PEOPLES FOUNDATION FOR BETTER OREGON","DOMESTIC NONPROFIT CORPORATION","PUBLIC BENEFIT","609 NW PACIFIC GROVE DRIVE",,"BEAVERTON","OR","97006"
"176842491","LOVE AND CARE KITTEN ADOPTION","DOMESTIC NONPROFIT CORPORATION","PUBLIC BENEFIT","800 SW 167TH AVE",,"BEAVERTON","OR","97006"
"176288299","ASTONISHED","DOMESTIC NONPROFIT CORPORATION","PUBLIC BENEFIT","9200 PARKVIEW LOOP",,"BEAVERTON","OR","97008"
"179465498","ASPIRING FRONTIERS, INC.","DOMESTIC NONPROFIT CORPORATION","PUBLIC BENEFIT","3513 NW 164TH TER",,"BEAVERTON","OR","97006"
"179869996","HAUNTERS FOR GIVING, INC.","DOMESTIC NONPROFIT CORPORATION","PUBLIC BENEFIT","14825 NW BONNEVILLE LOOP",,"BEAVERTON","OR","97006"
"180899693","KINDER CLUB","DOMESTIC NONPROFIT CORPORATION","PUBLIC BENEFIT","16460 SW BLACKBIRD ST",,"BEAVERTON","OR","97007"
"181388696","COMRADES IN COURAGE","DOMESTIC NONPROFIT CORPORATION","PUBLIC BENEFIT","11375 SW 14TH ST",,"BEAVERTON","OR","97005"
"181402992","MORIVIVI THEATRE","DOMESTIC NONPROFIT CORPORATION","PUBLIC BENEFIT","17622 SW CORONA LN",,"BEAVERTON","OR","97003"
"182388794","JOYFUL TRANSITIONS PDX","DOMESTIC NONPROFIT CORPORATION","PUBLIC BENEFIT","17506 SW BRITETREE CIR",,"BEAVERTON","OR","97007"
"182547993","CULTURAL COALITION OF WASHINGTON COUNTY","DOMESTIC NONPROFIT CORPORATION","PUBLIC BENEFIT","7080 SW TIERRA DEL MAR DR",,"BEAVERTON","OR","97007"
"183038596","CRESCENT MOON","DOMESTIC NONPROFIT CORPORATION","PUBLIC BENEFIT","3138 SW DOYLE PL APT 3821","APT 3821","BEAVERTON","OR","97003"
"183255992","NO PAMPHLET FOR THAT, INC.","DOMESTIC NONPROFIT CORPORATION","PUBLIC BENEFIT","7255 SW 126TH CT",,"BEAVERTON","OR","97008"
"183606590","BLAIR'S BEAUTIFUL BOUNTY","DOMESTIC NONPROFIT CORPORATION","PUBLIC BENEFIT","20691 SW NANTUCKET LN",,"BEAVERTON","OR","97006"
"184060490","MEDPACK","DOMESTIC NONPROFIT CORPORATION","PUBLIC BENEFIT","5460 SW BEVERLY CT",,"BEAVERTON","OR","97005"
"184323492","CATHOLIC LIBERAL EDUCATION ADVOCATES, INC.","DOMESTIC NONPROFIT CORPORATION","PUBLIC BENEFIT","16235 NW AUDREY DR",,"BEAVERTON","OR","97006"
"184960699","DONATE DENTISTRY","DOMESTIC NONPROFIT CORPORATION","PUBLIC BENEFIT","16205 NW BETHANY CT","STE 112","BEAVERTON","OR","97006"
"185113595","FEED THE STREETS","DOMESTIC NONPROFIT CORPORATION","PUBLIC BENEFIT","3370 SW 153RD DR",,"BEAVERTON","OR","97003"
"185308195","YOUTH UNITED- PNW, INC.","DOMESTIC NONPROFIT CORPORATION","PUBLIC BENEFIT","12220 SW DENFIELD ST",,"BEAVERTON","OR","97005"
"185397495","THRIVING VILLAGES UGANDA","DOMESTIC NONPROFIT CORPORATION","PUBLIC BENEFIT","2200 NW 153RD PL",,"BEAVERTON","OR","97006"
"186862398","A CHANCE TO DREAM, INC.","DOMESTIC NONPROFIT CORPORATION","PUBLIC BENEFIT","16936 SW LAMB CT",,"BEAVERTON","OR","97007"
"187095493","TRULY IMMIGRATION","DOMESTIC NONPROFIT CORPORATION","PUBLIC BENEFIT","17968 SW BRISK LN",,"BEAVERTON","OR","97007"
"188446893","CLIMATE CHANGE RECOVERY, INC.","DOMESTIC NONPROFIT CORPORATION","PUBLIC BENEFIT","3545 NW ASHLAND PL",,"BEAVERTON","OR","97006"
"189377493","SHUNKAI CHESS TRAINING CENTER","DOMESTIC NONPROFIT CORPORATION","PUBLIC BENEFIT","9340 SW DOWNING DR",,"BEAVERTON","OR","97008"
"190012394","MATTRESSES IN REACH","DOMESTIC NONPROFIT CORPORATION","PUBLIC BENEFIT","17489 SW WATERLEAF LN",,"BEAVERTON","OR","97006"
"187332797","BLACK SWIMMING INITIATIVE","DOMESTIC NONPROFIT CORPORATION","PUBLIC BENEFIT","19539 SW LIMESTONE CT",,"BEAVERTON","OR","97003"
"191012898","BINDAL SEVA FOUNDATION","DOMESTIC NONPROFIT CORPORATION","PUBLIC BENEFIT","13024 SW 165TH AVE",,"BEAVERTON","OR","97007"
"191185793","PORTYPAA","DOMESTIC NONPROFIT CORPORATION","PUBLIC BENEFIT","8790 SW SORRENTO RD",,"BEAVERTON","OR","97008"
"191381491","FUND THAT B","DOMESTIC NONPROFIT CORPORATION","PUBLIC BENEFIT","15156 SW BARCELONA WAY",,"BEAVERTON","OR","97007"
"191367599","DATAHS INTERNATIONAL DOULAS ADVISORY, TRAINING AND HEALTH SUPPORT","DOMESTIC NONPROFIT CORPORATION","PUBLIC BENEFIT","5575 SW FRANKLIN AVE APT 19",,"BEAVERTON","OR","97005"
"192293091","SOMALI AMERICAN ORGANIZATION","DOMESTIC NONPROFIT CORPORATION","PUBLIC BENEFIT","12875 SW CRESCENT ST","409E","BEAVERTON","OR","97005"
"193052793","DISASTER RELIEF ROTARY DISTRICT 5100","DOMESTIC NONPROFIT CORPORATION","PUBLIC BENEFIT","6700 SW 105TH AVE","STE 314","BEAVERTON","OR","97008"
"193163491","COACH SAM","DOMESTIC NONPROFIT CORPORATION","PUBLIC BENEFIT","12392 SW MEADER WAY",,"BEAVERTON","OR","97008"
"193996791","SOUTH BEAVERTON YOUTH CHEER","DOMESTIC NONPROFIT CORPORATION","PUBLIC BENEFIT","8320 SW MONTICELLO CT",,"BEAVERTON","OR","97008"
"194717592","JUN & RIM PEACE MISSION FOUNDATION","DOMESTIC NONPROFIT CORPORATION","PUBLIC BENEFIT","5075 SW GRIFFITH DRIVE #240",,"BEAVERTON","OR","97005"
"194810090","EMMANUEL NONPROFIT FOUNDATION FOR CHRISTIAN MISSION SUPPORTS","DOMESTIC NONPROFIT CORPORATION","PUBLIC BENEFIT","5075 SW GRIFFITH DR STE 240",,"BEAVERTON","OR","97005"
"194993490","VIKTORIAS ANGELS","DOMESTIC NONPROFIT CORPORATION","PUBLIC BENEFIT","1060 SW 206TH AVE",,"BEAVERTON","OR","97003"
"195700894","BEAVERTON OR HISTORY ASSOCIATION","DOMESTIC NONPROFIT CORPORATION","PUBLIC BENEFIT","18155 SW BARCELONA WAY",,"BEAVERTON","OR","97007"
"193955391","AUTISM FAMILY SUPPORT","DOMESTIC NONPROFIT CORPORATION","PUBLIC BENEFIT","15585 SW REDSTONE DRIVE",,"BEAVERTON","OR","97007"
"195967592","RAINBOW HEART RESCUE","DOMESTIC NONPROFIT CORPORATION","PUBLIC BENEFIT","11920 SW 3RD ST",,"BEAVERTON","OR","97005"
"196353594","SIGNIFICANT ART FOR LIFE","DOMESTIC NONPROFIT CORPORATION","PUBLIC BENEFIT","15175 NW OAKHILLS DR",,"BEAVERTON","OR","97006"
"196630090","FOUNDATION IV","DOMESTIC NONPROFIT CORPORATION","PUBLIC BENEFIT","4800 SW GRIFFITH DR STE 320",,"BEAVERTON","OR","97005"
"197028591","VETERANS DAY PORTLAND INC.","DOMESTIC NONPROFIT CORPORATION","PUBLIC BENEFIT","16010 SW AUDUBON STREET UNIT 101",,"BEAVERTON","OR","97003"
"197116990","UNITED AID MISSION","DOMESTIC NONPROFIT CORPORATION","PUBLIC BENEFIT","6235 SW 150TH AVE",,"BEAVERTON","OR","97007"
"199221699","BROKEN ARROW RANCH AND SANCTUARY INC.","DOMESTIC NONPROFIT CORPORATION","PUBLIC BENEFIT","14787 SW MILLIKAN WAY",,"BEAVERTON","OR","97003"
"5157615","DESCHUTES UNITED WAY","DOMESTIC NONPROFIT CORPORATION","PUBLIC BENEFIT","1130 NW HARRIMAN",,"BEND","OR","97701"
"5584313","CENTRAL OREGON COMMUNITY COLLEGE FOUNDATION","DOMESTIC NONPROFIT CORPORATION","PUBLIC BENEFIT","2600 NW COLLEGE WAY",,"BEND","OR","97703"
"6171417","THE HOLLAND FAMILY FOUNDATION","DOMESTIC NONPROFIT CORPORATION","PUBLIC BENEFIT","611 NE BELLEVUE DR #323",,"BEND","OR","97701"
"6610315","HUMANE SOCIETY OF CENTRAL OREGON","DOMESTIC NONPROFIT CORPORATION","PUBLIC BENEFIT","61170 SE 27TH ST",,"BEND","OR","97702"
"9146713","MAYBELLE CLARK MACDONALD FUND","DOMESTIC NONPROFIT CORPORATION","PUBLIC BENEFIT","404 SW COLUMBIA ST",,"BEND","OR","97702"
"9360116","J BAR J YOUTH SERVICES, INC.","DOMESTIC NONPROFIT CORPORATION","PUBLIC BENEFIT","62895 HAMBY RD",,"BEND","OR","97701"
"10153112","CAMP FIRE CENTRAL OREGON","DOMESTIC NONPROFIT CORPORATION","PUBLIC BENEFIT","20771 BARTON CROSSING WAY",,"BEND","OR","97701"
"10790111","THE HIGH DESERT MUSEUM","DOMESTIC NONPROFIT CORPORATION","PUBLIC BENEFIT","59800 S HWY 97",,"BEND","OR","97702"
"11061611","COUNCIL ON AGING OF CENTRAL OREGON","DOMESTIC NONPROFIT CORPORATION","PUBLIC BENEFIT","1036 NE 5TH ST",,"BEND","OR","97701"
"11810017","EAST CASCADES AUDUBON SOCIETY","DOMESTIC NONPROFIT CORPORATION","PUBLIC BENEFIT","16 NW KANSAS AVE",,"BEND","OR","97703"
"12403416","SAVING GRACE IMAGINE LIFE WITHOUT VIOLENCE","DOMESTIC NONPROFIT CORPORATION","PUBLIC BENEFIT","1004 NW MILWAUKEE STE 100",,"BEND","OR","97703"
"13475017","THE GROWING TREE CHILDREN'S CENTER","DOMESTIC NONPROFIT CORPORATION","PUBLIC BENEFIT","1080 NE 4TH",,"BEND","OR","97701"
"14247811","PARTNERS IN CARE, INC.","DOMESTIC NONPROFIT CORPORATION","PUBLIC BENEFIT","2503 NW COE CT",,"BEND","OR","97703"
"15122617","HOSPICE OF REDMOND","DOMESTIC NONPROFIT CORPORATION","PUBLIC BENEFIT","360 SW BOND ST STE 400",,"BEND","OR","97702"
"15228919","ABILITREE","DOMESTIC NONPROFIT CORPORATION","PUBLIC BENEFIT","33 NW IRVING AVE",,"BEND","OR","97703"
"15400815","THE BEREAN CALL","DOMESTIC NONPROFIT CORPORATION","PUBLIC BENEFIT","64680 HORSEMAN LN",,"BEND","OR","97701"
"16467516","MARGARET GRAHAM ISELI FOUNDATION","DOMESTIC NONPROFIT CORPORATION","PUBLIC BENEFIT","954 NE QUIMBY AVE",,"BEND","OR","97701"
"16740912","CENTRAL OREGON COLLECTIVE","DOMESTIC NONPROFIT CORPORATION","PUBLIC BENEFIT","62070 27TH ST",,"BEND","OR","97701"
"16994915","MT. BACHELOR SPORTS EDUCATION FOUNDATION, INC.","DOMESTIC NONPROFIT CORPORATION","PUBLIC BENEFIT","2765 NW LOLO DRIVE",,"BEND","OR","97703"
"3776986","CENTRAL OREGON LANDWATCH","DOMESTIC NONPROFIT CORPORATION","PUBLIC BENEFIT","1114 NW OGDEN AVE",,"BEND","OR","97703"
"12108288","BEND NORTH LITTLE LEAGUE","DOMESTIC NONPROFIT CORPORATION","PUBLIC BENEFIT","1020 SW EMKAY DRIVE SUITE 200",,"BEND","OR","97702"
"12546180","THE SCHOOL FOUNDATION, INC.","DOMESTIC NONPROFIT CORPORATION","PUBLIC BENEFIT","EXECUTIVE DIRECTOR","520 NW WALL ST #105","BEND","OR","97703"
"12608188","FELLOWSHIP OF THE LENS-A SPIRITUAL NETWORK","DOMESTIC NONPROFIT CORPORATION","PUBLIC BENEFIT","1128 NE 9TH ST",,"BEND","OR","97701"
"13633987","FAMILY RESOURCE CENTER OF CENTRAL OREGON","DOMESTIC NONPROFIT CORPORATION","PUBLIC BENEFIT","NEIL R BRYANT","591 MILL VIEW WAY","BEND","OR","97702"
"14150080","CENTRAL OREGON ENVIRONMENTAL CENTER, INC.","DOMESTIC NONPROFIT CORPORATION","PUBLIC BENEFIT","16 NW KANSAS",,"BEND","OR","97703"
"14149884","OREGON NATURAL DESERT ASSOCIATION","DOMESTIC NONPROFIT CORPORATION","PUBLIC BENEFIT","50 SW BOND ST #4",,"BEND","OR","97702"
"17262585","QUADRIPLEGIC FOUNDATION","DOMESTIC NONPROFIT CORPORATION","PUBLIC BENEFIT","21715 OLD ROD RD",,"BEND","OR","97702"
"18474882","DESCHUTES DEFENDERS, A PUBLIC DEFENSE NONPROFIT","DOMESTIC NONPROFIT CORPORATION","PUBLIC BENEFIT","215 NW GREENWOOD SUITE 200",,"BEND","OR","97703"
"18244285","FRIESEN FOUNDATION, INC.","DOMESTIC NONPROFIT CORPORATION","PUBLIC BENEFIT","19395 CAYUSE CRATER CT",,"BEND","OR","97702"
"19035187","CONET, INC.","DOMESTIC NONPROFIT CORPORATION","PUBLIC BENEFIT","2500 NE NEFF RD",,"BEND","OR","97701"
"19215482","DESCHUTES CHILDREN'S FOUNDATION","DOMESTIC NONPROFIT CORPORATION","PUBLIC BENEFIT","1010 NW 14TH ST",,"BEND","OR","97703"
"21050687","OREGON BICYCLE RACING ASSOCIATION","DOMESTIC NONPROFIT CORPORATION","PUBLIC BENEFIT","1923 SW KNOLL AVE",,"BEND","OR","97702"
"22657381","CASCADE COMMUNITY DEVELOPMENT","DOMESTIC NONPROFIT CORPORATION","PUBLIC BENEFIT","415 NE NORTON AVE #16",,"BEND","OR","97701"
"22587786","KIDS UNLIMITED HOLIDAY SERVICES, INC","DOMESTIC NONPROFIT CORPORATION","PUBLIC BENEFIT","1370 NW FRESNO AVE",,"BEND","OR","97703"
"23474182","CYCLE OREGON, INC.","DOMESTIC NONPROFIT CORPORATION","PUBLIC BENEFIT","63333 SILVERADO DR",,"BEND","OR","97703"
"24184384","CASA OF CENTRAL OREGON","DOMESTIC NONPROFIT CORPORATION","PUBLIC BENEFIT","1029 NW 14TH ST STE 100",,"BEND","OR","97703"
"24258188","FRIENDS OF SP 4449, INC.","DOMESTIC NONPROFIT CORPORATION","PUBLIC BENEFIT","1148 NW HILL ST",,"BEND","OR","97701"
"25190687","PREGNANCY RESOURCE CENTERS OF CENTRAL OREGON","DOMESTIC NONPROFIT CORPORATION","PUBLIC BENEFIT","369 NE REVERE AVE #102",,"BEND","OR","97701"
"29855780","KIDS INTERVENTION & DIAGNOSTIC SERVICE CENTER","DOMESTIC NONPROFIT CORPORATION","PUBLIC BENEFIT","1375 NW KINGSTON AVE",,"BEND","OR","97703"
"31996481","DESCHUTES PUBLIC LIBRARY FOUNDATION, INC.","DOMESTIC NONPROFIT CORPORATION","PUBLIC BENEFIT","507 NW WALL STREET",,"BEND","OR","97703"
"33082181","COSA, INC.","DOMESTIC NONPROFIT CORPORATION","PUBLIC BENEFIT","15 SW COLORADO AVE STE 320",,"BEND","OR","97702"
"34571380","BOYS AND GIRLS CLUBS OF BEND","DOMESTIC NONPROFIT CORPORATION","PUBLIC BENEFIT","500 NW WALL ST",,"BEND","OR","97703"
"35386580","CENTRAL OREGON JUNIOR GOLF ASSOCIATION","DOMESTIC NONPROFIT CORPORATION","PUBLIC BENEFIT","19589 BLUE LAKE LOOP",,"BEND","OR","97702"
"35770585","HABITAT FOR HUMANITY OF LA PINE SUNRIVER, INC.","DOMESTIC NONPROFIT CORPORATION","PUBLIC BENEFIT","591 SW MILL VIEW WAY",,"BEND","OR","97702"
"36098481","BENDNEXT","DOMESTIC NONPROFIT CORPORATION","PUBLIC BENEFIT","777 NW WALL ST STE 200",,"BEND","OR","97703"
"39780184","CENTRAL OREGON YOUTH INVESTMENT FOUNDATION, INC.","DOMESTIC NONPROFIT CORPORATION","PUBLIC BENEFIT","60909 ONYX ST",,"BEND","OR","97702"
"39243183","GREATER BEND ROTARY CLUB FOUNDATION","DOMESTIC NONPROFIT CORPORATION","PUBLIC BENEFIT","2540 NW BRICKYARD ST",,"BEND","OR","97703"
"40725186","SISTERS ROTARY FOUNDATION","DOMESTIC NONPROFIT CORPORATION","PUBLIC BENEFIT","17930 PARKWAY LN",,"BEND","OR","97703"
"43216282","CONSTABLE PUBLIC SAFETY MEMORIAL FOUNDATION, INC.","DOMESTIC NONPROFIT CORPORATION","PUBLIC BENEFIT","20615 WOODSIDE COURT",,"BEND","OR","97702"
"46892980","DESCHUTES ARES","DOMESTIC NONPROFIT CORPORATION","PUBLIC BENEFIT","60548 TALL PINE AVE",,"BEND","OR","97702"
"47486881","DESCHUTES LAND TRUST","DOMESTIC NONPROFIT CORPORATION","PUBLIC BENEFIT","210 NW IRVING AVE STE 102",,"BEND","OR","97703"
"48615280","CENTRAL OREGON SINGERS, INC.","DOMESTIC NONPROFIT CORPORATION","PUBLIC BENEFIT","1979 NE RED ROCK LN",,"BEND","OR","97701"
"49756984","SAGEBRUSH, INC.","DOMESTIC NONPROFIT CORPORATION","PUBLIC BENEFIT","901 SW SIMPSON AVE",,"BEND","OR","97702"
"51042589","SEVEN PEAKS SCHOOL","DOMESTIC NONPROFIT CORPORATION","PUBLIC BENEFIT","19660 SW MOUNTAINEER WAY",,"BEND","OR","97702"
"54530986","DESCHUTES RIVER CONSERVANCY","DOMESTIC NONPROFIT CORPORATION","PUBLIC BENEFIT","700 NW HILL STREET",,"BEND","OR","97703"
"55267588","UPPER DESCHUTES WATERSHED COUNCIL","DOMESTIC NONPROFIT CORPORATION","PUBLIC BENEFIT","700 NW HILL STREET",,"BEND","OR","97703"
"56676589","CRYSTAL PEAKS YOUTH RANCH CO.","DOMESTIC NONPROFIT CORPORATION","PUBLIC BENEFIT","19344 INNES MARKET RD",,"BEND","OR","97701"
"57698186","MILLS FAMILY FOUNDATION","DOMESTIC NONPROFIT CORPORATION","PUBLIC BENEFIT","16280 BEAR LN",,"BEND","OR","97707"
"58331985","THE TOWER THEATRE FOUNDATION, INC.","DOMESTIC NONPROFIT CORPORATION","PUBLIC BENEFIT","835 NW WALL ST",,"BEND","OR","97703"
"60559581","FRONTLINE FOUNDATION","DOMESTIC NONPROFIT CORPORATION","PUBLIC BENEFIT","1001 SW DISK DR #101",,"BEND","OR","97702"
"62958880","FIRST STORY","DOMESTIC NONPROFIT CORPORATION","PUBLIC BENEFIT","963 SW SIMPSON AVE STE 110",,"BEND","OR","97702"
"63304282","LOGSDON CHARITABLE FOUNDATION","DOMESTIC NONPROFIT CORPORATION","PUBLIC BENEFIT","1567 SW CHANDLER AVE",,"BEND","OR","97702"
"63572482","BEND ROTARY CLUB FOUNDATION, INC.","DOMESTIC NONPROFIT CORPORATION","PUBLIC BENEFIT","61088 RIVER BLUFF TRAIL",,"BEND","OR","97702"
"63768684","MICHAEL J. AND ADELE M. TENNANT CHARITABLE FUND","DOMESTIC NONPROFIT CORPORATION","PUBLIC BENEFIT","532 SW 13TH ST STE 200",,"BEND","OR","97702"
"64264287","BOYER FOUNDATION","DOMESTIC NONPROFIT CORPORATION","PUBLIC BENEFIT","21827 BOONESBOROUGH DR",,"BEND","OR","97701"
"65619885","RESEARCH AND INFORMATION SERVICES","DOMESTIC NONPROFIT CORPORATION","PUBLIC BENEFIT","18195 PLAINVIEW RD",,"BEND","OR","97703"
"66782583","SACRED ART OF LIVING EDUCATION & RETREAT CENTER, INC.","DOMESTIC NONPROFIT CORPORATION","PUBLIC BENEFIT","20273 SE REED LN",,"BEND","OR","97702"
"68564187","OREGON YOUTH RUGBY","DOMESTIC NONPROFIT CORPORATION","PUBLIC BENEFIT","2395 NW TODDS CREST DR",,"BEND","OR","97703"
"72605380","CASCADE PEER AND SELF HELP CENTER","DOMESTIC NONPROFIT CORPORATION","PUBLIC BENEFIT","32 SW GLENEAGLES WAY",,"BEND","OR","97702"
"72867188","HEALING REINS THERAPEUTIC RIDING CENTER, INC.","DOMESTIC NONPROFIT CORPORATION","PUBLIC BENEFIT","644 NW BROADWAY ST",,"BEND","OR","97703"
"73082886","THE LATINO COMMUNITY ASSOCIATION","DOMESTIC NONPROFIT CORPORATION","PUBLIC BENEFIT","1133 NW WALL ST STE 105",,"BEND","OR","97703"
"75482589","THE CENTER FOUNDATION","DOMESTIC NONPROFIT CORPORATION","PUBLIC BENEFIT","2200 NE NEFF RD STE 200",,"BEND","OR","97701"
"75647785","HOWARD CROSS FOUNDATION","DOMESTIC NONPROFIT CORPORATION","PUBLIC BENEFIT","1062 SE BLACK RIDGE",,"BEND","OR","97702"
"75795584","HEART OF OREGON CORPS, INC.","DOMESTIC NONPROFIT CORPORATION","PUBLIC BENEFIT","1291 NE 5TH ST BLDGS A B",,"BEND","OR","97701"
"77639087","FRIENDS OF REALMS","DOMESTIC NONPROFIT CORPORATION","PUBLIC BENEFIT","63175 OB RILEY RD",,"BEND","OR","97703"
"77833888","THE LONNIE JOHN DAMON GOLF FOUNDATION","DOMESTIC NONPROFIT CORPORATION","PUBLIC BENEFIT","2799 NE BROKEN BOW",,"BEND","OR","97701"
"78591485","FOURNIER FAMILY FOUNDATION","DOMESTIC NONPROFIT CORPORATION","PUBLIC BENEFIT","18670 MACALPINE LOOP",,"BEND","OR","97702"
"380790","EDMUNDS WELL WILDLIFE SANCTUARY","DOMESTIC NONPROFIT CORPORATION","PUBLIC BENEFIT","60838 SCOTTS BLUFF PLACE",,"BEND","OR","97702"
"3220191","BETHLEHEM INN","DOMESTIC NONPROFIT CORPORATION","PUBLIC BENEFIT","1911 NE HIGHER GROUND AVE",,"BEND","OR","97701"
"3758091","VOLUNTEERS IN MEDICINE CLINIC OF THE CASCADES","DOMESTIC NONPROFIT CORPORATION","PUBLIC BENEFIT","360 SW BOND ST STE 400",,"BEND","OR","97702"
"4510699","MOSAIC COMMUNITY HEALTH","DOMESTIC NONPROFIT CORPORATION","PUBLIC BENEFIT","360 SW BOND ST #400",,"BEND","OR","97702"
"4950796","COMMUTE OPTIONS FOR CENTRAL OREGON","DOMESTIC NONPROFIT CORPORATION","PUBLIC BENEFIT","50 SW BOND ST STE 4",,"BEND","OR","97702"
"6477095","CASCADE SCHOOL OF MUSIC","DOMESTIC NONPROFIT CORPORATION","PUBLIC BENEFIT","510 NE 3RD STREET",,"BEND","OR","97701"
"7493794","THE SKYLER PROJECT","DOMESTIC NONPROFIT CORPORATION","PUBLIC BENEFIT","2231 NW RESERVE CAMP CT",,"BEND","OR","97703"
"7937790","BEND INTERNATIONAL SCHOOL, INC","DOMESTIC NONPROFIT CORPORATION","PUBLIC BENEFIT","19238 BAKER RD",,"BEND","OR","97702"
"7933591","CENTRAL OREGON INTERGROUP OF OVEREATERS ANONYMOUS","DOMESTIC NONPROFIT CORPORATION","PUBLIC BENEFIT","19677 NUGGET AVE",,"BEND","OR","97702"
"8077596","BEND SOROPTIMIST SERVICE FOUNDATION","DOMESTIC NONPROFIT CORPORATION","PUBLIC BENEFIT","60945 ONYX ST",,"BEND","OR","97702"
"11500196","MOUNTAINSTAR FAMILY RELIEF NURSERY","DOMESTIC NONPROFIT CORPORATION","PUBLIC BENEFIT","2125 NE DAGGETT",,"BEND","OR","97701"
"13001698","WOMEN'S CIVIC IMPROVEMENT LEAGUE","DOMESTIC NONPROFIT CORPORATION","PUBLIC BENEFIT","501 NW BOND ST",,"BEND","OR","97703"
"13720792","CASCADES ACADEMY OF CENTRAL OREGON, INC.","DOMESTIC NONPROFIT CORPORATION","PUBLIC BENEFIT","19860 TUMALO RESERVOIR RD",,"BEND","OR","97703"
"15390792","CASCADE WINDS SYMPHONIC BAND ASSOCIATION","DOMESTIC NONPROFIT CORPORATION","PUBLIC BENEFIT","COCC FINE ARTS DEPARTMENT","2600 NW COLLEGE WAY","BEND","OR","97703"
"15932098","BENDFILM, INC.","DOMESTIC NONPROFIT CORPORATION","PUBLIC BENEFIT","1000 NW WALL ST STE 240",,"BEND","OR","97703"
"17596495","EQUINE OUTREACH, INC.","DOMESTIC NONPROFIT CORPORATION","PUBLIC BENEFIT","60335 ARNOLD MARKET RD",,"BEND","OR","97701"
"17869991","SPAY NEUTER INVESTMENT PROJECT, INC.","DOMESTIC NONPROFIT CORPORATION","PUBLIC BENEFIT","1000 SW DISK DRIVE",,"BEND","OR","97702"
"18117192","REDBIRD FOUNDATION","DOMESTIC NONPROFIT CORPORATION","PUBLIC BENEFIT","42 NW GREELEY AVE",,"BEND","OR","97701"
"19150994","OREGON ADAPTIVE SPORTS","DOMESTIC NONPROFIT CORPORATION","PUBLIC BENEFIT","360 SW BOND ST STE 500",,"BEND","OR","97702"
"19150994","OREGON ADAPTIVE SPORTS","DOMESTIC NONPROFIT CORPORATION","PUBLIC BENEFIT","360 SW BOND ST STE 500",,"BEND","OR","97702"
"19150994","OREGON ADAPTIVE SPORTS","DOMESTIC NONPROFIT CORPORATION","PUBLIC BENEFIT","360 SW BOND ST STE 500",,"BEND","OR","97702"
"20121398","CELEBRATE BEND FOUNDATION","DOMESTIC NONPROFIT CORPORATION","PUBLIC BENEFIT","20446 SNOWMASS",,"BEND","OR","97702"
"22300495","BEND FARMERS MARKET","DOMESTIC NONPROFIT CORPORATION","PUBLIC BENEFIT","1776 NE 8TH STREET",,"BEND","OR","97701"
"23353097","CENTRAL OREGON RUNNING KLUB","DOMESTIC NONPROFIT CORPORATION","PUBLIC BENEFIT","360 SW BOND ST STE 500",,"BEND","OR","97702"
"23353097","CENTRAL OREGON RUNNING KLUB","DOMESTIC NONPROFIT CORPORATION","PUBLIC BENEFIT","360 SW BOND ST STE 500",,"BEND","OR","97702"
"23353097","CENTRAL OREGON RUNNING KLUB","DOMESTIC NONPROFIT CORPORATION","PUBLIC BENEFIT","360 SW BOND ST STE 500",,"BEND","OR","97702"
"23619091","UPPER DESCHUTES RIVER COALITION","DOMESTIC NONPROFIT CORPORATION","PUBLIC BENEFIT","16439 STAGE STOP DR",,"BEND","OR","97707"
"24405490","CARING FOR TROOPS","DOMESTIC NONPROFIT CORPORATION","PUBLIC BENEFIT","60749 RIVER BEND DR",,"BEND","OR","97702"
"26206995","BEND PADDLE TRAIL ALLIANCE, INC.","DOMESTIC NONPROFIT CORPORATION","PUBLIC BENEFIT","105 NW RIVERFRONT STREET",,"BEND","OR","97703"
"27300391","CENTRAL OREGON VETERAN & COMMUNITY OUTREACH, INC.","DOMESTIC NONPROFIT CORPORATION","PUBLIC BENEFIT","61510 S HWY 97",,"BEND","OR","97702"
"27525690","SAINT FRANCIS OF ASSISI CATHOLIC SCHOOL OF BEND, INC.","DOMESTIC NONPROFIT CORPORATION","PUBLIC BENEFIT","805 SW INDUSTRIAL WAY STE 5",,"BEND","OR","97702"
"28714699","TOUR DES CHUTES","DOMESTIC NONPROFIT CORPORATION","PUBLIC BENEFIT","15 SW COLORADO STE 220",,"BEND","OR","97702"
"29168192","BEND FIRE FIGHTERS FOUNDATION","DOMESTIC NONPROFIT CORPORATION","PUBLIC BENEFIT","928 NW CHELSEA LP",,"BEND","OR","97701"
"29791696","BEND DANCE PROJECT","DOMESTIC NONPROFIT CORPORATION","PUBLIC BENEFIT","2021 NE 8TH ST",,"BEND","OR","97701"
"31940794","BUILDING A BETTER BEND, INC.","DOMESTIC NONPROFIT CORPORATION","PUBLIC BENEFIT","409 NW FRANKLIN AVE",,"BEND","OR","97703"
"33053398","KASHMIR FAMILY AID, INC.","DOMESTIC NONPROFIT CORPORATION","PUBLIC BENEFIT","141 NE GREENWOOD STE 200",,"BEND","OR","97703"
"32751794","FAMILY ACCESS NETWORK FOUNDATION","DOMESTIC NONPROFIT CORPORATION","PUBLIC BENEFIT","2125 NE DAGGETT LANE",,"BEND","OR","97701"
"33115395","SOCIETY OF ST. VINCENT DE PAUL, LA PINE, OREGON CONFERENCE","DOMESTIC NONPROFIT CORPORATION","PUBLIC BENEFIT","805 SW INDUSTRIAL WAY STE 5",,"BEND","OR","97702"
"33353699","HUNNELL UNITED NEIGHBORS, INC.","DOMESTIC NONPROFIT CORPORATION","PUBLIC BENEFIT","20555 BOWERY LN",,"BEND","OR","97703"
"34156992","BEND NORTHWEST NON-PROFIT CORPORATION","DOMESTIC NONPROFIT CORPORATION","PUBLIC BENEFIT","2120 NW TWILIGHT DR",,"BEND","OR","97703"
"34407296","GUARDIAN GROUP","DOMESTIC NONPROFIT CORPORATION","PUBLIC BENEFIT","20380 HALFWAY RD STE 1",,"BEND","OR","97703"
"34217398","SHS GRADUATION ASSOCIATION","DOMESTIC NONPROFIT CORPORATION","PUBLIC BENEFIT","2855 NW CLEARWATER DR",,"BEND","OR","97703"
"36558898","BREITENBUSH CANYON VOLUNTEER FIRE DEPARTMENT","DOMESTIC NONPROFIT CORPORATION","PUBLIC BENEFIT","63035 CARNELIAN LANE",,"BEND","OR","97701"
"37878097","B.E.A.T.","DOMESTIC NONPROFIT CORPORATION","PUBLIC BENEFIT","1963 LOTUS DR",,"BEND","OR","97701"
"37841491","JESUS FREES MINISTRIES","DOMESTIC NONPROFIT CORPORATION","PUBLIC BENEFIT","3268 NW MELVILLE DR",,"BEND","OR","97701"
"39412093","ST VINCENT DE PAUL SOCIETY BEND-ST. FRANCIS CONFERENCE","DOMESTIC NONPROFIT CORPORATION","PUBLIC BENEFIT","805 SW INDUSTRIAL WAY STE 5",,"BEND","OR","97702"
"39966593","THE CURRY STONE FOUNDATION","DOMESTIC NONPROFIT CORPORATION","PUBLIC BENEFIT","70 SW CENTURY DR STE 100-445",,"BEND","OR","97702"
"41707498","SPIRITUAL ASSEMBLY OF THE BAHA'IS OF BEND, OREGON","DOMESTIC NONPROFIT CORPORATION","PUBLIC BENEFIT","331 NW RIVERSIDE",,"BEND","OR","97701"
"41743295","DOLLS4ALZHEIMERS-SWEET MEMORIES INC.","DOMESTIC NONPROFIT CORPORATION","PUBLIC BENEFIT","1646 NE 11TH ST",,"BEND","OR","97701"
"43089796","FURAHA FOUNDATION, INC","DOMESTIC NONPROFIT CORPORATION","PUBLIC BENEFIT","3033 NW WINSLOW DR",,"BEND","OR","97703"
"43162197","YOUNITY","DOMESTIC NONPROFIT CORPORATION","PUBLIC BENEFIT","900 NE WARNER PL #106",,"BEND","OR","97701"
"43848696","DESCHUTES BASIN NATIVE PLANT SEEDBANK","DOMESTIC NONPROFIT CORPORATION","PUBLIC BENEFIT","60635 THUNDERBIRD",,"BEND","OR","97702"
"43879998","HEAVEN'S GARDEN MINISTRIES INC.","DOMESTIC NONPROFIT CORPORATION","PUBLIC BENEFIT","61182 FOREST MEADOW PL",,"BEND","OR","97702"
"44040590","BUILDING PARTNERS FOR AFFORDABLE HOUSING","DOMESTIC NONPROFIT CORPORATION","PUBLIC BENEFIT","1051 NE 4TH ST",,"BEND","OR","97701"
"43988195","KINGDOM INVESTMENTS INTERNATIONAL","DOMESTIC NONPROFIT CORPORATION","PUBLIC BENEFIT","265 NW FRANKLIN AVE STE 100",,"BEND","OR","97703"
"44241198","GHOST TREE INVITATIONAL, LTD.","DOMESTIC NONPROFIT CORPORATION","PUBLIC BENEFIT","63088 NE 18TH",,"BEND","OR","97701"
"44577898","ENVISION BEND","DOMESTIC NONPROFIT CORPORATION","PUBLIC BENEFIT","15 SW COLORADO AVE","SUITE 1","BEND","OR","97702"
"46125092","PEACE BRIDGES, INC.","DOMESTIC NONPROFIT CORPORATION","PUBLIC BENEFIT","425 NW STATE",,"BEND","OR","97703"
"48315394","ROTARY CLUB OF SUNRIVER","DOMESTIC NONPROFIT CORPORATION","PUBLIC BENEFIT","18160 COTTONWOOD RD #526",,"BEND","OR","97707"
"48733695","HIGH DESERT CHAMBER MUSIC","DOMESTIC NONPROFIT CORPORATION","PUBLIC BENEFIT","19579 SUNSHINE WAY",,"BEND","OR","97702"
"49465099","FRIENDS OF WESTSIDE VILLAGE MAGNET SCHOOL","DOMESTIC NONPROFIT CORPORATION","PUBLIC BENEFIT","1101 NW 12TH ST",,"BEND","OR","97703"
"50923490","DESCHUTES RIVER RANCH PRESERVATION CORPORATION","DOMESTIC NONPROFIT CORPORATION","PUBLIC BENEFIT","C/O LAURA CRASKA COOPER","15 SW COLORADO AVE STE 3","BEND","OR","97702"
"51097195","SMITH ROCK GROUP","DOMESTIC NONPROFIT CORPORATION","PUBLIC BENEFIT","1909 NE SHEPARD RD",,"BEND","OR","97701"
"53682697","SYNERGY ANIMAL HOSPICE","DOMESTIC NONPROFIT CORPORATION","PUBLIC BENEFIT","20100 RODEO DR",,"BEND","OR","97701"
"53732591","LA PINE COMMUNITY HEALTH CENTER","DOMESTIC NONPROFIT CORPORATION","PUBLIC BENEFIT","360 SW BOND ST STE 400",,"BEND","OR","97702"
"54805396","DIABETES NATION","DOMESTIC NONPROFIT CORPORATION","PUBLIC BENEFIT","66965 GIST RD",,"BEND","OR","97703"
"55785092","HIGHLAND PARENT TEACHER ORGANIZATION","DOMESTIC NONPROFIT CORPORATION","PUBLIC BENEFIT","C/O PAUL TAYLOR","591 SW MILL VIEW WAY","BEND","OR","97702"
"56172597","BRANCHES FOUNDATION","DOMESTIC NONPROFIT CORPORATION","PUBLIC BENEFIT","1000 SW DISK DR",,"BEND","OR","97702"
"56330690","BECAUSE PEOPLE MATTER","DOMESTIC NONPROFIT CORPORATION","PUBLIC BENEFIT","61582 SE DEPOT LOOP",,"BEND","OR","97702"
"55799192","CASCADE CHORALE ASSOCIATION","DOMESTIC NONPROFIT CORPORATION","PUBLIC BENEFIT","2600 NW COLLEGE WAY",,"BEND","OR","97701"
"57060692","CENTER FOR COMPASSIONATE LIVING","DOMESTIC NONPROFIT CORPORATION","PUBLIC BENEFIT","1516 NE LOCKSLEY DRIVE",,"BEND","OR","97701"
"57505894","VEG NET BEND","DOMESTIC NONPROFIT CORPORATION","PUBLIC BENEFIT","63355 OLD DESCHUTES RD",,"BEND","OR","97701"
"58522591","1P36 DELETION SUPPORT & AWARENESS","DOMESTIC NONPROFIT CORPORATION","PUBLIC BENEFIT","906 NE GREENWOOD AVE SUITE #1",,"BEND","OR","97701"
"58624892","BEND ENDURANCE ACADEMY","DOMESTIC NONPROFIT CORPORATION","PUBLIC BENEFIT","415 SW BLAKELY CT STE 5-319",,"BEND","OR","97702"
"58056798","PET EVACUATION TEAM","DOMESTIC NONPROFIT CORPORATION","PUBLIC BENEFIT","22806 MCGRATH RD",,"BEND","OR","97701"
"59453994","HIGH DESERT VILLAGE, INC.","DOMESTIC NONPROFIT CORPORATION","PUBLIC BENEFIT","61275 VICTORY LOOP",,"BEND","OR","97702"
"60594893","BEND ULTIMATE","DOMESTIC NONPROFIT CORPORATION","PUBLIC BENEFIT","19599 GREATWOOD LP",,"BEND","OR","97702"
"62736195","PILOT BUTTE PARTNERS","DOMESTIC NONPROFIT CORPORATION","PUBLIC BENEFIT","591 SW MILL VIEW WAY","C/O PAUL J TAYLOR","BEND","OR","97702"
"62876793","EQUIP MANYATTA","DOMESTIC NONPROFIT CORPORATION","PUBLIC BENEFIT","1758 NW FIELDS ST",,"BEND","OR","97703"
"63566195","CITY CARE","DOMESTIC NONPROFIT CORPORATION","PUBLIC BENEFIT","19520 PINE DR",,"BEND","OR","97702"
"64265193","LAVA CITY ROLLER DERBY","DOMESTIC NONPROFIT CORPORATION","PUBLIC BENEFIT","21329 PELICAN DR",,"BEND","OR","97701"
"65856297","EVERY KID SPORTS","DOMESTIC NONPROFIT CORPORATION","PUBLIC BENEFIT","143 SW CENTURY DR SUITE 120",,"BEND","OR","97702"
"65968993","CASCADES CLASSICAL MUSIC FOUNDATION","DOMESTIC NONPROFIT CORPORATION","PUBLIC BENEFIT","197 NW OUTLOOK VISTA",,"BEND","OR","97703"
"66580490","CENTRAL OREGON AVALANCHE ASSOCIATION","DOMESTIC NONPROFIT CORPORATION","PUBLIC BENEFIT","2701 NW SCANDIA LOOP",,"BEND","OR","97703"
"67058496","THE BEND HEROES FOUNDATION","DOMESTIC NONPROFIT CORPORATION","PUBLIC BENEFIT","591 SW MILL VIEW WY",,"BEND","OR","97702"
"68427690","CENTRAL OREGON FOREST STEWARDSHIP FOUNDATION","DOMESTIC NONPROFIT CORPORATION","PUBLIC BENEFIT","2863 NW CROSSING DRIVE SUITE 110",,"BEND","OR","97703"
"69378991","KAHOOT","DOMESTIC NONPROFIT CORPORATION","PUBLIC BENEFIT","21651 DALE RD",,"BEND","OR","97701"
"69523497","COUGAR SUMMER BASEBALL","DOMESTIC NONPROFIT CORPORATION","PUBLIC BENEFIT","62968 OB RILEY RD #2",,"BEND","OR","97703"
"70206298","CARE & SHARE COMMUNITY OUTREACH","DOMESTIC NONPROFIT CORPORATION","PUBLIC BENEFIT","805 SW INDUSTRIAL WAY STE 5",,"BEND","OR","97702"
"70433793","BEND SISTER CITY FOUNDATION","DOMESTIC NONPROFIT CORPORATION","PUBLIC BENEFIT","61088 RIVER BLUFF TRAIL",,"BEND","OR","97702"
"70575791","GREATER HART-SHELDON CONSERVATION FUND","DOMESTIC NONPROFIT CORPORATION","PUBLIC BENEFIT","50 SW BOND ST STE 4",,"BEND","OR","97702"
"73427891","ON BELAY TY","DOMESTIC NONPROFIT CORPORATION","PUBLIC BENEFIT","19696 SUNSHINE WAY",,"BEND","OR","97702"
"73925597","WINDY 25 MEMORIAL FUND","DOMESTIC NONPROFIT CORPORATION","PUBLIC BENEFIT","61903 FALL CREEK LOOP",,"BEND","OR","97702"
"75685694","DESHOOTS YOUTH SPORTS","DOMESTIC NONPROFIT CORPORATION","PUBLIC BENEFIT","60754 RADCLIFF CIR",,"BEND","OR","97702"
"77457597","BICYCLE RE-SOURCE OF BEND","DOMESTIC NONPROFIT CORPORATION","PUBLIC BENEFIT","2669 NE TWIN KNOLLS DR",,"BEND","OR","97701"
"78028199","TECH ALLIANCE OF CENTRAL OREGON","DOMESTIC NONPROFIT CORPORATION","PUBLIC BENEFIT","1001 SW EMKAY SUITE 100",,"BEND","OR","97702"
"79945698","OREGON BAND OF BROTHERS","DOMESTIC NONPROFIT CORPORATION","PUBLIC BENEFIT","155 NW IRVING AVE",,"BEND","OR","97701"
"79945698","OREGON BAND OF BROTHERS","DOMESTIC NONPROFIT CORPORATION","PUBLIC BENEFIT","155 NW IRVING AVE",,"BEND","OR","97701"
"80145999","OREGON SCHOOL SKI ASSOCIATION","DOMESTIC NONPROFIT CORPORATION","PUBLIC BENEFIT","1305 NW COLUMBIA ST",,"BEND","OR","97703"
"81104193","INSPIRE EARLY LEARNING CENTERS","DOMESTIC NONPROFIT CORPORATION","PUBLIC BENEFIT","2891 NE CONNERS AVE",,"BEND","OR","97701"
"82598799","HIGH DESERT FOOD & FARM ALLIANCE","DOMESTIC NONPROFIT CORPORATION","PUBLIC BENEFIT","354 NE GREENWOOD AVE","SUITE 205","BEND","OR","97701"
"86229995","CENTRAL OREGON HEALTH COUNCIL","DOMESTIC NONPROFIT CORPORATION","PUBLIC BENEFIT","920 SW EMKAY DR",,"BEND","OR","97702"
"86147593","THE CENTRAL OREGON YOUTH ORCHESTRA","DOMESTIC NONPROFIT CORPORATION","PUBLIC BENEFIT","61263 PAULINA LN",,"BEND","OR","97702"
"86935799","WONDERU, INC.","DOMESTIC NONPROFIT CORPORATION","PUBLIC BENEFIT","400 SW BLUFF DR STE 240",,"BEND","OR","97702"
"87081593","ASHTON EATON FOUNDATION","DOMESTIC NONPROFIT CORPORATION","PUBLIC BENEFIT","360 SW BOND ST STE 400",,"BEND","OR","97702"
"87585296","NORTH AMERICAN BICYCLE RACING ASSOCIATION","DOMESTIC NONPROFIT CORPORATION","PUBLIC BENEFIT","1923 SW KNOLL AVE",,"BEND","OR","97702"
"87882396","BEND LACROSSE BOOSTER CLUB","DOMESTIC NONPROFIT CORPORATION","PUBLIC BENEFIT","360 SW BOND ST #400",,"BEND","OR","97702"
"87929494","WESTSIDE ATHLETIC FOUNDATION, INC.","DOMESTIC NONPROFIT CORPORATION","PUBLIC BENEFIT","61855 DUNBAR CT",,"BEND","OR","97702"
"88439394","RED EARTH RISING","DOMESTIC NONPROFIT CORPORATION","PUBLIC BENEFIT","244 NW OUTLOOK VISTA DR",,"BEND","OR","97701"
"89313598","LOOKING FORWARD, INC.","DOMESTIC NONPROFIT CORPORATION","PUBLIC BENEFIT","591 SW MILL VIEW WAY",,"BEND","OR","97702"
"89360193","SCALEHOUSE","DOMESTIC NONPROFIT CORPORATION","PUBLIC BENEFIT","400 SW BLUFF DR STE 240",,"BEND","OR","97702"
"90196693","CENTRAL OREGON LOCAVORE","DOMESTIC NONPROFIT CORPORATION","PUBLIC BENEFIT","400 SW BLUFF DR","STE 240","BEND","OR","97702"
"90080194","CENTRAL OREGON HEALTH INFORMATION EXCHANGE","DOMESTIC NONPROFIT CORPORATION","PUBLIC BENEFIT","PACIFICSOURCE COMMUNITY SOLUTIONS","2965 NE CONNERS AVE","BEND","OR","97701"
"92239095","WORTHY GARDEN CLUB","DOMESTIC NONPROFIT CORPORATION","PUBLIC BENEFIT","C/O KYLE D WUEPPER","15 SW COLORADO AVE STE 3","BEND","OR","97702"
"92782193","FMS MINISTRIES, INC.","DOMESTIC NONPROFIT CORPORATION","PUBLIC BENEFIT","25252 RAVEN LANE",,"BEND","OR","97701"
"94861292","MEISSNER NORDIC SKI CLUB","DOMESTIC NONPROFIT CORPORATION","PUBLIC BENEFIT","JOHN D SORLIE","591 SW MILL VIEW WAY","BEND","OR","97701"
"95061793","OREGON BAND OF BROTHERS BEND CHAPTER","DOMESTIC NONPROFIT CORPORATION","PUBLIC BENEFIT","63460 VOGT RD",,"BEND","OR","97701"
"95168895","HIGH DESERT MAKERS","DOMESTIC NONPROFIT CORPORATION","PUBLIC BENEFIT","444 SE 9TH ST STE 100",,"BEND","OR","97702"
"95293396","NW SELF STORAGE FOUNDATION","DOMESTIC NONPROFIT CORPORATION","PUBLIC BENEFIT","61000 BACHELOR VIEW RD",,"BEND","OR","97702"
"96339792","THUNDERSTRUCK LACROSSE ASSOCIATION","DOMESTIC NONPROFIT CORPORATION","PUBLIC BENEFIT","15 SW COLORADO AVENUE SUITE 4",,"BEND","OR","97702"
"97296991","BEND BIKES","DOMESTIC NONPROFIT CORPORATION","PUBLIC BENEFIT","1086 NW STANNIUM RD",,"BEND","OR","97703"
"96909396","HWB","DOMESTIC NONPROFIT CORPORATION","PUBLIC BENEFIT","20166 STONEGATE DRIVE",,"BEND","OR","97702"
"97659396","LAVA BEAR WRESTLING BOOSTERS","DOMESTIC NONPROFIT CORPORATION","PUBLIC BENEFIT","230 NE 6TH STREET",,"BEND","OR","97701"
"98683296","SUNRIVER CHARITABLE FUND","DOMESTIC NONPROFIT CORPORATION","PUBLIC BENEFIT","360 SW BOND ST STE 400",,"BEND","OR","97702"
"99119597","NORTHWEST YOUTH DISCOVERY, INC.","DOMESTIC NONPROFIT CORPORATION","PUBLIC BENEFIT","61877 SOMERSET DR",,"BEND","OR","97702"
"99628092","CANINE COMPASSION COALITION","DOMESTIC NONPROFIT CORPORATION","PUBLIC BENEFIT","2669 NE TWIN KNOLLS DR STE 105",,"BEND","OR","97701"
"99651292","FRIENDS OF THE TUMALO WILDLIFE CORRIDOR","DOMESTIC NONPROFIT CORPORATION","PUBLIC BENEFIT","65580 SISEMORE RD",,"BEND","OR","97703"
"100134493","CENTRAL OREGON VETERANS RANCH","DOMESTIC NONPROFIT CORPORATION","PUBLIC BENEFIT","65920 61ST ST",,"BEND","OR","97703"
"100499797","MAYANTIGO CHARITABLE FOUNDATION","DOMESTIC NONPROFIT CORPORATION","PUBLIC BENEFIT","250 NW FRANKLIN AVE STE 101",,"BEND","OR","97703"
"100534692","FRIENDS OF THE CENTRAL CASCADES WILDERNESS","DOMESTIC NONPROFIT CORPORATION","PUBLIC BENEFIT","926 NE DECATUR CT",,"BEND","OR","97701"
"100752195","LAVA BEAR YOUTH SPORTS FOUNDATION","DOMESTIC NONPROFIT CORPORATION","PUBLIC BENEFIT","155 NE WEBSTER AVE",,"BEND","OR","97701"
"100801398","NORTHWEST TANDEM RALLY","DOMESTIC NONPROFIT CORPORATION","PUBLIC BENEFIT","1350 NW CITY HEIGHTS DR",,"BEND","OR","97701"
"100446897","CAMP TAMARACK","DOMESTIC NONPROFIT CORPORATION","PUBLIC BENEFIT","19696 SUNSHINE WAY",,"BEND","OR","97702"
"101470995","SAMARA LEARNING CENTER","DOMESTIC NONPROFIT CORPORATION","PUBLIC BENEFIT","230 NE 9TH ST",,"BEND","OR","97701"
"101859890","EMERSON-GRIFFIN-TORING PRIVATE FOUNDATION","DOMESTIC NONPROFIT CORPORATION","PUBLIC BENEFIT","20440 PINE VISTA DRIVE",,"BEND","OR","97702"
"101979193","FRANKIESAYSFIGHTRETT.ORG., INC.","DOMESTIC NONPROFIT CORPORATION","PUBLIC BENEFIT","61309 GEARY DR",,"BEND","OR","97702"
"101976298","BEND BULLETS","DOMESTIC NONPROFIT CORPORATION","PUBLIC BENEFIT","2008 NE CRADLE MOUNTAIN WAY",,"BEND","OR","97701"
"102464898","THE OFFICE GROUP","DOMESTIC NONPROFIT CORPORATION","PUBLIC BENEFIT","591 SW MILL VIEW WAY",,"BEND","OR","97702"
"101356293","CENTRAL OREGON DISC GOLF CLUB","DOMESTIC NONPROFIT CORPORATION","PUBLIC BENEFIT","908 NW ROANOKE AVE",,"BEND","OR","97703"
"102527694","VISIONS OF HOPE ORG.","DOMESTIC NONPROFIT CORPORATION","PUBLIC BENEFIT","61360 MTN BREEZES CT",,"BEND","OR","97702"
"103297594","KOR COMMUNITY LAND TRUST","DOMESTIC NONPROFIT CORPORATION","PUBLIC BENEFIT","150 NE HAWTHORNE AVE STE 110",,"BEND","OR","97701"
"104205497","THE HANAI FOUNDATION","DOMESTIC NONPROFIT CORPORATION","PUBLIC BENEFIT","591 SW MILL VIEW WAY",,"BEND","OR","97702"
"104931993","TREEHOUSE THERAPIES ASSOCIATES","DOMESTIC NONPROFIT CORPORATION","PUBLIC BENEFIT","2125 NE DAGGETT LN",,"BEND","OR","97701"
"105017297","PEDIATRIC FOUNDATION","DOMESTIC NONPROFIT CORPORATION","PUBLIC BENEFIT","760 NW YORK DR",,"BEND","OR","97703"
"105121990","BEND RECOVERY HOME","DOMESTIC NONPROFIT CORPORATION","PUBLIC BENEFIT","23265 CINDY COURT",,"BEND","OR","97701"
"105273791","D.A.W.N.S HOUSE","DOMESTIC NONPROFIT CORPORATION","PUBLIC BENEFIT","20813 LIBERTY LANE",,"BEND","OR","97701"
"105698294","CENTRAL OREGON USASA","DOMESTIC NONPROFIT CORPORATION","PUBLIC BENEFIT","20538 PINE VISTA DR",,"BEND","OR","97702"
"106657497","DESERT SKY MONTESSORI","DOMESTIC NONPROFIT CORPORATION","PUBLIC BENEFIT","63175 OB RILEY ROAD",,"BEND","OR","97703"
"106954191","CHILDREN'S FOREST OF CENTRAL OREGON","DOMESTIC NONPROFIT CORPORATION","PUBLIC BENEFIT","63095 DESCHUTES MARKET ROAD",,"BEND","OR","97701"
"108191099","WOMEN IN RESEARCH LTD","DOMESTIC NONPROFIT CORPORATION","PUBLIC BENEFIT","64055 TYLER RD",,"BEND","OR","97703"
"108496894","EAST CASCADES WORKFORCE INVESTMENT BOARD","DOMESTIC NONPROFIT CORPORATION","PUBLIC BENEFIT","334 NE HAWTHORNE AVE",,"BEND","OR","97701"
"108597899","FRIENDS OF HOSPICE","DOMESTIC NONPROFIT CORPORATION","PUBLIC BENEFIT","2503 NW COE CT",,"BEND","OR","97703"
"108886797","DETROIT LAKE FOUNDATION","DOMESTIC NONPROFIT CORPORATION","PUBLIC BENEFIT","805 SW INDUSTRIAL WAY STE 5",,"BEND","OR","97702"
"109017095","LONE PINE HISTORICAL SOCIETY, INC.","DOMESTIC NONPROFIT CORPORATION","PUBLIC BENEFIT","805 SW INDUSTRIAL WAY STE 5",,"BEND","OR","97702"
"109443598","CHILDREN OF CIRCUMSTANCE OUTDOORS INC","DOMESTIC NONPROFIT CORPORATION","PUBLIC BENEFIT","62166 CODY JR RD",,"BEND","OR","97701"
"110781192","EARTHWIN GLOBAL INC.","DOMESTIC NONPROFIT CORPORATION","PUBLIC BENEFIT","422 SE MCKINLEY AVE",,"BEND","OR","97702"
"111276390","OREGON OUTDOOR ALLIANCE","DOMESTIC NONPROFIT CORPORATION","PUBLIC BENEFIT","360 SW BOND ST","SUITE 400","BEND","OR","97702"
"112296892","HIGH DESERT MURAL FESTIVAL","DOMESTIC NONPROFIT CORPORATION","PUBLIC BENEFIT","360 SW BOND ST","SUITE 400","BEND","OR","97702"
"112640198","CENTRAL OREGON YOUTH BASEBALL","DOMESTIC NONPROFIT CORPORATION","PUBLIC BENEFIT","55993 REMINGTON DR",,"BEND","OR","97707"
"112673892","350DESCHUTES","DOMESTIC NONPROFIT CORPORATION","PUBLIC BENEFIT","3143 NW MELVILLE DR",,"BEND","OR","97703"
"114359896","IN OUR BACKYARD","DOMESTIC NONPROFIT CORPORATION","PUBLIC BENEFIT","1900 NE DIVISION ST SUITE 107",,"BEND","OR","97701"
"114680291","CENTRAL OREGON FILM OFFICE","DOMESTIC NONPROFIT CORPORATION","PUBLIC BENEFIT","61155 AMBASSADOR DRIVE",,"BEND","OR","97702"
"115418196","HARMONY FARM SANCTUARY","DOMESTIC NONPROFIT CORPORATION","PUBLIC BENEFIT","18117 CASCADE ESTATES DR",,"BEND","OR","97703"
"115543597","BROKEN SHACKLES","DOMESTIC NONPROFIT CORPORATION","PUBLIC BENEFIT","KARNOPP PETERSEN LLP","360 SW BOND STREET SUITE 400","BEND","OR","97702"
"116685496","GOOD GRIEF GUIDANCE, INC.","DOMESTIC NONPROFIT CORPORATION","PUBLIC BENEFIT","60625 KIGAR GORGE WY",,"BEND","OR","97702"
"116705690","CENTRAL OREGON VETERANS COUNCIL","DOMESTIC NONPROFIT CORPORATION","PUBLIC BENEFIT","19766 DRY CANYON AVE",,"BEND","OR","97702"
"116772997","THREE RIVERS ARCHERS","DOMESTIC NONPROFIT CORPORATION","PUBLIC BENEFIT","16820 GROSS LANE",,"BEND","OR","97707"
"117394197","CENTRAL OREGON CHAPTER OF NAVHDA","DOMESTIC NONPROFIT CORPORATION","PUBLIC BENEFIT","22655 PEACOCK LANE",,"BEND","OR","97701"
"117631291","DESTINATION REHAB","DOMESTIC NONPROFIT CORPORATION","PUBLIC BENEFIT","64745 MELINDA CT",,"BEND","OR","97701"
"117852699","ADLER'S VOICE, INC.","DOMESTIC NONPROFIT CORPORATION","PUBLIC BENEFIT","3391 NE CRYSTAL SPRINGS DRIVE",,"BEND","OR","97701"
"117942391","BLESSED TO BLESS, INC.","DOMESTIC NONPROFIT CORPORATION","PUBLIC BENEFIT","61114 MINARET CIRCLE",,"BEND","OR","97702"
"118104199","COALITION FOR THE DESCHUTES","DOMESTIC NONPROFIT CORPORATION","PUBLIC BENEFIT","2445 NE DIVISION ST","SUITE 303","BEND","OR","97703"
"118336494","GLOBAL REDEMPTION","DOMESTIC NONPROFIT CORPORATION","PUBLIC BENEFIT","365 NE GREENWOOD AVE STE 3",,"BEND","OR","97701"
"119604999","BOLD VENTURES","DOMESTIC NONPROFIT CORPORATION","PUBLIC BENEFIT","365 NE GREENWOOD AVE STE 3",,"BEND","OR","97701"
"120424791","CENTRAL OREGON HEALTH QUALITY ALLIANCE","DOMESTIC NONPROFIT CORPORATION","PUBLIC BENEFIT","CENTRAL OREGON HEALTH QUALITY ALLIANCE","1230 NE 3RD STREET SUITE A-200","BEND","OR","97701"
