"Agency, Board, Commission, Branch",Meeting Title,Short Description,Start Date & Time,End Date & Time,Meeting Location,City,State,Details,Public Comment Accepted,Contact Name,Phone Number,Contact Email,Web Link (optional),Map Link,Calendar Link,ADA Contact,ADA Contact Phone,ADA Contact Email,Webinar/Webcast?,Public Call-In Number,Call-in Access Code,Agenda URL,Map Location,2010 House Districts,2010 Senate Districts,Counties
"Health Licensing Agency, Oregon",Board of Cosmetology,Board Meeting,03/09/2020 08:00:00 AM,03/09/2020 04:00:00 AM,1430 Tandem Ave. NE Suite 180, Salem,OR,,,Maria Gutierrez,,maria.s.gutierrez@state.or.us,,,,,,,,,,,,,,
"Health Licensing Agency, Oregon",Board of Cosmetology,,10/12/2015 10:00:00 AM,10/12/2015 04:00:00 PM,700 Summer St. Suite 320, Salem,OR,,,Maria Gutierrez,,maria.s.gutierrez@state.or.us,,,,,,,,,,,,,,
"Health Licensing Agency, Oregon",Direct Entry Midwifery,,04/14/2016 09:00:00 AM,04/14/2016 04:00:00 PM,700 Summer St. Suite 320, Salem,OR,,,Maria Gutierrez,,maria.s.gutierrez@state.or.us,,,,,,,,,,,,,,
"Health Licensing Agency, Oregon",Respiratory Therapist and Polysomnographic Technologist Licensing Board,Board Meeting,06/19/2020 09:00:00 AM,06/19/2020 03:00:00 PM,1430 Tandem Ave. NE Suite 180, Salem,OR,,,Maria Gutierrez,,maria.s.gutierrez@state.or.us,,,,,,,,,,,,,,
"Health Licensing Agency, Oregon",Board of Athletic Trainers,Board Meeting,02/20/2019 09:00:00 AM,02/20/2019 03:00:00 PM,1430 Tandem Ave. NE Suite 180, Salem,OR,,,Maria Gutierrez,,maria.s.gutierrez@state.or.us,,,,,,,,,,,,,,
"Health Licensing Agency, Oregon",Board of Cosmetology* Teleconference Meeting,Board Meeting,12/10/2019 09:00:00 AM,12/10/2019 10:00:00 AM,1430 Tandem Ave. NE Suite 180,Salem,OR,,,Maria Gutierrez,,maria.s.gutierrez@state.or.us,,,,,,,,,,,,,,
"Health Licensing Agency, Oregon",Board of Athletic Trainers *Teleconference Meeting,Board Meeting,12/11/2019 09:00:00 AM,12/11/2019 10:00:00 AM,1430 Tandem Ave. NE Suite 180, Salem,OR,,,Maria Gutierrez,,maria.s.gutierrez@state.or.us,,,,,,,,,,,,,,
"Health Licensing Agency, Oregon",Board of Denture Technology ,Board Meeting,09/11/2017 11:00:00 AM,09/11/2017 04:00:00 PM,1430 Tandem Ave. NE Suite 180,Salem ,OR,,,Maria Gutierrez,,maria.s.gutierrez@state.or.us,,,,,,,,,,,,,,
"Health Licensing Agency, Oregon",Board of Direct Entry Midwifery ,Board Meeting,06/22/2017 10:00:00 AM,06/22/2017 04:00:00 PM,1430 Tandem Ave. NE Suite 180, Salem,OR,,,Maria Gutierrez,,maria.s.gutierrez@state.or.us,,,,,,,,,,,,,,
"Health Licensing Agency, Oregon",Board of Direct Entry Midwifery,Board Meeting,05/17/2018 09:00:00 AM,05/17/2018 03:00:00 PM,1430 Tandem Ave. NE Suite 180, Salem,OR,,,Maria Gutierrez,,maria.s.gutierrez@state.or.us,,,,,,,,,,,,,,
"Health Licensing Agency, Oregon",Board of Direct Entry Midwifiery,Board Meeting,06/28/2018 09:00:00 AM,03/28/2018 02:00:00 PM,1430 Tandem Ave. NE Suite 180, Salem,OR,,,Maria Gutierrez,,maria.s.gutierrez@state.or.us,,,,,,,,,,,,,,
"Health Licensing Agency, Oregon",Board of Direct Entry Midwifery,Board Meeting,05/21/2020 09:00:00 AM,05/21/2020 03:00:00 PM,1430 Tandem Ave. NE Suite 180, Salem,OR,,,Maria Gutierrez,,maria.s.gutierrez@state.or.us,,,,,,,,,,,,,,
"Health Licensing Agency, Oregon",Board of Certifed Advanced Estheticians,Board Meeting,05/27/2020 09:00:00 AM,05/27/2020 03:00:00 PM,1430 Tandem Ave. NE Suite 180, Salem,OR,,,Maria Gutierrez,,maria.s.gutierrez@state.or.us,,,,,,,,,,,,,,
"Health Licensing Agency, Oregon",Board of Direct Entry Midwifery,Board Meeting,01/09/2020 09:00:00 AM,01/09/2020 03:00:00 PM,1430 Tandem Ave. NE Suite 180, Salem,OR,,,Maria Gutierrez,,maria.s.gutierrez@state.or.us,,,,,,,,,,,,,,
"Health Licensing Agency, Oregon",Board of Denture Technology,Board Meeting,02/11/2019 09:00:00 AM,02/11/2019 03:00:00 PM,1430 Tandem Ave. NE Suite 180, Salem,OR,,,Maria Gutierrez,,maria.s.gutierrez@state.or.us,,,,,,,,,,,,,,
"Health Licensing Agency, Oregon",Board of Direct Entry Midwifery,Board Meeting,02/13/2020 09:00:00 AM,02/13/2020 03:00:00 PM,1430 Tandem Ave. NE Suite 180, Salem,OR,,,Maria Gutierrez,,maria.s.gutierrez@state.or.us,,,,,,,,,,,,,,
"Health Licensing Agency, Oregon",Board of Electrologist and Body Art Practitioners,Board Meeting,11/05/2018 10:00:00 AM,11/05/2018 03:00:00 PM,1430 Tandem Ave. NE Suite 180, Salem,OR,,,Maria Gutierrez,,maria.s.gutierrez@state.or.us,,,,,,,,,,,,,,
"Health Licensing Agency, Oregon",Environmental Health Registration Board,Board Meeting,03/06/2020 09:00:00 AM,03/06/2020 03:00:00 PM,1430 Tandem Ave. NE Suite 180, Salem,OR,,,Maria Gutierrez,,maria.s.gutierrez@state.or.us,,,,,,,,,,,,,,
"Health Licensing Agency, Oregon",Board of Direct Entry Midwifery,Board Meeting,06/18/2020 09:00:00 AM,06/18/2020 04:00:00 PM,1430 Tandem Ave. NE Suite 180, Salem,OR,,,Maria Gutierrez,,maria.s.gutierrez@state.or.us,,,,,,,,,,,,,,
"Health Licensing Agency, Oregon",CANCELED  Respiratory Therapist and Polysomnographic Technologist Licensing Board,Board Meeting,03/20/2020 09:00:00 AM,03/20/2020 03:00:00 PM,1430 Tandem Ave. NE Suite 180, Salem,OR,,,Maria Gutierrez,,maria.s.gutierrez@state.or.us,,,,,,,,,,,,,,
"Health Licensing Agency, Oregon",Board of Denture Technology,Board Meeting,02/24/2020 09:00:00 AM,02/24/2020 03:00:00 PM,1430 Tandem Ave. NE Suite 180, Salem,OR,,,Maria Gutierrez,,maria.s.gutierrez@state.or.us,,,,,,,,,,,,,,
"Health Licensing Agency, Oregon",Board of Athletic Trainers,Board Meeting,02/19/2020 09:00:00 AM,02/19/2020 03:00:00 PM,1430 Tandem Ave. NE Suite 180, Salem,OR,,,Maria Gutierrez,,maria.s.gutierrez@state.or.us,,,,,,,,,,,,,,
"Health Licensing Agency, Oregon",Board of Direct Entry Midwifery,,03/16/2017 09:00:00 AM,03/16/2017 05:00:00 PM,1430 Tandem Ave. NE Suite 180, Salem,OR,,,Maria,5033731906,maria.s.gutierrez@state.or.us,,,,,,,,,,,,,,
"Health Licensing Agency, Oregon",Board of Cosmetology,Board Meeting,01/27/2020 09:00:00 AM,01/27/2020 03:00:00 PM,1430 Tandem Ave. NE Suite 180, Salem,OR,,,Maria Gutierrez,,maria.s.gutierrez@state.or.us,,,,,,,,,,,,,,
"Health Licensing Agency, Oregon",Board of Direct Entry Midwifery,Board Meeting,11/14/2019 09:00:00 AM,11/14/2019 04:00:00 PM,1430 Tandem Ave. NE Suite 180, Salem,OR,,,Maria Gutierrez,,maria.s.gutierrez@state.or.us,,,,,,,,,,,,,,
"Health Licensing Agency, Oregon",Board of Certifed Advanced Estheticians ,Board Meeting,02/26/2020 09:00:00 AM,02/26/2020 03:00:00 PM,1430 Tandem Ave. NE Suite 180, Salem,OR,,,Maria Gutierrez,,maria.s.gutierrez@state.or.us,,,,,,,,,,,,,,
"Health Licensing Agency, Oregon",Board of Licensed Dietitians,Board Meeting,04/22/2020 09:00:00 AM,04/22/2020 03:00:00 PM,1430 Tandem Ave. NE Suite 180, Salem,OR,,,Maria Gutierrez,,maria.s.gutierrez@state.or.us,,,,,,,,,,,,,,
"Health Licensing Agency, Oregon",Board of Athletic Trainers,Board Meeting,09/29/2014 09:00:00 AM,,"HLO, Rhoads Conference Room, 700 Summer St NE. Third Floor", Salem,OR,,,Debby Daniels,,debra.daniels@state.or.us,,,,,,,,,,,,,,
"Health Licensing Agency, Oregon",Cosmetology Item Writing Committee,,03/23/2015 09:00:00 AM,03/23/2015 04:00:00 PM,700 Summer Street NE Suite 320, Salem,OR,,,Debra Daniels,,debra.daniels@state.or.us,,,,,,,,,,,,,,
"Health Licensing Agency, Oregon",Environmental Health Registration Board,,02/26/2016 09:30:00 AM,02/26/2016 04:00:00 PM,700 Summer St. Suite 320, Salem,OR,,,Maria Gutierrez,,maria.s.gutierrez@state.or.us,,,,,,,,,,,,,,
"Health Licensing Agency, Oregon",Board of Athletic Trainers,Board Meeting,05/12/2014 09:00:00 AM,,"OHLA, Rhoades Conference Room, 700 Summer Street NE, Third Floor", Salem,OR,,,Debby Daniels,,debra.daniels@state.or.us,,,,,,,,,,,,,,
"Health Licensing Agency, Oregon",Nursing Home Administrators Board,,02/26/2015 09:00:00 AM,02/26/2015 04:00:00 PM,"700 Summer Street NE, Suite 320", Salem,OR,,,Debra Daniels,,debra.daniels@state.or.us,,,,,,,,,,,,,,
"Health Licensing Agency, Oregon",Advisory Council on Hearing Aids,,03/25/2016 01:00:00 PM,03/25/2016 04:00:00 PM,700 Summer St. Suite 320, Salem,OR,,,Maria Gutierrez,,maria.s.gutierrez@state.or.us,,,,,,,,,,,,,,
"Health Licensing Agency, Oregon",Behavioral Analysis Regulatory Board,Board Meeting,04/17/2014 09:00:00 AM,,"OHLA, Rhoades Conference Room, 700 Summer Street NE, Third Floor", Salem,OR,,,Debby Daniels,,debra.daniels@state.or.us,,,,,,,,,,,,,,
"Health Licensing Agency, Oregon",Environmental Health Registration Board,,06/17/2016 09:00:00 AM,06/17/2016 04:00:00 PM,700 Summer St. Suite 320 Salem OR 97301, Salem,OR,,,Maria Gutierrez,,maria.s.gutierrez@state.or.us,,,,,,,,,,,,,,
"Health Licensing Agency, Oregon",Board of Denture Technology,,05/18/2015 11:00:00 AM,05/18/2015 04:00:00 PM,700 Summer St. Suite 320, Salem,OR,,,Maria Gutierrez,,maria.s.gutierrez@state.or.us,,,,,,,,,,,,,,
"Health Licensing Agency, Oregon",Board of Athletic Trainers,,05/12/2015 09:00:00 AM,05/12/2015 04:00:00 PM,"700 Summer Street NE, Suite 320", Salem,OR,,,Debra Daniels,,debra.daniels@state.or.us,,,,,,,,,,,,,,
"Health Licensing Agency, Oregon",Direct Entry Midwifery,,05/12/2016 09:00:00 AM,05/12/2016 04:00:00 PM,700 Summer St. Suite 320, Salem,OR,,,Maria Gutierrez,,maria.s.gutierrez@state.or.us,,,,,,,,,,,,,,
"Health Licensing Agency, Oregon",Board of Body Art Practitioners,,11/09/2015 10:00:00 AM,11/09/2015 04:00:00 PM,700 Summer St. Suite 320, Salem,OR,,,Maria Gutierrez,,maria.s.gutierrez@state.or.us,,,,,,,,,,,,,,
"Health Licensing Agency, Oregon",Board of Body Art Practitioners,,07/20/2015 10:00:00 AM,07/20/2015 04:00:00 PM,700 Summer St. Suite 320, Salem,OR,CANCELLED,,Maria Gutierrez,,maria.s.gutierrez@state.or.us,,,,,,,,,,,,,,
"Health Licensing Agency, Oregon",Board of Denture Technology,Board Meeting,06/01/2020 09:00:00 AM,06/01/2020 03:00:00 PM,1430 Tandem Ave. NE Suite 180, Salem,OR,,,Maria Gutierrez,,maria.s.gutierrez@state.or.us,,,,,,,,,,,,,,
"Health Licensing Agency, Oregon",Advisory Council on Hearing Aids,,08/26/2016 01:00:00 PM,08/26/2016 04:00:00 PM,700 Summer St. Suite 320, Salem,OR,,,Maria Gutierrez,,maria.s.gutierrez@state.or.us,,,,,,,,,,,,,,
"Health Licensing Agency, Oregon",Behavior Analysis Regulatory Board,,05/20/2016 09:00:00 AM,05/20/2016 04:00:00 PM,700 Summer St. Suite 320, Salem,OR,,,Maria Gutierrez,,maria.s.gutierrez@state.or.us,,,,,,,,,,,,,,
"Health Licensing Agency, Oregon",Board of Licensed Dietitians,,04/22/2015 09:00:00 AM,04/22/2015 04:00:00 PM,"700 Summer Street NE, Suite 320", Salem,OR,,,Debra Daniels,,debra.daniels@state.or.us,,,,,,,,,,,,,,
"Health Licensing Agency, Oregon",Behavior Analysis Regulatory Board,,02/23/2015 03:45:00 PM,02/23/2015 04:00:00 PM,"700 Summer Street NE, Suite 320",Salem,OR,,,Debra Daniels,,debra.daniels@state.or.us,,,,,,,,,,,,,,
"Health Licensing Agency, Oregon",Sex Offender Treatment Board,Board Meeting,05/15/2020 09:00:00 AM,05/15/2020 03:00:00 PM,1430 Tandem Ave. NE Suite 180, Salem,OR,,,Maria Gutierrez,,maria.s.gutierrez@state.or.us,,,,,,,,,,,,,,
"Health Licensing Agency, Oregon",Behavioral Analysis Regulatory Board,Teleconference meeting to Approve licensing forms,11/05/2014 12:30:00 PM,11/05/2014 01:30:00 PM,Health Licensing Office 700 Summer St. NE Ste. 320, Salem,OR,,,Debra Daniels,,debra.daniels@state.or.us,,,,,,,,,,,,,,
"Health Licensing Agency, Oregon",Board of Diret Entry Midwifery,,02/11/2016 09:00:00 AM,02/11/2016 04:00:00 PM,700 Summer St. Suite 320, Salem,OR,,,Maria Gutierrez,,maria.s.gutierrez@state.or.us,,,,,,,,,,,,,,
"Health Licensing Agency, Oregon",Long Term Care Administrators Board,Board Meeting,03/10/2020 09:00:00 AM,03/10/2020 03:00:00 PM,1430 Tandem Ave. NE Suite 180, Salem,OR,,,Maria Gutierrez,,maria.s.gutierrez@state.or.us,,,,,,,,,,,,,,
"Health Licensing Agency, Oregon",Board of Denture Technology,,09/19/2016 11:00:00 AM,09/19/2016 04:00:00 PM,700 Summer St. Suite 320 , Salem,OR,,,Maria Gutierrez,,maria.s.gutierrez@state.or.us,,,,,,,,,,,,,,
"Health Licensing Agency, Oregon",Environmental Health Registration Board,,02/27/2015 09:30:00 AM,02/27/2015 04:00:00 PM,"700 Summer Street NE, Suite 320", Salem,OR,,,Debra Daniels,,debra.daniels@state.or.us,,,,,,,,,,,,,,
"Health Licensing Agency, Oregon",Board of Cosmetology,Board Meeting,10/06/2014 09:00:00 AM,,Chemeketa Center for Business & Industry, Salem,OR,,,aperkins,,amanda.r.perkins@state.or.us,,,,,,,,,,,,,,
"Health Licensing Agency, Oregon",Board of Licensed Dietitians,,10/26/2016 09:30:00 AM,10/26/2016 04:00:00 PM,700 Summer St Suite 320, Salem,OR,,,Maria Gutierrez,,maria.s.gutierrez@state.or.us,,,,,,,,,,,,,,
"Health Licensing Agency, Oregon",Behavior Analysis Regulatory Board ,Board Meeting,10/16/2014 09:00:00 AM,,"HLO, Rhoades Conference Romm, 700 Summer St NE Third Floor", Salem,OR,,,Debby Daniels,,debra.daniels@state.or.us,,,,,,,,,,,,,,
"Health Licensing Agency, Oregon",Cosmetology Item Writing Committee,,03/24/2015 09:00:00 AM,03/24/2015 04:00:00 PM,"700 Summer Street NE, Suite 320", Salem,OR,,,Debra Daniels,,debra.daniels@state.or.us,,,,,,,,,,,,,,
"Health Licensing Agency, Oregon",Body Art Practitioners,,11/07/2016 10:00:00 AM,11/07/2016 04:00:00 PM,700 Summer St. Suite 320, Salem,OR,,,Maria Gutierrez,,maria.s.gutierrez@state.or.us,,,,,,,,,,,,,,
"Health Licensing Agency, Oregon",Behavioral Analysis Regulatory Board,Board Meeting,03/24/2014 09:00:00 AM,,"OHLA, Rhoades Conference Room, 700 Summer Street NE, Third Floor", Salem,OR,,,Debby Daniels,,debra.daniels@state.or.us,,,,,,,,,,,,,,
"Health Licensing Agency, Oregon",Behavior Analysis Regulatory Board,,04/01/2016 09:00:00 AM,04/01/2016 04:00:00 PM,700 Summer St. Suite 320, Salem,OR,,,Maria Gutierrez,,maria.s.gutierrez@state.or.us,,,,,,,,,,,,,,
"Health Licensing Agency, Oregon",Board of Direct Entry Midwifery,,08/11/2016 09:00:00 AM,08/11/2016 04:00:00 PM,700 Summer St. Suite 320 Salem OR 97301, Salem,OR,,,Maria Gutierrez,,maria.s.gutierrez@state.or.us,,,,,,,,,,,,,,
"Health Licensing Agency, Oregon",Sex Offender Treatment Board,Board Meeting,12/05/2014 09:00:00 AM,,"HLO, Rhoades Conference Room, 700 Summer St NE, Third Floor", Salem,OR,,,Debby Daniels,,debra.daniels@state.or.us,,,,,,,,,,,,,,
"Health Licensing Agency, Oregon",Board of Cosmetology Item Writing Committee ,,11/17/2014 09:00:00 AM,11/17/2014 04:00:00 PM,"700 Summer St NE, Rhoades Conference Room", Salem,OR,,,Cerynthia Kingsley,,cerynthia.kingsley@state.or.us,,,,,,,,,,,,,,
"Health Licensing Agency, Oregon",Nursing Home Administrators Board,,02/25/2016 09:30:00 AM,02/25/2016 04:00:00 PM,700 Summer St. Suite 320, Salem,OR,,,Maria Gutierrez,,maria.s.gutierrez@state.or.us,,,,,,,,,,,,,,
"Health Licensing Agency, Oregon",Board of Cosmetology,,01/26/2015 10:00:00 AM,01/26/2015 04:00:00 PM,700 Summer St. Suite 320,Salem,OR,,,Maria Gutierrez,,maria.s.gutierrez@state.or.us,,,,,,,,,,,,,,
"Health Licensing Agency, Oregon",Behavior Analysis Regulatory Board,Board Meeting,01/24/2020 09:00:00 AM,01/24/2020 03:00:00 PM,1430 Tandem Ave. NE Suite 180, Salem,OR,,,Maria Gutierrez,,maria.s.gutierrez@state.or.us,,,,,,,,,,,,,,
"Health Licensing Agency, Oregon",Environmental Health Registration Board,Board Meeting,10/24/2014 09:30:00 AM,,"HLO, Rhoades Conference Room, 700 Summer Street NE, Third Floor", Salem,OR,,,Debby Daniels,,debra.daniels@state.or.us,,,,,,,,,,,,,,
"Health Licensing Agency, Oregon",Behavioral Analysis Regulatory Board,Board Meeting,07/25/2014 09:00:00 AM,,"OHLA, Rhoades Conference Room, 700 Summer Street NE, Third Floor", Salem,OR,,,Debby Daniels,,debra.daniels@state.or.us,,,,,,,,,,,,,,
"Health Licensing Agency, Oregon",Environmental Health Registration Board,,10/28/2016 09:30:00 AM,10/28/2016 04:00:00 PM,700 Summer St. Suite 320 Salem OR 97301, Salem,OR,,,Maria Gutierrez,,maria.s.gutierrez@state.or.us,,,,,,,,,,,,,,
"Health Licensing Agency, Oregon",Sex Offender Treatment Board,,03/06/2015 09:00:00 AM,02/06/2015 04:00:00 PM,"700 Summer Street NE, Suite 320", Salem,OR,,,Debra Daniels,,debra.daniels@state.or.us,,,,,,,,,,,,,,
"Health Licensing Agency, Oregon",Board of Licensed Dietitians,Board Meeting,11/07/2014 09:00:00 AM,,"OHLA, Rhoades Conference Room, 700 Summer Street NE, Third Floor", Salem,OR,,,Debby Daniels,,debra.daniels@state.or.us,,,,,,,,,,,,,,
"Health Licensing Agency, Oregon",Board of Diret Entry Midwifery,,02/12/2015 09:00:00 AM,02/12/2015 04:00:00 PM,700 Summer St. Suite 320, Salem,OR,,,Maria Gutierrez,,maria.s.gutierrez@state.or.us,,,,,,,,,,,,,,
"Health Licensing Agency, Oregon",Board of Direct Entry Midwifery,,12/08/2016 09:00:00 AM,12/08/2016 04:00:00 PM,700 Summer St. Suite 320, Salem,OR,,,Maria Gutierrez,,maria.s.gutierrez@state.or.us,,,,,,,,,,,,,,
"Health Licensing Agency, Oregon",Sex Offender Treatment Board,Board Meeting,02/21/2019 09:00:00 AM,02/21/2019 03:00:00 PM,1430 Tandem Ave. NE Suite 180, Salem,OR,,,Maria Gutierrez,,maria.s.gutierrez@state.or.us,,,,,,,,,,,,,,
"Health Licensing Agency, Oregon",Board of Denture Technology,,02/01/2016 11:00:00 AM,02/01/2016 04:00:00 PM,700 Summer St. Suite 320, Salem,OR,,,Maria Gutierrez,,maria.s.gutierrez@state.or.us,,,,,,,,,,,,,,
"Health Licensing Agency, Oregon",Behavior Analysis Regulatory Board,,10/21/2016 09:00:00 AM,12/21/2015 04:00:00 PM,700 Summer St. Suite 320, Salem,OR,,,Maria Gutierrez,,maria.s.gutierrez@state.or.us,,,,,,,,,,,,,,
"Health Licensing Agency, Oregon",Board of Direct Entry Midwifery,,09/08/2016 09:00:00 AM,09/08/2016 04:00:00 PM,700 Summer St. Suite 320 Salem OR 97301, Salem,OR,,,Maria Gutierrez,,maria.s.gutierrez@state.or.us,,,,,,,,,,,,,,
"Health Licensing Agency, Oregon",Board of Direct Entry Midwifery,,10/06/2016 09:00:00 AM,10/06/2016 04:00:00 PM,Board of Direct Entry Midwifery, Salem,OR,,,Maria Gutierrez,,maria.s.gutierrez@state.or.us,,,,,,,,,,,,,,
"Health Licensing Agency, Oregon",Behavioral Analysis Regulatory Board meeting,,11/21/2014 03:00:00 PM,11/21/2014 05:00:00 PM,700 Summer St NE Suite 320, Salem,OR,,,Debra Daniels,,debra.daniels@state.or.us,,,,,,,,,,,,,,
"Health Licensing Agency, Oregon",Behavioral Analysis Regulatory Board,Board Meeting,06/19/2014 09:00:00 AM,,"OHLA, Rhoades Conference Room, 700 Summer Street NE, Third Floor", Salem,OR,,,Debby Daniels,,debra.daniels@state.or.us,,,,,,,,,,,,,,
"Health Licensing Agency, Oregon",Board of Denture Technology,,05/16/2016 11:00:00 AM,05/16/2016 04:00:00 PM,700 Summer St. Suite 320, Salem,OR,,,Maria Gutierrez,,maria.s.gutierrez@state.or.us,,,,,,,,,,,,,,
"Health Licensing Agency, Oregon",Workgroup for the Sex Offender Treatment Board,Meeting,08/06/2018 09:00:00 AM,08/06/2018 04:00:00 PM,1430 Tandem Ave. NE Suite 180, Salem,OR,,,Maria Gutierrez,,maria.s.gutierrez@state.or.us,,,,,,,,,,,,,,
"Health Licensing Agency, Oregon",Board of Diret Entry Midwifery,,10/01/2015 09:00:00 AM,10/01/2015 04:00:00 PM,700 Summer St. Suite 320, Salem,OR,,,Maria Gutierrez,,maria.s.gutierrez@state.or.us,,,,,,,,,,,,,,
"Health Licensing Agency, Oregon",Board of Licensed Dietitians,Board Meeting,04/18/2014 09:00:00 AM,,"OHLA, Rhoades Conference Room, 700 Summer Street NE, Third Floor", Salem,OR,,,Debby Daniels,,debra.daniels@state.or.us,,,,,,,,,,,,,,
"Health Licensing Agency, Oregon",Behavior Analysis Regulatory Board,,03/31/2015 01:30:00 PM,03/31/2015 04:00:00 PM,"700 Summer Street NE, Suite 320", Salem,OR,,,Debra Daniels,,debra.daniels@state.or.us,,,,,,,,,,,,,,
"Health Licensing Agency, Oregon",Behavior Analysis Regulatory Board,,02/17/2015 01:30:00 PM,02/17/2015 04:00:00 PM,700 Summer Street NE Suite 320, Salem,OR,,,Debra Daniels,,debra.daniel@state.or.us,,,,,,,,,,,,,,
"Health Licensing Agency, Oregon",Board of Cosmetology,,08/17/2015 10:00:00 AM,08/17/2015 04:00:00 PM,700 Summer St. Suite 320, Salem,OR,,,Maria Gutierrez,,maria.s.gutierrez@state.or.us,,,,,,,,,,,,,,
"Health Licensing Agency, Oregon",Nursing Home Administrators Board,Board Meeting,09/25/2014 09:00:00 AM,,"OHLA, Rhoades Conference Room, 700 Summer Street NE, Third Floor", Salem,OR,,,Debby Daniels,,debra.daniels@state.or.us,,,,,,,,,,,,,,
"Health Licensing Agency, Oregon",Board of Direct Entry Midwifery,,07/14/2016 09:00:00 AM,07/14/2016 04:00:00 PM,"700 Summer St. Salem, OR 97301", Salem,OR,,,Maria Gutierrez,,maria.s.gutierrez@state.or.us,,,,,,,,,,,,,,
"Health Licensing Agency, Oregon",Board of Cosmetology Item Writing Committee,,11/18/2014 09:00:00 AM,11/18/2014 04:00:00 PM,"700 Summer St. NE, Rhoades Conference Room", Salem,OR,,,Cerynthia Kingsley,,cerynthia.kingsley@state.or.us,,,,,,,,,,,,,,
"Health Licensing Agency, Oregon",Respiratory Therapist and Polysomnographic Technologist Liensing Board,,05/01/2015 10:00:00 AM,05/01/2015 04:00:00 PM,700 Summer St. Suite 320, Salem,OR,,,Maria Gutierrez,,maria.s.gutierrez@state.or.us,,,,,,,,,,,,,,
"Health Licensing Agency, Oregon",Board of Diret Entry Midwifery,,06/11/2015 09:00:00 AM,06/11/2015 04:00:00 PM,700 Summer St. Suite 320, Salem,OR,,,Maria Gutierrez,,maria.s.gutierrez@state.or.us,,,,,,,,,,,,,,
"Health Licensing Agency, Oregon",Board of Cosmetology,,08/22/2016 10:00:00 AM,08/22/2016 04:00:00 PM,700 Summer St. Suite 320, Salem,OR,,,Maria Gutierrez,,maria.s.gutierrez@state.or.us,,,,,,,,,,,,,,
"Health Licensing Agency, Oregon",Board of Licensed Dietitians,,02/17/2016 09:30:00 AM,02/17/2016 04:00:00 PM,700 Summer St. Suite 320, Salem,OR,,,Maria Gutierrez,,maria.s.gutierrez@state.or.us,,,,,,,,,,,,,,
"Health Licensing Agency, Oregon",Advisory Council on Hearing Aids,,05/05/2016 09:00:00 AM,05/05/2016 04:00:00 PM,700 Summer St. Suite 320, Salem,OR,,,Maria Gutierrez,,maria.s.gutierrez@state.or.us,,,,,,,,,,,,,,
"Health Licensing Agency, Oregon",Board of Body Art Practitioners,Board Meeting,11/03/2014 10:00:00 AM,,"OHLA, Rhoades Conference Room, 700 Summer Street NE, Third Floor", Salem,OR,,,aperkins,,amanda.r.perkins@state.or.us,,,,,,,,,,,,,,
"Health Licensing Agency, Oregon",Board of Cosmetology,,01/25/2016 10:00:00 AM,12/25/2015 04:00:00 PM,700 Summer St. Suite 320, Salem,OR,,,Maria Gutierrez,,maria.s.gutierrez@state.or.us,,,,,,,,,,,,,,
"Health Licensing Agency, Oregon",Sex Offender Treatment Board,,03/04/2016 09:00:00 AM,03/04/2016 04:00:00 PM,700 Summer St. Suite 320, Salem,OR,,,Maria Gutierrez,,maria.s.gutierrez@state.or.us,,,,,,,,,,,,,,
"Health Licensing Agency, Oregon",Board of Cosmetology,,10/24/2016 10:00:00 AM,10/24/2016 04:00:00 PM,700 Summer St. Suite 320, Salem,OR,,,Maria Gutierrez,,maria.s.gutierrez@state.or.us,,,,,,,,,,,,,,
"Health Licensing Agency, Oregon",Environmental Health Registration Board - Teleconference,,04/07/2015 10:00:00 AM,04/07/2015 11:00:00 AM,"700 Summer St NE, Ste. 320", Salem,OR,,,Debra Daniels,,debra.daniels@state.or.us,,,,,,,,,,,,,,
"Health Licensing Agency, Oregon",Elecrology Body Art Practitioners,,04/25/2016 10:00:00 AM,04/25/2016 04:00:00 PM,700 Summer St. Suite 320, Salem,OR,,,Maria Gutierrez,,maria.s.gutierrez@state.or.us,,,,,,,,,,,,,,
"Health Licensing Agency, Oregon",Respiratory Therapist and Polysomnographic Technologist Liensing Board,,06/03/2016 10:00:00 AM,06/03/2016 04:00:00 PM,700 Summer St. Salem OR 97301, Salem,OR,,,Maria Gutierrez,,maria.s.gutierrez9135@gmail.com,,,,,,,,,,,,,,
"Health Licensing Agency, Oregon",Board of Athletic Trainers,,03/01/2016 09:00:00 AM,03/01/2016 04:00:00 PM,700 Summer St. Suite 320, Salem,OR,,,Maria Gutierrez,,maria.s.gutierrez@state.or.us,,,,,,,,,,,,,,
"Health Licensing Agency, Oregon",Board of Cosmetology,,04/06/2015 10:00:00 AM,04/06/2015 04:00:00 PM,700 Summer St. Suite 320, Salem,OR,,,Maria Gutierrez,,maria.s.gutierrez@state.or.us,,,,,,,,,,,,,,
"Health Licensing Agency, Oregon",Direct Entry Midwifery,,01/07/2016 09:00:00 AM,01/07/2016 04:00:00 PM,700 Summer St. Suite 320, Salem,OR,,,Maria Gutierrez,,maria.s.gutierrez@state.or.us,,,,,,,,,,,,,,
"Health Licensing Agency, Oregon",Sex Offender Treatment Board,,08/12/2016 10:00:00 AM,08/10/2016 04:00:00 PM,700 Summer St. Suite 320 Salem OR 97301, Salem,OR,,,Maria Gutierrez,,maria.s.gutierrez@state.or.us,,,,,,,,,,,,,,
"Health Licensing Agency, Oregon",Environmental Health Registration Board,Board Meeting,10/24/2014 09:30:00 AM,,"OHLA, Rhoades Conference Room, 700 Summer Street NE, Third Floor", Salem,OR,,,aperkins,,amanda.r.perkins@state.or.us,,,,,,,,,,,,,,
"Health Licensing Agency, Oregon",Board of Certifed Advanced Esthetician,,01/18/2017 10:00:00 AM,01/18/2017 04:00:00 PM,700 Summer St. SE Suite 320, Salem,OR,,,Maria,,maria.s.gutierrez@state.or.us,,,,,,,,,,,,,,
"Health Licensing Agency, Oregon",Respiratory Therapist and Polysomnographic Technologist Licensing Board,,10/14/2016 10:00:00 AM,10/14/2016 04:00:00 PM,700 Summer St. Suite 320, Salem,OR,,,Maria Gutierrez,,maria.s.gutierrez@state.or.us,,,,,,,,,,,,,,
"Health Licensing Agency, Oregon",Board of Body Art Practitioners,,07/18/2016 10:00:00 AM,07/18/2016 10:00:00 AM,700 Summer St. Salem OR 97301, Salem,OR,,,Maria Gutierrez,,maria.s.gutierrez@state.or.us,,,,,,,,,,,,,,
"Health Licensing Agency, Oregon",Board of Body Art Practitioners,,04/27/2015 10:00:00 AM,04/27/2015 04:00:00 PM,700 Summer St. Suite 320, Salem,OR,,,Maria Gutierrez,,maria.s.gutierrez@state.or.us,,,,,,,,,,,,,,
"Health Licensing Agency, Oregon",Behavior Analysis Regulatory Board,,01/15/2016 09:00:00 AM,01/15/2016 04:00:00 PM,700 Summer St. Suite 320, Salem,OR,,,Maria Gutierrez,,maria.s.gutierrez@state.or.us,,,,,,,,,,,,,,
"Health Licensing Agency, Oregon",Board of Denture Technology,,09/28/2015 11:00:00 AM,09/28/2015 04:00:00 PM,700 Summer St. Suite 320, Salem,OR,,,Maria Gutierrez,,maria.s.gutierrez@state.or.us,,,,,,,,,,,,,,
"Health Licensing Agency, Oregon",Board of Licensed Dietitians,,04/20/2016 09:30:00 AM,04/20/2016 04:00:00 AM,700 Summer St. Suite 320, Salem,OR,,,Maria Gutierrez,,maria.s.gutierrez@state.or.us,,,,,,,,,,,,,,
"Health Licensing Agency, Oregon",Board of Direct Entry Midwifery,,06/09/2016 09:00:00 AM,06/09/2016 04:00:00 PM,"700 Summer St. Suite 320 Salem, OR 97301", Salem,OR,,,Maria Gutierrez,,maria.s.gutierrez@state.or.us,,,,,,,,,,,,,,
"Health Licensing Agency, Oregon",Respiratory Therapist and Polysomnographic Technologist Liensing Board,,03/13/2015 10:00:00 AM,03/13/2015 04:00:00 PM,700 Summer St. Suite 320, Salem,OR,,,Maria Gutierrez,,maria.s.gutierrez@state.or.us,,,,,,,,,,,,,,
"Health Licensing Agency, Oregon",Board of Direct Entry Midwifery,,11/10/2016 09:00:00 AM,11/10/2016 04:00:00 PM,700 Summer St. Suite 320, Salem,OR,,,Maria Gutierrez,,maria.s.gutierrez@state.or.us,,,,,,,,,,,,,,
"Health Licensing Agency, Oregon",Behavior Analysis Regulatory Board,,04/16/2015 01:30:00 PM,04/16/2015 04:00:00 PM,"700 Summer Street NE, Suite 320", Salem,OR,,,Debra Daniels,,debra.daniels@state.or.us,,,,,,,,,,,,,,
"Health Licensing Agency, Oregon",Board of Diret Entry Midwifery,Teleconference Board Meeting,03/18/2015 10:30:00 AM,03/18/2015 11:30:00 AM,700 Summer St. Suite 320, Salem,OR,Meeting will be Teleconference,,Maria Gutierrez,,maria.s.gutierrez@state.or.us,,,,,,,,,,,,,,
"Health Licensing Agency, Oregon",Respiratory Therapist and Polysomnographic Technologist Liensing Board,,03/18/2016 10:00:00 AM,03/18/2016 04:00:00 PM,700 Summer St. Suite 320, Salem,OR,,,Maria Gutierrez,,maria.s.gutierrez@state.or.us,,,,,,,,,,,,,,
"Health Licensing Agency, Oregon",Cosmetology Item Writing Committee,,04/13/2015 09:00:00 AM,04/14/2015 04:00:00 PM,700 Summer St. Suite 320, Salem,OR,,,Maria Gutierrez,,maria.s.gutierrez@state.or.us,,,,,,,,,,,,,,
"Health Licensing Agency, Oregon",Behavior Analysis Regulatory Board,,08/19/2016 09:00:00 AM,08/19/2016 04:00:00 PM,700 Summer St. Suite 320 Salem OR 97301, Salem,OR,,,Maria Gutierrez,,maria.s.gutierrez@state.or.us,,,,,,,,,,,,,,
"Health Licensing Agency, Oregon",Board of Athletic Trainers,,09/27/2016 09:00:00 AM,09/27/2016 04:00:00 PM,700 Summer St. Suite 320, Salem,OR,,,Maria Gutierrez,,maria.s.gutierrez@state.or.us,,,,,,,,,,,,,,
"Health Licensing Agency, Oregon",Respiratory Therapist and Polysomnographic Technologist Licensing Board,Board Meeting,10/17/2014 09:00:00 AM,,"OHLA, Rhoades Conference Room, 700 Summer Street NE, Third Floor", Salem,OR,,,aperkins,,amanda.r.perkins@state.or.us,,,,,,,,,,,,,,
"Health Licensing Agency, Oregon",Respiratory Therapist and Polysomnographic Technologist Liensing Board,,10/15/2015 10:00:00 AM,10/15/2015 04:00:00 PM,700 Summer St. Suite 320, Salem,OR,,,Maria Gutierrez,,maria.s.gutierrez@state.or.us,,,,,,,,,,,,,,
"Health Licensing Agency, Oregon",Nursing Home Administrators Board,,09/29/2016 09:30:00 AM,09/29/2016 04:00:00 PM,700 Summer St. Suite 320, Salem,OR,,,Maria Gutierrez,,maria.s.gutierrez@state.or.us,,,,,,,,,,,,,,
"Health Licensing Agency, Oregon",Behavior Analysis Regulatory Board,,01/15/2015 01:30:00 PM,01/15/2015 04:00:00 PM,700 Summer St. NE Suite 320, Salem,OR,,,Debra Daniels,,debra.daniels@state.or.us,,,,,,,,,,,,,,
"Health Licensing Agency, Oregon",Board of Diret Entry Midwifery,,03/31/2016 09:00:00 AM,03/31/2016 04:00:00 PM,700 Summer St. Suite 320, Salem,OR,,,Maria Gutierrez,,maria.s.gutierrez@state.or.us,,,,,,,,,,,,,,
"Health Licensing Agency, Oregon",Behavioral Analysis Regulatory Board,Board Meeting,05/30/2014 09:00:00 AM,,"OHLA, Rhoades Conference Room, 700 Summer Street NE, Third Floor", Salem,OR,,,Debby Daniels,,debra.daniels@state.or.us,,,,,,,,,,,,,,
"Health Licensing Agency, Oregon",Advisory Council on Hearing Aids,,03/20/2015 01:30:00 PM,03/20/2015 03:30:00 PM,"700 Summer St NE, Suite 320",Salem,OR,,,Debra Daniels,,debra.daniels@state.or.us,,,,,,,,,,,,,,
"Health Licensing Agency, Oregon",Sex Offender Treatment Board,Board Meeting,08/08/2014 09:00:00 AM,,"OHLA, Rhoades Conference Room, 700 Summer Street NE, Third Floor", Salem,OR,,,Debby Daniels,,debra.daniels@state.or.us,,,,,,,,,,,,,,
"Health Licensing Agency, Oregon",Board of Direct Entry Midwifery,Board Meeting,10/02/2014 09:00:00 AM,,"OHLA, Rhoades Conference Room, 700 Summer Street NE, Third Floor", Salem,OR,,,aperkins,,amanda.r.perkins@state.or.us,,,,,,,,,,,,,,
"Health Licensing Agency, Oregon",Sex Offender Treatment Board,Board Meeting,11/09/2018 09:00:00 AM,11/09/2018 03:00:00 PM,1430 Tandem Ave. NE Suite 180, Salem,OR,,,Maria Gutierrez,,maria.s.gutierrez@state.or.us,,,,,,,,,,,,,,
"Health Licensing Agency, Oregon",Environmental Health Registration Board,Board Meeting,06/29/2018 09:00:00 AM,06/29/2018 02:00:00 PM,1430 Tandem Ave. NE Suite 180, Salem,OR,,,Maria Gutierrez,,maria.s.gutierrez@state.or.us,,,,,,,,,,,,,,
"Health Licensing Agency, Oregon",Nursing Home Administrators Board,Board Meeting,02/07/2018 11:00:00 AM,02/07/2018 02:00:00 PM,1430 Tandem Ave. NE Suite 180, Salem,OR,,,Maria Gutierrez,,msgutierrez9135@gmail.com,,,,,,,,,,,,,,
"Health Licensing Agency, Oregon",Behavior Analysis Regulatory Board ,Board Meeting,04/07/2017 09:00:00 AM,04/07/2017 03:00:00 PM,1430 Tandem Ave. NE Suite 180,Salem,OR,,,Maria Gutierrez,,maria.s.gutierrez@state.or.us,,,,,,,,,,,,,,
"Health Licensing Agency, Oregon",Respiratory Therapist and Polysomnographic Technologist Licensing Board,Board Meeting,03/17/2017 10:00:00 AM,03/17/2017 03:00:00 PM,1430 Tandem Ave. NE Suite 180, Salem,OR,,,Maria Gutierrez,,maria.s.gutierrez@state.or.us,,,,,,,,,,,,,,
"Health Licensing Agency, Oregon",Behavior Analysis Regulatory Board,Board Meeting,07/20/2018 09:00:00 AM,07/20/2018 02:00:00 PM,1430 Tandem Ave. NE Suite 180, Salem,OR,,,Maria Gutierrez,,maria.s.gutierrez@state.or.us,,,,,,,,,,,,,,
"Health Licensing Agency, Oregon",Board of Direct Entry Midwifery,Board Meeting,09/21/2017 09:00:00 AM,09/21/2017 04:00:00 PM,1430 Tandem Ave NE Suite 180,Salem ,OR,,,Maria Gutierrez,,maria.s.gutierrez@state.or.us,,,,,,,,,,,,,,
"Health Licensing Agency, Oregon",Envioronmental Health Resgistration Board,Board Meeting,10/20/2017 09:30:00 AM,10/20/2017 04:00:00 PM,1430 Tandem Ave NE Suite 180, Salem,OR,,,Maria Gutierrez,,maria.s.gutierrez@state.or.us,,,,,,,true,,,,,,,
"Health Licensing Agency, Oregon",Board of Athletic Trainers,Board Meeting,09/26/2017 09:00:00 AM,09/26/2017 04:00:00 PM,1430 Tandem Ave. NE Suite 180,Salem ,OR,,,Maria Gutierrez,,maria.s.gutierrez@state.or.us,,,,,,,,,,,,,,
"Health Licensing Agency, Oregon",Board of Certifed Advanced Esthetician,Board Meeting,11/08/2017 10:00:00 AM,11/08/2017 04:00:00 PM,1430 Tandem Ave. NE Sutie 180, Salem,OR,,,Maria Gutierrez,,maria.s.gutierrez@state.or.us,,,,,,,,,,,,,,
"Health Licensing Agency, Oregon",Board of Athletic Trainers,Board Meeting,09/25/2018 09:00:00 AM,09/25/2018 02:00:00 PM,1430 Tandem Ave. NE Suite 180, Salem,OR,,,Maria Gutierrez,,maria.s.gutierrez@state.or.us,,,,,,,,,,,,,,
"Health Licensing Agency, Oregon",Board of Cosmetology/ Rules Avisory Committee ,Rules Advisory Committee Meeting,03/12/2018 10:00:00 AM,03/12/2018 04:00:00 PM,1430 Tandem Ave. NE Suite 180, Salem,OR,,,Maria Gutierrez,,maria.s.gutierrez@sate.or.us,,,,,,,,,,,,,,
"Health Licensing Agency, Oregon",Long Term Care Administrators,Board Meeting,04/09/2019 09:00:00 AM,04/09/2019 03:00:00 PM,1430 Tandem Ave. NE Suite 180, Salem,OR,,,Maria Gutierrez,,maria.s.gutierrez@state.or.us,,,,,,,,,,,,,,
"Health Licensing Agency, Oregon",Nursing Home Adminstrators Board ,Board Meeting,04/12/2018 09:30:00 AM,04/12/2018 03:00:00 PM,1430 Tandem Ave. NE Suite 180, Salem,OR,,,Maria Gutierrez,,maria.s.gutierrez@state.or.us,,,,,,,,,,,,,,
"Health Licensing Agency, Oregon",Board of Direct Entry Midwifery,Board Meeting,11/30/2017 09:00:00 AM,11/30/2017 04:00:00 PM,1430 Tandem Ave. NE Sutie 180, Salem,OR,,,Maria Gutierrez,,maria.s.gutierrez@state.or.us,,,,,,,,,,,,,,
"Health Licensing Agency, Oregon",Board of Denture Technology,Board meeting,05/07/2018 11:00:00 AM,05/07/2018 04:00:00 PM,1430 Tandem Ave. NE Suite 180, Salem,OR,,,Maria Gutierrez,,maria.s.gutierrez@state.or.us,,,,,,,,,,,,,,
"Health Licensing Agency, Oregon",Rules Advisory Committee for Sex Offender Tretment Board,Board Meeting,09/20/2017 09:00:00 AM,09/20/2017 04:00:00 PM,1430 Tandem Ave. NE Suite 180, Salem,OR,,,Maria Gutierrez,,maria.s.gutierrez@state.or.us,,,,,,,,,,,,,,
"Health Licensing Agency, Oregon",CANCELLED Respiratory Therapist and Polysomnographic Technologist Board,Board Meeting,03/09/2018 09:00:00 AM,03/09/2018 04:00:00 PM,1430 Tandem Ave. NE Suite 180, Salem,OR,,,Maria Gutierrez,,maria.s.gutierrez@state.or.us,,,,,,,,,,,,,,
"Health Licensing Agency, Oregon",Long Term Care Administrators,Board Meeting,02/26/2019 09:00:00 AM,02/26/2019 03:00:00 PM,1430 Tandem Ave. NE Suite 180, Salem,OR,,,Maria Gutierrez,,maria.s.gutierrez@state.or.us,,,,,,,,,,,,,,
"Health Licensing Agency, Oregon",Board of Certified Advanced Estheticians,Board Meeting,04/04/2018 10:00:00 AM,04/04/2018 03:00:00 PM,1430 Tandem Ave. NE Suite 180, Salem,OR,,,Maria Gutierrez,,maria.s.gutierrez@state.or.us,,,,,,,,,,,,,,
"Health Licensing Agency, Oregon",CANCELLED Board of Direct Entry Midwifery,Board Meeting,03/22/2018 09:00:00 AM,03/22/2018 04:00:00 PM,1430 Tandem Ave. NE Suite 180, Salem,OR,,,Maria Gutierrez,,maria.s.gutierrez@state.or.us,,,,,,,,,,,,,,
"Health Licensing Agency, Oregon",Board of Cosmetology,,01/30/2017 10:00:00 AM,01/30/2017 04:00:00 PM,700 Summer St. Suite 320,Salem,OR,,,Maria,,maria.s.gutierrez@state.or.us,,,,,,,,,,,,,,
"Health Licensing Agency, Oregon",Board of Direct Entry Midwifery,Board Meeting,04/25/2019 09:00:00 AM,04/25/2019 03:00:00 PM,1430 Tandem Ave. NE Suite 180, Salem,OR,,,Maria Gutierrez,,maria.s.gutierrez@state.or.us,,,,,,,,,,,,,,
"Health Licensing Agency, Oregon",Advisory Council on Hearing Aids,Board Meeting,01/31/2019 09:00:00 AM,01/31/2019 03:00:00 PM,1430 Tandem Ave. NE Suite 180, Salem,OR,,,Maria Gutierrez,,maria.s.gutierrez@state.or.us,,,,,,,,,,,,,,
"Health Licensing Agency, Oregon",Board of Direct Entry Midwifery,,01/12/2017 09:00:00 AM,01/12/2017 04:00:00 AM,700 Summer St. SE Suite 320,Salem,OR,,,Maria,,maria.s.gutierrez@state.or.us,,,,,,,,,,,,,,
"Health Licensing Agency, Oregon",Board of Cosmetology,Board Meeting,10/29/2018 10:00:00 AM,10/29/2018 03:00:00 PM,1430 Tandem Ave. NE Suite 180, Salem,OR,,,Maria Gutierrez,,maria.s.gutierrez@state.or.us,,,,,,,,,,,,,,
"Health Licensing Agency, Oregon",Board of Direct Entry Midwifery,Board Meeting,02/14/2019 09:00:00 AM,02/14/2019 03:00:00 PM,1430 Tandem Ave. NE Suite 180, Salem,OR,,,Maria Gutierrez,,maria.s.gutierrez@state.or.us,,,,,,,,,,,,,,
"Health Licensing Agency, Oregon",Advisory Council of Hearing Aids,Board Meeting,05/12/2017 01:00:00 PM,05/12/2017 04:00:00 PM,1430 Tandem Ave. NE Suie 180, Salem,OR,,,Maria Gutierrez,,maria.s.gutierrez@state.or.us,,,,,,,,,,,,,,
"Health Licensing Agency, Oregon",Board of Direct Entry Midwifery,Board Meeting,07/19/2018 09:00:00 AM,07/19/2018 04:00:00 PM,1430 Tandem Ave. NE Suite 180, Salem,OR,,,Maria Gutierrez,,maria.s.gutierrez@state.or.us,,,,,,,,,,,,,,
"Health Licensing Agency, Oregon",Respiratory Therapist and Polysomnographic Technologist Licensing Board,Board Meeting,06/21/2019 09:00:00 AM,06/21/2019 03:00:00 PM,1430 Tandem Ave. NE Suite 180, Salem,OR,,,Maria Gutierrez,,maria.s.gutierrez@state.or.us,,,,,,,,,,,,,,
"Health Licensing Agency, Oregon",Advisory Council on Hearing Aids,Council Meeting,06/15/2018 09:00:00 AM,06/15/2018 03:00:00 PM,1430 Tandem Ave. NE Suite 180, Salem,OR,,,Maria Gutierrez,,maria.s.gutierrez@state.or.us,,,,,,,,,,,,,,
"Health Licensing Agency, Oregon",Board of Electrologists and Body Art Practitioners,,01/25/2017 10:00:00 AM,01/25/2017 04:00:00 PM,700 Summer St. SE Suite 320, Salem,OR,,,Maria,,maria.s.gutierrez@state.or.us,,,,,,,,,,,,,,
"Health Licensing Agency, Oregon",Board of Certified Advanced Estheticians ,Board Meeting,06/14/2017 10:00:00 AM,06/14/2017 04:00:00 PM,1430 Tandem Ave. NE Suite 180, Salem,OR,,,Maria Gutierrez,,maria.s.gutierrez@state.or.us,,,,,,,,,,,,,,
"Health Licensing Agency, Oregon",Board of Electrologist and Body Art Practitioners,Board Meeting,02/25/2019 10:00:00 AM,02/25/2019 03:00:00 PM,1430 Tandem Ave. NE Suite 180, Salem,OR,,,Maria Gutierrez,,maria.s.gutierrez@state.or.us,,,,,,,,,,,,,,
"Health Licensing Agency, Oregon",Respiratory Therapist and Polysomnographic Technologist Licensing Board,Board Meeting,11/30/2018 10:00:00 AM,11/30/2018 03:00:00 PM,1430 Tandem Ave. NE Suite 180, Salem,OR,,,Maria Gutierrez,,maria.s.gutierrez@state.or.us,,,,,,,,,,,,,,
"Health Licensing Agency, Oregon",Board of Cosmetology,Board Meeting,06/03/2019 10:00:00 AM,06/03/2019 03:00:00 AM,1430 Tandem Ave. NE Suite 180, Salem,OR,,,Maria Gutierrez,,maria.s.gutierrez@state.or.us,,,,,,,,,,,,,,
"Health Licensing Agency, Oregon",Sex Offencer Treatment Board,Board Meeting,03/24/2017 09:00:00 AM,03/24/2017 02:00:00 PM,1430 Tandem Ave. NE Suite 180,Salem,OR,,,Maria Gutierrez,,maria.s.gutierrez@stat.or.us,,,,,,,,,,,,,,
"Health Licensing Agency, Oregon",Rules Hearing for the Board of Certified Advanced Estheticians,Rules Hearing,05/22/2018 10:00:00 AM,05/22/2018 12:00:00 PM,1430 Tandem Ave NE Suite 180, Salem,OR,,,Maria Gutierrez,,maria.s.gutierrez@state.or.us,,,,,,,,,,,,,,
"Health Licensing Agency, Oregon",Respiratory Therapist and Polysomnographic Technologist Licensing Board,Board Meeting,06/02/2017 09:00:00 AM,06/02/2017 04:00:00 PM,1430 Tandem Ave. Suie 180, Salem,OR,,,Maria Gutierrez,,maria.gutierrez@state.or.us,,,,,,,,,,,,,,
"Health Licensing Agency, Oregon",Board of Certified Advanced Estheticians,Teleconference Board Meeting,12/14/2017 09:00:00 AM,12/14/2017 03:00:00 PM,1430 Tandem Ave. NE Suite 180,Salem ,OR,,,Maria Gutierrez,,maria.s.gutierrez@state.or.us,,,,,,,,,,,,,,
"Health Licensing Agency, Oregon",Board of Electrologist and Body Art Practitioners,Board Meeting,05/15/2017 10:00:00 AM,05/15/2017 05:00:00 PM,1430 Tandem Ave. NE Suite 180,Salem ,OR,,,Maria Gutierrez,,maria.s.gutierrez@sate.or.us,,,,,,,,,,,,,,
"Health Licensing Agency, Oregon",Advisory Concil on Hearin Aids,Board Meeting,09/29/2017 01:00:00 PM,09/29/2017 04:00:00 PM,1430 Tandem Ave. NE Suite 180,Salem ,OR,,,Maria Gutierrez,,maria.s.gutierrez@state.or.us,,,,,,,,,,,,,,
"Health Licensing Agency, Oregon",Board of Direct Entry Midwifery,Board Meeting,03/14/2019 09:00:00 AM,03/14/2019 03:00:00 PM,1430 Tandem Ave. NE Suite 180, Salem,OR,,,Maria Gutierrez,,maria.s.gutierrez@state.or.us,,,,,,,,,,,,,,
"Health Licensing Agency, Oregon",Board of Cosmetology,Board Meeting,10/30/2017 10:00:00 AM,10/30/2017 04:00:00 PM,1430 Tandem Ave NE Suite 180,Salem,OR,,,Maria Gutierrez,,maria.s.gutierrez@state.or.us,,,,,,,,,,,,,,
"Health Licensing Agency, Oregon",Rules Advisory Committee for Sex Offender Treatment Board,Board Meeting,09/20/2017 09:00:00 AM,09/20/2017 04:00:00 PM,1430 Tandem Ave. NE Suite 180,Salem ,OR,,,Maria Gutierrez,,maria.s.gutierrez@state.or.us,,,,,,,,,,,,,,
"Health Licensing Agency, Oregon",Environmental Health Registration Board,Board Meeting,03/02/2018 09:30:00 AM,03/02/2018 03:00:00 PM,1430 Tandem Ave. NE Suite 180, Salem,OR,,,Maria Gutierrez,,maria.s.gutierrez@state.or.us,,,,,,,,,,,,,,
"Health Licensing Agency, Oregon",Board of Direct Entry Midwifery,Board Meeting,08/09/2018 09:00:00 AM,08/09/2018 04:00:00 PM,1430 Tandem Ave. NE Suite 180, Salem,OR,,,Maria Gutierrez,,maria.s.gutierrez@state.or.us,,,,,,,,,,,,,,
"Health Licensing Agency, Oregon",Adviosry Council on Hearing Aids,Meeting,02/16/2018 12:00:00 AM,02/16/2018 02:00:00 PM,1430 Tandem Ave. NE Suite 180,Salem,OR,,,Maria Gutierrez,,maria.s.gutierrez@state.or.us,,,,,,,,,,,,,,
"Health Licensing Agency, Oregon",Board of Cosmetology,Board Meeting,01/28/2019 10:00:00 AM,01/28/2019 03:00:00 PM,1430 Tandem Ave. NE Suite 180, Salem,OR,,,Maria Gutierrez,,maria.s.gutierrez@state.or.us,,,,,,,,,,,,,,
"Health Licensing Agency, Oregon",Advisory Council on Hearing Aids,Board Meeting,04/06/2018 01:00:00 AM,04/06/2018 03:00:00 PM,1430 Tandem Ave. NE Suite 180, Salem,OR,,,Maria Gutierrez,,maria.s.gutierrez@state.or.us,,,,,,,,,,,,,,
"Health Licensing Agency, Oregon",Respiratory Therapist and Polysomnographic Technologist Licensing Board,Board Meeting,08/13/2018 09:00:00 AM,08/13/2018 04:00:00 PM,1430 Tandem Ave. NE Suite 180, Salem,OR,,,Maria Gutierrez,,maria.s.gutierrez@state.or.us,,,,,,,,,,,,,,
"Health Licensing Agency, Oregon",Board of Certified Advanced Esthetician,Board Meeting,01/17/2018 10:00:00 AM,01/17/2018 04:00:00 PM,1430 Tandem Ave. NE Suite 180, Salem,OR,,,Maria Gutierrez,,maria.s.gutierrez@state.or.us,,,,,,,,,,,,,,
"Health Licensing Agency, Oregon",Work Group for The Sex Offender Treatment Board,Work Group Meeting,04/18/2018 08:00:00 AM,04/18/2018 03:00:00 PM,1430 Tandem Ave. NE Suite 180, Salem,OR,,,Maria Gutierrez,,maria.s.gutierrez@state.or.us,,,,,,,,,,,,,,
"Health Licensing Agency, Oregon",COS/ CAE Rules Advisory Committee,Meeting,08/15/2018 09:00:00 AM,08/15/2018 03:00:00 PM,1430 Tandem Ave. NE Suite 180, Salem,OR,,,Maria Gutierrez,,maria.s.gutierrez@state.or.us,,,,,,,,,,,,,,
"Health Licensing Agency, Oregon",Board of Licensed Dietitians,Board Meeting,04/26/2017 09:30:00 AM,04/26/2017 03:00:00 PM,1430 Tandem Ave. NE Suite 180, Salem,OR,,,Maria Gutierrez,,maria.s.gutierrez@state.or.us,,,,,,,,,,,,,,
"Health Licensing Agency, Oregon",Nursing Home Administrators Board,Meeting,04/13/2017 09:30:00 AM,04/13/2017 03:15:00 PM,1430 Tandem Ave. NE Suite 180, Salem,OR,,,Maria Gutierrez,,maria.s.gutierrez@state.or.us,,,,,,,,,,,,,,
"Health Licensing Agency, Oregon",Board of Denture Technology,Board Meeting,02/05/2018 11:00:00 AM,02/05/2018 04:00:00 PM,1430 Tandem Ave. NE Suite 180, Salem,OR,,,Maria Gutierrez,,maria.s.gutierrez@state.or.us,,,,,,,,,,,,,,
"Health Licensing Agency, Oregon",Long Term Care Administrators,Board Meeting,01/22/2019 09:00:00 AM,01/22/2019 03:00:00 PM,1430 Tandem Ave. NE Suite 180, Salem,OR,,,Maria Gutierrez,,maria.s.gutierrez@state.or.us,,,,,,,,,,,,,,
"Health Licensing Agency, Oregon",Long Term Care Administrators,Board Meeting,06/11/2019 09:00:00 AM,06/11/2019 03:00:00 PM,1430 Tandem Ave. NE Suite 180, Salem,OR,,,Maria Gutierrez,,maria.s.gutierrez@state.or.us,,,,,,,,,,,,,,
"Health Licensing Agency, Oregon",Nursing Home Administrators Board,Board Meeting,06/15/2017 09:30:00 AM,06/15/2017 04:00:00 PM,1430 Tandem Ave NE Suite 180, Salem,OR,,,Maria Gutierrez,,maria.s.gutierrez@state.or.us,,,,,,,,,,,,,,
"Health Licensing Agency, Oregon",Sex Offender Treatment Board,Board Meeting,05/17/2019 09:00:00 AM,05/17/2019 03:00:00 PM,1430 Tandem Ave. NE Suite 180, Salem,OR,,,Maria Gutierrez,,maria.s.gutierrez@state.or.us,,,,,,,,,,,,,,
"Health Licensing Agency, Oregon",CANCELLED Sex Offender Treatment Board,Work Group,02/21/2018 09:00:00 AM,02/21/2018 04:00:00 PM,1430 Tandem Ave. NE Suite 180, Salem,OR,,,Maria Gutierrez,,maria.s.gutierrez@state.or.us,,,,,,,,,,,,,,
"Health Licensing Agency, Oregon",Behavior Analysis Regulatory Board,Board Meeting,01/25/2019 09:00:00 AM,01/25/2019 03:00:00 PM,1430 Tandem Ave. NE Suite 180, Salem,OR,,,Maria Gutierrez,,maria.s.gutierrez@state.or.us,,,,,,,,,,,,,,
"Health Licensing Agency, Oregon",Board of Direct Entry Midwifery,Board Meeting,06/27/2019 09:00:00 AM,06/27/2019 03:00:00 PM,1430 Tandem Ave. NE Suite 180, Salem,OR,,,Maria Gutierrez,,maria.s.gutierrez@state.or.us,,,,,,,,,,,,,,
"Health Licensing Agency, Oregon",Board of Certified Advanced Estheticians,Board Meeting,04/05/2017 10:00:00 AM,04/05/2017 03:00:00 PM,1430 Tandem Ave. NE Suite 180, Salem,OR,,,Maria Gutierrez,,maria.s.gutierrez@state.or.us,,,,,,,,,,,,,,
"Health Licensing Agency, Oregon",Sex Offender Treatment Board,Board Meeting,09/08/2017 09:00:00 AM,09/07/2017 04:00:00 PM,1430 Tandem Ave. NE Suite 180,Salem ,OR,,,Maria Gutierrez,,maria.s.gutierrez@state.or.us,,,,,,,,,,,,,,
"Health Licensing Agency, Oregon",Board of Direct Entry Midwifery,Board Meeting,01/11/2018 09:00:00 AM,01/11/2018 04:00:00 PM,1430 Tandem Ave. NE Suite 180, Salem ,OR,,,Maria Gutierrez,,maria.s.gutierrez@state.or.us,,,,,,,,,,,,,,
"Health Licensing Agency, Oregon",Work Group for the Board of Certified Advanced Estheticians,Meeting,04/12/2017 10:00:00 AM,04/12/2017 03:00:00 PM,1430 Tandem Ave. NE Suite 180, Salem,OR,,,Maria Gutierrez,,maria.s.gutierrez@state.or.us,,,,,,,,,,,,,,
"Health Licensing Agency, Oregon",Board of Certified Advanced Estheticians,Board Meeting,05/15/2019 09:00:00 AM,05/15/2019 03:00:00 PM,1430 Tandem Ave. NE Suite 180, Salem,OR,,,Maria Gutierrez,,maria.s.gutierrez@state.or.us,,,,,,,,,,,,,,
"Health Licensing Agency, Oregon",Respiratory Therapist and Polysomnographic Technologist Licensing Board,Board Meeting,06/22/2018 10:00:00 AM,06/22/2018 02:00:00 PM,1430 Tandem Ave. NE Suite 180, Salem,OR,,,Maria Gutierrez,,maria.s.gutierrez@state.or.us,,,,,,,,,,,,,,
"Health Licensing Agency, Oregon",Advisory Council on Hearing Aids,Board Meeting,04/05/2019 09:00:00 AM,04/05/2019 03:00:00 PM,1430 Tandem Ave. NE Suite 180, Salem,OR,,,Maria Gutierrez,,maria.s.gutierrez@state.or.us,,,,,,,,,,,,,,
"Health Licensing Agency, Oregon",Board of Licensed Dietitians,Board Meeting,11/01/2017 09:30:00 AM,11/01/2017 04:00:00 PM,1430 Tandem Ave. NE Suite 180, Salem,OR,,,Maria Gutierrez,,maria.s.gutierrez@state.or.us,,,,,,,,,,,,,,
"Health Licensing Agency, Oregon",Sex Offender Treatment Board,Board Meeting,09/27/2017 08:00:00 AM,09/27/2017 04:00:00 PM,1430 Tandem Ave. NE Suite 180, Salem,OR,,,Maria Gutierrez,,maria.s.gutierrez@state.or.us,,,,,,,,,,,,,,
"Health Licensing Agency, Oregon",Board of Direct Entry Midwifery,Board Meeting,10/25/2018 09:00:00 AM,10/25/2018 03:00:00 PM,1430 Tandem Ave. NE Suite 180, Salem,OR,,,Maria Gutierrez,,maria.s.gutierrez@state.or.us,,,,,,,,,,,,,,
"Health Licensing Agency, Oregon",CANCELLED Board of Electrologist and Body Art Practitioners,Board Meeting,02/26/2018 10:00:00 AM,02/26/2018 04:00:00 PM,1430 Tandem Ave. NE Suite 180, Salem,OR,,,Maria Gutierrez,,maria.s.gutierrez@state.or.us,,,,,,,,,,,,,,
"Health Licensing Agency, Oregon",Nursing Home Administrators Board ,Board Meeting,09/28/2017 09:00:00 AM,09/28/2017 04:00:00 PM,1430 Tandem Ave. NE Suite 180,Salem,OR,,,Maria Gutierrez,,maria.s.gutierrez@state.or.us,,,,,,,,,,,,,,
"Health Licensing Agency, Oregon",Behavior Analysis Regulatory Board,Board Meeting,09/07/2018 09:00:00 AM,09/07/2018 03:00:00 PM,1430 Tandem Ave. NE Suite 180, Salem,OR,,,Maria Gutierrez,,maria.s.gutierrez@state.or.us,,,,,,,,,,,,,,
"Health Licensing Agency, Oregon",Board of Direct Entry Midwifery,Board Meeting,05/18/2017 09:00:00 AM,05/18/2017 04:00:00 PM,1430 Tandem Ave NE Suite 180, Salem,OR,,,Maria Gutierrez,,maria.s.gutierrez@state.or.us,,,,,,,,,,,,,,
"Health Licensing Agency, Oregon",Board of Direct Entry Midwifery,Board Meeting,05/16/2019 09:00:00 AM,05/16/2019 03:00:00 PM,1430 Tandem Ave. NE Suite 180, Salem,OR,,,Maria Gutierrez,,maria.s.gutierrez@state.or.us,,,,,,,,,,,,,,
"Health Licensing Agency, Oregon",Board of Direct Entry Midwifery,Board Meeting,11/15/2018 09:00:00 AM,11/15/2018 03:00:00 PM,1430 Tandem Ave. NE Suite 180, Salem,OR,,,Maria Gutierrez,,maria.s.gutierrez@state.or.us,,,,,,,,,,,,,,
"Health Licensing Agency, Oregon",Sex Offender Treatment Board,Board meeting,05/11/2018 09:00:00 AM,05/11/2018 02:00:00 PM,1430 Tandem Ave. NE Suie 180, Salem,OR,,,Maria Gutierrez,,maria.s.gutierrez@state.or.us,,,,,,,,,,,,,,
"Health Licensing Agency, Oregon",Rules Advisory Committee Meeting for the Board of Electrologist and Body Art Practitioners,Committee Meeting,03/28/2017 10:00:00 AM,03/28/2017 03:00:00 PM,1430 Tandem Ave. NE Suite 180, Salem,OR,,,Maria Gutierrez,,maria.s.gutierrez@state.or.us,,,,,,,,,,,,,,
"Health Licensing Agency, Oregon",Workgroup for the Sex Offender Treatment Board,Meeting,01/14/2019 09:00:00 AM,01/14/2019 03:00:00 PM,1430 Tandem Ave. NE Suite 180, Salem,OR,,,Maria Gutierrez,,maria.s.gutierrez@state.or.us,,,,,,,,,,,,,,
"Health Licensing Agency, Oregon",Behavior Analysis Regulatory Board,Board Meeting,08/17/2018 09:00:00 AM,08/17/2018 03:00:00 PM,1430 Tandem Ave. NE Suite 180, Salem,OR,,,Maria Gutierrez,,maria.s.gutierrez@state.or.us,,,,,,,,,,,,,,
"Health Licensing Agency, Oregon",Behavior Analysis Regulatory Board,Board Meeting,01/26/2018 09:00:00 AM,01/26/2018 04:00:00 PM,1430 Tandem Ave. Suite 180, Salem,OR,,,Maria Gutierrez,,maria.s.gutierrez@state.or.us,,,,,,,,,,,,,,
"Health Licensing Agency, Oregon",Board of Denture Technology,Board Meeting,10/18/2018 11:00:00 AM,10/18/2018 02:00:00 PM,1430 Tandem Ave. NE Suite 180, Salem,OR,,,Maria Gutierrez,,maria.s.gutierrez@state.or.us,,,,,,,,,,,,,,
"Health Licensing Agency, Oregon",Board of Electrologist and Body Art Practitioners,Board Meting,05/14/2018 10:00:00 AM,05/14/2018 02:00:00 PM,1430 Tandem Ave. NE Suite 180, Salem,OR,,,Maria Gutierrez,,maria.s.gutierrez@state.or.us,,,,,,,,,,,,,,
"Health Licensing Agency, Oregon",Board of Direct Entry Midwifery,Board Meeting,04/20/2017 10:00:00 AM,04/20/2017 03:00:00 PM,1430 Tandem Ave. NE Suite 180, Salem,OR,,,Maria Gutierrez,,maria.s.gutierrez@state.or.us,,,,,,,,,,,,,,
"Health Licensing Agency, Oregon",Behavior Analysis Regulatory Board ,Board Meeting,10/13/2017 09:00:00 AM,10/13/2017 04:00:00 PM,1430 Tandem Ave. NE Suite 180,Salem,OR,,,Maria Gutierrez,,maria.s.gutierrez@state.or.us,,,,,,,,,,,,,,
"Health Licensing Agency, Oregon",Board of Direct Entry Midwifery,Board Meeting,01/10/2019 09:00:00 AM,01/10/2019 03:00:00 PM,1430 Tandem Ave. NE Suite 180, Salem,OR,,,Maria Gutierrez,,maria.s.gutierrez@state.or.us,,,,,,,,,,,,,,
"Health Licensing Agency, Oregon",Long Term Care Administrators,Board Meeting,03/12/2019 09:00:00 AM,03/12/2019 03:00:00 PM,1430 Tandem Ave. NE Suite 180, Salem,OR,,,Maria Gutierrez,,maria.s.gutierrez@state.or.us,,,,,,,,,,,,,,
"Health Licensing Agency, Oregon",Board of Cosmetology,Board Meeting,01/29/2018 10:00:00 AM,01/29/2018 04:00:00 PM,1430 Tandem Ave. NE Suite 180, Salem,OR,,,Maria Gutierrez,,maria.s.gutierrez@state.or.us,,,,,,,,,,,,,,
"Health Licensing Agency, Oregon",Board of Direct Entry Midwifery,Board Meeting,08/23/2018 09:00:00 AM,08/23/2018 03:00:00 PM,1430 Tandem Ave. NE Suite 180, Salem,OR,,,Maria Gutierrez,,maria.s.gutierrez@state.or.us,,,,,,,,,,,,,,
"Health Licensing Agency, Oregon",Board of Licensed Dietitians,Board Meeting,03/13/2019 09:00:00 AM,03/13/2019 03:00:00 PM,1430 Tandem Ave. NE Suite 180, Salem,OR,,,Maria Gutierrez,,maria.s.gutierrez@state.or.us,,,,,,,,,,,,,,
"Health Licensing Agency, Oregon",Board of Denture Technology,Board Meeting,07/16/2018 11:00:00 AM,07/16/2018 03:00:00 PM,1430 Tandem Ave. NE Suite 180, Salem,OR,,,Maria Gutierrez,,maria.s.gutierrez@state.or.us,,,,,,,,,,,,,,
"Health Licensing Agency, Oregon",Advisory Council on Hearing Aids,Board Meeting,10/26/2018 01:00:00 PM,10/26/2018 04:00:00 PM,1430 Tandem Ave. NE Suite 180, Salem,OR,,,Maria Gutierrez,,maria.s.gutierrez@state.or.us,,,,,,,,,,,,,,
"Health Licensing Agency, Oregon",Board of Electrologists and Body Art Practitioners,Board Meeting,12/04/2017 10:00:00 AM,12/04/2017 04:00:00 PM,1430 Tandem Ave. NE Suite 180,Salem ,OR,,,Maria Gutierrez,,maria.s.gutierrez@state.or.us,,,,,,,,,,,,,,
"Health Licensing Agency, Oregon",Environmental Health Registration Board,Board Meeting,10/05/2018 09:00:00 AM,10/05/2018 02:00:00 PM,1430 Tandem Ave. NE Suite 180, Salem,OR,,,Maria Gutierrez,,maria.s.gutierrez@state.or.us,,,,,,,,,,,,,,
"Health Licensing Agency, Oregon",Board of Cosmetology ,Board Meeting,06/11/2018 10:00:00 AM,06/11/2018 03:00:00 PM,1430 Tandem Ave. NE Suite 180, Salem,OR,,,Maria Gutierrez,,maria.s.gutierrez@state.or.us,,,,,,,,,,,,,,
"Health Licensing Agency, Oregon",Board of Direct Entry Midwifery,Board Meeting,02/15/2018 09:00:00 AM,02/15/2018 04:00:00 PM,1430 Tandem Ave. NE Suite 180,Salem,OR,,,Maria Gutierrez,,maria.s.gutierrez@state.or.us,,,,,,,,,,,,,,
"Health Licensing Agency, Oregon",Board of Certified Advanced Estheticians,Board Meeting,06/08/2018 08:15:00 AM,06/08/2018 02:00:00 PM,1430 Tandem Ave. NE Suite 180, Salem,OR,,,Maria Gutierrez,,maria.s.gutierrez@state.or.us,,,,,,,,,,,,,,
"Health Licensing Agency, Oregon",Respiratory Therapist and Polysomnographic Technologist Licensing Board,Board Room,11/03/2017 09:00:00 AM,11/03/2017 04:00:00 PM,1430 Tandem Ave. NE Suite 180,Salem ,OR,,,Maria Gutierrez,,maria.s.gutierrez@state.or.us,,,,,,,,,,,,,,
"Health Licensing Agency, Oregon",Sex Offender Treatment Board,Board Meeting,12/01/2017 08:00:00 AM,12/01/2017 04:00:00 PM,1430 Tandem Ave. NE Suite 180, Salem,OR,,,Maria Gutierrez,,maria.s.gutierrez@state.or.us,,,,,,,,,,,,,,
"Health Licensing Agency, Oregon",Board of Licensed Dietitians,Board Meeting,11/07/2018 09:00:00 AM,11/07/2018 03:00:00 PM,1430 Tandem Ave. NE Suite 180, Salem,OR,,,Maria Gutierrez,,maria.s.gutierrez@state.or.us,,,,,,,,,,,,,,
"Health Licensing Agency, Oregon",Environmental Health Registration Board,Board Meeting,04/28/2017 09:30:00 AM,04/28/2017 03:00:00 PM,1430 Tandem Ave. NE Suite 180, Salem,OR,,,Maria Gutierrez,,maria.s.gutierrez@state.or.us,,,,,,,,,,,,,,
"Health Licensing Agency, Oregon",Board of Licensed Dietitians,Board Meeting,03/13/2019 09:00:00 AM,03/13/2019 03:00:00 PM,1430 Tandem Ave. NE Suite 180, Salem,OR,,,Maria Gutierrez,,maria.s.gutierrez@state.or.us,,,,,,,,,,,,,,
"Health Licensing Agency, Oregon",Board of Licensed Dietitians,Board Meeting,02/07/2018 09:30:00 AM,02/07/2018 04:00:00 PM,1430 Tandem Ave. NE Suite 180, Salem,OR,,,Maria Gutierrez,,maria.s.gutierrez@state.or.us,,,,,,,,,,,,,,
"Health Licensing Agency, Oregon",Environmental Health Registration Board,Board Meeting,03/01/2019 09:00:00 AM,03/01/2019 03:00:00 PM,1430 Tandem Ave. NE Suite 180, Salem,OR,,,Maria Gutierrez,,maria.s.gutierrez@state.or.us,,,,,,,,,,,,,,
"Health Licensing Agency, Oregon",Workgroup for the Sex Offender Treatment Board,Meeting,09/17/2018 09:00:00 AM,09/17/2018 03:00:00 PM,1430 Tandem Ave. NE Suite 180, Salem,OR,,,Maria Gutierrez,,maria.s.gutierrez@state.or.us,,,,,,,,,,,,,,
"Health Licensing Agency, Oregon",Workgroup for the Sex Offender Treatment Board,Meeting,07/09/2018 09:00:00 AM,07/07/2018 02:00:00 PM,1430 Tandem Ave. NE Suite 180, Salem,OR,,,Maria Gutierrez,,maria.s.gutierrez@state.or.us,,,,,,,,,,,,,,
"Health Licensing Agency, Oregon",CANCELLED Board of Electrologist and Body Art Practitioners,Board Meeting,02/26/2018 10:00:00 AM,02/26/2018 04:00:00 PM,1430 Tandem Ave. NE Suite 180, Salem,OR,,,Maria Gutierrez,,maria.s.gutierrez@state.or.us,,,,,,,,,,,,,,
"Health Licensing Agency, Oregon",Board of Direct Entry Midwifery,Board Meeting,09/20/2018 09:00:00 AM,09/20/2018 02:00:00 PM,1430 Tandem Ave. NE Suite 180, Salem,OR,,,Maria Gutierrez,,maria.s.gutierrez@state.or.us,,,,,,,,,,,,,,
"Health Licensing Agency, Oregon",Respiratory Therapist and Polysomnographic Technologist Licensing Board,Board Meeting,02/08/2019 09:00:00 AM,02/08/2019 03:00:00 PM,1430 Tandem Ave. NE Suite 180, Salem,OR,,,Maria Gutierrez,,maria.s.gutierrez@state.or.us,,,,,,,,,,,,,,
"Health Licensing Agency, Oregon",Long Term Care Administrators,Board Meeting,05/14/2019 09:00:00 AM,05/14/2019 03:00:00 PM,1430 Tandem Ave. NE Suite 180, Salem,OR,,,Maria Gutierrez,,maria.s.gutierrez@state.or.us,,,,,,,,,,,,,,
"Health Licensing Agency, Oregon",Rules Advisory Committee Meeting for the Board of Electrologist and Body Art Practitioners,Committee Meeting,04/25/2017 10:00:00 AM,04/25/2017 02:00:00 PM,1430 Tandem Ave. NE Suite 180, Salem,OR,,,Maria Gutierrez,,maria.s.gutierrez@state.or.us,,,,,,,,,,,,,,
"Health Licensing Agency, Oregon",COS/ CAE Rules Advisory Committee,Meeting,08/29/2018 09:30:00 AM,08/29/2018 03:00:00 PM,1430 Tandem Ave. NE Suite 180, Salem,OR,,,Maria Gutierrez,,maria.s.gutierrez@state.or.us,,,,,,,,,,,,,,
"Health Licensing Agency, Oregon",Board od Direct Entry Midwifery,Board Meeting,10/19/2017 09:00:00 AM,10/19/2017 04:00:00 PM,1430 Tandem Ave. NE Suite 180, Salem,OR,,,Maria Gutierrez,,maria.s.gutierrez@state.or.us,,,,,,,,,,,,,,
"Health Licensing Agency, Oregon",Board of Direct Entry Midwifery,Board Meeting,04/26/2018 09:00:00 AM,04/26/2018 04:00:00 PM,1430 Tandem Ave. NE Suite 180,Salem ,OR,,,Maria Gutierrez,,maria.s.gutierrez@state.or.us,,,,,,,,,,,,,,
"Health Licensing Agency, Oregon",Board of Certified Advanced Estheticians,Board Meeting,10/03/2018 10:00:00 AM,10/03/2018 02:00:00 PM,1430 Tandem Ave. NE Suite 180, Salem,OR,,,Maria Gutierrez,,maria.s.gutierrez@state.or.us,,,,,,,,,,,,,,
"Health Licensing Agency, Oregon",Board of Certified Advanced Estheticians/ Rules Advisory Committee Meeting,Rules Advisory Committee Meeting ,03/26/2018 10:00:00 AM,03/26/2018 04:00:00 PM,1430 Tandem Ave. NE Suite 180, Salem,OR,,,Maria Gutierrez,,maria.s.gutierrez@state.or.us,,,,,,,,,,,,,,
"Health Licensing Agency, Oregon",Board of Certified Advanced Estheticians,Board Meeting ,04/23/2018 09:00:00 AM,04/23/2018 03:00:00 PM,1430 Tandem Ave. NE Suite 180, Salem,OR,,,Maria Gutierrez,,msgutierrez@state.or.us,,,,,,,,,,,,,,
"Health Licensing Agency, Oregon",Advisory Council on Hearing Aids,Board Meeting,10/18/2019 09:00:00 AM,10/18/2019 04:00:00 PM,1430 Tandem Ave. NE Suite 180, Salem,OR,,,Maria Gutierrez,,maria.s.gutierrez@state.or.us,,,,,,,,,,,,,,
"Health Licensing Agency, Oregon",Rules Hearing for The Advisory Council on Hearin Aids,Hearing,07/01/2019 09:00:00 AM,07/01/2019 11:00:00 AM,1430 Tandem Ave. NE Suite 180, Salem,OR,,,Maria Gutierrez,,maria.s.gutierrez@state.or.us,,,,,,,,,,,,,,
"Health Licensing Agency, Oregon",Board of Electrologist and Body Art Practitioners,Board Meeting,11/04/2019 09:00:00 AM,11/04/2019 04:00:00 PM,1430 Tandem Ave. NE Suite 180, Salem,OR,,,Maria Gutierrez,,maria.s.gutierrez@state.or.us,,,,,,,,,,,,,,
"Health Licensing Agency, Oregon",Environmental Health Registration Board,Board Meeting ,10/04/2019 09:00:00 AM,10/04/2019 04:00:00 PM,1430 Tandem Ave. NE Suite 180, Salem,OR,,,Maria Gutierrez,,maria.s.gutierrez@state.or.us,,,,,,,,,,,,,,
"Health Licensing Agency, Oregon",Board of Direct Entry Midwifery *Teleconference Meeting,Board Meeting,05/23/2019 08:00:00 AM,05/23/2019 09:00:00 AM,1430 Tandem Ave. , Salem,OR,,,Maria Gutierrez,,maria.s.gutierrez@state.or.us,,,,,,,,,,,,,,
"Health Licensing Agency, Oregon",Long Term Care Administrators Board,Board Meeting,09/13/2019 09:00:00 AM,09/13/2019 04:00:00 PM,1430 Tandem Ave. ,Salem ,OR,,,Maria Gutierrez,,maria.s.gutierrez@state.or.us,,,,,,,,,,,,,,
"Health Licensing Agency, Oregon",Board of Direct Entry Midwifery,Board Meeting,08/22/2019 09:00:00 AM,08/22/2019 04:00:00 PM,1430 Tandem Ave. NE Suite 180, Salem,OR,,,Maria Gutierrez,,maria.s.gutierrez@state.or.us,,,,,,,,,,,,,,
"Health Licensing Agency, Oregon",Sex Offender Treatment Board,Board Meeting,11/08/2019 09:00:00 AM,11/08/2019 04:00:00 PM,1430 Tandem Ave. NE Suite 180, Salem,OR,,,Maria Gutierrez,,maria.s.gutierrez@state.or.us,,,,,,,,,,,,,,
"Health Licensing Agency, Oregon",Board of Athletic Trainers,Board Meeting,08/14/2019 09:00:00 AM,08/14/2019 04:00:00 PM,1430 Tandem Ave. NE Suite 180, Salem,OR,,,Maria Gutierrez,,maria.s.gutierrez@state.or.us,,,,,,,,,,,,,,
"Health Licensing Agency, Oregon",Sex Offender Treatment Board,Board Meeting,06/14/2019 09:00:00 AM,06/14/2019 04:00:00 PM,1430 Tandem Ave. NE Suite 180, Salem,OR,,,Maria Gutierrez,,maria.s.gutierrez@state.or.us,,,,,,,,,,,,,,
"Health Licensing Agency, Oregon",Board of Denture Technology *Teleconference Meeting,Board Meeting,05/10/2019 08:00:00 AM,05/10/2019 01:00:00 PM,1430 Tandem Ave. , Salem,OR,,,Maria Gutierrez,,maria.s.gutierrez@state.or.us,,,,,,,,,,,,,,
"Health Licensing Agency, Oregon",Respiratory Therapist and Polysomnographic Technologist Licensing Board,Board Meeting,11/22/2019 09:00:00 AM,11/22/2019 04:00:00 AM,1430 Tandem Ave. NE Suite 180, Salem,OR,,,Maria Gutierrez,,maria.s.gutierrez@state.or.us,,,,,,,,,,,,,,
"Health Licensing Agency, Oregon",Examination Committee for The Adviosry Council on Hearing Aids,Committee Meeting,05/10/2019 10:00:00 AM,05/10/2019 04:00:00 PM,1430 Tandem Ave. NE Suite 180, Salem,OR,,,Maria Gutierrez,,maria.s.gutierrez@state.or.us,,,,,,,,,,,,,,
"Health Licensing Agency, Oregon",Advisory Council on Hearing Aids *Teleconference Meeting,Board Meeting,08/09/2019 09:00:00 AM,08/09/2019 04:00:00 PM,1430 Tandem Ave. NE Suite 180, Salem,OR,,,Maria Gutierrez,,maria.s.gutierrez@state.or.us,,,,,,,,,,,,,,
"Health Licensing Agency, Oregon",Rules Adviosry Committee Meeting  The Art Therapy Board,Rules Advisory Committee Meeting,07/23/2019 09:00:00 AM,07/23/2019 02:00:00 PM,1430 Tandem Ave. NE Suite 180, Salem,OR,,,Maria Gutierrez,,maria.s.gutierrez@state.or.us,,,,,,,,,,,,,,
"Health Licensing Agency, Oregon",Behavior Analysis Regulatory Board,Board Meeting,07/19/2019 09:00:00 AM,07/19/2019 03:00:00 PM,1430 Tandem Ave. NE Suite 180, Salem,OR,,,Maria Gutierrez,,maria.s.gutierrez@state.or.us,,,,,,,,,,,,,,
"Health Licensing Agency, Oregon",Board of Certified Advanced Estheticians,Board Meeting,08/07/2019 09:00:00 AM,08/07/2019 04:00:00 PM,1430 Tandem Ave. NE Suite 180, Salem,OR,,,Maria Gutierrez,,maria.s.gutierrez@state.or.us,,,,,,,,,,,,,,
"Health Licensing Agency, Oregon",Rules Hearing for The Board of Cosmetology,Board Meeting,07/22/2019 09:00:00 AM,07/22/2019 02:00:00 PM,1430 Tandem Ave. NE Suite 180, Salem,OR,,,Maria Gutierrez,,maria.s.gutierrez@state.or.us,,,,,,,,,,,,,,
"Health Licensing Agency, Oregon",Board of Athletic Trainers,Board Meeting,10/23/2019 09:00:00 AM,10/23/2019 04:00:00 PM,1430 Tandem Ave. NE Suite 180, Salem,OR,,,Maria Gutierrez,,maria.s.gutierrez@state.or.us,,,,,,,,,,,,,,
"Health Licensing Agency, Oregon",Behavior Analysis Regulatory Board,Board Meeting,09/20/2019 09:00:00 AM,09/20/2019 04:00:00 PM,1430 Tandem Ave. NE Suite 180, Salem,OR,,,Maria Gutierrez,,maria.s.gutierrez@state.or.us,,,,,,,,,,,,,,
"Health Licensing Agency, Oregon",Board of Cosmetology,Board Meeting,08/05/2019 10:00:00 AM,08/05/2019 02:30:00 PM,1430 Tandem Ave. NE Suite 180,Salem,OR,,,Maria Gutierrez,,maria.s.gutierrez@state.or.us,,,,,,,,,,,,,,
"Health Licensing Agency, Oregon",Examination Committee for The Adviosry Council on Hearing Aids,Committee Meeting,03/15/2019 10:00:00 AM,03/15/2019 04:00:00 PM,1430 Tandem Ave. NE Suite 180, Salem,OR,,,Maria Gutierrez,,maria.s.gutierrez@state.or.us,,,,,,,,,,,,,,
"Health Licensing Agency, Oregon",Sex Offender Treatment Board,Board Meeting,08/30/2019 09:00:00 AM,08/30/2019 04:00:00 PM,1430 Tandem Ave. NE Suite 180, Salem,OR,,,Maria Gutierrez,,maria.s.gutierrez@state.or.us,,,,,,,,,,,,,,
"Health Licensing Agency, Oregon",Board of Certifed Advanced Estheticians,Board Meeting,10/30/2019 09:00:00 AM,10/30/2019 04:00:00 PM,1430 Tandem Ave. NE Suite 180, Salem,OR,,,Maria Gutierrez,,maria.s.gutierrez@state.or.us,,,,,,,,,,,,,,
"Health Licensing Agency, Oregon",Board of Electrologist and Body Art Practitioners,Board Meeting,07/30/2019 09:00:00 AM,07/30/2019 04:00:00 PM,1430 Tandem Ave. NE Suite 180, Salem,OR,,,Maria Gutierrez,,maria.s.gutierrez@state.or.us,,,,,,,,,,,,,,
"Health Licensing Agency, Oregon",Board of Direct Entry Midwifery *Teleconference Meeting,Board Meeting,07/18/2019 09:00:00 AM,07/18/2019 04:00:00 PM,1430 Tandem Ave. NE Suite 180, Salem,OR,,,Maria Gutierrez,,maria.s.gutierrez@state.or.us,,,,,,,,,,,,,,
"Health Licensing Agency, Oregon",Qualifiation Committee for The Board of Denture Technology,Committee Meeting,05/22/2019 10:00:00 AM,05/22/2019 02:00:00 PM,1430 Tandem Ave. , Salem,OR,,,Maria Gutierrez,,maria.s.gutierrez@state.or.us,,,,,,,,,,,,,,
"Health Licensing Agency, Oregon", The Adviosry Council on Hearing Aids,Board Meeting,07/12/2019 09:00:00 AM,07/12/2019 03:00:00 AM,1430 Tandem Ave. NE Suite 180, Salem,OR,,,Maria Gutierrez,,maria.s.gutierrez@state.or.us,,,,,,,,,,,,,,
"Health Licensing Agency, Oregon",Board of Direct Entry Midwifery,Board Meeting,09/19/2019 09:00:00 AM,09/19/2019 04:00:00 PM,1430 Tandem Ave. NE Suite 180, Salem,OR,,,Maria Gutierrez,,maria.s.gutierrez@state.or.us,,,,,,,,,,,,,,
"Health Licensing Agency, Oregon",Examination Committee for The Adviosry Council on Hearing Aids,Committee Meeting,09/13/2019 10:00:00 AM,09/13/2019 04:00:00 PM,1430 Tandem Ave. NE Suite 180, Salem,OR,,,Maria Gutierrez,,maria.s.gutierrez@state.or.us,,,,,,,,,,,,,,
"Health Licensing Agency, Oregon",Long Term Care Administrators Board,Board Meeting,07/30/2019 09:00:00 AM,07/30/2019 04:00:00 PM,1430 Tandem Ave. NE Suite 180, Salem,OR,,,Maria Gutierrez,,maria.s.gutierrez@state.or.us,,,,,,,,,,,,,,
"Health Licensing Agency, Oregon",HAS Teleconference Meeting,Council Meeting,05/13/2019 09:00:00 AM,05/13/2019 10:00:00 AM,1430 Tandem Ave. , Salem,OR,,,Maria Gutierrez,,maria.s.gutierrez@state.or.us,,,,,,,,,,,,,,
"Health Licensing Agency, Oregon",Board of Direct Entry Midwifer,Board Meeting,10/24/2019 09:00:00 AM,10/24/2019 04:00:00 PM,1430 Tandem Ave. NE Suite 180, Salem,OR,,,Maria Gutierrez,,maria.s.gutierrez@state.or.us,,,,,,,,,,,,,,
"Health Licensing Agency, Oregon",Board of Licensed Dietitians,Board Meeting,10/09/2019 09:00:00 AM,10/09/2019 04:00:00 PM,1430 Tandem Ave. NE Suite 180, Salem,OR,,,Maria Gutierrez,,maria.s.gutierrez@state.or.us,,,,,,,,,,,,,,
"Health Licensing Agency, Oregon",CANCELED Advisory Council on Hearing Aids,Board Meeting,04/03/2020 09:00:00 AM,04/03/2020 03:00:00 PM,1430 Tandem Ave. NE Suite 180, Salem,OR,,,Maria Gutierrez,,maria.s.gutierrez@state.or.us,,,,,,,,,,,,,,
"Health Licensing Agency, Oregon",CANCELED  Board of Direct Entry Midwifery,Board Meeting,04/09/2020 09:00:00 AM,04/09/2020 03:00:00 PM,1430 Tandem Ave. NE Suite 180, Salem,OR,,,Maria Gutierrez,,maria.s.gutierrez@state.or.us,,,,,,,,,,,,,,
"Health Licensing Agency, Oregon",CANCELED  Board of Electrologist and Body Art Practitioners,Board Meeting,03/30/2020 10:00:00 AM,03/30/2020 03:00:00 PM,1430 Tandem Ave. NE Suite 180, Salem,OR,,,Maria Gutierrez,,maria.s.gutierrez@state.or.us,,,,,,,,,,,,,,
"Health Licensing Agency, Oregon",CANCELED Board of Direct Entry Midwifery,Board Meeting,03/19/2020 09:00:00 AM,02/19/2020 03:00:00 PM,1430 Tandem Ave. NE Suite 180, Salem,OR,,,Maria Gutierrez,,maria.s.gutierrez@state.or.us,,,,,,,,,,,,,,
"Health Licensing Agency, Oregon",Behavior Analysis Regulatory Board *Teleconference Meeting,Teleconference Board Meeting ,07/17/2020 09:00:00 AM,07/10/2020 03:00:00 PM,1430 Tandem Ave. NE Suite 180, Salem,OR,,,Maria Gutierrez,,maria.s.gutierrez@state.or.us,,,,,,,,,,,,,,
"Health Licensing Agency, Oregon",Board of Direct Entry Midwifery *Teleconference Meeting,Teleconference Board Meeting ,07/16/2020 08:00:00 AM,07/16/2020 02:00:00 PM,1430 Tandem Ave. NE Suite 180, Salem,OR,,,Maria Gutierrez,,maria.s.gutierrez@state.or.us,,,,,,,,,,,,,,
"Health Licensing Agency, Oregon",Sexual Offence Treatment board *Teleconference Meeting,Board Meeting,07/10/2020 09:00:00 AM,07/10/2020 03:00:00 PM,1430 Tandem Ave. NE Suite 180, Salem,OR,,,Maria Gutierrez,,maria.s.gutierrez@state.or.us,,,,,,,,,,,,,,
"Health Licensing Agency, Oregon",Respiratory Therapist and Polysomnographic Technologist Licensing Board Meeting,,06/24/2022 09:00:00 AM,06/24/2022 12:00:00 PM,"1430 Tandem Ave NE, Suite 180",Salem,OR,,,April Fleming,,april.fleming@dhsoha.state.or.us,,,,,,,,,,,,,,
"Health Licensing Agency, Oregon",Respiratory Therapist and Polysomnographic Technologist Licensing Board Meeting,,03/18/2022 09:00:00 AM,03/18/2022 12:00:00 PM,"1430 Tandem Ave NE, Suite 180", Salem,OR,,,April Fleming,,april.fleming@dhsoha.state.or.us,,,,,,,,,,,,,,
"Health Licensing Agency, Oregon",Respiratory Therapist and Polysomnographic Technologist Licensing Board Meeting,,10/07/2022 09:00:00 AM,10/07/2022 12:00:00 PM,"1430 Tandem Ave NE, Suite 180",Salem,OR,,,April Fleming,,april.fleming@dhsoha.state.or.us,,,,,,,,,,,,,,
"Health Licensing Agency, Oregon",Board of Certified Advanced Estheticians Meeting *Teleconference,Teleconference Board Meeting,02/24/2021 09:00:00 AM,02/24/2021 02:00:00 PM,"1430 Tandem Ave NE, Suite 180", Salem,OR,,,April Fleming,,april.fleming@dhsoha.state.or.us,,,,,,,,,,,,,,
"Health Licensing Agency, Oregon",Direct Entry Midwifery Board Meeting * Special *Teleconference,Teleconference Board Meeting,01/21/2021 08:00:00 AM,01/21/2021 03:00:00 PM,"1430 Tandem Ave NE, Suite 180", Salem,OR,,,April Fleming,,april.fleming@dhsoha.state.or.us,,,,,,,,,,,,,,
"Health Licensing Agency, Oregon",Long Term Care Administrators Board Meeting *Special *Teleconference Meeting,Special Teleconference Board Meeting,01/07/2021 09:00:00 AM,01/07/2021 01:00:00 PM,"1430 Tandem Ave NE, Suite 180", Salem,OR,,,April Fleming,,april.fleming@dhsoha.state.or.us,,,,,,,,,,,,,,
"Health Licensing Agency, Oregon",Cancelled-Board of Certified Advanced Estheticians Meeting *Teleconference,Teleconference Board Meeting,05/19/2021 09:00:00 AM,05/19/2021 02:00:00 PM,"1430 Tandem Ave NE, Suite 180", Salem,OR,,,April Fleming,,april.fleming@dhsoha.state.or.us,,,,,,,,,,,,,,
"Health Licensing Agency, Oregon",Board of Certified Advanced Estheticians Meeting *Teleconference,Teleconference Board Meeting,09/08/2021 09:00:00 AM,09/08/2021 02:00:00 PM,"1430 Tandem Ave NE, Suite 180", Salem,OR,,,April Fleming,,april.fleming@dhsoha.state.or.us,,,,,,,,,,,,,,
"Health Licensing Agency, Oregon",Athletic Trainer Board Meeting *Teleconference,Teleconference Board Meeting,02/17/2021 09:00:00 AM,02/17/2021 01:00:00 PM,"1430 Tandem Ave NE, Suite 180", Salem,OR,,,April Fleming,,april.fleming@dhsoha.state.or.us,,,,,,,,,,,,,,
"Health Licensing Agency, Oregon",Behavior Analysis Regulatory Board *Teleconference,Teleconference Board Meeting,07/16/2021 09:00:00 AM,07/16/2021 02:00:00 PM,"1430 Tandem Ave NE, Suite 180", Salem,OR,,,April Fleming,,april.fleming@dhsoha.state.or.us,,,,,,,,,,,,,,
"Health Licensing Agency, Oregon",Behavior Analysis Regulatory Board *Teleconference,Teleconference Board Meeting,01/22/2021 09:00:00 AM,01/22/2021 02:00:00 PM,"1430 Tandem Ave NE, Suite 180", Salem,OR,,,April Fleming,,april.fleming@dhsoha.state.or.us,,,,,,,,,,,,,,
"Health Licensing Agency, Oregon",Board of Cosmetology Meeting *Teleconference,Teleconference Board Meeting,01/25/2021 10:00:00 AM,01/25/2021 02:00:00 PM,"1430 Tandem Ave NE, Suite 180",Salem,OR,,,April Fleming,,april.fleming@dhsoha.state.or.us,,,,,,,,,,,,,,
"Health Licensing Agency, Oregon",Board of Cosmetology Meeting *Teleconference,Teleconference Board Meeting,08/16/2021 10:00:00 AM,08/16/2021 02:00:00 PM,"1430 Tandem Ave NE, Suite 180",Salem,OR,,,April Fleming,,april.fleming@dhsoha.state.or.us,,,,,,,,,,,,,,
"Health Licensing Agency, Oregon",Board of Cosmetology Meeting *Teleconference,Teleconference Board Meeting,11/15/2021 10:00:00 AM,11/15/2021 02:00:00 PM,"1430 Tandem Ave NE, Suite 180",Salem,OR,,,April Fleming,,april.fleming@dhsoha.state.or.us,,,,,,,,,,,,,,
"Health Licensing Agency, Oregon",Board of Denture Technology Meeting *Teleconference,Teleconference Board Meeting,02/08/2021 09:00:00 AM,02/08/2021 02:00:00 PM,"1430 Tandem Ave NE, Suite 180", Salem,OR,,,April Fleming,,april.fleming@dhsoha.state.or.us,,,,,,,,,,,,,,
"Health Licensing Agency, Oregon",Board of Denture Technology Meeting *Teleconference,Teleconference Board Meeting,06/07/2021 09:00:00 AM,06/07/2021 02:00:00 PM,"1430 Tandem Ave NE, Suite 180", Salem,OR,,,April Fleming,,april.fleming@dhsoha.state.or.us,,,,,,,,,,,,,,
"Health Licensing Agency, Oregon",Board of Denture Technology Meeting *Teleconference,Teleconference Board Meeting,09/27/2021 09:00:00 AM,09/27/2021 02:00:00 PM,"1430 Tandem Ave NE, Suite 180", Salem,OR,,,April Fleming,,april.fleming@dhsoha.state.or.us,,,,,,,,,,,,,,
"Health Licensing Agency, Oregon",Board of Direct Entry Midwifery Meeting *Special *Teleconference,Special Teleconference Board Meeting,02/11/2021 08:00:00 AM,02/11/2021 03:00:00 PM,"1430 Tandem Ave NE, Suite 180", Salem,OR,,,April Fleming,,april.fleming@dhsoha.state.or.us,,,,,,,,,,,,,,
"Health Licensing Agency, Oregon",Board of Direct Entry Midwifery Meeting *Special *Teleconference,Special Teleconference Board Meeting,04/15/2021 08:00:00 AM,04/15/2021 03:00:00 PM,"1430 Tandem Ave NE, Suite 180", Salem,OR,,,April Fleming,,april.fleming@dhsoha.state.or.us,,,,,,,,,,,,,,
"Health Licensing Agency, Oregon",Board of Direct Entry Midwifery Meeting *Special *Teleconference,Special Teleconference Board Meeting,05/13/2021 08:00:00 AM,05/13/2021 03:00:00 PM,"1430 Tandem Ave NE, Suite 180", Salem,OR,,,April Fleming,,april.fleming@dhsoha.state.or.us,,,,,,,,,,,,,,
"Health Licensing Agency, Oregon",Board of Direct Entry Midwifery Meeting *Teleconference,Teleconference Board Meeting,06/17/2021 08:00:00 AM,06/17/2021 03:00:00 PM,"1430 Tandem Ave NE, Suite 180", Salem,OR,,,April Fleming,,april.fleming@dhsoha.state.or.us,,,,,,,,,,,,,,
"Health Licensing Agency, Oregon",Board of Direct Entry Midwifery Meeting *Teleconference,Teleconference Board Meeting,03/11/2021 08:00:00 AM,03/04/2021 03:00:00 PM,"1430 Tandem Ave NE, Suite 180", Salem,OR,,,April Fleming,,april.fleming@dhsoha.state.or.us,,,,,,,,,,,,,,
"Health Licensing Agency, Oregon",Cancelled-Board of Direct Midwifery Meeting *Special *Teleconference,Special Teleconference Board Meeting,07/08/2021 08:00:00 AM,07/08/2021 03:00:00 PM,"1430 Tandem Ave NE, Suite 180", Salem,OR,,,April Fleming,,april.fleming @dhsoha.state.or.us,,,,,,,,,,,,,,
"Health Licensing Agency, Oregon",Board of Direct Entry Midwifery Meeting *Special *Teleconference,Special Teleconference Board Meeting,08/19/2021 08:00:00 AM,08/19/2021 03:00:00 PM,"1430 Tandem Ave NE, Suite 180",Salem,OR,,,April Fleming,,april.fleming@dhsoha.state.or.us,,,,,,,,,,,,,,
"Health Licensing Agency, Oregon",Board of Direct Entry Midwifery Meeting *Special *Teleconference,Special Teleconference Board Meeting,09/16/2021 08:00:00 AM,09/16/2021 03:00:00 PM,"1430 Tandem Ave NE, Suite 180", Salem,OR,,,April Fleming,,april.fleming@dhsoha.state.or.us,,,,,,,,,,,,,,
"Health Licensing Agency, Oregon",Board of Direct Entry Midwifery Meeting *Teleconference,Teleconference Board Meeting,10/21/2021 08:00:00 AM,10/21/2021 03:00:00 PM,"1430 Tandem Ave NE, Suite 180", Salem,OR,,,April Fleming,,april.fleming@dhsoha.state.or.us,,,,,,,,,,,,,,
"Health Licensing Agency, Oregon",Board of Direct Entry Midwifery Meeting *Special *Teleconference,Special Teleconference Board Meeting,11/18/2021 08:00:00 AM,11/18/2021 03:00:00 PM,"1430 Tandem Ave NE, Suite 180", Salem,OR,,,April Fleming,,april.fleming@dhsoha.state.or.us,,,,,,,,,,,,,,
"Health Licensing Agency, Oregon",Board of Electrologists and Art Practitioners Meeting *Teleconference,Teleconference Board Meeting,11/08/2021 10:00:00 AM,11/08/2021 02:00:00 PM,"1430 Tandem Ave NE, Suite 180", Salem,OR,,,April Fleming,,april.fleming@dhsoha.state.or.us,,,,,,,,,,,,,,
"Health Licensing Agency, Oregon",Board of Electrologists and Body Art Practitioners Meeting *Teleconference,Teleconference Board Meeting,05/03/2021 10:00:00 AM,05/03/2021 02:00:00 PM,"1430 Tandem Ave NE, Suite 180", Salem,OR,,,April Fleming,,april.fleming@dhsoha.state.or.us,,,,,,,,,,,,,,
"Health Licensing Agency, Oregon",Cancelled-Board of Electrologists and Body Art Practitioners Meeting *Teleconference,Teleconference Board Meeting,07/26/2021 10:00:00 AM,07/26/2021 02:00:00 PM,"1430 Tandem Ave NE, Suite 180", Salem,OR,,,April Fleming,,april.fleming@dhsoha.state.or.us,,,,,,,,,,,,,,
"Health Licensing Agency, Oregon",Board of Licensed Dietitians Meeting * Teleconference,Teleconference Board Meeting,04/21/2021 09:00:00 AM,04/21/2021 02:00:00 PM,"1430 Tandem Ave NE, Suite 180", Salem,OR,,,April Fleming,,april.fleming@dhsoha.state.or.us,,,,,,,,,,,,,,
"Health Licensing Agency, Oregon",Board of Licensed Dietitians Meeting *Teleconference,Teleconference Board Meeting,10/06/2021 09:00:00 AM,10/06/2021 02:00:00 PM,"1430 Tandem Ave NE, Suite 180", Salem,OR,,,April Fleming,,april.fleming@dhsoha.state.or.us,,,,,,,,,,,,,,
"Health Licensing Agency, Oregon",Environmental Health Registration Board Meeting *Teleconference,Teleconference Board Meeting,03/05/2021 09:00:00 AM,03/05/2021 02:00:00 PM,"1430 Tandem Ave NE, Suite 180", Salem,OR,,,April Fleming,,april.fleming@dhsoha.state.or.us,,,,,,,,,,,,,,
"Health Licensing Agency, Oregon",Long Term Care Administrators Board Meeting *Teleconference,Teleconference Board Meeting,03/09/2021 09:00:00 AM,03/09/2021 03:00:00 PM,"1430 Tandem Ave NE, Suite 180", Salem,OR,,,April Fleming,,april.fleming@dhsoha.state.or.us,,,,,,,,,,,,,,
"Health Licensing Agency, Oregon",Long Term Care Administrators Board Meeting *Teleconference,Teleconference Board Meeting,09/14/2021 09:00:00 AM,09/14/2021 03:00:00 PM,"1430 Tandem Ave NE, Suite 180", Salem,OR,,,April Fleming,,april.fleming@dhsoha.state.or.us,,,,,,,,,,,,,,
"Health Licensing Agency, Oregon",Respiratory Therapist and Polysomnografic Thechnologists Licensing Board Meeting *Teleconference,Teleconference Board Meeting,03/19/2021 09:00:00 AM,03/19/2021 01:00:00 PM,"1430 Tandem Ave NE, Suite 180", Salem,OR,,,April Fleming,,april.fleming@dhsoha.state.or..us,,,,,,,,,,,,,,
"Health Licensing Agency, Oregon",Respiratory Therapist and Polysomnografic Technologists Licensing Board Meeting *Teleconference,Teleconference Board Meeting,10/08/2021 09:00:00 AM,10/08/2021 01:00:00 PM,"1430 Tandem Ave NE, Suite 180", Salem,OR,,,April Fleming,,april.fleming@dhsoha.state.or.us,,,,,,,,,,,,,,
"Health Licensing Agency, Oregon",Sexual Offense Treatment Board Meeting *Teleconference,Teleconference Board Meeting,05/14/2021 09:00:00 AM,05/14/2021 03:00:00 PM,"1430 Tandem Ave NE, Suite 180", Salem,OR,,,April Fleming,,april.fleming@dhsoha.state.or.us,,,,,,,,,,,,,,
"Health Licensing Agency, Oregon",Sexual Offense Treatment Board Meeting *Teleconference,Teleconference Board Meeting,11/12/2021 09:00:00 AM,11/12/2021 03:00:00 PM,"1430 Tandem Ave NE, Suite 180", Salem,OR,,,April Fleming,,april.fleming@dhsoha.state.or.us,,,,,,,,,,,,,,
"Health Licensing Agency, Oregon",Respiratory Therapist and Polysomnographic Technologist Licensing Board *Special Meeting * Teleconference,Special Teleconference Board Meeting,01/28/2021 10:00:00 AM,01/25/2021 04:30:00 PM,Teleconference, Salem,OR,,,April Fleming,,april.fleming@dhsoha.state.or.us,,,,,,,,,,,,,,
"Health Licensing Agency, Oregon",CANCELLED-Respiratory Therapist and Polysomnografic Technologists Licensing Board Meeting * Special *Teleconference,,02/16/2021 10:00:00 AM,02/16/2021 12:00:00 PM,Teleconference, Salem,OR,,,April Fleming,,april.fleming@dhsoha.state.or.us,,,,,,,,,,,,,,
"Health Licensing Agency, Oregon",Board of Denture Technology *Special *Teleconference,,03/18/2021 09:00:00 AM,03/18/2021 11:00:00 AM,"1430 Tandem Ave, Suite 180", Salem,OR,,,April Fleming,,april.fleming@dhsoha.state.or.us,,,,,,,,,,,,,,
"Health Licensing Agency, Oregon",Board of Cosmetology Meeting,,01/24/2022 10:00:00 AM,01/24/2022 01:00:00 PM,"1430 Tandem Ave NE, Suite 180",Salem,OR,,,April Fleming,,april.fleming@dhsoha.state.or.us,,,,,,,,,,,,,,
"Health Licensing Agency, Oregon",Advisory Council on Hearing Aids Meeting *Special,,01/31/2022 09:00:00 AM,01/31/2022 10:00:00 AM,"1430 Tandem Ave NE, Suite 180",Salem,OR,,,April Fleming,,april.fleming@dhsoha.state.or.us,,,,,,,,,,,,,,
"Health Licensing Agency, Oregon",Board of Electrologist and Body Art Practitioners *Electrology Rules Advisory Committee *Teleconference,,03/10/2021 09:00:00 AM,03/10/2021 02:00:00 PM,"1430 Tandem Ave NE, Suite 180", Salem,OR,,,April Fleming,,april.fleming@dhsoha.state.or.us,,,,,,,,,,,,,,
"Health Licensing Agency, Oregon",Board of Electrologists and Body Art Practitioners *Tattoo Rules Advisory Committee* Teleconference,,04/05/2021 09:00:00 AM,04/05/2021 02:00:00 PM,"1430 Tandem Ave NE, Suite 180", Salem,OR,,,April Fleming,,april.fleming@dhsoha.state.or.us,,,,,,,,,,,,,,
"Health Licensing Agency, Oregon",Cancelled-Advisory Council on Hearing Aids Board Meeting *Teleconference,,04/23/2021 09:00:00 AM,04/23/2021 01:00:00 PM,"1430 Tandem Ave NE, Suite 180", Salem,OR,,,April Fleming,,april.fleming@dhsoha.state.or.us,,,,,,,,,,,,,,
"Health Licensing Agency, Oregon",Board of Direct Entry Midwifery Legend Drugs and Devices Continuing Education Committee Meeting,,02/03/2022 10:00:00 AM,02/03/2022 02:00:00 PM,"1430 Tandem Ave NE, Suite 180",Salem,OR,,,April Fleming,,april.fleming@dhsoha.state.or.us,,,,,,,,,,,,,,
"Health Licensing Agency, Oregon",Board of Denture Technology Meeting,,02/07/2022 09:00:00 AM,02/07/2022 12:00:00 PM,"1430 Tandem Ave NE, Suite 180",Salem,OR,,,April Fleming,,april.fleming@dhsoha.state.or.us,,,,,,,,,,,,,,
"Health Licensing Agency, Oregon",Board of Certified Advanced Estheticians Meeting,,02/23/2022 09:00:00 AM,02/23/2022 01:00:00 PM,"1430 Tandem Ave NE, Suite 180",Salem,OR,,,April Fleming,,april.fleming@dhsoha.state.or.us,,,,,,,,,,,,,,
"Health Licensing Agency, Oregon",Board of Direct Entry Midwifery Meeting,,02/10/2022 08:00:00 AM,02/10/2022 12:00:00 PM,"1430 Tandem Ave NE, Suite 180",Salem,OR,,,April Fleming,,april.fleming@dhsoha.state.or.us,,,,,,,,,,,,,,
"Health Licensing Agency, Oregon",Board of Athletic Trainers Meeting,,02/16/2022 09:00:00 AM,02/16/2022 01:00:00 PM,"1430 Tandem Ave NE, Suite 180",Salem,OR,,,April Fleming,,april.fleming@dhsoha.state.or.us,,,,,,,,,,,,,,
"Health Licensing Agency, Oregon",Board of Electrologists and Body Art Practitioners Meeting *Special,,02/28/2022 10:00:00 AM,02/25/2022 12:00:00 PM,"1430 Tandem Ave NE, Suite 180",Salem,OR,,,April Fleming,,april.fleming@dhsoha.state.or.us,,,,,,,,,,,,,,
"Health Licensing Agency, Oregon",Board of Direct Entry Midwifery Meeting *Special *Teleconference,,03/31/2021 08:30:00 AM,03/31/2021 10:30:00 AM,"1430 Tandem Ave SE, Suite 180", Salem,OR,,,April Fleming,,april.fleming@dhsoha.state.or.us,,,,,,,,,,,,,,
"Health Licensing Agency, Oregon",Board of Direct Entry Midwifery Meeting *Special,,03/10/2022 08:00:00 AM,03/10/2022 12:00:00 PM,"1430 Tandem Ave NE, Suite 180",Salem,OR,,Yes,April Fleming,,april.fleming@dhsoha.state.or.us,,,,,,,,503-934-3605,530340,http://oha.granicus.com/GeneratedAgendaViewer.php?event_id=700c504b-7123-4213-b13f-b8341c5053f2,,,,
"Health Licensing Agency, Oregon",Board of Licensed Dietitians Meeting,,04/20/2022 09:00:00 AM,04/20/2022 01:00:00 PM,"1430 Tandem Ave NE, Suite 180",Salem,OR,,,April Fleming,,april.fleming@dhsoha.state.or.us,,,,,,,,,,,,,,
"Health Licensing Agency, Oregon",Board of Direct Entry Midwifery Meeting *Special,,05/12/2022 08:00:00 AM,05/12/2022 12:00:00 PM,"1430 Tandem Ave NE, Suite 180",Salem,OR,,,April Fleming,,april.fleming@dhsoha.state.or.us,,,,,,,,,,,,,,
"Health Licensing Agency, Oregon",Sexual Offense Treatment Board Meeting,,05/13/2022 09:00:00 AM,05/13/2022 01:00:00 PM,"1430 Tandem Ave NE, Suite 180",Salem,OR,,,April Fleming,,april.fleming@dhsoha.state.or.us,,,,,,,,,,,,,,
"Health Licensing Agency, Oregon",Board of Cosmetology Meeting,,05/16/2022 10:00:00 AM,05/16/2022 02:00:00 PM,"1430 Tandem Ave NE, Suite 180",Salem,OR,,,April Fleming,,april.fleming@dhsoha.state.or.us,,,,,,,,,,,,,,
"Health Licensing Agency, Oregon",Advisory Council on Hearing Aids Meeting *Special *Teleconference,,05/10/2021 09:00:00 AM,05/10/2021 02:00:00 AM,"1430 Tandem Ave NE, Suite 180", Salem,OR,,,April Fleming,,april.fleming@dhsoha.state.or.us,,,,,,,,,,,,,,
"Health Licensing Agency, Oregon",Board of Certified Advanced Estheticians Meeting,,05/18/2022 09:00:00 AM,05/18/2022 01:00:00 PM,"1430 Tandem Ave NE, Suite 180",Salem,OR,,,April Fleming,,april.fleming@dhsoha.state.or.us,,,,,,,,,,,,,,
"Health Licensing Agency, Oregon",Advisory Council on Hearing Aids Meeting *Teleconference,,06/11/2021 09:00:00 AM,06/11/2021 01:00:00 PM,"1430 Tandem Ave NE, Suite 180", Salem,OR,,,April Fleming,,april.fleming@dhsoha.state.or.us,,,,,,,,,,,,,,
"Health Licensing Agency, Oregon",Board of Electrologists and Body Art Practitioners Rules Advisory Committee Meeting-Body Piercing *Teleconference,,06/16/2021 10:00:00 AM,06/16/2021 01:00:00 PM,"1430 Tandem Ave NE, Suite 180", Salem,OR,,,April Fleming,,april.fleming@dhsoha.state.or.us,,,,,,,,,,,,,,
"Health Licensing Agency, Oregon",Board of Direct Entry Midwifery Meeting,,06/16/2022 08:00:00 AM,06/16/2022 12:00:00 PM,"1430 Tandem Ave NE, Suite 180",Salem,OR,,,April Fleming,,april.fleming@dhsoha.state.or.us,,,,,,,,,,,,,,
"Health Licensing Agency, Oregon",Board of Direct Entry Midwifery Meeting *Special,,07/07/2022 08:00:00 AM,07/07/2022 12:00:00 PM,"1430 Tandem Ave NE, Suite 180",Salem,OR,,,April Fleming,,april.fleming@dhsoha.state.or.us,,,,,,,,,,,,,,
"Health Licensing Agency, Oregon",Board of Body Art Practitioners Rules Advisory Committee Meeting-Electrology *Teleconference,,05/12/2021 09:00:00 AM,05/12/2021 02:00:00 PM,"1430 Tandem Ave NE, Suite 180", Salem,OR,,,April Fleming,,april.fleming@dhsoha.state.or.us,,,,,,,,,,,,,,
"Health Licensing Agency, Oregon",Cancelled-Board of Body Art Practitioners Rules Advisory Committee Meeting-Tattoo *Teleconference,,05/26/2021 10:00:00 AM,05/26/2021 01:00:00 PM,"1430 Tandem Ave NE, Suite 180",Salem,OR,,,April Fleming,,april.fleming@dhsoha.state.or.us,,,,,,,,,,,,,,
"Health Licensing Agency, Oregon",Long Term Care Administrators Board Meeting,,09/13/2022 09:00:00 AM,09/13/2022 01:00:00 PM,"1430 Tandem Ave NE, Suite 180",Salem,OR,,,April Fleming,,april.fleming@dhsoha.state.or.us,,,,,,,,,,,,,,
"Health Licensing Agency, Oregon",Environmental Health Registration Board Meeting,,09/30/2022 09:00:00 AM,09/30/2022 12:00:00 PM,"1430 Tandem Ave NE, Suite 180",Salem,OR,,,April Fleming,,april.fleming@dhsoha.state.or.us,,,,,,,,,,,,,,
"Health Licensing Agency, Oregon",Board of Denture Technology Meeting,,09/26/2022 09:00:00 AM,09/26/2022 12:00:00 PM,"1430 Tandem Ave NE, Suite 180",Salem,OR,,,April Fleming,,april.fleming@dhsoha.state.or.us,,,,,,,,,,,,,,
"Health Licensing Agency, Oregon",Board of Cosmetology Meeting,,10/03/2022 10:00:00 AM,10/03/2022 02:00:00 PM,"1430 Tandem Ave NE, Suite 180",Salem,OR,,,April Fleming,,april.fleming@dhsoha.state.or.us,,,,,,,,,,,,,,
"Health Licensing Agency, Oregon",Board of Licensed Dietitians Meeting,,10/05/2022 09:00:00 AM,10/05/2022 01:00:00 PM,"1430 Tandem Ave NE, Suite 180",Salem,OR,,,April Fleming,,april.fleming@dhsoha.state.or.us,,,,,,,,,,,,,,
"Health Licensing Agency, Oregon",Advisory Council on Hearing Aids Meeting,,10/14/2022 09:00:00 AM,10/14/2022 01:00:00 PM,"1430 Tandem Ave NE, Suite 180",Salem,OR,,,April Fleming,,april.fleming@dhsoha.state.or.us,,,,,,,,,,,,,,
"Health Licensing Agency, Oregon",Board of Direct Entry Midwifery Meeting,,10/20/2022 08:00:00 AM,10/20/2022 12:00:00 PM,"1430 Tandem Ave NE, Suite 180",Salem,OR,,,April Fleming,,april.fleming@dhsoha.state.or.us,,,,,,,,,,,,,,
"Health Licensing Agency, Oregon",Board of Athletic Trainers Meeting,,11/02/2022 09:00:00 AM,11/02/2022 01:00:00 PM,"1430 Tandem Ave NE, Suite 180",Salem,OR,,,April Fleming,,april.fleming@dhsoha.state.or.us,,,,,,,,,,,,,,
"Health Licensing Agency, Oregon",Sexual Offense Treatment Board Meeting,,11/04/2022 09:00:00 AM,11/04/2022 01:00:00 PM,"1430 Tandem Ave NE, Suite 180",Salem,OR,,,April Fleming,,april.fleming@dhsoha.state.or.us,,,,,,,,,,,,,,
"Health Licensing Agency, Oregon",Board of Electrologists and Body Art Practitioners Meeting,,11/07/2022 10:00:00 AM,11/07/2022 02:00:00 PM,"1430 Tandem Ave NE, Suite 180",Salem,OR,,,April Fleming,,april.fleming@dhsoha.state.or.us,,,,,,,,,,,,,,
"Health Licensing Agency, Oregon",Board of Certified Advanced Estheticians Meeting *Teleconference,,06/14/2021 09:00:00 AM,06/14/2021 11:00:00 AM,"1430 Tandem Ave NE, Suite 180 ", Salem,OR,,,April Fleming,,april.fleming@dhsoha.state.or.us,,,,,,,,,,,,,,
"Health Licensing Agency, Oregon",Board of Direct Entry Midwifery Meeting,,11/17/2022 08:00:00 AM,11/17/2022 12:00:00 PM,"1430 Tandem Ave NE, Suite 180",Salem,OR,,,April Fleming,,april.fleming@dhsoha.state.or.us,,,,,,,,,,,,,,
"Health Licensing Agency, Oregon",Long Term Care Administrators Board Meeting *Special *Teleconference,,06/22/2021 09:00:00 AM,06/22/2021 11:00:00 AM,"1430 Tandem Ave NE, Suite 180",Salem,OR,,,April Fleming,,april.fleming@dhsoha.state.or.us,,,,,,,,,,,,,,
"Health Licensing Agency, Oregon",Board of Direct Entry Midwifery Meeting *Special *Teleconference,,06/25/2021 09:30:00 AM,06/25/2021 10:00:00 AM,"1430 Tandem Ave NE, Suite 180", Salem,OR,,,April Fleming,,april.fleming@dhsoha.state.or.us,,,,,,,,,,,,,,
"Health Licensing Agency, Oregon",Board of Cosmetology Meeting *Special *Teleconference,,07/09/2021 09:00:00 AM,07/09/2021 09:30:00 AM,"1430 Tandem Ave NE, Suite 180", Salem,OR,,,April Fleming,,april.fleming@dhsoha.state.or.us,,,,,,,,,,,,,,
"Health Licensing Agency, Oregon",Board of Certified Advanced Estheticians Meeting *Special *Teleconference,,07/19/2021 09:00:00 AM,07/19/2021 09:30:00 AM,"1430 Tandem Ave NE, Suite 180", Salem,OR,,,April Fleming,,april.fleming@dhsoha.state.or.us,,,,,,,,,,,,,,
"Health Licensing Agency, Oregon",Board of Electrologists and Body Art  Practitioners  Body Piercing Rules and Qualification Committee Meeting  *Teleconference,,08/11/2021 10:00:00 AM,08/11/2021 02:00:00 PM,"1430 Tandem Ave NE, Suite 180", Salem,OR,,,April Fleming,,april.fleming@dhsoha.state.or.us,,,,,,,,,,,,,,
"Health Licensing Agency, Oregon",Board of Electrologists and Body Art Practitioners Meeting *Teleconference,,03/07/2022 10:00:00 AM,03/07/2022 01:00:00 PM,"1430 Tandem Ave NE, Suite 180",Salem,OR,,,April Fleming,,april.fleming@dhsoha.state.or.us,,,,,,,,,,http://oha.granicus.com/GeneratedAgendaViewer.php?event_id=20bafbc7-8abd-46f6-9588-10ec9619b4be,,,,
"Health Licensing Agency, Oregon",Board of Direct Entry Midwifery Meeting *Special,,01/13/2022 08:00:00 AM,01/13/2022 12:00:00 PM,"1430 Tandem Ave NE, Suite 180", Salem,OR,,,April Fleming,,april.fleming@dhsoha.state.or.us,,,,,,,,,,,,,,
"Health Licensing Agency, Oregon",Board of Electrologists and Body Art Practitioners Rules Hearing,,01/19/2022 09:00:00 AM,01/19/2022 12:00:00 PM,"1430 Tandem Ave NE, Suite 180", Salem,OR,,,April Fleming,,april.fleming@dhsoha.state.or.us,,,,,,,,,,,,,,
"Health Licensing Agency, Oregon",Behavior Analysis Regulatory Board Meeting,,01/21/2022 09:00:00 AM,01/21/2022 12:00:00 PM,"1430 Tandem Ave NE, Suite 180", Salem,OR,,,April Fleming,,april.fleming@dhsoha.state.or.us,,,,,,,,,,,,,,
"Health Licensing Agency, Oregon",Advisory Council on Hearing Aids Meeting,,04/01/2022 09:00:00 AM,04/01/2022 01:00:00 PM,"1430 Tandem Ave NE, Suite 180",Salem,OR,,,April Fleming,,april.fleming@dhsoha.state.or.us,,,,,,,,,,,,,,
"Health Licensing Agency, Oregon",Board of Direct Entry Midwifery Meeting *Special,,04/14/2022 08:00:00 AM,04/14/2022 12:00:00 PM,"1430 Tandem Ave NE, Suite 180",Salem,OR,,,April Fleming,,april.fleming@dhsoha.state.or.us,,,,,,,,,,,,,,
"Health Licensing Agency, Oregon",Board of Denture Technology Meeting,,06/06/2022 09:00:00 AM,06/06/2022 01:00:00 PM,"1430 Tandem Ave NE, Suite 180",Salem,OR,,,April Fleming,,april.fleming@dhsoha.state.or.us,,,,,,,,,,,,,,
"Health Licensing Agency, Oregon",Behavior Analysis Regulatory Board Meeting,,07/15/2022 09:00:00 AM,07/15/2022 01:00:00 PM,"1430 Tandem Ave NE, Suite 180",Salem,OR,,,April Fleming,,april.fleming@dhsoha.state.or.us,,,,,,,,,,,,,,
"Health Licensing Agency, Oregon",Board of Electrologists and Body Art Practitioners Meeting,,07/25/2022 10:00:00 AM,07/25/2022 02:00:00 PM,"1430 Tandem Ave NE, Suite 180",Salem,OR,,,April Fleming,,april.fleming@dhsoha.state.or.us,,,,,,,,,,,,,,
"Health Licensing Agency, Oregon",Board of Direct Entry Midwifery Meeting *Special,,08/18/2022 08:00:00 AM,08/18/2022 12:00:00 PM,"1430 Tandem Ave NE, Suite 180",Salem,OR,,,April Fleming,,april.fleming@dhsoha.state.or.us,,,,,,,,,,,,,,
"Health Licensing Agency, Oregon",Board of Certified Advanced Estheticians Meeting,,09/07/2022 09:00:00 AM,09/07/2022 12:00:00 PM,"1430 Tandem Ave NE, Suite 180",Salem,OR,,,April Fleming,,april.fleming@dhsoha.state.or.us,,,,,,,,,,,,,,
"Health Licensing Agency, Oregon",Environmental Health Registration Board Meeting *Teleconference,,03/04/2022 09:00:00 AM,03/04/2022 01:00:00 PM,"1430 Tandem Ave NE, Suite 180",Salem,OR,,,April Fleming,,april.fleming@dhsoha.state.or.us,,,,,,,,,,http://oha.granicus.com/GeneratedAgendaViewer.php?event_id=1163e968-c487-4073-84d6-5ae5190289bf,,,,
"Health Licensing Agency, Oregon",Cancelled*Long Term Care Administrators Board Meeting,,03/08/2022 09:00:00 AM,03/08/2022 12:00:00 PM,"1430 Tandem Ave NE, Suite 180",Salem,OR,,,April Fleming,,april.fleming@dhsoha.state.or.us,,,,,,,,,,http://oha.granicus.com/GeneratedAgendaViewer.php?event_id=086100a3-3908-4c46-a1bb-1e33b9d43354,,,,
