"Agency, Board, Commission, Branch",Meeting Title,Short Description,End Date & Time,Meeting Location,City,State,Details,Public Comment Accepted,Contact Name,Phone Number,Contact Email,Web Link (optional),Map Link,Calendar Link,ADA Contact,ADA Contact Phone,ADA Contact Email,Webinar/Webcast?,Webinar/Webcast Link,Public Call-In Number,Call-in Access Code,Agenda URL,Map Location,2010 House Districts,2010 Senate Districts,Counties
Transportation Department,Oregon Transportation Safety Committee (OTSC),"Under ORS 802.300: (1) The Transportation Safety Committee is created within the Department of Transportation to advise the department and the Oregon Transportation Commission concerning the functions described under ORS 802.310 and to perform any other functions related to transportation safety that the commission delegates. The committee established under this section shall consist of five members appointed by the Governor on the recommendation of the commission. The term of office of each member is four years. Before the expiration of the term of a member, the Governor shall appoint a successor. A member is eligible for reappointment. In case of a vacancy for any cause, the Governor shall appoint a person to fill the office for the unexpired term.",12/14/2022 12:00:00 PM,ODOT TLC in Salem or Virtually,Salem,OR,Please see weblink for more information.,,Alycen Ozawa,503-986-3883,alycen.ozawa@odot.oregon.gov,,,,,,,true,,,,,,,,
Transportation Department,Oregon Transportation Safety Committee (OTSC),"Under ORS 802.300: (1) The Transportation Safety Committee is created within the Department of Transportation to advise the department and the Oregon Transportation Commission concerning the functions described under ORS 802.310 and to perform any other functions related to transportation safety that the commission delegates. The committee established under this section shall consist of five members appointed by the Governor on the recommendation of the commission. The term of office of each member is four years. Before the expiration of the term of a member, the Governor shall appoint a successor. A member is eligible for reappointment. In case of a vacancy for any cause, the Governor shall appoint a person to fill the office for the unexpired term.",11/16/2022 12:00:00 PM,ODOT TLC in Salem or Virtually,Salem,OR,Please see weblink for more information.,,Alycen Ozawa,503-986-3883,alycen.ozawa@odot.oregon.gov,,,,,,,true,,,,,,,,
Transportation Department,Oregon Transportation Safety Committee (OTSC),"Under ORS 802.300: (1) The Transportation Safety Committee is created within the Department of Transportation to advise the department and the Oregon Transportation Commission concerning the functions described under ORS 802.310 and to perform any other functions related to transportation safety that the commission delegates. The committee established under this section shall consist of five members appointed by the Governor on the recommendation of the commission. The term of office of each member is four years. Before the expiration of the term of a member, the Governor shall appoint a successor. A member is eligible for reappointment. In case of a vacancy for any cause, the Governor shall appoint a person to fill the office for the unexpired term.",10/12/2022 12:00:00 PM,ODOT TLC in Salem or Virtually,Salem,OR,Please see weblink for more information.,,Alycen Ozawa,503-986-3883,alycen.ozawa@odot.oregon.gov,,,,,,,true,,,,,,,,
Transportation Department,Historic Columbia River Highway Advisory Committee,"The Oregon Legislature created the Historic Columbia River Highway Advisory Committee in 1987 (ORS 366.550) to make recommendations to ODOT and OPRD concerning the Historic Highway.  Membership includes representatives from ODOT, OPRD, the State Historic Preservation Office, and the Oregon Tourism Commission. Six private citizens are on the committee, two from each of the three counties (Multnomah, Hood River and Wasco).",09/15/2022 02:00:00 PM,"Hood River County Library, 502 State Street and Zoom",Hood River,OR,,,Terra Lingley,,Terra.m.lingley@odot.oregon.gov,,,,,503-731-4128,,true,,,,https://www.oregon.gov/odot/Regions/Pages/HCRH-Advisory-Committee.aspx,,,,
Transportation Department,Oregon Transportation Safety Committee (OTSC),"Under ORS 802.300: (1) The Transportation Safety Committee is created within the Department of Transportation to advise the department and the Oregon Transportation Commission concerning the functions described under ORS 802.310 and to perform any other functions related to transportation safety that the commission delegates. The committee established under this section shall consist of five members appointed by the Governor on the recommendation of the commission. The term of office of each member is four years. Before the expiration of the term of a member, the Governor shall appoint a successor. A member is eligible for reappointment. In case of a vacancy for any cause, the Governor shall appoint a person to fill the office for the unexpired term.",09/14/2022 12:00:00 PM,ODOT TLC in Salem or Virtually,Salem,OR,Please see weblink for more information.,,Alycen Ozawa,503-986-3883,alycen.ozawa@odot.oregon.gov,,,,,,,true,,,,,,,,
Transportation Department,Region 1 Area Commission on Transportation,"The Region 1 Area Commission on Transportation, also known as R1ACT, is an advisory body established to provide a forum for stakeholders to collaborate on transportation issues affecting Oregon Department of Transportation Region 1.",08/01/2022 07:30:00 PM,Zoom,Portland,OR,,Yes,Chris Ford,,Chris.Ford@odot.oregon.gov,,,,,,,true,,,,,,,,
Transportation Department,Historic Columbia River Highway Advisory Committee,"The Oregon Legislature created the Historic Columbia River Highway Advisory Committee in 1987 (ORS 366.550) to make recommendations to ODOT and OPRD concerning the Historic Highway.  Membership includes representatives from ODOT, OPRD, the State Historic Preservation Office, and the Oregon Tourism Commission. Six private citizens are on the committee, two from each of the three counties (Multnomah, Hood River and Wasco).",06/16/2022 03:00:00 PM,"234 SW Kendall Ct, Troutdale, and Online via Zoom",Troutdale,OR,,,Terra Lingley,,Terra.m.lingley@odot.oregon.gov,,,,,,,true,https://us02web.zoom.us/j/84239291875?pwd=MlJmZXR5TWFMTXZJTFpEY2VxdkRvUT09  (https://us02web.zoom.us/j/84239291875?pwd=MlJmZXR5TWFMTXZJTFpEY2VxdkRvUT09%20),,,https://www.oregon.gov/odot/Regions/Pages/HCRH-Advisory-Committee.aspx,,,,
Transportation Department,Region 1 Area Commission on Transportation,"The Region 1 Area Commission on Transportation, also known as R1ACT, is an advisory body established to provide a forum for stakeholders to collaborate on transportation issues affecting Oregon Department of Transportation Region 1.",06/06/2022 07:30:00 PM,Zoom,Portland,OR,,,Chris Ford,,Chris.Ford@odot.oregon.gov,,,,,503-731-4128,,true,https://us02web.zoom.us/j/81324004342,1 253 215 8782,813 2400 4342,https://www.oregon.gov/odot/Get-Involved/Documents/06062022-R1ACT-agenda.pdf,,,,
Transportation Department,Connect Oregon Online Public Hearing,,04/20/2022 02:00:00 PM,online,Salem,OR,"Opportunity for interested parties to comment on this cycle of the Connect Oregon competitive grant program. Interested parties must sign-up to speak via the program website at http://www.oregon.gov/odot/Programs/Pages/ConnectOregon.aspx  Alternatively, for those who wish to comment but who are unable or do not wish to speak at the April 20 public meeting may choose to send in written comments to ODOT staff to be included as part of the record that goes to the Oregon Transportation Commission as part of the package of materials for Connect Oregon. Meeting link will be posted at program website.",Yes,John Boren,5410000000,john.boren@odot.oregon.gov,,,,,,,true,http://www.oregon.gov/odot/Programs/Pages/ConnectOregon.aspx,,,,,,,
Transportation Department,Connect Oregon Final Review Committee,,04/06/2022 05:00:00 PM,Virtual - Zoom,Salem,OR,"The Final Review Committee (FRC) will deliberate and come to a recommendation on which projects to fund that the Oregon Transportation Commission should fund for the 2021 Connect Oregon competitive grant cycle. The FRC will review a combined list of recommendations from each modal committee (aviation, marine, rail and freight) and from the Region Review Committees from all 5 ODOT Regions. The FRC is charged with reviewing the 49 eligible projects totaling $126 million in requested funds and determining which projects best meet the statutory considerations for the program which focus on investment in non-highway modes of transportation that result in a more strong, diverse and efficient transportation system.
Detailed meeting information and access links will be posted on the program page at https://www.oregon.gov/odot/programs/pages/connectoregon.aspx
",,John Boren,503-986-3703,john.boren@odot.oregon.gov,,,,,,,true,,,,https://www.oregon.gov/odot/programs/pages/connectoregon.aspx,,,,
Transportation Department,Region 1 Area Commission on Transportation,"The Region 1 Area Commission on Transportation, also known as R1ACT, is an advisory body established to provide a forum for stakeholders to collaborate on transportation issues affecting Oregon Department of Transportation Region 1.",04/04/2022 07:30:00 PM,Zoom,Portland,OR,"The Region 1 Area Commission on Transportation (ACT) will hold a virtual meeting from 5:30 to 7:30 p.m. on Monday, April 4, 2022.
At 5:15 p.m., we will test video and audio connections.
At 5:30 p.m., the meeting will begin.
Agenda topics include:
•	Legislative Short-Session Update.
•	Hood River Bridge Update. 
•	OTC Allocation of Federal Infrastructure Funds. ",Yes,Chris Ford,,Chris.Ford@odot.oregon.gov,,,,,503-731-8423,Roxane.GLYNN@odot.state.or.us,true,https://us02web.zoom.us/j/86270305445,253 215 8782  ,862 7030 5445,https://www.oregon.gov/odot/Get-Involved/ACT/04042022-R1ACT-agenda.pdf,,,,
Transportation Department,Safe Routes to School Advisory Committee (SRAC),,10/20/2020 03:00:00 PM,"Chemeketa Center for Business and Industry, 626 high St NE",Salem,OR,"The Safe Routes to School Advisory Committee (SRAC) consists of
approximately 15 volunteers who have been appointed by the ODOT
Director. The committee meets at least quarterly and is charged with
recommending projects for funding in ODOT’s Safe Routes to School
Infrastructure and Non-Infrastructure Grant Programs to the Oregon
Transportation Commission and ODOT.",Yes,LeeAnne Fergason,503-986-5805,Leeanne.Fergason@odot.state.or.us,,https://goo.gl/maps/M8aFjE2rB2oJXD9v6,,LeeAnne Fergason,503-986-5805,Leeanne.Fergason@odot.state.or.us,true,,,,,,,,
Transportation Department,Oregon Transportation Safety Committee Meeting,"ORS 802.300: (1) The Transportation Safety Committee is created within the Department of Transportation to advise the department and the Oregon Transportation Commission concerning the functions described under ORS 802.310 and to perform any other functions related to transportation safety that the commission delegates. The committee established under this section shall consist of five members appointed by the Governor on the recommendation of the commission. The term of office of each member is four years. Before the expiration of the term of a member, the Governor shall appoint a successor. A member is eligible for reappointment. In case of a vacancy for any cause, the Governor shall appoint a person to fill the office for the unexpired term.",09/09/2020 12:00:00 AM,Virtual Meeting Only., Salem,OR,"Monthly Meeting. The meeting will include general approval of the previous meeting minutes and consent calendar, member reports, a COVID-19 update, the 2021 Highway Safety Plan, a presentation on photo red light camera programs, introduction of Cooper Brown (Assistant Director of Delivery and Operations), transportation safety program updates, and approval for the proclamation/declaration of October Distracted Driving Awareness Month.",,Alycen Ozawa,503-986-3883,alycen.ozawa@odot.state.or.us,,,,,,,true,,503-934-3605,719564,,,,,
Transportation Department,Oregon Transportation Safety Committee Meeting,"ORS 802.300: (1) The Transportation Safety Committee is created within the Department of Transportation to advise the department and the Oregon Transportation Commission concerning the functions described under ORS 802.310 and to perform any other functions related to transportation safety that the commission delegates. The committee established under this section shall consist of five members appointed by the Governor on the recommendation of the commission. The term of office of each member is four years. Before the expiration of the term of a member, the Governor shall appoint a successor. A member is eligible for reappointment. In case of a vacancy for any cause, the Governor shall appoint a person to fill the office for the unexpired term.",07/08/2020 12:15:00 PM,Virtual Meeting Only., Salem,OR,"Monthly Meeting. Agenda items include reports from the members, the Transportation Safety Division Administrator and program managers. Additional items for discussion include a COVID-19 update, 2021 Transportation Safety Action Plan update, program updates, and a Team Oregon recommendation.",,Alycen Ozawa,503-986-3883,alycen.ozawa@odot.state.or.us,,,,,,,,,,,,,,,
Transportation Department,CANCELLED: Oregon Transportation Commission,,06/18/2020 04:00:00 PM,TBD, Astoria,OR,,Yes,Michelle Bryant,503-986-3450,OTCAdmin@odot.state.or.us,,,,,503-986-3450 or 711,OTCAdmin@odot.state.or.us,,,,,https://www.oregon.gov/ODOT/Get-Involved/Pages/OTC_Main.aspx,,,,
Transportation Department,Oregon Transportation Commission ,,05/27/2020 12:30:00 PM,355 Capitol Street Ne, Salem,OR,,,Michelle Bowlin,503-986-3284,OTCAdmin@odot.state.or.us,,,,,,,true,,,,https://www.oregon.gov/odot/Get-Involved/Pages/May27.aspx,,,,
Transportation Department,Oregon Transportation Commission,,05/14/2020 04:00:00 PM,TBD, Salem,OR,This may be a phone meeting; more information will be available on the website: https://www.oregon.gov/ODOT/Get-Involved/Pages/OTC_Main.aspx,Yes,Michelle Bryant,503-986-3450,OTCAdmin@odot.state.or.us,,,,,503-986-3450 or 711,OTCAdmin@odot.state.or.us,,,,,https://www.oregon.gov/ODOT/Get-Involved/Pages/OTC_Main.aspx,,,,
Transportation Department,Oregon Transportation Safety Committee Meeting,"ORS 802.300: (1) The Transportation Safety Committee is created within the Department of Transportation to advise the department and the Oregon Transportation Commission concerning the functions described under ORS 802.310 and to perform any other functions related to transportation safety that the commission delegates. The committee established under this section shall consist of five members appointed by the Governor on the recommendation of the commission. The term of office of each member is four years. Before the expiration of the term of a member, the Governor shall appoint a successor. A member is eligible for reappointment. In case of a vacancy for any cause, the Governor shall appoint a person to fill the office for the unexpired term.",05/13/2020 12:30:00 PM,Virtual Meeting Only.,Salem,OR,Monthly Meeting. Agenda items include reports from the members and the Transportation Safety Division Administrator. Additional items for discussion include the 2021 Highway Safety Performance Plan and updates on implementation of action items from the Transportation Safety Action Plan.,,Alycen Ozawa,503-986-3883,alycen.ozawa@odot.state.or.us,,,,,,,,,503-934-3605,719564,,,,,
Transportation Department,Oregon Transportation Commission,,04/16/2020 04:00:00 PM,"Transportation Building, 355 Capitol St. NE", Salem,OR,,Yes,Michelle Bryant,503-986-3450,OTCAdmin@odot.state.or.us,,,,,503-986-3450 or 711,OTCAdmin@odot.state.or.us,,,,,https://www.oregon.gov/ODOT/Get-Involved/Pages/OTC_Main.aspx,,,,
Transportation Department,Oregon Transportation Safety Committee Meeting,"ORS 802.300: (1) The Transportation Safety Committee is created within the Department of Transportation to advise the department and the Oregon Transportation Commission concerning the functions described under ORS 802.310 and to perform any other functions related to transportation safety that the commission delegates. The committee established under this section shall consist of five members appointed by the Governor on the recommendation of the commission. The term of office of each member is four years. Before the expiration of the term of a member, the Governor shall appoint a successor. A member is eligible for reappointment. In case of a vacancy for any cause, the Governor shall appoint a person to fill the office for the unexpired term.",04/08/2020 11:15:00 AM,Vitrual meeting only., Salem,OR,"Monthly Meeting. Agenda items include reports from the members and the Transportation Safety Division Administrator. Additional items for discussion include the 2021 Highway Safety Performance Plan, May Proclamations, and DEAC reappointments and appointment.
",,Alycen Ozawa,503-986-3883,alycen.ozawa@odot.state.or.us,,,,,,,true,,503-934-3605,719564,,,,,
Transportation Department,CANCELLED: Oregon Transportation Commission,,03/20/2020 04:00:00 PM,TBD, Corvallis,OR,Two-days: workshop with regular meeting business.,Yes,Michelle Bryant,503-986-3450,OTCAdmin@odot.state.or.us,,,,,503-986-3459 or 711,OTCAdmin@odot.state.or.us,,,,,https://www.oregon.gov/ODOT/Get-Involved/Pages/OTC_Main.aspx,,,,
Transportation Department,CANCELLED: Oregon Transportation Safety Committee Meeting,"ORS 802.300: (1) The Transportation Safety Committee is created within the Department of Transportation to advise the department and the Oregon Transportation Commission concerning the functions described under ORS 802.310 and to perform any other functions related to transportation safety that the commission delegates. The committee established under this section shall consist of five members appointed by the Governor on the recommendation of the commission. The term of office of each member is four years. Before the expiration of the term of a member, the Governor shall appoint a successor. A member is eligible for reappointment. In case of a vacancy for any cause, the Governor shall appoint a person to fill the office for the unexpired term.",03/18/2020 02:30:00 PM,4190 Aumsville Hwy SE - Atiyeh Boardroom, Salem,OR,"Monthly Meeting. Agenda items include reports from the members, the Transportation Safety Division Administrator and several liaisons. Additional items for discussion include the Legislative Session, Proclamation requests, and review of program funding allocations.",,Alycen Ozawa,503-986-3883,alycen.ozawa@odot.state.or.us,,,,,,,,,,,,,,,
Transportation Department,Safe Routes to School Advisory Committee (SRAC),,03/17/2020 03:00:00 PM,"Chemeketa Center for Business and Industry, 626 high St NE",Salem,OR,"The Safe Routes to School Advisory Committee (SRAC) consists of
approximately 15 volunteers who have been appointed by the ODOT
Director. The committee meets at least quarterly and is charged with
recommending projects for funding in ODOT’s Safe Routes to School
Infrastructure and Non-Infrastructure Grant Programs to the Oregon
Transportation Commission and ODOT.",Yes,LeeAnne Fergason,503-986-5805,Leeanne.Fergason@odot.state.or.us,,https://goo.gl/maps/M8aFjE2rB2oJXD9v6,,LeeAnne Fergason,503-986-5805,Leeanne.Fergason@odot.state.or.us,true,,,,,,,,
Transportation Department,CANCELLED: Oregon Transportation Commission,,02/20/2020 04:00:00 PM,"Transportation Building, 355 Capitol St NE", Salem,OR,This meeting was canceled; https://www.oregon.gov/ODOT/Get-Involved/Pages/OTC_Main.aspx,Yes,Michelle Bryant,503-986-3450,OTCAdmin@odot.state.or.us,,,,,503-986-3450 or 711,OTCAdmin@odot.state.or.us,,,,,https://www.oregon.gov/ODOT/Get-Involved/Pages/OTC_Main.aspx,,,,
Transportation Department,Speed Zone Review Panel Hearing,,02/19/2020 04:00:00 PM,"Gail L. Achterman Commission Room, ODOT, 355 Capitol St.", Salem,OR,"The Speed Zone Review Panel is meeting to discuss speed zoning on NE 102nd Avenue in the city of Portland and to hear ODOT’s request for speed reduction on the Central Oregon Highway (US20), just east of Bend.  The Panel will also continue its oversight role in the updating and revision of Oregon Administrative Rules for setting designated speed limits.  The public comment period has ended and the panel will be discussing the comments received and making a recommendation to forward to the OTC.",Yes,Kathi McConnell,503-986-3609,kathleen.e.mcconnell@odot.state.or.us,,,,Kathi McConnell,503-986-3609,kathleen.e.mcconnell@odot.state.or.us,,,,,,,,,
Transportation Department,Speed Zone Review Panel Hearing,,02/19/2020 04:00:00 PM,"Gail L. Achterman Commission Room, ODOT, 355 Capitol St.", Salem,OR,"The Speed Zone Review Panel is meeting to discuss speed zoning on NE 102nd Avenue in the city of Portland and to hear ODOT’s request for speed reduction on the Central Oregon Highway (US20), just east of Bend.  The Panel will also continue its oversight role in the updating and revision of Oregon Administrative Rules for setting designated speed limits.  The public comment period has ended and the panel will be discussing the comments received and making a recommendation to forward to the OTC.",Yes,Kathi McConnell,503-986-3609,kathleen.e.mcconnell@odot.state.or.us,,,,,,,,,,,,,,,
Transportation Department,Safe Routes to School Advisory Committee (SRAC),,02/11/2020 03:00:00 PM,"Chemeketa Center for Business and Industry, 626 high St NE",Salem,OR,"The Safe Routes to School Advisory Committee (SRAC) consists of
approximately 15 volunteers who have been appointed by the ODOT
Director. The committee meets at least quarterly and is charged with
recommending projects for funding in ODOT’s Safe Routes to School
Infrastructure and Non-Infrastructure Grant Programs to the Oregon
Transportation Commission and ODOT.",Yes,LeeAnne Fergason,503-986-5805,Leeanne.Fergason@odot.state.or.us,,https://goo.gl/maps/M8aFjE2rB2oJXD9v6,,LeeAnne Fergason,503-986-5805,Leeanne.Fergason@odot.state.or.us,true,,,,,,,,
Transportation Department,Oregon Transportation Commission,,01/23/2020 04:00:00 PM,"Transportation Building, 355 Capitol St. NE", Salem,OR,,Yes,Michelle Bryant,503-986-3450,OTCAdmin@odot.state.or.us,,,,,503-986-3450 or 711,OTCAdmin@odot.state.or.us,,,,,https://www.oregon.gov/ODOT/Get-Involved/Pages/OTC_Main.aspx,,,,
Transportation Department,Oregon Transportation Commission,,01/23/2020 05:00:00 PM,"Crowne Plaza, Lake Oswego", Lake Oswego,OR,"Crowne Plaza Portland-Lake Oswego
14811 Kruse Oaks Drive, Ballroom
Lake Oswego, Oregon 97035",Yes,Jacque Carlisle,503-986-3450,OTCAdmin@odot.state.or.us,,,,Jacque Carlisle,503-986-3450 or 711,OTCAdmin@odot.state.or.us,,,,,https://www.oregon.gov/ODOT/Get-Involved/Pages/OTC_Main.aspx,,,,
Transportation Department,Safe Routes to School Committee (SRAC),,01/21/2020 04:30:00 PM,"Chemeketa Center for Business and Industry, 626 high St NE",Salem,OR,"The Safe Routes to School Advisory Committee (SRAC) consists of
approximately 15 volunteers who have been appointed by the ODOT
Director. The committee meets at least quarterly and is charged with
recommending projects for funding in ODOT’s Safe Routes to School
Infrastructure and Non-Infrastructure Grant Programs to the Oregon
Transportation Commission and ODOT.",Yes,LeeAnne Fergason,503-986-5805,Leeanne.Fergason@odot.state.or.us,,https://goo.gl/maps/M8aFjE2rB2oJXD9v6,,LeeAnne Fergason,503-986-5805,Leeanne.Fergason@odot.state.or.us,true,,,,,,,,
Transportation Department,Region 1 Area Commission on Transportation,Advisory board established to provide a forum for stakeholders to collaborate on transportation issues affecting ODOT Region 1. The Region 1 ACT advises the Oregon Transportation Commission.,12/02/2019 05:30:00 PM,123 NW Flanders,Portland,OR,Meeting is held in conference room A/B at the Oregon Department of Transportation Region 1 Headquarters.,Yes,Kimberly Dinwiddie,503-731-8248,Kimberly.Dinwiddie@odot.state.or.us,,,,Kimberly Dinwiddie,503-731-8248,Kimberly.Dinwiddie@odot.state.or.us,,,,,,,,,
Transportation Department,DMV Service Transformation Program Oversight Task Force to meet November 21,"The DMV Service Transformation Program Oversight Task Force brings together expertise on Oregon Information Technology (IT) projects, legislative processes and private sector IT technical experiences. The Task Force, initiated in November 2015, has been meeting periodically to partner with ODOT and DMV leadership to review complex topics, ask tough questions and provide thoughtful counsel to STP leadership through the life of the program.",11/21/2019 11:30:00 AM,"Oregon Department of Transportation Building, Gail L. Achterman Commission Room (Room 103), 355 Capitol Street NE", Salem,OR,"Approve meeting minutes, receive quality assurance update report, receive STP drivers rollout update, discuss competing priorities, receive organizational change leadership assessment, wrap-up and identify future topics. ",No,Katherine Gile,,Katherine.S.Gile@odot.state.or.us,,,,Katherine Gile,,Katherine.S.Gile@odot.state.or.us,,,,,,,,,
Transportation Department,Safe Routes to School Advisory Committee (SRAC),Review and Recommend final projects list,10/21/2019 03:00:00 PM,"CCBI, 626 High St NE", Salem,OR,The Safe Routes to School Advisory Committee (SRAC) consists of approximately 15 volunteers who have been appointed by the ODOT Director.  The committee meets at least quarterly and is charged with recommending projects for funding in ODOT’s Safe Routes to School Infrastructure and Non-Infrastructure Grant Programs to the Oregon Transportation Commission and ODOT.,Yes,LeeAnne Fergason,503-986-5805,LeeAnne.Fergason@odot.state.or.us,,https://goo.gl/maps/M8aFjE2rB2oJXD9v6,,LeeAnne Fergason,503-986-5805,LeeAnne.Fergason@odot.state.or.us,true,https://meet.lync.com/odot.state.or.us/leeanne.fergason/PMK4MVMD?sl=1,1-888-251-2909,868544,https://www.oregon.gov/ODOT/Programs/TDD%20Documents/10.21.19-SRAC-agenda.pdf,,,,
Transportation Department,Region 1 Area Commission on Transportation,Advisory board established to provide a forum for stakeholders to collaborate on transportation issues affecting ODOT Region 1. The Region 1 ACT advises the Oregon Transportation Commission.,10/07/2019 07:30:00 PM,123 NW Flanders, Portland,OR,Oregon Department of Transportation Region 1 Headquarters,Yes,Kimberly Dinwiddie,503-731-8248,Kimberly.Dinwiddie@odot.state.or.us,,,,Kimberly Dinwiddie,503-731-8248,Kimberly.Dinwiddie@odot.state.or.us,,,,,,,,,
Transportation Department,DMV Service Transformation Program Oversight Task Force to meet September 19,The DMV Service Transformation Program Oversight Task Force will meet on September 19 in Salem,09/19/2019 11:30:00 AM,"Oregon Department of Transportation Building, Gail L. Achterman Commission Room (Room 103), 355 Capitol Street NE", Salem,OR,"The DMV Service Transformation Program Oversight Task Force brings together expertise on Oregon Information Technology (IT) projects, legislative processes and private sector IT technical experiences. The Task Force, initiated in November 2015, has been meeting periodically to partner with ODOT and DMV leadership to review complex topics, ask tough questions and provide thoughtful counsel to STP leadership through the life of the program.",,Lauren Mulligan,503-947-4072,Lauren.e.mulligan@odot.state.or.us,,,,Lauren Mulligan,503-947-4072,lauren.e.mulligan@odot.state.or.us,,,,,,,,,
Transportation Department,Speed Zone Review Panel,Discuss proposed OAR changes for setting designated speeds,08/14/2019 04:00:00 PM,"ODF&W Commission Room, 4034 Fairview Industrial Drive SE", Salem,OR,"Review Draft Administrative Rules, review and comment on draft rules, address suggestions, next steps.",Yes,Kathi McConnell,503-986-3609,kathleen.e.mcconnell@odot.state.or.us,,,,Kathi McConnell,503-986-3609,kathleen.e.mcconnell@odot.state.or.us,,,,,,,,,
Transportation Department,Region 1 Area Commission on Transportation,Advisory board established to provide a forum for stakeholders to collaborate on transportation issues affecting ODOT Region 1. The Region 1 ACT advises the Oregon Transportation Commission.,08/05/2019 07:30:00 PM,220 NE 2nd Avenue, Canby,OR,Canby Public Library - Willamette Room,Yes,Kimberly Dinwiddie,503-731-8248,Kimberly.Dinwiddie@odot.state.or.us,,,,Kimberly Dinwiddie,503-731-8248,Kimberly.Dinwiddie@odot.state.or.us,,,,,,,,,
Transportation Department,Pedestrian & Bicycle Rules Advisory Committee (PB-RAC),Statute and Rule changes to ORS 367.082,07/30/2019 04:00:00 PM,"ODOT Transportation Building, 355 Capitol St NE, Room 103 -Gail L Achterman Commission Room",Salem,OR,,"Yes, agenda time reserved for Public Comment",Jessica Horning,503-986-3555,Jessica.Horning@odot.state.or.us,,,,Jessica Horning,503-986-3555,Jessica.Horning@odot.state.or.us,true,https://meet.lync.com/odot.state.or.us/jessica.horning/7M8NWF35,1-888-251-2909 ,868544  and  #,https://www.oregon.gov/ODOT/Programs/TDD%20Documents/CO-BP-RAC-07-2019-Agenda.pdf,,,,
Transportation Department,Safe Routes to School Advisory Committee (SRAC),Review and recommendation of proposed projects.,07/09/2019 04:00:00 PM,"CCBI, 626 high St NE", Salem,OR,The Safe Routes to School Advisory Committee (SRAC) consists of approximately 15 volunteers who have been appointed by the ODOT Director.The committee meets at least quarterly and is charged with recommending projects for funding in ODOT’s Safe Routes to School Infrastructure and Non-Infrastructure Grant Programs to the Oregon Transportation Commission and ODOT.,Yes,LeeAnne Fergason,503-986-5805,LeeAnne.Fergason@odot.state.or.us,,https://goo.gl/maps/M8aFjE2rB2oJXD9v6,,LeeAnne Fergason,503-986-5805,LeeAnne.Fergason@odot.state.or.us,,,,,,,,,
Transportation Department,Safe Routes to School Advisory Committee (SRAC),Review applications and recommend projects to the Oregon Transportation Commission for grant funding.,05/29/2019 03:00:00 PM,"Chemeketa Center for Business and Industry, 626 high St NE",Salem,OR,This meeting will focus on listening to public comment; Review proposed project guidelines for the Rapid Response Grant Program; Project Identification Grant Program Application and Scoring review; and Non-Infrastructure Application and Scoring review.,"Yes, agenda time reserved for Public Comment",LeeAnne Fergason,503-986-5805,Leeanne.Fergason@odot.state.or.us,,https://goo.gl/maps/NSvMVjc2TMaxYbY7A,,LeeAnne Fergason,503-986-5805,Leeanne.Fergason@odot.state.or.us,true,https://meet.lync.com/odot.state.or.us/leeanne.fergason/PMK4MVMD?sl=1,1-888-251-2909,868544  and  #,https://www.oregon.gov/ODOT/Programs/TDD%20Documents/05.29.19-SRAC-Agenda.pdf,,,,
Transportation Department,Oregon Transportation Commission,Oregon Transportation Commission,05/16/2019 04:00:00 PM,"Transportation Building, 355 Capitol St NE", Salem,OR,,Yes,Jacque Carlisle,,otcadmin@odot.state.or.us,,,,Jacque Carlisle,,otcadmin@odot.state.or.us,,,,,,,,,
Transportation Department,Pedestrian & Bicycle Rules Advisory Committee (PB-RAC),Statute and Rule changes to ORS 367.082,04/22/2019 12:00:00 PM,"ODOT Transportation Building, 355 Capitol St NE, Room 103 -Gail L Achterman Commission Room", Salem,OR,"Oregon Legislature passed Keep Oregon Moving (House Bill 2017), which includes changes to the existing Connect Oregon Grant Fund (ORS 367.082) program that necessitates aligning the implementing rules with the new statutes. The legislation bifurcated the program into two new parts, with a separate allocation of 7% for bicycle and pedestrian transportation projects. Beyond the structural changes to the Connect Oregon program, HB 2017 charged the Department with streamlining the application process. 

The Connect Oregon Rules Advisory Committee is charged with updating Connect Oregon Administrative Rule Chapter 731 Division 35 to align with the legislative intent of the transportation funding package (HB 2017), under ORS 367.080 to 089. The Pedestrian and Bicycle Rules Advisory Committee will set up the administrative process for the 7 percent of Connect Oregon funds allocated for pedestrian and bicycle projects. The Committee with also advise on ways to streamline the application process. 

The Committee consists of representatives from the Oregon Bicycle and Pedestrian Advisory Committee, Oregon Public Transit Advisory Committee, Area Commissions on Transportation, state and local parks departments, state and local governments, and trails advocacy groups. A series of four to five meetings will include an overview of changes to Oregon Law made by the 2017 Legislature, discussing the committee's goals, local public engagement along with participation from local governments and public interest groups in the rule making process. ","Yes, agenda time reserved for Public Comment",Jessica Horning,503-986-3555,Jessica.Horning@odot.state.or.us,,https://goo.gl/maps/bkboxj7XJrt,,Jessica Horning,503-986-3555,Jessica.Horning@odot.state.or.us,true,https://meet.lync.com/odot.state.or.us/jessica.horning/CFKKYVJC,1-888-251-2909 ,868544,,,,,
Transportation Department,Oregon Transportation Commission,Oregon Transportation Commission,04/18/2019 04:00:00 PM,"Transportation Building, 355 Capitol St NE", Salem,OR,,Yes,Jacque Carlisle,,otcadmin@odot.state.or.us,,,,Jacque Carlisle,,otcadmin@odot.state.or.us,,,,,,,,,
Transportation Department,Oregon Transportation Commission,Oregon Transportation Commission,03/21/2019 04:00:00 PM,"Transportation Building, 355 Capitol St NE", Salem,OR,,Yes,Jacque Carlisle,,otcadmin@odot.state.or.su,,,,Jacque Carlisle,,otcadmin@odot.state.or.us,,,,,,,,,
Transportation Department,Oregon Transportation Commission,Oregon Transportation Commission,02/21/2019 04:00:00 PM,"Transportation Building, 355 Capitol St NE", Salem,OR,,Yes,Jacque Carlisle,,otcadmin@odot.state.or.us,,,,Jacque Carlisle,,otcadmin@odot.state.or.us,,,,,,,,,
Transportation Department,Oregon Transportation Commission,Oregon Transportation Commission,01/17/2019 04:00:00 PM,"Transportation Building, 355 Capitol St NE", Salem,OR,,Yes,Jacque Carlisle,,otcadmin@odot.state.or.us,,,,Jacque Carlisle,,otcadmin@odot.state.or.us,,,,,,,,,
Transportation Department,Connect Oregon Dedicated Projects Review Committee,,01/11/2019 05:00:00 PM,"ODOT Technical Leadership Center, Columbia Room, 4040 Fairview Industrial Dr. SE", Salem,OR,"ODOT received six pre-proposals for the Connect Oregon dedicated projects related to the Mid-Willamette Valley Intermodal Facility and Treasure Valley Intermodal Facility as specified in HB 2017 in December 2017. Three of these prospective projects have declined to continue to participate in the process. The remaining three project sponsors submitted their proposals by the September 30, 2018 deadline. In accordance with OAR 731-035-0065, the proposals have been reviewed by a neutral third party with economic analysis expertise. On Friday, a Final Review Committee will meet to review the proposals and make a recommendation to the Oregon Transportation Commission. The Commission will hear about the recommendations at its February 21, 2019 meeting and is expected to make funding decisions at its March 21, 2019 meeting.",Yes,John Boren,503.986.3703,John.Boren@odot.state.or.us,,https://goo.gl/maps/gQnVqGePmWu,,Leah Harrington,503.986.6625,Leah.D.Harrington@odot.state.or.us,,,,,https://www.oregon.gov/ODOT/Programs/TDD%20Documents/CO-Dedicated-Projects-FRC-012019-Agenda.pdf,,,,
Transportation Department,DMV Service Transformation Program Oversight Task Force to meet December 11,,12/11/2018 11:30:00 AM,"Oregon Department of Transportation Building, Gail L. Achterman Commission Room (Room 103), 355 Capitol Street NE", Salem,OR,"The DMV Service Transformation Program Oversight Task Force brings together expertise on Oregon Information Technology (IT) projects, legislative processes and private sector IT technical experiences. The Task Force, initiated in November 2015, has been meeting periodically to partner with ODOT and DMV leadership to review complex topics, ask tough questions and provide thoughtful counsel to STP leadership through the life of the program.",,Lauren Mulligan,503-947-4072,lauren.e.mulligan@odot.state.or.us,,,,,,,,,,,,,,,
Transportation Department,Oregon Transportation Commission,,12/06/2018 04:00:00 PM,355 Capitol St NE, Salem,OR,,Yes,Jacque Carlisle,,OTCAdmin@odot.state.or.us,,,,Jacque Carlisle,,OTCAdmin@odot.state.or.us,,,,,https://www.oregon.gov/ODOT/Get-Involved/Pages/OTC_Main.aspx,,,,
Transportation Department,Oregon Transportation Commission,,11/16/2018 04:00:00 PM,Best Western Premier Boulder Falls Inn and Conference Center 505 Mullins Drive, Lebanon,OR,,Yes,Jacque Carlisle,,OTCAdmin@odot.state.or.us,,,,Jacque Carlisle,,OTCAdmin@odot.state.or.us,,,,,https://www.oregon.gov/ODOT/Get-Involved/Pages/OTC_Main.aspx,,,,
Transportation Department,Oregon Transportation Commission,,10/19/2018 03:00:00 PM,"Oregon Gardens,  879 West Main Street", Silverton,OR,,Yes,Jacque Carlisle,,OTCAdmin@odot.state.or.us,,,,Jacque Carlisle,,OTCAdmin@odot.state.or.us,,,,,https://www.oregon.gov/ODOT/Get-Involved/Pages/OTC_Main.aspx,,,,
Transportation Department,DMV Service Transformation Program Oversight Task Force Meeting,,09/27/2018 10:30:00 AM,"Oregon Department of Transportation Building, Gail L. Achterman Commission Room (Room 103), 355 Capitol Street", Salem,OR,"The DMV Service Transformation Program Oversight Task Force brings together expertise on Oregon Information Technology (IT) projects, legislative processes and private sector IT technical experiences. The Task Force, initiated in November 2015, has been meeting periodically to partner with ODOT and DMV leadership to review complex topics, ask tough questions and provide thoughtful counsel to STP leadership through the life of the program.",No,Lauren Mulligan,503-947-4072,lauren.e.mulligan@odot.state.or.us,,,,,,,,,,,,,,,
Transportation Department,Oregon Transportation Commission,,09/20/2018 04:00:00 PM,355 Capitol St NE, Salem,OR,,Yes,Jacque Carlisle,503-986-3450,OTCAdmin@odot.state.or.us,,,,Jacque Carlisle,503-986-3459,OTCAdmin@odot.state.or.us,,,,,https://www.oregon.gov/ODOT/Get-Involved/Pages/OTC_Main.aspx,,,,
Transportation Department,Oregon Transportation Commission,,08/17/2018 03:00:00 PM,TBA, John Day,OR,,Yes,Jacque Carlisle,,jacque.l.carlisle@odot.state.or.us,,,,Jacque Carlisle,503-986-3450,jacque.l.carlisle@odot.state.or.us,,,,,,,,,
Transportation Department,Oregon Transportation Commission,,07/20/2018 03:00:00 PM,TBA, Seaside,OR,,Yes,Jacque Carlisle,,jacque.l.carlisle@odot.state.or.us,,,,Jacque Carlisle,503-986-3450,jacque.l.carlisle@odot.state.or.us,,,,,,,,,
Transportation Department,Oregon Transportation Commission,,07/12/2018 09:00:00 PM,"University Place Hotel, 310 SW Lincoln St., Columbia Falls Ballroom",Portand,OR,Special public comment session on congestion pricing. Sign ups for public comment: 3 p.m. to 7 p.m. Public comment time begins at 4 p.m. Policy committee member and elected officials will speak first.,Yes,Jacque Carlisle,,jacque.l.carlisle@odot.state.or.us,,,,Jacque Carlisle,503-986-3450,jacque.l.carlisle@odot.state.or.us,,,,,,,,,
Transportation Department,DMV Service Transformation Program Oversight Taskforce,,05/24/2018 10:30:00 AM,"Oregon Department of Transportation Building, Gail L. Achterman Commission Room (Room 103)", Salem,OR,"The DMV Service Transformation Program Oversight Task Force brings together expertise on Oregon Information Technology (IT) projects, legislative processes and private sector IT technical experiences. The Task Force, initiated in November 2015, has been meeting periodically to partner with ODOT and DMV leadership to review complex topics, ask tough questions and provide thoughtful counsel to STP leadership through the life of the program.",,Lauren Mulligan,503-947-4072,lauren.e.mulligan@odot.state.or.us,,,,,,,,,,,,,,,
Transportation Department,Safe Routes to Schools- Rule Advisory Committee (SRTS-RAC),"The Oregon Transportation Commission, or OTC, has formed a Rulemaking Advisory Committee to amend the Oregon Safe Routes to School Rule (OAR 737-025). The purpose of the committee is to align the rule with new funding made available by recent state legislation, and consider how infrastructure funding for Safe Routes to School should be structured. The committee is advisory to the Oregon Department of Transportation and OTC.",05/09/2018 04:00:00 PM,"Chemeketa Center for Business and Industry, 626 High St NE Room 103", Salem,OR,Meeting #6 Goals: Share progress of Outreach Events planned across the state; Review the draft rule update; Discuss public comments; Develop Program Guidance; Discuss next steps and timeline.,Yes,LeeAnne Fergason,(503) 986-5805,LeeAnne.Fergason@odot.state.or.us,,https://goo.gl/maps/VVBNaXLuHby,,Amanda Cody,(503) 986-3317,Amanda.R.Cody@odot.state.or.us,,https://join.me/ActiveTransportation,1-888-251-2909,868544,https://www.oregon.gov/ODOT/Programs/TDD%20Documents/SRTS-RAC-05-09-18-Agenda.pdf,,,,
Transportation Department,Continuous Improvement Advisory Committee,Advises the Oregon Transportation Commission on ways to improve the Oregon Department of Transportation. ,04/24/2018 05:00:00 PM,"355 Capitol St. NE, Transportation Bldg. Gail Achterman Room", Salem,OR,The committee helps develop key performance measures and reviews projects over $50 million. Committee recommendations and progress will be reported to the Oregon Legislature. ,,Lynn Averbeck,5039863939,Lynn.AVERBECK@odot.state.or.us,,,,CIAC Assistant,5039863939,ciacadmin@odot.state.or.us,,,,,,,,,
Transportation Department,Safe Routes to Schools- Rules Advisory Committee,"The Oregon Transportation Commission, or OTC, has formed a Rulemaking Advisory Committee to amend the Oregon Safe Routes to School Rule (OAR 737-025). The purpose of the committee is to align the rule with new funding made available by recent state legislation, and consider how infrastructure funding for Safe Routes to School should be structured. The committee is advisory to the Oregon Department of Transportation and OTC.",04/03/2018 02:30:00 PM,"CCBI Room 115, 626 High St NE ", Salem,OR,"Meet #5 Goals: Agree on program structure such as project selection criteria, eligibility requirements, and solicitation process; Next Steps and Program timeline; Review OAR Revisions; and receive Public Comment.",Yes,LeeAnne Fergason,(503) 986-5805,LeeAnne.FERGASON@odot.state.or.us,,https://goo.gl/maps/qUXFtaEvgqv,,,,,,,,,http://www.oregon.gov/ODOT/Programs/Pages/SRTS-RAC.aspx,,,,
Transportation Department,DMV Service Transformation Program Oversight Task Force Meeting,Meeting of DMV Service Transformation Program Oversight Task Force,01/12/2018 04:30:00 PM,"Oregon Department of Transportation Building, Gail L. Achterman Commission Room (Room 103), 355 Capitol Street NE", Salem,OR,"The DMV Service Transformation Program Oversight Task Force brings together expertise on Oregon Information Technology (IT) projects, legislative processes and private sector IT technical experiences. The Task Force, initiated in November 2015, has been meeting periodically to partner with ODOT and DMV leadership to review complex topics, ask tough questions and provide thoughtful counsel to STP leadership through the life of the program.",No,Lauren Mulligan,503-947-4072,lauren.e.mulligan@odot.state.or.us,,,,,,,,,,,http://www.oregon.gov/ODOT/DMV/Pages/STP/STP_Task_Force.aspx,,,,
Transportation Department,Safe Routes to Schools (SRTS) Rule Advisory Committee (RAC),"Planning and Goal Setting for SRTS Rule Advisory Committee program design, priorities, and program guidance.",12/13/2017 04:00:00 PM,"CCBI, 626 High St NE, Room 115", Salem,OR,"The Oregon Transportation Commission, or OTC, has formed a Rulemaking Advisory Committee to amend the Oregon Safe Routes to School Rule (OAR 737-025). The purpose of the committee is to align the rule with new funding made available by recent state legislation, and consider how infrastructure funding for Safe Routes to School should be structured. The committee is advisory to the Oregon Department of Transportation and OTC.",Yes,Susan Peithman,,Susan.Peithman@odot.state.or.us,,"https://www.google.com/maps/place/Chemeketa+Center+for+Business+and+Industry/@44.9454079,-123.0360957,17z/data=!3m1!4b1!4m5!3m4!1s0x54bffe79b4552305:0x3f9ee24f77b1be96!8m2!3d44.9454041!4d-123.0339017?hl=en",,Amanda Cody,(503) 986-3317,amanda.r.cody@odot.state.or.us,,,,,,,,,
Transportation Department,DMV Service Transformation Program Oversight Task Force ,,11/16/2017 11:30:00 AM,"Oregon Department of Transportation Building, Gail L. Achterman Commission Room (Room 103), 355 Capitol Street NE", Salem,OR,"The DMV Service Transformation Program Oversight Task Force brings together expertise on Oregon Information Technology (IT) projects, legislative processes and private sector IT technical experiences. The Task Force, initiated in November 2015, has been meeting periodically to partner with ODOT and DMV leadership to review complex topics, ask tough questions and provide thoughtful counsel to STP leadership through the life of the program.",No,Lauren Mulligan,503-947-4072,lauren.e.mulligan@odot.state.or.us,,,,Lindsey Frey,503-947-4074,,,,,,http://www.oregon.gov/ODOT/DMV/Pages/STP/STP_Task_Force.aspx,,,,
Transportation Department,DMV Service Transformation Program Oversight Task Force to meet September 21,,09/21/2017 10:30:00 AM,"Oregon Department of Transportation Building, Gail L. Achterman Commission Room (Room 103), 355 Capitol Street NE", Salem,OR,"The DMV Service Transformation Program Oversight Task Force will meet on September 21 in Salem:  
• What: Meeting of the DMV Service Transformation Program Oversight Taskforce. This meeting is open to the public. 
• Agenda: Approve meeting minutes, provide STP status update, review quality assurance materials, introduce FAST vendor staff, discuss FastDS-VS® rollout, wrap-up and identify future topics. There will be no opportunity for public comment at this meeting. 
• When: Thursday, September 21, 9:00 – 10:30 a.m. 
• Where: Oregon Department of Transportation Building, Gail L. Achterman Commission Room (Room 103), 355 Capitol Street NE, Salem. 
• Why: The DMV Service Transformation Program Oversight Task Force brings together expertise on Oregon Information Technology (IT) projects, legislative processes and private sector IT technical experiences. The Task Force, initiated in November 2015, has been meeting periodically to partner with ODOT and DMV leadership to review complex topics, ask tough questions and provide thoughtful counsel to STP leadership through the life of the program.
",,Lauren Mulligan,503-947-4072,lauren.e.mulligan@odot.state.or.us,,,,Lindsey Frey,503-947-4074,,,,,,,,,,
Transportation Department,DMV STP Oversight Task Force,,01/30/2017 10:30:00 AM,"Oregon Department of Transportation Building, Gail L. Achterman Commission Room (Room 103), 355 Capitol Street NE", Salem,OR,"The DMV Service Transformation Program Oversight Task Force brings together expertise on Oregon Information Technology (IT) projects, legislative processes and private sector IT technical experiences. The Task Force will partner with ODOT and DMV leadership to review complex topics, ask tough questions and provide thoughtful counsel to STP leadership through the life of the program.",,Lauren Mulligan,503-974-4072,lauren.e.mulligan@odot.state.or.us,,,,,,,,,,,,,,,
Transportation Department,CANCELED - DMV Service Transformation Program Oversight Task Force to meet January 12,,01/12/2017 09:30:00 AM,"CANCELED - Oregon Department of Transportation Building, Gail L. Achterman Commission Room (Room 103), 355 Capitol Street NE", Salem,OR,"This meeting has been canceled due to inclement weather and dangerous travel conditions. 

The DMV Service Transformation Program Oversight Task Force will meet on January 12 in Salem:  
* What: Meeting of the DMV Service Transformation Program Oversight Taskforce. This meeting is open to the public. 
* Agenda: Approve meeting minutes, provide STP status update, review quality assurance materials, discuss STP’s budget information for the upcoming biennium, wrap-up and identify future topics. There will be no opportunity for public comment at this meeting. 
* When: Thursday, January 12, 8:00 – 9:30 a.m. 
* Where: Oregon Department of Transportation Building, Gail L. Achterman Commission Room (Room 103), 355 Capitol Street NE, Salem. 
* Why: The DMV Service Transformation Program Oversight Task Force brings together expertise on Oregon Information Technology (IT) projects, legislative processes and private sector IT technical experiences. The Task Force will partner with ODOT and DMV leadership to review complex topics, ask tough questions and provide thoughtful counsel to STP leadership through the life of the program.",,Lauren Mulligan,503-947-4072,lauren.e.mulligan@odot.state.or.us,,,,,,,,,,,,,,,
Transportation Department,Oregon Freight Advisory Committee (OFAC),,09/20/2016 04:00:00 PM,"Chemeketa Center for Business and Industry, 626 High St NE", Salem,OR,"The Oregon Freight Advisory Committee (OFAC) was appointed to advise the ODOT Director and Oregon Transportation Commission (OTC) on issues, policies and programs that impact multimodal freight mobility in Oregon. This includes identifying high-priority freight mobility projects for consideration in ODOT’s Statewide Transportation Improvement Programs (STIP) and for the ConnectOregon program. The Freight Advisory Committee also advises on transportation policy related to goods movement. ",,Roseann O'Laughlin,503-986-3525,roseann.olaughlin@odot.state.or.us,,,,,,,,,,,http://www.oregon.gov/ODOT/TD/TP/OFAC/201609_Agenda.pdf,,,,
Transportation Department,Speed Zone Review Panel Hearing,Hear City of Portland's Proposed Experimental Method on Speed Zoning,08/16/2016 11:00:00 AM,"ODF&W, Commission Room, 4034 Fairview Industrial Drive ",Salem,OR,City of Portland's proposal for an experimental alternative speed zoning method; ODOT's recommendation to extend 55 mph south of Klamath Falls.,Yes,Kathi McConnell,503-986-3609,kathleen.e.mcconnell@odot.state.or.us,,,,Kathi McConnell,503-986-3609,kathleen.e.mcconnell@odot.state.or.us,,,,,,,,,
Transportation Department,Oregon Freight Advisory Committee (OFAC),,07/13/2016 04:00:00 AM,"Port of Portland, St. Helens Conference Room, Airport Terminal", Portland,OR,"
The Oregon Freight Advisory Committee (OFAC) was appointed to advise the ODOT Director and Oregon Transportation Commission (OTC) on issues, policies and programs that impact multimodal freight mobility in Oregon. This includes identifying high-priority freight mobility projects for consideration in ODOT’s Statewide Transportation Improvement Programs (STIP) and for the ConnectOregon program. The Freight Advisory Committee also advises on transportation policy related to goods movement.  ",,Roseann O'Laughlin,503-986-3525,roseann.olaughlin@odot.state.or.us,,,,,,,,,,,http://www.oregon.gov/ODOT/TD/TP/OFAC/201607_Agenda.pdf,,,,
Transportation Department,DMV STP Oversight Task Force,DMV Service Transformation Oversight Task Force meeting to get an update on teh progress of the program,05/26/2016 10:00:00 AM,"Oregon Deparment of Transportation Building, Gail L. Achterman Commission Room", Salem,OR,"Meetings of the DMV STP Oversight Task Force are open to the public. The meeting site is accessible to people with disabilities. Accommodations will be provided to persons with disabilities, and alternate formats of printed material are available upon request. Please call (503) 947-4074 (or statewide relay 711) at least 48 hours prior to the meeting. ",,Lauren Mulligan,(503) 947-4072,lauren.e.mulligan@odot.state.or.us,,,,,,,,,,,,,,,
Transportation Department,Oregon Freight Advisory Committee (OFAC),,03/16/2016 04:00:00 PM,"Chemeketa Center for Business and Industry, 626 High St NE", Salem,OR,"The Oregon Freight Advisory Committee (OFAC) was appointed to advise the ODOT Director and Oregon Transportation Commission (OTC) on issues, policies and programs that impact multimodal freight mobility in Oregon. This includes identifying high-priority freight mobility projects for consideration in ODOT’s Statewide Transportation Improvement Programs (STIP) and for the ConnectOregon program. The Freight Advisory Committee also advises on transportation policy related to goods movement. ",,Roseann O'Laughlin,503-986-3525,roseann.olaughlin@odot.state.or.us,,,,,,,,,,,http://www.oregon.gov/ODOT/TD/TP/OFAC/201603_Agenda.pdf,,,,
Transportation Department,South Central Oregon Area Commission on Transportation,SCOAT Meeting,02/12/2016 10:15:00 AM,Klamath Falls Community Colege, Klamath Falls,OR,,,Pamela Ruddick,,pam@scoedd.org,,,,,,,,,,,http://www.oregon.gov/ODOT/COMM/docs/SCOACTagenda2015feb12.pdf,,,,
Transportation Department,Oregon Freight Advisory Committee (OFAC),,02/11/2016 04:00:00 PM,"Chemeketa Center for Business and Industry, 626 High St NE",Salem,OR,"The Oregon Freight Advisory Committee (OFAC) was appointed to advise the ODOT Director and Oregon Transportation Commission (OTC) on issues, policies and programs that impact multimodal freight mobility in Oregon. This includes identifying high-priority freight mobility projects for consideration in ODOT’s Statewide Transportation Improvement Programs (STIP) and for the ConnectOregon program. The Freight Advisory Committee also advises on transportation policy related to goods movement. ",,Roseann O'Laughlin,503-986-3525,roseann.olaughlin@odot.state.or.us,,"https://www.google.com/maps/place/Chemeketa+Center+for+Business+and+Industry/@44.9454133,-123.0360379,17z/data=!3m1!4b1!4m2!3m1!1s0x54bffe79b4552305:0x3f9ee24f77b1be96",,,,,,,,,http://www.oregon.gov/ODOT/TD/TP/OFAC/201602_Agenda.pdf,,,,
Transportation Department,Rogue Valley Area Commission on Transportation,RVACT,01/12/2016 11:45:00 AM,Grants Pass City Council Chambers, Grants Pass,OR,,Yes,Pat Foley,541-423-1372,pfoley@rvcog.org,,,,,,,,,,,,,,,
Transportation Department,Cascade West Area Commission on Transportation,CWACT,11/26/2015 07:00:00 PM,COG Office, Albany,OR,,,Amy Ramsdell,,Amy.J.Ramsdell@odot.state.or.us,,,,,,,,,,,,,,,
Transportation Department,Oregon Transportation Commission,OTC regular meeting and annual workshop session,11/13/2015 03:00:00 AM,Oregon Gardens Main Lodge, Silverton,OR,See the complete agenda at http://www.oregon.gov/ODOT/COMM/docs/OTCagendaNov2015.pdf.,Yes,Jacque Carlisle,(503) 986-3450,otcadmin@odot.state.or.us,,,,Jacque Carlisle,(503) 986-3450,otcadmin@odot.state.or.us,,,,,,,,,
Transportation Department,Public Transportation Advisory Committee (PTAC),PTAC meetings are typically held the second Monday of every other month from 1:00 p.m. to 4:30 p.m.,11/09/2015 04:30:00 PM,"ODOT Region 2/District 3 facility, 885 Airport Rd. SE, Building X", Salem,OR,PTAC provides a forum for public and special-needs transportation providers within Oregon and provides input regarding significant transportation issues to the Oregon Transportation Commission (OTC) and the ODOT Rail and Public Transit Division (RPTD).,Yes,Casandra Mance,503-986-3669,Casandra.Mance@odot.state.or.us,http://www.oregon.gov/ODOT/PT/Pages/stakeholders/ptac.aspx,http://www.oregon.gov/odot/pt/stakeholders/ptac/maps/odot-facilities.pdf,,Casandra Mance,503-986-3669,Casandra.Mance@odot.state.or.us,,,,,http://www.oregon.gov/ODOT/PT/Pages/stakeholders/ptac.aspx,,,,
Transportation Department,Cascade West Area Commission on Transportation,,10/22/2015 07:00:00 PM,COG Office, Albany,OR,Full Board Meeting,,Amy Ramsdell,,Amy.J.Ramsdell@odot.state.or.us,,,,,,,,,,,,,,,
Transportation Department,Public Transportation Advisory Committee (PTAC),PTAC meetings are typically held the second Monday of every other month from 1:00 p.m. to 4:30 p.m.,09/14/2015 04:30:00 PM,"ODOT Region 2/District 3 facility, 885 Airport Rd. SE, Building X", Salem,OR,PTAC provides a forum for public and special-needs transportation providers within Oregon and provides input regarding significant transportation issues to the Oregon Transportation Commission (OTC) and the ODOT Rail and Public Transit Division (RPTD).,Yes,Casandra Mance,503-986-3669,Casandra.Mance@odot.state.or.us,http://www.oregon.gov/ODOT/PT/Pages/stakeholders/ptac.aspx,http://www.oregon.gov/odot/pt/stakeholders/ptac/maps/odot-facilities.pdf,,Casandra Mance,503-986-3669,Casandra.Mance@odot.state.or.us,,,,,http://www.oregon.gov/ODOT/PT/Pages/stakeholders/ptac.aspx,,,,
Transportation Department,Public Transportation Advisory Committee (PTAC),PTAC meetings are typically held the second Monday of every other month from 1:00 p.m. to 4:30 p.m.,07/13/2015 04:30:00 PM,"ODOT Region 2/District 3 facility, 885 Airport Rd. SE, Building X", Salem,OR,PTAC provides a forum for public and special-needs transportation providers within Oregon and provides input regarding significant transportation issues to the Oregon Transportation Commission (OTC) and the ODOT Rail and Public Transit Division (RPTD).,Yes,Casandra Mance,503-986-3669,Casandra.Mance@odot.state.or.us,http://www.oregon.gov/ODOT/PT/Pages/stakeholders/ptac.aspx,http://www.oregon.gov/odot/pt/stakeholders/ptac/maps/odot-facilities.pdf,,Casandra Mance,503-986-3669,Casandra.Mance@odot.state.or.us,,,,,http://www.oregon.gov/ODOT/PT/Pages/stakeholders/ptac.aspx,,,,
Transportation Department,Central Oregon Area Commission on Transportation,COACT,05/14/2015 07:00:00 PM,"City of Redmond Public Works, 243 E Antler Avenue", Redmond,OR,,,Scott Aycock,,scotta@coic.org,,,,,,,,,,,,,,,
Transportation Department,NW Oregon Area Commission on Transportation,NWACT,05/14/2015 03:30:00 PM,Port of Tillamook Bay's Officers Mess Hall, Tillamook,OR,,,Mary McArthur,,mbmcarthur@nworegon.org,,,,,,,,,,,,,,,
Transportation Department,Public Transportation Advisory Committee (PTAC),PTAC meetings are typically held the second Monday of every other month from 1:00 p.m. to 4:30 p.m.,05/19/2015 04:30:00 PM,"ODOT Region 2/District 3 facility, 885 Airport Rd. SE, Building X", Salem,OR,PTAC provides a forum for public and special-needs transportation providers within Oregon and provides input regarding significant transportation issues to the Oregon Transportation Commission (OTC) and the ODOT Rail and Public Transit Division (RPTD).,Yes,Casandra Mance,503-986-3669,Casandra.Mance@odot.state.or.us,http://www.oregon.gov/ODOT/PT/Pages/stakeholders/ptac.aspx,http://www.oregon.gov/odot/pt/stakeholders/ptac/maps/odot-facilities.pdf,,Casandra Mance,503-986-3669,Casandra.Mance@odot.state.or.us,,,,,http://www.oregon.gov/ODOT/PT/Pages/stakeholders/ptac.aspx,,,,
Transportation Department,Cascade West Area Commission on Transportation,,03/26/2015 07:00:00 PM,COG Office, Albany,OR,,,Amy Ramsdell,,Amy.J.Ramsdell@odot.state.or.us,,,,,,,,,,,,,,,
Transportation Department,Public Transportation Advisory Committee (PTAC),PTAC meetings are typically held the second Monday of every other month from 1:00 p.m. to 4:30 p.m.,03/09/2015 04:30:00 PM,"ODOT Region 2/District 3 facility, 885 Airport Rd. SE, Building X", Salem,OR,PTAC provides a forum for public and special-needs transportation providers within Oregon and provides input regarding significant transportation issues to the Oregon Transportation Commission (OTC) and the ODOT Rail and Public Transit Division (RPTD).,Yes,Casandra Mance,503-986-3669,Casandra.Mance@odot.state.or.us,http://www.oregon.gov/ODOT/PT/Pages/stakeholders/ptac.aspx,http://www.oregon.gov/odot/pt/stakeholders/ptac/maps/odot-facilities.pdf,,Casandra Mance,503-986-3669,Casandra.Mance@odot.state.or.us,,,,,http://www.oregon.gov/ODOT/PT/Pages/stakeholders/ptac.aspx,,,,
Transportation Department,Bicycle and Pedestrian Advisory Committee (OBPAC),OBPAC acts as a liason between the public and ODOT on the bicycle and pedestrian transportation system. ,02/02/2015 04:00:00 PM,ODOT Region 1 Office 123 NW Flanders, Portland,OR,"This committe, appointed by the governor, acts as a liason between the public and ODOT. They advise ODOT in the regulation of bicycle and pedestrian traffic and the establishment of bikeways and walkways. The committee meets quarterly in various locations around the state to listen to the views and concerns of interested citizens, local officials and ODOT Region staff. ** This meeting will focus on the ODOT Legislative Priorities and BTA Legislative Agenda; hear from the NW Skate Coalition, Governor's Transportation Visioning Committe, Boards and Commissions and Connect Oregon V; STIP Enhance 2019-2021; N. Williams Projects.**",Yes,Sheila Lyons,503-986-3555,sheila.a.lyons@odot.state.or.us,,,,Amanda Tucker,503-986-3317,amanda.r.tucker@odot.state.or.us,,,1-888-251-2909,868544,http://www.oregon.gov/ODOT/HWY/BIKEPED/docs/OBPAC_Agenda/OBPAC_02_02_15_Portland.pdf,,,,
Transportation Department,Lower John Day Area Commission on Transportation,LJDACT Meeting,01/05/2015 12:00:00 PM,Bob's Texas T-Bone Restaurant, Rufus,OR,,,Gary Farnsworth,,Gary.C.FARNSWORTH@odot.state.or.us,,,,,,,,,,,,,,,
Transportation Department,Mid Willamette Valley Area Commission on Transportation,MWACT meeting,12/04/2014 05:30:00 PM,"MWVCOG, 100 High Street SE, Suite 200",Salem,OR,,,Lori Moore,,lomoore@mwvcog.org,,,,,,,,,,,http://www.oregon.gov/ODOT/COMM/pages/act_mwvact.aspx,,,,
Transportation Department,Southeast Area Commission on Transportation,SEACT,11/24/2014 12:00:00 PM,"John Day Regional Airport, 720 Airport Road", John Day,OR,,,Judy,,judy.moore@geodc.net,,,,,,,,,,,http://www.oregon.gov/ODOT/COMM/pages/act_seact.aspx,,,,
Transportation Department,Public Transportation Advisory Committee (PTAC),This meeting is the third Monday of November. PTAC meetings are typically held the second Monday of every other month from 1:00 p.m. to 4:30 p.m.,11/17/2014 04:30:00 PM,"ODOT Region 2/District 3 facility, 885 Airport Rd. SE, Building X", Salem,OR,PTAC provides a forum for public and special-needs transportation providers within Oregon and provides input regarding significant transportation issues to the Oregon Transportation Commission (OTC) and the ODOT Rail and Public Transit Division (RPTD).,Yes,Casandra Mance,503-986-3669,Casandra.Mance@odot.state.or.us,http://www.oregon.gov/ODOT/PT/Pages/stakeholders/ptac.aspx,http://www.oregon.gov/odot/pt/stakeholders/ptac/maps/odot-facilities.pdf,,Casandra Mance,503-986-3669,Casandra.Mance@odot.state.or.us,,,,,http://www.oregon.gov/ODOT/PT/Pages/stakeholders/ptac.aspx,,,,
Transportation Department,South West Area Commission on Transportation,SWACT,11/14/2014 12:00:00 PM,"Coos County Annex, 201 North Adams", Coquille,OR,,,Lajuana,,lajuana.baldwin@odot.state.or.us,,,,,,,,,,,http://www.oregon.gov/ODOT/COMM/pages/act_swact.aspx,,,,
Transportation Department,Northwest Area Commission on Transportation,NWACT,11/13/2014 03:30:00 PM,Port of Tillamook Bay's Officer Mess Hall, Tillamook,OR,,,Shirley,,ShirleyK@nehalemtel.net,,,,,,,,,,,http://www.nworegon.org/Assets/dept_4/PM/pdf/nwact%20meeting%20packet%20(11-13-14).pdf,,,,
Transportation Department,Lane Area Commission on Transportation,LaneACT,11/12/2014 07:30:00 PM,"McLane Room, Oregon Department of Transportation, Area 5, 644 A Street", Springfield,OR,,,Mary,,MMcGowan@lcog.org,,,,,,,,,,,http://www.oregon.gov/ODOT/COMM/pages/act_lanecounty.aspx,,,,
Transportation Department,Mid-Willamette Valley Area Commission on Transportation,MWACT,11/06/2014 05:00:00 PM,"MWVCOG, 100 High Street NE, Suite 200",Salem,OR,,,Lori,,lomoore@mwvcog.org,,,,,,,,,,,http://www.oregon.gov/ODOT/COMM/pages/act_mwvact.aspx,,,,
Transportation Department,North East Area Commission on Transportation,NEACT ,11/06/2014 12:00:00 PM,"ODOT, 3012 Island Avenue", La Grande,OR,,Yes,Lisa,,Lisa.A.HILL@odot.state.or.us,,,,,,,,,,,http://www.oregon.gov/ODOT/COMM/pages/act_neact.aspx,,,,
Transportation Department,Public Transportation Advisory Committee (PTAC) at Oregon Public Transportation Conference (OPTC),This special PTAC meeting is held at the Oregon Public Transportation Conference (OPTC),10/22/2014 11:00:00 PM,Seaside Civic and Conference Center, Seaside,OR,"PTAC provides a forum for public and special-needs transportation providers within Oregon and provides input regarding significant transportation issues to the Oregon Transportation Commission (OTC) and the ODOT Rail and Public Transit Division (RPTD). You may see http://www.oregon.gov/ODOT/PT/Pages/stakeholders/ptac.aspx or contact Casandra Mance, 503-986-3669, for the actual meeting time.",,Casandra Mance,503-986-3669,Casandra.Mance@odot.state.or.us,http://www.oregon.gov/ODOT/PT/Pages/stakeholders/ptac.aspx,http://www.seasideconvention.com/location.html,,Casandra Mance,503-986-3669,Casandra.Mance@odot.state.or.us,,,,,http://www.oregon.gov/ODOT/PT/Pages/stakeholders/ptac.aspx,,,,
Transportation Department,Lane Area Commission on Transportation,LaneACT,,"ODOT Area 5, 644 A Street", Springfield,OR,,,mary,,mmcgowan@lcog.org,,,,,,,,,,,http://www.oregon.gov/ODOT/COMM/pages/act_lanecounty.aspx,,,,
Transportation Department,LJDACT,Lower John Day Area Commission on Transportation,10/06/2014 12:00:00 PM,Bob's Restaurant, Rufus,OR,,,Gary Farnsworth,,gary.c.farnsworth@odot.state.or.us,,,,,,,,,,,,,,,
Transportation Department,Mid-Willamette Valley Area Commission on Transportation,MWACT Meeting,,"MWVGOC, 100 High Street SE, Suite 100", Salem,OR,,,Lori,,lomoore@mwvcog.org,,,,,,,,,,,http://www.oregon.gov/ODOT/COMM/pages/act_mwvact.aspx,,,,
Transportation Department,South East Area Commission on Transportation,SEACT Meeting,,Harney County Courthouse, Burns,OR,,,Judy,,judy.moore@geodc.net,,,,,,,,,,,http://www.oregon.gov/ODOT/COMM/pages/act_seact.aspx,,,,
Transportation Department,COACT,Central Oregon Area Commission on Transportation,09/11/2014 05:00:00 PM,243 E. Antler Avenue, Redmond,OR,,,Gary Farnsworth,,gary.c.farnsworth@odot.state.or.us,,,,,,,,,,,,,,,
Transportation Department,Public Transportation Advisory Committee (PTAC),PTAC meetings are typically held the second Monday of every other month from 1:00 p.m. to 4:30 p.m.,09/08/2014 04:30:00 PM,"ODOT Region 2/District 3 facility, 885 Airport Rd. SE, Building X", Salem,OR,PTAC provides a forum for public and special-needs transportation providers within Oregon and provides input regarding significant transportation issues to the Oregon Transportation Commission (OTC) and the ODOT Rail and Public Transit Division (RPTD).,Yes,Casandra Mance,503-986-3669,Casandra.Mance@odot.state.or.us,http://www.oregon.gov/ODOT/PT/Pages/stakeholders/ptac.aspx,http://www.oregon.gov/odot/pt/stakeholders/ptac/maps/odot-facilities.pdf,,Casandra Mance,503-986-3669,Casandra.Mance@odot.state.or.us,,,,,http://www.oregon.gov/ODOT/PT/Pages/stakeholders/ptac.aspx,,,,
Transportation Department,South Central Oregon Area Commission on Transportation,SCOACT meeting,,Paisley Community Center, Paisley,OR,,,Pam,,pam@scoedd.org,http://www.oregon.gov/ODOT/COMM/pages/act_centraloregon.aspx,,,,,,,,,,http://www.oregon.gov/ODOT/COMM/pages/act_centraloregon.aspx,,,,
Transportation Department,Mid-Willamette Valley Area Commission on Transportation,MWACT meeting,,"100 High St SE, Suite 200", Salem,OR,,,Lori,,lomoore@mwmvcog.org,http://www.oregon.gov/ODOT/COMM/pages/act_mwvact.aspx,,,,,,,,,,http://www.oregon.gov/ODOT/COMM/pages/act_mwvact.aspx,,,,
Transportation Department,North East Area Commission on Transportation,NEACT,,"ODOT, 3012 Island Avenue", La Grande,OR,,,Lisa,,lisa.a.hill@odot.state.or.us,http://www.oregon.gov/ODOT/COMM/pages/act_neact.aspx,,,,,,,,,,http://www.oregon.gov/ODOT/COMM/pages/act_neact.aspx,,,,
Transportation Department,Public Transportation Advisory Committee (PTAC),PTAC meetings are typically held the second Monday of every other month from 1:00 p.m. to 4:30 p.m.,07/14/2014 04:30:00 PM,"ODOT Region 4 Project Delivery Building 63055 N. Highway 97 Bend, OR 97701",Bend,OR,PTAC provides a forum for public and special-needs transportation providers within Oregon and provides input regarding significant transportation issues to the Oregon Transportation Commission (OTC) and the ODOT Rail and Public Transit Division (RPTD).,Yes,Casandra Mance,503-986-3669,Casandra.Mance@odot.state.or.us,http://www.oregon.gov/ODOT/PT/Pages/stakeholders/ptac.aspx,www.oregon.gov/ODOT/HWY/REGION4/docs/R4Campus.pdf (http://www.oregon.gov/odot/hwy/region4/docs/r4campus.pdf),,Casandra Mance,503-986-3669,Casandra.Mance@odot.state.or.us,,,,,http://www.oregon.gov/ODOT/PT/Pages/stakeholders/ptac.aspx,,,,
Transportation Department,Lower John Day Area Commission on Transportation,LJDACT,,"Condon City Hall, 128 S. Main Street", Condon,OR,,,Teresa,,tgreenfield@co.wheeler.or.us,,,,,,,,,,,http://www.oregon.gov/ODOT/COMM/pages/act_ljdact.aspx,,,,
Transportation Department,Lane Area Commission on Transportation,LaneACT,,"ODOT, 644 A Street", Springfield,OR,,,Mary,,mmcgowan@lcog.org,http://www.oregon.gov/ODOT/COMM/pages/act_lanecounty.aspx,,,,,,,,,,http://www.oregon.gov/ODOT/COMM/pages/act_lanecounty.aspx,,,,
Transportation Department,Mid-Willamette Valley Area Commission on Transportation,MWACT,,"MWVCOG, 100 High Street SE, Suite 200", Salem,OR,,,Lori,,lomoore@mwvcog.org,http://www.oregon.gov/ODOT/COMM/pages/act_mwvact.aspx,,,,,,,,,,http://www.oregon.gov/ODOT/COMM/pages/act_mwvact.aspx,,,,
Transportation Department,Public Transportation Advisory Committee (PTAC),PTAC meetings are typically held the second Monday of every other month from 1:00 p.m. to 4:30 p.m.,05/12/2014 04:30:00 PM,"ODOT Region 2/District 3 facility, 885 Airport Rd. SE, Building X", Salem,OR,PTAC provides a forum for public and special-needs transportation providers within Oregon and provides input regarding significant transportation issues to the Oregon Transportation Commission (OTC) and the ODOT Rail and Public Transit Division (RPTD).,Yes,Casandra Mance,503-986-3669,Casandra.Mance@odot.state.or.us,http://www.oregon.gov/ODOT/PT/Pages/stakeholders/ptac.aspx,http://www.oregon.gov/odot/pt/stakeholders/ptac/maps/odot-facilities.pdf,,Casandra Mance,503-986-3669,Casandra.Mance@odot.state.or.us,,,,,http://www.oregon.gov/ODOT/PT/Pages/stakeholders/ptac.aspx,,,,
Transportation Department,South Central Oregon Area Commission on Transportation,SCOACT meeting,,Malin City Hall. 2432 4th Street, Malin,OR,,,Pam,,pam@scoedd.org,,,,,,,,,,,http://www.oregon.gov/ODOT/COMM/pages/act_centraloregon.aspx,,,,
Transportation Department,COACT,Central Oregon Area Commission on Transportation,05/08/2014 05:00:00 PM,243 E. Antler Avenue, Redmond,OR,,,Gary Farnsworth,,Gary.C.Farnsworth@odot.state.or.us,,,,,,,,,,,http://coic2.org/community-development/central-oregon-area-commission-on-transportation/,,,,
Transportation Department,Mid-Willamette Valley Area Commission on Transportation,MWACT,,"100 High Street SE, Suite 200", Salem,OR,,,Lori,,lomoore@mwmvcog.org,,,,,,,,,,,http://www.oregon.gov/ODOT/COMM/pages/act_mwvact.aspx,,,,
Transportation Department,Lane Area Commission on Transportation,LaneACT,,"ODOT Offices, 644 A Street", Springfield,OR,,,Mary,,mmcgowan@lcog.org,,,,,,,,,,,http://www.oregon.gov/ODOT/COMM/pages/act_lanecounty.aspx,,,,
Transportation Department,Mid-Willamette Valley Area Commission on Transportation,MWVACT,,"100 High St SE, Suite 200", Salem,OR,,,Lori,,lomoore@mwvcog.org,http://www.oregon.gov/ODOT/COMM/pages/act_mwvact.aspx,,,,,,,,,,http://www.oregon.gov/ODOT/COMM/pages/act_mwvact.aspx,,,,
Transportation Department,COACT,Central Oregon Area Commission on Transportation,03/13/2014 05:00:00 PM,716 SW Evergreen Avenue, Redmond,OR,Meeting held at the Redmond City Hall Conference Room,Yes,Gary Farnsworth,,Gary.C.Farnsworth@odot.state.or.us,,,,,,,,,,,http://coic2.org/community-development/central-oregon-area-commission-on-transportation/,,,,
Transportation Department,Central Oregon Area Commission on Transportation,COACT Meeting,,"Redmond City Hall Conference Room, 716 SW Evergreen Ave", Redmond,OR,,,Scott,,scotta@coic.org,http://coic2.org/community-development/central-oregon-area-commission-on-transportation/,,,,,,,,,,http://coic2.org/community-development/central-oregon-area-commission-on-transportation/,,,,
Transportation Department,Public Transportation Advisory Committee (PTAC),PTAC meetings are typically held the second Monday of every other month from 1:00 p.m. to 4:30 p.m.,03/10/2014 04:30:00 PM,"ODOT Region 2/District 3 facility, 885 Airport Rd. SE, Building X", Salem,OR,PTAC provides a forum for public and special-needs transportation providers within Oregon and provides input regarding significant transportation issues to the Oregon Transportation Commission (OTC) and the ODOT Rail and Public Transit Division (RPTD).,Yes,Casandra Mance,503-986-3669,Casandra.Mance@odot.state.or.us,http://www.oregon.gov/ODOT/PT/Pages/stakeholders/ptac.aspx,http://www.oregon.gov/odot/pt/stakeholders/ptac/maps/odot-facilities.pdf,,Casandra Mance,503-986-3669,Casandra.Mance@odot.state.or.us,,,,,http://www.oregon.gov/ODOT/PT/Pages/stakeholders/ptac.aspx,,,,
Transportation Department,South Central Oregon ACT,Area Commission on Transportation,02/14/2014 12:00:00 PM,1301 South G Street, Lakeview,OR,"Meeting held at the BLM Interagency Building

Call In code: 6213140",Yes,Butch Hansen,,Norman.C.Hansen@odot.state.or.us,,,,,,,,,877-298-8255,,,,,,
Transportation Department,Mid-Willamette Valley Area Commission on Transportation,MWACT meeting,,"MWVCOG, 100 High St SE, Suite 200", Salem,OR,,,Lori,,lomoore@mwvcog.org,http://www.oregon.gov/ODOT/COMM/pages/act_mwvact.aspx,,,,,,,,,,http://www.oregon.gov/ODOT/COMM/pages/act_mwvact.aspx,,,,
Transportation Department,North East Area Commission on Transportation,NEACT Meeting,,"Oregon Department of Transportation, 3012 Island Avenue", La Grande,OR,,,Lisa,,lisa.a.hill@odot.state.or.us,http://www.oregon.gov/ODOT/COMM/pages/act_neact.aspx,,,,,,,,,,http://www.oregon.gov/ODOT/COMM/pages/act_neact.aspx,,,,
Transportation Department,Public Transportation Advisory Committee (PTAC),PTAC meetings are typically held the second Monday of every other month from 1:00 p.m. to 4:30 p.m.,01/13/2014 04:00:00 PM,"ODOT Region 2/District 3 facility, 885 Airport Rd. SE, Building X", Salem,OR,PTAC provides a forum for public and special-needs transportation providers within Oregon and provides input regarding significant transportation issues to the Oregon Transportation Commission (OTC) and the ODOT Rail and Public Transit Division (RPTD).,Yes,Casandra Mance,503-986-3669,Casandra.Mance@odot.state.or.us,http://www.oregon.gov/ODOT/PT/Pages/stakeholders/ptac.aspx,http://www.oregon.gov/odot/pt/stakeholders/ptac/maps/odot-facilities.pdf,,Casandra Mance,503-986-3669,Casandra.Mance@odot.state.or.us,,,,,http://www.oregon.gov/ODOT/PT/Pages/stakeholders/ptac.aspx,,,,
Transportation Department,South West Area Commission on Transportation,SWACT Meeting,,"Coos County Annex, 201 N. Adams", Coquille,OR,,,Lajuana,,lajuana.winger@odot.state.or.us,http://www.oregon.gov/ODOT/COMM/pages/act_swact.aspx,,,,,,,,,,http://www.oregon.gov/ODOT/COMM/pages/act_swact.aspx,,,,
Transportation Department,COACT,Central Oregon Area Commission on Transportation,01/09/2014 05:00:00 PM,243 E. Antler Avenue, Redmond,OR,,,Gary Farnsowrth,,Gary.C.Farnsworth@odot.state.or.us,,,,,,,,,,,http://coic2.org/community-development/central-oregon-area-commission-on-transportation/,,,,
Transportation Department,COACT,Central Oregon Area Commission on Transportation,01/09/2014 05:00:00 PM,243 E. Antler Avenue, Redmond,OR,,,Gary Farnsowrth,,Gary.C.Farnsworth@odot.state.or.us,,,,,,,,,,,http://coic2.org/community-development/central-oregon-area-commission-on-transportation/,,,,
Transportation Department,Lane Area Commission on Transportation,LaneACT,01/08/2014 07:30:00 PM,"ODOT Area 5, 644 A Street", Springfield,OR,,yes,Mary,,mmcgowan@lcog.org,http://www.oregon.gov/ODOT/COMM/pages/act_lanecounty.aspx,,,,,,,,,,http://www.oregon.gov/ODOT/COMM/pages/act_lanecounty.aspx,,,,
Transportation Department,Lower John Day Area Commission on Transportation,LJDACT ,,1113 Kelly Avenue, The Dalles,OR,,,Brad,,bradley.k.dehart@odot.state.or.us,http://www.oregon.gov/ODOT/COMM/pages/act_ljdact.aspx,,,,,,,,,,http://www.oregon.gov/ODOT/COMM/pages/act_ljdact.aspx,,,,
Transportation Department,Mid Willamette Valley Area Commission on Transportation,MWACT meeting,11/27/2013 04:34:07 PM,"MWVCOG, 100 High Street",Salem,OR,,,Lori,,lomoore@mwmvcog.org,MWACT website (http://www.oregon.gov/ODOT/COMM/pages/act_mwvact.aspx),,,,,,,MWACT website (http://www.oregon.gov/ODOT/COMM/pages/act_mwvact.aspx),,,MWACT website (http://www.oregon.gov/ODOT/COMM/pages/act_mwvact.aspx),,,,
Transportation Department,Cascades West Area Commission,CWACT,11/29/2013 07:00:00 PM,COG Office, Albany,OR,,,Kassy Bricco,,kassy.m.bricco@odot.state.or.us,,,,,,,,,,,,,,,
Transportation Department,Public Transportation Advisory Committee (PTAC),PTAC meetings are typically held the second Monday of every other month from 1:00 p.m. to 4:30 p.m.,11/18/2013 04:30:00 PM,"ODOT TLC Building, 4040 Fairview Industrial Dr.", Salem,OR,PTAC provides a forum for public and special-needs transportation providers within Oregon and provides input regarding significant transportation issues to the Oregon Transportation Commission and the Public Transit Division.,Yes,Martha Smith,503-986-3416,PTAC@odot.state.or.us,http://www.oregon.gov/ODOT/PT/Pages/about/ptac.aspx,http://www.oregon.gov/ODOT/COMM/PublishingImages/fairview,,Martha Smith,503-986-3416,PTAC@odot.state.or.us,,,,,,,,,
Transportation Department,Central Oregon Area Commission on Transportation,November Board Meeting,11/14/2013 05:00:00 PM,Redmond Public Works Training Room: 243 E Antler Ave, Redmond,OR,,Y,Gary Farnsworth,,Gary.C.Farnsworth@odot.state.or.us,,,,,,,,,,,http://newcoic.files.wordpress.com/2012/08/coact-final-agenda-11-14-13.pdf,,,,
Transportation Department,Lane Area Commission on Transportation,LaneACT,11/13/2013 07:30:00 PM,644 A Street, Springfield,OR,,,Kathi,,KWIEDERHOLD@lcog.org,http://www.oregon.gov/ODOT/COMM/pages/act_lanecounty.aspx,,,,,,,,,,http://www.oregon.gov/ODOT/COMM/pages/act_lanecounty.aspx,,,,
Transportation Department,South Central Oregon Area Commission On Transportation,Full Board ACT Meeting,11/08/2013 02:00:00 PM,"Pacific Crest Federal Credit Union, 2972 Washburn Way", Klamath Falls,OR,,Y,Butch Hansen,,Norman.C.Hansen@odot.state.or.us,,,,,,,,,,,,,,,
Transportation Department,Public Transportation Advisory Committee (PTAC) at OPTC,This is a special meeting. PTAC meetings are typically held the second Monday of every other month from 1:00 p.m. to 4:30 p.m.,10/09/2013 11:00:00 AM,Riverhouse Convention Center, Bend,OR,"PTAC provides a forum for public and special-needs transportation providers within Oregon and provides input regarding significant transportation issues to the Oregon Transportation Commission and the Public Transit Division. This meeting is part of the Oregon Public Transportation Conference in Bend, OR.",Yes,Martha Smith,503-986-3416,PTAC@odot.state.or.us,http://www.oregon.gov/ODOT/PT/Pages/about/ptac.aspx,,,Martha Smith,503-986-3416,PTAC@odot.state.or.us,,,,,,,,,
Transportation Department,Rogue Valley Area Commission on Transportation,RVACT Meeting,,"Grants Pass Courtyard Conference Room, 101 NW ‘A’ Street", Grants Pass,OR,,,Sue,,scasavan@rvcog.org,,,,,,,,,,,http://www.oregon.gov/ODOT/COMM/pages/act_rvact.aspx,,,,
Transportation Department,South West Area Commission on Transportation,SWACT meeting,,"Coos County Annex, 201 N Adams", Coquille,OR,,,Lajuana,,Lajuana.BALDWIN@odot.state.or.us,http://www.oregon.gov/ODOT/COMM/pages/act_swact.aspx,,,,,,,,,,http://www.oregon.gov/ODOT/COMM/pages/act_swact.aspx,,,,
Transportation Department,Central Oregon Area Commission on Transportation,COACT,,"City of Redmond Public Works, 243 E Antler Ave.", Redmond,OR,,,Scott,,scotta@coic.org,http://coic2.org/community-development/central-oregon-area-commission-on-transportation/,,,,,,,,,,http://coic2.org/community-development/central-oregon-area-commission-on-transportation/,,,,
Transportation Department,Cascades West Area Commission,CWACT,09/12/2013 05:00:00 PM,ODOT Reg 2 HQ, Salem,OR,,,Kassy Bricco,,kassy.m.bricco@odot.state.or.us,,,,,,,,,,,,,,,
Transportation Department,Lane Area Commission on Transportation,LaneACT,,"ODOT Area 5. 644 A Street, Springfield", Springfield,OR,,Yes,Kevin,,kevin.r.beckstrom@odot.state.or.us,http://www.oregon.gov/ODOT/COMM/pages/act_lanecounty.aspx,,,,,,,,,,http://www.oregon.gov/ODOT/COMM/pages/act_lanecounty.aspx,,,,
Transportation Department,Public Transportation Advisory Committee (PTAC),PTAC meetings are typically held the second Monday of every other month from 1:00 p.m. to 4:30 p.m.,09/09/2013 04:30:00 PM,"ODOT TLC Building, 4040 Fairview Industrial Dr.", Salem,OR,PTAC provides a forum for public and special-needs transportation providers within Oregon and provides input regarding significant transportation issues to the Oregon Transportation Commission and the Public Transit Division.,Yes,Martha Smith,503-986-3416,PTAC@odot.state.or.us,http://www.oregon.gov/ODOT/PT/Pages/about/ptac.aspx,http://www.oregon.gov/ODOT/COMM/PublishingImages/fairviewmap_w.jpg,,Martha Smith,503-986-3416,PTAC@odot.state.or.us,,,,,http://www.oregon.gov/ODOT/PT/docs/PTAC/2013/2013-08-PTAC-September-2013-Agenda.pdf,,,,
Transportation Department,Cascades West area Commission,CWACT,08/22/2013 05:00:00 PM,1400 Queen Ave, Albany,OR,,,Kassy Bricco,,kassy.m.bricco@odot.state.or.us,,,,,,,,,,,,,,,
Transportation Department,Rogue Valley Area Commission on Transportation,RVACT Meeting,08/13/2013 11:30:00 AM,"ODOT Confrerence Rooms, 100 Antelope Road, White City",,OR,,,Pat,,pfoley@rvcog.org,,,,,,,,,,,,,,,
Transportation Department,South West Area Commission on Transportation,SWACT Meeting,08/09/2013 12:00:00 PM,"Coos County Annex, 201 N. Adams", Coquille,OR,,,Lajuana,,Lajuana.Baldwin@odot.state.or.us,,,,,,,,,,,,,,,
Transportation Department,Mid_Willamette Valley Area Commission on Transportation,MWACT Meeting,,"100 High Street SE, Suite 200", Salem,OR,,,Lori,,lomoore@mwvcog.org,,,,,,,,,,,,,,,
Transportation Department,Public Transportation Advisory Committee (PTAC),PTAC meetings are typically held the second Monday of every other month from 1:00 p.m. to 4:30 p.m.,07/08/2013 04:30:00 PM,"ODOT TLC Building, 4040 Fairview Industrial Dr.", Salem,OR,PTAC provides a forum for public and special-needs transportation providers within Oregon and provides input regarding significant transportation issues to the Oregon Transportation Commission and the Public Transit Division.,Yes,Martha Smith,503-986-3416,PTAC@odot.state.or.us,,,,Martha Smith,503-986-3416,PTAC@odot.state.or.us,,,,,,,,,
Transportation Department,Mid Willamette Valley Area Commission on Transportation,MWACT Meeting,,"100 High St. SE, Suite 200", Salem,OR,,,Lori,,lomoore@mwvcog.org,,,,,,,,,,,,,,,
Transportation Department,North East Area Commission on Transportation,NEACT Meeting,,3012 Island Avenue, La Grande,OR,,,Lisa,(541) 963-3179,lisa.a.hill@odot.state.or.us,,,,,,,,,,,,,,,
Transportation Department,South East Area Commission on Transportation,SEACT Meeting,,Teleconference, Pendleton,OR,"Teleconference:
Phone in - 866-590-5055
Participant Code - 815388",,Karen,,karen.kendall@geodc.net,,,,,,,,,866-590-5055,815388,,,,,
Transportation Department,Public Transportation Advisory Committee (PTAC),PTAC meetings are typically held the second Monday of every other month from 1:00 p.m. to 4:30 p.m.,05/13/2013 04:30:00 PM,"ODOT TLC Building, 4040 Fairview Industrial Dr.", Salem,OR,PTAC provides a forum for public and special-needs transportation providers within Oregon and provides input regarding significant transportation issues to the Oregon Transportation Commission and the Public Transit Division.,Yes,Martha Smith,503-986-3416,PTAC@odot.state.or.us,http://www.oregon.gov/ODOT/PT/Pages/about/ptac.aspx,,,Martha Smith,503-986-3416,PTAC@odot.state.or.us,,,,,,,,,
Transportation Department,South West Area Commission on Transportation,SWACT,,"Port of Coos Bay Conference Room, 125 Central Ave ", Coos Bay,OR,,,Lajuana,,Lajuana.Baldwin@odot.state.or.us,,,,,,,,,,,,,,,
Transportation Department,Central Oregon Area Commission on Transportation,COACT,,"City of Redmond Public Works Training Room, 243 E. Antler Avenue", Redmond,OR,,,Andrew,,aspreadborough@coic.org,,,,,,,,,,,,,,,
Transportation Department,Northwest Oregon Area Commission on Transportation,NWACT meeting,,"Guy Boyington Building, 857 Commercial St", Astoria,OR,,,Mary,,mbmcarthur@nworegon.org,,,,,,,,,,,,,,,
Transportation Department,Lane Area Commission on Transportation,LaneACT,,"Oregon Department of Transportation, Area 5, 644 A Street", Springfield,OR,,yes,Stacy,,sclauson@lcog.org,,,,,,,true,,,,,,,,
Transportation Department,Mid Willamette Valley Area Commission on Transportation,MWACT,,"MWVCOG, 100 High St. SE, Suite 200", Salem,OR,,,Lori,,lomoore@mwvcog.org,,,,,,,,,,,,,,,
Transportation Department,North East Area Commission on Transportation,NEACT meeting,,3012 Island Avenue, La Grande,OR,,,Lisa,,lisa.a.hill@odot.state.or.us,,,,,,,,,,,,,,,
Transportation Department,Cascades West Area Commission on Transportation,CWACT Meeting,03/28/2013 07:00:00 PM,1400 Queen Ave. SE, Albany,OR,,,C.Wahl,,carla.s.wahl@odot.state.or.us,,,,,,,,,,,,,,,
Transportation Department,South East Area Commission on Transportation,SEACT meeting,,"Grant County Regional Airport, Conference Room, 720 Airport Rd ", John Day,OR,,,Judy,,judy.moore@geodc.net,,,,,,,,,,,,,,,
Transportation Department,Central Oregon Area Commission on Transportation,COACT Meeting,,"City of Redmond Public Works Training Room, 243 E Antler Drive", Redmond,OR,,,Andrew,,aspreadborough@coic.org,,,,,,,,,,,,,,,
Transportation Department,Lane Area Commission on Transportation,Meeting to discuss transportation within Lane County area,03/13/2013 07:30:00 PM,644 A Street, Springfield,OR,,,Savannah Crawford,,savannah.crawford@odot.state.or.us,,,,,,,,,,,,,,,
Transportation Department,Rogue Valley Area Commission on Transportation,RVACT Meeting,,"Grants Pass City Council Chambers, 101 NW A Street", Grants Pass,OR,,,Pat,,pfoley@rvcog.org,,,,,,,,,,,,,,,
Transportation Department,Public Transportation Advisory Committee (PTAC),PTAC meetings are typically held the second Monday of every other month from 1:00 p.m. to 4:30 p.m.,03/11/2013 04:30:00 PM,"ODOT TLC Building, 4040 Fairview Industrial Dr.", Salem,OR,PTAC provides a forum for public and special-needs transportation providers within Oregon and provides input regarding significant transportation issues to the Oregon Transportation Commission and the Public Transit Division.,Yes,Martha Smith,503-986-3416,PTAC@odot.state.or.us,http://www.oregon.gov/ODOT/PT/Pages/about/ptac.aspx,,,Martha Smith,503-986-3416,PTAC@odot.state.or.us,,,,,,,,,
Transportation Department,Mid-Willamette Valley Area Commission on Transportation,MWACT meeting,,"MWVCOG, 100 High Street SE, Suite 200", Salem,OR,,Yes,Lori,,lomoore@mwvcog.org,,,,,,,,,,,,,,,
Transportation Department,Cascades West Area Commission on Transportation ,CWACT Meeting,02/28/2013 07:00:00 PM,1400 Queen Ave. SE, Albany,OR,,,C.Wahl,,carla.s.wahl@odot.state.or.us,,,,,,,,,,,,,,,
Transportation Department,Lane Area Commission on Transportation,Meeting to discuss transportation within Lane County Area,02/13/2013 07:30:00 PM,644 A Street, Springfield,OR,LaneACT.ORG,,Savannah Crawford,,savannah.crawford@odot.state.or.us,,,,,,,,,,,,,,,
Transportation Department,Central Oregon Area Commission on Transportation,COACT Exec Meeting,,"City of Redmond Public Works, 243 East Antler", Redmond,OR,,,Gary,,gary.c.farnsworth@odot.state.or.us,http://coic2.org/community-development/central-oregon-area-commission-on-transportation/,,,,,,,,,,,,,,
Transportation Department,Mid-Willamette Valley Area Commission on Transportation,MWACT Meeting,,"MWCCOG, 100 High St SE, Suite 200", Salem,OR,,Yes,Lori,,lomoore@mwvgoc.org,,,,,,,,,,,,,,,
Transportation Department,North East Area Commission on Transportation,NEACT Meeting,,3012 Island Road, La Grande,OR,,,Lisa,,Lisa.a.hill@odot.state.or.us,,,,,,,,,,,,,,,
Transportation Department,Rogue Valley Area Commission on Transportation,RVACT Meeting,,"Jackson County Public Works Auditorium, 7520 Table Rock Road, White City",,OR,,,Pat,,pfoley@rvcog.org,,,,,,,,,,,,,,,
Transportation Department,Southeast Area Commission on Transportation,SEACT meeting,,"Harney County Courthouse, 450 N. Buena Vista", Burns,OR,,,Karen,,karen.kendall@geodc.net,,,,,,,,,,,,,,,
Transportation Department,Public Transportation Advisory Committee (PTAC),PTAC meetings are typically held the second Monday of every other month from 1:00 p.m. to 4:30 p.m.,01/14/2013 04:30:00 PM,"ODOT TLC Building, 4040 Fairview Industrial Dr.", Salem,OR,PTAC provides a forum for public and special-needs transportation providers within Oregon and provides input regarding significant transportation issues to the Oregon Transportation Commission and the Public Transit Division.,Yes,Martha Smith,503-986-3416,PTAC@odot.state.or.us,http://www.oregon.gov/ODOT/PT/Pages/about/ptac.aspx,,,Martha Smith,503-986-3416,PTAC@odot.state.or.us,,,,,,,,,
Transportation Department,Central Oregon Area Commission on Transportation,COACT meeting,01/10/2013 05:00:00 PM,City of Redmond Public Works Training Room, Redmond,OR,,,Andrew,,aspreadborough@coic.org,,,,,,,,,,,,,,,
Transportation Department,Northwest Area Commission on Transportation,NWACT meeting,,Scappoose Fire Hall, Scappoose,OR,,Yes,Mary,,nbmcarthur@nworegon.org,,,,,,,,,,,,,,,
Transportation Department,Lane Area Commission on Transportation,LaneACT meeting to discuss transportation topics within Lane County area,01/09/2013 07:30:00 PM,644 A Street, Springfield,OR,Meeting information and materials are posted at www.laneact.org.,,Savannah Crawford,,savannah.crawford@odot.state.or.us,,,,,,,,,,,,,,,
Transportation Department,Lane Area Commission on Transportation,LaneACT,01/09/2013 07:30:00 PM,"ODOT Area 5, 644 A Street", Springfield,OR,,Yes,Stacy,,sclaussen@lcog.org,,,,,,,,,,,,,,,
Transportation Department,Rogue Valley Area Commission on Transportation,RCVACT meeting,01/08/2013 03:30:00 PM,Jackson County Public Works Auditorium,,OR,,,Pat,,pfoley@rvcog.org,,,,,,,,,,,,,,,
Transportation Department,Lower John Day Area Commission on Transportation,LJDACT,,Bob's Texas T-Bone Restaurant, Rufus,OR,,,Brad,,bradley.k.dehart@odot.state.or.us,,,,,,,,,,,,,,,
Transportation Department,Lane Area Commission on Transportation,LaneACT meeting to discuss transportation topics within Lane County area,12/12/2012 07:30:00 PM,644 A Street, Springfield,OR,Meeting information and materials are posted at www.laneact.org.,,Savannah Crawford,,savannah.crawford@odot.state.or.us,,,,,,,,,,,,,,,
Transportation Department,Cascade West Area Commission on Transportation,CWACT,12/06/2012 07:00:00 PM,Albany COG Office, Albany,OR,,,C.Wahl,,carla.s.wahl@odot.state.or.us,,,,,,,,,,,,,,,
Transportation Department,South East Area Commission on Transportation,SEACT meeting,,Malheur County Economic Development Office, Ontario,OR,,,Karen,,karen.kendall@geodc.net,,,,,,,,,,,,,,,
Transportation Department,Public Transportation Advisory Committee (PTAC),PTAC meetings are typically held the second Monday of every other month from 1:00 p.m. to 4:30 p.m.,11/19/2012 04:30:00 PM,http://www.oregon.gov/ODOT/PT/Pages/about/PTAC/archived-meetings.aspx, Salem,OR,PTAC provides a forum for public and special-needs transportation providers within Oregon and provides input regarding significant transportation issues to the Oregon Transportation Commission and the Public Transit Division.,Yes,Martha Smith,503-986-3416,PTAC@odot.state.or.us,http://www.oregon.gov/ODOT/PT/Pages/about/ptac.aspx,,,,,,,,,,,,,,
Transportation Department,Lane Area Commission on Transportation,LaneACT meeting to discuss transportation topics within Lane County area,11/14/2012 07:30:00 PM,644 A Street, Springfield,OR,Meeting information and materials are posted at www.laneact.org.,,Savannah Crawford,,savannah.crawford@odot.state.or.us,,,,,,,,,,,,,,,
Transportation Department,Rogue Valley Area Commission on Transportation,RVACT Meeting,,"ODOT Conference Rooms, 100 Antelope Drive",,OR,,,Pat,,pfoley@rvcog.org,,,,,,,,,,,,,,,
Transportation Department,South West Area Commission on Transportation,SWACT meeting,,"Coquille Annex, 201 N. Adams", Coquille,OR,,,Lajuana,,lajuana.baldwin@odot.state.or.us,,,,,,,,,,,,,,,
Transportation Department,Central Oregon Area Commission on Transportation,COACT Meeting,,"City of Redmond Public Works, 243 E Antler Ave", Redmond,OR,,,Gary,,gary.c.farnsworth@odot.state.or.us,,,,,,,,,,,,,,,
Transportation Department,Northwest Oregon Area Commission on Transportation,NWACT meeting,,"Clatsop Community College, Columbia Hall, Room 219", Astoria,OR,,,Mary,,mbmcarthur@nworegon.org,,,,,,,,,,,,,,,
Transportation Department,Northwest Area Commission on Transportation,"NWACT chartered to assist OTC with transportation related issues in Columbia, Clatsop, Tillamook, and Western Washington Counties.",11/08/2012 04:00:00 PM,Clatsop Community College, Astoria,OR,,,Mary McArthur,503-228-5565,mbmcarthur@comcast.net,,,,,,,,,,,,,,,
Transportation Department,Lower John Day Area Commission on Transportation,Lower John Day ACT meeting,,Bob's Texas T-Bone, Rufus,OR,,,Brad,,Bradley.k.dehart@odot.state.or.us,,,,,,,,,,,,,,,
Transportation Department,Mid-Willamette Valley Area Commission on Transportation,MWACT,,"MWVCOG, 100 High Street SE, Suite 200", Salem,OR,,,Lori,,lomoore@mwvcog.org,,,,,,,,,,,,,,,
Transportation Department,Lane Area Commission on Transportation,LaneACT.org,10/10/2012 07:30:00 PM,644 A Street , Springfield,OR,,,Savannah Crawford,,savannah.crawford@odot.state.or.us,,,,,,,,,,,,,,,
Transportation Department,Lane Area Commission on Transportation,LaneACT,,"McLane Room, ODOT Area 5, 644 A Street", Springfield,OR,,Yes,Stacy,,sclauson@lcog.org,,,,,,,,,,,,,,,
Transportation Department,Mid-Willamette Valley Area Commission on Transportation,MWACT meeting,,"MWVCOG, 100 High Street SE, Suite 200", Salem,OR,,Yes,Kevin,,kevin.r.beckstrom@odot.state.or.us,,,,,,,,,,,,,,,
Transportation Department,North West Area Commission on Transportation ,NWACT meeting,,"Tillamook Bay Community College, 4301 3rd Street", Tillamook,OR,,,Mary,,mbmcarthur@nworegon.org,,,,,,,,,,,,,,,
Transportation Department,North East Area Commission on Transportation,NEACT,,"ODOT Region 5 Headquarters, 3012 Island Avenue", La Grande,OR,,Yes,Tom,,thomas.m.strandberg@odot.state.or.us,,,,,,,,,,,,,,,
Transportation Department,South East Area Commission on Transportation,SEACT,,"Grant County Region Airport, 720 Airport Road", John Day,OR,,,Karen,,Karen.kendall@geodc.com,,,,,,,,,,,,,,,
Transportation Department,Northwest Area Commission on Transportation,"NWACT chartered to assist OTC with transportation related issues in Columbia, Clatsop, Tillamook, and Western Washington Counties.",09/13/2012 04:00:00 PM,Rockaway Beach Community Center, Rockaway Beach,OR,,,Mary McArthur,503-228-5565,mbmcarthur@comcast.net,,,,,,,,,,,,,,,
Transportation Department,Rogue Valley Area Commission on Transportation,RVACT meeting,,"Grants Pass City Council Chambers, 101 NW A Street", Grants Pass,OR,,,Art,,arthur.h.anderson@odot.state.or.us,,,,,,,,,,,,,,,
Transportation Department,Mid-Willamette Valley Area Commission on Transportation,MWACT meeting,,"100 High Street SE, Suite 200", Salem,OR,,Yes,Lori Moore,,lomoore@mwmvcog.org,,,,,,,,,,,,,,,
Transportation Department,Lane Area Commission on Transportation,LaneACT meeting,08/08/2012 07:30:00 PM,"McLane Room, ODOT Area 5, 644 A Street", Springfield,OR,,Yes,Stacy Clauson,,sclauson@lcog.org,,,,,,,,,,,,,,,
Transportation Department,Lower John Day Area Commission on Transportation,Lower John Day ACT,,Bob's Texas T-Bone, Rufus,OR,,,Kelly Bailey,,kelly.a.bailey@odot.state.or.us,,,,,,,,,,,,,,,
Transportation Department,Mid-Willamette Valley Area Commission on Transportation,MWACT meeting,,"Keizer Civic Center, 930 Chemawa Rd. NE", Keizer,OR,,Yes,Lori Moore,,lomoore@mwvcog.org,,,,,,,,,,,,,,,
Transportation Department,NEACT meeting,North East Area Commission on Transportation,,3012 Island Avenue, La Grande,OR,,,Lisa Hill,,lisa.a.hill@odot.state.or.us,,,,,,,,,,,,,,,
Transportation Department,SEACT July Meeting,South East Area Commission on Transportation,,Harney County Courthouse, Burns,OR,"Start time is 10 a.m. PDT, 11 a.m. MDT.",Yes,Karen Kendall,,karen.kendall@geodc.net,,,,,,,,,,,,,,,
Transportation Department,Central Oregon Area Commission on Transportation,COACT regular meeting,07/12/2012 05:00:00 PM,Redmond City Hall Conference Room, Redmond,OR,,Yes,Andrew Spreadborough,,aspreadborough@coic.org,,http://www.coic.org/cd/coact.htm,,,,,,,,,,,,,
Transportation Department,Northwest Oregon Area Commission on Transportation,NWACT regular meeting,,"Banks Fire Hall, 300 South Main Street", Banks,OR,,,Mary McArthur,,mbmcarthur@comcast.net,,,,,,,,,,,,,,,
Transportation Department,Northwest Area Commission on Transportation,"NWACT chartered to assist OTC with transportation related issues in Columbia, Clatsop, Tillamook, and Western Washington Counties.",07/12/2012 04:00:00 PM,Banks Fire Hall, Banks,OR,,,Mary McArthur,503-228-5565,mbmcarthur@comcast.net,,,,,,,,,,,,,,,
Transportation Department,Public Transportation Advisory Committee (PTAC),PTAC meetings are typically held the second Monday of every other month from 1:00 p.m. to 4:30 p.m.,07/09/2012 04:30:00 PM,http://www.oregon.gov/ODOT/PT/Pages/about/PTAC/archived-meetings.aspx, Salem,OR,PTAC provides a forum for public and special-needs transportation providers within Oregon and provides input regarding significant transportation issues to the Oregon Transportation Commission and the Public Transit Division.,Yes,Martha Smith,503-986-3416,PTAC@odot.state.or.us,http://www.oregon.gov/ODOT/PT/Pages/about/ptac.aspx,,,,,,,,,,,,,,
Transportation Department,Lane Area Commission on Transportation,Lane ACT,,"ODOT Area 5, 644 A Street", Springfield,OR,,,Paula Taylor,,ptaylor@lcog.org,,,,,,,,,,,,,,,
Transportation Department,Rogue Valley Area Commission on Transportation,RVACT meeting,,"ODOT Conference Rooms B & C, 100 Antelope Road",,OR,,,Pat Foley,,pfoley@rvcog.org,,,,,,,,,,,,,,,
Transportation Department,Mid-Willamette Valley Area Commission on Transportation,MWACT meeting,,"Keizer Civic Center, 930 Chemawa Road NE", Keizer,OR,,Yes,Lori Moore,,lomoore@mwvcog.org,,,,,,,,,,,,,,,
Transportation Department,Cascades West Area Commission on Transportation,CWACT,05/24/2012 07:00:00 PM,1400 Queen Ave., Albany,OR,,,Carla Wahl,,carla.s.wahl@odot.state.or.us,,,,,,,,,,,,,,,
Transportation Department,Public Transportation Advisory Committee (PTAC),PTAC meetings are typically held the second Monday of every other month from 1:00 p.m. to 4:30 p.m.,05/14/2012 04:30:00 PM,http://www.oregon.gov/ODOT/PT/Pages/about/PTAC/archived-meetings.aspx, Salem,OR,PTAC provides a forum for public and special-needs transportation providers within Oregon and provides input regarding significant transportation issues to the Oregon Transportation Commission and the Public Transit Division.,Yes,Martha Smith,503-986-3416,PTAC@odot.state.or.us,http://www.oregon.gov/ODOT/PT/Pages/about/ptac.aspx,,,,,,,,,,,,,,
Transportation Department,Northwest Oregon Area Commission on Transportation,NWACT regular meeting,05/10/2012 03:30:00 PM,"Clatsop Community College, Columbia Hall Room 219, 1651 Lexington Ave.", Astoria,OR,,,Mary McArthur,,mbmcarthur@nworegon.org,,,,,,,,,,,,,,,
Transportation Department,North East Area Commission on Transportation,Meeting of NEACT,,"ODOT Region 5, 3012 Island Avenue", La Grande,OR,,,Lisa Hill,,lisa.a.hill@odot.state.or.us,,,,,,,,,,,,,,,
Transportation Department,Cascade West Area Commission on Transportation,CWACT,04/26/2012 07:00:00 PM,1400 Queen Ave. SE Albany, Albany,OR,,,Carla Wahl,,carla.s.wahl@odot.state.or.us,,,,,,,,,,,,,,,
Transportation Department,Cascades West Area Commission on Transportation,CWACT,04/26/2012 07:00:00 PM,"1400 Queen Ave. SE, Suite 205A", Corvallis,OR,,,Carla Wahl,,carla.s.wahl@odot.state.or.us,,,,,,,,,,,,,,,
Transportation Department,NWACT Meeting,April meeting of the NW Area Commission on Transportation,,Tillamook Bay Community College, Tillamook,OR,Reviewing and prioritizing ConnectOregon IV applications,,Mary McArthur,,mbmcarthur@comcast.net,,,,,,,,,,,,,,,
Transportation Department,Northwest Area Commission on Transportation,"NWACT chartered to assist OTC with transportation related issues in Columbia, Clatsop, Tillamook, and Western Washington Counties.",04/26/2012 03:00:00 PM,Tillamook Bay Community College, Tillamook,OR,NWACT will hear presentations from ConnectOregon IV applicants.  After hearing presentations commission members will rank COIV applications and forward onto Region 2.,,Mary McArthur,503-228-5565,mbmcarthur@comcast.net,,,,,,,,,,,,,,,
Transportation Department,Central Oregon Area Commission on Transportation,Regular meeting of the COAT,,2363 SW Glacier Place, Redmond,OR,,Yes,Gary Farnsworth,,gary.c.farnsworth@odot.state.or.us,,,,,,,,,,,,,,,
Transportation Department,Cascades West Area Commission on Transportation,CWACT TAC,04/11/2012 03:30:00 PM,"1400 Queen Ave. SE, Suite 205A", Corvallis,OR,,,Carla Wahl,,carla.s.wahl@odot.state.or.us,,,,,,,,,,,,,,,
Transportation Department,South Central Oregon Area Commission on Transportation,Regular meeting of the SCOACT,,"Klamath County, CommissionerÛªs Hearing Room, 305 Main Street, Room #219", Klamath Falls,OR,,Yes,Butch Hansen,,norman.c.hansen@odot.state.or.us,,,,,,,,,,,,,,,
Transportation Department,Mid Willamette Valley Area Commission on Transportation,Regular meeting of the MWACT,,"Keizer Civic Center, 930 Chemawa Rd. NE", Keizer,OR,,Yes,Lori Moore,,lomoore@mwvcog.org,,,,,,,,,,,,,,,
Transportation Department,Cascades West Area Commission on Transportation,CWACT,03/22/2012 07:00:00 PM,Oregon Cascades West COG offices , Corvallis,OR,,,Carla Wahl,,carla.s.wahl@odot.state.or.us,,,,,,,,,,,,,,,
Transportation Department,Lane Area Commission on Transportation,Regular meeting of the Lane ACT,,"ODOT Area 5, 644 A Street", Springfield,OR,,Yes,Paula Taylor,,ptaylor@lcog.org,,,,,,,,,,,,,,,
Transportation Department,Public Transportation Advisory Committee (PTAC),PTAC meetings are typically held the second Monday of every other month from 1:00 p.m. to 4:30 p.m.,03/12/2012 04:30:00 PM,http://www.oregon.gov/ODOT/PT/Pages/about/PTAC/archived-meetings.aspx, Salem,OR,PTAC provides a forum for public and special-needs transportation providers within Oregon and provides input regarding significant transportation issues to the Oregon Transportation Commission and the Public Transit Division.,Yes,Martha Smith,503-986-3416,PTAC@odot.state.or.us,http://www.oregon.gov/ODOT/PT/Pages/about/ptac.aspx,,,,,,,,,,,,,,
Transportation Department,Public Transportation Advisory Committee meeting,The purpose of PTAC is to provide a regular forum for transportation providers and stakeholders for discussing and identifying public transportation issues and solutions.,03/12/2012 04:00:00 PM,"Public Utilities Commission Building, 550 Capitol St NE", Salem,OR,"This group helps improve public transit services by sharing their valuable experience, expertise, perspectives, and contacts with the Public Transit Division.  The agenda, forum and related efforts are developed with PTAC and staff input.  PTAC provides input to the OTC on issues of regional and statewide significance affecting public transportation.",Yes,Dinah Van Der Hyde,503-986-3885,dinah.vanderhyde@odot.state.or.us,http://www.oregon.gov/ODOT/pt,,,,,,,,,,,,,,
Transportation Department,SWACT,South West Area Commission on Transportation,03/09/2012 12:00:00 PM,Coos County Annex, Coquille,OR,,,Lajuana Baldwin,541-396-3707,lajuana.baldwin@odot.state.or.us,,,,Lajuana Baldwin,541-396-3707,lajuana.baldwin@odot.state.or.us,,,,,,,,,
Transportation Department,Lower John Day Area Commission on Transportation,Regular meeting of the Lower John Day ACT,,Bob's Texas T-Bone, Rufus,OR,,Yes,Kelly Bailey,,kelly.a.bailey@odot.state.or.us,,,,,,,,,,,,,,,
Transportation Department,South Central Oregon Area Commission on Transportation,Regular meeting of the SCOACT ,02/03/2012 02:30:00 PM,"Lake County Courthouse Memorial Hall, 513 Center Street", Lakeview,OR,,Yes,Sara Griffiths,,sara@scoedd.org,,,,,,,,,,,,,,,
Transportation Department,Central Oregon Area Commission on Transportation,COACT Executive Meeting,,2363 SW Glacier Place, Redmond,OR,,Yes,Kelly Bailey,,kelly.a.bailey@odot.state.or.us,,,,,,,,,,,,,,,
Transportation Department,Mid-Willamette Valley Area Commission on Transportation,Regular meeting of the MWACT,,"Keizer Civic Center, 930 Chemawa Rd NE", Keizer,OR,,Yes,Lori Moore,(503) 588-6177,lomoore@mwvcog.org,,,,,,,,,,,,,,,
Transportation Department,North East Area Commission on Transportation,Regular meeting of the NEACT,,3012 Island Avenue, La Grande,OR,,Yes,Lisa Hill,(541) 963-3179,lisa.a.hill@odot.state.or.us,,,,,,,,,,,,,,,
Transportation Department,South East Area Commission on Transportation,Regular meeting of the SEACT,,"Malheur County Economic Development Office, 316 NE Goodfellow St, Suite 2", Ontario,OR,"SEACT represents Grant, Harney and Malheur Counties.",Yes,Karen Kendall,(541) 276-6745,karen.kendall@geodc.net,,,,,,,,,,,,"316 Goodfellow St
Ontario, OR
(44.027547086725, -116.943423178483)",60,30,2408
Transportation Department,Central Oregon Area Commission on Transportation,Regular meeting of the COACT,01/12/2012 05:00:00 PM,"COIC Redmond Admin, Upstairs Board Room, 2363 SW Glacier Place", Redmond,OR,,Yes,Andrew Spreadborough,(541) 504-3306,apreadborough@coic.org,http://www.coic.org/cd/coact.htm,,,,,,,,,,,"COIC Redmond Admin Upstairs Board Room 2363 Glacier Place Redmond OR, SW
(44.272539999621, -121.175640000386)",53,27,2362
Transportation Department,Northwest Oregon Area Commission on Transportation,Regular NWACT meeting,01/12/2012 03:30:00 PM,"Scappoose Fire Hall, 52751 Columbia River Highway", Scappoose,OR,"NWACT is an advisory group to the Oregon Transportation Commission
",Yes,Mary McArthur,(503) 970-3336,mbmcarthur@att.net,,,,,,,,,,,,"52751 Columbia River Highway
Scappoose, OR
(45.760973394399, -122.878477077284)",31,16,2319
Transportation Department,South Central Oregon Area Commission on Transportation,SCOAT is an advisory group to the Oregon Transportation Commission,01/06/2012 03:30:00 PM,"Memorial Hall, Lake County Court House, 513 Center Street", Lakeview,OR,Executive board meeting of the SCOACT. This meeting will be held as a conference call.,Yes,Sara Griffiths,,sara@scoedd.org,,,,,,,,,,,,"Memorial Hall Lake County Court House 513 Center Street Lakeview, OR
(42.189069999881, -120.345980000277)",56,28,2370
Transportation Department,Public Transportation Advisory Committee (PTAC),PTAC meetings are typically held the second Monday of every other month from 1:00 p.m. to 4:30 p.m.,09/12/2011 04:30:00 PM,http://www.oregon.gov/ODOT/PT/Pages/about/PTAC/archived-meetings.aspx, Salem,OR,PTAC provides a forum for public and special-needs transportation providers within Oregon and provides input regarding significant transportation issues to the Oregon Transportation Commission and the Public Transit Division.,Yes,Martha Smith,503-986-3416,PTAC@odot.state.or.us,http://www.oregon.gov/ODOT/PT/Pages/about/ptac.aspx,,,,,,,,,,,,,,
Transportation Department,Public Transportation Advisory Committee (PTAC),PTAC meetings are typically held the second Monday of every other month from 1:00 p.m. to 4:30 p.m.,05/09/2011 04:30:00 PM,http://www.oregon.gov/ODOT/PT/Pages/about/PTAC/archived-meetings.aspx, Salem,OR,PTAC provides a forum for public and special-needs transportation providers within Oregon and provides input regarding significant transportation issues to the Oregon Transportation Commission and the Public Transit Division,Yes,Martha Smith,503-986-3416,PTAC@odot.state.or.us,http://www.oregon.gov/ODOT/PT/Pages/about/ptac.aspx,,,,,,,,,,,,,,
