"Agency, Board, Commission, Branch",Meeting Title,Short Description,Start Date & Time,End Date & Time,Meeting Location,City,State,Details,Public Comment Accepted,Contact Name,Phone Number,Contact Email,Web Link (optional),Map Link,Calendar Link,ADA Contact,ADA Contact Phone,ADA Contact Email,Webinar/Webcast?,Webinar/Webcast Link,Public Call-In Number,Call-in Access Code,Agenda URL,Owner,Agenda Upload,Map Location,Weblink to Meeting Minutes/Summaries,Agenda Download,2010 House Districts,2010 Senate Districts,Counties
"Geology and Mineral Industries, Oregon Department of",Calico Grassy Mountain Project - Project Coordinating Committee (PCC),,02/12/2020 01:00:00 PM,02/12/2020 04:30:00 PM,"Four Rivers Cultural Center, Malheur River Room, 676 SW 5th Ave.", Ontario,OR,"The Project Coordinating Committee (PCC) for the Calico Resources proposed gold mine in Malheur County is scheduled to meet by phone and in person on February 12, 2020, from 1:00 pm – 4:30 pm Mountain Time (Noon – 3:30 pm Pacific). 

The PCC is an interdisciplinary team of agencies sharing information and coordinating county, state and federal permitting requirements, to facilitate exchange of ideas, optimize communication, and avoid contradictions or duplications.

The public may listen to the meeting in person at the Four Rivers Cultural Center, in the Malheur River Room, at 676 SW 5th Ave, Ontario, Oregon or by phone. To listen by phone dial (866) 434-5269 and enter the access code (8863532#).

Meeting materials may also be presented online at: www.webmeeting.att.com (Meeting number 866-434-",yes,mlrr.info@oregon.gov,,mlrr.info@oregon.gov,,,,mlrr.info@oregon.gov,541-967-2083,mlrr.info@oregon.gov,,,,,,,,,,,,,
"Geology and Mineral Industries, Oregon Department of",Calico Resources USA Technical Review Team (TRT) Meeting,,02/14/2020 09:30:00 AM,02/14/2020 11:00:00 AM,"DOGAMI Mineral Land Regulation & Reclamation Office, 229 Broadalbin Street SW",Albany,OR,"The Technical Review Team (TRT) for the Calico Resources proposed gold mine in Malheur County is scheduled to meet by phone and in person on February 14, 2020 from 9:30 am – 11:00 am (PST). The TRT is an inter-disciplinary team of state agencies that reviews information related to a proposed mine during all phases of the application process, and ultimately develops consolidated permit conditions that conform to Oregon regulations.

The public may listen to the meeting in person at the Oregon Department of Geology and Mineral Industries (DOGAMI) Mineral Land Regulation & Reclamation Office at 229 Broadalbin Street SW, Albany, Oregon 97321 or by phone. To listen by phone dial 1 (866) 434-5269 and enter the access code (8863532#).

Meeting materials may also be presented online at: www.webmeeting.att.com (Meeting number 1-866-434-5269; Access code 8863532). For assistance, please contact the DOGAMI Albany office at (541) 967-2083.

REASONABLE ACCOMMODATION OF DISABILITIES
Reasonable accommodation, such as assisted hearing devices, sign language interpreters, and materials in large print or audiotape, will be provided as requested. In order to ensure availability, please contact the DOGAMI Albany Office at (541) 967-2083 at least 72 hours prior to the meeting to make your request. Services for persons with a hearing or speech disability are available by dialing 711.

PUBLIC MEETING
Technical Review Team (TRT) and subcommittee meetings are public meetings under Oregon’s Public Meeting Law. The meeting will be tape recorded and a summary of the meeting will be prepared. The public is able to listen to the TRT discussion in person or by phone.

ADDITIONAL INFORMATION
More about the Oregon Consolidated Application and Permitting process is posted at: http://www.oregongeology.org/mlrr/chemicalprocessmining.htm",no,mlrr.info@oregon.gov,541-967-2083,mlrr.info@oregon.gov,,,,mlrr.info@oregon.gov,541-967-2083,mlrr.info@oregon.gov,,,,,,,,,,,,,
"Geology and Mineral Industries, Oregon Department of",DOGAMI Governing Board Meeting,,03/09/2020 08:30:00 AM,03/09/2020 12:30:00 PM,"Portland State Office Building (PSOB), 800 NE Oregon St., Suite 965", Portland,OR,"PLEASE NOTE:
AGENDA
The Board meeting will begin at 8:30 a.m. and proceed chronologically through the agenda.

PUBLIC TESTIMONY
If you wish to give testimony on any item scheduled on this agenda, please sign up on the sheets provided on the day of the meeting and you will be called to testify by the Board Chair. The Board places great value on information received from the public. Persons desiring to testify or otherwise present information to the Board are encouraged to:
1. Provide written summaries of information to the Board (7 sets);
2. Limit testimony to 3 minutes, recognizing that substance, not length, determines the value of testimony or written information;
3. Endorse rather than repeat testimony of other witnesses; and
4. Designate one spokesperson whenever possible when groups or organizations wish to testify.

THANK YOU FOR TAKING TIME TO PRESENT YOUR VIEWS
If you bring written materials to the meeting, please provide seven (7) copies. If you have questions regarding this agenda, please contact Lori Calarruda at (971) 673-1537 or you may email her at lori.calarruda@oregon.gov

REASONABLE ACCOMMODATION OF DISABILITIES
Reasonable accommodation, such as assisted hearing devices, sign language interpreters, and materials in large print or audiotape, will be provided as requested. In order to  ensure availability, please contact the Director's Office at (971) 673-1555 at least 72 hours prior to the meeting to make your request.",yes,Lori Calarruda,(971) 673-1537,lori.calarruda@oregon.gov,,,,Lori Calarruda,(971) 673-1537,lori.calarruda@oregon.gov,,,,,https://www.oregongeology.org/about/govboard/boardagenda_3_9_2020.pdf,,,,https://www.oregongeology.org/about/govboard.htm,,,,
"Geology and Mineral Industries, Oregon Department of",Calico Resources USA TECHNICAL REVIEW TEAM- Geochemistry Subcommittee,Calico TRT Geochemistry Subcommittee,01/14/2020 08:30:00 AM,01/14/2020 10:15:00 AM,"Teleconference with public access at the Portland State Office Building, 800 NE Oregon St., Suite 965",Portland,OR,"The Geochemistry Subcommittee of the Technical Review Team (TRT) for the Calico Resources proposed
gold mine in Malheur County is scheduled to meet by phone on January 14, 2020 from 8:30am – 10:15am
(Pacific). The TRT is an interdisciplinary team of state agencies that reviews information related to a proposed
mine during all phases of the application process, and ultimately develops consolidated permit conditions that
conform to Oregon regulations.

The public may listen to the meeting in person at the Oregon Department of Geology and Mineral Industries
(DOGAMI) offices Portland Office at 800 NE Oregon Street, Suite 965, Portland, Oregon 97232 or by phone.
To listen by phone dial (866) 434-5269 and enter the access code (8863532#). 

Public notice:
https://www.oregongeology.org/mlrr/noi/TRT-GCS_PublicNotice_20200114_FINAL.pdf
",no,mlrr.info@oregon.gov,,mlrr.info@oregon.gov,,,,,,,,,,,,,,,,,,,
"Geology and Mineral Industries, Oregon Department of",Calico Resources USA TECHNICAL REVIEW TEAM Meeting,Calico Resources USA TRT Meeting,01/16/2020 01:00:00 PM,01/16/2020 04:00:00 PM,"Teleconference with public access at the Portland State Office Building, 800 NE Oregon St., Suite 965", Portland,OR,"The Technical Review Team (TRT) for the Calico Resources proposed gold mine in Malheur County is
scheduled to meet by phone on January 16, 2020 from 1:00pm – 4:00pm (Pacific). The TRT is an interdisciplinary team of state agencies that reviews information related to a proposed mine during all phases of the
application process, and ultimately develops consolidated permit conditions that conform to Oregon regulations.

The public may listen to the meeting in person at the Oregon Department of Geology and Mineral Industries
Portland Office at 800 NE Oregon Street, Suite 965, Portland, Oregon 97232 or by phone. To listen by phone
dial (866) 434-5269 and enter the access code (8863532#). 

Public notice:
https://www.oregongeology.org/mlrr/noi/TRT_PublicNotice_20200116_FINAL.pdf
",no,mlrr.info@oregon.gov,,mlrr.info@oregon.gov,,,,,,,,,,,,,,,,,,,
"Geology and Mineral Industries, Oregon Department of",Calico Resources USA TECHNICAL REVIEW TEAM – Water Resources Subcommittee,Calico Resources USA TRT Water Resources Subcommittee,01/14/2020 01:30:00 PM,01/14/2020 03:30:00 PM,"Teleconference with public access at the Portland State Office Building, 800 NE Oregon St., Suite 965", Portland,OR,"The Water Resources Subcommittee of the Technical Review Team (TRT) for the Calico Resources
proposed gold mine in Malheur County is scheduled to meet by phone on January 14, 2020 from 1:30pm –
3:30pm (Pacific). The TRT is an interdisciplinary team of state agencies that reviews information related to a
proposed mine during all phases of the application process, and ultimately develops consolidated permit
conditions that conform to Oregon regulations.
The public may listen to the meeting in person at the Oregon Department of Geology and Mineral Industries
(DOGAMI) Portland Office at 800 NE Oregon Street, Suite 965, Portland, Oregon 97232 or by phone. To
listen by phone dial (866) 434-5269 and enter the access code (8863532#). 

Public notice:
https://www.oregongeology.org/mlrr/noi/TRT-WRS_PublicNotice_20200114_FINAL.pdf
",no,mlrr.info@oregon.gov,,mlrr.info@oregon.gov,,,,,,,,,,,,,,,,,,,
"Geology and Mineral Industries, Oregon Department of",Calico Resources USA TECHNICAL REVIEW TEAM – Wildlife Subcommittee,Calico Resources USA TRT Wildlife Subcommittee,01/14/2020 10:30:00 AM,01/14/2020 12:15:00 PM,"Teleconference with public access at the Portland State Office Building, 800 NE Oregon St., Suite 965", Portland,OR,"The Wildlife Subcommittee of the Technical Review Team (TRT) for the Calico Resources proposed gold
mine in Malheur County is scheduled to meet by phone on January 14, 2020 from 10:30am to 12:15pm
(Pacific). The TRT is an interdisciplinary team of state agencies that reviews information related to a proposed
mine during all phases of the application process, and ultimately develops consolidated permit conditions that
conform to Oregon regulations.

The public may listen to the meeting in person at the Oregon Department of Geology and Mineral Industries
(DOGMAI) Portland Office at 800 NE Oregon Street, Suite 965, Portland, Oregon 97232 or by phone. To
listen by phone dial (866) 434-5269 and enter the access code (8863532#). 

Public notice:
https://www.oregongeology.org/mlrr/noi/TRT-WLS_PublicNotice_20200114_FINAL.pdf
",no,mlrr.info@oregon.gov,,mlrr.info@oregon.gov,,,,,,,,,,,,,,,,,,,
"Geology and Mineral Industries, Oregon Department of",DOGAMI Governing Board Meeting,Special Board Meeting,01/10/2020 01:00:00 PM,01/10/2020 03:00:00 PM,"Portland State Office Building (PSOB), 800 NE Oregon St., Suite 965", Portland,OR,,,Lori Calarruda,971-673-1555,dogami-info@oregon.gov,,,,Lori Calarruda,971-673-1555,dogami-info@oregon.gov,,,,,,,,,https://www.oregongeology.org/about/govboard.htm,,,,
"Geology and Mineral Industries, Oregon Department of","CANCELLED: OAR 632, Div. 20 - Notice of Proposed Rulemaking Hearing","OAR 632, Div. 20 - Notice of Proposed Rulemaking Hearing Geothermal Regulations",11/15/2012 10:00:00 AM,11/15/2012 12:00:00 PM,"DOGAMI Albany Office, 229 Broadalbin St., SW", Albany,OR,"11/1/2012: This meeting has been cancelled. OAR 632, Div. 20 - Notice of Proposed Rulemaking Hearing Geothermal Regulations 

Rule caption: Adopt revised rule language that addresses ORS 522 revisions. The last day for public comment is November 28, 2012.

Public Notice: 
http://www.oregongeology.org/mlrr/rules/Div_20_Notice_Rule_Hearing_10-15-12.pdf

Draft Rules: 
http://www.oregongeology.org/mlrr/rules/Div_20_Final_Draft_09-01-12.pdf",yes,ReNeea Gordon,541-976-2051,Reneea.J.Gordon@mlrr.OregonGeology.com,http://www.oregongeology.org/mlrr/regulations.htm,,,,,,,,,,,deb.schueller@dogami.state.or.us,,,,,,,
"Geology and Mineral Industries, Oregon Department of",Calico TRT Meeting,Calico TRT Water Resources Subcommittee Meeting,07/18/2013 10:00:00 AM,07/18/2013 12:00:00 PM,teleconference, Albany,OR,"The Technical Review Team Water Resources Subcommittee for the Calico Resources proposed gold mine in Malheur County is scheduled to meet by phone, July 18, 2013 from 10:00 am - noon (Pacific Time). The meeting may be monitored by the public and interested news media. Contact DOGAMI in Albany at (541) 967-2040 for information on how to monitor the meeting by phone. You will be provided the call-in number when you register. The public and interested news media can also monitor the phone call in person at the DOGAMI Portland offices, 800 NE Oregon, Portland, OR. See agenda link below.",no,Reneea Gordon,(541) 967-2040,ReNeea.J.Gordon@mlrr.oregongeology.com,http://www.oregongeology.org/mlrr/chemicalprocess_Calico-GrassyMtn.htm,,,Reneea Gordon,(541) 967-2040,ReNeea.J.Gordon@mlrr.oregongeology.com,,,,,http://www.oregongeology.org/mlrr/noi/TRT-water-sub-07-18-13agenda.pdf,deb.schueller@dogami.state.or.us,,,,,,,
"Geology and Mineral Industries, Oregon Department of",Governing Board Meeting,DOGAMI Governing Board Meeting,03/22/2013 08:30:00 AM,03/22/2013 12:30:00 PM,"PSOB Suite 965, 800 NE Oregon St.", Portland,OR,See Agenda PDF.,yes,Carol DuVernois,971-673-1544,carol.duvernois@dogami.state.or.us,,,,Carol DuVernois,971-673-1544,carol.duvernois@dogami.state.or.us,,,,,http://www.oregongeology.org/sub/portoff/boardagenda-03-22-13.pdf,deb.schueller@dogami.state.or.us,,,http://www.oregongeology.org/sub/portoff/GovBrdMin.HTM,,,,
"Geology and Mineral Industries, Oregon Department of",Technical Review Team/Water Subcommittee Meeting,Calico Resources USA Technical Review Team/Water Subcommittee Meeting,10/22/2012 12:00:00 PM,10/22/2012 03:00:00 PM,725 Summer Street NE, Salem,OR,"Oregon Consolidated Application and Permitting Process – Chemical Process Mine
Calico Resources USA
Technical Review Team/Water Subcommittee Meeting
October 22, 2012
Water Resources Department – 3rd floor Conference Room
Check in at Water Resources Department front desk to be escorted to the 3rd floor
725 Summer Street NE, Salem, OR 97301
Noon – 3:00 pm - Pacific Daylight Time

The public can monitor the call by phone. The public can monitor the call by phone. To register, contact DOGAMI Offices in Albany at 541/967-2040.

You will be provided the call-in number when you register.
",no,ReNeea Gordon,(541) 967-2051,Reneea.J.Gordon@mlrr.OregonGeology.com,,,,,,,,,,,http://www.oregongeology.org/mlrr/noi/TRT_mtg_water_sub_agenda_10-22-12-DRAFT.pdf,deb.schueller@dogami.state.or.us,,,,,,,
"Geology and Mineral Industries, Oregon Department of",DOGAMI Governing Board Meeting,Oregon Department of Geology and Mineral Industries Governing Board Meeting,06/29/2012 08:30:00 AM,,"800 NE Oregon St., Ste. 965", Portland,OR,,,Carol DuVernois,,carol.duvernois@dogami.state.or.us,,,,,,,,,,,http://www.oregongeology.org/sub/portoff/boardagenda-06-29-2012.pdf,deb.schueller@dogami.state.or.us,,,,,,,
"Geology and Mineral Industries, Oregon Department of",DOGAMI Governing Board Meeting,DOGAMI Governing Board Meeting,04/23/2012 12:00:00 PM,,Teleconference, Portland,,"If you wish to attend this meeting by teleconference, please phone (201) 368 9209 and enter Participant code 225517.",,Carol DuVernois,(971) 673-1544,carol.duvernois@dogami.state.or.us,http://www.oregongeology.org/sub/portoff/GovBrd.HTM,,,Carol DuVernois,(971) 673-1544,carol.duvernois@dogami.state.or.us,,,(201) 368 9209,225517,http://www.oregongeology.org/sub/portoff/boardagenda-04-23-12.pdf,deb.schueller@dogami.state.or.us,,,,,,,
"Geology and Mineral Industries, Oregon Department of",Calico TRT meeting,Technical Review Team Water Resources Subcommittee Meeting,01/22/2014 02:00:00 PM,01/22/2014 04:00:00 PM,telephone conference call, Albany,OR,"The public can monitor the call by phone. To register, contact DOGAMI Offices in Albany at 541-967-2040. You will be provided the call-in number when you register. The public can also monitor the call in person from the DOGAMI Portland offices at 800 NE Oregon, Suite 965, Portland, OR.
Also see agenda.",yes,ReNeea Gordon,541-967-2040,Reneea.J.Gordon@mlrr.OregonGeology.com,,,,ReNeea Gordon,541-967-2040,Reneea.J.Gordon@mlrr.OregonGeology.com,,,,,http://www.oregongeology.org/mlrr/noi/TRT-water-sub-01-22-14-agenda.pdf,deb.schueller@dogami.state.or.us,,,,,,,
"Geology and Mineral Industries, Oregon Department of",Calico TRT Meeting,Calico Technical Review Team Meeting,02/25/2013 11:00:00 AM,02/25/2013 04:00:00 PM,"DEQ Salem Offices, 750 Front Street, NE", Salem,OR,"The public can monitor the call by phone. To register, contact the DOGAMI Offices in Albany at 541-967-2040. You will be provided the call-in number when you register.",,ReNeea Gordon,541-967-2051,ReNeea.J.Gordon@mlrr.oregongeology.com,,,,ReNeea Gordon,541-967-2051,ReNeea.J.Gordon@mlrr.oregongeology.com,,,,,http://www.oregongeology.org/mlrr/noi/TRT-agenda-02-25-13-draft-rev.pdf,deb.schueller@dogami.state.or.us,,,,,,,
"Geology and Mineral Industries, Oregon Department of",Calico TRT meeting,Calico Technical Review Team meeting,06/11/2013 11:00:00 AM,06/11/2013 04:00:00 PM,"DEQ offices ÛÒ 750 Front Avenue, NE, Suite 120", Salem,OR,"See agenda link.

The public can monitor the call by phone. To register, contact the DOGAMI Offices in Albany at 541-967-2040. You will be provided the call-in number when you register.",,ReNeea Gordon,(541) 967-2040,ReNeea.J.Gordon@mlrr.oregongeology.com,,,,ReNeea Gordon,(541) 967-2040,ReNeea.J.Gordon@mlrr.oregongeology.com,,,,,http://www.oregongeology.org/mlrr/noi/TRT-agenda-06-11-13.pdf,deb.schueller@dogami.state.or.us,,,,,,,
"Geology and Mineral Industries, Oregon Department of","OAR 632, Div. 10 - Notice of Proposed Rulemaking Hearing","OAR 632, Div. 10 - Notice of Proposed Rulemaking Hearing",11/15/2012 01:00:00 PM,10/26/2012 03:00:00 PM,"DOGAMI Albany Office, 229 Broadalbin St., SW", Albany,OR,"OAR 632, Div. 10 - Notice of Proposed Rulemaking Hearing: Oil and Gas Rules

Rule caption: Adopt revised rule language that addresses ORS 520 revisions.

The last day for public comment is November 28, 2012.

Notice: 
http://www.oregongeology.org/mlrr/rules/Div_10_Notice_Rule_Hearing_10-23-12.pdf

Draft Rules: 
http://www.oregongeology.org/mlrr/rules/Div_10_Final_Draft_09-07-2012.pdf",yes,ReNeea Gordon,541-976-2051,Reneea.J.Gordon@mlrr.OregonGeology.com,http://www.oregongeology.org/mlrr/regulations.htm,,,,,,,,,,,deb.schueller@dogami.state.or.us,,,,,,,
"Geology and Mineral Industries, Oregon Department of","OAR 632, Div. 15 - Notice of Proposed Rulemaking Hearing","OAR 632, Div. 15 - Notice of Proposed Rulemaking Hearing",11/15/2012 03:00:00 PM,11/26/2012 05:00:00 PM,"DOGAMI Albany Office, 229 Broadalbin St., SW", Albany,OR,"OAR 632, Div. 15 - Notice of Proposed Rulemaking Hearing
Oil and Gas Information and Seismic Test Holes

Rule caption: Adopt revised rule language that addresses ORS 520 revisions.

The last day for public comment is November 28, 2012.

Notice: 
http://www.oregongeology.org/mlrr/rules/Div_15_Notice_Rule_Hearing_10-23-12.pdf

Draft Rules: 
http://www.oregongeology.org/mlrr/rules/Div_15_Final_Draft_09-06-12.pdf",yes,ReNeea Gordon,541-976-2051,Reneea.J.Gordon@mlrr.OregonGeology.com,http://www.oregongeology.org/mlrr/regulations.htm,,,,,,,,,,,deb.schueller@dogami.state.or.us,,,,,,,
"Geology and Mineral Industries, Oregon Department of",Calico Resources TRT Meeting,Calico Resources USA Technical Review Team Meeting,03/08/2013 02:00:00 PM,03/08/2013 03:00:00 PM,telephone conference call, Albany,OR,"The public can monitor the call by phone. To register, contact the DOGAMI Offices in Albany at 541/967-2040. You will be provided the call-in number when you register.

The public can also monitor the call in person at the DOGAMI Portland Offices, 800 NE Oregon, Suite 965, Portland, OR 97232.

Also see agenda.",,ReNeea Gordon,(541) 967-2051,ReNeea.J.Gordon@mlrr.oregongeology.com,,,,ReNeea Gordon,(541) 967-2051,ReNeea.J.Gordon@mlrr.oregongeology.com,,,,,http://www.oregongeology.org/mlrr/noi/TRT-agenda-03-08-13-draft.pdf,deb.schueller@dogami.state.or.us,,,,,,,
"Geology and Mineral Industries, Oregon Department of",Governing Board Teleconference,DOGAMI Governing Board Teleconference,02/15/2013 11:00:00 AM,02/15/2013 12:00:00 PM,"800 NE Oregon St, Suite 965", Portland,OR,"If you wish to attend this meeting by teleconference, please phone (201) 368 9209 and enter Participant code 225517. If you wish to attend in person please come to:

Portland State Office Building
800 NE Oregon St, Suite 965
Portland OR 97232",yes,Carol DuVernois,971-673-1544,carol.duvernois@dogami.state.or.us,,http://www.oregongeology.org/sub/portoff/gmap-Portlandoffice.htm,,Carol DuVernois,971-673-1544,carol.duvernois@dogami.state.or.us,,,201-368-9209,225517,http://www.oregongeology.org/sub/portoff/boardagenda-02-15-2013.pdf,deb.schueller@dogami.state.or.us,,,http://www.oregongeology.org/sub/portoff/GovBrdMin.HTM,,,,
"Geology and Mineral Industries, Oregon Department of",Governing Board Meeting,DOGAMI Governing Board Public Meeting,09/28/2012 08:30:00 AM,09/28/2012 12:15:00 PM,"Ontario Community Library, 388 S.W. 2nd Avenue", Ontario,OR,See agenda.,,Carol Duvernois,,carol.duvernois@dogami.state.or.us,,,,Carol Duvernois,,carol.duvernois@dogami.state.or.us,,,,,http://www.oregongeology.org/sub/portoff/boardagenda-09-28-2012.pdf,deb.schueller@dogami.state.or.us,,,http://www.oregongeology.org/sub/portoff/GovBrdMin.HTM,,,,
"Geology and Mineral Industries, Oregon Department of",Calico Resources Meeting,Calico Resources Project Coordinating Committee Meeting,10/17/2012 09:30:00 AM,10/17/2012 12:00:00 PM,"Four Rivers Cultural Center, 676 Southwest 5th Avenue, Ontario, OR 97914", Ontario,OR,"Oregon Consolidated Application and Permitting Process – Chemical Process
Mines - Calico Resources USA
Project Coordinating Committee Meeting

October 17, 2012

Four Rivers Cultural Center
Malheur River Room
676 Southwest 5th Avenue, Ontario, OR 97914

9:30 – noon - Mountain Daylight Time
(8:30 – 11:00 am - Pacific Daylight Time)

The public can monitor the meeting at the DOGAMI offices, 800 NE Oregon, Suite 965,
Portland, OR. The call will be closed if no member of the public is interested in monitoring the call within the first 30 minutes of the meeting. 

The meeting will be tape recorded and a summary of the meeting will be prepared.

Reasonable accommodation, such as assisted hearing devices, sign language interpreters, and
materials in large print or audiotape, will be provided as requested. In order to ensure
availability, please contact the DOGAMI Mined Land Regulation and Reclamation Office at
(541) 967-2040 at least 72 hours prior to the meeting to make your request. Services for persons
with a hearing or speech disability are available by dialing 711.

ADDITIONAL INFORMATION
More about the Oregon Consolidated Application and Permitting process is posted at
http://www.oregongeology.org/mlrr/chemicalprocessmining.htm
A copy of the proposed baseline data collection methodologies for environmental, cultural, and
economic issues is available at http://www.oregongeology.org/mlrr/chemicalprocess_Calico-
GrassyMtn.htm",yes,ReNeea Gordon,(541) 967-2051,Reneea.J.Gordon@mlrr.OregonGeology.com,,,,,,,,,,,http://www.oregongeology.org/mlrr/noi/Calico-PCC_mtg_agenda-DRAFT-10-17-12.pdf,deb.schueller@dogami.state.or.us,,,,,,,
"Geology and Mineral Industries, Oregon Department of",Governing Board Meeting,DOGAMI Governing Board Meeting,12/07/2012 08:30:00 AM,12/07/2012 11:30:00 AM,"Portland State Office Building (PSOB), 800 NE Oregon St., Suite 965", Portland,OR,"Agenda: 
http://www.oregongeology.org/sub/portoff/boardagenda-12-07-12.pdf",,Carol DuVernois,(971) 673-1544,carol.duvernois@dogami.state.or.us,,http://www.oregongeology.org/sub/portoff/gmap-Portlandoffice.htm,,Carol DuVernois,(971) 673-1544,carol.duvernois@dogami.state.or.us,,,,,http://www.oregongeology.org/sub/portoff/boardagenda-12-07-12.pdf,deb.schueller@dogami.state.or.us,,,http://www.oregongeology.org/sub/portoff/GovBrdMin.HTM,,,,
"Geology and Mineral Industries, Oregon Department of",Governing Board Meeting,DOGAMI Governing Board Meeting,09/26/2013 08:30:00 AM,09/26/2013 12:30:00 PM,500 Summer St. NE, Salem,OR,"Next Governing Board meeting
Sept. 26, 8:30 am to 12:30 pm
Health Services Building, Room 137D
500 Summer St. NE, Salem, OR

Joint meeting with LCDC afterwards:
635 Capitol St Ag Bldg
Basement hearing room",yes,Carol DuVernois,(971) 673-1544,carol.duvernois@dogami.state.or.us,,,,Carol DuVernois,(971) 673-1544,carol.duvernois@dogami.state.or.us,,,,,http://www.oregongeology.org/sub/portoff/boardagenda-09-26-2013.pdf,deb.schueller@dogami.state.or.us,,,http://www.oregongeology.org/sub/portoff/GovBrdMin.HTM,,,,
"Geology and Mineral Industries, Oregon Department of",Governing Board Meeting,Teleconference - Governing Board Meeting,07/15/2014 08:00:00 AM,07/15/2014 12:00:00 PM,Teleconference, Portland,OR,Agenda TBA,,Carol DuVernois,971-673-1544,carol.duvernois@state.or.us,,,,Carol DuVernois,971-673-1544,carol.duvernois@state.or.us,,,,,http://www.oregongeology.org/sub/portoff/boardagenda-07-15-2014.pdf,deb.schueller@dogami.state.or.us,,,http://www.oregongeology.org/sub/portoff/GovBrdMin.HTM,,,,
"Geology and Mineral Industries, Oregon Department of",Calico Resources USA TRT Meeting and TRT Water Resource Subcommittee Meeting,Technical Review Team Meeting and TRT Water Resources Subcommittee Meeting ,03/30/2015 01:00:00 PM,03/30/2015 03:00:00 PM,"teleconference; monitor at 800 NE Oregon, Suite 965",Portland,OR,"The Technical Review Team for the Calico Resources proposed gold mine in Malheur County will meet by teleconference on March 30 from 1 p.m. to 2 p.m. PST, followed by a teleconference meeting of the Water Resources Subcommittee from 2 p.m. to 3 p.m. PST.

The public and media may listen to the meeting in person at the Oregon Department of Geology and Mineral Industries (DOGAMI) Portland offices, 800 NE Oregon St., Ste. 965, or listen by phone. For call-in instructions, contact the DOGAMI offices in Albany at 541-967-2040.",,ReNeea Lofton,541-967-2040,ReNeea.Lofton@mlrr.oregongeology.com,,,,ReNeea Lofton,541-967-2040,ReNeea.Lofton@mlrr.oregongeology.com,,,,,http://www.oregongeology.org/mlrr/noi/TRT-agenda-03-30-15.pdf,,,,,,,,
"Geology and Mineral Industries, Oregon Department of",Calico Resources Technical Review Team Meeting,Calico Resources Technical Review Team Meeting,12/13/2012 11:00:00 AM,12/13/2012 04:00:00 PM,"Salem Conference Center, Croisan Creek Room - C, 200 Commercial Street SE", Salem,OR,"Agenda PDF: http://www.oregongeology.org/mlrr/noi/TRT-mtg-agenda-12-13-12-DRAFT.pdf

Location:
Salem Conference Center, Croisan Creek Room - C, 200 Commercial Street SE - Salem, OR 97301",,ReNeea Gordon,(541) 967-2051,Reneea.J.Gordon@mlrr.OregonGeology.com,,,,,,,,,,,http://www.oregongeology.org/mlrr/noi/TRT-mtg-agenda-12-13-12-DRAFT.pdf,deb.schueller@dogami.state.or.us,,,,,,,
"Geology and Mineral Industries, Oregon Department of",Governing Board Meeting,DOGAMI Governing Board Meeting,12/07/2012 08:30:00 AM,12/07/2012 12:15:00 PM,"Portland State Office Building (PSOB), 800 NE Oregon St., Suite 965", Portland,OR,"AGENDA
The Board meeting will begin at 8:30 am, and proceed chronologically through the agenda.
PUBLIC TESTIMONY
If you wish to give testimony on any item scheduled on this agenda, please sign up on the sheets provided on the day of the meeting and you will be called to testify by the Board Chair. The Board places great value on information received from the public. Persons desiring to testify or otherwise present information to the Board are encouraged to:
1. Provide written summaries of information to the Board (6 sets);
2. Limit testimony to 3 minutes, recognizing that substance, not length, determines the value of testimony or written information;
3. Endorse rather than repeat testimony of other witnesses; and
4. Designate one spokesperson whenever possible when groups or organizations wish to testify.
THANK YOU FOR TAKING TIME TO PRESENT YOUR VIEWS
If you bring written materials to the meeting, please provide six (6) copies. If you have questions regarding this agenda, please contact Carol DuVernois at (971) 673-1544 or you may email her at carol.duvernois@dogami.state.or.us.
REASONABLE ACCOMMODATION OF DISABILITIES
Reasonable accommodation, such as assisted hearing devices, sign language interpreters, and materials in large print or audiotape, will be provided as requested. In order to ensure availability, please contact the Director's Office at (971) 673-1555 at least 72 hours prior to the meeting to make your request.",yes,Carol DuVernois,(971) 673-1544,carol.duvernois@dogami.state.or.us,,http://www.oregongeology.org/sub/portoff/gmap-Portlandoffice.htm,,Carol DuVernois,(971) 673-1544,carol.duvernois@dogami.state.or.us,,,,,http://www.oregongeology.org/sub/portoff/boardagenda-12-07-12.pdf,deb.schueller@dogami.state.or.us,,,http://www.oregongeology.org/sub/portoff/GovBrdMin.HTM,,,,
"Geology and Mineral Industries, Oregon Department of",Calico TRT Geochem.Subcomm. Mtg,Calico Resources USA Technical Review Team Geochemistry Subcommittee Meeting,02/05/2013 01:00:00 PM,02/05/2013 02:30:00 PM,"Hilton Hotel, 921 SW Sixth Avenue", Portland,OR,"Oregon Consolidated Application and Permitting Process – Chemical Process Mine
Calico Resources USA
Technical Review Team
Geochemistry Subcommittee Meeting
February 5, 2013
1:00 pm – 2:30 pm (Pacific Time)
2:00 pm – 3:30 pm (Mountain Time)
Hilton Hotel – 921 SW Sixth Avenue – Portland (Check at front desk for meeting room)
Call in number is 1-866-434-5269 – Participant Code 9564271 (note: different number)

",yes,ReNeea Gordon,(541) 967-2051,ReNeea.J.Gordon@mlrr.oregongeology.com,,,,ReNeea Gordon,(541) 967-2051,ReNeea.J.Gordon@mlrr.oregongeology.com,,,1-866-434-5269,9564271,http://www.oregongeology.org/mlrr/noi/TRT-geo-submtg-02-05-13-agenda-DRAFT-detailed.pdf,deb.schueller@dogami.state.or.us,,,,,,,
"Geology and Mineral Industries, Oregon Department of",Water Resources Subcommittee Meeting,Calico Resources TRT Water Resources Subcommittee Meeting,10/03/2013 02:00:00 PM,10/03/2013 04:00:00 PM,teleconference, Albany,OR,"TRT Water Resources Subcommittee meeting - teleconference
2-4 pm (Pacific Time)
The public may monitor the call in person at DOGAMI offices, 800 NE Oregon, Suite 965, Portland, OR 97232; or by phone. To register, contact DOGAMI Offices in Albany at 541-967-2040.",yes,ReNeea Gordon,541-967-2040,Reneea.J.Gordon@mlrr.OregonGeology.com,,,,ReNeea Gordon,541-967-2040,Reneea.J.Gordon@mlrr.OregonGeology.com,,,,,http://www.oregongeology.org/mlrr/noi/TRT-agenda-water-sub-10-03-13.pdf,deb.schueller@dogami.state.or.us,,,,,,,
"Geology and Mineral Industries, Oregon Department of",Governing Board Meeting,DOGAMI Governing Board Meeting,06/16/2014 08:30:00 AM,06/16/2014 12:00:00 PM,"800 NE Oregon St., Ste. 965", Portland,OR,"DOGAMI Governing Board meeting.

Agenda PDF at:
http://www.oregongeology.org/sub/portoff/boardagenda-06-16-2014.pdf
",yes,Carol DuVernois,971-673-1555,carol.duvernois@dogami.state.or.us,,http://www.oregongeology.org/sub/portoff/gmap-Portlandoffice.htm,,Carol DuVernois,971-673-1555,carol.duvernois@dogami.state.or.us,,,,,http://www.oregongeology.org/sub/portoff/boardagenda-06-16-2014.pdf,deb.schueller@dogami.state.or.us,,,http://www.oregongeology.org/sub/portoff/GovBrdMin.HTM,,,,
"Geology and Mineral Industries, Oregon Department of",Govening Board Meeting,DOGAMI Governing Board Meeting,11/25/2013 08:30:00 AM,11/25/2013 12:00:00 PM,"800 NE Oregon St., Suite 965", Portland,OR,Agenda TBA,yes,Carol DuVernois,971-673-1544,carol.duvernois@dogami.state.or.us,,,,Carol DuVernois,971-673-1544,carol.duvernois@dogami.state.or.us,,,,,http://www.oregongeology.org/sub/portoff/boardagenda-11-25-13..pdf,deb.schueller@dogami.state.or.us,,,http://www.oregongeology.org/sub/portoff/GovBrdMin.HTM,,,,
"Geology and Mineral Industries, Oregon Department of",Calico Resources: Public Informational Meeting,Public Informational Meeting: Calico Resources Proposed Gold Mine in Malheur County,10/09/2012 02:00:00 PM,10/09/2012 04:00:00 PM,"Riverhouse Hotel, 3075 North Business 97", Bend,OR,"Public informational meetings have been set in Bend and Ontario to take comments on the baseline data methodologies proposed by Calico Resources for its gold mine planned in Malheur County.  


The meetings are scheduled October 9, 2012 in Bend (The Riverhouse) and October 16, 2012 in Ontario (Four Rivers Cultural Center).   The meetings will be held from 2:00 - 4:00 pm and from 6:00 pm - 7:30 pm local time in both locations.


The public may listen to the hearings at locations established in Portland and Pendleton.  
A link to the public notice with additional details is at http://www.oregongeology.org/mlrr/noi/Calico_public_notice_baseline_data%20_09-24-12%20.pdf.


The purpose of the public informational meetings is to identify issues raised by the proposed mining operation and to receive information from the public, including information related to the collection of baseline data that is relevant to the characterization of the pre-mine environment.


Written public comments are being accepted until November 6, 2012.",yes,ReNeea Gordon,(541) 967-2039,Reneea.J.Gordon@mlrr.OregonGeology.com,,,,,,,,,,,http://www.oregongeology.org/mlrr/noi/Calico_public_notice_baseline_data%20_09-24-12%20.pdf,deb.schueller@dogami.state.or.us,,,,,,,
"Geology and Mineral Industries, Oregon Department of",Calico Resources USA Proposed Gold Mine Public Informational Meeting,Public Informational Meeting,09/01/2015 02:00:00 PM,09/01/2015 06:30:00 PM," Four Rivers Cultural Center, 676 SW 5th Avenue", Ontario,OR,"Notes: 
Meeting time is Mountain Time.
There is a meeting break from 4 pm to 5 pm.

Four Rivers Cultural Center
676 SW 5th Avenue, Ontario, OR
2:00 – 4:00 pm (Mtn)
5:00 – 6:30 pm (Mtn)

For more information see: 
http://www.oregongeology.org/mlrr/chemicalprocess_Calico-GrassyMtn.htm",yes,ReNeea Lofton,(541) 967-2040,ReNeea.Lofton@mlrr.oregongeology.com,,,,,,,,,,,,,,,,,,,
"Geology and Mineral Industries, Oregon Department of",Calico TRT meeting,Calico Resources Technical Review Team meeting,10/04/2012 11:00:00 AM,10/04/2012 04:00:00 PM,"Water Resources Office, 725 Summer Street NE, Suite A", Salem,OR,Agenda forthcoming.,,Alyssa Boles,541-967-2040,alyssa.boles@mlrr.oregongeology.com,,,,,,,,,,,http://www.oregongeology.org/mlrr/noi/TRT-mtg-agenda-10-04-12-DRAFT.pdf,deb.schueller@dogami.state.or.us,,,,,,,
"Geology and Mineral Industries, Oregon Department of",POSTPONED: Calico Project Coordinating Committee,Calico Project Coordinating Committee,10/30/2013 01:30:00 PM,10/30/2013 03:30:00 PM,676 SW Fifth Avenue, Ontario,OR,"THIS MEETING HAS BEEN POSTPONED.
",yes,ReNeea Gordon,541-967-2040,ReNeea.J.Gordon@mlrr.oregongeology.com,,,,ReNeea Gordon,541-967-2040,ReNeea.J.Gordon@mlrr.oregongeology.com,,,,,,deb.schueller@dogami.state.or.us,,,,,,,
"Geology and Mineral Industries, Oregon Department of",Governing Board Meeting,DOGAMI Governing Board Meeting,07/12/2013 08:30:00 AM,07/12/2013 12:00:00 PM,"800 NE Oregon St., Ste. 965", Portland,OR,,yes,Carol DuVernois,(971) 673-1544,carol.duvernois@dogami.state.or.us,,,,Carol DuVernois,(971) 673-1544,carol.duvernois@dogami.state.or.us,,,,,,deb.schueller@dogami.state.or.us,,,http://www.oregongeology.org/sub/portoff/GovBrdMin.HTM,,,,
"Geology and Mineral Industries, Oregon Department of",Notice of Rulemaking Amendments to OAR 632-030-0025 Relating to Mined Reclamation and Requirements for Imported Fill,Rulemaking Hearing: Amendments to OAR 632-030-0025,11/18/2014 10:00:00 AM,11/18/2014 12:00:00 PM,229 Broadalbin St. SW, Albany,OR,"DOGAMI is proposing changes to the Oregon Administrative Rules under Chapter 632, Division 30. 

Link to Draft Rule. 
http://www.oregongeology.org/mlrr/rules/Clean_Fill_Draft_Perm_Rule_09-19-14.pdf

Link to Statement of Need and Fiscal Impact:
http://www.oregongeology.org/mlrr/rules/632-20141015Fiscal.pdf",,ReNeea Lofton,(541) 967-2040,ReNeea.Lofton@mlrr.OregonGeology.com,,http://www.oregongeology.org/mlrr/gmap-mlrr.htm,,ReNeea Lofton,(541) 967-2040,ReNeea.Lofton@mlrr.OregonGeology.com,,,,,,,,,,,,,
"Geology and Mineral Industries, Oregon Department of",Calico Resources USA Technical Review Team Geochemistry Subcommittee Meeting,,12/18/2015 10:30:00 AM,12/18/2015 12:30:00 PM,teleconference, Portland,OR,"The public can monitor the call by phone. To register, contact DOGAMI Offices in Albany at 541/967-2081. You will be provided the call-in number when you register. The public can also monitor the call in person from the DOGAMI Portland offices at 800 NE Oregon, Suite 965, Portland, OR",, 	Amy Tennimon,(541) 967-2081,amy.tennimon@mlrr.oregongeology.com,,,, 	Amy Tennimon,(541) 967-2081,amy.tennimon@mlrr.oregongeology.com,,,,,http://www.oregongeology.org/mlrr/noi/TRT-geo-agenda-12-18-15.pdf,,,,,,,,
"Geology and Mineral Industries, Oregon Department of",Calico Resources: Public Informational Meeting,Public Informational Meeting: Calico Resources Proposed Gold Mine in Malheur County,10/16/2012 06:00:00 PM,10/16/2012 07:30:00 PM,"Four Rivers Cultural Center, 676 SW 5th Avenue", Ontario,OR,"Public informational meetings have been set in Bend and Ontario to take comments on the baseline data methodologies proposed by Calico Resources for its gold mine planned in Malheur County.  

The meetings are scheduled October 9, 2012 in Bend (The Riverhouse) and October 16, 2012 in Ontario (Four Rivers Cultural Center).   The meetings will be held from 2:00 - 4:00 pm and from 6:00 pm - 7:30 pm local time in both locations.

The public may listen to the hearings at locations established in Portland and Pendleton.  
A link to the public notice with additional details is at http://www.oregongeology.org/mlrr/noi/Calico_public_notice_baseline_data%20_09-24-12%20.pdf.

The purpose of the public informational meetings is to identify issues raised by the proposed mining operation and to receive information from the public, including information related to the collection of baseline data that is relevant to the characterization of the pre-mine environment.

Written public comments are being accepted until November 6, 2012.",yes,ReNeea Gordon,(541) 967-2039,Reneea.J.Gordon@mlrr.OregonGeology.com,,,,,,,,,,,http://www.oregongeology.org/mlrr/noi/Calico_public_notice_baseline_data%20_09-24-12%20.pdf,deb.schueller@dogami.state.or.us,,,,,,,
"Geology and Mineral Industries, Oregon Department of",Calico TRT Water Resources Subcommittee,,11/07/2014 10:00:00 AM,11/07/2014 12:00:00 PM,telephone conference, Portland,OR,"Telephone conference meeting with ""listening post"" at DOGAMI Portland Office.  Details and agenda TBA.",no,ReNeea Lofton,(541) 967-2040,Reneea.Lofton@mlrr.OregonGeology.com,,,,ReNeea Lofton,(541) 967-2040,Reneea.Lofton@mlrr.OregonGeology.com,,,,,http://www.oregongeology.org/mlrr/chemicalprocess_Calico-GrassyMtn.htm,,,,,,,,
"Geology and Mineral Industries, Oregon Department of",DOGAMI Governing Board Meeting,DOGAMI Governing Board Meeting,04/03/2015 08:30:00 AM,04/03/2015 12:15:00 PM,"800 NE Oregon St. Suite 965,",Portland,OR,"This meeting is a teleconference. 
8:30 am-12:15 pm
",,Alyssa Pratt,971-673-1547,alyssa.pratt@state.or.us,,,,alyssa.pratt@state.or.us,971-673-1547,,,,,,http://www.oregongeology.org/sub/portoff/boardagenda-04-03-2015.pdf,,,,,,,,
"Geology and Mineral Industries, Oregon Department of",Calico Technical Review Team – Phone Meeting,,03/30/2015 01:00:00 PM,03/30/2015 03:00:00 PM,By phone and monitor at DOGAMI Portland office, Portland,OR,Agenda TBA,,ReNeea Lofton,(541) 967-2040,reneea.lofton@mlrr.oregongeology.com,,,,ReNeea Lofton,(541) 967-2040,reneea.lofton@mlrr.oregongeology.com,,,,,,,,,,,,,
"Geology and Mineral Industries, Oregon Department of",Calico TRT Meeting,Calico Technical Review Team Meeting,02/11/2013 11:00:00 AM,02/11/2013 04:00:00 PM,"DEQ Salem Offices, 750 Front Street, NE", Salem,OR,"The public can monitor the call by phone. To register, contact the DOGAMI Offices in Albany at 541-967-2040. You will be provided the call-in number when you register.",,ReNeea Gordon,541-967-2051,ReNeea.J.Gordon@mlrr.oregongeology.com,,,,ReNeea Gordon,541-967-2051,ReNeea.J.Gordon@mlrr.oregongeology.com,,,,,http://www.oregongeology.org/mlrr/noi/TRT-mtg-agenda-02-11-13-DRAFT.pdf,deb.schueller@dogami.state.or.us,,,,,,,
"Geology and Mineral Industries, Oregon Department of",Governing Board Meeting,,08/21/2015 08:30:00 AM,08/21/2015 12:30:00 PM,"800 NE Oregon St., Suite 965", Portland,OR,,,Alyssa Pratt,(971) 673-1547,alyssa.pratt@state.or.us,,http://www.oregongeology.org/sub/portoff/gmap-Portlandoffice.htm,,Alyssa Pratt,(971) 673-1547,alyssa.pratt@state.or.us,,,,,http://www.oregongeology.org/sub/portoff/boardagenda-08-21-2015.pdf,,,,http://www.oregongeology.org/sub/portoff/GovBrdMin.HTM,,,,
"Geology and Mineral Industries, Oregon Department of",Calico Resources Coor. Comm. Mtg.,Calico Resources USA Coordinating Committee Meeting,08/14/2012 01:00:00 PM,08/14/2012 04:00:00 PM,"676 Southwest 5th Avenue, Ontario, OR 97914 ", Ontario,OR,"Oregon Consolidated Application and Permitting Process – Chemical Process Mines - Calico Resources USA Project Coordinating Committee Meeting

August 14, 2012
Four Rivers Cultural Center, 
Malheur River Room
676 Southwest 5th Avenue
Ontario, OR 97914 
1:00 pm – 4:00 pm (Mountain Daylight Time)
(12:00 pm – 3:00 pm - Pacific Daylight Time)

The public can monitor the meeting at the DOGAMI offices, 800 NE Oregon, Suite 965, Portland, OR

All the meeting details are on the agenda. The public will be able to monitor the meeting at the DOGAMI conference room. Call in access will be 866-277-4013 Participant Code 784148


Agenda: http://www.oregongeology.org/mlrr/noi/Calico-PCC-mtg-agenda-08-14-12.pdf

Reasonable accommodation, such as assisted hearing devices, sign language interpreters, and materials in large print or audiotape, will be provided as requested. In order to ensure availability, please contact the DOGAMI Mineral Land Regulation and Reclamation Office at (541) 967-2040 at least 72 hours prior to the meeting to make your request. Services for persons with a hearing or speech disability are available by dialing 711.",,Alyssa Boles,,alyssa.boles@mlrr.oregongeology.com,,,,,,,,,866-277-4013,784148,http://www.oregongeology.org/mlrr/noi/Calico-PCC-mtg-agenda-08-14-12.pdf,deb.schueller@dogami.state.or.us,,,,,,,
"Geology and Mineral Industries, Oregon Department of",DOGAMI Governing Board Meeting,,02/13/2015 08:30:00 AM,02/13/2015 12:00:00 PM,"800 NE Oregon St., Suite 965", Portland,OR,,,Alyssa Pratt,(971) 673-1547,alyssa.pratt@state.or.us,,,,Alyssa Pratt,(971) 673-1547,alyssa.pratt@state.or.us,,,,,,,,,,,,,
"Geology and Mineral Industries, Oregon Department of",Calico TRT Water Res Subcom Mtg ,Calico TRT Water Resources Subcommittee Meeting,01/22/2013 11:00:00 AM,01/22/2013 02:00:00 PM,"DEQ Salem Offices, 750 Front Street NE", Salem,OR,Agenda TBA,,ReNeea Gordon,,ReNeea.J.Gordon@mlrr.oregongeology.com,,,,ReNeea Gordon,(541) 967-2051,ReNeea.J.Gordon@mlrr.oregongeology.com,,,,,,deb.schueller@dogami.state.or.us,,,,,,,
"Geology and Mineral Industries, Oregon Department of",Calico Resources ÛÒ TRT meeting,Technical Review Team meeting,07/16/2012 10:00:00 AM,07/16/2012 01:00:00 PM,"Water Resources Dept. Conf. Rm. 124A, 725 Summer Street NE, Suite A", Salem,OR,6/26/12 - Agenda is forthcoming.,,Alyssa Boles,(541) 967-2040,Alyssa.Boles@mlrr.OregonGeology.com,,,,,,,,,,,http://www.oregongeology.org/mlrr/noi/TRT-mtg-agenda-07-16-12.pdf,deb.schueller@dogami.state.or.us,,,,,,,
"Geology and Mineral Industries, Oregon Department of",DOGAMI Governing Board Meeting,DOGAMI Governing Board Meeting,05/15/2015 08:30:00 AM,05/15/2015 12:00:00 PM,"800 NE Oregon St., Ste. 965",Portland,OR,"Friday, May 15, 8:30 am
Portland Sate Office Building
800 NE Oregon St., Ste. 965
Portland, OR 97015
agenda TBD ",,Alyssa Pratt,971-673-1547,alyssa.pratt@state.or.us,,,,Alyssa Pratt,971-673-1547,alyssa.pratt@state.or.us,,,,,http://www.oregongeology.org/sub/portoff/boardagenda-05-15-2015.pdf,,,,,,,,
"Geology and Mineral Industries, Oregon Department of",Rulemaking Hearing,Notice of Proposed Rulemaking Hearing,12/05/2013 10:00:00 AM,12/05/2013 12:00:00 PM,"DOGAMI MLRR office, 229 Broadalbin St. SW, Albany, OR 97321", Albany,OR,"Amend OAR chapter 632, divisions 35 and 37 to Implement HB2248 (2013)

Action: Secure approval of new rule numbers (Adopted or Renumbered rules) with the Administrative Rules Unit prior to filing.

See PDF of Notice, Statement of Need and Fiscal Impact, and Draft Revisions link (Agenda link).",yes,ReNeea Gordon,(541) 967-2040,ReNeea.J.Gordon@mlrr.oregongeology.com,,,,ReNeea Gordon,(541) 967-2040,ReNeea.J.Gordon@mlrr.oregongeology.com,,,,,http://www.oregongeology.org/mlrr/Notice-Hearing-MLRR-12-05-2013.pdf,deb.schueller@dogami.state.or.us,,,,,,,
"Geology and Mineral Industries, Oregon Department of",Calico Resources USA Technical Review Team Meeting,,01/04/2016 01:00:00 PM,01/04/2016 04:00:00 PM,4026 Fairview Industrial Dr.,Salem,OR,"NOTE: DEQ has moved its offices adjacent to the ODFW offices

The public can monitor the TRT discussion in person or by phone. The TRT does not take public comments during its meetings. To register, contact the DOGAMI Offices in Albany at 541/967-2081. You will be provided the call-in number when you register.

More about the Oregon Consolidated Application and Permitting process is posted at http://www.oregongeology.org/mlrr/chemicalprocess_Calico-GrassyMtn.htm",,Amy Tennimon,(541) 967-2081,amy.tennimon@mlrr.oregongeology.com,,,,Amy Tennimon,(541) 967-2081,amy.tennimon@mlrr.oregongeology.com,,,,,http://www.oregongeology.org/mlrr/noi/TRT-01-04-16-agenda.pdf,,,,,,,,
"Geology and Mineral Industries, Oregon Department of",Calico Technical Review Team,,11/19/2014 11:00:00 AM,11/19/2014 04:00:00 PM,TBA, Salem,OR,Location and agenda TBA,no,ReNeea Lofton,(541) 967-2040,Reneea.Lofton@mlrr.OregonGeology.com,,,,ReNeea Lofton,(541) 967-2040,Reneea.Lofton@mlrr.OregonGeology.com,,,,,http://www.oregongeology.org/mlrr/chemicalprocess_Calico-GrassyMtn.htm,,,,,,,,
"Geology and Mineral Industries, Oregon Department of",Calico Resources USA Technical Review Team Meeting,,01/04/2016 01:00:00 PM,01/04/2016 04:00:00 PM,4026 Fairview Industrial Dr.,Salem,OR,"NOTE: DEQ has moved its offices adjacent to the ODFW offices

The public can monitor the TRT discussion in person or by phone. The TRT does not take public comments during its meetings. To register, contact the DOGAMI Offices in Albany at 541/967-2081. You will be provided the call-in number when you register.

More about the Oregon Consolidated Application and Permitting process is posted at http://www.oregongeology.org/mlrr/chemicalprocess_Calico-GrassyMtn.htm",,Amy Tennimon,(541) 967-2081,amy.tennimon@mlrr.oregongeology.com,,,,Amy Tennimon,(541) 967-2081,amy.tennimon@mlrr.oregongeology.com,,,,,http://www.oregongeology.org/mlrr/noi/TRT-01-04-16-agenda.pdf,,,,,,,,
"Geology and Mineral Industries, Oregon Department of",DOGAMI Governing Board Meeting,Rescheduled from Feb. 13 to Feb. 27,02/27/2015 08:30:00 AM,02/27/2015 12:00:00 PM,"800 NE Oregon St., Suite 965", Portland,OR,"The Feb. 13, 2015 meeting has been rescheduled to Feb. 27
Agenda TBA",,Alyssa Pratt,(971) 673-1547,alyssa.pratt@state.or.us,,,,Alyssa Pratt,(971) 673-1547,alyssa.pratt@state.or.us,,,,,,,,,,,,,
"Geology and Mineral Industries, Oregon Department of",Governing Board Meeting,DOGAMI Governing Board Meeting,03/10/2014 08:30:00 AM,03/10/2014 12:00:00 PM,"PSOB, Ste. 965, 800 NE Oregon St.", Portland,OR,,yes,Carol DuVernois,971-673-1544,carol.duvernois@dogami.state.or.us,,http://www.oregongeology.org/sub/portoff/gmap-Portlandoffice.htm,,Carol DuVernois,971-673-1544,carol.duvernois@dogami.state.or.us,,,,,http://www.oregongeology.org/sub/portoff/boardagenda-03-10-2014.pdf,deb.schueller@dogami.state.or.us,,,http://www.oregongeology.org/sub/portoff/GovBrdMin.HTM,,,,
"Geology and Mineral Industries, Oregon Department of",Calico TRT Water Resources Subcommittee Meeting,,01/20/2015 02:00:00 PM,01/20/2015 03:30:00 PM,"800 NE Oregon St., Suite 965", Portland,OR,"Telephone Conference Call
See agenda for instructions on how to register and monitor by phone.",no,ReNeea Lofton,(541) 967-2040,Reneea.Lofton@mlrr.OregonGeology.com,,,,ReNeea Lofton,(541) 967-2040,Reneea.Lofton@mlrr.OregonGeology.com,,,,,http://www.oregongeology.org/mlrr/noi/TRT-water-sub-agenda-1-20-15.pdf,,,,,,,,
"Geology and Mineral Industries, Oregon Department of",Governing Board Meeting,,12/28/2015 08:30:00 AM,12/28/2015 12:00:00 PM,"PSOB, 800 NE Oregon St., Suite 965", Portland,OR,,,Alyssa Pratt,971-673-1555,alyssa.pratt@state.or.us,,http://www.oregongeology.org/sub/portoff/gmap-Portlandoffice.htm,,Alyssa Pratt,971-673-1555,alyssa.pratt@state.or.us,,,,,http://www.oregongeology.org/sub/portoff/boardagenda-12-28-2015.pdf,,,,,,,,
"Geology and Mineral Industries, Oregon Department of",DOGAMI Governing Board Meeting,,01/29/2015 01:00:00 PM,01/29/2015 02:00:00 PM,"800 NE Oregon St., Suite 965", Portland,OR,Teleconference. See link for agenda.,,Alyssa Pratt,(971) 673-1547,alyssa.pratt@state.or.us,,,,Alyssa Pratt,(971) 673-1547,alyssa.pratt@state.or.us,,,,,http://www.oregongeology.org/sub/portoff/boardagenda-01-29-2015.pdf,,,,,,,,
"Geology and Mineral Industries, Oregon Department of",CANCELLED - Calico Resources Technical Review Team Meeting,Calico Resources Technical Review Team Meeting,12/05/2012 11:00:00 AM,12/05/2012 05:00:00 PM,"Water Resources Offices, room 124B", Salem,OR,CANCELLED 11/12/2012,,ReNeea Gordon,,Reneea.J.Gordon@mlrr.OregonGeology.com,,,,,,,,,,,,deb.schueller@dogami.state.or.us,,,,,,,
"Geology and Mineral Industries, Oregon Department of",Technical Review Team Meeting,Calico Resources USA Technical Review Team Meeting,10/31/2012 11:00:00 AM,10/31/2012 04:00:00 PM,"750 Front Street, NE, Suite 120", Salem,OR,"Oregon Consolidated Application and Permitting Process – Chemical Process Mine
Calico Resources USA
Technical Review Team Meeting
October 31, 2012
Oregon DEQ Offices
750 Front Street, NE, Suite 120, Salem, OR 973011
11:00 am – 4:00 pm (Pacific Daylight Time)
Noon – 5:00 pm (Mountain Daylight Time)
The public can monitor the call by phone. To register, contact DOGAMI Offices in Albany at 541/967-2040.
You will be provided the call-in number when you register.
The public is able to monitor the TRT discussion in person or by phone.",no,ReNeea Gordon,(541) 967-2051,Reneea.J.Gordon@mlrr.OregonGeology.com,,,,,,,,,,,http://www.oregongeology.org/mlrr/noi/TRT_mtg_agenda_10-31-12-DRAFT.pdf,deb.schueller@dogami.state.or.us,,,,,,,
"Geology and Mineral Industries, Oregon Department of",Calico Resources: Public Informational Meeting,Public Informational Meeting: Calico Resources Proposed Gold Mine in Malheur County,10/16/2012 02:00:00 PM,10/16/2012 04:00:00 PM,"Four Rivers Cultural Center, 676 SW 5th Avenue", Ontario,OR,"Public informational meetings have been set in Bend and Ontario to take comments on the baseline data methodologies proposed by Calico Resources for its gold mine planned in Malheur County.  

The meetings are scheduled October 9, 2012 in Bend (The Riverhouse) and October 16, 2012 in Ontario (Four Rivers Cultural Center).   The meetings will be held from 2:00 - 4:00 pm and from 6:00 pm - 7:30 pm local time in both locations.

The public may listen to the hearings at locations established in Portland and Pendleton.  
A link to the public notice with additional details is at http://www.oregongeology.org/mlrr/noi/Calico_public_notice_baseline_data%20_09-24-12%20.pdf.

The purpose of the public informational meetings is to identify issues raised by the proposed mining operation and to receive information from the public, including information related to the collection of baseline data that is relevant to the characterization of the pre-mine environment.

Written public comments are being accepted until November 6, 2012.",yes,ReNeea Gordon,(541) 967-2039,Reneea.J.Gordon@mlrr.OregonGeology.com,,,,,,,,,,,http://www.oregongeology.org/mlrr/noi/Calico_public_notice_baseline_data%20_09-24-12%20.pdf,deb.schueller@dogami.state.or.us,,,,,,,
"Geology and Mineral Industries, Oregon Department of",Governing Board Meeting,DOGAMI Governing Board Teleconference Meeting,08/20/2012 10:30:00 AM,08/20/2012 11:00:00 AM,"800 NE Oregon St., Suite 965", Portland,OR,This is brief teleconference meeting.,,Carol Duvernois,971-673-1544,carol.duvernois@dogami.state.or.us,,http://www.oregongeology.org/sub/portoff/gmap-Portlandoffice.htm,http://www.oregongeology.org/sub/calendar.htm,Carol Duvernois,971-673-1544,carol.duvernois@dogami.state.or.us,,,,,http://www.oregongeology.org/sub/portoff/boardagenda-08-20-2012.pdf,deb.schueller@dogami.state.or.us,,,http://www.oregongeology.org/sub/portoff/GovBrdMin.HTM,,,,
"Geology and Mineral Industries, Oregon Department of",Governing Board Meeting,Governing Board Meeting,09/05/2014 08:30:00 AM,09/05/2014 12:00:00 PM,"PSOB, 800 NE Oregon St.", Portland,OR,"Agenda PDF:
http://www.oregongeology.org/sub/portoff/boardagenda-09-05-2014.pdf",yes,Carol DuVernois,971-673-1544,carol.duvernois@state.or.us,,,,Carol DuVernois,971-673-1544,carol.duvernois@state.or.us,,,,,http://www.oregongeology.org/sub/portoff/boardagenda-09-05-2014.pdf,deb.schueller@dogami.state.or.us,,,http://www.oregongeology.org/sub/portoff/GovBrdMin.HTM,,,,
"Geology and Mineral Industries, Oregon Department of",Calico Resources: Public Informational Meeting,Public Informational Meeting: Calico Resources Proposed Gold Mine in Malheur County,10/09/2012 06:00:00 PM,10/09/2012 07:30:00 PM,"Riverhouse Hotel, 3075 North Business 97", Bend,OR,"Public informational meetings have been set in Bend and Ontario to take comments on the baseline data methodologies proposed by Calico Resources for its gold mine planned in Malheur County.  

The meetings are scheduled October 9, 2012 in Bend (The Riverhouse) and October 16, 2012 in Ontario (Four Rivers Cultural Center).   The meetings will be held from 2:00 - 4:00 pm and from 6:00 pm - 7:30 pm local time in both locations.

The public may listen to the hearings at locations established in Portland and Pendleton.  
A link to the public notice with additional details is at http://www.oregongeology.org/mlrr/noi/Calico_public_notice_baseline_data%20_09-24-12%20.pdf.

The purpose of the public informational meetings is to identify issues raised by the proposed mining operation and to receive information from the public, including information related to the collection of baseline data that is relevant to the characterization of the pre-mine environment.

Written public comments are being accepted until November 6, 2012.",yes,ReNeea Gordon,(541) 967-2039,Reneea.J.Gordon@mlrr.OregonGeology.com,,,,,,,,,,,http://www.oregongeology.org/mlrr/noi/Calico_public_notice_baseline_data%20_09-24-12%20.pdf,deb.schueller@dogami.state.or.us,,,,,,,
"Geology and Mineral Industries, Oregon Department of",DOGAMI Governing Board Meeting,,01/05/2015 08:30:00 AM,01/05/2015 12:30:00 PM,"Assoc. of Oregon Counties Bldg, Rm. 113, 1201 Court St NE",Salem,OR,Agenda TBA,,Alyssa Pratt,(971) 673-1547,alyssa.pratt@state.or.us,,"https://www.google.com/maps/place/Association+of+Oregon+Counties/@44.9375728,-123.0226177,13z/data=!4m2!3m1!1s0x54bfff16b0344101:0xf40d5fa2e2783a69",,Alyssa Pratt,(971) 673-1547,alyssa.pratt@state.or.us,,,,,http://www.oregongeology.org/sub/portoff/boardagenda-01-05-2015.pdf,,,,http://www.oregongeology.org/sub/portoff/GovBrdMin.HTM,,,,
"Geology and Mineral Industries, Oregon Department of",DOGAMI Governing Board Meeting - Teleconference,,09/24/2015 09:00:00 AM,09/24/2015 10:30:00 AM,"Teleconference, Portland State Office Bldg., Ste. 965", Portland,OR,,yes,Alyssa Pratt,971-673-1555,alyssa.pratt@state.or.us,,,,Alyssa Pratt,971-673-1555,alyssa.pratt@state.or.us,,,,,http://www.oregongeology.org/sub/portoff/boardagenda-09-24-2015.pdf,,,,,,,,
"Geology and Mineral Industries, Oregon Department of",Calico TRT Geochemistry Subcommittee meeting,,12/10/2015 10:00:00 AM,12/10/2015 12:00:00 PM,telephone call,Portland,OR,Agenda TBA,,Amy Tennimon,(541) 967-2081,amy.tennimon@mlrr.oregongeology.com,,,,,,,,,,,http://www.oregongeology.org/mlrr/noi/TRT-water-sub-12-10-15-agenda.pdf,,,,,,,,
"Geology and Mineral Industries, Oregon Department of",CANCELLED-Calico Resources Technical Review Team Meeting,Calico Resources Technical Review Team Meeting,12/11/2012 11:00:00 AM,12/11/2012 04:00:00 PM,"Water Resources Offices, room 124A", Salem,OR,Meeting cancelled 11/21/2012.,,ReNeea Gordon,(541) 967-2051,Reneea.J.Gordon@mlrr.OregonGeology.com,,,,,,,,,,,,deb.schueller@dogami.state.or.us,,,,,,,
"Geology and Mineral Industries, Oregon Department of",DOGAMI Governing Board Meeting,,07/24/2015 08:30:00 AM,07/24/2015 12:00:00 PM,Bend, Bend,OR,Details to be announced.,,Alyssa Pratt,971-673-1555,Alyssa.Pratt@dogami.state.or.us,,,,Alyssa Pratt,971-673-1555,Alyssa.Pratt@dogami.state.or.us,,,,,http://www.oregongeology.org/sub/portoff/boardagenda-07-24-2015.pdf,,,,,,,,
"Geology and Mineral Industries, Oregon Department of",DOGAMI Governing Board Meeting,,05/15/2015 08:30:00 AM,05/15/2015 12:15:00 PM,"PSOB, 800 NE Oregon Street, Suite 965",Portland,OR,,yes,Alyssa Pratt,971-673-1555,alyssa.pratt@state.or.us,,,,Alyssa Pratt,971-673-1555,alyssa.pratt@state.or.us,,,,,http://www.oregongeology.org/sub/portoff/boardagenda-05-15-2015.pdf,,,,,,,,
"Geology and Mineral Industries, Oregon Department of",Calico Resources USA TRT Geochemistry Subcommittee Meeting,,11/20/2015 12:30:00 PM,11/20/2015 02:30:00 PM,telephone conference call,Portland,OR,"The public can monitor the call by phone. To register, contact DOGAMI Offices in Albany at 541/967-2040.  
You will be provided the call-in number when you register. 
The public can also monitor the call in person from the DOGAMI Portland offices at 800 NE  Oregon, Suite 965, Portland, OR. 
The TRT does not take public comments during its meetings.",no,ReNeea Lofton,541-967-2040,ReNeea.Lofton@mlrr.oregongeology.com,,,,ReNeea Lofton,541-967-2040,ReNeea.Lofton@mlrr.oregongeology.com,,,,,http://www.oregongeology.org/mlrr/noi/TRT-geo-agenda-11-20-15.pdf,,,,,,,,
"Geology and Mineral Industries, Oregon Department of",Calico Resources USA Technical Review Team Meeting,,01/14/2016 03:00:00 PM,01/14/2016 04:00:00 PM,Telephone meeting, Albany,OR,"The public can monitor the call by phone.  To register, contact the DOGAMI Offices in Albany at 541/967-2081.  You will be provided the call-in number when you register. ",no,Amy Tennimon,(541) 967-2081,amy.tennimon@mlrr.oregongeology.com,,,,Amy Tennimon,(541) 967-2081,amy.tennimon@mlrr.oregongeology.com,,,,,http://www.oregongeology.org/mlrr/noi/TRT-01-14-16-agenda.pdf,,,,http://www.oregongeology.org/mlrr/chemicalprocess_Calico-GrassyMtn.htm,,,,
"Geology and Mineral Industries, Oregon Department of",Calico Resources USA Proposed Gold Mine Public Informational Meeting,Public Informational Meeting,08/26/2015 02:00:00 PM,08/26/2015 06:30:00 PM,"DEQ, 475 NE Bellevue Dr., Suite 110",Bend,OR,"Note: There is a meeting break from 4 pm to 5 pm.
Department of Environmental Quality
475 NE Bellevue Dr., Suite 110, Bend, OR
2:00 – 4:00 pm (Pacific)
5:00 – 6:30 pm (Pacific)

For more information see: 
http://www.oregongeology.org/mlrr/chemicalprocess_Calico-GrassyMtn.htm",yes,ReNeea Lofton,(541) 967-2040,ReNeea.Lofton@mlrr.oregongeology.com,,,,,,,,,,,,,,,,,,,
"Geology and Mineral Industries, Oregon Department of",DOGAMI Governing Board Meeting,,10/30/2015 09:30:00 AM,10/30/2015 01:30:00 PM,"800 NE Oregon St, Ste. 965", Portland,OR,,yes,Alyssa Pratt,971-673-1555,alyssa.pratt@state.or.us,,http://www.oregongeology.org/sub/portoff/gmap-Portlandoffice.htm,,Alyssa Pratt,971-673-1555,alyssa.pratt@state.or.us,,,,,http://www.oregongeology.org/sub/portoff/boardagenda-10-30-2015.pdf,,,,,,,,
"Geology and Mineral Industries, Oregon Department of",Div. 20 Rules Adv. Comm.-POSTPONED,Division 20 Rules Advisory Committee Teleconference,07/24/2012 10:00:00 AM,07/24/2012 12:00:00 PM,Teleconference, Albany,OR,"7/24/2012
Division 20 Rules Advisory Committee Teleconference

This meeting has been postponed. New date to be announced.",,Alyssa Boles,,alyssa.boles@mlrr.oregongeology.com,,,,,,,,,303-262-2240,784148,,deb.schueller@dogami.state.or.us,,,,,,,
"Geology and Mineral Industries, Oregon Department of",Calico Resources Technical Review Team Meeting -CANCELLED,Calico Resources Technical Review Team Meeting,01/08/2013 11:00:00 AM,01/08/2013 04:00:00 PM,Location TBA, Salem,OR,CANCELLED 01/02/2013,,ReNeea Gordon,(541) 967-2051,Reneea.J.Gordon@mlrr.OregonGeology.com,,,,,,,,,,,,deb.schueller@dogami.state.or.us,,,,,,,
"Geology and Mineral Industries, Oregon Department of",Calico Project Coordinating Committee,,11/13/2014 01:00:00 PM,11/13/2014 04:00:00 PM,Four Rivers Cultural Center, Ontario,OR,Agenda TBA,yes,ReNeea Lofton,(541) 967-2040,Reneea.Lofton@mlrr.OregonGeology.com,,,,ReNeea Lofton,(541) 967-2040,Reneea.Lofton@mlrr.OregonGeology.com,,,,,http://www.oregongeology.org/mlrr/chemicalprocess_Calico-GrassyMtn.htm,,,,,,,,
"Geology and Mineral Industries, Oregon Department of",Div. 10 & 15 Rules Adv.Comm.-POSTPONED,Divisions 10 & 15 Rules Advisory Committee Teleconference,07/25/2012 10:00:00 AM,07/25/2012 12:00:00 PM,Teleconference,,,"7/25/2012
Divisions 10 & 15 Rules Advisory Committee Teleconference

This meeting has been postponed. New date to be announced.",,Alyssa Boles,,alyssa.boles@mlrr.oregongeology.com,,,,,,,,,303-262-2240,784148,,deb.schueller@dogami.state.or.us,,,,,,,
"Geology and Mineral Industries, Oregon Department of",Calico Resources USA Technical Review Team Meeting,,09/28/2015 11:00:00 AM,09/28/2015 04:00:00 PM,4026 Fairview Industrial Dr., Salem,OR,"NOTE: DEQ has moved its offices adjacent to the ODFW offices. 

The public can monitor the call by phone. To register, contact the DOGAMI Offices in Albany at 541-967-2040. You will be provided the call-in number when you register.

See linked agenda PDF.",,ReNeea Lofton,541-967-2040,Reneea.Lofton@mlrr.OregonGeology.com,,,,ReNeea Lofton,541-967-2040,Reneea.Lofton@mlrr.OregonGeology.com,,,,,http://www.oregongeology.org/mlrr/noi/TRT_agenda_09-28-15.pdf,,,,,,,,
"Geology and Mineral Industries, Oregon Department of",DOGAMI Governing Board Meeting,Teleconference,06/12/2015 08:30:00 AM,06/12/2015 10:30:00 AM,"PSOB, 800 NE Oregon St., Ste. 965", Portland,OR,Teleconference. See agenda link.,,Alyssa Pratt,971-673-1555,alyssa.pratt@state.or.us,,http://www.oregongeology.org/sub/portoff/gmap-Portlandoffice.htm,,Alyssa Pratt,971-673-1555,alyssa.pratt@state.or.us,,,,,http://www.oregongeology.org/sub/portoff/boardagenda-06-12-2015.pdf,,,,,,,,
"Geology and Mineral Industries, Oregon Department of",Calico Resources USA Technical Review Team Teleconference,,03/05/2018 01:00:00 PM,03/05/2018 03:00:00 PM,Teleconference, Albany,OR,"The Technical Review Team for the Calico Resources proposed gold mine in Malheur County is scheduled to meet by phone on March 5, 2018 from 1:00 pm – 3:00 pm (Pacific). The Technical Review Team (TRT) is an interdisciplinary team of state agencies that reviews the application and develops consolidated permit conditions that conform to Oregon regulations.

 Please note public comments are not accepted during TRT meetings.

The public may listen to the meeting in person at the Department of Geology and Mineral Industries (DOGAMI) Mineral Land Regulation and Reclamation office at 229 Broadalbin Street SW, Albany, Oregon or by phone. To register, contact the DOGAMI Albany office at 541 967 2040. You will be provided the call in number when you register. Please register at least 72 hours prior to the meeting.",no,Ali Ryan Hansen,,mlrr.info@oregon.gov,,,,,,,,,,,http://www.oregongeology.org/mlrr/noi/TRT_public_notice_03_05_18_FINAL.pdf,,,,,,,,
"Geology and Mineral Industries, Oregon Department of",Calico Resources USA TECHNICAL REVIEW TEAM MEETING,,11/21/2016 01:00:00 PM,11/21/2016 03:30:00 PM,"Oregon DEQ offices, 4026 Fairview  Industrial Dr. SE", Salem,OR,"The public can monitor the call by phone.  To register, contact the DOGAMI Offices in Albany at (541) 967-2040.  You will be provided the call-in number when you register.  Please register 72 hours prior to the call. ",no,Ali Ryan Hansen,503-347-5898,Ali.HANSEN@oregon.gov,,,,,(541) 967 - 2040,,,,,,http://www.oregongeology.org/mlrr/noi/TRT-agenda-11-21-16.pdf,,,,,,,,
"Geology and Mineral Industries, Oregon Department of",DOGAMI Governing Board Meeting,,04/08/2016 08:30:00 AM,04/08/2016 03:45:00 PM,"Portland State Office Building, 800 NE Oregon St., Ste. 965", Portland,OR,See agenda.,yes,Ali Ryan Hansen,971-673-0628,ali.hansen@state.or.us,,http://www.oregongeology.org/sub/portoff/gmap-Portlandoffice.htm,,Ali Ryan Hansen,971-673-0628,ali.hansen@state.or.us,,,,,http://www.oregongeology.org/sub/portoff/boardagenda-04-08-2016.pdf,,,,http://www.oregongeology.org/sub/portoff/GovBrdMin.HTM,,,,
"Geology and Mineral Industries, Oregon Department of",Calico Resources USA Technical Review Team - Water Resources Subcommittee Telephone Meeting,,01/05/2017 10:30:00 AM,01/05/2017 12:00:00 PM,telephone meeting, Albany,OR,"The public can monitor the call in person at the DOGAMI–Mineral Land Regulation & Reclamation (MLRR) office at 229 Broadalbin Ave. SW, Albany, Oregon. The public can also monitor the call by phone. To register, contact the DOGAMI–MLRR Office at 541-967-2040. You will be provided the call-in number when you register. Please register 72 hours prior to the meeting.",no,DOGAMI-MLRR,(541) 967-2040,mlrr.info@oregon.gov,,,,,,,,,,,http://www.oregongeology.org/mlrr/noi/TRT-water-sub-agenda-01-05-17.pdf,,,,,,,,
"Geology and Mineral Industries, Oregon Department of",Calico Resources USA Technical Review Team Teleconference,,05/15/2018 01:00:00 PM,05/15/2018 02:00:00 PM,Teleconference,Albany,OR,"The Technical Review Team (TRT) for the Calico Resources proposed gold mine in Malheur County is scheduled to meet by phone on May 15, 2018 from 1:00 pm – 2:00 pm (Pacific).  The TRT is an inter-disciplinary team of state agencies that reviews information related to a proposed mine during all phases of the application process, and ultimately develops consolidated permit conditions that conform to Oregon regulations. 

The public may listen to the meeting in person at the Oregon Department of Geology and Mineral Industries 
(DOGAMI) Mineral Land Regulation and Reclamation office at 229 Broadalbin Street SW, Albany, Oregon or by phone.  To listen by phone dial (866) 434-5269 and enter the access code (8863532#).   

Meeting materials may also be presented online at:  www.webmeeting.att.com (Meeting number 866-434-5269; Access code 8863532).  For assistance, please contact the DOGAMI Albany office at (541) 967-2040.  

REASONABLE ACCOMMODATION OF DISABILITIES
Reasonable accommodation, such as assisted hearing devices, sign language interpreters, and materials in large print or audiotape, will be provided as requested. In order to ensure availability, please contact the DOGAMI Albany Office at 541-967-2040 at least 72 hours prior to the meeting to make your request. Services for persons with a hearing or speech disability are available by dialing 711.

ADDITIONAL INFORMATION
More about the Oregon Consolidated Application and Permitting process is posted at
http://www.oregongeology.org/mlrr/chemicalprocess_Calico-GrassyMtn.htm.",no,ReNeea Lofton,541-967-2040,mlrr.info@oregon.gov,,,,ReNeea Lofton,541-967-2040,mlrr.info@oregon.gov,,,866-434-5269,8863532#,http://www.oregongeology.org/mlrr/noi/2018-05-04_TRT_Public_Notice_May_15_2018_Mtg.pdf,,,,,,,,
"Geology and Mineral Industries, Oregon Department of",Calico Resources USA Technical Review Team Teleconference,,12/04/2017 01:00:00 PM,12/04/2017 03:30:00 PM,"800 NE Oregon Street, Suite 965", Portland,OR,"The Technical Review Team for the Calico Resources proposed gold mine in Malheur County is scheduled to meet by phone on December 4, 2017 from 1:00 pm – 3:30 pm (Pacific). The Technical Review Team (TRT) is an interdisciplinary team of state agencies that reviews the application and develops consolidated permit conditions that conform to Oregon regulations.

The public may listen to the meeting in person at the Dept. of Geology and Mineral Industries (DOGAMI) Portland office at 800 NE Oregon Street, Suite 965, Portland, Oregon or by phone. To register, contact the DOGAMI Albany office at 541-967-2040. You will be provided the call-in number when you register. Please register at least 72 hours prior to the meeting. Please note public comments are not accepted during TRT meetings.",no,DOGAMI Albany office,541-967-2040,Calico.File@oregon.gov,,,,DOGAMI Albany Office,541-967-2040,Calico.File@oregon.gov,,,,,http://www.oregongeology.org/mlrr/noi/TRT_public_notice_FINAL_12-04-17.pdf,,,,,,,,
"Geology and Mineral Industries, Oregon Department of",Public Information Meeting - proposed gold mine,,06/08/2017 02:00:00 PM,06/08/2017 04:00:00 PM,"Four Rivers Cultural Center, 676 SW 5th Avenue", Ontario,OR,"2 p.m. to 4 p.m., Mountain time.

News release: http://www.oregongeology.org/pubs/nr/press-release-2017-05-24.pdf

Public comment: Written comments will be accepted until 5 p.m. on July 3, 2017. Comments must be received by this time and date to be considered. Written comments may be submitted by email to Calico.File@oregon.gov (please note “Grassy Mtn Comments” in subject line) or by mail to DOGAMI, Attn: Grassy Mtn Comments, 229 Broadalbin St. SW, Albany, OR 97321.",,Grassy Mtn Comments,,Calico.File@oregon.gov,,,,,,,,,,,,,,,,,,,
"Geology and Mineral Industries, Oregon Department of",DOGAMI Governing Board Meeting,,06/10/2016 08:30:00 AM,06/10/2016 12:00:00 PM,"800 NE Oregon St., Ste. 965",Portland,OR,Board packet also available online.,yes,Ali Ryan Hansen,971-673-0628,ali.hansen@state.or.us,,http://www.oregongeology.org/sub/portoff/gmap-Portlandoffice.htm,,Ali Ryan Hansen,971-673-0628,ali.hansen@state.or.us,,,,,http://www.oregongeology.org/sub/portoff/boardagenda_6-10-2016.pdf,,,,,,,,
"Geology and Mineral Industries, Oregon Department of",DOGAMI Governing Board Special Meeting,,08/01/2016 09:00:00 AM,08/01/2016 10:00:00 AM,"PSOB, 800 NE Oregon St.", Portland,OR,,,Ali Ryan Hansen,503-347-5898,ali.hansen@state.or.us,,http://www.oregongeology.org/sub/portoff/gmap-Portlandoffice.htm,,Ali Ryan Hansen,503-347-5898,ali.hansen@state.or.us,,,,,http://www.oregongeology.org/sub/portoff/boardagenda_8-1-2016.pdf,,,,,,,,
"Geology and Mineral Industries, Oregon Department of",Calico Resources USA Technical Review team Telephone Meeting,,01/05/2017 02:30:00 PM,01/05/2017 03:30:00 AM,telephone meeting, Albany,OR,"The public can monitor the call in person at the DOGAMI–Mineral Land Regulation & Reclamation (MLRR) office at 229 Broadalbin Ave. SW, Albany, Oregon. The public can also monitor the call by phone. To register, contact the DOGAMI–MLRR Office at 541-967-2040. You will be provided the call-in number when you register. Please register 72 hours prior to the meeting.",no,DOGAMI-MLRR,( 541 ) 967-2040,mlrr.info@oregon.gov,,,,,,,,,,,http://www.oregongeology.org/mlrr/noi/TRT-agenda-01-05-17.pdf,,,,,,,,
"Geology and Mineral Industries, Oregon Department of",Public Hearing on Proposed Rulemaking,Public Hearing on Proposed Rulemaking regarding Exclusion Certificates,04/12/2016 02:00:00 PM,04/12/2016 04:00:00 PM,"Albany City Hall: Santiam Room, 333 Broadalbin St", Albany,OR,"DOGAMI is proposing administrative rules to set fees and deadlines for the exclusion certificate program, which requires small-scale aggregate and metal placer mining operations to apply for an exclusion certificate and pay application and renewal fees. Learn more about the proposed rules here: http://www.oregongeology.org/mlrr/surfacemining.htm

Written comments may also be submitted to DOGAMI at 229 Broadalbin St. SW, Albany, OR 97321, or by email to ecomments@mlrr.oregongeology.com. Comments received after 5 p.m. on April 29, 2016 will not be considered. ",yes,Ali Ryan Hansen,971-673-0628,ali.hansen@state.or.us,,,,Ali Ryan Hansen,971-673-0628,ali.hansen@state.or.us,,,,,,,,,,,,,
"Geology and Mineral Industries, Oregon Department of",Calico Resources USA Technical Review Team Meeting,,10/27/2016 02:00:00 PM,10/27/2016 04:00:00 PM,Telephone meeting ,Portland ,OR,"The public and media may listen to the meeting in person at the Oregon Department of Geology and Mineral Industries (DOGAMI) Portland offices, 800 NE Oregon St., Ste. 965, or listen by phone. For call-in instructions, contact the DOGAMI offices in Albany at 541-967-2040. ",,ReNeea Lofton ,541-967-2040,Reneea.LOFTON@oregon.gov,,,,,,,,,,,www.oregongeology.org/mlrr/chemicalprocess_Calico-GrassyMtn.htm (http://www.oregongeology.org/mlrr/chemicalprocess_Calico-GrassyMtn.htm),,,,,,,,
"Geology and Mineral Industries, Oregon Department of",CANCELED - Calico Resources USA Technical Review Team – Tailings Storage Facility Subcommittee Meeting,CANCELED - Calico Resources USA Technical Review Team – Tailings Storage Facility Subcommittee Meeting,11/27/2018 01:00:00 PM,11/27/2018 03:00:00 PM,CANCELED, Albany,OR,This meeting has been canceled.,,mlrr.info@oregon.gov,,mlrr.info@oregon.gov,,,,,,,,,,,,,,,,,,,
"Geology and Mineral Industries, Oregon Department of",Calico Resources USA Corp. TRT - Tailings Facility Design Subcommittee Teleconference,,09/13/2017 01:00:00 PM,09/13/2017 03:00:00 PM,Teleconference, Portland,OR,"PERSONS INTERESTED IN THE CALICO RESOURCES PROPOSED GOLD MINE IN MALHEUR
COUNTY:
The Tailings Facility Design Subcommittee of the Technical Review Team for the Calico Resources
proposed gold mine in Malheur County is scheduled to meet by phone on September 13, 2017 from 1:00pm –
3:00pm (Pacific). The Technical Review Team (TRT) is an interdisciplinary team of state agencies that reviews
the application and develops consolidated permit conditions that conform to Oregon regulations. The Tailings
Facility Design Subcommittee addresses engineering, environmental, and permitting issues related to the
tailings facility associated with the proposed mine.

The public may listen to the call by phone or in person by using the instructions in the meeting agenda. Please note public comments are not accepted during TRT meetings.

See the agenda for more information.",no,Ali Ryan Hansen,503-347-5898,ali.hansen@oregon.gov,,,,Ali Ryan Hansen,503-347-5898,ali.hansen@oregon.gov,,,,,http://www.oregongeology.org/mlrr/noi/TRT_tailings_sub_public_notice_09_13_17_FINAL.pdf,,,,,,,,
"Geology and Mineral Industries, Oregon Department of",DOGAMI Governing Board Meeting,,12/11/2017 08:30:00 AM,12/11/2017 12:00:00 PM,"Portland State Office Building, 800 NE Oregon St., Ste. 965", Portland,OR,,,Lori Calarruda,,dogami-info@oregon.gov,,,,Lori Calarruda,,dogami-info@oregon.gov,,,,,http://www.oregongeology.org/about/govboard/boardagenda_12-11-2017.pdf,,,,,,,,
"Geology and Mineral Industries, Oregon Department of",Public Hearing on Proposed Rulemaking,Public Hearing on Proposed Rulemaking regarding Exclusion Certificates,04/19/2016 05:00:00 PM,04/19/2016 07:00:00 PM,"Gieser Grand Hotel: Cellar Meeting Room, 1996 Main St ", Baker City,OR,"DOGAMI is proposing administrative rules to set fees and deadlines for the exclusion certificate program, which requires small-scale aggregate and metal placer mining operations to apply for an exclusion certificate and pay application and renewal fees. Learn more about the proposed rules here: http://www.oregongeology.org/mlrr/surfacemining.htm

Written comments may also be submitted to DOGAMI at 229 Broadalbin St. SW, Albany, OR 97321, or by email to ecomments@mlrr.oregongeology.com. Comments received after 5 p.m. on April 29, 2016 will not be considered. ",yes,Ali Ryan Hansen,971-673-0628,ali.hansen@state.or.us,,,,Ali Ryan Hansen,971-673-0628,ali.hansen@state.or.us,,,,,,,,,,,,,
"Geology and Mineral Industries, Oregon Department of",Calico Resources USA Technical Review Team – Water Resources Subcommittee Meeting,,11/21/2016 09:30:00 AM,11/21/2016 11:30:00 AM,"Oregon DEQ offices, 4026 Fairview Industrial Drive SE", Salem,OR,"The public can monitor the call by phone.  To register, contact the DOGAMI Offices in Albany at (541) 967-2040.  You will be provided the call-in number when you register. Please register 72 hours prior to the call.",no,Ali Ryan Hansen,503-347-5898,Ali.HANSEN@oregon.gov,,,,,(541) 967 - 20 40,,,,,,http://www.oregongeology.org/mlrr/noi/TRT-water-sub-agenda-11-21-16.pdf,,,,,,,,
"Geology and Mineral Industries, Oregon Department of",Calico Resources USA Technical Review Team - Tailings Facility Design Subcommittee Web/Teleconference,,01/17/2018 09:00:00 AM,01/17/2018 11:00:00 AM,Web/Teleconference, Albany,OR,"The Tailings Facility Design Subcommittee of the Technical Review Team for the Calico Resources
proposed gold mine in Malheur County is scheduled to meet by phone on January 17, 2018 from 9:00 am –
11:00 am (Pacific). The Technical Review Team (TRT) is an interdisciplinary team of state agencies that
reviews the application and develops consolidated permit conditions that conform to Oregon regulations. The Tailings Facility Design Subcommittee addresses engineering, environmental, and permitting issues related to the tailings facility associated with the proposed mine. 
     The public may listen to the meeting in person at the Department of Geology and Mineral Industries
(DOGAMI) Mineral Land Regulation and Reclamation office at 229 Broadalbin Street SW, Albany, Oregon or
by phone. To register, contact the DOGAMI Albany office at 541-967-2053. You will be provided the call-in
number when you register. Please register at least 72 hours prior to the meeting.
     More about the Oregon Consolidated Application and Permitting process is posted at
http://www.oregongeology.org/mlrr/chemicalprocess_Calico-GrassyMtn.htm.",no,DOGAMI MLLR (Albany) Office,541-967-2053,mlrr.info@oregon.gov,,http://www.oregongeology.org/about/gmap-mlrr.htm,,DOGAMI MLLR (Albany) Office,541-967-2053,mlrr.info@oregon.gov,,,,,http://www.oregongeology.org/mlrr/noi/TRT_tailings_sub_01-17-18_public_notice_FINAL.pdf,,,,,,,,
"Geology and Mineral Industries, Oregon Department of",Calico Resources USA Technical Review Team Geochemistry Subcommittee - Telephone Meeting,,06/16/2017 09:00:00 AM,06/16/2017 11:00:00 AM,Telephone Meeting , Portland,OR,"The public may listen to the meeting at the DOGAMI Portland office at 800 NE Oregon St., Suite 965, or listen by phone. For call-in instructions, contact DOGAMI at 541-967-2040. ",No,Mineral Land Regulation & Reclamation Program,541-967-2040,mlrr.info@oregon.gov,,,,,,,,,,,,,,,,TRT_GeoSub_06-16-17_Draft_Agenda_06-06-17.pdf (https://data.oregon.gov/views/gs36-7t8m/files/e2e78d09-2e18-4502-949e-aae5e3701fcf?download=true&filename=TRT_GeoSub_06-16-17_Draft_Agenda_06-06-17.pdf),,,
"Geology and Mineral Industries, Oregon Department of",DOGAMI Governing Board Meting,,12/05/2016 08:30:00 AM,12/05/2016 11:45:00 AM,"800 NE Oregon St., Ste. 965", Portland,OR,"PUBLIC TESTIMONY
If you wish to give testimony on any item scheduled on this agenda, please sign up on the sheets provided on the day of the meeting and you
will be called to testify by the Board Chair. The Board places great value on information received from the public. Persons desiring to testify or
otherwise present information to the Board are encouraged to:
1. Provide written summaries of information to the Board (6 sets);
2. Limit testimony to 3 minutes, recognizing that substance, not length, determines the value of testimony or written information;
3. Endorse rather than repeat testimony of other witnesses; and
4. Designate one spokesperson whenever possible when groups or organizations wish to testify",,Ali Ryan Hansen,503-347-5898,Ali.HANSEN@oregon.gov,,http://www.oregongeology.org/sub/portoff/gmap-Portlandoffice.htm,,Ali.HANSEN@oregon.gov,503-347-5898,Ali.HANSEN@oregon.gov,,,,,http://www.oregongeology.org/sub/portoff/boardagenda_12-5-2016.pdf,,,,,,,,
"Geology and Mineral Industries, Oregon Department of",Calico Resources USA Technical Team Meeting,,02/05/2018 10:00:00 AM,02/05/2018 01:00:00 PM,"DEQ Western Region Offices, 4026 Fairview Industrial Drive SE", Salem,OR,"The Technical Review Team for the Calico Resources proposed gold mine in Malheur County is scheduled to
meet in person in Salem and by phone on February 5, 2018 from 10:00 am – 1:00 pm (Pacific). The Technical
Review Team (TRT) is an interdisciplinary team of state agencies that reviews the application and develops
consolidated permit conditions that conform to Oregon regulations.
The public may listen to the call by phone or in person by using the instructions in the meeting agenda, http://www.oregongeology.org/mlrr/noi/2018-02-05_TRT_public_notice_FINAL.pdf. Please note public comments are not accepted during TRT meetings.",no,Karen Colvin,,mlrr.info@oregon.gov,,,,,,mlrr.info@oregon.gov,,,,,http://www.oregongeology.org/mlrr/noi/2018-02-05_TRT_public_notice_FINAL.pdf,,,,,,,,
"Geology and Mineral Industries, Oregon Department of",Interagency Hazards Mitigation Team  landslide subcommittee meeting,Oregon Landslide Risk Reduction Team (OLRRT) planning meeting,07/12/2018 09:00:00 AM,07/12/2018 11:00:00 AM,"800 NE Oregon St., Suite 965", Portland,OR,"OLRRT is an interdisciplinary team of state agencies focused on landslide risk reduction in Oregon. The OLRRT facilitates collaboration between entities with roles in reducing landslide risk in Oregon. The meeting will focus on planning and logistics for future meetings. The public and media may attend the meeting in person at the Oregon Department of Geology and Mineral Industries (DOGAMI) office at 800 NE Oregon St., Suite 965, Portland, OR. ",no,Lori Calarruda,,dogami-info@oregon.gov,,,,,,,,,,,,,,,,,,,
"Geology and Mineral Industries, Oregon Department of",Notice of Public Hearing - Enerfin Resources Northwest,,11/07/2017 09:00:00 AM,11/07/2017 12:00:00 PM,"800 NE Oregon St, Suite 956 – Basalt Conference Room", Portland,OR,"Notice of Public Hearing
Enerfin Resources Northwest has requested an exception to the well separation requirement for oil and gas wells set forth in OAR 632-010-0230. 

Enerfin will make a presentation not earlier than 9:15 a.m. Public comment will be accepted both before and after the presentation. DOGAMI will issue a written decision on the request following the hearing. ",yes,Ali Ryan Hansen,503-347-5898,ali.hansen@oregon.gov,,,,Ali Ryan Hansen,503-347-5898,ali.hansen@oregon.gov,,,,,,,,,http://www.oregongeology.org/mlrr/Tahe_Public_Notice_FINAL_10-19-17.pdf,,,,
"Geology and Mineral Industries, Oregon Department of",Calico Resources USA Technical Review Team Teleconference,,11/06/2017 01:00:00 PM,11/06/2017 03:30:00 PM,teleconference, Portland,OR,"The public may listen to the meeting in person at the Dept of Geology and Mineral Industries (DOGAMI) Portland office at 800 NE Oregon Street, Suite 965, Portland, Oregon or by phone. To register, contact the DOGAMI Albany office at 541-967-2040. You will be provided the call-in number when you register. Please register at least 72 hours prior to the meeting. Please note public comments are not accepted during TRT meetings.",No,Ali Ryan Hansen,503-347-5898,ali.hansen@oregon.gov,,,,Ali Ryan Hansen,503-347-5898,ali.hansen@oregon.gov,,,,,http://www.oregongeology.org/mlrr/noi/TRT_11-06-17_Public_Notice_FINAL.pdf,,,,,,,,
"Geology and Mineral Industries, Oregon Department of",Calico Resources USA Technical Review Team – Water Resources Subcommittee Teleconference,,05/07/2018 01:00:00 PM,05/07/2018 03:30:00 PM,teleconference,Albany,OR,"The Water Resources Subcommittee of the Technical Review Team for the Calico Resources proposed gold mine in Malheur County is scheduled to meet by phone on May 7, 2018 from 1:00 pm – 3:30 pm (Pacific). The Technical Review Team (TRT) is an interdisciplinary team of state agencies that reviews the application and develops consolidated permit conditions that conform to Oregon regulations.
     The public may listen to the meeting in person at the Department of Geology and Mineral Industries (DOGAMI) Mineral Land Regulation and Reclamation office at 229 Broadalbin Street SW, Albany, Oregon or by phone. To listen by phone dial (866) 434-5269 and enter the access code (8863532#).",no,MLRR Information,(541) 967-2040,mlrr.info@oregon.gov,,http://www.oregongeology.org/about/gmap-mlrr.htm,,MLRR Information,(541) 967-2040,mlrr.info@oregon.gov,,,,,http://www.oregongeology.org/mlrr/noi/2018-04-26_TRT_WaterSub_Public_Notice_May_7_Mtg_FINAL.pdf,,,,,,,,
"Geology and Mineral Industries, Oregon Department of",DOGAMI Governing Board Meeting,,09/18/2017 12:00:00 PM,09/18/2017 05:00:00 PM,"Aggregate Resource Industries (ARI), 4080 Commercial Avenue", Springfield,OR,See link for public meeting agenda PDF.,yes,Ali Ryan hansen,503-347-5898,ali.hansen@oregon.gov,,,,Ali Ryan Hansen,503-347-5898,ali.hansen@oregon.gov,,,,,http://www.oregongeology.org/sub/portoff/boardagenda_09-18-2017.pdf,,,,,,,,
"Geology and Mineral Industries, Oregon Department of",Calico Resources USA Technical Team Meeting,,07/25/2018 09:00:00 AM,07/25/2018 12:00:00 PM,"800 NE Oregon Street, Suite 965", Portland,OR,"The Technical Review Team (TRT) for the Calico Resources proposed gold mine in Malheur County is scheduled to meet in person and by phone on July 25, 2018 from 9:00 am – Noon (Pacific). The TRT is an inter-disciplinary team of state agencies that reviews information related to a proposed mine during all phases of the application process, and ultimately develops consolidated permit conditions that conform to Oregon regulations.

The public may listen to the meeting in person at the Oregon Department of Geology and Mineral Industries (DOGAMI) Portland offices, 800 NE Oregon Street, Suite 965, Basalt Conference Room. To listen to the meeting by phone, dial (866) 434-5269 and enter the access code (8863532#). 

ADDITIONAL INFORMATION
More about the Oregon Consolidated Application and Permitting process is posted at
http://www.oregongeology.org/mlrr/chemicalprocess_Calico-GrassyMtn.htm

REASONABLE ACCOMMODATION OF DISABILITIES
Reasonable accommodation, such as assisted hearing devices, sign language interpreters, and materials in large print or audiotape, will be provided as requested. In order to ensure availability, please contact the DOGAMI Albany Office at (541) 967-2040 at least 72 hours prior to the meeting to make your request. Services for persons with a hearing or speech disability are available by dialing 711.",no,ReNeea Lofton,541-967-2040,Calico.File@oregon.gov,,http://www.oregongeology.org/about/gmap-Portlandoffice.htm,,ReNeea Lofton,541-967-2040,Calico.File@oregon.gov,,,,,http://www.oregongeology.org/mlrr/noi/2018-07-10_TRT_July_25_Public_Notice_FINAL.pdf,,,,,,,,
"Geology and Mineral Industries, Oregon Department of",DOGAMI Governing Board Meeting,,04/06/2018 08:30:00 AM,04/06/2018 01:00:00 PM,"Portland State Office Building, 800 NE Oregon St., Suite 965", Portland,OR,"AGENDA
The Board meeting will begin at 8:30 am, and proceed chronologically through the agenda.

PUBLIC TESTIMONY
If you wish to give testimony on any item scheduled on this agenda, please sign up on the sheets provided on the day of the meeting and you
will be called to testify by the Board Chair. The Board places great value on information received from the public. Persons desiring to testify or
otherwise present information to the Board are encouraged to:
1. Provide written summaries of information to the Board (7 sets);
2. Limit testimony to 3 minutes, recognizing that substance, not length, determines the value of testimony or written information;
3. Endorse rather than repeat testimony of other witnesses; and
4. Designate one spokesperson whenever possible when groups or organizations wish to testify.

THANK YOU FOR TAKING TIME TO PRESENT YOUR VIEWS
If you bring written materials to the meeting, please provide seven (7) copies. If you have questions regarding this agenda, please contact
Lori Calarruda at (971) 673-1537 or you may email her at lori.calarruda@oregon.gov

REASONABLE ACCOMMODATION OF DISABILITIES
Reasonable accommodation, such as assisted hearing devices, sign language interpreters, and materials in large print or audiotape, will be
provided as requested. In order to ensure availability, please contact the Director's Office at (971) 673-1555 at least 72 hours prior to the
meeting to make your request.",yes,Lori Calarruda,971-763-1555,lori.calarruda@oregon.gov,,http://www.oregongeology.org/about/gmap-Portlandoffice.htm,,Lori Calarruda,971-763-1555,lori.calarruda@oregon.gov,,,,,http://www.oregongeology.org/about/govboard/boardagenda_4-6-2018.pdf,,,,http://www.oregongeology.org/about/govboard.htm,,,,
"Geology and Mineral Industries, Oregon Department of",Calico Resources USA Technical Review Team - Wildlife Subcommittee Teleconference ,,07/09/2018 09:00:00 AM,07/09/2018 11:00:00 AM,"Oregon Department of Fish and Wildlife (ODFW), 4034 Fairview Industrial Dr SE", Salem,OR,"The Wildlife Subcommittee of the Technical Review Team (TRT) for the Calico Resources proposed gold mine in Malheur County is scheduled to meet by phone on July 9, 2018 from 9:00 am – 11:00 am (Pacific). The TRT is an interdisciplinary team of state agencies that reviews information related to a proposed mine during all phases of the application process, and ultimately develops consolidated permit conditions that conform to Oregon regulations.
The public may listen to the meeting in person at the Oregon Department of Fish and Wildlife (ODFW) offices at 4034 Fairview Industrial Drive SE, Salem, OR 97302 or by phone. To listen by phone dial (866) 434-5269 and enter the access code (8863532#).
Meeting materials may also be presented online at: www.webmeeting.att.com (Meeting number 866-434-5269;
Access code 8863532). For assistance, please contact the DOGAMI Albany office at (541) 967-2040.",no,Randy Jones,541-967-2040,mlrr.info@oregon.gov,,,,,541-967-2040,mlrr.info@oregon.gov,,,,,http://www.oregongeology.org/mlrr/noi/2018-06-27_TRT-Wildlife_July%209_Public_Notice_FINAL.pdf,,,,,,,,
"Geology and Mineral Industries, Oregon Department of",DOGAMI Governing Board Public Meeting Agenda,,09/26/2016 09:30:00 AM,09/26/2016 04:15:00 PM,OSU LaSells Stewart Center/OSU Conference Center, Corvallis,OR,,yes,Ali Ryan Hansen,503-347-5898,ali.hansen@state.or.us,,,,Ali Ryan Hansen,503-347-5898,ali.hansen@state.or.us,,,,,http://www.oregongeology.org/sub/portoff/boardagenda_9-26-2016.pdf,,,,http://www.oregongeology.org/sub/portoff/GovBrdMin.HTM,,,,
"Geology and Mineral Industries, Oregon Department of",Calico Resources USA Corp. Proposed Gold Mine in Malheur County Agency Workshop,,11/16/2017 08:30:00 AM,11/16/2017 04:30:00 PM,"800 NE Oregon St., Suite 965, Basalt Conference Room", Portland,OR,"The application process for a proposed gold mine in Malheur County will be reviewed during a Nov. 16 workshop for the project’s coordinating and technical review committees.
The workshop is open to the public. Members of the public are welcome to attend and listen, but no public comment or questions will be taken during the workshop. There is a public call-in and web meeting option. For a call-in and web meeting option, contact Lori Calarruda at lori.calarruda@oregon.gov",no,Lori Calarruda,,lori.calarruda@oregon.gov,,http://www.oregongeology.org/about/gmap-Portlandoffice.htm,,,,,,,,,http://www.oregongeology.org/mlrr/noi/Callico_Grassy_Mrn_Wkshp_Agenda_20171116_Final.pdf,,,,,,,,
"Geology and Mineral Industries, Oregon Department of",Calico Resources USA Technical Review Team – Geochemistry Subcommittee Teleconference,,03/07/2018 10:00:00 AM,03/07/2018 12:00:00 PM,Teleconference,Albany,OR,"The Geochemistry Subcommittee of the Technical Review Team for the Calico Resources proposed gold mine in Malheur County is scheduled to meet by phone on March 7, 2018 from 10:00 am – noon (Pacific). The Technical Review Team (TRT) is an interdisciplinary team of state agencies that reviews the application and develops consolidated permit conditions that conform to Oregon regulations.

Please note public comments are not accepted during TRT meetings.

The public may listen to the meeting in person at the Department of Geology and Mineral Industries (DOGAMI) Mineral Land Regulation and Reclamation office at 229 Broadalbin Street SW, Albany, Oregon or by phone. To register, contact the DOGAMI Albany office at 541-967-2040. You will be provided the call-in number when you register. Please register at least 72 hours prior to the meeting.",no,Ali Ryan Hansen,,mlrr.info@oregon.gov,,,,,,,,,,,http://www.oregongeology.org/mlrr/noi/TRT_public_notice_geochem_sub_03_07_18_FINAL.pdf,,,,,,,,
"Geology and Mineral Industries, Oregon Department of",Public Information Meeting - proposed gold mine,,06/14/2017 02:00:00 PM,06/14/2017 04:00:00 PM,"Department of Environmental Quality 475 NE Bellevue Dr., Suite 110",Bend,OR,"News release:
http://www.oregongeology.org/pubs/nr/press-release-2017-05-24.pdf

Written comments will be accepted until 5 p.m. on July 3, 2017. Comments must be received by this time and date to be considered. Written comments may be submitted by email to Calico.File@oregon.gov (please note “Grassy Mtn Comments” in subject line) or by mail to DOGAMI, Attn: Grassy Mtn Comments, 229 Broadalbin St. SW, Albany, OR 97321.",,Grassy Mtn Comments,,Calico.File@oregon.gov,,,,,,,,,,,,,,,,,,,
"Geology and Mineral Industries, Oregon Department of",DOGAMI Governing Board Special Meeting,,07/23/2018 12:00:00 PM,07/23/2018 01:00:00 PM,"Portland State Office Building, Suite 965", Portland,OR,"The Governing Board of the Department of Geology and Mineral Industries will meet in a special session on July 23, 2018 in order to review and approve the agency's budget request for the 2019-2021 biennium. The meeting will be called to order at Noon at the Portland State Office Building, 800 NE Oregon St, Portland in Suite 965.

See agenda for more information:
http://www.oregongeology.org/about/govboard/boardagenda_7-23-2018.pdf
",yes,Lori Calarruda,971-673-1637,lori.calarruda@oregon.gov,,,,,,,,,,,http://www.oregongeology.org/about/govboard/boardagenda_7-23-2018.pdf,,,,,,,,
"Geology and Mineral Industries, Oregon Department of",DOGAMI Governing Board Meeting,,07/17/2018 07:30:00 AM,07/17/2018 03:30:00 AM,Hatfield Marine Science Center - Library Seminar Room, Newport,OR,"The Board meeting will begin at 7:30 a.m. with a tour of Newport sites that is open to the public. Public participants will need to provide their own transportation to tour sites. For the tour, meet at the parking lot outside the Guin Library at the Hatfield Marine Science Center. The regular public portion of the meeting agenda will start at approximately 11:00 a.m. in the HMSC Library Seminar Room and proceed chronologically through the agenda.

Agenda link: http://www.oregongeology.org/about/govboard/boardagenda_7-17-2018.pdf

If you wish to give testimony on any item scheduled on this agenda, please sign up on the sheets provided on the day of the meeting and you will be called to testify by the Board Chair. The Board places great value on information received from the public. Persons desiring to testify or otherwise present information to the Board are encouraged to:
1. Provide written summaries of information to the Board (6 sets);
2. Limit testimony to 3 minutes, recognizing that substance, not length, determines the value of testimony or written information;
3. Endorse rather than repeat testimony of other witnesses; and
4. Designate one spokesperson whenever possible when groups or organizations wish to testify.",yes,Lori Calarruda,971-673-1537,dogami-info@oregon.gov,,http://hmsc.oregonstate.edu/sites/hmsc.oregonstate.edu/files/directionstohmscguinlibrary_0.pdf,,Lori Calarruda,971-673-1537,dogami-info@oregon.gov,,,,,http://www.oregongeology.org/about/govboard/boardagenda_7-17-2018.pdf,,,,,,,,
"Geology and Mineral Industries, Oregon Department of",DOGAMI Governing Board Meeting,,04/17/2017 08:30:00 AM,04/17/2017 03:30:00 PM,"800 NE Oregon St., Ste 965",Portland,OR,See agenda.,yes,Ali Ryan Hansen,503-347-5898,ali.hansen@oregon.gov,,http://www.oregongeology.org/sub/portoff/gmap-Portlandoffice.htm,,Ali Ryan Hansen,503-347-5898,ali.hansen@oregon.gov,,,,,http://www.oregongeology.org/sub/portoff/boardagenda_04-17-2017.pdf,,,,http://www.oregongeology.org/sub/portoff/GovBrdMin.HTM,,,,
"Geology and Mineral Industries, Oregon Department of",DOGAMI Special Board Meeting,,08/01/2019 08:30:00 AM,08/01/2019 10:30:00 AM,"Portland State Office Bldg (PSOB),  800 NE Oregon St., Suite 965", Portland,OR,,,Lori Calarruda,,dogami-info@oregon.gov,,,,,,,,,,,,,,,https://www.oregongeology.org/about/govboard.htm,,,,
"Geology and Mineral Industries, Oregon Department of",DOGAMI Governing Board Meeting,,09/09/2019 08:30:00 AM,09/09/2019 12:00:00 PM,"Portland State Office Bldg (PSOB),  800 NE Oregon St., Suite 965", Portland,OR,,,Lori Calarruda,,dogami-info@oregon.gov,,,,,,,,,,,,,,,https://www.oregongeology.org/about/govboard.htm,,,,
"Geology and Mineral Industries, Oregon Department of",DOGAMI Governing Board Meeting,,12/09/2019 08:30:00 AM,12/09/2019 08:30:00 AM,"Portland State Office Bldg (PSOB),  800 NE Oregon St., Suite 965", Portland,OR,Agenda will be posted at https://www.oregongeology.org,,Lori Calarruda,,dogami-info@oregon.gov,,,,,,,,,,,,,,,https://www.oregongeology.org/about/govboard.htm,,,,
"Geology and Mineral Industries, Oregon Department of",DOGAMI Governing Board Meeting,DOGAMI Governing Board Meeting,10/01/2018 08:30:00 AM,10/01/2018 12:00:00 PM,"DOGAMI offices, 800 NE Oregon St., Ste. 965", Portland,OR,"See Agenda link for public meeting agenda.

PUBLIC TESTIMONY
If you wish to give testimony on any item scheduled on this agenda, please sign up on the sheets provided on the day of the meeting and you will be called to testify by the Board Chair. The Board places great value on information received from the public. Persons desiring to testify or otherwise present information to the Board are encouraged to:
1. Provide written summaries of information to the Board (7 sets);
2. Limit testimony to 3 minutes, recognizing that substance, not length, determines the value of testimony or written information;
3. Endorse rather than repeat testimony of other witnesses; and
4. Designate one spokesperson whenever possible when groups or organizations wish to testify.

THANK YOU FOR TAKING TIME TO PRESENT YOUR VIEWS
If you bring written materials to the meeting, please provide seven (7) copies. If you have questions regarding this agenda, please contact Lori Calarruda at (971) 673-1537 or you may email her at lori.calarruda@oregon.gov

REASONABLE ACCOMMODATION OF DISABILITIES
Reasonable accommodation, such as assisted hearing devices, sign language interpreters, and materials in large print or audiotape, will be provided as requested. In order to ensure availability, please contact the Director's Office at (971) 673-1555 at least 72 hours prior to the meeting to make your request.",yes,Lori Calarruda,971-673-1537,lori.calarruda@oregon.gov,,https://www.oregongeology.org/about/gmap-Portlandoffice.htm,,Lori Calarruda,971-673-1555,lori.calarruda@oregon.gov,,,,,https://www.oregongeology.org/about/govboard/boardagenda_10-1-2018.pdf,,,,,,,,
"Geology and Mineral Industries, Oregon Department of",Calico Resources USA Technical Review Team Meeting,Calico Resources USA Technical Review Team Meeting,11/28/2018 09:00:00 AM,11/28/2018 12:00:00 PM,Teleconference with public access at DOGAMI Albany offices, Albany,OR,"The Technical Review Team (TRT) for the Calico Resources proposed gold mine in Malheur County is scheduled to meet by phone on Wednesday, November 28, 2018 from 9:00 am – 12:00 pm (Pacific).  The TRT is an inter-disciplinary team of state agencies that reviews information related to a proposed mine during all phases of the application process, and ultimately develops consolidated permit conditions that conform to Oregon regulations.  
 
The public may listen to the meeting in person at the Oregon Department of Geology and Mineral Industries 
(DOGAMI) Mineral Land Regulation and Reclamation office at 229 Broadalbin Street SW, Albany, Oregon or by phone.  To listen by phone dial (866) 434-5269 and enter the access code (8863532#).    
Meeting materials may also be presented online at:  www.webmeeting.att.com (Meeting number 866-434-5269; Access code 8863532).  For assistance, please contact the DOGAMI Albany office at (541) 967-2040.  

The TRT will accept public comments at the end of this meeting. 

REASONABLE ACCOMMODATION OF DISABILITIES 
Reasonable accommodation, such as assisted hearing devices, sign language interpreters, and materials in large print or audiotape, will be provided as requested.  In order to ensure availability, please contact the DOGAMI Albany Office at (541) 967-2040 at least 72 hours prior to the meeting to make your request.  Services for persons with a hearing or speech disability are available by dialing 711. 

PUBLIC MEETING 
Technical Review Team (TRT) and subcommittee meetings are public meeting under Oregon’s Public Meeting Law.  The meeting will be tape recorded and a summary of the meeting will be prepared.  The public is able to listen to the TRT discussion in person or by phone. 
",yes,mlrr.info@oregon.gov,541-967-2040,mlrr.info@oregon.gov,,,,mlrr.info@oregon.gov,541-967-2040,mlrr.info@oregon.gov,,,,,https://www.oregongeology.org/mlrr/noi/20181128_TRT_PublicNotice_FINAL.pdf,,,,,,,,
"Geology and Mineral Industries, Oregon Department of",Calico Resources USA Technical Review Team  (TRT) meeting,Calico Resources USA Technical Review Team  (TRT) meeting,08/22/2018 10:00:00 AM,08/08/2018 01:00:00 PM,BLM Vale District Office – 100 Oregon Street, Vale,OR,"NOTE: meeting time is 
10:00 am - 1 pm Mountain Time
9:00 am - noon Pacific Time

The Technical Review Team (TRT) for the Calico Resources proposed gold mine in Malheur County is
scheduled to meet in person and by phone on August 22, 2018 from 10:00 am – 1:00 pm Mountain Time (9:00
am – noon Pacific). The TRT is an inter-disciplinary team of state agencies that reviews information related to a proposed mine during all phases of the application process, and ultimately develops consolidated permit
conditions that conform to Oregon regulations.

The public may listen to the meeting in person at the federal Bureau of Land Management (BLM) Vale District
Office, 100 Oregon Street, Vale, Oregon or by phone. To listen by phone dial (866) 434-5269 and enter the
access code (8863532#). 

REASONABLE ACCOMMODATION OF DISABILITIES
Reasonable accommodation, such as assisted hearing devices, sign language interpreters, and materials in large print or audiotape, will be provided as requested. In order to ensure availability, please contact the DOGAMI Albany Office at (541) 967-2040 at least 72 hours prior to the meeting to make your request. Services for persons with a hearing or speech disability are available by dialing 711.

PUBLIC MEETING
Technical Review Team (TRT) and subcommittee meetings are public meetings under Oregon’s Public Meeting Law. The meeting will be tape recorded and a summary of the meeting will be prepared. The public is able to listen to the TRT discussion in person or by phone. 

The TRT is accepting public comments on issues related to the agenda topics for a limited amount of time at the end of the meeting. Comments may be limited due to time constraints, and responses will not be provided during the meeting. TRT members will respond to comments and questions in writing following the meeting. Written comments will also be accepted for five (5) business days after the TRT meeting (until August 29, 2018 at 5 pm). Public comments can be e-mailed to Calico.File@oregon.gov or mailed to: Chemical Process Mining Coordinator, DOGAMI, 229 Broadalbin Street, SW, Albany, OR 97321.

This practice may be discontinued at the TRT’s discretion.

ADDITIONAL INFORMATION
More about the Oregon Consolidated Application and Permitting process is posted at
http://www.oregongeology.org/mlrr/chemicalprocess_Calico-GrassyMtn.htm.",yes,mlrr.info@oregon.gov,,mlrr.info@oregon.gov,,,,,,,,,,,http://www.oregongeology.org/mlrr/noi/2018-08-08_TRT_Aug22_Public_Notice_FINAL.pdf,,,,,,,,
"Geology and Mineral Industries, Oregon Department of",Calico Resources USA Technical Review Team  (TRT) meeting,,08/22/2018 09:00:00 AM,08/08/2018 12:00:00 PM,BLM Vale District Office – 100 Oregon Street, Vale,OR,"The Technical Review Team (TRT) for the Calico Resources proposed gold mine in Malheur County is
scheduled to meet in person and by phone on August 22, 2018 from 10:00 am – 1:00 pm Mountain Time (9:00
am – noon Pacific). The TRT is an inter-disciplinary team of state agencies that reviews information related to a proposed mine during all phases of the application process, and ultimately develops consolidated permit
conditions that conform to Oregon regulations.

The public may listen to the meeting in person at the federal Bureau of Land Management (BLM) Vale District
Office, 100 Oregon Street, Vale, Oregon or by phone. To listen by phone dial (866) 434-5269 and enter the
access code (8863532#). 

REASONABLE ACCOMMODATION OF DISABILITIES
Reasonable accommodation, such as assisted hearing devices, sign language interpreters, and materials in large print or audiotape, will be provided as requested. In order to ensure availability, please contact the DOGAMI Albany Office at (541) 967-2040 at least 72 hours prior to the meeting to make your request. Services for persons with a hearing or speech disability are available by dialing 711.

PUBLIC MEETING
Technical Review Team (TRT) and subcommittee meetings are public meetings under Oregon’s Public Meeting Law. The meeting will be tape recorded and a summary of the meeting will be prepared. The public is able to listen to the TRT discussion in person or by phone. 

The TRT is accepting public comments on issues related to the agenda topics for a limited amount of time at the end of the meeting. Comments may be limited due to time constraints, and responses will not be provided during the meeting. TRT members will respond to comments and questions in writing following the meeting. Written comments will also be accepted for five (5) business days after the TRT meeting (until August 29, 2018 at 5 pm). Public comments can be e-mailed to Calico.File@oregon.gov or mailed to: Chemical Process Mining Coordinator, DOGAMI, 229 Broadalbin Street, SW, Albany, OR 97321.

This practice may be discontinued at the TRT’s discretion.

ADDITIONAL INFORMATION
More about the Oregon Consolidated Application and Permitting process is posted at
http://www.oregongeology.org/mlrr/chemicalprocess_Calico-GrassyMtn.htm.",yes,mlrr.info@oregon.gov,,mlrr.info@oregon.gov,,,,,,,,,,,http://www.oregongeology.org/mlrr/noi/2018-08-08_TRT_Aug22_Public_Notice_FINAL.pdf,,,,,,,,
"Geology and Mineral Industries, Oregon Department of",DOGAMI Governing Board Meeting,,03/18/2019 08:30:00 AM,03/18/2019 11:30:00 AM,"Portland State Office Building, 800 NE Oregon St., Suite 965", Portland,OR,"AGENDA
The Board meeting will begin at 8:30 am, and proceed chronologically through the agenda.

PUBLIC TESTIMONY
If you wish to give testimony on any item scheduled on this agenda, please sign up on the sheets provided on the day of the meeting and you will be called to testify by the Board Chair. The Board places great value on information received from the public. Persons desiring to testify or otherwise present information to the Board are encouraged to:
1. Provide written summaries of information to the Board (7 sets);
2. Limit testimony to 3 minutes, recognizing that substance, not length, determines the value of testimony or written information;
3. Endorse rather than repeat testimony of other witnesses; and
4. Designate one spokesperson whenever possible when groups or organizations wish to testify.

THANK YOU FOR TAKING TIME TO PRESENT YOUR VIEWS 
If you bring written materials to the meeting, please provide seven (7) copies. If you have questions regarding this agenda, please contact Lori Calarruda at (971) 673-1537 or you may email her at lori.calarruda@oregon.gov

REASONABLE ACCOMMODATION OF DISABILITIES
Reasonable accommodation, such as assisted hearing devices, sign language interpreters, and materials in large print or audiotape, will be provided as requested. In order to ensure availability, please contact the Director's Office at (971) 673-1555 at least 72 hours prior to the meeting to make your request.",yes,Lori Calarruda,971-673-1555,lori.calarruda@oregon.gov,,,,Lori Calarruda,971-673-1555,lori.calarruda@oregon.gov,,,,,https://www.oregongeology.org/about/govboard/boardagenda_3-18-2019.pdf,,,,,,,,
"Geology and Mineral Industries, Oregon Department of",Calico Resources USA Project Coordinating Committee (PCC) Meeting,Calico Resources USA Project Coordinating Committee (PCC) Meeting,08/21/2018 01:00:00 PM,08/21/2018 04:30:00 PM,"Four Rivers Cultural Center, 676 SW 5th Ave", Ontario,OR,"NOTE: 
1 pm - 4:30 pm Mountain Time 
Noon - 3:30 pm Pacific Time

The Project Coordinating Committee (PCC) for the Calico Resources proposed gold mine in Malheur County
is scheduled to meet by phone and in person on August 21, 2018 from 1:00 pm – 4:30 pm Mountain Time
(Noon – 3:30 pm Pacific). The PCC is an interdisciplinary team of agencies sharing information and
coordinating county, state and federal permitting requirements, to facilitate exchange of ideas, optimize
communication, and avoid contradictions or duplications.

The public may listen to the meeting in person at the Four Rivers Cultural Center, 676 SW 5th Ave, Ontario,
Oregon or by phone. To listen by phone dial (866) 434-5269 and enter the access code (8863532#).

REASONABLE ACCOMMODATION OF DISABILITIES
Reasonable accommodation, such as assisted hearing devices, sign language interpreters, and materials in large print or audiotape, will be provided as requested. In order to ensure availability, please contact the DOGAMI Albany Office at (541) 967-2040 at least 72 hours prior to the meeting to make your request. Services for persons with a hearing or speech disability are available by dialing 711.

PUBLIC MEETING
The Project Coordinating Committee (PCC) meeting is a public meeting under Oregon’s Public Meeting Law.
The meeting will be tape recorded and a summary of the meeting will be prepared. The public is able to listen to the PCC discussion in person or by phone.

The PCC takes public comments during its meetings. Comments may be limited due to time constraints, and
responses will not be provided during the meeting. PCC members will respond to comments and questions in
writing following the meeting. Written comments will also be accepted for five (5) business days after the PCC
meeting (until August 28, 2018 at 5 pm). Public comments can be e-mailed to Calico.File@oregon.gov or mailed to Chemical Process Mining Coordinator, DOGAMI, 229 Broadalbin Street, SW, Albany, OR 97321.

ADDITIONAL INFORMATION
More about the Oregon Consolidated Application and Permitting process is posted at:
http://www.oregongeology.org/mlrr/chemicalprocessmining.htm",yes,mlrr.info@oregon.gov,,mlrr.info@oregon.gov,,,,,,,,,,,http://www.oregongeology.org/mlrr/noi/2018-08-08_PCC_Aug21_Public_Notice_FINAL.pdf,,,,,,,,
"Geology and Mineral Industries, Oregon Department of",DOGAMI Governing Board Meeting,,07/09/2019 08:30:00 AM,07/09/2019 01:00:00 PM,"PSOB, 800 NE Oregon St., Suite 965", Portland,OR,"See the meeting agenda PDF.

AGENDA
The Board meeting will begin at 8:30 am, and proceed chronologically through the agenda.

PUBLIC TESTIMONY
If you wish to give testimony on any item scheduled on this agenda, please sign up on the sheets provided on the day of the meeting and you will be called to testify by the Board Chair. The Board places great value on information received from the public. Persons desiring to testify or otherwise present information to the Board are encouraged to:
1. Provide written summaries of information to the Board (7 sets);
2. Limit testimony to 3 minutes, recognizing that substance, not length, determines the value of testimony or written information;
3. Endorse rather than repeat testimony of other witnesses; and
4. Designate one spokesperson whenever possible when groups or organizations wish to testify.

THANK YOU FOR TAKING TIME TO PRESENT YOUR VIEWS
If you bring written materials to the meeting, please provide seven (7) copies. If you have questions regarding this agenda, please contact Lori Calarruda at (971) 673-1537 or you may email her at lori.calarruda@oregon.gov

REASONABLE ACCOMMODATION OF DISABILITIES
Reasonable accommodation, such as assisted hearing devices, sign language interpreters, and materials in large print or audiotape, will be provided as requested. In order to ensure availability, please contact the Director's Office at (971) 673-1555 at least 72 hours prior to the meeting to make your request.",yes,Lori Calarruda,,lori.calarruda@oregon.gov,,https://www.oregongeology.org/about/gmap-Portlandoffice.htm,,Lori Calarruda,(971) 673-1555,lori.calarruda@oregon.gov,,,,,https://www.oregongeology.org/about/govboard/boardagenda_7_9_2019.pdf,,,,https://www.oregongeology.org/about/govboard.htm,,,,
"Geology and Mineral Industries, Oregon Department of",Calico Resources USA Technical Review Team (TRT) Meeting ,,09/26/2018 09:00:00 AM,09/26/2018 12:00:00 PM,"DOGAMI Albany office,  229 Broadalbin Street, SW", Albany,OR,"The Technical Review Team (TRT) for the Calico Resources proposed gold mine in Malheur County is scheduled to meet by phone on September 26, 2018 from 9:00 am – Noon (Pacific).  The TRT is an inter-disciplinary team of state agencies that reviews information related to a proposed mine during all phases of the application process, and ultimately develops consolidated permit conditions that conform to Oregon regulations. 

The public may listen to the meeting in person at the Oregon Department of Geology and Mineral Industries 
(DOGAMI) Mineral Land Regulation and Reclamation office at 229 Broadalbin Street SW, Albany, Oregon or by phone.  To listen by phone dial (866) 434-5269 and enter the access code (8863532#).   

Meeting materials may also be presented online at:  www.webmeeting.att.com (Meeting number 866-434-5269; Access code 8863532).  For assistance, please contact the DOGAMI Albany office at (541) 967-2040. 
 
The TRT will accept public comments at the end of this meeting – time is limited. Public comments can be e-mailed to Calico.file@oregeon.gov or mailed to:  Chemical Process Mining Coordinator, DOGAMI, 229 Broadalbin Street, SW, Albany, OR  97321",yes,mlrr.info@oregon.gov,,mlrr.info@oregon.gov,,,,,,mlrr.info@oregon.gov,,,,,http://www.oregongeology.org/mlrr/noi/2018-09-26_TRT_Public_Notice_FINAL.pdf,,,,,,,,
"Geology and Mineral Industries, Oregon Department of",Governing Board Special Meeting,,05/14/2020 09:00:00 AM,05/14/2020 11:00:00 AM,teleconference, Portland,OR,"To adhere to the state’s social distancing requirements and to slow the spread of COVID-19, this public meeting will be conducted via teleconference. Written testimony can be submitted in advance, but no later than 11 a.m. on the meeting day to lori.calarruda@oregon.gov. Written comments received will be distributed to the Board. Oregon Department of Geology and Mineral Industries organized a toll free call-in option for public access.
Dial: 1-844-766-2282
When prompted, enter ID number: 591213

PUBLIC TESTIMONY
For this special meeting, only written comments will be accepted.

REASONABLE ACCOMMODATION OF DISABILITIES
Please contact us at least three business days prior to the meeting to let us know if you need reasonable accommodations. Contact the Director's Office at (971) 673-1555 to make your request.",yes,Lori Calarruda,(971) 673-1555,lori.calarruda@oregon.gov,,,,Lori Calarruda,(971) 673-1555,lori.calarruda@oregon.gov,,,1-844-766-2282,591213,https://www.oregongeology.org/about/govboard/boardagenda_5_14_2020.pdf,,,,,,,,
"Geology and Mineral Industries, Oregon Department of",DOGAMI Governing Board Special Meeting,,06/23/2020 09:00:00 AM,06/23/2020 10:30:00 AM,teleconference, Portland,OR,"Teleconference Public Meeting Agenda

To adhere to the state’s social distancing requirements and to slow the spread of COVID-19, this public meeting will be conducted via teleconference. Written testimony can be submitted in advance, but no later than 11 a.m. on the meeting day to lori.calarruda@oregon.gov. Written comments received will be distributed to the Board. 

Oregon Department of Geology and Mineral Industries organized a toll free call-in option for public access.
Dial: 1-844-766-2282
When prompted, enter ID number: 591213",yes,Lori Calarruda,,lori.calarruda@oregon.gov,,,,Lori Calarruda,,lori.calarruda@oregon.gov,,,,,https://www.oregongeology.org/about/govboard/boardagenda_6_23_2020.pdf,,,,,,,,
"Geology and Mineral Industries, Oregon Department of",DOGAMI Governing Board Meeting,,07/13/2020 08:30:00 AM,07/13/2020 12:00:00 PM,virtual meeting, Portland,OR,"For this meeting, only written comments will be accepted. 
To adhere to the state’s social distancing requirements and to slow the spread of COVID-19, this public meeting will be conducted as a virtual meeting. Written testimony can be submitted in advance, but no later than 1 p.m. on the meeting day to lori.calarruda@oregon.gov. Written comments received will be distributed to the Board. 

REASONABLE ACCOMMODATION OF DISABILITIES
Please contact us at least three business days prior to the meeting to let us know if you need reasonable accommodations. Contact the Director's Office at (971) 673-1555 to make your request.",yes,Lori Calarruda,(971) 673-1555,lori.calarruda@oregon.gov,,,,Lori Calarruda,(971) 673-1555,lori.calarruda@oregon.gov,,,,,https://www.oregongeology.org/about/govboard/boardagenda_7_13_2020.pdf,,,,,,,,
"Geology and Mineral Industries, Oregon Department of",DOGAMI Governing Board Meeting,,07/28/2020 08:30:00 AM,07/28/2020 10:30:00 AM,Teleconference, Portland,OR,"To adhere to the state’s social distancing requirements and to slow the spread of COVID-19, this public meeting will be conducted as a virtual meeting. Written testimony can be submitted in advance, but no later than 10:30 a.m. on the meeting day to lori.calarruda@oregon.gov. Written comments received will be distributed to the Board.

See agenda for more information.",yes,Lori Calarruda,971-671-1555,dogami-info@oregon.gov,,,,Lori Calarruda,971-673-1555,dogami-info@oregon.gov,,,,,https://www.oregongeology.org/about/govboard/boardagenda_7-28-2020.pdf,,,,,,,,
"Geology and Mineral Industries, Oregon Department of",DOGAMI Governing Board Meeting,,09/25/2020 08:30:00 AM,09/25/2020 01:45:00 PM,teleconference, Portland,OR,"Note: public portion begins at 9:35 am.

To adhere to the state’ssocial distancing requirements and to slow the spread of COVID-19, this public meeting will be conducted as a virtual meeting. Written testimony can be submitted in advance, but no later than 10:30 a.m. on the meeting day to lori.calarruda@oregon.gov. Written comments received will be distributed to the Board.

Dial: 1-253-215-8782
When prompted, enter ID number: 988 4827 9149
If prompted for a Password: 412713

See meeting agenda for more information.",yes,Lori Calarruda,971-673-1555,dogami-info@oregon.gov,,,,Lori Calarruda,971-673-1555,dogami-info@oregon.gov,,,,,https://www.oregongeology.org/about/govboard/boardagenda_9-25-2020.pdf,,,,,,,,
"Geology and Mineral Industries, Oregon Department of",DOGAMI Governing Board Teleconference Meeting,,12/04/2020 08:30:00 AM,12/04/2020 12:30:00 PM,Teleconference, Portland,OR,"To adhere to the state’s social distancing requirements and to slow the spread of COVID-19, this public meeting will be conducted as a virtual meeting. Written testimony can be submitted in advance, but no later than 12:35 p.m. on the meeting day to lori.calarruda@oregon.gov. Written comments received will be distributed to the Board. 

To attend the teleconference:
Dial: 1-253-215-8782
When prompted, enter ID number: 924 3063 0694
If prompted for a Password: 110163


PLEASE NOTE:
AGENDA
The public portion of the Board meeting will begin at 8:30 a.m. and proceed chronologically through the agenda. Times listed on the agenda are
approximate. At the discretion of the chair, the time and order of agenda items—including addition of intermittent breaks—may change to maintain
meeting flow.

PUBLIC TESTIMONY
Only written comments will be accepted.

REASONABLE ACCOMMODATION OF DISABILITIES
Please contact us at least three business days prior to the meeting to let us know if you need reasonable accommodations. Contact the Director's Office at
(971) 673-1555 to make your request.",,Lori Calarruda,971-673-1555,lori.calarruda@oregon.gov,,,,Lori Calarruda,,lori.calarruda@oregon.gov,,,,,https://www.oregongeology.org/about/govboard/boardagenda_12-4-2020.pdf,,,,https://www.oregongeology.org/about/govboard.htm,,,,
"Geology and Mineral Industries, Oregon Department of",Technical Review Team (TRT) Wildlife Subcommittee Meeting,,02/01/2021 01:00:00 PM,02/01/2021 03:00:00 PM,video teleconference, Albany,OR,"The Technical Review Team (TRT) Wildlife Subcommittee for the Calico Resources proposed gold mine in Malheur County is scheduled to meet by video teleconference on February 1, 2021 from 1:00 pm – 3:00 pm (PST). The TRT Wildlife Subcommittee is an inter-disciplinary team of state agencies that reviews wildlife information and concerns related to a proposed mine during all phases of the application process, and ultimately develops wildlife-related consolidated permit conditions that conform to Oregon regulations.

Given COVID-19 safety restrictions, this meeting will be held remotely, and does not have in-person
access. 

The meeting will be conducted online and the public may listen/view the meeting. See agenda link for meeting information.",,MLRR Info,(541) 967-2083,mlrr.info@oregon.gov,,,,,,,,,,,https://www.oregongeology.org/mlrr/notices/20210201_TRT-WL_PublicNotice_FINAL.pdf,,,,,,,,
"Geology and Mineral Industries, Oregon Department of",Technical Review Team (TRT),,02/02/2021 02:00:00 PM,02/02/2021 04:00:00 PM,video teleconference, Albany,OR,"The Technical Review Team (TRT) for the Calico Resources proposed gold mine in Malheur County is
scheduled to meet by video teleconference on February 2, 2021 from 2:00 pm – 4:00 pm (PST). The TRT is
an inter-disciplinary team of state agencies that reviews information related to a proposed mine during all
phases of the application process, and ultimately develops consolidated permit conditions that conform to
Oregon regulations.

Given COVID-19 safety restrictions, this meeting will be held remotely, and does not have in-person
access. The meeting will be conducted online and the public may listen/view the meeting.

See agenda link for meeting information.",,MLRR Info,(541) 967-2083,mlrr.info@oregon.gov,,,,,,,,,,,https://www.oregongeology.org/mlrr/notices/20210202_TRT_PublicNotice_FINAL.pdf,,,,,,,,
"Geology and Mineral Industries, Oregon Department of",DOGAMI Governing Board Meeting,Teleconference Meeting,03/12/2021 08:30:00 AM,03/12/2021 12:00:00 PM,Teleconference meeting, Portland,OR,"To adhere to the state’ssocial distancing requirements and to slow the spread of COVID-19, this public meeting will be conducted as a virtual meeting. Written testimony can be submitted in advance, but no later than 11:50 a.m. on the meeting day to lori.calarruda@oregon.gov. Written comments received will be distributed to the Board.
Dial: 1-253-215-8782
When prompted, enter ID number: 926 1229 9019
If prompted for a Password: 172718

AGENDA
The public portion of the Board meeting will begin at 8:30 a.m. and proceed chronologically through the agenda. Times listed on the agenda are approximate. At the discretion of the Chair, the time and order of agenda items—including addition of intermittent breaks—may change to maintain meeting flow.

PUBLIC TESTIMONY
Only written comments will be accepted. 
",yes,Lori Calarruda,971-673-1555,lori.calarruda@oregon.gov,,,,Lori Calarruda,971-673-1555,lori.calarruda@oregon.gov,,,,,,,,,https://www.oregongeology.org/about/govboard.htm,,,,
"Geology and Mineral Industries, Oregon Department of",Rulemaking Public Hearing HB 2202 (2013),Rule hearing on proposed rules for Aggregate mining on high value farmland in the Willamette Valley,05/17/2021 03:30:00 PM,05/17/2021 05:00:00 PM,Virtual Meeting,Albany,OR,"To adhere to the state social distancing requirements and to slow the spread of COVID-19, this public meeting will be conducted as a virtual meeting. To participate in the Public Hearing please contact Becky Johnson at (541) 967-2083 or mlrr.info@oregon.gov. Written comments on the proposed rule and related rule amendments can be submitted directly to DOGAMI’s Rules Coordinator, Vaughn Balzer, at mlrr.info@Oregon.gov 
More information can be found on our web page: https://www.oregongeology.org/",yes,Vaughn Balzer,541-231-8368,mlrr.info@oregon.gov,,,,Lori Calarruda,971-673-1555,lori.calarruda@oregon.gov,,,Contact Becky Johnson at (541) 967-2083 or mlrr.info@oregon.gov for web meeting information.,Contact Becky Johnson at (541) 967-2083 or mlrr.info@oregon.gov for web meeting information.,,,,,,,,,
"Geology and Mineral Industries, Oregon Department of",DOGAMI Governing Board Meeting,Teleconference Public Meeting,06/25/2021 08:30:00 AM,06/25/2021 01:30:00 PM,Teleconference Public Meeting, Portland,OR,"To adhere to the state’s social distancing requirements and to slow the spread of COVID-19, this public meeting will be conducted as a virtual meeting. Written testimony can be submitted in advance, but no later than 1:30 p.m. on the meeting day to lori.calarruda@oregon.gov. Written comments received will be distributed to the Board.

Dial: 1-253-215-8782
When prompted, enter ID number: 931 9765 9491
If prompted for a Password: 226786

AGENDA
The public portion of the Board meeting will begin at 8:30 a.m. and proceed chronologically through the agenda. Times listed on the agenda are approximate. At the discretion of the Chair, the time and order of agenda items—including addition of intermittent breaks—may change to maintain meeting flow.

PUBLIC TESTIMONY
Only written comments will be accepted.

REASONABLE ACCOMMODATION OF DISABILITIES
Please contact us at least three business days prior to the meeting to let us know if you need reasonable accommodations. Contact the Director's Office at
(971) 673-1555 to make your request.
",Only written comments will be accepted.,Lori Calarruda,971-671-1555,dogami-info@oregon.gov,,,,Lori Calarruda,971-671-1555,dogami-info@oregon.gov,,,,,https://www.oregongeology.org/about/govboard/boardagenda_6-25-2021.pdf,,,,,,,,
"Geology and Mineral Industries, Oregon Department of",DOGAMI Governing Board Meeting,,08/19/2021 03:30:00 PM,08/19/2021 05:00:00 PM,"Portland, OR",Portland,OR,"PORTLAND, Ore. - The Governing Board of the Oregon Department of Geology and Mineral Industries (DOGAMI) will meet in Executive Session on Thursday, August 19 at 3:30 p.m. to 5:00 p.m. If a member
of the media would like to attend, please reach out to Lori Calarruda to make prior arrangements. To adhere to the state’s social distancing requirements and to slow the spread of COVID-19, this public
meeting will be conducted as a virtual meeting.

The meeting agenda is available at https://www.oregongeology.org.

The DOGAMI Governing Board sets policy and oversees general operations, and adopts a strategic plan every six years. The Board meets at least quarterly. As active members of their communities, Board members provide an important connection between Oregonians and DOGAMI's mission of providing earth science information and regulation to make Oregon safe and prosperous.",,Lori Calarruda,971-940-4851,dogami-info@oregon.gov,,,,,,,,,,,,,,,,Board_agenda_8_19_2021 - Final.pdf (https://data.oregon.gov/views/gs36-7t8m/files/d6582c3f-3b8b-4f34-9959-8b5af5d31388?download=true&filename=Board_agenda_8_19_2021%20-%20Final.pdf),,,
"Geology and Mineral Industries, Oregon Department of",DOGAMI Governing Board Meeting,,09/17/2021 08:30:00 AM,09/17/2021 11:45:00 AM,"Portland, OR",PORTLAND,OR,"DOGAMI Governing Board to meet September 17

PORTLAND, Ore. - The Governing Board of the Oregon Department of Geology and Mineral Industries (DOGAMI) will meet on Friday, September 17 at 8:30 a.m. to 11:50 a.m. To adhere to the state’s social distancing requirements and to slow the spread of COVID-19, this public meeting will be conducted as a virtual meeting.

The meeting agenda is available at https://www.oregongeology.org/about/govboard/Board_agenda_9_17_2021.pdf

The DOGAMI Governing Board sets policy and oversees general operations, and adopts a strategic plan every six years. The Board meets at least quarterly. As active members of their communities, Board members provide an important connection between Oregonians and DOGAMI's mission of providing earth science information and regulation to make Oregon safe and prosperous.
",,Lori Calarruda,971-940-4851,lori.calarruda@oregon.gov,,,,,,,,,,,,,,,,,,,
"Geology and Mineral Industries, Oregon Department of",DOGAMI Governing Board Meeting,,03/04/2022 08:30:00 AM,03/04/2022 11:45:00 AM,Online,Portland,OR,,,Lori Calarruda,,lori.calarruda@dogami.oregon.gov,,,,,,,,,,,,,,,,boardagenda_03_04_2022.pdf (https://data.oregon.gov/views/gs36-7t8m/files/c2891ee1-0023-4b2d-8486-73c21a7186a7?download=true&filename=boardagenda_03_04_2022.pdf),,,
"Geology and Mineral Industries, Oregon Department of",DOGAMI Governing Board Meeting,,12/10/2021 08:30:00 AM,12/10/2021 04:30:00 PM,Online meeting, Portland,OR,,,Lori Calarruda,9719404851,lori.calarruda@dogami.oregon.gov,,,,,,,,,,,,,,,,,,,
"Geology and Mineral Industries, Oregon Department of",DOGAMI Governing Board Meeting,,12/10/2021 08:30:00 AM,12/10/2021 03:30:00 PM,Online meeting,PORTLAND,OR,,,Lori Calarruda,,lori.calarruda@dogami.oregon.gov,,,,,,,,,,,,,,,https://www.oregongeology.org/about/govboard/DOGAMIGoverningBoardtomeetDecember10_11.24.21.pdf,,,,
"Geology and Mineral Industries, Oregon Department of",Calico Resources Technical Review Team (TRT) Water Resources Subcommittee Meeting,,05/25/2022 02:00:00 PM,05/25/2022 04:00:00 PM,Online,Portland,OR,"State agencies will meet by teleconference May 25 on a proposed chemical process gold mine in Malheur County.  

The Technical Review Team (TRT) Water Resources Subcommittee will meet by teleconference on Wednesday May 25, 2022 from 2:00 p.m. to 4 p.m. PST.  

The public notices and related documents are available at: https://www.oregongeology.org/mlrr/chemicalprocess_Calico-GrassyMtn.htm ",,Alex Lopez,(971) 673-1535 ,alex.lopez@dogami.oregon.gov,,,,,,,true,,,,,,,,,20220525_TRT-WR_PublicNotice_CORRECTED_FINAL.pdf (https://data.oregon.gov/views/gs36-7t8m/files/fef8f0eb-a587-45d9-87db-792877228558?download=true&filename=20220525_TRT-WR_PublicNotice_CORRECTED_FINAL.pdf),,,
"Geology and Mineral Industries, Oregon Department of",DOGAMI Governing Board Meeting,,06/16/2022 08:30:00 AM,06/17/2022 01:00:00 PM,Online,Portland,OR,,,Lori Calarruda,(971) 673-1537 ,lori.calarruda@dogami.oregon.gov,,,,,,,,,,,,,,,,boardagenda_06_16_2022.pdf (https://data.oregon.gov/views/gs36-7t8m/files/16cdc814-534c-4680-9e08-26e05394666a?download=true&filename=boardagenda_06_16_2022.pdf),,,
"Geology and Mineral Industries, Oregon Department of",Calico Resources Technical Review Team (TRT) Meeting,,06/30/2022 01:30:00 PM,06/30/2022 03:30:00 PM,Online,Portland,OR,"State agencies will meet by teleconference June 30 on a proposed chemical process gold mine in Malheur County. 

The Technical Review Team (TRT) will meet by teleconference on Thursday June 30, 2022 from 1:30 p.m. to 3:30 p.m. PST. 

The public notice and related documents are available at: https://www.oregongeology.org/mlrr/chemicalprocess_Calico-GrassyMtn.htm 

The public and media can listen to the meetings by joining the Zoom Meeting online, or by phone. For online meeting details and call-in instructions, see the meeting agenda in the public notice. For further information, contact the DOGAMI Albany office at (541) 967-2083 or email: information.grassymtn@dogami.oregon.gov

The TRT is an inter-disciplinary team of state agencies that reviews information and concerns related to a proposed mine during all phases of the application process, and ultimately develops consolidated permit conditions that conform to Oregon regulations. ",,Alex Lopez,(971) 673-1535 ,alex.lopez@dogami.oregon.gov,,,,,,,true,,,,https://www.oregongeology.org/mlrr/notices/20220630_TRT_PublicNotice_FINAL.pdf,,,,,,,,
"Geology and Mineral Industries, Oregon Department of","State agencies to meet June 30, 2022 at Technical Review Team Geochemistry Subcommittee meeting on proposed gold mine in Malheur County ",,06/30/2022 10:00:00 AM,06/30/2022 12:00:00 PM,Online,Portland,OR,"State agencies will meet by teleconference June 30 on a proposed chemical process gold mine in Malheur County.

The Technical Review Team (TRT) Geochemistry Subcommittee will meet by teleconference on Thursday June 30, 2022 from 10:00 a.m. to 12:00 p.m. PST.  

The public notice and related documents are available at: https://www.oregongeology.org/mlrr/chemicalprocess_Calico-GrassyMtn.htm  

The public and media can listen to the meeting by joining the Zoom Meeting online, or by phone. For online meeting details and call-in instructions, see the meeting agenda in the public notice. For further information, contact the DOGAMI Albany office at (541) 967-2083 or email: information.grassymtn@dogami.oregon.gov.  

The TRT Geochemistry Subcommittee is an inter-disciplinary team of state agencies that reviews geochemistry information and concerns related to a proposed mine during all phases of the application process, and ultimately develops geochemistry-related consolidated permit conditions that conform to Oregon regulations. ",https://www.oregongeology.org/mlrr/noi/Calico/responseDocs/20220630_TRT_Geochem_PublicCommForm_FINAL.pdf,Alex Lopez,(971) 673-1535 ,alex.lopez@dogami.oregon.gov,,,,,,,true,,,,https://www.oregongeology.org/mlrr/notices/20220630_TRT_Geochem_PublicNotice_FINAL.pdf,,,,,,,,
"Geology and Mineral Industries, Oregon Department of",DOGAMI Governing Board to conduct special meeting on July 13,,07/13/2022 03:00:00 PM,07/13/2022 04:15:00 PM,Teleconference,Portland,OR,"The Governing Board of the Oregon Department of Geology and Mineral Industries (DOGAMI) will meet in a special session on Wednesday, July 13, to review and approve the Agency Request Budget. This public meeting will be conducted via teleconference from 3:00 p.m. to 4:15 p.m. ",Yes,Alex Lopez,(971) 673-1535 ,alex.lopez@dogami.oregon.gov,,,,,,,,,,,https://www.oregongeology.org/about/govboard/boardagenda_7_13_2022.pdf,,,,,,,,
