"Agency, Board, Commission, Branch",Meeting Title,Short Description,Start Date & Time,End Date & Time,Meeting Location,City,State,Details,Public Comment Accepted,Contact Name,Phone Number,Contact Email,Web Link (optional),Map Link,Calendar Link,ADA Contact,ADA Contact Phone,ADA Contact Email,Webinar/Webcast?,Webinar/Webcast Link,Public Call-In Number,Call-in Access Code,Agenda URL,Owner,Agenda Upload,Map Location,Weblink to Meeting Minutes/Summaries,Agenda Download,2010 House Districts,2010 Senate Districts,Counties
Secretary of State,Notice of Proposed Rulemaking,Changes Date and Time Regarding Data used for Hand Counts,10/06/2022 02:00:00 PM,10/06/2022 02:30:00 PM,Virtual,Salem,OR,,Yes,Bob Roberts​,503-986-1518,elections.sos@sos.oregon.gov,,,,,,,true,https://teams.microsoft.com/l/meetup-join/19:meeting_ZWNhYjRjNTAtZDZlZC00MWIzLTg0MTMtZmIzMzlhNGU2ODUx%40thread.v2/0?context=%7b%22Tid%22:%22aa3f6932-fa7c-47b4-a0ce-a598cad161cf%22%2c%22Oid%22:%22cf28fe28-bbbb-4fde-a7e5-b4f3418e58d4%22%7d,503-446-4951,121786143#,https://sos.oregon.gov/elections/Pages/rulemaking.aspx,,,,https://sos.oregon.gov/elections/Pages/rulemaking.aspx,,,,
Secretary of State,Notice of Proposed Rulemaking,Implements HB3021 allowing submission of translated federal and statewide candidate statements and state measure arguments,10/04/2022 02:00:00 PM,10/04/2022 02:30:00 PM,Virtual,Salem,OR,,Yes,Bob Roberts​,503-986-1518,elections.sos@sos.oregon.gov,,,,,,,true,https://teams.microsoft.com/l/meetup-join/19:meeting_MzE4YjMxOGMtMjU3MS00YjgzLWE5ZDAtY2YyODBmZTUyOThj%40thread.v2/0?context=%7b%22Tid%22:%22aa3f6932-fa7c-47b4-a0ce-a598cad161cf%22%2c%22Oid%22:%22cf28fe28-bbbb-4fde-a7e5-b4f3418e58d4%22%7d,503-446-4951,224345855# ​,https://sos.oregon.gov/elections/Pages/rulemaking.aspx,,,,https://sos.oregon.gov/elections/Pages/rulemaking.aspx,,,,
Secretary of State,Translation Advisory Council Meeting,,09/07/2022 06:00:00 PM,09/07/2022 08:00:00 PM,Remote,Salem,OR,"The Secretary of State’s Translation Advisory Council will meet virtually on Wednesday, September 7, at 6:00 PM to review the translation process and to elect Council officers.

Wednesday, September 7, 2022, at 6:00 pm

•	Link for remote attendance
•	Agenda: 1) Welcome 2) Review Process Evaluation 3) Officer Elections

The Council is not required to take public testimony.

The Council was created to make recommendations to the Secretary on matters of translation, including the translation of voters’ pamphlets prior to each election. Council members review translated voter information to ensure accuracy and retain the original tone and meaning in a culturally appropriate manner. The Council is comprised of five members who are appointed at large and translator members who have proficiency in one of the most commonly spoken languages in Oregon.

Additional information can be found on the Translation Advisory Council website.",,Kelly Mills,503-986-2312,TAC.info@sos.oregon.gov,,,,,,,,https://teams.microsoft.com/l/meetup-join/19%3ameeting_NGUyM2VkZDEtNGFmMS00Mjg3LWJlMzYtZTZhNDgwNmRmODZl%40thread.v2/0?context=%7b%22Tid%22%3a%22aa3f6932-fa7c-47b4-a0ce-a598cad161cf%22%2c%22Oid%22%3a%22b97246b9-0909-43ad-a6cb-be91c56d8609%22%7d,,,,,,,https://www.oregon.gov/languages/Pages/about-meetings.aspx,,,,
Secretary of State,Democratic Party State Representative District 52 Nominees,,09/07/2022 03:00:00 PM,09/07/2022 04:00:00 PM,https://clackamascounty.zoom.us/webinar/register/WN_LWCDcStcQDaPiJaJ5pfdhQ,Salem,OR,"The Democratic Party precinct committeepersons of State Representative District 52 met and chose nominees to fill the vacancy. The nominees chosen are:
1.	Kristen Dillon
2.	Lori Kuechler
3.	Nicholas Walden Poublon		 
		
		
The Appointing Authority must meet to appoint one person from the list of nominees. The vacancy must be filled no later than September 13, 2022, 30 days after the vacancy occurred. 
",,Lydia Plukchi,15039861518,elections.sos@oregon.gov,,,,,,,true,https://clackamascounty.zoom.us/webinar/register/WN_LWCDcStcQDaPiJaJ5pfdhQ,,,,,,,,,,,
Secretary of State,Proposed Rulemaking Hearing: Elections Division,Implements HB3021 allowing submission of translated federal and statewide candidate statements and state measure arguments,08/25/2022 03:00:00 PM,08/25/2022 03:30:00 PM,Virtual,Salem,OR,"Last day and time to offer comment to age​ncy: August 26, 2022, 5 p.m.",Yes,Bob Roberts​,503-986-1518,elections.sos@sos.oregon.gov,,,,,,,true,https://teams.microsoft.com/l/meetup-join/19:meeting_ZWMyNDNmZGYtNmM3MC00ZmE3LTg1MDgtNTVmMjU3YzRkMDQy%40thread.v2/0?context=%7b%22Tid%22:%22aa3f6932-fa7c-47b4-a0ce-a598cad161cf%22%2c%22Oid%22:%22c9977c60-6177-4f86-9847-be520a43af86%22%7d,503-446-4951,429208309#,https://sos.oregon.gov/elections/Pages/rulemaking.aspx,,,,https://sos.oregon.gov/elections/Pages/rulemaking.aspx,,,,
Secretary of State,TRANSLATION ADVISORY COUNCIL MEETING,,08/15/2022 06:00:00 PM,08/15/2022 08:00:00 PM,Remote,Salem,OR,"Pursuant to ORS 251.173, the Secretary of State’s Translation Advisory Council is convened to make recommendations to the Secretary on matters of translation including the translation of voters’ pamphlets prior to each election. The Council reviews translated voter information to ensure that translations are accurate and retain the original tone and meaning in a culturally appropriate manner. The Council is comprised of five members appointed at large and translator members who have proficiency in one of the most commonly spoken languages in Oregon.

The Council will meet virtually on Monday, August 15, at 6:00 PM via Microsoft Teams. The purpose of this meeting is to provide training on the process of reviewing professional translations and to nominate Council officers. The Council is not required to take public testimony. Additional information can be found on the Translation Advisory Council website.

•	Agenda: 1) Welcome 2) Training 3) Officer Nominations
",,Kelly Mills,503-986-2312,TAC.info@sos.oregon.gov,,,,,,,true,https://teams.microsoft.com/l/meetup-join/19%3ameeting_ZTA1MTFiMDgtYzMwNS00ZWRkLWExZjEtYzA4YjBhZGQxMTNl%40thread.v2/0?context=%7b%22Tid%22%3a%22aa3f6932-fa7c-47b4-a0ce-a598cad161cf%22%2c%22Oid%22%3a%22b97246b9-0909-43ad-a6cb-be91c56d8609%22%7d,,,,,,,https://www.oregon.gov/languages/Pages/about-meetings.aspx,,,,
Secretary of State,Measure 111 (Referral 401) Explanatory Statement Reconsideration Meeting,"Measure 111 (Referral 401) - Amends Constitution: State must ensure affordable healthcare access, balanced against requirement to fund schools, other essential services",08/09/2022 09:00:00 AM,08/09/2022 11:00:00 AM,Virtual,Salem,OR,Watch ​t​he committee deliberations live on the Oregon State legislative website​: https://www.oregonlegislature.gov/citizen_engagement/Pages/NonLegislative_Video.aspx,,Elections Division,,elections.sos@sos.oregon.gov,,,,,,,true,https://www.oregonlegislature.gov/citizen_engagement/Pages/NonLegislative_Video.aspx,,,https://sos.oregon.gov/elections/Pages/explanatory-statement.aspx,,,,https://sos.oregon.gov/elections/Pages/explanatory-statement.aspx,,,,
Secretary of State,Explanatory Statement Reconsideration Meeting,Reconsideration meeting for Measure 114 (IP 17),08/09/2022 08:00:00 AM,08/09/2022 08:30:00 AM,Virtual,Salem,OR,The committee preparing the explanatory statement for Measure 114 (IP 17) will hold an additional meeting to finish its work. The meeting will be viewable on the Legislature's website. https://www.oregonlegislature.gov/citizen_engagement/Pages/NonLegislative_Video.aspx,No,Elections Division,,elections.sos@sos.oregon.gov,,,,,,,,,,,https://sos.oregon.gov/elections/Pages/explanatory-statement.aspx,,,,https://sos.oregon.gov/elections/Pages/explanatory-statement.aspx,,,,
Secretary of State,Measure 112 (Referral 402) Explanatory Statement Reconsideration Meeting,Measure 112 (Referral 402) - Amends Constitution: Removes language allowing slavery and involuntary servitude as punishment for crime,08/08/2022 03:00:00 PM,08/08/2022 05:00:00 PM,Virtual,Salem,OR,Watch ​t​he committee deliberations live on the Oregon State legislative website​ https://www.oregonlegislature.gov/citizen_engagement/Pages/NonLegislative_Video.aspx,,Elections Division,,elections.sos@sos.oregon.gov,,,,,,,true,https://www.oregonlegislature.gov/citizen_engagement/Pages/NonLegislative_Video.aspx,,,https://sos.oregon.gov/elections/Pages/explanatory-statement.aspx,,,,https://sos.oregon.gov/elections/Pages/explanatory-statement.aspx,,,,
Secretary of State,Measure 114 (IP 17) Fiscal Estimate Reconsideration Meeting ,,08/05/2022 01:00:00 PM,08/05/2022 02:00:00 PM,Virtual,Salem,OR,Watch the meeting on the Oregon Legislature website​.: https://www.oregonlegislature.gov/citizen_engagement/Pages/NonLegislative_Video.aspx,No,Elections Division,,elections.sos@sos.oregon.gov,,,,,,,,,,,https://sos.oregon.gov/elections/Pages/committee-meetings.aspx,,,,https://sos.oregon.gov/elections/Pages/committee-meetings.aspx,,,,
Secretary of State,Measure 113 (IP 14) Fiscal Estimate Reconsideration Meeting ,,08/05/2022 01:00:00 PM,08/05/2022 02:00:00 PM,Virtual,Salem,OR,"Watch the meeting on the Oregon Legislature website:
https://www.oregonlegislature.gov/citizen_engagement/Pages/NonLegislative_Video.aspx",No,Elections Division,,elections.sos@sos.oregon.gov,,,,,,,,,,,https://sos.oregon.gov/elections/Pages/committee-meetings.aspx,,,,https://sos.oregon.gov/elections/Pages/committee-meetings.aspx,,,,
Secretary of State,Measure 112 (Referral 402) Fiscal Estimate Reconsideration Meeting,,08/05/2022 01:00:00 PM,08/05/2022 02:00:00 PM,Virtual,Salem,OR,Watch the meeting on the Oregon Legislature website​: https://www.oregonlegislature.gov/citizen_engagement/Pages/NonLegislative_Video.aspx,No,Elections Division,,elections.sos@sos.oregon.gov,,,,,,,,,,,https://sos.oregon.gov/elections/Pages/committee-meetings.aspx,,,,https://sos.oregon.gov/elections/Pages/committee-meetings.aspx,,,,
Secretary of State,Financial Estimate Committee,,08/05/2022 01:00:00 PM,08/05/2022 02:00:00 PM,Virtual,Salem,OR,,No,Elections Division,503-986-1518,elections.sos@sos.oregon.gov,,,,,,,true,https://www.oregonlegislature.gov/citizen_engagement/Pages/NonLegislative_Video.aspx,,,https://sos.oregon.gov/elections/Pages/committee-meetings.aspx,,,,https://sos.oregon.gov/elections/Pages/committee-meetings.aspx,,,,
Secretary of State,Measure 114 (IP 17) Explanatory Statement Reconsideration Meeting,Measure 114 (IP 17) - Requires permit to acquire firearms; police maintain permit/firearm database; criminally prohibits certain ammunition magazines,08/05/2022 10:00:00 AM,08/05/2022 12:00:00 PM,Virtual,Salem,OR,"Watch ​t​he committee deliberations live on the Oregon State legislative website
https://www.oregonlegislature.gov/citizen_engagement/Pages/NonLegislative_Video.aspx",,Elections Division,,elections.sos@sos.oregon.gov,,,,,,,true,https://www.oregonlegislature.gov/citizen_engagement/Pages/NonLegislative_Video.aspx,,,https://sos.oregon.gov/elections/Pages/explanatory-statement.aspx,,,,https://sos.oregon.gov/elections/Pages/explanatory-statement.aspx,,,,
Secretary of State,Measure 113 (IP 14) Explanatory Statement Reconsideration Meeting,Measure 113 (IP 14) - Amends Constitution: Legislators with ten unexcused absences from floor sessions disqualified from holding next term of office,08/05/2022 08:00:00 AM,08/05/2022 10:00:00 AM,Virtual,Salem,OR,Watch ​t​he committee deliberations live on the Oregon State legislative website​: https://www.oregonlegislature.gov/citizen_engagement/Pages/NonLegislative_Video.aspx,,Elections Division,,elections.sos@sos.oregon.gov,,,,,,,true,https://www.oregonlegislature.gov/citizen_engagement/Pages/NonLegislative_Video.aspx,,,https://sos.oregon.gov/elections/Pages/explanatory-statement.aspx,,,,https://sos.oregon.gov/elections/Pages/explanatory-statement.aspx,,,,
Secretary of State,TRANSLATION ADVISORY COUNCIL MEETING,,08/03/2022 04:00:00 PM,08/03/2022 05:00:00 PM,https://teams.microsoft.com/l/meetup-join/19:meeting_ZTQ1MTI5N2MtNWI2Mi00YzVjLWE3ZmEtNjEwN2U1NzAyYzJj%40thread.v2/0?context=%7b%22Tid%22:%22aa3f6932-fa7c-47b4-a0ce-a598cad161cf%22%2c%22Oid%22:%2282eae277-04cc-4155-8e41-5dc3f81d81e4%22%7d,Salem,OR,"Pursuant to ORS 251.173, the Secretary of State’s Translation Advisory Council is convened to make recommendations to the Secretary on matters of translation including the translation of voters’ pamphlets prior to each election. 

A meeting of Council members who were unable to attend the July 27, 2022, meeting will be held on Wednesday, August 3, at 4:00 PM online. The purpose of this meeting is to orient council members for the upcoming 2022 General Election. The Council is not required to take public testimony. Additional information can be found on the Translation Advisory Council website. https://www.oregon.gov/languages/Pages/default.aspx

The schedule is as follows:
•	Agenda: 1) Council Orientation, 2) Introduction to Voters’ Pamphlets

Meeting handouts/minutes can be accessed here: https://www.oregon.gov/languages/Pages/about-meetings.aspx",,Kelly Mills,503-986-2312,TAC.info@sos.oregon.gov,,,,,,,true,https://teams.microsoft.com/l/meetup-join/19:meeting_ZTQ1MTI5N2MtNWI2Mi00YzVjLWE3ZmEtNjEwN2U1NzAyYzJj%40thread.v2/0?context=%7b%22Tid%22:%22aa3f6932-fa7c-47b4-a0ce-a598cad161cf%22%2c%22Oid%22:%2282eae277-04cc-4155-8e41-5dc3f81d81e4%22%7d,,,https://www.oregon.gov/languages/Pages/about-meetings.aspx,,,,https://www.oregon.gov/languages/Pages/about-meetings.aspx,8.3.22 Meeting Minutes.pdf (https://data.oregon.gov/views/gs36-7t8m/files/d2b1c248-395a-46e0-9b58-de8015d40b8c?download=true&filename=8.3.22%20Meeting%20Minutes.pdf),,,
Secretary of State,"Financial estimate and explanatory statements for IP 14, IP 17, Referral 401 and Referral 402",,08/03/2022 01:00:00 PM,08/03/2022 04:00:00 PM,Virtual,Salem,OR,Public Notice: https://content.govdelivery.com/accounts/ORSOS/bulletins/3259401,Yes,Elections Division,,elections.sos@sos.oregon.gov,,,,,,,,,,,https://content.govdelivery.com/accounts/ORSOS/bulletins/3259401,,,,https://sos.oregon.gov/elections/Pages/follow-initiative-petition-process.aspx,,,,
Secretary of State,Financial Estimate Committee,,07/28/2022 01:00:00 PM,07/28/2022 02:00:00 PM,Virtual,Salem,OR,,No,Elections Division,503-986-1518,elections.sos@sos.oregon.gov,,,,,,,true,https://www.oregonlegislature.gov/citizen_engagement/Pages/NonLegislative_Video.aspx,,,https://sos.oregon.gov/elections/Pages/committee-meetings.aspx,,,,https://sos.oregon.gov/elections/Pages/committee-meetings.aspx,,,,
Secretary of State,Racial and Ethnic Impact Statement – Initiative Petition 17,Oregon Criminal Justice Commission,07/28/2022 09:30:00 AM,07/28/2022 10:30:00 AM,Zoom or in person,Salem,OR,"The Secretary of State will hold a public hearing to receive testimony on the racial and ethnic impact statement for IP 17. Register to attend online via Zoom​: https://us02web.zoom.us/meeting/register/tZYsdOmtpjstH9aKgYFp8bF0-6i4Z5mAzLHK
",Yes,Elections Division,,Elections.SOS@sos.oregon.gov,,,,,,,true,https://us02web.zoom.us/meeting/register/tZYsdOmtpjstH9aKgYFp8bF0-6i4Z5mAzLHK,,,https://sos.oregon.gov/elections/Pages/cj-commission.aspx,,,,https://sos.oregon.gov/elections/Pages/cj-commission.aspx,,,,
Secretary of State,Translation Advisory Council Meeting Schedule,,07/27/2022 01:00:00 PM,07/27/2022 04:30:00 PM,"State Library conference room 103, 250 Winter St NE, Salem, OR 97301",Salem,OR,"Pursuant to ORS 251.173, the Secretary of State’s Translation Advisory Council is convened to make recommendations to the Secretary on matters of translation including the translation of voters’ pamphlets prior to each election. The Council reviews translated voter information to ensure that translations are accurate and retain the original tone and meaning in a culturally appropriate manner. The Council is comprised of five members appointed at large and translator members who have proficiency in one of the most commonly spoken languages in Oregon.

The Council will meet on Wednesday, July 27, at 1:00 PM in Room 103 of the Oregon State Library. The purpose of this meeting is to orient the new council for the upcoming 2022 General Election. The Council is not required to take public testimony. Additional information can be found on the Translation Advisory Council website. The schedule is as follows:

Wednesday, July 27, 2022, at 1:00 pm

•	Link for remote attendance
•	State Library conference room 103, 250 Winter St NE, Salem, OR 97301
•	Agenda: 1) Welcome 2) Council Orientation, 3) Introduction to Voters’ Pamphlets
",,Translation Advisory Council,503-986-2312,TAC.info@sos.oregon.gov,,,,,,,true,https://teams.microsoft.com/l/meetup-join/19%3ameeting_NTY4YjYzYTgtZWFhYS00MmJhLTgyYTMtMTQyNjkxMWYxYTlm%40thread.v2/0?context=%7b%22Tid%22%3a%22aa3f6932-fa7c-47b4-a0ce-a598cad161cf%22%2c%22Oid%22%3a%22b97246b9-0909-43ad-a6cb-be91c56d8609%22%7d,,,,,,,https://www.oregon.gov/languages/Pages/about-meetings.aspx,7.27.22 Meeting Minutes.pdf (https://data.oregon.gov/views/gs36-7t8m/files/8b7921a6-72d4-4159-9ebe-1ed97efe402a?download=true&filename=7.27.22%20Meeting%20Minutes.pdf),,,
Secretary of State,Translation Advisory Council Meeting,,07/27/2022 01:00:00 PM,07/27/2022 02:00:00 PM,"250 Winter St NE, Room 103",Salem,OR,"The Council will meet on Wednesday, July 27, at 1:00 PM in Room 103 of the Oregon State Library. The purpose of this meeting is to orient the new council for the upcoming 2022 General Election. The Council is not required to take public testimony. 

Meeting handouts/minutes can be accessed here: https://www.oregon.gov/languages/Pages/about-meetings.aspx",No,Kelly Mills,503-986-2312,TAC.info@sos.oregon.gov,,,,,,,true,https://teams.microsoft.com/l/meetup-join/19%3ameeting_NTY4YjYzYTgtZWFhYS00MmJhLTgyYTMtMTQyNjkxMWYxYTlm%40thread.v2/0?context=%7b%22Tid%22%3a%22aa3f6932-fa7c-47b4-a0ce-a598cad161cf%22%2c%22Oid%22%3a%22b97246b9-0909-43ad-a6cb-be91c56d8609%22%7d,,,https://www.oregon.gov/languages/Pages/default.aspx,,,,https://www.oregon.gov/languages/Pages/default.aspx,7.27.22 Meeting Agenda.pdf (https://data.oregon.gov/views/gs36-7t8m/files/abc6e203-e8ab-41bf-8c58-739eeeb8dab5?download=true&filename=7.27.22%20Meeting%20Agenda.pdf),,,
Secretary of State,Financial Estimate Committee,,07/25/2022 01:00:00 PM,07/25/2022 02:00:00 PM,Virtual,Salem,OR,,No,Elections Division,503-986-1518,elections.sos@sos.oregon.gov,,,,,,,true,https://www.oregonlegislature.gov/citizen_engagement/Pages/NonLegislative_Video.aspx,,,https://sos.oregon.gov/elections/Pages/committee-meetings.aspx,,,,https://sos.oregon.gov/elections/Pages/committee-meetings.aspx,,,,
Secretary of State,Proposed Rulemaking Hearing: Elections Division,,07/14/2022 02:00:00 PM,07/14/2022 02:30:00 PM,Virtual,Salem,OR,"Notice 1: Updates filing deadlines and implements legislative changes regarding candidate, and political party manuals and forms.
Notice 2: Updates signature verification deadlines and implements required legislative changes to the Recall
Manual.
",Yes,Bob Roberts​,elections.sos@sos.​oregon.gov​,503-986-1518,,,,,,,true,https://teams.microsoft.com/dl/launcher/launcher.html?url=/_%23/l/meetup-join/19:meeting_YWFhYmI5OTMtNDEwOS00OThmLTgwN2ItYTk5MTUwNjRmZTBi%40thread.v2/0?context%3D%257b%2522Tid%2522%253a%2522aa3f6932-fa7c-47b4-a0ce-a598cad161cf%2522%252c%2522Oid%2522%253a%2522cf28fe28-bbbb-4fde-a7e5-b4f3418e58d4%2522%257d%26anon%3Dtrue&type=meetup-join&deeplinkId=88a9b059-4f92-4559-baec-e620d3e2f9ee&directDl=true&msLaunch=true&enableMobilePage=true&suppressPrompt=true,503-446-4951,880 938 317#,https://sos.oregon.gov/elections/Pages/rulemaking.aspx,,,,https://sos.oregon.gov/elections/Pages/rulemaking.aspx,,,,
Secretary of State,Financial Estimate Committee,,07/11/2022 01:00:00 PM,07/11/2022 02:00:00 PM,Virtual,Salem,OR,,No,Elections Division,503-986-1518,elections.sos@sos.oregon.gov,,,,,,,true,https://www.oregonlegislature.gov/citizen_engagement/Pages/NonLegislative_Video.aspx,,,https://sos.oregon.gov/elections/Pages/committee-meetings.aspx,,,,https://sos.oregon.gov/elections/Pages/committee-meetings.aspx,,,,
Secretary of State,Financial Estimate Committee,,06/10/2022 03:00:00 PM,06/10/2022 04:00:00 PM,Virtual,Salem,OR,"​​​​​​​​Pursuant to ORS 250.125​, a five-member Financial Estimate Committee (FEC), composed of the Secretary of State, State Treasurer, Director of the Department of Revenue, Director of the Department of Administrative Services, and a local government representative must prepare an estimate of the financial impact of each measure to be voted on in the statewide elections. The estimate of financial impact will be printed in the Voters’ Pamphlet and on the ballot.",No,Elections Division,,elections.sos@sos.oregon.gov​​.,,,,,,,true,https://www.oregonlegislature.gov/citizen_engagement/Pages/NonLegislative_Video.aspx,,,https://sos.oregon.gov/elections/Pages/committee-meetings.aspx,,,,https://sos.oregon.gov/elections/Pages/committee-meetings.aspx,,,,
Secretary of State,Public Records Advisory Council (PRAC),Legislative Subcommittee meeting,06/03/2022 01:00:00 PM,06/03/2022 03:00:00 PM,Virtual,Salem,OR,,Yes,Todd Albert,503-871-9036,PublicRecordsAdvocate.PRC@pra.oregon.gov,,,,,,,true,https://teams.microsoft.com/l/meetup-join/19:meeting_YjNjZjAzMTYtOWRiMS00OGE4LWFiZDQtYmZlNGIwZTk0YzM5%40thread.v2/0?context=%7b%22Tid%22:%22aa3f6932-fa7c-47b4-a0ce-a598cad161cf%22%2c%22Oid%22:%2207462a96-39d8-4e7e-bb9b-4bdf548fa0ab%22%7d,503-446-4951,496 465 239# ,https://www.oregon.gov/pra/Pages/advisory-council.aspx,,,,https://www.oregon.gov/pra/Pages/advisory-council.aspx,,,,
Secretary of State,Public Records Advisory Council (PRAC),Public Records Advisory Council,06/02/2022 01:00:00 PM,06/02/2022 03:00:00 PM,Virtual,Salem,OR,,Yes,Todd Albert,503-871-9036 ,PublicRecordsAdvocate.PRC@pra.oregon.gov,,,,,,,true,https://teams.microsoft.com/l/meetup-join/19%3ameeting_YWU1ZmI1YjgtMTkzZi00ZTY0LWJlM2EtZTc1MWE5ZDM3OWNj%40thread.v2/0?context=%7b%22Tid%22%3a%22aa3f6932-fa7c-47b4-a0ce-a598cad161cf%22%2c%22Oid%22%3a%2207462a96-39d8-4e7e-bb9b-4bdf548fa0ab%22%7d,503-446-4951,583 411 744# ,https://www.oregon.gov/pra/Pages/advisory-council.aspx,,,,https://www.oregon.gov/pra/Pages/advisory-council.aspx,,,,
Secretary of State,CANCELLED: Public Records Advisory Council (PRAC),Non-Legislative Subcommittee,05/20/2022 01:00:00 PM,05/20/2022 02:00:00 PM,Virtual,Salem,OR,,Yes,Todd Albert,503-871-9036 ,PublicRecordsAdvocate.PRC@pra.oregon.gov,,,,,,,,,,,https://www.oregon.gov/pra/Pages/advisory-council.aspx,,,,https://www.oregon.gov/pra/Pages/advisory-council.aspx,,,,
Secretary of State,Proposed Rulemaking Hearing: Elections Division,Proposes Criteria for Investigations Under ORS 260.537 - False Statement Intended to Mislead,05/18/2022 02:00:00 PM,05/18/2022 03:00:00 PM,Virtual,Salem,OR,,Yes,Bob Roberts​,503-986-1518,elections.sos@sos.​oregon.gov​,,,,,,,true,https://teams.microsoft.com/l/meetup-join/19:meeting_M2JjMmE1NDUtYTIyNC00ZDM5LTg5NWUtNjMyODJhYzFjNmIy%40thread.v2/0?context=%7b%22Tid%22:%22aa3f6932-fa7c-47b4-a0ce-a598cad161cf%22%2c%22Oid%22:%22cf28fe28-bbbb-4fde-a7e5-b4f3418e58d4%22%7d,503-446-4951,246 082 965# ,https://sos.oregon.gov/elections/Pages/rulemaking.aspx,,,,https://sos.oregon.gov/elections/Pages/rulemaking.aspx,,,,
Secretary of State,Public Records Advisory Council (PRAC),Legislative Subcommittee meeting,05/13/2022 01:00:00 PM,05/13/2022 03:00:00 PM,Virtual,Salem,OR,,Yes,Todd Albert,503-871-9036,PublicRecordsAdvocate.PRC@oregon.gov,,,,,,,true,https://teams.microsoft.com/l/meetup-join/19:meeting_YjNjZjAzMTYtOWRiMS00OGE4LWFiZDQtYmZlNGIwZTk0YzM5%40thread.v2/0?context=%7b%22Tid%22:%22aa3f6932-fa7c-47b4-a0ce-a598cad161cf%22%2c%22Oid%22:%2207462a96-39d8-4e7e-bb9b-4bdf548fa0ab%22%7d,503-446-4951,496 465 239#,https://www.oregon.gov/pra/Pages/advisory-council.aspx,,,,https://www.oregon.gov/pra/Pages/advisory-council.aspx,,,,
Secretary of State,Public Records Advisory Council (PRAC),Legislative Subcommittee meeting,04/22/2022 01:00:00 PM,04/22/2022 03:00:00 PM,Virtual,Salem,OR,,Yes,Todd Albert,503-871-9036,PublicRecordsAdvocate.PRC@oregon.gov,,,,,,,true,https://teams.microsoft.com/l/meetup-join/19:meeting_YjNjZjAzMTYtOWRiMS00OGE4LWFiZDQtYmZlNGIwZTk0YzM5%40thread.v2/0?context=%7b%22Tid%22:%22aa3f6932-fa7c-47b4-a0ce-a598cad161cf%22%2c%22Oid%22:%2207462a96-39d8-4e7e-bb9b-4bdf548fa0ab%22%7d,503-446-4951,496 465 239#,https://www.oregon.gov/pra/Pages/advisory-council.aspx,,,,https://www.oregon.gov/pra/Pages/advisory-council.aspx,,,,
Secretary of State,Public Records Advisory Council (PRAC),Non-Legislative Subcommittee meeting,04/13/2022 02:00:00 PM,04/13/2022 04:00:00 PM,Virtual,Salem,OR,,Yes,Todd Albert,503-871-9036,PublicRecordsAdvocate.PRC@oregon.gov,,,,,,,true,https://teams.microsoft.com/l/meetup-join/19:meeting_OWVhMTEwYzItYmYwNC00NzgzLTgwNTItMjY2ZDY4Y2E0ODY5%40thread.v2/0?context=%7b%22Tid%22:%22aa3f6932-fa7c-47b4-a0ce-a598cad161cf%22%2c%22Oid%22:%2207462a96-39d8-4e7e-bb9b-4bdf548fa0ab%22%7d,503-446-4951,686 152 922#,https://www.oregon.gov/pra/Pages/advisory-council.aspx,,,,https://www.oregon.gov/pra/Pages/advisory-council.aspx,,,,
Secretary of State,Public Records Advisory Council (PRAC),Legislative Subcommittee meeting,04/01/2022 01:00:00 PM,04/01/2022 03:00:00 PM,Virtual,Salem,OR,,Yes,Todd Albert,503-871-9036,PublicRecordsAdvocate.PRC@oregon.gov,,,,,,,true,https://teams.microsoft.com/l/meetup-join/19:meeting_YjNjZjAzMTYtOWRiMS00OGE4LWFiZDQtYmZlNGIwZTk0YzM5%40thread.v2/0?context=%7b%22Tid%22:%22aa3f6932-fa7c-47b4-a0ce-a598cad161cf%22%2c%22Oid%22:%2207462a96-39d8-4e7e-bb9b-4bdf548fa0ab%22%7d,503-446-4951,496 465 239#,https://www.oregon.gov/pra/Pages/advisory-council.aspx,,,,https://www.oregon.gov/pra/Pages/advisory-council.aspx,,,,
Secretary of State,CANCELED: Public Records Advisory Council ,Non-Legislative Subcommittee meeting,03/30/2022 02:00:00 PM,03/30/2022 04:00:00 PM,Virtual,Salem,OR,,Yes,Todd Albert,503-871-9036,PublicRecordsAdvocate.PRC@oregon.gov,,,,,,,,,,,https://www.oregon.gov/pra/Pages/advisory-council.aspx,,,,https://www.oregon.gov/pra/Pages/advisory-council.aspx,,,,
Secretary of State,Public Records Advisory Council (PRAC),Expert Panel on Federal FOIA ,03/11/2022 01:00:00 PM,03/11/2022 03:00:00 PM,Virtual,Salem,OR,"Legislative Subcommittee Meeting
Expert Panel on Federal FOIA 
Speakers: 
Margaret Kwoka, author/law professor; 
Tom Susman, congressional counsel for 1974 FOIA amendments ",Yes,Todd Albert,503-871-9036,PublicRecordsAdvocate.PRC@oregon.gov,,,,,,,true,https://teams.microsoft.com/l/meetup-join/19:meeting_YjNjZjAzMTYtOWRiMS00OGE4LWFiZDQtYmZlNGIwZTk0YzM5%40thread.v2/0?context=%7b%22Tid%22:%22aa3f6932-fa7c-47b4-a0ce-a598cad161cf%22%2c%22Oid%22:%2207462a96-39d8-4e7e-bb9b-4bdf548fa0ab%22%7d, 503-446-4951,496 465 239#,https://www.oregon.gov/pra/Pages/advisory-council.aspx,,,,https://www.oregon.gov/pra/Pages/advisory-council.aspx,,,,
Secretary of State,Republican Party State Representative District 39 Vacancy Fill ,,02/07/2022 09:00:00 AM,02/07/2022 11:00:00 AM,https://clackamascounty.zoom.us/j/86339296188 ,Clackamas,OR,"The Republican Party precinct committeepersons of State Representative District 39 met and chose nominees to fill the vacancy. The nominees chosen are:
1.	Paul Carlson
2.	Donnie Hedlind
3.	James Hieb	
		
		
The Appointing Authority must meet to appoint one person from the list of nominees. The vacancy must be filled no later than March 2, 2022, 30 days after the vacancy occurred. 
",,Lydia Plukchi,15039861518,elections.sos@oregon.gov,,,,,,,,,,,,,,,https://clackamascounty.zoom.us/j/86339296188  (https://clackamascounty.zoom.us/j/86339296188%20),,,,
Secretary of State,The Democratic Party Representative District 30 Vacancy Fill,,01/31/2022 03:30:00 PM,01/31/2022 04:30:00 PM,Virtually utilizing Zoom,Salem,OR,"The Democratic Party precinct committeepersons of State Senate District 15 met and chose nominees to fill the vacancy. The nominees chosen are:
1.	Nathan Sosa
2.	Lamar Wise
3.	Barry Johnson Smith		 
		
		
The Appointing Authority must meet to appoint one person from the list of nominees. The vacancy must be filled no later than January 31, 2022, 30 days after the vacancy occurred. 
",,Lydia Plukchi,15039861518,elections.sos@oregon.gov,,,,,,,true,https://us02web.zoom.us/j/88299043096%20Webinar%20ID:%20882%209904%203096, US: +1 669 900 6833 or +1 253 215 8782 ,,,,,,,,,,
Secretary of State,The Democratic Party State Representative District 44 Vacancy Fill,,01/27/2022 10:30:00 AM,01/27/2022 11:30:00 AM,"501 SE Hawthorne Blvd, Portland, OR 97214",Portland,OR,"The Democratic Party precinct committeepersons of State Representative District 44 met and chose nominees to fill the vacancy. The nominees chosen are:
1.	Travis Nelson
2.	Eric Delehoy
3.	Rita Moore
4.	Marc Koller		 
		
		
The Appointing Authority must meet to appoint one person from the list of nominees. The vacancy must be filled no later than February 22, 2022, 30 days after the vacancy occurred. 
",Testimony Sign Up: https://www.multco.us/multnomah-county/about-board-meetings/testimony,Lydia Plukchi,15039861518,elections.sos@oregon.gov,,,,,,,,https://www.youtube.com/c/MultCoBoard,,,,,,,,,,,
Secretary of State,Proposed Rulemaking Hearing: Elections Division,Proposes rule related to reporting the tally of ballots received on and after election day,01/24/2022 02:00:00 PM,01/24/2022 03:00:00 PM,Virtual,Salem,OR,"Last day and time to offer comment to the agency: January 25, 2022, 3 p.m.",Yes,Alma Whalen,503-986-1518,elections.sos@sos.oregon.gov,,,,,,,true,https://teams.microsoft.com/l/meetup-join/19:meeting_OTNjOWJkNjQtMGFhNS00NDllLWE2MzctNzA4ZDZlMDBiYWI2%40thread.v2/0?context=%7b%22Tid%22:%22aa3f6932-fa7c-47b4-a0ce-a598cad161cf%22%2c%22Oid%22:%22c9977c60-6177-4f86-9847-be520a43af86%22%7d,503-446-4951,799 102 919#,https://sos.oregon.gov/elections/Pages/rulemaking.aspx,,,,https://sos.oregon.gov/elections/Pages/rulemaking.aspx,,,,
Secretary of State,Proposed Rulemaking Hearing: Elections Division,Proposes amendments to the state Campaign Finance Manual,01/20/2022 11:00:00 AM,01/20/2022 12:00:00 PM,Virtual,Salem,OR,"The amendments to this rule are needed to revise the procedural manual for campaign finance reporting requirements.
Further, these revisions are necessary to incorporate legislative mandates set out in HB 3291 which moved the date of
the regularly scheduled September election to August.
Last day and time to offer comment to the agency: January 21, 2022 3 p.m. ",Yes,Alma Whalen,503-986-1518,elections.sos@sos.oregon.gov,,,,,,,true,https://teams.microsoft.com/l/meetup-join/19:meeting_NTFiZjMxZDgtNjkwYS00ZWYxLThmNDctMjQwOTIwNzQzYWE0%40thread.v2/0?context=%7b%22Tid%22:%22aa3f6932-fa7c-47b4-a0ce-a598cad161cf%22%2c%22Oid%22:%22c9977c60-6177-4f86-9847-be520a43af86%22%7d,503-446-4951,475 670 886#,https://sos.oregon.gov/elections/Pages/rulemaking.aspx,,,,https://sos.oregon.gov/elections/Pages/rulemaking.aspx,,,,
Secretary of State,Non-Legislative Subcommittee of the Public Records Advisory Council ,,01/14/2022 02:00:00 PM,01/14/2022 04:00:00 PM,Virtual, Salem,OR,The Non-Legislative Subcommittee of the Public Records Advisory Council will meet to discuss developing guidance on best practices and policies for public records requesters and custodians.,Yes,Todd Albert,503-871-9036,publicrecordsadvocate.prc@oregon.gov,,,,,,,true,https://teams.microsoft.com/l/meetup-join/19:meeting_Zjg2NDdhYTEtYjliMS00YjA4LWI1M2MtZjlhNzA5OGMwZjc4%40thread.v2/0?context=%7b%22Tid%22:%22aa3f6932-fa7c-47b4-a0ce-a598cad161cf%22%2c%22Oid%22:%2207462a96-39d8-4e7e-bb9b-4bdf548fa0ab%22%7d,503-446-4951,571 866 747#,https://www.oregon.gov/pra/Pages/advisory-council.aspx,,,,https://www.oregon.gov/pra/Pages/advisory-council.aspx,,,,
Secretary of State,Democratic Party State Senate District 16 Vacancy Fill,,01/14/2022 09:30:00 AM,01/14/2022 10:30:00 AM,Virtually from the Columbia County Courthouse,Virtual,OR,"The Democratic Party precinct committeepersons of State Senate District 16 met and chose nominees to fill the vacancy. The nominees chosen are:
1.	Rachel Armitage
2.	Melissa Busch
3.	Nadia Gardner		 
		
		
The Appointing Authority must meet to appoint one person from the list of nominees. The vacancy must be filled no later than January 18, 2022, 30 days after the vacancy occurred. Columbia County Commissioner, Margaret Magruder has been asked to chair the joint meeting. 
","If members of the public wish to provide written comments about any of the nominees, please send to Columbia County; Jacyn.normine@columbiacounty.or.gov no later than 12pm on Wednesday, January, 12, 2022 to be included in the record.",Lydia Plukchi,15039861518,elections.sos@oregon.gov,,,,,,,true,https://global.gotomeeting.com/join/357054141,United States (Toll Free): 1 866 899 4679  Access Code: 357-054-141,,,,,,https://global.gotomeeting.com/join/357054141,,,,
Secretary of State,Democratic Party State Senate District 15 Nominees,,01/14/2022 01:30:00 AM,01/14/2022 02:30:00 PM,Virtually utilizing Zoom,Virtual,OR,"The Democratic Party precinct committeepersons of State Senate District 15 met and chose nominees to fill the vacancy. The nominees chosen are:
1.	Janeen Sollman
2.	Lamar Wise
3.	Anthony Martin		 
		
		
The Appointing Authority must meet to appoint one person from the list of nominees. The vacancy must be filled no later than January 31, 2022, 30 days after the vacancy occurred. 
",,Lydia Plukchi,15039861518,elections.sos@oregon.gov,,,,,,,true,https://us02web.zoom.us/j/89509701539,"Telephone: Dial (for higher quality, dial a number based on your current location): US: +1 346 248 7799 or +1 669 900 6833 Webinar ID: 895 0970 1539",,,,,,https://us02web.zoom.us/j/89509701539,SD 15 Appointment_AGENDA (002).pdf (https://data.oregon.gov/views/gs36-7t8m/files/8a819659-d32d-47a2-a7e5-bf916f9dbd59?download=true&filename=SD%2015%20Appointment_AGENDA%20(002).pdf),,,
Secretary of State,Proposed Rulemaking Hearing: Elections Division,Establishes process and guidance for mass transit redistricting,01/10/2022 02:00:00 PM,01/10/2022 03:00:00 PM,Virtual,Salem,OR,"Establishes process and guidance for mass transit redistricting. 
Last day and time to offer comment to agency: January 11, 2022, 3 p.m.
Hearing on January 10, 2022, 2 p.m. – 3 p.m.",Yes,Alma Whalen,503-986-1518,elections.sos@sos.oregon.gov,,,,,,,true,https://teams.microsoft.com/l/meetup-join/19:meeting_M2VkNDY1NTAtMDI5Ny00NGNlLWIxOTEtYzI2MzM0ZTJjN2Iz%40thread.v2/0?context=%7b%22Tid%22:%22aa3f6932-fa7c-47b4-a0ce-a598cad161cf%22%2c%22Oid%22:%22c9977c60-6177-4f86-9847-be520a43af86%22%7d,503-446-4951,734 528 734#,https://sos.oregon.gov/elections/Pages/rulemaking.aspx,,,,https://sos.oregon.gov/elections/Pages/rulemaking.aspx,,,,
Secretary of State,Proposed Rulemaking Hearing: Elections Division,Proposed Permanent rulemakings for 165-007-045 and 165-016-0000,01/04/2022 02:00:00 PM,01/04/2022 03:00:00 PM,Virtual, Salem,OR,"Proposes an administrative rule related to postal indicators and ballots received by mail.​

Proposes amendments to the State Voters’ Pamphlet Manual.​",Yes,Bob Roberts,503-986-1518,elections.sos@sos.​oregon.gov​,,,,,,,true,https://teams.microsoft.com/l/meetup-join/19:meeting_MDQxNmEyNjMtN2EzNy00ODIwLTg2MmYtMDRlODA4M2FjMTZi%40thread.v2/0?context=%7b%22Tid%22:%22aa3f6932-fa7c-47b4-a0ce-a598cad161cf%22%2c%22Oid%22:%22cf28fe28-bbbb-4fde-a7e5-b4f3418e58d4%22%7d,503-446-4951,129 485 379#,https://sos.oregon.gov/elections/Pages/rulemaking.aspx,,,,https://sos.oregon.gov/elections/Pages/rulemaking.aspx,,,,
Secretary of State,Proposed Rulemaking Hearing: Elections Division,Proposed Permanent rulemakings for 165-010-005 and 165-014-005,12/28/2021 02:00:00 PM,12/28/2021 03:00:00 PM,Virtual, Salem,OR,"Proposing amendments to the state and local candidate manuals and the political party manual.​

 ​Proposes amendments to the manuals on initiatives and referendums, referrals, recalls, andcirculator training​.

Last day and time to offer comment to agency: December 29, 2021, 3 p.m.",Yes,Bob Roberts​,503-986-1518,elections.sos@sos.​oregon.gov​,,,,,,,true,https://teams.microsoft.com/l/meetup-join/19:meeting_MWQ0NGFjNmYtNWY5My00NTY5LTk3YjgtNDM2MGY1MTdhYTE2%40thread.v2/0?context=%7b%22Tid%22:%22aa3f6932-fa7c-47b4-a0ce-a598cad161cf%22%2c%22Oid%22:%22cf28fe28-bbbb-4fde-a7e5-b4f3418e58d4%22%7d,503-446-4951,700 013 909#,https://sos.oregon.gov/elections/Pages/rulemaking.aspx,,,,https://sos.oregon.gov/elections/Pages/rulemaking.aspx,,,,
Secretary of State,Proposed Rulemaking Hearing: Elections Division,"Proposed Rulemaking for OAR 165-007-0030, 165-007-0130, 165-007-0270, 165-007-0280, 165-007-0310",12/27/2021 02:00:00 PM,12/27/2021 03:00:00 PM,Virtual,Salem,OR,"165-007-0030: Proposes amendments to the Vote By Mail Manual

165-007-0130: Proposes amendments to deadlines for calculating eligible voters for property tax measures

165-007-0270: Proposes amendments to deadlines for conducting administrative recounts

165-007-0280: Proposes amendments to requirements for providing Spanish language ballots

165-007-0310: Proposes amendments to requirements for county security plans",Yes,Alma Whalen,503-986-1518,elections.sos@sos.oregon.gov,,,,,,,true,https://teams.microsoft.com/l/meetup-join/19:meeting_NzNkMzBjYTQtODY2Yy00Y2MzLWE1MDctNTM3NmZlMDliYjkz%40thread.v2/0?context=%7b%22Tid%22:%22aa3f6932-fa7c-47b4-a0ce-a598cad161cf%22%2c%22Oid%22:%22c9977c60-6177-4f86-9847-be520a43af86%22%7d,503-446-4951,848 549 550#,https://sos.oregon.gov/elections/Pages/rulemaking.aspx,,,,https://sos.oregon.gov/elections/Pages/rulemaking.aspx,,,,
Secretary of State,Proposed Rulemaking Hearing: Elections Division,Proposed Permanent Rulemaking for OAR 165-005-0180,12/27/2021 11:00:00 AM,12/27/2021 12:00:00 PM,Virtual,Salem,OR,"Notice of Proposed Permanent Rulemaking for OAR 165-005-0180
Repeals rule for inactivating certain voters",Yes,Alma Whalen,503-986-1518,elections.sos@sos.oregon.gov,,,,,,,true,https://teams.microsoft.com/l/meetup-join/19:meeting_ZTcyYzg4NTAtNGFkYy00MDExLWFjMDItZjE4ZjY0M2UzOWRh%40thread.v2/0?context=%7b%22Tid%22:%22aa3f6932-fa7c-47b4-a0ce-a598cad161cf%22%2c%22Oid%22:%22c9977c60-6177-4f86-9847-be520a43af86%22%7d,503-446-4951,393 022 743#,https://sos.oregon.gov/elections/Pages/rulemaking.aspx,,,,https://sos.oregon.gov/elections/Pages/rulemaking.aspx,,,,
Secretary of State,Proposed Rulemaking Hearing: Elections Division,Clarifies campaign advertising disclosure requirements​,12/22/2021 02:00:00 PM,12/22/2021 03:00:00 PM,Virtual, Salem,OR,"Notice of proposed Permanent rulemaking for 165-012-0525: Clarifies campaign advertising disclosure requirements​.​
Last day and time to offer comment to agency: December 23, 2021, 3 p.m.
",Yes,Bob Roberts,503-986-1518,elections.sos@sos.​oregon.gov​,,,,,,,true,https://teams.microsoft.com/l/meetup-join/19:meeting_NDQ5NmEwNWUtODQ1Zi00Zjg0LWJiZGMtN2Y1ZWUzNzczNzBk%40thread.v2/0?context=%7b%22Tid%22:%22aa3f6932-fa7c-47b4-a0ce-a598cad161cf%22%2c%22Oid%22:%22cf28fe28-bbbb-4fde-a7e5-b4f3418e58d4%22%7d,503-446-4951,504 357 617#,https://sos.oregon.gov/elections/Pages/rulemaking.aspx,,,,https://sos.oregon.gov/elections/Pages/rulemaking.aspx,,,,
Secretary of State,Public Records Advisory Council (PRAC) Legislative Subcommittee meeting,Legislative Subcommittee meeting,12/17/2021 01:00:00 PM,12/17/2021 03:00:00 PM,Virtual,Salem,OR,,Yes,Todd Albert,503-871-9036,PublicRecordsAdvocate.PRC@oregon.gov,,,,,,,true,https://teams.microsoft.com/l/meetup-join/19:meeting_MGIxNDU2ODgtMzEzYS00NjNjLTk4MGQtZWU2NjJiMDFkOWRl%40thread.v2/0?context=%7b%22Tid%22:%22aa3f6932-fa7c-47b4-a0ce-a598cad161cf%22%2c%22Oid%22:%2207462a96-39d8-4e7e-bb9b-4bdf548fa0ab%22%7d,503-446-4951,809220956,https://www.oregon.gov/pra/Pages/advisory-council.aspx,,,,https://www.oregon.gov/pra/Pages/advisory-council.aspx,,,,
Secretary of State,State Rep District 25 Republican Party Appointment,,12/10/2021 11:00:00 AM,12/10/2021 01:00:00 PM,"555 Court St. NE, Senator Hearing Room", Salem,OR,"The Republican Party precinct committeepersons of State Representative District 25 met and chose nominees to fill the vacancy. The nominees chosen are:

1.	Jessica George
2.	Jessica Davidson
3.	Scott Guptill

The Appointing Authority must meet to appoint one person from the list of nominees. The vacancy must be filled no later than December 30, 2021, 30 days after the vacancy occurred. 

The time and location of the meeting are as follows:
Date:		December 10, 2021
Time:		11 am to 1 pm
Location:		555 Court St. NE, Senator Hearing Room, 
		Salem, OR 97301

Members of the public are welcome to watch online at the following link https://m.facebook.com/MarionCountyOR?ref=bookmarks 

Written testimony can be submitted at commissioners@co.Marion.or.us
",,Lydia Plukchi,15039861518,elections.sos@oregon.gov,,,,,,,,https://m.facebook.com/MarionCountyOR?ref=bookmarks  (https://m.facebook.com/MarionCountyOR?ref=bookmarks%20),,,,,,,,,,,
Secretary of State,Public Records Advisory Council (PRAC),,12/09/2021 02:00:00 PM,12/09/2021 04:00:00 PM,Virtual, Salem,OR,,Yes,Todd Albert,503-871-9036,todd.albert@oregon.gov,,,,,,,true,https://teams.microsoft.com/l/meetup-join/19:meeting_ZTg3MzNkZGUtYmIwMS00YTdlLWIzN2UtODJkODYwODkxNDYw%40thread.v2/0?context=%7b%22Tid%22:%22aa3f6932-fa7c-47b4-a0ce-a598cad161cf%22%2c%22Oid%22:%2207462a96-39d8-4e7e-bb9b-4bdf548fa0ab%22%7d,503-446-4951,50342833#,https://www.oregon.gov/pra/Pages/advisory-council.aspx,,,,https://www.oregon.gov/pra/Pages/advisory-council.aspx,,,,
Secretary of State,Democratic Party State Representative District 21 Appointing Authority Meeting,,12/08/2021 02:30:00 PM,12/08/2021 05:00:00 PM,"555 Court St. NE, Senator Hearing Room", Salem,OR,"The Democratic Party precinct committeepersons of State Representative District 21 met and chose nominees to fill the vacancy. The nominees chosen are:
1.	Chris Hoy
2.	Nancy MacMorris-Adix
3.	Kasia Quillinan
4.	Virginia Stapleton
The Appointing Authority must meet to appoint one person from the list of nominees. The vacancy must be filled no later than January 3, 2022, 30 days after the vacancy occurred. 
The time and location of the meeting are as follows:
Date:		December 8, 2021
Time:		2:30 pm to 5:00 pm
Location:		555 Court St. NE, Senator Hearing Room
		Salem, OR 97301

Members of the public are welcome to watch online at the following link https://m.facebook.com/MarionCountyOR?ref=bookmarks 
Written testimony can be submitted at commissioners@co.Marion.or.us
",Written testimony can be submitted at commissioners@co.Marion.or.us,Lydia Plukchi,15039861518,elections.sos@oregon.gov,,,,,,,true,https://m.facebook.com/MarionCountyOR?ref=bookmarks  (https://m.facebook.com/MarionCountyOR?ref=bookmarks%20),,,,,,,,,,,
Secretary of State,Legislative Subcommittee of the Public Records Advisory Council,,12/02/2021 02:00:00 PM,12/02/2021 04:00:00 PM,Virtual,Salem,OR,The Legislative Subcommittee of the Public Records Advisory Council (PRAC) will meet to finalize its report to the full council on legislative goals to be pursued. ,Yes,Todd Albert,503-871-9036,PublicRecordsAdvocate.PRC@oregon.gov,,,,,,,true,https://teams.microsoft.com/l/meetup-join/19:meeting_ZTg3MzNkZGUtYmIwMS00YTdlLWIzN2UtODJkODYwODkxNDYw%40thread.v2/0?context=%7b%22Tid%22:%22aa3f6932-fa7c-47b4-a0ce-a598cad161cf%22%2c%22Oid%22:%2207462a96-39d8-4e7e-bb9b-4bdf548fa0ab%22%7d,503-446-4951,50342833#,https://www.oregon.gov/pra/Pages/advisory-council.aspx,,,,https://www.oregon.gov/pra/Pages/advisory-council.aspx,,,,
Secretary of State,Vacancy Fill in State Senate District 18,,11/29/2021 12:00:00 PM,11/29/2021 01:00:00 PM,https://www.youtube.com/multcoboard  ,Portland,OR,"The Democratic Party precinct committeepersons of State Senate District 18 met and chose nominees to fill the vacancy. The nominees chosen are:
1.	Akasha Lawrence Spence
2.	Martin Mendelson
3.	Sarah Lemley
The Appointing Authority must meet to appoint one person from the list of nominees. The vacancy must be filled no later than November 29, 2021, 30 days after the vacancy occurred. Multnomah County Commissioner, Deborah Kafoury has been asked to chair the joint meeting.
The time and location of the meeting are as follows:
Date:		November 29, 2021
Time:		12:00 PM
Virtually via Zoom, broadcast live at:		https://www.youtube.com/multcoboard  


Members of the public are welcome to attend and up to 20 minutes are provided for public comment. To sign up to testify visit: https://www.multco.us/multnomah-county/about-board-meetings/testimony. The meeting agenda provides time for the candidates to make statements and for commissioners to ask questions of the candidates. 
",,Lydia Plukchi,15039861518,elections.sos@oregon.gov,,,,,,,true,https://www.youtube.com/multcoboard   (https://www.youtube.com/multcoboard%20%20),,,,,,,,,,,
Secretary of State,Non-Legislative Subcommittee Oregon Public Records Advisory Council,,11/18/2021 01:00:00 PM,11/18/2021 03:00:00 PM,Virtual, Salem,OR,,Yes,Todd Albert,5038719036,PublicRecordsAdvocate.PRC@oregon.gov,,,,,,,true,https://teams.microsoft.com/l/meetup-join/19%3ameeting_MTBkNmU1NTItMGQzOC00ZGM4LWE4YWItZThhMGExYjE2ZmQz%40thread.v2/0?context=%7b%22Tid%22%3a%22aa3f6932-fa7c-47b4-a0ce-a598cad161cf%22%2c%22Oid%22%3a%2207462a96-39d8-4e7e-bb9b-4bdf548fa0ab%22%7d,503-446-4951,695 817 706# ,https://www.oregon.gov/pra/Pages/advisory-council.aspx,,,,https://www.oregon.gov/pra/Pages/advisory-council.aspx,,,,
Secretary of State,Legislative Subcommittee Oregon Public Records Advisory Council,,11/12/2021 12:00:00 PM,11/12/2021 02:00:00 PM,Virtual, Salem,OR,,Yes,Todd Albert,503-871-9036,PublicRecordsAdvocate.PRC@oregon.gov,,,,,,,true,https://teams.microsoft.com/l/meetup-join/19%3ameeting_NzQ5NmEyZmItZmU4YS00NTYzLTg0YWUtN2FhZjE2N2Q3MGI1%40thread.v2/0?context=%7b%22Tid%22%3a%22aa3f6932-fa7c-47b4-a0ce-a598cad161cf%22%2c%22Oid%22%3a%2207462a96-39d8-4e7e-bb9b-4bdf548fa0ab%22%7d,503-446-4951,889 761 360# ,https://www.oregon.gov/pra/Pages/advisory-council.aspx,,,,https://www.oregon.gov/pra/Pages/advisory-council.aspx,,,,
Secretary of State,Proposed Rulemaking: Elections Division,Rulemaking for 165-007-0290:​Clarifies when hand counts are required to be conducted,11/03/2021 02:00:00 PM,11/03/2021 03:00:00 PM,Virtual,Salem,OR,"Notice of proposed Permanent rulemaking for 165-007-0290:​Clarifies when hand counts are required to be conducted​

Last day and time to offer comment to agency: November 4, 2021, 3 p.m.",Yes,Bob Roberts​,503-986-1518,elections.sos@oregon.gov​,,,,,,,true,https://teams.microsoft.com/l/meetup-join/19:meeting_ZmE0MzAzNzQtYWY2Mi00ZDdkLWE5YTYtNGVmOTM4YjI0OTg0%40thread.v2/0?context=%7b%22Tid%22:%22aa3f6932-fa7c-47b4-a0ce-a598cad161cf%22%2c%22Oid%22:%22cf28fe28-bbbb-4fde-a7e5-b4f3418e58d4%22%7d,,,https://sos.oregon.gov/elections/Pages/rulemaking.aspx,,,,https://sos.oregon.gov/elections/Pages/rulemaking.aspx,,,,
Secretary of State,Public Records Advisory Council (PRAC),,10/15/2021 02:00:00 PM,10/15/2021 04:00:00 PM,Virtual,Salem,OR,,Yes,Todd Albert,503-871-9036,todd.albert@oregon.gov,,,,,,,true,https://teams.microsoft.com/l/meetup-join/19:meeting_ZGQ5ZDM3ODItNzg2Ny00MDM1LTk2YzctZWI4YzZhNmM3NDdk%40thread.v2/0?context=%7b%22Tid%22:%22aa3f6932-fa7c-47b4-a0ce-a598cad161cf%22%2c%22Oid%22:%2207462a96-39d8-4e7e-bb9b-4bdf548fa0ab%22%7d,503-446-4951,410619280#,https://www.oregon.gov/pra/Pages/advisory-council.aspx,,,,https://www.oregon.gov/pra/Pages/advisory-council.aspx,,,,
Secretary of State,Public Records Advisory Council (PRAC) ,,09/16/2021 01:00:00 PM,09/16/2021 03:00:00 PM,Virtual,Salem,OR,"The Public Records Advisory Council (PRAC) September meeting will occur online in two parts from 1 – 3 pm on Friday, September 10 and Thursday, September 16.",Yes,Todd Albert,503-871-9036,todd.albert@oregon.gov,,,,,,,true,https://teams.microsoft.com/l/meetup-join/19%3ameeting_NjY0MjBlNTMtOGQwYy00MWI3LWE0OWQtMDE3MGUwY2MwMGQ3%40thread.v2/0?context=%7b%22Tid%22%3a%22aa3f6932-fa7c-47b4-a0ce-a598cad161cf%22%2c%22Oid%22%3a%2207462a96-39d8-4e7e-bb9b-4bdf548fa0ab%22%7d,503-446-4951,769512979#,https://www.oregon.gov/pra/Documents/2021-September-PRAC-meeting-agenda.pdf,,,,https://www.oregon.gov/pra/Pages/advisory-council.aspx,,,,
Secretary of State,Public Records Advisory Council (PRAC) ,,09/10/2021 01:00:00 PM,09/10/2021 03:00:00 PM,Virtual, Salem,OR,"The Public Records Advisory Council (PRAC) September meeting will occur online in two parts from 1 – 3 pm on Friday, September 10 and Thursday, September 16.",Yes,Todd Albert,503-871-9036,todd.albert@oregon.gov,,,,,,,true,https://teams.microsoft.com/l/meetup-join/19%3ameeting_NDM2N2E2MzAtNzM3YS00Zjc0LThjMGEtODI2OGM4NGM1M2I4%40thread.v2/0?context=%7b%22Tid%22%3a%22aa3f6932-fa7c-47b4-a0ce-a598cad161cf%22%2c%22Oid%22%3a%2207462a96-39d8-4e7e-bb9b-4bdf548fa0ab%22%7d,503-446-4951,622414965#,https://www.oregon.gov/pra/Documents/2021-September-PRAC-meeting-agenda.pdf,,,,https://www.oregon.gov/pra/Pages/advisory-council.aspx,,,,
Secretary of State,State Rep District 2 Douglas County Republican Appointing Authority,,08/12/2021 09:00:00 AM,08/12/2021 10:00:00 AM,"1036 SE Douglas Ave , OR 97470",Roseburg,OR,"The Republican Party precinct committeepersons of State Representative District 2 met and chose nominees to fill the vacancy.  1.	Stephen Loosley
2.	Elias LaLande
3.	Christine Goodwin
The Appointing Authority must meet to appoint one person from the list of nominees. The vacancy must be filled no later than August 23, 2021, 30 days after the vacancy occurred. Douglas County Commissioner, Tim Kress has been asked to chair the joint meeting.





",,Lydia Plukchi,503-986-1518,	elections.sos@oregon.gov,,,,,,,true,https://global.gotomeeting.com/join/992802533   (https://global.gotomeeting.com/join/992802533%20%20),1-866-899-4679,992-802-533,,,,,,,,,
Secretary of State,Vacancy in State Representative District 23,,07/06/2021 02:00:00 PM,07/06/2021 03:00:00 PM,850 Main Street, Dallas,OR,,,Lydia Plukchi,503-986-1518,elections.sos@oregon.gov,,,,,,,,,,,,,,,,HD 23 AAM Notification.pdf (https://data.oregon.gov/views/gs36-7t8m/files/5d866b68-510c-4cdc-9781-f90559ec6201?download=true&filename=HD%2023%20AAM%20Notification.pdf),,,
Secretary of State,Notice of Proposed Rulemaking Hearing OAR 165-005-0160,Relating to Electronic Voter Registration,06/03/2021 03:30:00 PM,06/03/2021 04:30:00 PM,Virtual,Salem,OR,"Proposes a revised administrative rule related to electronic voter registration.​

Deadline for Comments on Proposed Rule: June 4, 2021, 4 p.m.

",Yes,Bob Roberts​,503-986-1518,elections.sos@oregon.gov​,,,,,,,true,https://teams.microsoft.com/l/meetup-join/19:meeting_MWY3ZGU4OTctODk2Ni00NTQ5LWJkMTQtZWM5OTlkN2FlZDJl%40thread.v2/0?context=%7b%22Tid%22:%22aa3f6932-fa7c-47b4-a0ce-a598cad161cf%22%2c%22Oid%22:%22c9977c60-6177-4f86-9847-be520a43af86%22%7d,503-446-4951,842274002,https://sos.oregon.gov/elections/Pages/rulemaking.aspx,,,,https://sos.oregon.gov/elections/Pages/rulemaking.aspx,,,,
Secretary of State,Notice of Proposed Rulemaking Hearing OAR 165-012-0240,FILING CAPTION: Clarifies the process for administratively discontinuing political committees and petition committees.,05/27/2021 03:30:00 PM,05/27/2021 04:30:00 PM,Virtual,Salem,OR,"Clarifies the process for administratively discontinuing political committees and petition committees.
LAST DAY AND TIME TO OFFER COMMENT TO AGENCY: 05/28/2021 4:00 PM

Join the meeting via Teams​ or, call in (audio only): +1 503-446-4951,,147420843# United States, Portland
Phone Conference ID: 147 420 843#",Yes,Bob Roberts,503-986-1518,elections.sos@oregon.gov​,,,,,,,true,https://teams.microsoft.com/l/meetup-join/19:meeting_NGQwMGFmMGMtM2ZlNS00MDNiLWJjYTMtZWY2MDlmZjM5NzUw%40thread.v2/0?context=%7b%22Tid%22:%22aa3f6932-fa7c-47b4-a0ce-a598cad161cf%22%2c%22Oid%22:%22c9977c60-6177-4f86-9847-be520a43af86%22%7d,503-446-4951,147 420 843#,https://sos.oregon.gov/elections/Pages/rulemaking.aspx,,,,https://sos.oregon.gov/elections/Pages/rulemaking.aspx,,,,
Secretary of State,Mythbusters: Understanding Your Right To Vote,,05/14/2021 12:00:00 PM,05/14/2021 01:00:00 PM,YouTube, Salem,OR,"MYTHBUSTERS! Join us this Friday, May 14th at 12pm with Secretary of State Shemia Fagan and Oregon Justice Resource Center. We’ll be going live to demystify the right to vote with formerly incarcerated individuals. This means we’ll be diving into the deep end of YOUR voting rights",,Aaron Fiedler,971-375-2776,Aaron.Fiedler@oregon.gov,,,,,,,true,https://youtu.be/PZBbnem8Fxg,,,https://youtu.be/PZBbnem8Fxg,,,,https://youtu.be/PZBbnem8Fxg,,,,
Secretary of State,Public Records Advisory Council (PRAC),,05/06/2021 02:30:00 PM,05/06/2021 03:30:00 PM,Virtual, Salem,OR,"Join on your computer or mobile app 
Click here to join the meeting 
Or call in (audio only) 
+1 503-446-4951,,476266754#   United States, Portland 
Phone Conference ID: 476 266 754# 
",Yes,Todd Albert,503-871-9036,todd.albert@oregon.gov,,,,,,,true,https://teams.microsoft.com/l/meetup-join/19%3ameeting_NTlhMDQzODctN2U4YS00NGI3LWI1MWEtY2FmMDYyN2Q4MTI0%40thread.v2/0?context=%7b%22Tid%22%3a%22aa3f6932-fa7c-47b4-a0ce-a598cad161cf%22%2c%22Oid%22%3a%2207462a96-39d8-4e7e-bb9b-4bdf548fa0ab%22%7d,503-446-4951,476266754#,https://www.oregon.gov/pra/Pages/advisory-council.aspx,,,,https://www.oregon.gov/pra/Pages/advisory-council.aspx,,,,
Secretary of State,OAR 165-007-0450 Rulemaking Advisory Committee OAR 165-007-0450,,04/21/2021 02:00:00 PM,04/21/2021 03:00:00 PM,Teams Meeting,Salem,OR,"Microsoft Teams meeting 
Join on your computer or mobile app 
Click here to join the meeting 
Or call in (audio only) 
+1 503-446-4951,,704756261#   United States, Portland 
Phone Conference ID: 704 756 261# 
Find a local number | Reset PIN 
Learn More | Meeting options 
",,Summer Davis,503-986-1518,elections.sos@oregon.gov,,,,,,,,https://teams.microsoft.com/l/meetup-join/19%3ameeting_NDExYzczZjEtOTVmNC00ZmVjLTlmYjUtODZjNGE0NmEwYzQx%40thread.v2/0?context=%7b%22Tid%22%3a%22aa3f6932-fa7c-47b4-a0ce-a598cad161cf%22%2c%22Oid%22%3a%22c9977c60-6177-4f86-9847-be520a43af86%22%7d,1-503-446-4951,704756261#,,,,,,,,,
Secretary of State,Rulemaking Advisory Committee OAR 165-007-0450,,04/07/2021 02:00:00 PM,04/07/2021 03:00:00 PM,Teams Meeting,Salem,OR,"Microsoft Teams meeting 
Join on your computer or mobile app 
Click here to join the meeting 
Or call in (audio only) 
+1 503-446-4951,,635640878#   United States, Portland 
Phone Conference ID: 635 640 878# 
Find a local number | Reset PIN 
Learn More | Meeting options 
",,Summer Davis,503-986-1518,elections.sos@oregon.gov,,,,,,,,https://teams.microsoft.com/l/meetup-join/19%3ameeting_ODYwN2VkMzYtNTVmYy00MDA2LTg2YmUtNjk4ZTdkZWY5ZGEw%40thread.v2/0?context=%7b%22Tid%22%3a%22aa3f6932-fa7c-47b4-a0ce-a598cad161cf%22%2c%22Oid%22%3a%22c9977c60-6177-4f86-9847-be520a43af86%22%7d,1-503-446-4951,635640878#,,,,,,,,,
Secretary of State,Rulemaking Advisory Committee OAR 165-007-0450,,03/24/2021 02:00:00 PM,03/24/2021 03:00:00 PM,Teams Meeting, Salem,OR,"Microsoft Teams meeting 
Join on your computer or mobile app 
Click here to join the meeting 
Or call in (audio only) 
+1 503-446-4951,,173557755#   United States, Portland 
Phone Conference ID: 173 557 755# 
Find a local number | Reset PIN 
Learn More | Meeting options 




",,Summer Davis,503-986-1518,elections.sos@oregon.gov,,,,,,,,https://teams.microsoft.com/l/meetup-join/19%3ameeting_NTdjOWYwOTgtMDRkYi00YTFjLWEyMDctN2VhZjQ4YTFhZTFi%40thread.v2/0?context=%7b%22Tid%22%3a%22aa3f6932-fa7c-47b4-a0ce-a598cad161cf%22%2c%22Oid%22%3a%22c9977c60-6177-4f86-9847-be520a43af86%22%7d,1-503-446-4951,173557755#,,,,,,,,,
Secretary of State,House District 47 Appointment,,03/23/2021 10:00:00 AM,03/23/2021 12:00:00 PM,YouTube,Multnomah,OR,"Watch online: https://www.youtube.com/channel/UC7KFkxGaFa7EJwXh7OYckkQ
Listen by phone: +1-415-655-0001
Access code: 145 491 1525

SE.1        Hearing on Filling a Vacancy in the Legislative Assembly, Oregon State House, District 47.
SE.2        Resolution Filling a Vacancy in the Legislative Assembly, Oregon State House, District 47.
",,Lydia Plukchi,503-986-1518,elections.sos@oregon.gov,,,,,,,,,+1-415-655-0001,145 491 1525,,,,,,HD47 Appointment Agenda.docx (https://data.oregon.gov/views/gs36-7t8m/files/1a67d417-d932-4df0-b9b1-9d850bac7b5d?download=true&filename=HD47%20Appointment%20Agenda.docx),,,
Secretary of State,Public Records Advisory Council (PRAC) ,,02/05/2021 01:30:00 PM,02/05/2021 04:00:00 PM,Virtual, Salem,OR,"Join the meeting from your computer, tablet or smartphone: https://global.gotomeeting.com/join/448600981 

You can also dial in using your phone:
United States: 877-309-2073
Access Code: 448-600-981  ",Yes,Todd Albert,503-871-9036,PublicRecordsAdvocate.PRC@oregon.gov,,,,,,,true,https://global.gotomeeting.com/join/448600981,877-309-2073,448-600-981  ,https://www.oregon.gov/pra/Pages/advisory-council.aspx,,,,https://www.oregon.gov/pra/Pages/advisory-council.aspx,,,,
Secretary of State,Vacancy in State Senate District 20,,02/01/2021 02:00:00 PM,02/01/2021 05:00:00 PM,Virtually via Zoom,Clackamas,OR,"https://clackamascounty.zoom.us/j/82774683148 
Telephone: Any of 253-215-8782; 346-248-7799 or 408-638-0968
Webinar ID: 827 7468 3148
",,Lydia Plukchi,503-986-1518,elections.sos@oregon.gov,,,,,,,,,,,,,,,,SD20 Appointment Agenda.pdf (https://data.oregon.gov/views/gs36-7t8m/files/4ae9d87a-a48b-4912-922d-39cdef843a8b?download=true&filename=SD20%20Appointment%20Agenda.pdf),,,
Secretary of State,Elections Division Rulemaking Hearing,Proposing a new rule related to campaign advertising disclosures required by ORS 260.266.,01/25/2021 03:30:00 PM,01/25/2021 04:30:00 PM,Virtual,Salem,OR,"ORS 260.266, relating to campaign advertising disclosures takes effect on December 4, 2020. The Elections Division is undertaking the following, so that candidates, committees, the public, and others have information and guidance about how to comply with the new law:

A Temporary Rule is being adopted, which is effective immediately.

The process to adopt a Proposed Permanent Rule is also being initiated at the same time.

Comments can be submitted on the proposed permanent rule until 4:00 p.m. PT on Tuesday, January 26, 2021. Send comments to: elections.sos@oregon.gov.
The Rulemaking hearing on the proposed permanent rule will be held via Go To Meeting at 3:30 p.m. PT on January 25, 2021.  Information about how to attend the hearing is below:
Rulemaking Hearing related to ORS 260.266

Mon, Jan 25, 2021 3:30 PM - 4:30 PM (PST)

You can join from your computer, tablet or smartphone.

https://global.gotomeeting.com/join/278806973

United States: +1 (872) 240-3212

Access Code: 278-806-973

The text of both rules is currently the same. However, the permanent rule may be revised before it is adopted, depending on comments and other input received. 

The notices for both are located here: https://sos.oregon.gov/elections/Pages/rulemaking.aspx",Yes,Michelle Teed,503-986-1518,elections.sos@oregon.gov​,,,,,,,true,https://global.gotomeeting.com/join/278806973,872-240-3212,278-806-973,https://sos.oregon.gov/elections/Pages/rulemaking.aspx,,,,https://sos.oregon.gov/elections/Pages/rulemaking.aspx,,,,
Secretary of State,Public Records Advisory Council (PRAC),,01/22/2021 01:00:00 PM,01/22/2021 04:00:00 PM,Virtual, Salem,OR,"Join the meeting from your computer, tablet or smartphone.
https://global.gotomeeting.com/join/531523733
You can also dial in using your phone.
United States (Toll Free): 1 877 568 4106
United States: +1 (571) 317-3129
Access Code: 531-523-733 ",Yes,Todd Albert,503-871-9036,PublicRecordsAdvocate.PRC@oregon.gov,,,,,,,true,https://global.gotomeeting.com/join/531523733,877-568-4106,531-523-733,https://www.oregon.gov/pra/Pages/advisory-council.aspx,,,,https://www.oregon.gov/pra/Pages/advisory-council.aspx,,,,
Secretary of State,Corporation Division Rulemaking,"Implementation of remote online notarization, per HB 4212 (2020) as pertains to ORS 194.",01/20/2021 01:00:00 PM,01/20/2021 02:00:00 PM,Virtual,Salem,OR,"The hearing will be heard in a virtual setting, using the GoToMeeting
application. Please find information on joining the hearing online at: https://sos.oregon.gov/business/Pages/proposed-administrative-rules.aspx",Yes,Kevin Gregg,503-986-2200,kevin.c.gregg@oregon.gov,,,,,,,true,https://global.gotomeeting.com/join/716876277,872-240-3212,716-876-277,https://sos.oregon.gov/business/Pages/proposed-administrative-rules.aspx,,,,https://sos.oregon.gov/business/Pages/proposed-administrative-rules.aspx,,,,
Secretary of State,Archives Division Rulemaking,"Revises outdated language, updates services offered, clarifies language relating to Reference Room services and fees",01/20/2021 10:00:00 AM,01/20/2021 11:00:00 AM,Virtual,Salem,OR,,Yes,Mary McRobinson,503-378-4972,Mary.McROBINSON@oregon.gov,,,,,,,true,https://global.gotomeeting.com/join/158650405,866-899-4679,158-650-405,https://sos.oregon.gov/archives/Pages/tour-services.aspx,,,,https://sos.oregon.gov/archives/Pages/tour-services.aspx,,,,
Secretary of State,Senate District 24 Vacancy,,01/06/2021 09:00:00 AM,01/06/2021 10:00:00 AM,"Hawthorne Building 501 SE Hawthorne Blvd, Suite 500", Portland,OR,"The Democratic Party precinct committeepersons of State Senate District 24 met and chose nominees to fill the vacancy. The nominees chosen are:
1.		Kayse Jama
2.		Adrienne Enghouse
3.		Candy Emmons

The Appointing Authority must meet to appoint one person from the list of nominees. The vacancy must be filled no later than February 1, 2021, 30 days after the vacancy occurred. Multnomah County Commissioner, Deborah Kafoury, has been asked to chair the joint meeting.
",,Lydia Plukchi,503-986-1518,elections.sos@oregon.gov,,,,,,,,https://www.youtube.com/channel/UC7KFkxGaFa7EJwXh7OYckkQ,+1-415-655-0001,145 650 5917,,,,,,,,,
Secretary of State,Elections Division Rulemaking Hearing,Proposes a new administrative rule related to risk limiting audits.,10/21/2020 02:00:00 PM,10/21/2020 03:00:00 PM,Virtual, Salem,OR,"The Elections Division has decided not to go forward with proposed rule OAR 165-007-0295, which was Noticed on August 28, 2020.

Instead, the Elections Division has proposed the adoption of a revised administrative rule: OAR 165-007-0450. 
",Yes,Michelle Teed ,503-986-1518,elections.sos@oregon.gov,,,,Elections Division,503-986-1518,elections.sos@oregon.gov,true,https://global.gotomeeting.com/join/885596237,872-240-3212 ,,https://sos.oregon.gov/elections/Pages/rulemaking.aspx,,,,https://sos.oregon.gov/elections/Pages/rulemaking.aspx,,,,
Secretary of State,Public Records Advisory Council (PRAC),,10/07/2020 01:00:00 PM,10/07/2020 03:30:00 PM,Virtual,Salem,OR,,yes,Public Records Advocate,,PublicRecordsAdvocate.PRC@oregon.gov,,,,,,,true,https://global.gotomeeting.com/join/771181333,877-309-2073,771-181-333,https://www.oregon.gov/pra/Pages/advisory-council.aspx,,,,https://www.oregon.gov/pra/Pages/advisory-council.aspx,,,,
Secretary of State,Elections Division Rulemaking Hearing,Proposed Rulemaking: Proposes a new administrative rule related to risk limiting audits.,09/21/2020 03:00:00 PM,09/21/2020 03:45:00 PM,Virtual,Salem,OR,"Concerning Proposed Rule OAR 165-007-0295
Notice of Proposed Rulemaking Including Statement of Need & Fiscal Impact: https://sos.oregon.gov/elections/Documents/proposed-rulemaking-08-28-20-165-007-0295-Filed-Notice.pdf

Notice of hearing: 
https://content.govdelivery.com/accounts/ORSOS/bulletins/2a0e7f4",yes,Michelle Teed ,503-986-2312 ,michelle.teed@oregon.gov,,,,,,,true,https://global.gotomeeting.com/join/380202637,646-749-3122 ,380-202-637,https://sos.oregon.gov/elections/Pages/rulemaking.aspx,,,,https://sos.oregon.gov/elections/Pages/rulemaking.aspx,,,,
Secretary of State,Public Records Advisory Council (PRAC),,09/17/2020 01:30:00 PM,09/09/2020 04:00:00 PM,Virtual, Salem,OR,"Join the meeting from your computer, tablet or smartphone:
https://global.gotomeeting.com/join/941957381
You can also dial in using your phone.
United States (Toll Free): 1 866 899 4679
United States: +1 (571) 317-3116
Access Code: 941-957-381",,Public Records Advocate,971-345-1349,PublicRecordsAdvocate.PRC@oregon.gov,,,,,,,true,https://global.gotomeeting.com/join/941957381,866-899-4679,941-957-381,https://www.oregon.gov/pra/Pages/advisory-council.aspx,,,,https://www.oregon.gov/pra/Pages/advisory-council.aspx,,,,
Secretary of State,Public Records Advisory Council (PRAC),"Introduction of Becky Chiao, incoming Public Records Advocate and Public Records Advisory Council Chair",08/20/2020 01:00:00 PM,08/20/2020 04:00:00 PM,Virtual, Salem,OR,"Join from your computer, tablet or smartphone:
https://global.gotomeeting.com/join/299437901
Dial in using your phone:
United States (Toll Free): 1 866 899 4679
United States: +1 (571) 317-3116
Access Code: 299-437-901 ",Yes,Public Records Advocate,503-986-2212,PublicRecordsAdvocate.PRC@oregon.gov,,,,,,,true,https://global.gotomeeting.com/join/299437901,1-866-899-4679,299-437-901,https://www.oregon.gov/pra/Pages/advisory-council.aspx,,,,https://www.oregon.gov/pra/Pages/advisory-council.aspx,,,,
Secretary of State,Financial Estimate Committee (FEC),,08/05/2020 09:00:00 AM,08/05/2020 10:00:00 AM,https://www.oregonlegislature.gov/citizen_engagement/Pages/Legislative-Video.aspx,Salem,OR,"Agenda: Consideration of Public Comment, Potential Vote on Any Changes to Draft Financial Explanatory Statement",,Elections Division,503-986-1518,elections.sos@oregon.gov,,,,,,,true,https://www.oregonlegislature.gov/citizen_engagement/Pages/Legislative-Video.aspx,,,https://sos.oregon.gov/elections/Pages/committee-meetings.aspx,,,,https://sos.oregon.gov/elections/Pages/committee-meetings.aspx,,,,
Secretary of State,Public Hearing on Draft Statements,,07/31/2020 09:00:00 AM,07/31/2020 11:00:00 AM,Online,Salem,OR,"The Secretary of State’s office will hold a hearing to receive public comments on the draft financial impact statements. If a statement receives comments during the public hearing, the FEC must meet to review those comments and consider revisions to the statement.

Public Hearing – July 31, 9 a.m.-11 a.m.
Join the meeting from your computer, tablet or smartphone: https://global.gotomeeting.com/join/549384501​
United States (Toll Free): 1-866-899-4679
United States: 571-317-3116
Access Code: 549-384-501

To submit written public comments, email them no later than July 31 at 11 a.m. to elections.sos@oregon.gov.",Yes,Elections Division,503-986-1518,elections.sos@oregon.gov,,,,Elections Division,503-986-1518,elections.sos@oregon.gov,true,https://global.gotomeeting.com/join/549384501​,866-899-4679,549-384-501,https://sos.oregon.gov/elections/Pages/committee-meetings.aspx,,,,https://sos.oregon.gov/elections/Pages/committee-meetings.aspx,,,,
Secretary of State,Financial Estimate Committee (FEC),,07/23/2020 09:00:00 AM,07/23/2020 10:00:00 AM, https://www.oregonlegislature.gov/citizen_engagement/Pages/Legislative-Video.aspx, Salem,OR,"Agenda: Draft Financial Impact Statements, Vote on Financial Impact Statements",,Elections Division,503-986-1518,elections.sos@oregon.gov,,,,,,,true,https://www.oregonlegislature.gov/citizen_engagement/Pages/Legislative-Video.aspx,,,https://sos.oregon.gov/elections/Pages/committee-meetings.aspx,,,,https://sos.oregon.gov/elections/Pages/committee-meetings.aspx,,,,
Secretary of State,CANCELLED: Financial Estimate Committee (FEC),,07/09/2020 09:30:00 AM,07/09/2020 10:30:00 AM,https://www.oregonlegislature.gov/citizen_engagement/Pages/Legislative-Video.aspx,Salem,OR,This meeting is cancelled. See https://sos.oregon.gov/elections/Pages/committee-meetings.aspx for other meetings.,,Elections Division,503-986-1518,elections.sos@oregon.gov,,,,,,,true,,,,https://sos.oregon.gov/elections/Pages/committee-meetings.aspx,,,,https://sos.oregon.gov/elections/Pages/committee-meetings.aspx,,,,
Secretary of State,Financial Estimate Committee (FEC),,07/08/2020 09:30:00 AM,07/08/2020 10:30:00 AM,https://www.oregonlegislature.gov/citizen_engagement/Pages/Legislative-Video.aspx, Salem,OR,"Agenda: 
Draft Financial Impact Statements:
Referral 401 (SJR 18- 2019)
Referral 402 (HB 2270- 2019)
Initiative 34 (pending signature verification)
Initiative 44 (pending signature verification)
Vote on Financial Impact Statements",,Elections Division,503-986-1518,elections.sos@oregon.gov​.,,,,,,,true,https://www.oregonlegislature.gov/citizen_engagement/Pages/Legislative-Video.aspx,,,https://sos.oregon.gov/elections/Pages/committee-meetings.aspx,,,,https://sos.oregon.gov/elections/Pages/committee-meetings.aspx,,,,
Secretary of State,Public Records Advisory Council (PRAC),,06/17/2020 02:00:00 PM,06/17/2020 04:00:00 PM,Virtual, Salem,OR,"The Council works with the Advocate and the State Archives Division to study and make recommendations concerning the Advocate's role, as well as practices, procedures, exemptions, and fees related to public records.

Join the meeting from your computer, tablet or smartphone: https://global.gotomeeting.com/join/669871293

Dial in using your phone: 877-568-4106
Access Code: 669-871-293",Yes,Todd Albert,503-986-2212,PublicRecordsAdvocate.PRC@oregon.gov,,,,,,,true,https://global.gotomeeting.com/join/669871293,877-568-4106,669-871-293,https://www.oregon.gov/pra/Pages/advisory-council.aspx,,,,https://www.oregon.gov/pra/Pages/advisory-council.aspx,,,,
Secretary of State,Vacancy in State Representative District 33,,06/12/2020 02:00:00 PM,06/12/2020 03:00:00 PM,"Charles D Cameron Public Services Bldg, Auditorium", Hillsboro,OR,"155 North First Street
",,Lydia Plukchi,503-986-1518,elections.sos@oregon.gov,,,,,,,,,,,,,,,,,,,
Secretary of State,Financial Estimate Committee (FEC),,06/12/2020 09:30:00 AM,06/12/2020 10:30:00 AM,Remote meeting, Salem,OR,The purpose of the meeting will be to elect a fifth member and discuss the financial estimate statement drafting process and possible measures. ,No,Elections Division,503-986-1518 ,elections.sos@oregon.gov,,,,,,,true,https://www.oregonlegislature.gov/citizen_engagement/Pages/NonLegislative_Video.aspx,,,https://sos.oregon.gov/elections/Pages/committee-meetings.aspx,,,,https://sos.oregon.gov/elections/Pages/committee-meetings.aspx,,,,
Secretary of State,Public Records Advisory Council (PRAC),,06/10/2020 08:30:00 AM,06/10/2020 04:30:00 PM,Virtual, Salem,OR,"Join the meeting from your computer, tablet or smartphone: https://global.gotomeeting.com/join/901446893

Dial in using your phone: 866-899-4679
Access Code: 901-446-893",Yes,Todd Albert,503-986-2212,PublicRecordsAdvocate.PRC@oregon.gov,,,,,,,true,https://global.gotomeeting.com/join/901446893,866-899-4679,901-446-893,https://www.oregon.gov/pra/Pages/advisory-council.aspx,,,,https://www.oregon.gov/pra/Pages/advisory-council.aspx,,,,
Secretary of State,Public Records Advisory Council (PRAC),,05/28/2020 01:30:00 PM,05/28/2020 03:30:00 PM,Virtual,Salem,OR,"Join the meeting from your computer, tablet or smartphone: https://global.gotomeeting.com/join/751329285

Dial in using your phone: 877-568-4106
Access Code: 751-329-285",Yes,Todd Albert,503-986-2212, PublicRecordsAdvocate.PRC@oregon.gov,,,,,,,true,https://global.gotomeeting.com/join/751329285,877-568-4106,751-329-285,https://www.oregon.gov/pra/Pages/advisory-council.aspx,,,,https://www.oregon.gov/pra/Pages/advisory-council.aspx,,,,
Secretary of State,Public Records Advisory Council (PRAC),,04/29/2020 01:30:00 PM,04/29/2020 03:30:00 PM,Virtual, Salem,OR,"Join the meeting from your computer, tablet or smartphone. https://global.gotomeeting.com/join/414460509

Dial in using your phone: 877-309-2073
Access Code: 414-460-509",Yes,Todd Albert,503-986-2212,PublicRecordsAdvocate.PRC@oregon.gov,,,,,,,true,https://global.gotomeeting.com/join/414460509,877-309-2073,414-460-509,https://www.oregon.gov/pra/Pages/advisory-council.aspx,,,,https://www.oregon.gov/pra/Pages/advisory-council.aspx,,,,
Secretary of State,Public Records Advisory Council (PRAC),,04/15/2020 01:30:00 PM,04/15/2020 04:30:00 PM,800 Summer St. NE, Salem,OR,"The Public Records Advisory Council was created by Senate Bill 106 (2017). The Council works with the Advocate and the State Archives Division to study and make recommendations concerning the Advocate's role, as well as practices, procedures, exemptions, and fees related to public records.",yes,Todd Albert,503-986-2212,PublicRecordsAdvocate.PRC@oregon.gov,,,,,,,true,https://global.gotomeeting.com/join/224672573,866-899-4679,224-672-573,https://www.oregon.gov/pra/Pages/advisory-council.aspx,,,,https://www.oregon.gov/pra/Pages/advisory-council.aspx,,,,
Secretary of State,CANCELED: Sunshine Week Public Records Panel,Hear from a panel of public records experts,03/19/2020 01:30:00 PM,03/19/2020 03:00:00 PM,875 Union St. in Salem, Salem,OR,"Hear from a panel of public records experts discussing pressing issues, moderated by the Acting Public Records Advocate, Todd Albert. Panelists represent both state agency public records officers and members of the records requester community. Issues to be discussed include the basics of the public records law, how to make an effective request, legislative updates and deadlines, fees and fee waivers/reductions, exemptions to disclosure, and employee resources. ",,Todd Albert,,todd.albert@oregon.gov,,,,,,,,,,,https://content.govdelivery.com/accounts/ORSOS/bulletins/27a98e9,,,,https://content.govdelivery.com/accounts/ORSOS/bulletins/27a98e9,,,,
Secretary of State,Notice of Proposed Rulemaking: Amendments to Vote by Mail Manual,,02/21/2020 03:30:00 PM,02/21/2020 04:00:00 PM,Secretary of State Elections Division 255 Capitol St NE Suite 501,Salem,OR,,,Michelle Teed,5039861518,elections.sos@oregon.gov,,,,,,,,,,,,,,,,,,,
Secretary of State,Notice of Proposed Rulemaking: Amendments to Vote by Mail Manual,,02/21/2020 03:30:00 PM,02/21/2020 04:00:00 PM,Secretary of State Elections Division 255 Capitol St NE Suite 501,Salem,OR,,,Michelle Teed,5039861518,elections.sos@oregon.gov,,,,,,,,,,,,,,,,,,,
Secretary of State,Notice of Proposed Rulemaking: Amendments to Vote by Mail Manual,,02/21/2020 03:30:00 PM,02/21/2020 04:00:00 PM,Secretary of State Elections Division 255 Capitol St NE Suite 501, Salem,OR,,,Michelle Teed,5039861518,elections.sos@oregon.gov,,,,,,,,,,,,,,,,,,,
Secretary of State,Notice of Proposed Rulemaking: Amendments to Campaign Finance Manual,,02/21/2020 03:30:00 PM,02/21/2020 04:00:00 PM,Secretary of State Elections Division 255 Capitol St NE Suite 501, Salem,OR,,Last Day to Offer Comment to the Agency is 02/27/2020 2:00 P.M.,Michelle Teed,503-986-1518,elections.sos@oregon.gov,,,,,,,,,,,,,,,,,,,
Secretary of State,Notice of Proposed Rulemaking: Amendments to Vote by Mail Manual,,02/21/2020 03:30:00 PM,02/21/2020 04:00:00 PM,Secretary of State Elections Division 255 Capitol St NE Suite 501,Salem,OR,,,Michelle Teed,503-986-1518,elections.sos@oregon.gov,,,,,,,,,,,,,,,,,,,
Secretary of State,CANCELLED: Public Records Advisory Council (PRAC) ,,02/06/2020 11:00:00 AM,02/06/2020 02:00:00 PM,800 Summer St. NE,Salem,OR,"The Public Records Advisory Council was created by Senate Bill 106 (2017). The Council works with the Advocate and the State Archives Division to study and make recommendations concerning the Advocate's role, as well as practices, procedures, exemptions, and fees related to public records.",Yes,Todd Albert,todd.albert@oregon.gov,todd.albert@oregon.gov,,,,,,,,,,,https://www.oregon.gov/pra/Pages/advisory-council.aspx,,,,https://www.oregon.gov/pra/Pages/advisory-council.aspx,,,,
Secretary of State,Press Conference to discuss election security,,02/04/2020 09:00:00 AM,02/04/2020 10:00:00 AM,900 Court Street NE, Salem,OR,"Billy J. Williams, United States Attorney for the District of Oregon; Renn Cannon, Special Agent in Charge of the FBI in Oregon; and Oregon Secretary of State Bev Clarno will host a press conference on Tuesday, February 4, 2020 to discuss election security.",,Andrea Chiapella,503-986-2259,andrea.chiapella@oregon.gov,,,,,,,,,,,https://www.oregon.gov/newsroom/Pages/NewsDetail.aspx?newsid=3567,,,,https://www.oregon.gov/newsroom/Pages/NewsDetail.aspx?newsid=3567,,,,
Secretary of State,Notice of Proposed Rulemaking: Establish Timelines for the referrals to 11/03/2020 General Election,,01/27/2020 03:30:00 PM,01/27/2020 04:00:00 PM,Secretary of State Elections Division 255 Capitol St NE Suite 501,Salem,OR,,Last Day to Offer Comment to the Agency is 02/10/2020 3:00 P.M.,Michelle Teed,5039861518,elections.sos@oregon.gov,,,,,,,,,,,,,,,,,,,
Secretary of State,"Notice of Proposed Rulemaking: Amendments to state and local candidate, political party and voters' pamphlet manuals",,01/27/2020 03:30:00 PM,01/27/2020 04:00:00 PM,Secretary of State Elections Division 255 Capitol St NE Suite 501,Salem,OR,,Last Day to Offer Comment to the Agency is 02/17/2020 2:00 P.M.,Michelle Teed,5039861518,elections.sos@oregon.gov,,,,,,,,,,,,,,,,,,,
Secretary of State,"Notice of Proposed Rulemaking - State Initiative & Referendum, Referral",,01/27/2020 03:30:00 AM,01/27/2020 04:00:00 AM,"Public Service Bldg 255 Capitol Street, Suite 501", Salem,OR,,Deadline 1/30/2020 4:00 PM,Michelle Teed,503-9861518,elections.sos@oregon.gov,,,,"If accommodations are needed, please contact the Elections Division at 503-986-1518.",,,,,,,,,,,,,,,
Secretary of State,Public Records Advisory Council (PRAC),,01/22/2020 01:30:00 PM,01/22/2020 04:30:00 PM,800 Summer St. NE, Salem,OR,"The Council works with the Advocate and the State Archives Division to study and make recommendations concerning the Advocate's role, as well as practices, procedures, exemptions, and fees related to public records.",yes,Todd Albert,503-986-2212,todd.albert@oregon.gov,,,,,,,true,https://global.gotomeeting.com/join/646850957,877-568-4106,646-850-957,https://www.oregon.gov/pra/Pages/advisory-council.aspx,,,,https://www.oregon.gov/pra/Pages/advisory-council.aspx,,,,
Secretary of State,Vacancy in State Representative 60,,01/21/2020 01:00:00 PM,01/21/2020 03:00:00 PM,Treasure Valley Community College (TVCC) Weese Bldg Rm 110 650 College Blvd, Ontario,OR,,,Lydia Plukchi,5039861518,elections.sos@oregon.gov,,,,,,,,,,,,,,,,,,,
Secretary of State,Vacancy in State Representative 36,,01/16/2020 05:00:00 PM,01/16/2020 07:00:00 PM,Multnomah Bldg Boardroom 100 601 SE Hawthorne, Portland,OR,,,Lydia Plukchi,5039861518,elections.sos@oregon.gov,,,,,,,,,,,,,,,,,,,
Secretary of State,Vacancy in State Senate District 30,,01/06/2020 01:00:00 PM,01/06/2020 02:00:00 PM,Treasure Valley Community College (TVCC) Weese Bldg Rm 110 650 College Blvd, Ontario,OR,"This vacancy must be filled no later than February 3, 2020.",,Lydia Plukchi,503-986-1518,elections.sos@oregon.gov,,,,,,,,,,,,,,,,,,,
Secretary of State,Public Records Advisory Council,,10/01/2019 01:00:00 PM,10/01/2019 05:00:00 PM,800 Summer St. NE, Salem,OR,"The Council will discuss
- legislative proposal(s) to enshrine independence of Advocate,
- next steps for hiring of Advocate, including:
-Job posting
-How/where to distribute job posting
-Desired attributes
-Questions for interview
-Schedule of next steps

Commentary is accepted throughout the meeting.",Yes,Ginger McCall,503-378-5228,Ginger.MCCALL@oregon.gov,,,,,,,true,https://global.gotomeeting.com/join/114506125,866-899-4679,114-506-125,https://sos.oregon.gov/public-records/Pages/advisory-council.aspx,,,,https://sos.oregon.gov/public-records/Pages/advisory-council.aspx,,,,
Secretary of State,Elections Division,Rulemaking Hearing,09/23/2019 03:00:00 AM,09/23/2019 03:30:00 AM,255 Capitol Street NE Ste 501 Public Service Building, Salem,OR,"Chapter 165, Elections Division, Adopts permanent changes to the Oregon Motor Voter Registration Manual to conform to new legislation",,Michelle Teed,503-986-1518,elections.sos@oregon.gov,,,,,,,,,,,,,,,,,,,
Secretary of State,Elections Division,Vacancy in State Representative District 55,08/08/2019 10:00:00 AM,08/08/2019 11:00:00 AM,Crook County Court 203 NE Court Street, Prineville,OR,,,Lydia Plukchi,503-986-1518,elections.sos@oregon.gov,,,,,,,,,,,,,,,,,,,
Secretary of State,Vacancy in Senate District 10,,06/25/2019 08:30:00 AM,06/25/2019 09:30:00 AM,"Courthouse Square 555 Court St NE, Senate Hearing Rm 1st Floor", Salem,OR,"Effective May 29, 2019, there is a vacancy in Senate District 10 due to the passing of Senator Jackie Winters. Pursuant to ORS 171.060(1) and OAR 165-010-0060, you are hereby notified of the vacancy.
The Republican precinct committeepersons of Senate District 10 met and chose nominees to fill the vacancy. The nominees chosen are:
1. Rebecca (Becky) A. Mitts
2. Denyc N. Boles
3. Kevin S. Chambers",,Alma Whalen,503-986-1518,elections.sos@oregon.gov,,,,,,,,,,,,,,,,SD 10 AAM Notification.pdf (https://data.oregon.gov/views/gs36-7t8m/files/c9586284-c2f2-4a3f-a9ab-e7b902e5ec16?download=true&filename=SD%2010%20AAM%20Notification.pdf),,,
Secretary of State,State Funeral for Secretary Richardson,,03/06/2019 02:00:00 PM,03/06/2019 03:30:00 PM,"Oregon State Capitol Building, 900 Court St NE",Salem,OR,"A state funeral for Dennis Richardson, Oregon’s 26th Secretary of State, will be held on Wednesday, March 6, at 2:00 PM in the Oregon State Capitol Building in Salem. All are invited. The service will be held in the House of Representatives Chamber, with overflow seating in the Senate Chamber and committee rooms.",,Debra Royal,503-986-2361,debra.royal@oregon.gov,,https://www.oregonlegislature.gov/Pages/universalAccess.aspx,,,,,,,,,https://www.oregon.gov/newsroom/Pages/NewsDetail.aspx?newsid=3181,,,,https://www.oregon.gov/newsroom/Pages/NewsDetail.aspx?newsid=3181,,,,
Secretary of State,Audit's Division Education Town Hall,To discuss the recent Audit of Department of Education and Portland Public Schools,02/20/2019 06:00:00 PM,02/20/2019 07:30:00 PM,"Portland Community College, Moriarty Arts & Humanities Building, Room 104, 5514-5518 N Albina Ave", Portland,OR,"Join the Secretary of State's Audits Division for an Education Town Hall to discuss the recent Audit of Department of Education and Portland Public Schools. 
Recent Audit: https://sos.oregon.gov/audits/Documents/2019-01.pdf",Yes,Debra Royal,,debra.royal@oregon.gov,,,,,,,,,,,https://sos.oregon.gov/audits/Documents/audits-town-hall-february-2019.pdf,,,,https://sos.oregon.gov/audits/Documents/audits-town-hall-february-2019.pdf,,,,
Secretary of State,Naturalization Ceremony,Welcome Immigrants into Citizenship at Naturalization Ceremony in State Capitol,02/14/2019 12:00:00 PM,02/14/2019 01:00:00 PM,"House Chamber, Oregon State Capitol, 900 Court St NE",Salem,OR,"To celebrate Oregon’s 160th birthday, the office of Secretary of State Dennis Richardson will host the 2nd annual Oregon State Capitol immigration and naturalization ceremony. 

This celebration of Oregon and its newest citizens is something that Secretary Richardson instituted during his 2nd month in office in February of 2017. This will be the second time in state history that a naturalization ceremony has been held in Oregon’s capitol building. This year’s ceremony will be held on February 14 at 12 p.m. in the House Chamber. A group of 15 individuals will take the oath to become American citizens. ",no,Oregon Secretary of State,,oregon.sos@oregon.gov​​​​​​​​,,https://www.oregonlegislature.gov/citizen_engagement/Pages/capitolMaps.aspx,,,,,,,,,https://www.oregon.gov/newsroom/Pages/NewsDetail.aspx?newsid=3142,,,,https://www.oregon.gov/newsroom/Pages/NewsDetail.aspx?newsid=3142,,,,
Secretary of State,Hearing for Rulemaking: Modernizing the method for providing notice of rulemaking,Amends 165-001-0000 by modernizing the method for providing notice of rulemaking.,01/23/2019 03:30:00 PM,01/23/2019 04:00:00 PM," Public Service Building, 255 Capitol St. NE, Suite 501, Room 500C", Salem,OR,"Amendments are proposed to this rule relating to the provision of notice of rulemaking activities, to modernize the
delivery method and conform to current statutory provisions.
https://sos.oregon.gov/elections/Documents/165-001-0000-Notice-Filing-12142018-NoticeFilingTrackedChanges.pdf",yes,Michelle Teed,503-986-1518,elections.sos@oregon.gov,,,,,,,,,,,https://sos.oregon.gov/elections/Pages/rulemaking.aspx,,,,https://sos.oregon.gov/elections/Pages/rulemaking.aspx,,,,
Secretary of State,Hearing for Rulemaking: Adjusting the Terms of Office for Douglas County Transportation District Directors,"A new rule is being proposed to adjust the terms of office for the Douglas County Transportation District Directors, who were elected in the November 6, 2018 General Election.",01/23/2019 03:30:00 PM,01/23/2019 04:00:00 PM,"Public Service Building, 255 Capitol St. NE",Salem,OR,"A new rule is being proposed to adjust the terms of office for the Douglas County Transportation District Directors,
who were elected in the November 6, 2018 General Election.
https://sos.oregon.gov/elections/Documents/165-020-0445-Filed-Notice-12142018-NoticeFilingTrackedChanges.pdf",yes,Michelle Teed,503-986-1518,elections.sos@oregon.gov,,,,,,,,,,,https://sos.oregon.gov/elections/Documents/165-020-0445-Filed-Notice-12142018-NoticeFilingTrackedChanges.pdf,,,,https://sos.oregon.gov/elections/Pages/rulemaking.aspx,,,,
Secretary of State,Swearing-in of Oregon's 2nd Kid Governor,"Erikka Baldwin, Oregon's 2nd Kid Governor",01/08/2019 11:00:00 AM,01/08/2019 11:45:00 AM,"Senate Chambers of the Capitol, 900 Court St. NE",Salem,OR,http://orkg.kidgovernor.org/,,Mary Beth Herkert,503-378-5196 ,MaryBeth.Herkert@OR.KidGovernor.org,,https://www.oregonlegislature.gov/citizen_engagement/Pages/capitolMaps.aspx,,,,,,,,,,,,,http://orkg.kidgovernor.org/,,,,
Secretary of State,Notice of Proposed Rulemaking OAR 165-005-0070,Updates the rule related to receipt of voter registration cards,12/27/2018 04:00:00 PM,12/27/2018 04:30:00 PM,255 Capitol St NE Ste 501 Rm 500C, Salem,OR,,Deadline 1/4/2019 4:30 PM,Michelle Teed,503-986-1518,elections.sos@oregon.gov,,,,,,,,,,,,,,,,,,,
Secretary of State,Public Records Advisory Council,,12/19/2018 03:00:00 PM,12/19/2018 04:30:00 PM,Online: https://global.gotomeeting.com/join/910228901​,Salem,OR,"Join by computer: https://global.gotomeeting.com/join/910228901​
Dial in using your phone:
United States (Toll Free): 1 877 309 2073 
United States: +1 (646) 749-3129
Access Code: 910-228-901",yes,Ginger McCall​​,03-378-5228,ginger.mccall@oregon.gov​​,,,,,,,true,https://global.gotomeeting.com/join/910228901​,877-309-2073 ,910-228-901,https://sos.oregon.gov/public-records/Pages/advisory-council.aspx,,,,https://sos.oregon.gov/public-records/Pages/advisory-council.aspx,,,,
Secretary of State,"Rules 166-035-0005, 0010, 0015",Repealing Facilitated Dispute Resoulution Rules ,12/17/2018 10:00:00 AM,12/17/2018 11:00:00 AM,800 Summer St NE ,Salem,OR,"In order to Participate, Hearing attendees must arrive and sign in by 10:05 a.m in the Large Conference room.",12-17-18 5:00 p.m ,Mary Beth Herkert,,mary.e.herkert@oregon.gov,,,,,,,,,,,,,,,,,,,
Secretary of State,Live Press Conference on Oregon’s Opioid Crisis Audit,,12/11/2018 01:00:00 PM,12/11/2018 02:00:00 PM,Capitol Press Room , Salem,OR,https://www.oregon.gov/newsroom/Pages/NewsDetail.aspx?newsid=3034,,Debra Royal ,503-986-2361 ,debra.royal@oregon.gov,,,,,,,true,https://oregon.granicus.com/MediaPlayer.php?publish_id=14,,,,,,,https://www.oregon.gov/newsroom/Pages/NewsDetail.aspx?newsid=3034,,,,
Secretary of State,Rulemaking Hearing,,11/27/2018 03:30:00 PM,11/27/2018 04:00:00 PM,"Public Service Bldg 255 Capitol St NE, 5th Flr Rm 500C (Bayes Conf Rm)", Salem,OR,"Materials can be found here:
https://sos.oregon.gov/elections/Pages/rulemaking.aspx
",,"Eric Jorgensen, Hearings Officer",503-986-1518,elections.sos@oregon.gov,,,,,,,,,,,,,,,,,,,
Secretary of State,Public Records Advisory Council,,11/19/2018 10:00:00 AM,11/19/2018 11:30:00 AM,Online,Salem,OR,"Join the meeting from your computer, tablet or smartphone: https://global.gotomeeting.com/join/250484717 
Dial in using your phone: 877-568-4106 Access Code: 250-484-717",,Ginger McCall​​,503-378-5228,ginger.mccall@oregon.gov​,,,,,,,,https://global.gotomeeting.com/join/250484717 (https://global.gotomeeting.com/join/250484717%20),877-568-4106,250-484-717,,,,,https://sos.oregon.gov/public-records/Pages/advisory-council.aspx,,,,
Secretary of State,Public Records Advisory Council,,10/10/2018 01:00:00 PM,10/10/2018 04:00:00 PM,"State Archives Building, 800 Summer St. NE", Salem,OR,"You can join this meeting remotely with the following link:
https://global.gotomeeting.com/join/983065037

You can also dial in using your phone.
United States (Toll Free): 1 866-899-4679 
United States: +1 (646) 749-3117 

Access Code: Access Code: 983-065-037 ",,Ginger McCall​​,503-378-5228 ,ginger.mccall@oregon.gov,,,,,,,,,,,https://sos.oregon.gov/public-records/Pages/advisory-council.aspx,,,,https://sos.oregon.gov/public-records/Pages/advisory-council.aspx,,,,
Secretary of State,Oregon state Archives Annual Open House,,10/06/2018 10:00:00 AM,10/06/2018 03:00:00 PM,800 Summer Street,Salem,OR,"A family-friendly event that gives Oregonians a close up view of the state’s historic records, including Oregon’s original Constitution.

In recognition of National Archives Month, the Oregon State Archives will hold its annual Open House on Saturday, October 6 from 10:00am to 3:00pm. The event will include a new gallery exhibit on the history of the Oregon State Fair. Light refreshments will be provided.

In addition, “behind the scenes” tours will be available of the State Archives records storage area so visitors can learn more about the Archives and its holdings. The 20-30 minute tour will provide an opportunity to see some of Oregon’s most significant historical documents, including the original Oregon Constitution.",,Mary Beth Herkert,,mary.e.herkert@oregon.gov,,https://sos.oregon.gov/archives/records/tour/Pages/archives-map.aspx,,,,,,,,,https://sos.oregon.gov/archives/Documents/archives-open-house-flyer.pdf,,,,https://sos.oregon.gov/archives/Documents/archives-open-house-flyer.pdf,,,,
Secretary of State,Hearing for Proposed Rule Amendment 165-007-0030 Vote By Mail Manual,,09/21/2018 03:30:00 PM,09/21/2018 04:30:00 PM,Public Service Building 255 Capitol Street NE Ste 501 (Bayes Conf Rm), Salem,OR,Auxiliary aids for persons with disabilities are available upon advance request. ,,Michelle Teed,503-986-1518,michelle.teed@oregon.gov,,,,,,,,,,,,,,,,,,,
Secretary of State,Referral 401 Explanatory Statement Committee ,Meeting to finalize explanatory statement and make any changes based on public comment,08/08/2018 01:00:00 PM,08/08/2018 02:00:00 PM,"900 Court St NE, Hearing Room 170",Salem,OR,https://sos.oregon.gov/elections/Pages/explanatory-statement.aspx,,Elections Division,,elections.sos@oregon.gov,,,,,,,,,,,https://sos.oregon.gov/elections/Pages/explanatory-statement.aspx,,,,https://sos.oregon.gov/elections/Pages/explanatory-statement.aspx,,,,
Secretary of State,Initiative Petition 31 Explanatory Statement Committee,Meeting to finalize explanatory statement and make any changes based on public comment,08/08/2018 10:00:00 AM,08/08/2018 11:00:00 AM,"900 Court St NE, Hearing Room 174", Salem,OR,https://sos.oregon.gov/elections/Pages/explanatory-statement.aspx,,Elections Division,,elections.sos@oregon.gov,,,,,,,,,,,https://sos.oregon.gov/elections/Pages/explanatory-statement.aspx,,,,https://sos.oregon.gov/elections/Pages/explanatory-statement.aspx,,,,
Secretary of State,Initiative Petition 1 Explanatory Statement Committee,Meeting to finalize explanatory statement and make any changes based on public comment,08/08/2018 10:00:00 AM,08/08/2018 11:00:00 AM,"900 Court St NE, Hearing Room 170", Salem,OR,https://sos.oregon.gov/elections/Pages/explanatory-statement.aspx,Yes,Elections Division,,elections.sos@oregon.gov,,,,,,,,,,,https://sos.oregon.gov/elections/Pages/explanatory-statement.aspx,,,,,,,,
Secretary of State,Initiative Petition 37 Explanatory Statement Committee ,Meeting to finalize explanatory statement and make any changes based on public comment,08/07/2018 10:00:00 AM,08/07/2018 11:00:00 AM,"900 Court St NE, Hearing Room 170",Salem,OR,https://sos.oregon.gov/elections/Pages/explanatory-statement.aspx,Yes,Elections Division,,elections.sos@oregon.gov,,,,,,,,,,,https://sos.oregon.gov/elections/Pages/explanatory-statement.aspx,,,,https://sos.oregon.gov/elections/Pages/explanatory-statement.aspx,,,,
Secretary of State,Initiative Petition 1 Explanatory Statement Committee,Public Hearing on draft explanatory statement,08/03/2018 02:00:00 PM,08/03/2018 03:00:00 PM,"900 Court St NE, Hearing Room E",Salem,OR,https://sos.oregon.gov/elections/Pages/explanatory-statement.aspx,Yes,Elections Division,,elections.sos@oregon.gov,,,,,,,,,,,https://sos.oregon.gov/elections/Pages/explanatory-statement.aspx,,,,https://sos.oregon.gov/elections/Pages/explanatory-statement.aspx,,,,
Secretary of State,Referral 401 Explanatory Statement Committee,Public Hearing on draft explanatory statement,08/02/2018 01:30:00 PM,08/02/2018 02:30:00 PM,"900 Court St NE, Hearing Room E",Salem,OR,https://sos.oregon.gov/elections/Pages/explanatory-statement.aspx,Yes,Elections Division,,elections.sos@oregon.gov,,,,,,,,,,,https://sos.oregon.gov/elections/Pages/explanatory-statement.aspx,,,,https://sos.oregon.gov/elections/Pages/explanatory-statement.aspx,,,,
Secretary of State,Initiative Petition 37 Explanatory Statement Committee ,Public Hearing on draft explanatory statement,08/02/2018 01:30:00 PM,08/02/2018 02:30:00 PM,"900 Court St NE, Hearing Room E",Salem,OR,https://sos.oregon.gov/elections/Pages/explanatory-statement.aspx,Yes,Elections Division,,elections.sos@oregon.gov,,,,,,,,,,,https://sos.oregon.gov/elections/Pages/explanatory-statement.aspx,,,,,,,,
Secretary of State,Initiative Petition 31 Explanatory Statement Committee ,Public Hearing on draft explanatory statement,08/02/2018 01:30:00 PM,08/02/2018 02:30:00 PM,"900 Court St NE, Hearing Room E",Salem,OR,https://sos.oregon.gov/elections/Pages/explanatory-statement.aspx,Yes,Elections Division,,elections.sos@oregon.gov,,,,,,,,,,,https://sos.oregon.gov/elections/Pages/explanatory-statement.aspx,,,,https://sos.oregon.gov/elections/Pages/explanatory-statement.aspx,,,,
Secretary of State,Initiative Petition 22 Explanatory Statement Committee ,Meeting to finalize explanatory statement and make any changes based on public comment,07/31/2018 01:00:00 PM,07/31/2018 02:00:00 PM,"Oregon Capitol Building, 900 Court St NE, Room 170",Salem,OR,https://sos.oregon.gov/elections/Pages/explanatory-statement.aspx,,Elections Division,,elections.sos@oregon.gov,,,,,,,,,,,https://sos.oregon.gov/elections/Pages/explanatory-statement.aspx,,,,https://sos.oregon.gov/elections/Pages/explanatory-statement.aspx,,,,
Secretary of State,Public Records Advisory Council,,07/31/2018 01:00:00 PM,07/31/2018 04:00:00 PM,800 Summer Street NE , Salem,OR,,,Ginger McCall,5033785228,ginger.mccall@oregon.gov,,,,,,,,,,,https://sos.oregon.gov/public-records/Pages/advisory-council.aspx,,,,https://sos.oregon.gov/public-records/Pages/advisory-council.aspx,,,,
Secretary of State,Initiative Petition 1 Explanatory Statement Committee,Meeting to draft explanatory statement,07/30/2018 01:00:00 PM,07/30/2018 02:00:00 PM,"900 Court St NE, Hearing Room 170",Salem,OR,https://sos.oregon.gov/elections/Pages/explanatory-statement.aspx,Yes,Elections Division,,elections.sos@oregon.gov,,,,,,,,,,,https://sos.oregon.gov/elections/Pages/explanatory-statement.aspx,,,,https://sos.oregon.gov/elections/Pages/explanatory-statement.aspx,,,,
Secretary of State,Financial Estimate Committee,,07/27/2018 11:00:00 AM,07/27/2018 12:00:00 PM,"900 Court Street, NE, Hearing room 170",Salem,OR,"Friday, Jul. 27, 2018, 11:00 am, Hearing Room 170:
Possible revisions and vote on final estimates of financial impact",Yes,State Elections Division,5039861518,elections.sos@oregon.gov,,,,,,,,,,,https://sos.oregon.gov/elections/Pages/committee-meetings.aspx,,,,https://sos.oregon.gov/elections/Pages/committee-meetings.aspx,,,,
Secretary of State,Referral 401 Explanatory Statement Committee,Meeting to draft explanatory statement,07/26/2018 10:00:00 AM,07/26/2018 11:00:00 AM,"900 Court St NE, Hearing Room 170",Salem,OR,https://sos.oregon.gov/elections/Pages/explanatory-statement.aspx,Yes,Elections Division,,elections.sos@oregon.gov,,,,,,,,,,,https://sos.oregon.gov/elections/Pages/explanatory-statement.aspx,,,,https://sos.oregon.gov/elections/Pages/explanatory-statement.aspx,,,,
Secretary of State,Initiative Petition 22 Explanatory Statement Committee ,Public Hearing on draft explanatory statement,07/26/2018 10:00:00 AM,07/26/2018 11:00:00 AM,"900 Court St NE, Hearing Room E",Salem,OR,https://sos.oregon.gov/elections/Pages/explanatory-statement.aspx,Yes,Elections Division,,elections.sos@oregon.gov,,,,,,,,,,,https://sos.oregon.gov/elections/Pages/explanatory-statement.aspx,,,,https://sos.oregon.gov/elections/Pages/explanatory-statement.aspx,,,,
Secretary of State,Initiative Petition 31 Explanatory Statement Committee ,Meeting to draft explanatory statement,07/25/2018 11:00:00 AM,07/25/2018 12:00:00 PM,"900 Court St NE, Hearing Room 174", Salem,OR,https://sos.oregon.gov/elections/Pages/explanatory-statement.aspx,Yes,Elections Division,,elections.sos@oregon.gov,,,,,,,,,,,https://sos.oregon.gov/elections/Pages/explanatory-statement.aspx,,,,https://sos.oregon.gov/elections/Pages/explanatory-statement.aspx,,,,
Secretary of State,Initiative Petition 37 Explanatory Statement Committee ,Meeting to draft explanatory statement,07/25/2018 10:00:00 AM,07/25/2018 11:00:00 AM,"900 Court St NE, Hearing Room 170", Salem,OR,https://sos.oregon.gov/elections/Pages/explanatory-statement.aspx,Yes,Elections Division,,elections.sos@oregon.gov,,,,,,,,,,,https://sos.oregon.gov/elections/Pages/explanatory-statement.aspx,,,,https://sos.oregon.gov/elections/Pages/explanatory-statement.aspx,,,,
Secretary of State,Financial Estimate Committee,,07/24/2018 02:00:00 PM,07/24/2018 03:00:00 PM,"900 Court Street, NE, Hearing room 170",Salem,OR,"Tuesday, Jul. 24, 2018, 2:00 pm, Hearing Room 170:
Staff from the Secretary of State's office will accept oral and written public comments",Yes,State Elections Division,5039861518,elections.sos@oregon.gov,,,,,,,,,,,https://sos.oregon.gov/elections/Pages/committee-meetings.aspx,,,,https://sos.oregon.gov/elections/Pages/committee-meetings.aspx,,,,
Secretary of State,Notice of Proposed Rulemaking,Chapter 165,07/23/2018 03:30:00 PM,07/23/2018 04:30:00 PM,Public Service Bldg 255 Capitol St NE Ste 500C, Salem,OR,"Amending 165-012-0005 to adopt an updated Campaign Finance Manual and Proposing amendments to the Hand Count rule, as necessary to implement SB 229 (2017).",Yes,Michelle Teed,503-986-1518,elections.sos@oregon.gov,,,,,,,,,,,https://sos.oregon.gov/elections/Documents/NoticeFilingTrackedChanges-campaign-finance-manual-filed-06182018.pdf,,,,https://sos.oregon.gov/elections/Pages/rulemaking.aspx,,,,
Secretary of State,Initiative Petition 22 Explanatory Statement Committee ,Meeting to draft explanatory statement,07/20/2018 10:00:00 AM,07/20/2018 11:00:00 AM,"Oregon Capitol Building, 900 Court St NE, Room 170", Salem,OR,https://sos.oregon.gov/elections/Pages/explanatory-statement.aspx,Yes,Elections Division,,elections.sos@oregon.gov,,,,,,,,,,,https://sos.oregon.gov/elections/Pages/explanatory-statement.aspx,,,,https://sos.oregon.gov/elections/Pages/explanatory-statement.aspx,,,,
Secretary of State,Education Town Hall ,Education audits performed by the Audits Division,07/18/2018 05:30:00 PM,07/18/2018 06:30:00 PM,"Knight Law Center, Room 110, 1515 Agate Street", Eugene,OR,"Join Secretary of State Dennis Richardson and the State Audits team on Wednesday, July 18, for an Education Town Hall. The purpose of this town hall is to present information about the education audits performed by the Audits Division and provide an opportunity for the public to ask questions.

The two audits to be discussed were both released in December of last year: 
https://sos.oregon.gov/audits/documents/2017-29.pdf
https://sos.oregon.gov/audits/Documents/2017-30.pdf",Yes,Debra Royal,503-986-2361,debra.royal@oregon.gov,,,,,,,,,,,https://www.oregon.gov/newsroom/Pages/NewsDetail.aspx?newsid=2823,,,,https://www.oregon.gov/newsroom/Pages/NewsDetail.aspx?newsid=2823,,,,
Secretary of State,Financial Estimate Committee,,07/17/2018 11:00:00 AM,07/17/2018 12:00:00 PM,"900 Court Street, NE, Hearing room 170", Salem,OR,"Tuesday, Jul. 17, 2018, 11:00 am, Hearing Room 170:
Overview of Financial Estimate Committee process and requirements
Draft estimates of financial impact for Referral 401, Initiative Petitions 1, 22, 31 and 37",Yes,State Elections Division,5039861518,elections.sos@oregon.gov,,,,,,,,,,,https://sos.oregon.gov/elections/Pages/committee-meetings.aspx,,,,https://sos.oregon.gov/elections/Pages/committee-meetings.aspx,,,,
Secretary of State,Notice of Proposed Rulemaking Chapter 165,,06/26/2018 02:00:00 PM,06/26/2018 04:00:00 PM,"Public Service Bldg 255 Capitol St NE 5th Flr, Rm 500A", Salem,OR,"Chapter 165/Secretary of State/Elections Division Adopts revisions to the State Initiative and Referendum Manual, and the rule designating NVRA agencies.Also, Proposing minor corrections, and the addition of statutory references and clarifying language to
Appendix A.",Yes,Michelle Teed,503-986-1518,elections.sos@oregon.gov,,,,,,,,,,,,,,,https://sos.oregon.gov/elections/Pages/rulemaking.aspx,,,,
Secretary of State,Public Records Advisory Council Meeting,,05/23/2018 01:00:00 AM,05/23/2018 04:00:00 AM,800 Summer Street NE,Salem,OR,,Yes,Ginger McCall,503-378-5228,Ginger.mccall@oregon.gov,,,,,,,,,646-749-3112,721-200-141,http://sos.oregon.gov/archives/Documents/prac/prac-agenda-5-23-2018.pdf,,,,http://sos.oregon.gov/archives/Pages/public-records-advisory.aspx,,,,
Secretary of State,Vacancy in State Representative District 2,,04/30/2018 11:00:00 AM,04/30/2018 12:00:00 PM,Douglas County Courthouse Board Rm 1036 Douglas Ave Rm 216, Roseburg,OR,,,Alma Whalen,503-986-1518,alma.whalen@oregon.gov,,,,,,,,,,,,,,,,SR 2 AAM Notification.pdf (https://data.oregon.gov/views/gs36-7t8m/files/3f039b88-10ee-4688-9015-e48e25a0af35?download=true&filename=SR%202%20AAM%20Notification.pdf),,,
Secretary of State,DEQ Audit Town Hall Meeting,,04/11/2018 05:50:00 PM,04/11/2018 07:00:00 PM,"Creston Elementary School, 4701 SE Bush", Portland,OR,"Secretary of State Dennis Richardson will hold a town hall meeting regarding the Department of Environmental Qualify (DEQ) audit that was released January 3, 2018.
The purpose of the town hall is to follow-up with the community on the audit and to provide an opportunity for interested parties to ask questions of the auditors. Secretary Richardson, Audits Director Kip Memmott, and several auditors who worked on the audit will be in attendance.
",Yes,Debra Royal ,503-986-2361,debra.royal@oregon.gov,,,,,,,,,,,,,,,http://sos.oregon.gov/audits/documents/2018-01.pdf,,,,
Secretary of State,Office of Small Business Assistance Rules Hearing,Proposed OAR 160-070-0000,02/20/2018 09:00:00 AM,02/20/2018 10:00:00 AM,"Corporation Division Conference Room, 255 Capitol St NE, Suite 151", Salem,OR,Office of Small Business Assistance Rules Hearing on Proposed OAR 160-070-0000,Yes,Ruth Miles,844-469-5512,business.sos@oregon.gov,,,,,,,,,,,,,,,https://content.govdelivery.com/accounts/ORSOS/bulletins/1d7f824,,,,
Secretary of State,"Foster Care Audit Press Conference, Wednesday, January 31, 10 a.m.",Secretary of State Dennis Richardson to Hold Press Conference Regarding Soon to Be Released Foster Care Audit ,01/31/2018 10:00:00 AM,01/31/2018 10:30:00 AM,"Oregon State Capitol Press Briefing Room, 900 Court St. NE",Salem,OR,"On Wednesday, January 31, at 10 a.m., Secretary of State Dennis Richardson will hold a press conference in the Oregon State Capitol Press Briefing Room. The press conference will focus on a Foster Care audit to be release at that same time.",,Debra Royal,503-986-2361,debra.royal@oregon.gov,,,,,,,,,,,,,,,,,,,
Secretary of State,Vacancy in State Senate District 19,,01/29/2018 01:30:00 PM,01/29/2018 03:30:00 PM,Marylhurst University Flavia Hall 17600 Pacific Hwy,Marylhurst,OR,,,Alma Whalen,503-986-1518,alma.whalen@oregon.gov,,,,,,,,,,,,,,,,SD 19 AAM Notification.pdf (https://data.oregon.gov/views/gs36-7t8m/files/a6ae403d-3bf0-4fac-86ed-766ef587eff3?download=true&filename=SD%2019%20AAM%20Notification.pdf),,,
Secretary of State,Vacancy in State Representative District 60,1:30 p.m MST (12:30 p.m. PST),01/25/2018 01:30:00 PM,01/25/2018 03:30:00 PM,Treasure Valley Community College (TVCC) Weese Bldg #110 650 College Blvd, Ontario,OR,,,Alma Whalen,503-9861518,Alma.Whalen@oregon.gov,,,,,,,,,,,,,,,,SR 60 AAM Notification.pdf (https://data.oregon.gov/views/gs36-7t8m/files/edc8ccf3-0d49-4315-9236-033af33a879c?download=true&filename=SR%2060%20AAM%20Notification.pdf),,,
Secretary of State,Vacancy in State Representative District 19,Vacancy in State Representative District 19,01/24/2018 09:00:00 AM,01/24/2018 11:00:00 AM,Senator Hearing Rm Courthouse Square 555 Court St NE, Salem,OR,,,Alma Whalen,503-986-1518,alma.whalen@oregon.gov,,,,,,,,,,,,,,,,SR 19 AAM Notification.pdf (https://data.oregon.gov/views/gs36-7t8m/files/0af849ee-b5ef-4d7b-ba88-3403e0f22594?download=true&filename=SR%2019%20AAM%20Notification.pdf),,,
Secretary of State,Vacancy in State Senate District 30,,01/04/2018 01:00:00 PM,01/04/2018 05:00:00 PM,Grant County Reg. Airport Lower Conf Room 72000 Airport Rd, John Day,OR,"Effective December 31, 2017, there is a vacancy in State Senate District 30 due to the resignation of Senator Ted Ferrioli.",,Alma Whalen,503-986-1518,alma.whalen@oregon.gov,,,,,,,,,,,,,,,,SD 30 AAM Notification.pdf (https://data.oregon.gov/views/gs36-7t8m/files/8485385e-e824-4b7f-8eca-c145e1fa6fd2?download=true&filename=SD%2030%20AAM%20Notification.pdf),,,
Secretary of State,Administrative Rule Hearing on 2018 Election Manual Updates,,12/15/2017 10:00:00 AM,12/15/2017 12:00:00 PM,"255 Capitol St. NE, Suite 501", Salem,OR,"The Oregon Elections Division released the election manual updates under consideration for the 2018 election cycle. After considering public feedback, the Elections Division intends to finalize manual changes effective January 1, 2018. 

Proposed changes include updating deadlines with 2018 dates, implementing election law changes passed during the 2016 and 2017 sessions, and adding clarifications to make the manuals more user-friendly. These changes will increase efficiency of Elections Division processes, thereby, saving taxpayer money. The changes will also equalize the playing field for grassroots advocates and minor parties.
For more information:
https://content.govdelivery.com/accounts/ORSOS/bulletins/1c56b3b",Yes,Elections Division,503-986-1518,elections.sos@oregon.gov,,,,,,,,,,,https://content.govdelivery.com/accounts/ORSOS/bulletins/1c56b3b,,,,,,,,
Secretary of State,Vacancy in State Representative District 52,Vacancy in State Representative District 52,11/29/2017 04:00:00 PM,11/29/2017 06:00:00 PM,Sandy High School Lecture Hall 37400 Bell Street, Sandy,OR,,,Alma Whalen,503-986-1518,alma.whalen@oregon.gov,,,,,,,,,,,,,,,,SR 52 AAM Notification 112817.pdf (https://data.oregon.gov/views/gs36-7t8m/files/33b7f99c-ac93-4ec2-925c-01cea37a011d?download=true&filename=SR%2052%20AAM%20Notification%20112817.pdf),,,
Secretary of State,Vacancy in State Representative District 59,,11/20/2017 11:00:00 AM,11/20/2017 01:00:00 PM,"Jefferson County Courthouse Courtroom B  129 SW ""E"" St", Madras,OR,,,Alma Whalen,503-986-1518,alma.whalen@oregon.gov,,,,,,,,,,,,,,,,SR 59 AAM Notification.pdf (https://data.oregon.gov/views/gs36-7t8m/files/d33a0e1b-0463-4ebb-8f18-2ba0635aaf70?download=true&filename=SR%2059%20AAM%20Notification.pdf),,,
Secretary of State,Public Records Advisory Council Mtg ,,10/03/2017 01:00:00 PM,10/03/2017 03:00:00 PM,"SOS Archives Bldg, 800 Summer St. NE", Salem,OR,"Archives Building, Large Conference Room",,Steve Elzinga,503-986-2259,Stephen.elzenga@oregon.gov,,,,,,,,,,,,,,,,,,,
Secretary of State,Financial Estimate Committee,,09/22/2017 10:00:00 AM,09/22/2017 11:00:00 AM,"Oregon State Capitol, 900 Court Street NE, Room 170",Salem,OR,"Friday, September 22nd 2017, 10:00 am, Hearing Room 170 
•	Possible revisions and vote on the estimate of financial impact",,Elections Division,503-986-1518,elections.sos@oregon.gov,,,,,,,,,,,http://www.oregon.gov/newsroom/Pages/NewsDetail.aspx?newsid=2263,,,,http://www.oregon.gov/newsroom/Pages/NewsDetail.aspx?newsid=2263,,,,
Secretary of State,Financial Estimate Committee,,09/14/2017 10:00:00 AM,09/14/2017 11:00:00 AM,"Oregon State Capitol, 900 Court Street NE, Room 170",Salem,OR,"Thursday, September 14th 2017, 10:00 am, Hearing Room 170
•	Staff from the Secretary of State's office will take oral and written public comments",Yes,Elections Division,503-986-1518,elections.sos@oregon.gov,,,,,,,,,,,http://www.oregon.gov/newsroom/Pages/NewsDetail.aspx?newsid=2263,,,,http://www.oregon.gov/newsroom/Pages/NewsDetail.aspx?newsid=2263,,,,
Secretary of State,Vacancy in State Representive District 38,Appointment Meeting State Representive District 38,09/13/2017 02:30:00 PM,09/13/2017 03:30:00 PM,Lake Oswego Parts & Rec Palisades Bldg Willamette Room 1500 Green Tree Rd, Lake Oswego,OR,Appointment meeting for State Representative District 38,,Alma Whalen,503-986-1518,alma.whalen@oregon.gov,,,,,,,,,,,,,,,,,,,
Secretary of State,Financial Estimate Committee,,09/08/2017 11:30:00 AM,09/08/2017 12:30:00 PM,"Oregon State Capitol, 900 Court Street NE, Room 170",Salem,OR,"Friday, September 8th 2017, 11:30 am, Hearing Room 170
•	Elect the 5th committee member (local government representative) 
•	Overview of Financial Estimate Committee process and requirements 
•	Draft and vote on the draft estimate of financial impact: IRR 301 
http://egov.sos.state.or.us/elec/web_irr_search.record_detail?p_reference=20180301..LSCYYY.
",,Elections Division,503-986-1518,elections.sos@oregon.gov,,,,,,,,,,,http://www.oregon.gov/newsroom/Pages/NewsDetail.aspx?newsid=2263,,,,http://www.oregon.gov/newsroom/Pages/NewsDetail.aspx?newsid=2263,,,,
Secretary of State,Rulemaking Hearing,Expand public records training and add facilitated dispute resolution for public records requests.,06/26/2017 10:00:00 AM,06/26/2017 11:00:00 AM,Oregon State Archives Building; 800 Summer St. NE, Salem,OR,"Rule Summary
The Secretary of State is launching the Oregon Access Project to improve public records access. As part of the project, the Archives Division will expand public records trainings for members of the public, media, state agencies, and local governments while also adding a new service:
facilitated dispute resolution for public records requests. This will maximize current staff expertise, use existing resources, and avoid
unnecessary duplication.",Yes,Julie Yamaka,,julie.a.yamaka@state.or.us,,,,,,,,,,,,,,,http://sos.oregon.gov/archives/Pages/default.aspx,166-2017512-notice-rulemaking.pdf (https://data.oregon.gov/views/gs36-7t8m/files/9a79316f-955e-4fbf-a1b7-b1287df15e3a?download=true&filename=166-2017512-notice-rulemaking.pdf),,,
Secretary of State,Electoral College,2016 Presidential Electoral College,12/19/2016 11:00:00 AM,12/19/2016 12:00:00 PM,"Senate Chambers, State Capitol Bldg", Salem,OR,,,Jan Flowers,503-986-1518,janet.flowers@state.or.us,,,,,,,true,,,,,,,,,Agenda.docx (https://data.oregon.gov/views/gs36-7t8m/files/302957fb-dcf5-4c3d-97bf-036fc5369cbe?download=true&filename=Agenda.docx),,,
Secretary of State,2016 General Election Hand Count Meeting,The Hand Count Advisory Committee will meet to randomly select the contests and precincts or batches to be hand counted. Interested parties are welcome to attend.,11/10/2016 12:00:00 PM,11/10/2016 05:00:00 PM,"Public Service Building 255 Capitol St NE Salem, 97310 Room 500A ", Salem,OR,Please see attachment.,,Russell Terry,,russell.terry@state.or.us,,,,Russell Terry,503-986-1518,russell.terry@state.or.us,,,,,,,,,,Public MTG Notice_final.docx (https://data.oregon.gov/views/gs36-7t8m/files/67bf045b-25f7-49d9-b2f2-92fbc3ebcb8c?download=true&filename=Public%20MTG%20Notice_final.docx),,,
Secretary of State,Explanatory Statement Committee Meetings,To consider public comment,08/08/2016 09:00:00 AM,08/08/2016 02:00:00 PM,"Hrg Rms 170 and 174, State Capitol Bldg, 900 Court St NE", Salem,OR,"Referral 401 - Cancelled
Referral 404 - Cancelled
IP 28
IP 49
IP 50 - Cancelled
IP 65 - Cancelled
IP 67
IP 68 - Cancelled",No,Jan Flowers,503.986-1518,janet.flowers@state.or.us,,,http://sos.oregon.gov/elections/Pages/committee-meetings.aspx,,,,,,,,http://sos.oregon.gov/elections/Documents/ESFI/esc-agenda.pdf,,,,https://www.oregonlegislature.gov/citizen_engagement/Pages/NonLegislative_Video.aspx,ESC Agenda.pdf (https://data.oregon.gov/views/gs36-7t8m/files/c193f67d-bad9-4edf-9a19-32686a3ee10d?download=true&filename=ESC%20Agenda.pdf),,,
Secretary of State,Financial Estimate Committee ,To consider public comments ,08/05/2016 09:30:00 AM,08/05/2016 11:00:00 AM,"Hrg Rm 170, State Capitol Bldg, 900 Court St NE",Salem,OR,"Referral 401
Referral 403
Referral 404
IP 28
IP 65
IP 67
IP 68",No,Jan Flowers,503-986-1518,janet.flowers@state.or.us,,,http://sos.oregon.gov/elections/Pages/committee-meetings.aspx,,,,,,,,,,,,https://www.oregonlegislature.gov/citizen_engagement/Pages/NonLegislative_Video.aspx,,,,
Secretary of State,Public Hearing ,Comments on Referrals and Iniative statements,08/03/2016 01:00:00 PM,08/03/2016 05:00:00 PM,"Rm TBD, State Capitol Bldg, 900 Court St NE", Salem,OR,"Oral and written comments to be accepted on
Referral 401
Referral 404
IP 28
IP 49
IP 50
IP 65
IP 67
IP 68
Written comments
can be submitted by mail to:
255 Capitol St NE, Ste 501
Salem, OR 97310
or by email to
elections.sos@state.or.us&#8203;",Yes,Jan Flowers,503-986-1518,janet.flowers@state.or.us,,,http://sos.oregon.gov/elections/Pages/committee-meetings.aspx,,,,,,,,,,,,,,,,
Secretary of State,Explanatory Statement Committee Meetings,Draft statement meetings,07/26/2016 09:00:00 AM,07/26/2016 03:00:00 PM,"Hrg Rms 170 and 174, State Capitol Bldg, 900 Court St NE", Salem,OR,"Each meeting is schedule for two hours
IP 50 begins at 9 am
IP 65 begins at 9 am
IP 67 begins at 1 pm
IP 68 begins at 1 pm ",No,Jan Flowers,503-986-1518,janet.flowers@state.or.us,,,http://sos.oregon.gov/elections/Pages/committee-meetings.aspx,,,,,,,,http://sos.oregon.gov/elections/Documents/ESFI/esc-agenda.pdf,,,,https://www.oregonlegislature.gov/citizen_engagement/Pages/NonLegislative_Video.aspx,ESC Agenda.pdf (https://data.oregon.gov/views/gs36-7t8m/files/415054e8-8ab8-48c1-b5ec-63d14e0a80fc?download=true&filename=ESC%20Agenda.pdf),,,
Secretary of State,Explanatory Statement Committee Meetings,Draft statment meeting,07/25/2016 09:00:00 AM,07/25/2016 03:00:00 PM,"Hrg Rm 170 and 174, State Capitol Bldg, 900 Court St NE", Salem,OR,"Each meeting is schedule for two hours
Referral 401 begins at 9 am
Referral 404 begins at 9 am
IP 28 begins at 1 pm
IP 49 begins at 1 pm",No,Jan Flowers,503-986-1518,janet.flowers@state.or.us,,,http://sos.oregon.gov/elections/Pages/committee-meetings.aspx,,,,,,,,http://sos.oregon.gov/elections/Documents/ESFI/esc-agenda.pdf,,,,https://www.oregonlegislature.gov/citizen_engagement/Pages/NonLegislative_Video.aspx,ESC Agenda.pdf (https://data.oregon.gov/views/gs36-7t8m/files/17604d1e-dbbc-46a3-bd91-2b10600ac211?download=true&filename=ESC%20Agenda.pdf),,,
Secretary of State,Explanatory Statement Meeting,second meeting for selecting a 5th member,07/19/2016 04:15:00 PM,07/19/2016 06:00:00 PM,"Hearing Rm 170, State Capitol Bldg, 700 Court St NE", Salem,OR,,No,Ashley Clark,503-986-1504,ashley.clark@state.or.us,,,,,,,,,,,,,,,,ESC Agenda 2.pdf (https://data.oregon.gov/views/gs36-7t8m/files/faf00c20-2497-41f8-a213-c6bcbf0affa9?download=true&filename=ESC%20Agenda%202.pdf),,,
Secretary of State,Financial Estimate Committee Meeting - CANCELLED,Additional drafting & potential vote on financial impact statements,07/19/2016 02:30:00 PM,07/19/2016 04:30:00 PM,"Hearing Room 170, State Capitol Bldg, 900 Court St NE", Salem,OR,,,Jan Flowers,,janet.flowers@state.or.us,,,,,,,true,https://www.oregonlegislature.gov/citizen_engagement/Pages/NonLegislative_Video.aspx,,,,,,,,FEC Agenda 2.pdf (https://data.oregon.gov/views/gs36-7t8m/files/3d7e8d54-0be1-46c6-960c-f58526c6eba0?download=true&filename=FEC%20Agenda%202.pdf),,,
Secretary of State,Explanatory Statement Committee Meetings,Fifth member selection meetings for all referrals and initiatives,07/18/2016 09:00:00 AM,07/18/2016 02:00:00 PM,"Hrg Rms 170 or 174, State Capitol Bldg, 900 Court St NE", Salem,OR,"Meetings for:
Referral 401
Referral 404
IP 28
IP 49
IP 50
IP 65
IP 67
IP 68",No,Jan Flowers,503-986-1518,janet.flowers@state.or.us,,,http://sos.oregon.gov/elections/Pages/committee-meetings.aspx,,,,,,,,http://sos.oregon.gov/elections/Documents/ESFI/esc-agenda.pdf,,,,https://www.oregonlegislature.gov/citizen_engagement/Pages/NonLegislative_Video.aspx,ESC Agenda.pdf (https://data.oregon.gov/views/gs36-7t8m/files/69cc06c6-3575-423f-8158-8b537e2f44b3?download=true&filename=ESC%20Agenda.pdf),,,
Secretary of State,Financial Estimate Committee Meeting,Additional drafting & ptential vote on financial inpact statements,07/12/2016 01:30:00 PM,07/12/2016 03:30:00 AM,"Hearing Room 170, State Capitol Bldg, 900 Court St NE", Salem,OR,,,Jan Flowers,,janet.flowers@state.or.us,,,,,,,true,https://www.oregonlegislature.gov/citizen_engagement/Pages/NonLegislative_Video.aspx,,,,,,,,FEC Agenda.pdf (https://data.oregon.gov/views/gs36-7t8m/files/08b7859e-ca02-4f33-a01d-59f203eee343?download=true&filename=FEC%20Agenda.pdf),,,
Secretary of State,Financial Estimate Committee Meeting,"Draft fiancial impact statements for IRR401, IRR403, IRR404, IP28, IP49, IP50, IP65, IP67, IP68",07/11/2016 09:30:00 AM,07/11/2016 11:30:00 AM,"Hearing Room 170, State Capitol Bldg, 900 Court St NE", Salem,OR,,,Jan Flowers,,janet.flowers@state.or.us,,,,,,,true,https://www.oregonlegislature.gov/citizen_engagement/Pages/NonLegislative_Video.aspx,,,,,,,,FEC Agenda.pdf (https://data.oregon.gov/views/gs36-7t8m/files/91dab875-7cc0-4ef4-8ff5-0b654460b80f?download=true&filename=FEC%20Agenda.pdf),,,
Secretary of State,Tie-break for House District 30 for the Independent Party,,06/17/2016 11:00:00 AM,06/17/2016 11:30:00 AM,"255 Capitol St NE, Ste 501", Salem,OR,,,Jan Flowers,,janet.flowers@state.or.us,,,,,,,,,,,,,,,,,,,
Secretary of State,Public Hearing relating to Oregon Motor Voter ,Public hearing to admending administrative rules,04/22/2016 10:00:00 AM,04/22/2016 12:00:00 PM,"State Capitol Bldg, 900 Court St, Hearing Room C", Salem,OR,"A copy of the proposed rule change and manual draft can be found at http://sos.oregon.gov/voting/Pages/motor-voter-rulemaking.aspx
",,Laura Hutchings,503-986-1523,oregon.sos@state.or.us,,,,,,,,,,,,,,,,,,,
Secretary of State,Financial Estimate Committee Meeting,FEC Meeting,01/29/2016 11:15:00 AM,01/29/2016 12:15:00 PM,"Hearing Room 170, Capitol Bldg, 900 Court St NE", Salem,OR,Ballot Measure 93 - City of Damascus voters shall vote whether to convey city property to Clackamas County,,Zoe Larmer,503-986-1527,zoe.larmer@state.or.us,,,,,,,,,,,,,,,,FEC agenda REVISED.pdf (https://data.oregon.gov/views/gs36-7t8m/files/2f23f53d-333c-47a7-a711-8f62e28aaeb9?download=true&filename=FEC%20agenda%20REVISED.pdf),,,
Secretary of State,Explanatory Statement Committee Meeting,ESC Meeting,01/27/2016 10:30:00 AM,01/27/2016 12:00:00 PM,"Room 170, Capitol Bldg, 900 Court St NE", Salem,OR,Ballot Measure 93 - City of Damascus voters shall vote whether to convey city property to Clackamas County,,Zoe Larmer,503-986-1527,zoe.larmer@state.or.us,,,,,,,,,,,,,,,,esc-agenda.pdf (https://data.oregon.gov/views/gs36-7t8m/files/f2809ca1-ec6a-4d90-b554-5d32deaae2ba?download=true&filename=esc-agenda.pdf),,,
Secretary of State,Public Hearing for Comments on Explanatory Statement and Financial Estimate for Measure 93,,01/25/2016 02:00:00 PM,01/25/2016 05:00:00 PM,"Rm 50, State Capitol Bldg", Salem,OR,Public Hearing notice and draft explanatory and financial impact statements are attached,Yes,Laura Hutchings,503-986-2361,oregon.sos@state.or.us,,,,,,,,,,,,,,,,Public Hearing Notice with statements.pdf (https://data.oregon.gov/views/gs36-7t8m/files/c07db8f2-7d55-4e3a-995f-e4f0ab3d188c?download=true&filename=Public%20Hearing%20Notice%20with%20statements.pdf),,,
Secretary of State,Financial Estimate Committee Meeting Schedule,FEC Meeting,01/21/2016 01:00:00 PM,01/21/2016 02:00:00 PM,State Capitol 900 Court St NE Rm 170, Salem,OR,This meeting has been cancelled,,Zoe Larmer,503.986.1527,zoe.larmer@state.or.us,,,,,,,,https://www.oregonlegislature.gov,,,,,,,,financial-estimate-committeee-meeting-schedule.pdf (https://data.oregon.gov/views/gs36-7t8m/files/03c1bba5-e342-468c-ae8c-9009114a4584?download=true&filename=financial-estimate-committeee-meeting-schedule.pdf),,,
Secretary of State,Financial Estimate Committee Meeting Schedule,FEC Meeting,01/20/2016 03:00:00 PM,01/20/2016 04:00:00 PM,State Capitol 900 Court St NE Rm 170, Salem,OR,Ballot Measure 93 - City of Damascus voters shall vote whether to convey city property to Clackamas County,,Zoe Larmer,503.986.1527,zoe.larmer@state.or.us,,,,,,,,https://www.oregonlegislature.gov,,,,,,,,financial-estimate-committeee-meeting-schedule.pdf (https://data.oregon.gov/views/gs36-7t8m/files/9d1da27f-6ecb-42be-b05c-9454c68e20ee?download=true&filename=financial-estimate-committeee-meeting-schedule.pdf),,,
Secretary of State,Explanatory Statement Committee Meeting Schedule,ESC Meeting,01/12/2016 09:00:00 AM,01/12/2016 10:00:00 AM,State Capitol 900 Court St NE Rm 174, Salem,OR,Ballot Measure 93 - City of Damascus voters shall vote whether to convey city property to Clackamas County,,Zoe Larmer,503.986.1527,zoe.larmer@state.or.us,,,,,,,,https://www.oregonlegislature.gov,,,http://sos.oregon.gov/elections/Documents/esc-agenda.pdf,,,,,esc-agenda.pdf (https://data.oregon.gov/views/gs36-7t8m/files/696f3e65-3f06-4532-9c17-7288314257b0?download=true&filename=esc-agenda.pdf),,,
Secretary of State,Explanatory Statement Committee Meeting Schedule,ESC Meetings,01/06/2016 09:30:00 AM,01/06/2016 10:30:00 AM,State Capitol 900 Court St NE Room 174, Salem,OR,Ballot Measure 93 - City of Damascus voters shall vote whether to convey city property to Clackamas County,,Zoe Larmer,503.986.1527,zoe.larmer@state.or.us,,,,,,,,https://www.oregonlegislature.gov,,,http://sos.oregon.gov/elections/Documents/esc-agenda.pdf,,,,,esc-agenda.pdf (https://data.oregon.gov/views/gs36-7t8m/files/2be0bdef-bc99-4dde-90ca-c1d6a4359fc9?download=true&filename=esc-agenda.pdf),,,
Secretary of State,Notice of Rulemaking Advisory Committee Meetings,,07/07/2015 09:00:00 AM,07/07/2015 11:00:00 AM,"Oregon State Capitol, HR 50", Salem,OR,"The Rules Advisory Committee is being convened by the Secretary of State to discuss proposed administrative rules related to the Oregon Motor Voter Registration Process, under [HB 2177]. The Secretary will hold two committee meetings, each on a different day and time, to allow committee members more flexibility in participating Committee members may attend either meeting or both. Members of the public are welcome to attend either meetings. 

The Rules Advisory Committee will be asked for their feedback on various issues related to implementation and fiscal impacts of the bill the Secretary must consider for purposes of the fiscal impact statement associated with the adoption of the Oregon Motor Voter administrative rules.",Yes,Laura Terrill,503-986-2015,laura.terrill@state.or.us,,,,The meeting location is accessible to persons with disabilities. A request for an interpreter for the hearing impaired or for other accommodations for persons with disabilities should be made at least 48 hours before the meeting to (name and telephone/TTY number).,,,,,888-861-1255,554225,,,,,,Notice of Rulemaking Agenda.docx (https://data.oregon.gov/views/gs36-7t8m/files/QrHtzAQPUYLLA_wPNP64cq8YO0ER7ZnMhrPyRM365lE?download=true&filename=Notice%20of%20Rulemaking%20Agenda.docx),,,
Secretary of State,Notice of Rulemaking Advisory Committee Meetings,,07/06/2015 05:00:00 PM,07/06/2015 07:00:00 PM,"Oregon State Capitol, HR 50",Salem,OR,"The Rules Advisory Committee is being convened by the Secretary of State to discuss proposed administrative rules related to the Oregon Motor Voter Registration Process, under [HB 2177]. The Secretary will hold two committee meetings, each on a different day and time, to allow committee members more flexibility in participating Committee members may attend either meeting or both. Members of the public are welcome to attend either meetings. 

The Rules Advisory Committee will be asked for their feedback on various issues related to implementation and fiscal impacts of the bill the Secretary must consider for purposes of the fiscal impact statement associated with the adoption of the Oregon Motor Voter administrative rules.",Yes,Laura Terrill,503-986-2015,laura.terrill@state.or.us,,,,The meeting location is accessible to persons with disabilities. A request for an interpreter for the hearing impaired or for other accommodations for persons with disabilities should be made at least 48 hours before the meeting to (name and telephone/TTY number).,,,,,888-861-1255,554225,,,,,,Notice of Rulemaking Agenda.docx (https://data.oregon.gov/views/gs36-7t8m/files/QrHtzAQPUYLLA_wPNP64cq8YO0ER7ZnMhrPyRM365lE?download=true&filename=Notice%20of%20Rulemaking%20Agenda.docx),,,
Secretary of State,Minority Voting Materials Task Force Meeting,Review Final Report to the Legislature,01/21/2015 09:00:00 AM,01/21/2015 10:00:00 AM,900 Capitol St NE Room H470 - Phone Conference, Salem,OR,Phone Conference Dial In: 1-888-861-1255  Pin Code: 95730,,Candy Broucek,503-986-1518,candy.l.broucek@state.or.us,,,,,,,,,1-888-861-1255,95730,,,,,,,,,
Secretary of State,Minority Voting Materials Task Force Meeting,,12/16/2014 02:00:00 AM,12/16/2014 03:30:00 AM,Oregon State Capitol Room 167A, Salem,OR,,,Candy Broucek,503-986-2313,candy.l.broucek@state.or.us,,,,,,,,,,,,,,,,,,,
Secretary of State,Minority Voting Materials Task Force Meeting,,11/18/2014 11:00:00 AM,11/18/2014 12:30:00 AM,Oregon State Capitol Room 167A, Salem,OR,,,Candy Broucek,503-986-2313,candy.l.broucek@state.or.us,,,,,,,,,1-888-861-1255,95730,,,,,,,,,
Secretary of State,2014 General Election Hand Count Meeting,Hand Count Meeting,11/07/2014 09:00:00 AM,11/07/2014 12:30:00 PM,255 Capitol St NE Ste 501 Rm 500B Public Service Building, Salem,OR,"SALEM – After each general election county elections officials are required to hand count a percentage of ballots and compare the hand counted tally of votes to the tally produced by the vote tally system for the same ballots.

In order to assist the Secretary of State in the random selection of the contests and precincts to be hand counted, the Secretary has appointed Vicki Berger, Kappy Eaton and Michael Hand to the Hand Count Advisory Committee. 

The Hand Count Advisory Committee will meet Friday, November 7, 2014, 9 am, Room 500B, Public Service Building 255 Capitol St NE Salem, 97302 to randomly select the contests and precincts to be hand counted. Interested parties are welcome to attend.",,Candy Broucek,503-986-2313,candy.l.broucek@state.or.us,,,,,,,,,,,,,,,,,,,
Secretary of State,2014 General Election Hand Count Meeting,Hand Count Meeting,11/07/2014 09:00:00 AM,11/07/2014 12:30:00 PM,255 Capitol St NE Ste 501 Rm 500B Public Service Building, Salem,OR,"SALEM – After each general election county elections officials are required to hand count a percentage of ballots and compare the hand counted tally of votes to the tally produced by the vote tally system for the same ballots.

In order to assist the Secretary of State in the random selection of the contests and precincts to be hand counted, the Secretary has appointed Vicki Berger, Kappy Eaton and Michael Hand to the Hand Count Advisory Committee. 

The Hand Count Advisory Committee will meet Friday, November 7, 2014, 9 am, Room 500B, Public Service Building 255 Capitol St NE Salem, 97302 to randomly select the contests and precincts to be hand counted. Interested parties are welcome to attend.",,Candy Broucek,503-986-2313,candy.l.broucek@state.or.us,,,,,,,,,,,,,,,,,,,
Secretary of State,2014 General Election Hand Count Meeting,Hand Count Meeting,11/07/2014 09:00:00 AM,11/07/2014 12:30:00 PM,255 Capitol St NE Ste 501 Rm 500B Public Service Building, Salem,OR,"SALEM – After each general election county elections officials are required to hand count a percentage of ballots and compare the hand counted tally of votes to the tally produced by the vote tally system for the same ballots.

In order to assist the Secretary of State in the random selection of the contests and precincts to be hand counted, the Secretary has appointed Vicki Berger, Kappy Eaton and Michael Hand to the Hand Count Advisory Committee. 

The Hand Count Advisory Committee will meet Friday, November 7, 2014, 9 am, Room 500B, Public Service Building 255 Capitol St NE Salem, 97302 to randomly select the contests and precincts to be hand counted. Interested parties are welcome to attend.",,Candy Broucek,503-986-2313,candy.l.broucek@state.or.us,,,,,,,,,,,,,,,,,,,
Secretary of State,Minority Voting Materials Task Force Meeting,,10/16/2014 10:00:00 AM,10/16/2014 11:30:00 AM,Oregon State Capitol Room 167A, Salem,OR,,,Candy Broucek,503-986-2313,candy.l.broucek@state.or.us,,,,,,,,,1-888-861-1255,95730,,,,,,Minority Voting Materials Task Force Agenda 101614.docx (https://data.oregon.gov/views/gs36-7t8m/files/p-_90wXfGtolyRurimKJRVMycpd4GeKb21Sw-gxLO20?download=true&filename=Minority%20Voting%20Materials%20Task%20Force%20Agenda%20101614.docx),,,
Secretary of State,Financial Estimate Committee Schedules Meeting,Financial Estimate Meeting,08/22/2014 02:00:00 PM,,State Capitol Hearing Room 170, Salem,OR,"After the FEC approves the draft statements, the statements will be filed with the Secretary of State, Elections Division.
The Secretary of State has scheduled a hearing to receive public comments on the draft financial impact statement for IRR 44 (Measure 92). If the statement receives comments during the public hearing, the FEC will review those comments and consider revisions to the statement:",Yes,Richard Donovan,503-986-1503,richard.donovan@state.or.us,,,,,,,,,,,,candy.l.broucek@state.or.us,https://data.oregon.gov/views/igeu-6if7/files/zvJDdyQpy1w23hXwjebHMo-MkdK2Fv8ZGPVIJRw3hHE?filename=application%2Fpdf%3B+charset%3Dbinary,,,,,,
Secretary of State,Financial Estimate Committee Schdules Meeting,Financial Estimate Meeting,08/21/2014 10:00:00 AM,,State Capitol in Hearing 170, Salem,OR,"Pursuant to ORS 250.131, a five-member Financial Estimate Committee (FEC), composed of the Secretary of State, State Treasurer, Director of the Department of Revenue, Director of the Department of Administrative Services, and a local government representative will meet to prepare an estimate of the financial impact of IRR 44 (Measure 92). Once completed, the financial estimate statement will be printed in the Voters’ Pamphlet and on the ballot.",Yes,Richard Donovan,503-986-1503,richard.donovan@state.or.us,,,,,,,,,,,,candy.l.broucek@state.or.us,https://data.oregon.gov/views/igeu-6if7/files/zvJDdyQpy1w23hXwjebHMo-MkdK2Fv8ZGPVIJRw3hHE?filename=application%2Fpdf%3B+charset%3Dbinary,,,,,,
