"Agency, Board, Commission, Branch",Meeting Title,Short Description,Start Date & Time,End Date & Time,Meeting Location,City,State,Details,Public Comment Accepted,Contact Name,Phone Number,Contact Email,Web Link (optional),Map Link,Calendar Link,ADA Contact,ADA Contact Phone,ADA Contact Email,Webinar/Webcast?,Webinar/Webcast Link,Public Call-In Number,Call-in Access Code,Agenda URL,Owner,Agenda Upload,Map Location,Weblink to Meeting Minutes/Summaries,Agenda Download,2010 House Districts,2010 Senate Districts,Counties
"Energy, Department of",Small-Scale Renewable Energy Study Workshop #4,,07/28/2022 09:00:00 AM,07/28/2022 02:00:00 PM,Virtual,Salem,OR,,,ODOE,,askenergy@oregon.gov,,,,,,,,,,,,,,,https://www.oregon.gov/energy/Data-and-Reports/Pages/SSREP-Study.aspx,,,,
"Energy, Department of",Small-Scale Renewable Energy Projects Study Workshop #3,,06/28/2022 09:00:00 AM,06/28/2022 01:00:00 PM,Virtual,Salem,OR,,,ODOE,,askenergy@oregon.gov,,,,,,,,,,,,,,,https://www.oregon.gov/energy/Data-and-Reports/Pages/SSREP-Study.aspx,,,,
"Energy, Department of",Energy Facility Siting Council Meeting,,06/23/2022 05:00:00 PM,06/24/2022 05:00:00 PM,Virtual,Salem,OR,,,Nancy Hatch,,nancy.hatch@energy.oregon.gov,,,,,,,,,,,,,,,https://www.oregon.gov/energy/Get-Involved/Pages/Energy-Code-Stakeholder-Panel.aspx,,,,
"Energy, Department of",Energy Code Stakeholder Panel Meeting,,06/14/2022 01:30:00 PM,06/14/2022 03:00:00 PM,Virtual,Salem,OR,,,ODOE,,askenergy@oregon.gov,,,,,,,,,,,,,,,https://www.oregon.gov/energy/Get-Involved/Pages/Energy-Code-Stakeholder-Panel.aspx,,,,
"Energy, Department of",Small-Scale Renewable Energy Projects Study Workshop #2,,06/03/2022 09:00:00 AM,06/03/2022 01:00:00 PM,Virtual,Salem,OR,,,ODOE,,askenergy@oregon.gov,,,,,,,,,,,,,,,https://www.google.com/url?q=https://www.oregon.gov/energy/Data-and-Reports/Pages/SSREP-Study.aspx&sa=D&source=calendar&usd=2&usg=AOvVaw2aTb4asAquN5Z5SsGejSwt,,,,
"Energy, Department of",Energy Facility Siting Council Meeting,,05/26/2022 05:00:00 PM,05/27/2022 05:00:00 PM,Virtual,Pendleton,OR,,,Nancy Hatch,,nancy.hatch@energy.oregon.gov,,,,,,,,,,,,,,,https://www.google.com/url?q=https://www.oregon.gov/energy/facilities-safety/facilities/Pages/Council-Meetings.aspx&sa=D&source=calendar&usd=2&usg=AOvVaw06yH09UoM-oNvhdVvIk6kS,,,,
"Energy, Department of",Community Renewable Energy Grant Program Advisory Committee Meeting,,05/20/2022 09:00:00 AM,05/20/2022 10:00:00 AM,Virtual,Salem,OR,,,ODOE,,askenergy@oregon.gov,,,,,,,,,,,,,,,https://www.oregon.gov/energy/Get-Involved/Pages/CREP-Advisory-Committee.aspx,,,,
"Energy, Department of",Floating Offshore Wind Study - Public Meeting,,05/11/2022 05:30:00 PM,05/11/2022 07:30:00 PM,The Mill Casino,North Bend,OR,,,Jason Sierman,,jason.sierman@energy.oregon.gov,,,,,,,,,,,,,,,https://www.oregon.gov/energy/energy-oregon/Pages/fosw.aspx,,,,
"Energy, Department of",Oregon Hanford Cleanup Board,,05/02/2022 08:00:00 AM,05/02/2022 02:00:00 PM,Virtual,Salem,OR,,,Mark Reese,,Mark.Reese@energy.oregon.gov,,,,,,,,,,,,,,,https://www.oregon.gov/energy/safety-resiliency/Pages/OHCB-Meetings.aspx,,,,
"Energy, Department of",Small-Scale Renewable Energy Projects Study Workshop #1,,04/28/2022 09:00:00 AM,04/28/2022 01:00:00 PM,Virtual,Salem,OR,,,ODOE,,askenergy@oregon.gov,,,,,,,,,,,,,,,https://www.oregon.gov/energy/Data-and-Reports/Pages/SSREP-Study.aspx,,,,
"Energy, Department of",Energy Facility Siting Council Meeting,,04/22/2022 08:30:00 AM,04/22/2022 05:00:00 PM,Virtual,Salem,OR,,,Nancy Hatch,,nancy.hatch@energy.oregon.gov,,,,,,,,,,,,,,,https://www.oregon.gov/energy/facilities-safety/facilities/Pages/Council-Meetings.aspx,,,,
"Energy, Department of",Energy Code Stakeholder Panel,,03/15/2022 01:30:00 PM,03/15/2022 03:00:00 PM,Virtual,Salem,OR,,,ODOE,,askenergy@oregon.gov,,,,,,,,,,,,,,,https://www.oregon.gov/energy/Get-Involved/Pages/Energy-Code-Stakeholder-Panel.aspx,,,,
"Energy, Department of",Energy Facility Siting Council Meeting,,02/25/2022 08:00:00 AM,02/25/2022 05:00:00 PM,Virtual,Salem,OR,,,Nancy Hatch,,nancy.hatch@energy.oregon.gov,,,,,,,,,,,,,,,https://www.oregon.gov/energy/facilities-safety/facilities/Pages/Council-Meetings.aspx,,,,
"Energy, Department of",Community Renewable Energy Project Grant Program Rules Public Hearing,,01/26/2022 09:00:00 AM,01/26/2022 10:00:00 AM,Virtual,Salem,OR,,,Wendy Simons,,wendy.simons@energy.oregon.gov,,,,,,,true,https://www.oregon.gov/energy/Get-Involved/Pages/CREP-Rulemaking.aspx,,,https://www.oregon.gov/energy/Get-Involved/Pages/CREP-Rulemaking.aspx,,,,https://www.oregon.gov/energy/Get-Involved/Pages/CREP-Rulemaking.aspx,,,,
"Energy, Department of",Oregon Hanford Cleanup Board Meeting,,01/18/2022 08:00:00 AM,01/18/2022 02:00:00 PM,Virtual,Salem,OR,,,Mark Reese,,Mark.Reese@energy.oregon.gov,,,,,,,true,https://www.oregon.gov/energy/safety-resiliency/Pages/OHCB-Meetings.aspx,,,https://www.oregon.gov/energy/safety-resiliency/Pages/OHCB-Meetings.aspx,,,,,,,,
"Energy, Department of",Oregon Global Warming Commission Meeting,,01/06/2022 01:00:00 PM,01/06/2022 05:00:00 PM,Virtual,Salem,OR,,,OGWC,,Oregon.GWC@Oregon.gov,,,,,,,true,https://www.keeporegoncool.org/meeting-calendar/2022/1/6/oregon-global-warming-commission-meeting-virtual,,,,,,,https://www.keeporegoncool.org/meeting-calendar/2022/1/6/oregon-global-warming-commission-meeting-virtual,,,,
"Energy, Department of",Energy Efficient Wildfire Rebuilding Incentive Program Public Hearing,,01/05/2022 04:00:00 PM,01/05/2022 05:00:00 PM,Virtual,Salem,OR,,Yes,Michael Freels,,Wildfire.Recovery@energy.oregon.gov,,,,,,,true,https://www.oregon.gov/energy/Get-Involved/Pages/EEWR-Rulemaking.aspx,,,https://www.oregon.gov/energy/Get-Involved/Pages/EEWR-Rulemaking.aspx,,,,https://www.oregon.gov/energy/Get-Involved/Pages/EEWR-Rulemaking.aspx,,,,
"Energy, Department of",Oregon Hanford Cleanup Board,,10/04/2021 08:00:00 AM,10/04/2021 02:15:00 PM,Virtual,Salem,OR,,Yes,Mark Reese,,Mark.Reese@oregon.gov,,,,,,,true,https://oregonenergy.webex.com/oregonenergy/j.php?MTID=me6c34ca0d82dbb2fa26904cf39c810df,,,https://www.oregon.gov/energy/safety-resiliency/Pages/OHCB-Meetings.aspx,,,,https://www.oregon.gov/energy/safety-resiliency/Pages/OHCB-Meetings.aspx,,,,
"Energy, Department of",Oregon Energy Code Stakeholder Panel,,09/21/2021 01:30:00 PM,09/21/2021 03:00:00 PM,Virtual,Salem,OR,,,ODOE,,askenergy@oregon.gov,,,,,,,true,https://www.oregon.gov/energy/Get-Involved/Pages/Energy-Code-Stakeholder-Panel.aspx,,,https://www.oregon.gov/energy/Get-Involved/Pages/Energy-Code-Stakeholder-Panel.aspx,,,,,,,,
"Energy, Department of",Energy Advisory Work Group,,08/30/2021 01:30:00 PM,08/30/2021 04:30:00 PM,Virtual,Salem,OR,,,ODOE,,askenergy@oregon.gov,,,,,,,true,https://www.oregon.gov/energy/Get-Involved/Pages/Energy-Advisory-Work-Group.aspx,,,https://www.oregon.gov/energy/Get-Involved/Pages/Energy-Advisory-Work-Group.aspx,,,,,,,,
"Energy, Department of",Energy Facility Siting Council Meeting,,08/27/2021 08:30:00 AM,08/27/2021 03:30:00 PM,Virtual,Salem,OR,,Yes,ODOE,,energy.siting@oregon.gov,,,,,,,,,,,https://www.oregon.gov/energy/facilities-safety/facilities/Pages/Council-Meetings.aspx,,,,https://www.oregon.gov/energy/facilities-safety/facilities/Pages/Council-Meetings.aspx,,,,
"Energy, Department of",Oregon Global Warming Commission Meeting,,08/04/2021 01:00:00 PM,08/04/2021 05:00:00 PM,Virtual,Salem,OR,,,ODOE,,askenergy@oregon.gov,,,,,,,true,https://odoe.webex.com/odoe/onstage/g.php?MTID=eba97615bd5bd33dd7f9bd5610f623d94,,,https://www.keeporegoncool.org/meeting-calendar/2021/8/4/oregon-global-warming-commission-meeting-virtual,,,,https://www.keeporegoncool.org/meeting-calendar/2021/8/4/oregon-global-warming-commission-meeting-virtual,,,,
"Energy, Department of"," Public Workshop for the Protected Areas, Scenic Resources, and Recreation Rulemaking",,07/28/2021 01:00:00 PM,07/28/2021 04:00:00 PM,Virtual,Salem,OR,,,Christopher Clark,,christopher.clark@energy.oregon.gov,,,,,,,true,https://oregonenergy.webex.com/oregonenergy/j.php?MTID=m4abfa3fe3303420db7b612f1234afd09,,,https://www.oregon.gov/energy/Get-Involved/Pages/Energy-Facility-Siting-Council-Rulemaking.aspx#PASRR,,,,,,,,
"Energy, Department of",Energy Facility Siting Council Meeting,,07/23/2021 08:30:00 AM,07/23/2021 02:00:00 PM,Virtual,Salem,OR,,,ODOE,,energy.siting@oregon.gov,,,,,,,true,https://www.oregon.gov/energy/facilities-safety/facilities/Council%20Meetings/2021-07-23-Meeting-Agenda.pdf,,,https://www.oregon.gov/energy/facilities-safety/facilities/Pages/Council-Meetings.aspx,,,,,,,,
"Energy, Department of",Energy Facility Siting Council Meeting,,06/24/2021 08:00:00 AM,06/25/2021 05:00:00 PM,Virtual,Salem,OR,,,ODOE,,askenergy@oregon.gov,,,,,,,true,,,,,,,,https://www.oregon.gov/energy/facilities-safety/facilities/Pages/Council-Meetings.aspx,,,,
"Energy, Department of",Energy Code Stakeholder Panel,,06/15/2021 01:30:00 PM,06/15/2021 03:00:00 PM,Virtual,Salem,OR,,,ODOE,,askenergy@oregon.gov,,,,,,,true,https://odoe.webex.com/odoe/j.php?MTID=m321be0d7b3b452853d6819996e6936ec,,,,,,,https://www.oregon.gov/energy/Get-Involved/Pages/Energy-Code-Stakeholder-Panel.aspx,,,,
"Energy, Department of",Oregon Global Warming Commission Meeting,,06/04/2021 01:00:00 PM,06/04/2021 05:00:00 PM,Virtual,Salem,OR,,,ODOE,,askenergy@oregon.gov,,,,,,,,,,,,,,,https://www.keeporegoncool.org/meeting-calendar/2021/6/4/oregon-global-warming-commission-meeting-virtual,,,,
"Energy, Department of",Energy Advisory Work Group,,06/02/2021 03:00:00 PM,06/02/2021 04:30:00 PM,Virtual,Salem,OR,,,ODOE,,askenergy@oregon.gov,,,,,,,,,,,,,,,https://www.oregon.gov/energy/Get-Involved/Pages/Energy-Advisory-Work-Group.aspx,,,,
"Energy, Department of",Oregon Global Warming Commission Meeting,,05/07/2021 01:00:00 PM,05/07/2021 05:00:00 PM,Virtual,Salem,OR,,,OGWC,,info@keeporegoncool.org,,,,,,,true,https://odoe.webex.com/odoe/onstage/g.php?MTID=eeb10725dfd39abc7a4f619382a085433,,,,,,,https://www.keeporegoncool.org/meeting-calendar/2021/5/7/oregon-global-warming-commission-meeting-virtual,,,,
"Energy, Department of",Oregon Hanford Cleanup Board,,03/22/2021 08:00:00 AM,03/22/2021 01:30:00 PM,Virtual,Salem,OR,,Yes,Mark Reese,,Mark.Reese@oregon.gov,,,,,,,true,https://odoe.webex.com/odoe/onstage/g.php?MTID=e26560f364a48887842226765f3bb23e3,,,,,,,https://www.oregon.gov/energy/safety-resiliency/Pages/OHCB-Meetings.aspx,,,,
"Energy, Department of",Oregon Global Warming Commission Meeting,,10/30/2020 09:30:00 AM,10/30/2020 02:30:00 AM,Virtual,Salem,OR,,,OGWC,,Oregon.GWC@Oregon.gov,,,,,,,true,https://odoe.webex.com/odoe/onstage/g.php?MTID=e254e7d53cb1a2ba0ca4df1f7147090ac,,,,,,,https://www.keeporegoncool.org/meeting-calendar/2020/10/30/oregon-global-warming-commission-meeting-virtual,,,,
"Energy, Department of",(In-person)Public Meeting on Chemical Waste Management Risk Assessment and Corrective Action Plan,,09/30/2020 06:00:00 PM,09/30/2020 08:00:00 PM,1200 Main Street , Arlington,OR,"In-Person Meeting September 30, 2020, 6 – 8 p.m. ODOE will host an in-person meeting outdoors at the Arlington High School football stadium (1200 Main Street in Arlington). Attendees are required to practice COVID-19 physical distancing guidelines and to wear face coverings outdoors whenever six feet of physical space is not possible. The school district will capture attendee information for contact-tracing purposes. ",,ODOE,,askenergy@oregon.gov,,,,,,,true,,,,,,,,https://energyinfo.oregon.gov/blog/2020/9/17/oregon-department-of-energy-to-host-public-meetings-september-30-on-chemical-waste-management-risk-assessment-and-corrective-action-plan,,,,
"Energy, Department of",(Virtual)Public Meeting on Chemical Waste Management Risk Assessment and Corrective Action Plan,,09/30/2020 09:00:00 AM,09/30/2020 11:00:00 AM,Virtual,Salem,OR,"Virtual Meeting September 30, 2020, 9 – 11 a.m. ODOE will host a virtual meeting beginning at 9 a.m. via the online platform WebEx. 
•	WebEx Link: https://odoe.webex.com/odoe/onstage/g.php?MTID=e61386b210821d632ebf60b962f87e41a 
•	If prompted for a password, enter Managers
We encourage participants to join online, if possible, so they may view presentation materials and submit questions through the chat function. An alternate phone number is available for call-in: 1-408-418-9388 (access code 173 016 8425).
",,ODOE,,askenergy@oregon.gov,,,,,,,true,https://odoe.webex.com/odoe/onstage/g.php?MTID=e61386b210821d632ebf60b962f87e41a,1-408-418-9388,173 016 8425,,,,,https://energyinfo.oregon.gov/blog/2020/9/17/oregon-department-of-energy-to-host-public-meetings-september-30-on-chemical-waste-management-risk-assessment-and-corrective-action-plan,,,,
"Energy, Department of",Energy Facility Siting Council Meeting,,09/25/2020 08:30:00 AM,09/25/2020 04:00:00 AM,Virtual,Salem,OR,,Yes,Michiko Mata,,michiko.mata@oregon.gov,,,,,,,true,https://www.oregon.gov/energy/facilities-safety/facilities/Pages/Council-Meetings.aspx,,,,,,,https://www.oregon.gov/energy/facilities-safety/facilities/Pages/Council-Meetings.aspx,,,,
"Energy, Department of",Oregon Energy Code Stakeholder Panel,,09/22/2020 01:30:00 AM,09/22/2020 03:00:00 AM,Virtual,Salem,OR,,,ODOE,,askenergy@oregon.gov,,,,,,,true,https://odoe.webex.com/webappng/sites/odoe/meeting/download/692022904f2f4f3c86cedf989f9275b3?siteurl=odoe&MTID=m1e97e008776939b5f258a0f3877cafe2,,,,,,,https://www.oregon.gov/energy/Get-Involved/Pages/Energy-Code-Stakeholder-Panel.aspx,,,,
"Energy, Department of",Radioactive Materials Enforcement Rulemaking Advisory Committee,,08/26/2020 01:00:00 PM,08/26/2020 04:00:00 PM,Virtual, Salem,OR,,,Christopher Clark,,christopher.clark@oregon.gov,,,,,,,true,https://odoe.webex.com/odoe/onstage/g.php?MTID=e9d75c6456db190dbb3b47bd655043a00,1-408-418-9388,129 410 1589,https://www.oregon.gov/energy/Get-Involved/rulemakingdocs/2020-08-26-R195-029-RAC2-Agenda.pdf,,,,https://www.oregon.gov/energy/Get-Involved/Pages/Energy-Facility-Siting-Council-Rulemaking.aspx#Waste,,,,
"Energy, Department of",Energy Facility Siting Council Meeting,,08/21/2020 08:30:00 AM,08/21/2020 02:30:00 PM,Virtual, Salem,OR,,,Michiko Mata,,michiko.mata@oregon.gov,,,,,,,true,https://odoe.webex.com/odoe/onstage/g.php?MTID=e313c3e3b2089ac20b251b67831cef6f7,1-408-418-9388,129 363 3552,https://www.oregon.gov/energy/facilities-safety/facilities/Council%20Meetings/2020-08-21-EFSC-FINAL-Meeting-Agenda.pdf,,,,https://www.oregon.gov/energy/facilities-safety/facilities/Pages/Council-Meetings.aspx,,,,
"Energy, Department of",Energy Advisory Work Group Virtual Meeting ,,06/29/2020 01:00:00 PM,06/29/2020 03:00:00 PM,Virtual, Salem,OR,"The Oregon Department of Energy will hold an Energy Advisory Work Group meeting on June 29, 2020. 
 
Please note this will be a virtual meeting with an option for remote online participation. Connection details will be available on ODOE's website ahead of the meeting.
 
Meeting Details:
Monday, June 29, 2020 |  1 - 3 p.m.
 
An agenda and materials for the EAWG meeting will be posted in advance on our website. We plan to discuss ODOE's budget, the 2020 Biennial Energy Report, and updates on other ODOE activities. 
 
The meeting will be open to the public in listen-only mode. Information from prior Energy Advisory Work Group meetings is available online. 
",,ODOE,,askenergy@oregon.gov,,,,,,,,https://odoe.webex.com/odoe/onstage/g.php?MTID=e34b6e34144faa3fd9c412dc3244e800d,,,https://www.oregon.gov/energy/Get-Involved/Documents/2020-06-29-EAWG-Mtg-Materials.pdf,,,,https://www.oregon.gov/energy/Get-Involved/Pages/Energy-Advisory-Work-Group.aspx,,,,
"Energy, Department of",Energy Facility Siting Council,,06/26/2020 08:30:00 AM,06/26/2020 11:30:00 AM,Virtual, Salem,OR,Regular public meeting of the Energy Facility Siting Council.,Yes,Michiko Mata,,Michiko.Mata@oregon.gov,,,,,,,true,https://odoe.webex.com/odoe/onstage/g.php?MTID=e8b3510c2e3c90c1329ad6e58f4aad857,,,https://www.oregon.gov/energy/facilities-safety/facilities/Council%20Meetings/2020-06-25-26-EFSC-Meeting-Agenda.pdf,,,,https://www.oregon.gov/energy/facilities-safety/facilities/Pages/Council-Meetings.aspx,,,,
"Energy, Department of",Energy Facility Siting Council ,,06/25/2020 04:30:00 PM,06/24/2020 06:30:00 PM,Virtual, Salem,OR,Regular public meeting of the Energy Facility Siting Council.,Yes,Michiko Mata,,Michiko.Mata@oregon.gov,,,,,,,true,https://odoe.webex.com/odoe/onstage/g.php?MTID=ecf51c04620fc5d782053a3a4c77afded,,,https://www.oregon.gov/energy/facilities-safety/facilities/Council%20Meetings/2020-06-25-26-EFSC-Meeting-Agenda.pdf,,,,https://www.oregon.gov/energy/facilities-safety/facilities/Pages/Council-Meetings.aspx,,,,
"Energy, Department of",Oregon Global Warming Commission Meeting,,06/24/2020 01:00:00 PM,06/24/2020 04:00:00 PM,Virtual, Salem,OR,"The Oregon Global Warming Commission will meet virtually, Wednesday, June 24, 2020. 

OGWC Meeting- Virtual WebEX Event
You can join the WebEX Event as an attendee by registering via the link below. Registration does not open until meeting starts. You will be asked to enter your first and last name, email address and then click the Submit button to be connected to the meeting.

Event Registration Link: : https://odoe.webex.com/odoe/onstage/g.php?MTID=e5a0705ee59c0a62c1ec065209a715732

Members of the public are welcome to provide written comments for distribution to Commissioners in advance of the meeting through the contact form online or by email (Oregon.GWC@oregon.gov) through June 17, 2020, 11:59 p.m. Time will be reserved for additional public comment beginning at approximately 3:45 p.m.",Yes,Catherine MacDonald,503-475-6782,info@keeporegoncool.org,,,,,,,,https://odoe.webex.com/odoe/onstage/g.php?MTID=e5a0705ee59c0a62c1ec065209a715732,,,https://www.keeporegoncool.org/s/Oregon_GWC_June-24-2020-Agenda.pdf,,,,https://www.keeporegoncool.org/meeting-calendar/2020/6/24/oregon-global-warming-commission-meeting-virtual,,,,
"Energy, Department of",Oregon Energy Code Stakeholder Panel,,06/16/2020 01:00:00 AM,06/16/2020 02:30:00 PM,Virtual, Salem,OR,"​In an effort to achieve directives included in Governor Brown's Executive Order 20-04, the Oregon Department of Energy is convening monthly stakeholder meetings to discuss energy code development and code specifications and calculations, and to inform our code consultation to Oregon’s Building Codes Division.

https://www.oregon.gov/energy/Get-Involved/Pages/Energy-Code-Stakeholder-Panel.aspx?fbclid=IwAR1wYdP6t0teLTHeTSpysucpK7-7pWcMzfMUaYLgLl_wLHZF6uCFgxPejt8",,Roger Kainu,,Roger.Kainu@oregon.gov,,,,,,,,https://odoe.webex.com/odoe/onstage/g.php?MTID=e70fa02c45023fcbab6e360c7d4252061,,,https://www.oregon.gov/energy/Get-Involved/Documents/2020-06-16-Code-Stakeholder-Mtg-Agenda.pdf,,,,https://www.oregon.gov/energy/Get-Involved/Pages/Energy-Code-Stakeholder-Panel.aspx?fbclid=IwAR1wYdP6t0teLTHeTSpysucpK7-7pWcMzfMUaYLgLl_wLHZF6uCFgxPejt8,,,,
"Energy, Department of",RESCHEDULED FOR LATER DATE - EFSC Public Hearing on the DPO - Obsidian Solar Facility,,05/21/2020 05:30:00 PM,05/21/2020 07:00:00 PM,Virtual,Lake County,OR,"A public hearing, to be held remotely via webinar/teleconference. 

Zoom Presentation: https://zoom.us/j/99010585686

The Department strongly recommends joining the Zoom meeting via the online webinar, if possible. When you join, please use your full name so it is easier to identify attendees and manage public comments. Public participants will be in listen-only mode but can use the Zoom tool to “raise your hand"" to share public comments. Additional instructions will be provided during the hearing for comments over the phone.

Join Webinar by Phone: +1-253-215-8782
Webinar ID for Call-In Feature: 990 1058 5686

For more details visit: https://www.oregon.gov/energy/facilities-safety/facilities/Pages/OSC.aspx",Yes,Kellen Tardaewether,,kellen.tardaewether@oregon.gov,,,,,,,true,,,,,,,,https://www.oregon.gov/energy/facilities-safety/facilities/Pages/OSC.aspx,,,,
"Energy, Department of",Oregon Global Warming Commission Meeting,,05/13/2020 01:00:00 PM,05/13/2020 04:00:00 PM,Virtual, Salem,OR,"The Oregon Global Warming Commission will meet virtually, Thursday, May 13, 2020. 

You can join the WebEX Event as an attendee by registering via the link below. Registration does not open until meeting starts. You will be asked to enter your name, email and the event password then select “Join by browser” to be connected to the meeting.
  
Event Registration Link: https://odoe.webex.com/odoe/onstage/g.php?MTID=ec089f43851f3fa0f32a376eb17e0fe9b
Event password: ODOE

For more details, including meeting materiel visit: https://www.keeporegoncool.org/meeting-calendar/2020/5/13/oregon-global-warming-commission-meeting ",Yes,Linda Ross,,linda.ross@oregon.gov,,,,,,,true,,,,,,,,https://www.keeporegoncool.org/meeting-calendar/2020/5/13/oregon-global-warming-commission-meeting,,,,
"Energy, Department of",Energy Facility Siting Council Meeting,This is a regular meeting of the Council.,04/24/2020 08:30:00 AM,04/24/2020 02:30:00 PM,Oregon Department of Energy, Salem,OR,Meeting will be held by webinar -- details forthcoming.,Yes,Michiko Mata,,michiko.mata@oregon.gov,,,,,,,true,,,,,,,,https://www.oregon.gov/energy/facilities-safety/facilities/Pages/Council-Meetings.aspx,,,,
"Energy, Department of",Energy Facility Siting Council Meeting,This is a regular meeting of the Council.,04/24/2020 08:30:00 AM,04/24/2020 02:30:00 PM,Oregon Department of Energy, Salem,OR,Meeting will be held by webinar -- details forthcoming.,Yes,Michiko Mata,,michiko.mata@oregon.gov,,,,,,,true,,,,,,,,https://www.oregon.gov/energy/facilities-safety/facilities/Pages/Council-Meetings.aspx,,,,
"Energy, Department of",Energy Advisory Work Group,,04/09/2020 01:00:00 PM,04/09/2020 03:00:00 PM,Remote Zoom Meeting,Salem,OR,"Join the meeting via Zoom: 
https://zoom.us/j/477537692
Please enter your full name when joining the meeting. Participants will be in listen-only mode, but will have an opportunity to ask questions or make comments. ",,Jennifer Kalez,503-378-5054,jennifer.kalez@oregon.gov,,,,,,,true,https://zoom.us/j/477537692,,,,,,,https://www.oregon.gov/energy/Get-Involved/Pages/Energy-Advisory-Work-Group.aspx,,,,
"Energy, Department of",Oregon Hanford Cleanup Board Meeting: CANCELLED,This is a regular meeting of the Board.,03/31/2020 08:30:00 AM,03/31/2020 01:00:00 PM,Best Western Plus Inn, Hood River,OR,This meeting has been cancelled.,Yes,Mark Reese,,mark.reese@oregon.gov,,,,,,,,,,,,,,,https://www.oregon.gov/energy/safety-resiliency/Pages/OHCB-Meetings.aspx,,,,
"Energy, Department of",Oregon Hanford Cleanup Board Meeting: CANCELLED,This is a regular meeting of the Board.,03/30/2020 01:00:00 PM,03/30/2020 05:00:00 PM,Best Western Plus Inn, Hood River,OR,This meeting has been cancelled.,Yes,Mark Reese,,mark.reese@oregon.gov,,,,,,,,,,,,,,,https://www.oregon.gov/energy/safety-resiliency/Pages/OHCB-Meetings.aspx,,,,
"Energy, Department of",Zero Emission Vehicle Interagency Working Group,This is a regular meeting of the Work Group.,03/20/2020 10:30:00 AM,03/20/2020 12:00:00 PM,800 NE Oregon Street, Portland,OR,,,Evan Elias,,evan.m.elias@oregon.gov,,,,,,,,,,,,,,,https://www.oregon.gov/energy/Get-Involved/Pages/ZEVIWG-Meetings.aspx,,,,
"Energy, Department of",Energy Facility Siting Council Meeting,This is a regular meeting of the Council.,03/13/2020 08:30:00 AM,03/13/2020 02:00:00 PM,Columbia Gorge Discovery Center & Museum, The Dalles,OR,,Yes,Michiko Mata,,michiko.mata@oregon.gov,,,,,,,true,,,,,,,,https://www.oregon.gov/energy/facilities-safety/facilities/Pages/Council-Meetings.aspx,,,,
"Energy, Department of",Energy Facility Siting Council Meeting,This is a regular meeting of the Council.,03/13/2020 08:30:00 AM,03/13/2020 02:00:00 PM,Columbia Gorge Discovery Center & Museum, The Dalles,OR,,Yes,Michiko Mata,,michiko.mata@oregon.gov,,,,,,,true,,,,,,,,https://www.oregon.gov/energy/facilities-safety/facilities/Pages/Council-Meetings.aspx,,,,
"Energy, Department of",Energy Facility Siting Council Meeting,This is a regular meeting of the Council.,01/24/2020 08:00:00 AM,01/24/2020 02:30:00 PM,Best Western Plus Inn, Hood River,OR,,Yes,Michiko Mata,,michiko.mata@oregon.gov,,"https://www.google.com/maps/place/Best+Western+Plus+Hood+River+Inn/@45.7118912,-121.5009495,16z/data=!4m8!3m7!1s0x54960e145fdc62a3:0x11ea36160a88f395!5m2!4m1!1i2!8m2!3d45.7118875!4d-121.4987555",,,,,true,,,,,,,,https://www.oregon.gov/energy/facilities-safety/facilities/Pages/Council-Meetings.aspx,,,,
"Energy, Department of",Energy Facility Siting Council Meeting,This is a regular meeting of the Council.,01/23/2020 05:00:00 PM,01/23/2020 07:00:00 PM,Best Western Plus Inn, Hood River,OR,,Yes,Michiko Mata,,michiko.mata@oregon.gov,,"https://www.google.com/maps/place/Best+Western+Plus+Hood+River+Inn/@45.7118912,-121.5009495,16z/data=!4m8!3m7!1s0x54960e145fdc62a3:0x11ea36160a88f395!5m2!4m1!1i2!8m2!3d45.7118875!4d-121.4987555",,,,,true,,,,,,,,https://www.oregon.gov/energy/facilities-safety/facilities/Pages/Council-Meetings.aspx,,,,
"Energy, Department of",Energy Facility Siting Council Meeting,This is a regular meeting of the Council.,12/20/2019 08:00:00 AM,12/20/2019 01:00:00 PM,Red Lion Inn, Pendleton,OR,,Yes,Michiko Mata,,michiko.mata@oregon.gov,,,,,,,true,,,,,,,,https://www.oregon.gov/energy/facilities-safety/facilities/Pages/Council-Meetings.aspx,,,,
"Energy, Department of",Energy Facility Siting Council Meeting,This is a regular meeting of the Council.,12/19/2019 05:00:00 PM,12/19/2019 07:00:00 PM,Red Lion Inn, Pendleton,OR,,Yes,Michiko Mata,,michiko.mata@oregon.gov,,,,,,,true,,,,,,,,https://www.oregon.gov/energy/facilities-safety/facilities/Pages/Council-Meetings.aspx,,,,
"Energy, Department of",Oregon Global Warming Commission,This is a regular meeting of the Commission.,12/12/2019 01:00:00 PM,12/12/2019 04:30:00 PM,The Nature Conservancy’s Oregon Conservation Center, Portland,OR,https://energyinfo.oregon.gov/blog/2019/12/5/oregon-global-warming-commission-to-meet-december-12-in-portland,Yes,Linda Ross,,linda.ross@oregon.gov,,,,,,,,,,,,,,,,,,,
"Energy, Department of",1.5% Green Energy Technology Rulemaking Hearing,This is a public hearing on the proposed new rules for the program,12/05/2019 02:00:00 PM,12/05/2019 03:00:00 PM,Oregon Department of Energy, Salem,OR,"The proposed rules would implement House Bill 2496, adopted by the 2019 Legislative Assembly and codified as Oregon Laws 2019 Chapter 160.",Yes,Wendy Simons,,wendy.simons@oregon.gov,,,,,,,,,,,,,,,https://www.oregon.gov/energy/Get-Involved/Pages/GET-Rulemaking.aspx,,,,
"Energy, Department of",Solar Plus Storage Rebate Program Rulemaking Hearing,This is a public hearing on the proposed rules for the program,12/03/2019 01:30:00 PM,12/03/2019 03:00:00 PM,Oregon Department of Energy, Salem,OR,https://energyinfo.oregon.gov/blog/2019/11/5/oregon-department-of-energy-to-hold-public-hearing-on-rules-for-new-oregon-solar-storage-rebate-program,Yes,Wendy Simons,,wendy.simons@oregon.gov,,,,,,,,,,,,,,,https://www.oregon.gov/energy/Get-Involved/rulemakingdocs/2019-10-30-HB2618-SOS-Hearing-Notice.pdf,,,,
"Energy, Department of",Obsidian Solar Center Public Information Meeting,This is the second public information meeting on the project,11/14/2019 05:30:00 PM,11/14/2019 08:00:00 PM,North Lake School Gymnasium,Silver Lake,OR,https://www.oregon.gov/energy/facilities-safety/facilities/Pages/OSC.aspx,,Kellen Tardaewether,,kellen.tardaewether@oregon.gov,,,,,,,,,,,,,,,,,,,
"Energy, Department of",Bakeoven Solar Project Public Information Meeting,This is the first public information meeting on the project,11/13/2019 05:30:00 PM,11/13/2019 08:00:00 PM,Imperial River Company, Maupin,OR,https://www.oregon.gov/energy/facilities-safety/facilities/Pages/BSP.aspx,,Sarah Esterson,,sarah.esterson@oregon.gov,,,,,,,,,,,,,,,,,,,
"Energy, Department of",Oregon Hanford Cleanup Board Meeting,This is a regular meeting of the Board.,11/05/2019 08:30:00 AM,11/05/2019 02:00:00 PM,Cannery Pier Hotel, Astoria,OR,,Yes,Cliff Voliva,,cliff.voliva@oregon.gov,,,,,,,,,,,,,,,https://www.oregon.gov/energy/safety-resiliency/Pages/OHCB-Meetings.aspx,,,,
"Energy, Department of",Oregon Hanford Cleanup Board Meeting,This is a regular meeting of the Board.,11/04/2019 01:00:00 PM,11/04/2019 05:00:00 PM,Cannery Pier Hotel, Astoria,OR,,Yes,Cliff Voliva,,cliff.voliva@oregon.gov,,,,,,,,,,,,,,,https://www.oregon.gov/energy/safety-resiliency/Pages/OHCB-Meetings.aspx,,,,
"Energy, Department of",Oregon Global Warming Commission,This is a regular meeting of the Commission.,10/25/2019 01:00:00 PM,10/25/2019 04:30:00 PM,The Nature Conservancy’s Oregon Conservation Center, Portland,OR,,Yes,Linda Ross,,linda.ross@oregon.gov,,,,,,,,,,,,,,,https://www.keeporegoncool.org/meetings,,,,
"Energy, Department of",Energy Facility Siting Council Meeting,This is a regular meeting of the Council.,10/25/2019 10:00:00 AM,10/25/2019 12:00:00 PM,Oregon Department of Energy, Salem,OR,,Yes,Cliff Voliva,,cliff.voliva@oregon.gov,,,,,,,true,,,,,,,,https://www.oregon.gov/energy/facilities-safety/facilities/Pages/Council-Meetings.aspx,,,,
"Energy, Department of",Energy Advisory Work Group,This is a regular meeting of the Work Group.,10/03/2019 01:00:00 PM,10/03/2019 02:00:00 PM,Oregon Department of Energy, Salem,OR,"At the meeting, members will provide feedback on the Biennial Energy Report, as well as updates on ODOE activities.

",,Michelle Miller Harrington,,michelle.harrington@oregon.gov,,,,,,,,,,,,,,,https://www.oregon.gov/energy/Get-Involved/Pages/Energy-Advisory-Work-Group.aspx,,,,
"Energy, Department of",Energy Facility Siting Council Meeting,This is a regular meeting of the Council.,09/27/2019 08:00:00 AM,09/27/2019 02:00:00 PM,Clatskanie River Inn, Clatskanie,OR,,Yes,Cliff Voliva,,cliff.voliva@oregon.gov,,,,,,,true,,,,,,,,https://www.oregon.gov/energy/facilities-safety/facilities/Pages/Council-Meetings.aspx,,,,
"Energy, Department of",Energy Facility Siting Council Meeting,This is a regular meeting of the Council.,09/26/2019 04:00:00 PM,09/26/2019 06:00:00 PM,Clatskanie River Inn, Clatskanie,OR,,Yes,Cliff Voliva,,cliff.voliva@oregon.gov,,,,,,,true,,,,,,,,https://www.oregon.gov/energy/facilities-safety/facilities/Pages/Council-Meetings.aspx,,,,
"Energy, Department of",Energy Facility Siting Council Meeting,This is a regular meeting of the Council.,08/23/2019 08:30:00 AM,08/23/2019 03:00:00 PM,Port of Morrow, Boardman,OR,,Yes,Cliff Voliva,,cliff.voliva@oregon.gov,,,,,,,true,,,,,,,,https://www.oregon.gov/energy/facilities-safety/facilities/Pages/Council-Meetings.aspx,,,,
"Energy, Department of",Energy Facility Siting Council Meeting,This is a regular meeting of the Council.,08/22/2019 03:00:00 PM,08/22/2019 06:00:00 PM,Port of Morrow, Boardman,OR,,Yes,Cliff Voliva,,cliff.voliva@oregon.gov,,,,,,,true,,,,,,,,https://www.oregon.gov/energy/facilities-safety/facilities/Pages/Council-Meetings.aspx,,,,
"Energy, Department of",Energy Advisory Work Group Meeting,Updates and Feedback,07/29/2019 01:00:00 PM,07/29/2019 03:00:00 PM,550 Capitol St NE, Salem,OR,"The meeting will be held in the Meitner conference Room. At this meeting, we will discuss the outcome of the legislative session; give you an update on strategic planning; and ask for your feedback on other agency initiatives. ",,Michelle Harrington,,Michelle.MillerHarrington@oregon.gov,,,,,,,,,,,,,,,https://www.oregon.gov/energy/Get-Involved/Pages/Energy-Advisory-Work-Group.aspx,,,,
"Energy, Department of",Boardman to Hemingway Transmission Line Draft Proposed Order Public Hearing,,06/27/2019 04:30:00 PM,06/27/2019 08:00:00 PM,Port of Morrow Riverfront Center, Boardman,OR,https://www.oregon.gov/energy/facilities-safety/facilities/Pages/B2H.aspx,,Cliff L Voliva,,cliff.voliva@Oregon.gov,,,,,,,,,,,,,,,,,,,
"Energy, Department of",Boardman to Hemingway Transmission Line Draft Proposed Order Public Hearing,This is a public hearing on the B2H project.,06/26/2019 04:30:00 PM,06/26/2019 08:00:00 PM,Pendleton Convention Center, Pendleton,OR,https://www.oregon.gov/energy/facilities-safety/facilities/Pages/B2H.aspx,Yes,Cliff L Voliva,,cliff.voliva@Oregon.gov,,,,,,,,,,,,,,,,,,,
"Energy, Department of",Boardman to Hemingway Transmission Line Draft Proposed Order Public Hearing,This is a public hearing on the B2H project.,06/20/2019 04:30:00 PM,06/20/2019 08:00:00 PM,Blue Mountain Conference Center, La Grande,OR,https://www.oregon.gov/energy/facilities-safety/facilities/Pages/B2H.aspx,Yes,Cliff L Voliva,,cliff.voliva@Oregon.gov,,,,,,,,,,,,,,,,,,,
"Energy, Department of",Boardman to Hemingway Transmission Line Draft Proposed Order Public Hearing,This is a public hearing on the B2H project.,06/19/2019 04:30:00 PM,06/19/2019 08:00:00 PM,Baker City VFW Hall, Baker City,OR,https://www.oregon.gov/energy/facilities-safety/facilities/Pages/B2H.aspx,Yes,Cliff L Voliva,,cliff.voliva@Oregon.gov,,,,,,,,,,,,,,,,,,,
"Energy, Department of",Boardman to Hemingway Transmission Line Draft Proposed Order Public Hearing,This is a public hearing on the B2H project.,06/18/2019 04:30:00 PM,06/18/2019 08:00:00 PM,Four Rivers Cultural Center, Ontario,OR,https://www.oregon.gov/energy/facilities-safety/facilities/Pages/B2H.aspx,Yes,Cliff L Voliva,,cliff.voliva@Oregon.gov,,,,,,,,,,,,,,,,,,,
"Energy, Department of",Energy Facility Siting Council Meeting,This is a regular meeting of the Council,05/17/2019 08:30:00 AM,05/17/2019 02:30:00 PM,Hotel Condon, Condon,OR,,Yes,Esther Kooistra,,Esther.Kooistra@oregon.gov,,,,,,,true,,,,,,,,http://www.oregon.gov/energy/facilities-safety/facilities/Pages/Council-Meetings.aspx,,,,
"Energy, Department of",Energy Facility Siting Council Meeting,This is a regular meeting of the Council,05/16/2019 03:30:00 PM,05/16/2019 06:00:00 PM,Hotel Condon, Condon,OR,,Yes,Esther Kooistra,,Esther.Kooistra@oregon.gov,,,,,,,true,,,,,,,,https://www.oregon.gov/energy/facilities-safety/facilities/Pages/Council-Meetings.aspx,,,,
"Energy, Department of",Built Environment Efficiency Working Group Meeting,This is a regular meeting of the work group,04/16/2019 02:00:00 PM,04/16/2019 04:00:00 PM,Oregon Department of Energy, Salem,OR,,Yes,Blake Shelide,,blake.shelide@oregon.gov,,,,,,,,,,,,,,,https://www.oregon.gov/energy/Get-Involved/Pages/BEEWG-Meetings.aspx,,,,
"Energy, Department of",Energy Facility Siting Council Meeting,This is a regular meeting of the Council,03/22/2019 08:30:00 AM,03/22/2019 02:00:00 PM,Oregon Department of Energy, Salem,OR,,Yes,Esther Kooistra,,Esther.Kooistra@oregon.gov,,,,,,,true,,,,,,,,https://www.oregon.gov/energy/facilities-safety/facilities/Pages/Council-Meetings.aspx,,,,
"Energy, Department of",Oregon Hanford Cleanup Board,This is a regular meeting of the Board,03/12/2019 08:30:00 AM,03/12/2019 01:00:00 PM,Best Western Plus Columbia River Inn, Hood River,OR,,Yes,Cliff L Voliva,,cliff.voliva@Oregon.gov,,,,,,,,,,,,,,,https://www.oregon.gov/energy/safety-resiliency/Pages/OHCB-Meetings.aspx,,,,
"Energy, Department of",Oregon Hanford Cleanup Board,This is a regular meeting of the Board,03/11/2019 01:00:00 PM,03/11/2019 06:00:00 PM,Best Western Plus Columbia River Inn, Hood River,OR,,Yes,Cliff L Voliva,,cliff.voliva@Oregon.gov,,,,,,,,,,,,,,,https://www.oregon.gov/energy/safety-resiliency/Pages/OHCB-Meetings.aspx,,,,
"Energy, Department of",Single Solar PV Facility and Solar PV Facility-Specific Rules,This is the fourth meeting of the committee,03/06/2019 10:30:00 AM,03/06/2019 02:30:00 PM,Oregon Department of Energy, Salem,OR,,Yes,Chris Clark,,christopher.clark@oregon.gov,,,,,,,true,,,,,,,,https://www.oregon.gov/energy/Get-Involved/Pages/Energy-Facility-Siting-Council-Rulemaking.aspx#Solar,,,,
"Energy, Department of",Energy Facility Siting Council Meeting,This is a regular meeting of the Council,02/22/2019 08:30:00 AM,02/22/2019 02:30:00 PM,Columbia Gorge Discovery Center, The Dalles,OR,,Yes,Esther Kooistra,,Esther.Kooistra@oregon.gov,,,,,,,true,,,,,,,,https://www.oregon.gov/energy/facilities-safety/facilities/Pages/Council-Meetings.aspx (https://www.oregon.gov/energy/facilities-safety/facilities/Pages/Council-Meetings.aspx%20),,,,
"Energy, Department of",Rulemaking Advisory Committee Meeting for Single Solar PV Facility and Solar PV Facility-Specific Rules,This is the third meeting of the committee,01/30/2019 10:30:00 AM,01/30/2019 02:30:00 PM,Port of Morrow Riverfront Center, Boardman,OR,,Yes,Christopher Clark,,christopher.clark@oregon.gov,,,,,,,,,,,,,,,https://www.oregon.gov/energy/Get-Involved/Pages/Energy-Facility-Siting-Council-Rulemaking.aspx#Solar,,,,
"Energy, Department of",Energy Facility Siting Council Meeting,This is a regular meeting of the Council,12/14/2018 08:30:00 AM,12/14/2018 02:00:00 PM,Columbia Gorge Discovery Center, The Dalles,OR,,Yes,Esther Kooistra,,Esther.Kooistra@oregon.gov,,,,,,,true,,,,,,,,https://www.oregon.gov/energy/facilities-safety/facilities/Pages/Council-Meetings.aspx,,,,
"Energy, Department of",Oregon Hanford Cleanup Board,This is a regular meeting of the Board,11/06/2018 09:00:00 AM,11/04/2018 02:00:00 PM,Best Western Plus Columbia River Inn, Cascade Locks,OR,,Yes,Cliff Voliva,5039499823,cliff.voliva@Oregon.gov,,,,,,,,,,,,,,,http://www.oregon.gov/energy/facilities-safety/safety/Pages/OHCB-Meetings.aspx,,,,
"Energy, Department of",Oregon Hanford Cleanup Board,This is a regular meeting of the Board,11/05/2018 01:00:00 PM,11/05/2018 05:30:00 PM,Best Western Plus Columbia River Inn, Cascade Locks,OR,,Yes,Cliff Voliva,5039499823,cliff.voliva@Oregon.gov,,,,,,,,,,,,,,,http://www.oregon.gov/energy/facilities-safety/safety/Pages/OHCB-Meetings.aspx,,,,
"Energy, Department of",Energy Facility Siting Council Meeting,This is a regular meeting of the Council,10/26/2018 08:30:00 AM,10/26/2018 02:30:00 PM,Boardman City Hall, Boardman,OR,,Yes,Esther Kooistra,,Esther.Kooistra@oregon.gov,,,,,,,true,,,,,,,,https://www.oregon.gov/energy/facilities-safety/facilities/Pages/Council-Meetings.aspx,,,,
"Energy, Department of",Energy Facility Siting Council Meeting,This is a regular meeting of the Council,10/25/2018 04:15:00 PM,10/25/2018 07:15:00 PM,Boardman City Hall, Boardman,OR,,Yes,Esther Kooistra,,Esther.Kooistra@oregon.gov,,,,,,,true,,,,,,,,http://www.oregon.gov/energy/facilities-safety/facilities/Pages/Council-Meetings.aspx,,,,
"Energy, Department of",Energy Advisory Work Group Meeting,This is a regular meeting of the work group,10/24/2018 01:00:00 PM,10/24/2018 03:00:00 PM,550 Capitol Street, Salem,OR,"The Energy Advisory Work Group will meet Wednesday, October 24, 2018 at 1 p.m. at the Oregon Department of Energy to preview the Biennial Energy Report, review a draft charter for the group, and provide agency updates on the budget and legislative concepts.

An agenda and meeting materials will be posted online prior to the meeting. For those who cannot attend, the meeting will be recorded, and a recording will be available upon request following the meeting.

Information and notes from prior Energy Advisory Work Group meetings are available online: http://www.oregon.gov/energy/Get-Involved/Pages/Energy-Advisory-Work-Group.aspx",Yes,Elizabeth Ross,,Elizabeth.Ross@Oregon.gov,,,,,,,,,,,,,,,https://www.oregon.gov/energy/Get-Involved/Pages/Energy-Advisory-Work-Group.aspx,,,,
"Energy, Department of",Oregon Global Warming Commission Meeting,This is a regular meeting of the Commission,10/16/2018 12:30:00 PM,10/16/2018 04:00:00 PM,121 SW Salmon St., Portland,OR,"The Oregon Global Warming Commission will meet Tuesday, October 16, 2018 in Portland. Registration will begin at 12:15 p.m., and the public meeting will be held from 12:30 to 4 p.m. in the Skybridge Room at Two World Trade Center (121 SW Salmon St.).

A listen-only call-in line will be available for those who cannot attend the meeting. Please call 1-888-204-5984, then use access code 1763644. Please be sure to mute your telephone line during the meeting and do not place the line on hold, as it will cause hold music to play for all participants.

At the meeting, the Commission plans for informational presentations from the Oregon Climate Change Research Institute on statewide climate impacts, the Oregon Coordinating Council on Ocean Acidification and Hypoxia on its first report and recommendations to the Legislature, and the Department of Environmental Quality on Oregon’s most recent greenhouse gas emissions inventories. The Commission will also discuss content of its draft Biennial Report to the Legislature. 

Three resolutions are expected to be introduced and voted on at this meeting: (1) Approval to finalize and send the Commission’s 2018 Biennial Report to the Legislature; (2) Approval to finalize and send a statement of support for a carbon cap to the Legislature; and (3) Approval to finalize and send the forest carbon report discussed at the last Commission meeting to the Oregon Department of Forestry. 

There will be an opportunity for public comment at about 2:40 p.m., prior to Commission voting. A final agenda, draft Resolutions, and the draft Biennial report will be available 24 hours before the meeting at www.keeporegoncool.org/meetings. 

If you need special accommodations to participate in the meeting, please contact Linda Ross at 503-378-6874 or at linda.ross@oregon.gov.",Yes,Linda Ross,,Linda.Ross@oregon.gov,,,,,,,,,,,,,,,https://www.keeporegoncool.org/meetings/,,,,
"Energy, Department of",Oregon Global Warming Commission Meeting,This is a regular meeting of the Commission,10/16/2018 12:30:00 PM,10/16/2018 04:00:00 PM,121 SW Salmon St., Portland,OR,"The Oregon Global Warming Commission will meet Tuesday, October 16, 2018 in Portland. Registration will begin at 12:15 p.m., and the public meeting will be held from 12:30 to 4 p.m. in the Skybridge Room at Two World Trade Center (121 SW Salmon St.).

A listen-only call-in line will be available for those who cannot attend the meeting. Please call 1-888-204-5984, then use access code 1763644. Please be sure to mute your telephone line during the meeting and do not place the line on hold, as it will cause hold music to play for all participants.

At the meeting, the Commission plans for informational presentations from the Oregon Climate Change Research Institute on statewide climate impacts, the Oregon Coordinating Council on Ocean Acidification and Hypoxia on its first report and recommendations to the Legislature, and the Department of Environmental Quality on Oregon’s most recent greenhouse gas emissions inventories. The Commission will also discuss content of its draft Biennial Report to the Legislature. 

Three resolutions are expected to be introduced and voted on at this meeting: (1) Approval to finalize and send the Commission’s 2018 Biennial Report to the Legislature; (2) Approval to finalize and send a statement of support for a carbon cap to the Legislature; and (3) Approval to finalize and send the forest carbon report discussed at the last Commission meeting to the Oregon Department of Forestry. 

There will be an opportunity for public comment at about 2:40 p.m., prior to Commission voting. A final agenda, draft Resolutions, and the draft Biennial report will be available 24 hours before the meeting at www.keeporegoncool.org/meetings. 

If you need special accommodations to participate in the meeting, please contact Linda Ross at 503-378-6874 or at linda.ross@oregon.gov.",Yes,Linda Ross,,Linda.Ross@oregon.gov,,,,,,,true,,,,,,,,https://www.keeporegoncool.org/meetings/,,,,
"Energy, Department of",Energy Facility Siting Council Meeting,This is a regular meeting of the Council,08/24/2018 08:30:00 AM,08/24/2018 02:30:00 PM,Boardman City Hall, Boardman,OR,,Yes,Esther Kooistra,,Esther.Kooistra@oregon.gov,,,,,,,true,,,,,,,,http://www.oregon.gov/energy/facilities-safety/facilities/Pages/Council-Meetings.aspx,,,,
"Energy, Department of",Energy Facility Siting Council Meeting,This is a regular meeting of the Council,08/23/2018 05:00:00 PM,08/23/2018 07:30:00 PM,Boardman City Hall, Boardman,OR,,Yes,Esther Kooistra,,Esther.Kooistra@oregon.gov,,,,,,,true,,,,,,,,http://www.oregon.gov/energy/facilities-safety/facilities/Pages/Council-Meetings.aspx,,,,
"Energy, Department of",2019-21 Budget Open House & Public Meeting,This is to provide energy resource suppliers and other interested parties with information about the work of the agency and a summary of the department’s 2019-21 Agency Request Budget.,07/18/2018 01:00:00 PM,07/18/2018 04:00:00 PM,550 Capitol Street, Salem,OR,"The Oregon Department of Energy is hosting an open house and public meeting to provide energy resource suppliers and other interested parties with information about the work of the agency and a summary of the department’s 2019-21 Agency Request Budget. The meeting will include a full accounting of the projected revenue needed to fund each department program or activity and the projected allocation of moneys derived from the assessment authorized under ORS 469.421(8) to each department program or activity.

Wednesday, July 18, 2018
Open House: 1-2 p.m.
Public Meeting: 2-4 p.m.
Oregon Department of Energy
Meitner Conference Room
550 Capitol St. NE, Salem OR 97301

Prior to the public meeting, the Oregon Department of Energy will host an open house for the public to learn about ODOE’s program divisions, activities, and budget. During the open house, staff from each of ODOE’s program divisions will be available for informal conversations about the agency’s mission and work. The public meeting will start at 2 p.m., with presentations from each program division and budget staff.

If you are unable to attend the public meeting in person, starting at 2 p.m. you can access the meeting online: 
https://www.connectmeeting.att.com
Meeting Number: 213-270-2124
Access Code: 3125235

You may also participate in the meeting by calling 888-273-3658, and entering code 3125235.

This meeting is being held to inform the public about ODOE’s budget and to satisfy the public meeting requirement of ORS 469.421(8). Meeting materials and slides will be posted on our website prior to the meeting. After the presentation portion of the meeting, we will accept oral comments. Written comments related to the budget may be submitted any time until July 20, 2018, by emailing askenergy@oregon.gov. 

Learn more about ODOE's budget and access additional meeting materials online.

NOTE: To request an interpreter for the hearing impaired or accommodations for persons with disabilities, please contact the Oregon Department of Energy at least 48 hours before meeting at 1-800-221-8035 or fax 503-373-7806. TTY users should call the Oregon Relay Service at 711.",Yes,ODOE,,askenergy@oregon.gov,,https://www.oregon.gov/energy/Get-Involved/Documents/ODOE_Parking.pdf,,,,,true,,,,,,,,https://www.oregon.gov/energy/About-Us/Pages/Budget.aspx,,,,
"Energy, Department of",Oregon Hanford Cleanup Board,This is a regular meeting of the Board,07/17/2018 08:30:00 AM,07/17/2018 02:00:00 PM,Umatilla County Sheriff’s Office, Pendleton,OR,,Yes,Cliff Voliva,5039499823,cliff.voliva@Oregon.gov,,,,,,,,,,,,,,,http://www.oregon.gov/energy/facilities-safety/safety/Pages/Oregon-Hanford-Cleanup-Board.aspx,,,,
"Energy, Department of",Oregon Hanford Cleanup Board,This is a regular meeting of the Board,07/16/2018 01:00:00 PM,07/16/2018 05:00:00 PM,Umatilla County Sheriff’s Office, Pendleton,OR,,Yes,Cliff Voliva,,cliff.voliva@Oregon.gov,,,,,,,true,,,,,,,,http://www.oregon.gov/energy/facilities-safety/safety/Pages/Oregon-Hanford-Cleanup-Board.aspx,,,,
"Energy, Department of",Energy Facility Siting Council Meeting,This is a regular meeting of the Council,06/29/2018 08:30:00 AM,06/29/2018 03:00:00 PM,550 Capitol Street, Salem,OR,,Yes,Esther Kooistra,,Esther.Kooistra@oregon.gov,,,,,,,true,,,,,,,,http://www.oregon.gov/energy/facilities-safety/facilities/Pages/Council-Meetings.aspx,,,,
"Energy, Department of",Small-Scale Energy Loan Program Advisory Committee Meeting,This is a regular meeting of the committee,06/28/2018 10:00:00 AM,06/28/2018 12:00:00 PM,550 Capitol Street, Salem,OR,,Yes,John Hobbs,,john.hobbs@oregon.gov,,,,,,,,,,,,,,,http://www.oregon.gov/energy/Get-Involved/Pages/SELPAC.aspx,,,,
"Energy, Department of",Oregon Global Warming Commission Meeting,This is a regular meeting of the Commission,06/25/2018 09:00:00 AM,06/25/2018 11:30:00 AM,"One World Trade Center, 121 SW Salmon Street", Portland,OR,"The Oregon Global Warming Commission will meet Monday, June 25, 2018. Registration will begin at 8:45 a.m., and the public meeting will be held from 9 to 11:30 a.m. in the Skybridge Room at One World Trade Center, 121 SW Salmon St, Portland OR 97204.

A listen-only call-in line will be available for those who cannot attend the meeting. Please call 1-888-204-5984, then use access code 1763644. Please be sure to mute your telephone line during the meeting and do not place the line on hold, as it will cause hold music to play for all participants.

At the meeting, the Commission plans to welcome new members, discuss Oregon’s sector-based greenhouse gas emissions inventory, provide a forest carbon update and overview of Governor’s Office climate activities, and plan for the Commission’s next Report to the Legislature. This will be an informational meeting only; no votes will be taken.

A final agenda and any background documents will be available 24 hours before this meeting at http://www.keeporegoncool.org/meetings/.

If you need special accommodations to participate in the meeting, please contact Linda Ross at 503-378-6874 or linda.ross@oregon.gov. ",Yes,Linda Ross,,Linda.Ross@oregon.gov,,,,,,,,,,,,,,,https://www.keeporegoncool.org/meetings/,,,,
"Energy, Department of",Energy Advisory Work Group Meeting,This is a regular meeting of the work group,06/20/2018 02:00:00 PM,06/20/2018 04:00:00 PM,550 Capitol Street, Salem,OR,,,Elizabeth Ross,,Elizabeth.Ross@Oregon.gov,,,,,,,,,,,,,,,http://www.oregon.gov/energy/Get-Involved/Pages/Energy-Advisory-Work-Group.aspx,,,,
"Energy, Department of",Energy Facility Siting Council Meeting,This is a regular meeting of the Council,04/27/2018 08:30:00 AM,04/27/2018 02:00:00 PM,5000 Discovery Drive, The Dalles,OR,,Yes,Esther Kooistra,,Esther.Kooistra@oregon.gov,,,,,,,true,,,,,,,,http://www.oregon.gov/energy/facilities-safety/facilities/Pages/Council-Meetings.aspx,,,,
"Energy, Department of",Oregon Hanford Cleanup Board,This is a regular meeting of the Board,03/20/2018 08:45:00 AM,03/20/2018 02:00:00 PM,Mosier Senior Center, Mosier,OR,,,Cliff L Voliva,,cliff.voliva@Oregon.gov,,,,,,,,,,,,,,,http://www.oregon.gov/energy/facilities-safety/safety/Pages/Oregon-Hanford-Cleanup-Board.aspx,,,,
"Energy, Department of",Oregon Hanford Cleanup Board,This is a regular meeting of the Board,03/19/2018 02:00:00 PM,03/19/2018 05:00:00 PM,Mosier Senior Center, Mosier,OR,,,Cliff Voliva,,cliff.voliva@Oregon.gov,,,,,,,,,,,,,,,http://www.oregon.gov/energy/facilities-safety/safety/Pages/Oregon-Hanford-Cleanup-Board.aspx,,,,
"Energy, Department of",Renewable Natural Gas Advisory Committee Meeting,This is a regular meeting of the committee,03/06/2018 09:30:00 AM,03/06/2018 12:00:00 PM,800 NE Oregon Street, Portland,OR,,,Dan Avery,,daniel.avery@oregon.gov,,,,,,,,,,,,,,,http://www.oregon.gov/energy/Get-Involved/Pages/RNG-Advisory-Committee.aspx,,,,
"Energy, Department of",Energy Facility Siting Council Meeting,This is a regular meeting of the Council,02/23/2018 08:30:00 AM,02/23/2018 01:00:00 PM,Boardman City Hall, Boardman,OR,,Yes,Esther Kooistra,,Esther.Kooistra@oregon.gov,,,,,,,true,,,,,,,,http://www.oregon.gov/energy/facilities-safety/facilities/Pages/Council-Meetings.aspx,,,,
"Energy, Department of",Small-Scale Energy Loan Program Advisory Committee Meeting,This is a regular meeting of the committee,12/22/2017 10:00:00 AM,12/22/2017 11:00:00 AM,Oregon Department of Energy, Salem,OR,"The Small-Scale Energy Loan Program Advisory Committee will meet December 22 via teleconference. The public meeting begins at 10 a.m.

The agenda will focus on consideration of a draft letter from SELPAC to the Oregon Department of Energy that recommends ODOE undertake a strategic review of the SELP program.

A complete agenda for the December 22 meeting, including information on how to attend the meeting remotely, can be found on the ODOE website at www.oregon.gov/energy/Get-Involved/Pages/SELPAC.aspx.

To request an interpreter for the hearing-impaired or for other accommodations, please contact John Hobbs at 503-378-5048. TTY users should call the Oregon Relay Service at 711.

About SELP: &#8203;Oregon’s energy loan program offers fixed-rate, long-term loans for qualified projects that invest in energy conservation, renewable energy, alternative fuels, or create products from recycled materials.",,John Hobbs,,john.hobbs@oregon.gov,,,,,,,,,,,,,,,,,,,
"Energy, Department of",POSTPONED: Oregon Global Warming Commission Forest Carbon Task Force Meeting,This is a regular meeting of the task force,12/19/2017 09:00:00 AM,12/19/2017 12:00:00 PM,Oregon, Salem,OR,"POSTPONED!

The Oregon Global Warming Commission's Forest Carbon Task Force will meet Tuesday, December 19, 2017. The public meeting will be held from 9:00 am to 12:00 pm in Conference Room Meitner at the Oregon Department of Energy (550 Capitol St NE) in Salem.

A listen-only call-in line will be available for those who cannot attend the meeting. Please call 1-877-336-1831, then use access code 872206. Please be sure to mute your telephone line during the meeting and do not place the line on hold, as it will cause hold music to play for all participants.

At the meeting, the Commission plans to discuss, among other things:
        ·  Findings from the OGWC Forest Carbon Task Force
        ·  Content for the 2018 Report to the Legislature

A final agenda and any background documents will be available 24 hours before this meeting at http://www.keeporegoncool.org/view/meetings-and-events.

To request an interpreter for the hearing impaired or accommodations for persons with disabilities, please contact Linda Ross at 503-378-6874 or linda.ross@oregon.gov at least 72 hours before the meeting. TTY users should call the Oregon Relay Service at 711.

The Oregon Global Warming Commission is a 25-member advisory group created by the 2007 Legislature through House Bill 3543. Members were appointed and directed to develop long-term policy recommendations to prepare for, adapt to, and combat global warming. For more information go to www.keeporegoncool.org.

To learn about the state’s efforts to address climate change, visit www.oregon.gov/energy/energy-oregon/Pages/Climate-Change.aspx.

Oregon Global Warming Commission
Oregon Department of Energy
550 Capitol St. NE
Salem, OR, 97301
503-378-4040
Oregon.GWC@oregon.gov
",Yes,Angus Duncan,503-248-7695,Oregon.GWC@oregon.gov,,,,,,,,,,,,,,,,,,,
"Energy, Department of",Energy Facility Siting Council Meeting,This is a regular meeting of the Council,12/15/2017 08:30:00 AM,12/15/2017 02:00:00 PM,Boardman City Hall, Boardman,OR,,Yes,Esther Kooistra,,Esther.Kooistra@oregon.gov,,,,,,,true,,,,,,,,http://www.oregon.gov/energy/facilities-safety/facilities/Pages/Council-Meetings.aspx,,,,
"Energy, Department of",Energy Facility Siting Council Meeting,This is a regular meeting of the Council,12/14/2017 05:00:00 PM,12/14/2017 07:00:00 PM,Boardman City Hall, Boardman,OR,,Yes,Esther Kooistra,,Esther.Kooistra@oregon.gov,,,,,,,true,,,,,,,,http://www.oregon.gov/energy/facilities-safety/facilities/Pages/Council-Meetings.aspx,,,,
"Energy, Department of",Oregon Hanford Cleanup Board,This is a regular meeting of the Board,11/28/2017 08:30:00 AM,11/28/2017 02:00:00 PM,Columbia Gorge Discovery Center, The Dalles,OR,http://www.oregon.gov/energy/facilities-safety/safety/Pages/Oregon-Hanford-Cleanup-Board.aspx,Yes,Cliff L Voliva,,cliff.voliva@Oregon.gov,,,,,,,,,,,,,,,http://www.oregon.gov/energy/facilities-safety/safety/Pages/OHCB-Meetings.aspx,,,,
"Energy, Department of",Oregon Hanford Cleanup Board,This is a regular meeting of the Board,11/27/2017 01:00:00 PM,11/27/2017 05:00:00 PM,Columbia Gorge Discovery Center, The Dalles,OR,http://www.oregon.gov/energy/facilities-safety/safety/Pages/Oregon-Hanford-Cleanup-Board.aspx,Yes,Cliff L Voliva,,cliff.voliva@Oregon.gov,,,,,,,,,,,,,,,http://www.oregon.gov/energy/facilities-safety/safety/Pages/OHCB-Meetings.aspx,,,,
"Energy, Department of",Energy Facility Siting Council Meeting,This is a regular meeting of the Council,10/19/2017 01:00:00 PM,10/19/2017 06:00:00 PM,Oxford Suites Portland – Jantzen Beach, Portland,OR,,Yes,Cliff L Voliva,,cliff.voliva@Oregon.gov,,,,,,,true,,,,,,,,http://www.oregon.gov/energy/facilities-safety/facilities/Pages/Council-Meetings.aspx,,,,
"Energy, Department of",Small Scale Energy Loan Program Advisory Committee Meeting,This is a regular meeting of the committee,09/26/2017 10:00:00 AM,09/26/2017 11:00:00 AM,Oregon Department of Energy, Salem,OR,"Call In: 1-877-810-9415
Participant Code: 899679

AGENDA
I.	Announcements
II.	Approval of Agenda
III.	Q & A with ODOE Leadership 
IV.	Work Session – SELP Planning 
o	Discussion of our plan for engaging SELPAC members and other stakeholders on the role of SELP  
o	Overview of existing SELP program statutes and administrative rules 
o	External stakeholder identification 
o	Timelines and next steps 
V.	Adjournment

Americans With Disabilities Act: Reasonable accommodations will be made upon request. Please contact the department at least 72 hours before the meeting. Contact John Hobbs at 503-378-5048 to request an interpreter for the hearing-impaired or for other accommodations. TTY users should call the Oregon Relay Service at 711. For more information, call toll-free in Oregon 1-800-221-8035, TTY 1-800-735-8055, or check the ODOE website at: www.oregon.gov/energy.",No,John Hobbs,,john.hobbs@oregon.gov,,,,,,,,,,,,,,,,2017-1-SELPAC-Agenda.pdf (https://data.oregon.gov/views/gs36-7t8m/files/0f34d7ef-21e2-432f-9450-11b85fea2b53?download=true&filename=2017-1-SELPAC-Agenda.pdf),,,
"Energy, Department of",Energy Facility Siting Council Meeting,This is a regular meeting of the Council,09/22/2017 08:30:00 AM,09/22/2017 02:00:00 AM,Boardman City Hall, Boardman,OR,,Yes,Cliff L Voliva,,cliff.voliva@Oregon.gov,,,,,,,true,,,,,,,,http://www.oregon.gov/energy/facilities-safety/facilities/Pages/Council-Meetings.aspx,,,,
"Energy, Department of",Energy Facility Siting Council Meeting,This is a regular meeting of the Council,09/21/2017 03:00:00 PM,09/21/2017 06:00:00 PM,Boardman City Hall, Boardman,OR,,Yes,Cliff L Voliva,,cliff.voliva@Oregon.gov,,,,,,,true,,,,,,,,http://www.oregon.gov/energy/facilities-safety/facilities/Pages/Council-Meetings.aspx,,,,
"Energy, Department of",Energy Facility Siting Council meeting,This is a regular meeting of the council,02/23/2017 08:30:00 AM,02/24/2017 02:00:00 AM,Cousins' Country Inn, The Dalles,OR,,Yes,Esther Kooistra,503-373-2294,Esther.Kooistra@oregon.gov,,,,,,,true,,,,,,,,http://www.oregon.gov/energy/facilities-safety/facilities/Pages/Council-Meetings.aspx,,,,
"Energy, Department of",Small Scale Energy Loan Program Advisory Committee meeting,This is a regular meeting of the committee,11/17/2016 10:00:00 AM,11/17/2016 11:45:00 AM,625 Marion Street NE, Salem,OR,,No,John Hobbs,,john.hobbs@oregon.gov,,,,,,,,,,,,,,,http://www.oregon.gov/energy/LOANS/Pages/SELPAC.aspx,,,,
"Energy, Department of",Home Energy Performance Score System Stakeholder Panel meeting,This is a regular meeting of the panel.,06/15/2015 09:00:00 AM,06/15/2015 11:00:00 AM,"Portland State Office Building, 800 NE Oregon St., Room E1", Portland,OR,http://www.oregon.gov/energy/RESIDENTIAL/Pages/HEPS-system-stakeholder-panel.aspx,No,Roger Kainu,503-580-7469,roger.kainu@state.or.us,,,,,,,,,,,http://www.oregon.gov/energy/RESIDENTIAL/docs/HEPS/HEPS_agenda_061515.pdf,,,,,,,,
"Energy, Department of",Oregon Hanford Cleanup Board,This is a regular meeting of the board.,06/01/2015 01:00:00 PM,06/02/2015 01:30:00 PM,Port of Morrow, Boardman,OR,http://www.oregon.gov/energy/NUCSAF/Pages/hcb/hwboard.aspx,Yes,Cliff Voliva,503-378-3637,cliff.voliva@state.or.us,,,,,,,,,,,,,,,,,,,
"Energy, Department of",Oregon Global Warming Commission,This is a regular meeting of the Commission.,04/22/2015 01:00:00 PM,04/22/2015 04:00:00 PM,800 NE Oregon St., Portland,OR,,,Jessica Shipley,503-378-3780,jessica.shipley@state.or.us,,,,,,,,,,,,,,,http://www.oregon.gov/energy/Pages/2015-15-OGWC.aspx,,,,
"Energy, Department of",Home Energy Performance Score Stakeholder Panel meeting,"The panel was created after recent Oregon Department of Energy rulemaking on home energy performance scores as directed by House Bill 2801, passed in 2013. Several participants in ODOE’s rulemaking effort expressed interest in working collaboratively toward greater market standardization. At the meeting, the panel will approve its charter, further review a system provider draft application, and review a communication piece for site assessors. Ultimately, the stakeholder panel will recommend to the department’s director which home energy performance score systems to approve for use in Oregon beyond 2015.",03/09/2015 09:00:00 AM,03/09/2015 11:00:00 AM,"Portland State Office Building, 800 NE Oregon St.", Portland,OR,,,Roger Kainu,503-580-7469,roger.kainu@state.or.us,,,,,,,,,,,,,,,http://www.oregon.gov/energy/RESIDENTIAL/Pages/HEPS-system-stakeholder-panel.aspx,,,,
"Energy, Department of",Energy Incentives Program fee discussion meeting,"The Oregon Department of Energy invites stakeholders to discuss Energy Incentives Program fees for submitting an application, technical review, amendments, pass-through and transfer. At the meeting, department staff will review the current fees, program operations and possible fee increases.",02/13/2015 01:00:00 PM,02/13/2015 02:00:00 PM,"Oregon Department of Energy, 625 Marion Street NE", Salem,OR,"Under state law, ODOE may charge application and review fees to recover the anticipated cost of administering and enforcing the program. A chart with the current fees is located at: http://www.oregon.gov/energy/BUSINESS/Incentives/docs/EIPFeeChart.pdf.

Call-in number: 1- 888-273-3658; access code: 3125235

FUTURE OPPORTUNITIES TO PARTICIPATE
Following this public meeting, the department will review the current fees and host a second public meeting to continue the fee review and discussion. After the public meetings, ODOE will review comments, post a draft of proposed fees on its website and schedule a public hearing.

NOTE: To request an interpreter for the hearing impaired, or accommodations for persons with disabilities, please contact ODOE at least 72 hours before the meeting at 1-800-221-8035 or fax 503-373-7806. TTY users should call the Oregon Relay Service at 711.",Yes,Elizabeth Ross,,elizabeth.ross@state.or.us,,,,,,,,,,,,,,,,,,,
"Energy, Department of",Home Energy Performance Score Stakeholder Panel meeting,"At the meeting, the panel will approve its charter, further review a system provider draft application, and continue discussing messaging and outreach to assessors. Ultimately, the stakeholder panel will recommend to the department’s director which home energy performance score systems to approve for use in Oregon beyond 2015.",02/09/2015 09:00:00 AM,02/09/2015 11:00:00 AM,"Portland State Office Building, 800 NE Oregon St.", Portland,OR,,,Roger Kainu,,roger.kainu@state.or.us,,,,,,,,,,,http://www.oregon.gov/energy/RESIDENTIAL/docs/HEPS/HEPS_agenda_020915.pdf,,,,http://www.oregon.gov/energy/RESIDENTIAL/Pages/HEPS-system-stakeholder-panel.aspx,,,,
"Energy, Department of",Oregon Hanford Cleanup Board,The is a regular meeting of the board.,01/26/2015 02:00:00 PM,01/27/2015 01:00:00 PM,"Hood River Inn, 1108 East Marina Drive", Hood River,OR,,Yes,Ken Niles,503-378-4906,ken.niles@state.or.us,,,,,,,,,,,http://www.oregon.gov/energy/NUCSAF/HCB/docs/OHCB_agenda_January_2015.pdf,,,,,,,,
"Energy, Department of",Oregon Hanford Cleanup Board,The is a regular meeting of the board.,01/26/2015 01:00:00 PM,01/27/2015 02:30:00 PM,"Hood River Inn, 1108 East Marina Drive", Hood River,OR,,Yes,Ken Niles,503-378-4906,ken.niles@state.or.us,,,,,,,,,,,http://www.oregon.gov/energy/NUCSAF/HCB/docs/OHCB_agenda_January_2015.pdf,,,,,,,,
"Energy, Department of",Amending Residential Energy Tax Credit pass-through eligibility rules,"The proposed rule for the Residential Energy Tax Credit program is a continuation of the permanent RETC rules filed in November 2014. The pass-through eligibility section of the rule was included during the rule review and prior public hearing. However, OAR 330-070-0014 was not noticed as part of the earlier rulemaking because, initially, the Oregon Department of Energy did not propose amendments to this section of the rule. The proposed rule modifies the RETC pass-through eligibility to align with ORS 316.116. An eligible pass-through partner must be subject to tax under ORS 316.",12/22/2014 10:00:00 AM,12/22/2014 10:30:00 AM,"Oregon Department of Energy, 625 Marion St. NE", Salem,OR,,Yes,Elizabeth Ross,503-378-8534,elizabeth.ross@state.or.us,,,,,,,,,,,,,,,http://www.oregon.gov/energy/CONS/Pages/Rulemaking-RETC.aspx?panel=0,,,,
"Energy, Department of",Home Energy Performance Score Stakeholder Panel,This stakeholder panel was formed to recommend to the department’s director whether to approve home energy performance score systems for use in Oregon and to work collaboratively toward greater market standardization for home energy performance scores in Oregon.,11/24/2014 09:00:00 AM,11/24/2014 11:00:00 AM,"Portland State Office Building, 800 NE Oregon St.", Portland,OR,http://www.oregon.gov/energy/RESIDENTIAL/Pages/HEPS-system-stakeholder-panel.aspx,,Linda Ross,503-378-6874,linda.ross@state.or.us,,,,,,,,,,,,,,,,,,,
"Energy, Department of",Biomass Tax Credit Conference Call,The Oregon Department of Energy is hosting two conference calls to discuss the Biomass Producer or Collector Tax Credit program. The purpose of these calls is to continue to fulfill the commitment made to stakeholders that the department would periodically provide program updates to stakeholders and other interested parties. The same agenda will be used for both calls.,11/20/2014 03:00:00 PM,11/20/2014 03:30:00 PM,Oregon Department of Energy, Salem,OR,http://www.oregon.gov/energy/RENEW/Biomass/Pages/TaxCdt.aspx,Yes,Elizabeth Ross,,bpct.energy@state.or.us,,,,,,,,,1-888-273-3658,3125235,,,,,,,,,
"Energy, Department of",Small Scale Energy Loan Program Advisory Committee,This is a regular meeting of SELPAC,11/20/2014 10:00:00 AM,11/20/2014 12:00:00 PM,"Oregon Department of Energy, 625 Marion St. NE", Salem,OR,http://www.oregon.gov/energy/LOANS/Pages/SELPAC.aspx,No,Eloise Jeffers,503-378-3494,eloise.jeffers@odoe.state.or.us,,,,,,,,,,,http://www.oregon.gov/energy/LOANS/docs/SELPAC-agenda/SELPAC_Agenda_112014.pdf,,,,,,,,
"Energy, Department of",Biomass Tax Credit Conference Call,The Oregon Department of Energy is hosting two conference calls to discuss the Biomass Producer or Collector Tax Credit program. The purpose of these calls is to continue to fulfill the commitment made to stakeholders that the department would periodically provide program updates to stakeholders and other interested parties. The same agenda will be used for both calls.,11/18/2014 02:30:00 PM,11/18/2014 03:00:00 PM,Oregon Department of Energy, Salem,OR,http://www.oregon.gov/energy/RENEW/Biomass/Pages/TaxCdt.aspx,Yes,Elizabeth Ross,,bpct.energy@state.or.us,,,,,,,,,1-888-273-3658,3125235,,,,,,,,,
"Energy, Department of",Oregon Geothermal Working Group meeting,THIS MEETING HAS BEEN CANCELLED. We hope to reschedule it in the spring.,11/18/2014 09:00:00 AM,11/18/2014 01:00:00 PM,"Daly Middle School (South Wing), 906 S. 3rd St.", Lakeview,OR,,,Linda Ross,503-378-6874,linda.ross@state.or.us,,,,,,,,,,,,,,,,,,,
"Energy, Department of",Home Energy Performance Score System Stakeholder Panel Meeting,"This is the first meeting of a new volunteer home energy performance score system stakeholder panel formed by the Oregon Department of Energy, following House Bill 2801 (2013) rulemaking. At this meeting the panel will establish its purpose, charter and operating procedures.",10/27/2014 08:30:00 AM,10/27/2014 10:30:00 AM,"Market Center Building, 1600 SW 4th Avenue", Portland,OR,,,Kacia Brockman,503-373-7955,kacia.brockman@state.or.us,,,,,,,,,,,http://www.oregon.gov/energy/RESIDENTIAL/docs/HEPS/HEPS%20meeting%20agenda%20102414.pdf,,,,http://www.oregon.gov/energy/RESIDENTIAL/Pages/HEPS-system-stakeholder-panel.aspx,,,,
"Energy, Department of",Residential Energy Tax Credit Rulemaking Hearing,"Updating Residential Energy Tax Credit rules, including tax credit rate chart and other program aspects",10/23/2014 10:00:00 AM,,"Oregon Department of Energy, 625 Marion St. NE", Salem,OR,,,Elizabeth Ross,,elizabeth.ross@state.or.us,http://www.oregon.gov/energy/CONS/Pages/Rulemaking-RETC.aspx,,,,,,,,,,,cliff.voliva@odoe.state.or.us,,,,,,,
"Energy, Department of",Alternative Fuel Vehicle Projects Rulemaking Hearing,Add fleets to Alternative Fuel Vehicle tax credit; amend Alternative Fuel Vehicle Revolving Fund program,09/23/2014 10:00:00 AM,,"Oregon Department of Energy, 625 Marion St. NE", Salem,OR,,,Elizabeth Ross,,elizabeth.ross@state.or.us,http://www.oregon.gov/energy/Pages/Rulemaking-Alt-Fuel-Vehicles.aspx,,,,,,,,,,,cliff.voliva@odoe.state.or.us,,,,,,,
"Energy, Department of",RETC Energy Efficient Devices public meeting,"The Oregon Department of Energy invites the public to attend a follow-up discussion about potential rule changes for energy efficient devices in the Residential Energy Tax Credit (RETC) program, such as ducted air-source heat pumps, ductless mini-split heat pumps, duct sealing and natural gas hot water heaters.",08/27/2014 02:00:00 PM,,"Oregon Department of Energy, 625 Marion Street NE", Salem,OR,,,Elizabeth Ross,,elizabeth.ross@state.or.us,http://www.oregon.gov/energy/CONS/Pages/Rulemaking-RETC.aspx,,,,,,,,,,,cliff.voliva@odoe.state.or.us,,,,,,,
"Energy, Department of",Alternative Fuel Vehicle rulemaking meeting ,"The Oregon Department of Energy invites stakeholders to participate in the rulemaking process for the Alternative Fuel Vehicle Tax Credit and Alternative Fuel Vehicle Revolving Loan Fund programs. This is the final committee meeting to review draft rule language and other related topics, such as eligible project cost and the nexus with Oregon requirement.",07/31/2014 02:00:00 PM,,"Oregon Department of Energy, 625 Marion St. NE", Salem,OR,,,Elizabeth Ross,,elizabeth.ross@state.or.us,http://links.govdelivery.com/track?type=click&enid=ZWFzPTEmbWFpbGluZ2lkPTIwMTQwNzIxLjM0Mjg0MTYxJm1lc3NhZ2VpZD1NREItUFJELUJVTC0yMDE0MDcyMS4zNDI4NDE2MSZkYXRhYmFzZWlkPTEwMDEmc2VyaWFsPTE3MTIwNjExJmVtYWlsaWQ9Y2xpZmYudm9saXZhQG9kb2Uuc3RhdGUub3IudXMmdXNlcmlkPWNsaWZmLnZvbGl2YUBvZG9lLnN0YXRlLm9yLnVzJmZsPSZleHRyYT1NdWx0aXZhcmlhdGVJZD0mJiY=&&&100&&&http://www.oregon.gov/energy/Pages/Rulemaking-Alt-Fuel-Vehicles.aspx,,,,,,,,,,,cliff.voliva@odoe.state.or.us,,,,,,,
"Energy, Department of",Home Energy Performance Score (HB 2801) Rulemaking Webinar,"At this webinar, the Oregon Department of Energy will describe its working strawman proposal for the home energy performance score system required under House Bill 2801. The one-hour webinar will consist of a half-hour presentation, followed by a half hour for questions from stakeholders.",02/06/2014 01:30:00 PM,02/06/2014 02:30:00 PM,"Oregon Department of Energy, 625 Marion St. NE",Salem,OR,,,Jess Kincaid,,jess.kincaid@state.or.us,http://www.oregon.gov/energy/pages/rulemaking-eps.aspx,,,,,,,,,,,,,,,,,,
"Energy, Department of",Woody biomass sector of the Biomass Producer or Collector Tax Credit,The Oregon Department of Energy invites woody biomass stakeholders for the Biomass Producer or Collector Tax Credit to discuss program operations. The purpose of this meeting is to discuss written comments received from woody biomass stakeholders during the 2013 rulemaking.,01/28/2014 09:00:00 AM,,"Oregon Department of Forestry, 2600 State St.",Salem,OR,,,Elizabeth Ross,,elizabeth.ross@state.or.us,http://www.oregon.gov/energy/Pages/Rulemaking-Biomass-Producer_Advisory_Committee.aspx,,,,,,,,,,,,,,,,,,
"Energy, Department of",Business Energy Tax Credit Rulemaking Advisory Committee,"Although the 2011 Oregon Legislature replaced the Business Energy Tax Credit program with the new Energy Incentives Program, the department still must carry out its obligations to BETC participants before that program officially ends July 1, 2014. The Oregon Department of Energy invites Business Energy Tax Credit stakeholders to attend a rulemaking advisory committee meeting to discuss requiring BETC projects to report energy performance annually for up to five years after receiving final certification.",01/27/2014 02:00:00 PM,,"Oregon Department of Energy, 625 Marion St. NE",Salem,OR,,,Maureen Bock,,maureen.bock@state.or.us,http://www.oregon.gov/energy/CONS/Pages/Rulemaking-BETC.aspx,,,,,,,,,,,,,,,,,,
"Energy, Department of",Home Energy Performance Score Rulemaking Advisory Committee,"Section 12 of 2013 House Bill 2801 requires the Oregon Department of Energy to conduct rulemaking to:  1. Adopt a voluntary home energy performance score system by which a person may assign a residential building a home energy performance score for the purpose of evaluating the energy conservation and energy efficiency of the building.  2. Designate programs for the training of home energy assessors.  3. Establish requirements, if any, for home energy assessors to report home energy performance scores they assign to homes to ODOE, and for ODOE to maintain that information in a database.  Prior to drafting rules, ODOE is engaging stakeholders on each of these three topics in a series of public meetings to be held through February 2014. The rules must take effect by July 1, 2014.",01/24/2014 10:00:00 AM,,"Oregon Training Institute, 27501 SW 95th Ave., Suite 980",Wilsonville,OR,,,Jess Kincaid,,jess.kincaid@state.or.us,http://www.oregon.gov/energy/pages/rulemaking-eps.aspx,,,,,,,,,,,,,,,,,,
"Energy, Department of",Renewable Portfolio Standard Rulemaking,"The purpose of this rulemaking is to streamline and increase transparency of the requirements for facilities that generate electricity eligible for the Oregon Renewable Portfolio Standard. Included in the proposed rule amendments are: a description of the application process for RPS certification, notification requirements for facilities that undergo changes, renewal requirements for low-impact hydro facilities, requirements for periodic review of multiple-fuel facilities, and a one-time review of the performance of certain hydro efficiency upgrades. Facilities generating electricity from other eligible resources are not subject to review or renewal. The proposed rules also include updated references to the Western Renewable Energy Generation Information System Operating Rules and updated language regarding the tracking of stranded electricity.",01/23/2014 10:00:00 AM,,"Oregon Department of Energy, 625 Marion St. NE",Salem,OR,,,Kacia Brockman,,kacia.brockman@state.or.us,http://www.oregon.gov/energy/RENEW/Pages/RPS-Rulemaking.aspx,,,,,,,,,,,,,,,,,,
"Energy, Department of",Oregon Hanford Cleanup Board,This is a regular meeting of the board.,01/13/2014 01:00:00 PM,01/14/2014 03:00:00 PM,Best Western Plus hotel,Hood River,OR,,,Ken Niles,,ken.niles@state.or.us,http://www.oregon.gov/energy/Pages/2014-01-OHCB.aspx,,,,,,,,,,,,,,,,,,
"Energy, Department of",Small Scale Energy Loan Program Advisory Committee,This is a regular meeting of SELPAC. The agenda items for the meeting include a decision about a loan application from Baley-Trotman Farms of Malin for a 77.3-kilowatt solar array.,01/09/2014 03:00:00 PM,,"Oregon Department of Energy, 625 Marion St. NE",Salem,OR,,,Rosa Carbaugh,,rosa.carbaugh@state.or.us,http://www.oregon.gov/energy/LOANS/Pages/SELPAC.aspx,,,,,,,,,,,,,,,,,,
"Energy, Department of",Small Scale Energy Loan Program Rulemaking Advisory Committee,"The Oregon Department of Energy is starting a rulemaking to bolster the Small Scale Energy Loan Program Advisory Committee’s recruitment and appointment process, establish term limits, and create an Oregon State Treasurer representative ex-officio committee position.",01/09/2014 02:00:00 PM,01/09/2014 03:00:00 PM,"Oregon Department of Energy, 625 Marion St. NE",Salem,OR,,,Elizabeth Ross,,elizabeth.ross@state.or.us,http://www.oregon.gov/energy/pages/rulemaking-selp.aspx,,,,,,,,,,,,,,,,,,
"Energy, Department of",1.5 Percent Green Energy Technology in Public Buildings rulemaking hearing,"The Oregon Department of Energy proposes to amend Oregon Administrative Rules 330-135-0010 to 330-135-0060, which describe the requirements for including green energy technology in the new construction and renovation of public buildings. The primary purpose of the rulemaking is to implement House Bill 3169, passed by the 2013 Oregon Legislature, which revised those requirements. ",12/11/2013 09:00:00 AM,,"Oregon Department of Energy, 625 Marion St. NE",Salem,OR,,Yes,Kacia Brockman,503-373-7955,,http://www.oregon.gov/energy/Pages/Rulemaking-Green-Energy-Technology.aspx,,,,,,,,,,,,,,,,,,
"Energy, Department of",Public hearing on proposed RETC non-catalytic woodstoves tax credit calculation,The Oregon Department of Energy posted an updated proposed 2014 tax credit rate chart for the current Residential Energy Tax Credit rulemaking. The changes relate to the tax credit calculation for non-catalytic woodstoves. The department is seeking to provide an adequate tax credit for non-catalytic woodstoves while considering the retail price and incentive percentage compared to catalytic woodstoves and pellet stoves.    ,12/05/2013 10:00:00 AM,,"Oregon Department of Energy, 625 Marion St. NE",Salem,OR,,Yes,Kacia Brockman,(503) 373-7955,,,,,,,,,,,,,,,,,,,,
"Energy, Department of",Renewal of RPS eligibility for certain facilities advisory committee meeting,"The Oregon Department of Energy issued a policy statement March 19, 2013, in which it waived the requirement for facilities generating electricity from certain resources to renew their eligibility for the Oregon Renewable Portfolio Standard periodically. Those resources included solar, wind, geothermal, ocean wave, tidal current, ocean thermal, and municipal solid waste. ",11/25/2013 08:30:00 AM,,"Oregon Department of Energy, 625 Marion St. NE",Salem,OR,,Yes,Kacia Brockman,(503) 373-7955,,http://www.oregon.gov/energy/RENEW/Pages/RPS-Rulemaking.aspx,,,,,,,,,,,,,,,,,,
"Energy, Department of",Appliance Efficiency Standards rulemaking advisory committee meeting,"ODOE is amending OAR 330-092 to implement Senate Bill 692, which adds regulation of televisions, battery chargers and certain halogen lamps. Stakeholders will provide feedback on the draft rule language. ",10/09/2013 09:00:00 AM,10/09/2013 12:00:00 AM,"Local Government Center, Room 113 1201 Court St NE", Salem,OR,,,Kacia Brockman,,kacia.brockman@state.or.us,http://www.oregon.gov/energy/Pages/Rulemaking-Appliance-Standards.aspx,,,,,,,,1-877-336-1829,1073769,,allan.bates@odoe.state.or.us,,,,,,,
"Energy, Department of",1.5% Green Energy Technology rulemaking advisory committee meeting,"ODOE is amending OAR 330-135 to implement House Bill 3169, which changed requirements for public bodies to include green energy technology in new or renovated buildings. Stakeholders will provide feedback on the draft rule language.",10/07/2013 09:00:00 AM,10/07/2013 12:00:00 PM,"Local Government Center, Room 113 1201 Court St NE", Salem,OR,,,Kacia Brockman,,kacia.brockman@state.or.us,http://oregon.gov/energy/Pages/Rulemaking-Green-Energy-Technology.aspx,,,,,,,,1-877-336-1829,1073769,,allan.bates@odoe.state.or.us,,,,,,,
"Energy, Department of",Renewable Portfolio Standard rulemaking advisory committee meeting,ODOE is amending OAR 330-160 to address periodic review of RPS-eligibility for certain facilities. Stakeholders will provide feedback on the draft rule language. ,09/24/2013 10:00:00 AM,09/24/2013 12:00:00 PM,"Department of State Lands 775 Summer Street NE, 2nd Floor, Conference Room 201", Salem,OR,Website: http://www.oregon.gov/energy/RENEW/Pages/RPS-Rulemaking.aspx,,Kacia Brockman,,kacia.brockman@state.or.us,http://oregon.gov/energy/RENEW/Pages/RPS-Rulemaking.aspx,,,,,,,,1-877-336-1829,1073769,,allan.bates@odoe.state.or.us,,,,,,,
