APN,PROJECT NUMBER,NAME,ADDRESS,SITE_#,COMMUNITY,COUNCIL DISTRICT,DEVELOPMENT STAGE,CONSTRUCTION TYPE,HOUSING TYPE,HCIDLA FUNDED,LEVERAGE,TAX EXEMPT CONDUIT BOND,TDC,PHOTO,JOBS,DEVELOPER,MANAGEMENT COMPANY,CONTACT PHONE,LONGITUDE,LATITUDE,GPS_COORDS,Zip Codes,Census Tracts,Precinct Boundaries,LA Specific Plans,Council Districts,Neighborhood Councils (Certified)
6065010054,05-117193,LEEWARD APTS. (SITE 13),10648 S CENTRAL AVE CA 90002,13,WATTS,15,READY FOR OCCUPANCY,REHAB,FAMILY,0.00,7103994.00,10208936.00,17312930.00,http://hcidapp.lacity.org/mpphotos/ImageNotAvailable.png,,"HAMPSTEAD PARTNERS, INC.","ALPHA PROPERTY MANAGEMENT, INC.",(323) 231-4174,-118.25394,33.93916,"(33.93916, -118.25394)",22351,817,1182,7,15,40
5114014020,14-121652,FLORENCE MILLS (SITE 5),"1037 E MARTIN LUTHER KING, JR BLVD CA 90011",5,CENTRAL,9,UNDERCONSTRUCTION,NEW CONSTRUCTION,SPECIAL NEEDS,9389115.63,35861422.00,0.00,45250537.63,http://hcidapp.lacity.org/mpphotos/ImageNotAvailable.png,226,Hollywood Community Housing Corporation,BARKER MANAGEMENT INCORPORATED,(714) 533-3450,-118.25748,34.01115,"(34.01115, -118.25748)",22727,712,892,7,13,6
6065001052,60059,IMANI FE EAST & WEST,10424 S CENTRAL AVE 1-49 CA 90002,1,WATTS,15,READY FOR OCCUPANCY,NEW CONSTRUCTION,FAMILY,6001178.00,31661768.00,0.00,37662946.00,http://hcidapp.lacity.org/mpphotos/060059/Photo/Website/CD_8_-_Imani_Fe_West.png,242,Grant Housing & Econ Dev Corp,AEGON ASSET MANAGEMENT,N/A,-118.25393,33.94133,"(33.94133, -118.25393)",22351,817,1182,7,15,40
5077027011,06-117195,CONCORD APARTMENTS (GRP. A & B) (SITE 5),2674 W JAMES M. WOOD BLVD CA 90006,5,WILSHIRE CENTER,1,READY FOR OCCUPANCY,REHAB,FAMILY,0.00,7334438.00,8579256.00,15913694.00,http://hcidapp.lacity.org/mpphotos/ImageNotAvailable.png,,"1755 EFM 2, LLC","ALPHA PROPERTY MANAGEMENT, INC.",(323) 231-4174,-118.28622,34.05575,"(34.05575, -118.28622)",22723,599,1292,,11,63
5037025018,14-121612,KING 1101,"1107 W MARTIN LUTHER KING, JR BLVD CA 90037",1,EXPOSITION PARK,8,READY FOR OCCUPANCY,NEW CONSTRUCTION,SPECIAL NEEDS,3930000.00,11730808.00,0.00,15660808.00,http://hcidapp.lacity.org/mpphotos/ImageNotAvailable.png,85,"Clifford Beers Housing, Inc.","LEVINE MANAGEMENT GROUP, INC",(310) 358-3489,-118.29449,34.01106,"(34.01106, -118.29449)",23668,729,1150,7,14,32
5119011019,13-120909,ROBERTA STEPHENS VILLAS I & II (RECAP) (SITE 2),1113 E 27TH ST CA 90011,2,CENTRAL,9,READY FOR OCCUPANCY,ACQUISITION + REHAB,SENIORS,0.00,3360040.00,1995093.00,5355133.00,http://hcidapp.lacity.org/mpphotos/ImageNotAvailable.png,32,"CP Preservation Housing, LLC",CONCERNED CITIZENS OF SOUTH CENTRAL LOS ANGELES,(323) 846-2500,-118.25507,34.01788,"(34.01788, -118.25507)",22727,708,971,7,13,6
5407024005,10-117558,YALE STREET FAMILY HOUSING,"715-721 YALE ST  Los Angeles, CA 90012",1,CHINATOWN,1,READY FOR OCCUPANCY,NEW CONSTRUCTION,FAMILY,5093531.00,18993842.00,0.00,24087373.00,http://hcidapp.lacity.org/mpphotos/10-117558/Photo/Website/Yale%20Street%20Family.png,199,Affirmed Housing Group,"SOLARI ENTERPRISES, INC",(714) 282-2520,-118.24178,34.06189,"(34.06189, -118.24178)",22728,539,449,,11,28
7417012905,09-117267,DANA STRAND SR. APTS.,410 N HAWAIIAN AVE 1-100 CA 90744,1,WILMINGTON,15,READY FOR OCCUPANCY,NEW CONSTRUCTION,SENIORS,3840000.00,8320832.00,10147212.00,22308044.00,http://hcidapp.lacity.org/mpphotos/09-117267/Photo/Website/danastrand111611_008-.png,236,ROEM DEVELOPMENT CORP.,"FPI MANAGEMENT, INC",(916) 357-5300,-118.27616,33.7736,"(33.7736, -118.27616)",3350,967,1114,,15,15
5154026023,111,HISTORIC BARBIZON HOTEL APTS.,1927 W 6TH ST 1-51 CA 90057,1,WESTLAKE,1,READY FOR OCCUPANCY,REHAB,FAMILY,5009394.00,13935814.00,0.00,18945208.00,http://hcidapp.lacity.org/mpphotos/000111/Photo/Website/CD_1_-_Barbizon_Hotel.png,47,"NEIGHBORHOOD EFFORT,",THE EBERLY COMPANY,(323) 937-6468,-118.27323,34.05898,"(34.05898, -118.27323)",24352,562,836,,11,68
5408018028,50007,YALE TERRACE,716 N YALE ST 1-55 CA 90012,1,CHINATOWN,1,READY FOR OCCUPANCY,NEW CONSTRUCTION,LARGE FAMILY / WAIVER REQUIRED,2133310.00,23154000.00,0.00,25287310.00,http://hcidapp.lacity.org/mpphotos/050007/Photo/Website/CD%201%20-%20Yale%20Terrace%20-%20050007.jpg,184,"ADVANCED DEVELOPMENT & INVESTMENT,",FPI MANAGEMENT INC.,(714) 641-5110,-118.24143,34.06162,"(34.06162, -118.24143)",22728,539,449,,11,28
5072034028,14-121637,ARLINGTON SQUARE,3101 W VENICE BLVD CA 90019,1,VICTORIA PARK,10,READY FOR OCCUPANCY,NEW CONSTRUCTION,SPECIAL NEEDS,3877600.00,14415331.00,0.00,18292931.00,http://hcidapp.lacity.org/mpphotos/14-121637/Photo/Website/150_2872.png,143,A COMMUNITY OF FRIENDS,BARKER MANAGEMENT INC.,(714) 533-3450,-118.31795,34.04375,"(34.04375, -118.31795)",23080,649,899,,12,19
5076018023,15-123418,WESTMORE ELDEN ELMS PH2,1255 S ELDEN AVE CA 90006,1,PICO-UNION,1,UNDERCONSTRUCTION,NEW CONSTRUCTION,FAMILY,0.00,1.00,0.00,1.00,http://hcidapp.lacity.org/mpphotos/ImageNotAvailable.png,,West Hollywood Community Housing Corporation,JOHN STEWART COMPANY,(213) 787-2700,-118.2879,34.04805,"(34.04805, -118.2879)",22723,622,479,,11,8
2639008137,70031,PANORAMA VIEW,9222 N VAN NUYS BLVD 1-89 CA 91402,1,PANORAMA CITY,6,READY FOR OCCUPANCY,REHAB,SENIORS,2175000.00,12467773.00,0.00,14642773.00,http://hcidapp.lacity.org/mpphotos/070031/Photo/Website/CD%207%20-%20Panorama%20View.jpg,75,"JAMBOREE HOUSING CORPORATION,",PRESERVATION PARTNERS MANAGEMENT GROUP,(310) 802-6673,-118.44999,34.23798,"(34.23798, -118.44999)",19730,135,407,,3,59
5123011023,06-117222,WINDWARD APTS (A/B) (SITE 10),710 W 30TH ST CA 90007,10,UNIVERSITY PARK,9,READY FOR OCCUPANCY,REHAB,FAMILY,0.00,7438473.00,4641342.00,12079815.00,http://hcidapp.lacity.org/mpphotos/ImageNotAvailable.png,,1755 EFM 2,"ALPHA PROPERTY MANAGEMENT, INC.",(323) 231-4174,-118.2802,34.02589,"(34.02589, -118.2802)",22724,701,967,7,13,32
5147007020,80058,DOWNTOWN WOMEN'S CENTER,434 S SAN PEDRO ST CA 90013,1,LITTLE TOKYO,14,READY FOR OCCUPANCY,REHAB,SPECIAL NEEDS,4847914.00,20062930.00,0.00,24910844.00,http://hcidapp.lacity.org/mpphotos/080058/Photo/Website/080058.JPG,228,"Downtown Women's Center Housing, LLC",DOWNTOWN WOMEN'S CENTER HOUSING,(213) 680-600,-118.24337,34.04469,"(34.04469, -118.24337)",23074,536,1289,,9,76
6020020027,11-117842,FIGUEROA SENIOR HOUSING,7621 S FIGUEROA ST 1-11 CA 90044,1,VERMONT KNOLLS,8,READY FOR OCCUPANCY,NEW CONSTRUCTION,SENIORS,4650000.00,6013775.00,0.00,10663775.00,http://hcidapp.lacity.org/mpphotos/11-117842/Photo/Website/11-117842.JPG,101,"META HOUSING CORPORATION,","WESTERN SENIORS HOUSING, INC.",(949) 748-8201,-118.28301,33.97012,"(33.97012, -118.28301)",23675,776,1360,7,14,
7423020046,13-118975,BANNING VILLA APARTMENT,"1100 N BANNING BLVD  WILMINGTON, CA 90744",1,WILMINGTON,15,READY FOR OCCUPANCY,REHAB,SENIORS,0.00,10965825.00,10100000.00,21065825.00,http://hcidapp.lacity.org/mpphotos/13-118975/Photo/Website/banning%205.png,108,"Clifford Beers Housing, Inc",PRESERVATION PARTNERS MANAGEMENT GROUP,(310) 802-6675,-118.25813,33.78533,"(33.78533, -118.25813)",3350,961,640,,15,15
5110027025,10113,BROADWAY VILLAGE II,5101 S BROADWAY 1-50 CA 90037,1,SOUTH PARK,9,READY FOR OCCUPANCY,NEW CONSTRUCTION,FAMILY,1987378.00,10017311.00,0.00,12004689.00,http://hcidapp.lacity.org/mpphotos/010113/Photo/Website/CD_9_-_Broadway_Village_II_-_010113[1].png,53,"BEYOND SHELTER HOUSING,","WNC & ASSOCIATES, INC.",(213) 251-2111,-118.27895,33.99634,"(33.99634, -118.27895)",23668,737,988,7,13,
6022020032,06-117222,WINDWARD APTS (A/B) (SITE 15),7512 S SAN PEDRO ST 1-4 CA 90003,15,FLORENCE-FIRESTONE,9,READY FOR OCCUPANCY,REHAB,FAMILY,0.00,7438473.00,4641342.00,12079815.00,http://hcidapp.lacity.org/mpphotos/ImageNotAvailable.png,,1755 EFM 2,"ALPHA PROPERTY MANAGEMENT, INC.",(323) 231-4174,-118.26936,33.97167,"(33.97167, -118.26936)",22352,790,998,7,13,46
5110025032,10-117556,SUNRISE APARTMENTS,5125 S MAIN ST 1-46 CA 90037,1,SOUTH PARK,9,READY FOR OCCUPANCY,NEW CONSTRUCTION,SENIORS,2202568.00,11040406.00,0.00,13242974.00,http://hcidapp.lacity.org/mpphotos/10-117556/Photo/Website/10-117556.JPG,91,"AMCAL Multi-Housing, Inc(App)",THE JOHN STEWART COMPANY,(213) 787-2710,-118.27429,33.99607,"(33.99607, -118.27429)",23668,737,988,7,13,
5019025048,15-122043,GILBERT LINDSAY RECAP,601 W 40TH PL CA 90037,1,WEST VERNON,9,UNDERCONSTRUCTION,ACQUISITION + REHAB,FAMILY,0.00,29918923.20,21428225.00,51347148.20,http://hcidapp.lacity.org/mpphotos/ImageNotAvailable.png,,THOMAS SAFRAN & ASSOCIATES,THOMAS SAFRAN & ASSOCIATES,N/A,-118.28422,34.01097,"(34.01097, -118.28422)",23668,735,977,7,13,2
5149010949,18-124964,GRAND AVENUE PARCEL Q APTS.,100 S GRAND AVE CA 90012,1,DOWNTOWN,14,UNDERCONSTRUCTION,DEMO/NEW CONSTRUCTION,FAMILY,0.00,0.00,415000000.00,415000000.00,http://hcidapp.lacity.org/mpphotos/ImageNotAvailable.png,,"Grand Avenue Parcel Q Developer, LLC",N/A,N/A,-118.24805,34.0549,"(34.0549, -118.24805)",22728,543,1183,37,9,76
5445007903,11-117797,TAYLOR YARD APARTMENTS,"1311 N SAN FERNANDO RD  Los Angeles, CA 90065",1,MT. WASHINGTON,1,READY FOR OCCUPANCY,NEW CONSTRUCTION,FAMILY,6199789.00,11514000.00,3500000.00,21213789.00,http://hcidapp.lacity.org/mpphotos/11-117797/Photo/Website/11-117797.jpg,205,"MCCORMACK BARON & ASSOCIATES,",MCCORMACK BARON RAGAN MANAGEMENT,(213) 236-2694,-118.23059,34.09422,"(34.09422, -118.23059)",24030,392,1430,,11,94
6132024034,80008,MAYA TOWNHOMES,306 W 120TH ST CA 90061,1,CENTURY PALMS/COVE,15,READY FOR OCCUPANCY,NEW CONSTRUCTION,FAMILY,2055350.00,7237394.00,0.00,9292744.00,http://hcidapp.lacity.org/mpphotos/080008/Photo/Website/maya12005broadwa_010-.png,83,"LEELA ENTERPRISES,",ABHAY GOKANI CORPORATION,(323) 465-6611,-118.27847,33.92348,"(33.92348, -118.27847)",24355,816,719,7,15,53
5156018011,20093,ST. ANNE'S TRANSITIONAL HOUSING,155 N OCCIDENTAL BLVD CA 90026,1,HISTORIC FILIPINOTOWN,13,READY FOR OCCUPANCY,NEW CONSTRUCTION,SPECIAL NEEDS,2000000.00,8758249.00,0.00,10758249.00,http://hcidapp.lacity.org/mpphotos/020093/Photo/Website/CD_13_-_St._Anne's_Transitional%202.png,65,"ST. ANNE'S TRANSITIONAL HOUSING,",ST. ANNE'S TRANSITIONAL HOUSING,(213) 381-2931,-118.27993,34.07238,"(34.07238, -118.27993)",23444,555,941,,8,80
6038010026,15-122499,88TH & VERMONT,8730 S VERMONT AVE CA 90044,1,VERMONT VISTA,8,UNDERCONSTRUCTION,NEW CONSTRUCTION,SPECIAL NEEDS,11580000.00,0.00,0.00,11580000.00,http://hcidapp.lacity.org/mpphotos/15-122499/Photo/Website/88th%20vermont%2012-20-16.JPG,304,"Women Organizing Resources, Knowledge and Services","SOLARI ENTERPRISES, INC.",(714) 282-2520,-118.29137,33.9583,"(33.9583, -118.29137)",23675,801,1164,7,14,45
5547006014,15-122495,HCHC RECAP I (SITE 3),"6501 W YUCCA ST  HOLLYWOOD, CA 90028",3,HOLLYWOOD,13,READY FOR OCCUPANCY,ACQUISITION + REHAB,FAMILY,0.00,7026512.00,1126600.00,8153112.00,http://hcidapp.lacity.org/mpphotos/ImageNotAvailable.png,57,"HOLLYWOOD COMMUNITY HOUSING CORP.,",BARKER MANAGEMENT INC.,(714) 533-3450,-118.33134,34.10413,"(34.10413, -118.33134)",23446,415,334,,8,82
5119001028,40072,CENTRAL VILLAGE APTS.,1315 E 21ST ST 201-221 CA 90011,1,CENTRAL,9,READY FOR OCCUPANCY,NEW CONSTRUCTION,FAMILY,2762655.00,21148534.00,2570000.00,26481189.00,http://hcidapp.lacity.org/mpphotos/040072/Photo/Website/CD%209%20-%20Central%20Village.JPG,162,"BEYOND SHELTER HDC,(App)","SOLARI ENTERPRISES, INC.",(714) 282-2520,-118.25191,34.02228,"(34.02228, -118.25191)",22727,707,969,7,13,6
5159005023,60066,"MEDITERRANEAN, THE / AKA THE MINDANAO","1800-1812 W TEMPLE ST  Los Angeles, CA 90026",1,HISTORIC FILIPINOTOWN,13,READY FOR OCCUPANCY,NEW CONSTRUCTION,LARGE FAMILY / WAIVER REQUIRED,2559552.00,10813200.00,0.00,13372752.00,"http://hcidapp.lacity.org/mpphotos/060066/Photo/Website/CD_1_-_Mediterranean,_The__-_060066.png",56,"SADI, LLC",FPI MANAGEMENT INC.,(714) 641-5110,-118.2651,34.06909,"(34.06909, -118.2651)",23444,552,930,,8,31
5503024004,14-121119,LDK SENIOR APARTMENTS (SITE 2),540 S KINGSLEY DR CA 90020,2,KOREATOWN,10,READY FOR OCCUPANCY,NEW CONSTRUCTION,SENIORS,7687337.00,17414515.00,212000.00,25313852.00,http://hcidapp.lacity.org/mpphotos/14-121119/Photo/Website%20Site2/LDK%20540%20Kingley.png,199,"LTSC COMMUNITY DEVELOPMENT CORP,","LEVINE MANAGEMENT GROUP, INC.",(310) 358-3489,-118.30266,34.06409,"(34.06409, -118.30266)",23081,591,1261,,12,89
5538017028,07-117233,HDR I & II (SITE 6),811 N HELIOTROPE DR CA 90029,6,EAST HOLLYWOOD,13,READY FOR OCCUPANCY,REHAB,FAMILY,0.00,8116043.00,6787000.00,14903043.00,http://hcidapp.lacity.org/mpphotos/ImageNotAvailable.png,,"Spruce DEV LA, LLC",PK MANAGEMENT,(818) 808-0600,-118.29512,34.08628,"(34.08628, -118.29512)",23447,437,730,16,8,58
5073007020,70035,ST. ANDREWS,1511 S ST ANDREWS PL 1-43 CA 90019,1,HARVARD HEIGHTS,10,READY FOR OCCUPANCY,REHAB,FAMILY,1075000.00,7554360.00,0.00,8629360.00,http://hcidapp.lacity.org/mpphotos/070035/Photo/Website/CD%2010%20-%20St.%20Andrews%20-%20070035.png,39,"JAMBOREE HOUSING CORPORATION,",PRESERVATION PARTNERS MANAGEMENT GROUP,(310) 802-6673,-118.31188,34.04492,"(34.04492, -118.31188)",23080,676,897,,12,19
5124024011,15-122656,ST. JAMES PARK (SITE 2),"34 ST JAMES PARK  Los Angeles, CA 90007",2,UNIVERSITY PARK,1,READY FOR OCCUPANCY,ACQUISITION + REHAB,FAMILY,0.00,27481703.00,9879228.00,37360931.00,http://hcidapp.lacity.org/mpphotos/ImageNotAvailable.png,,Retirement Housing Foundation,"FOUNDATION PROPERTY MANAGEMENT, INC.",(213) 746-9548,-118.28053,34.03121,"(34.03121, -118.28053)",22724,699,444,7,11,32
5474023016,70171,TRES LOMAS GARDEN APTS.,4343 N TOLAND WAY CA 90041,1,GLASSELL PARK,1,READY FOR OCCUPANCY,ACQUISITION + REHAB,SENIORS,2225251.00,4586754.00,562729.00,7374734.00,http://hcidapp.lacity.org/mpphotos/070171/Photo/Website/CD%2014%20-%20Tres%20Lomas%20-%20070171.JPG,24,National Community Renaissance of California,NATIONAL COMMUNITY RENAISSANCE OF CALIFORNIA,(909) 483-2444,-118.22122,34.12175,"(34.12175, -118.22122)",23672,383,1433,,11,60
5080024024,40006,HARVARD HEIGHTS,950-960 1/2 S HARVARD BLVD CA 90006,1,KOREATOWN,10,READY FOR OCCUPANCY,NEW CONSTRUCTION,LARGE FAMILY / WAIVER REQUIRED,3405164.00,8458700.00,0.00,11863864.00,http://hcidapp.lacity.org/mpphotos/040006/Photo/Website/CD%2010%20-%20Harvard%20Heights.png,75,"AMERICAN COMMUNITIES, LLC",THE JOHN STEWART COMPANY,(213) 388-2722 x1149,-118.30404,34.05407,"(34.05407, -118.30404)",22723,617,646,,12,89
2103021053,16-123141,VIVIENDAS DEL VALLE (RECAP) (SITE 2),7939 N RESEDA BLVD CA 91335,2,RESEDA,12,READY FOR OCCUPANCY,ACQUISITION + REHAB,FAMILY,0.00,13824218.00,7875467.00,21699685.00,http://hcidapp.lacity.org/mpphotos/ImageNotAvailable.png,,Abode Communities,ABODE COMMUNITIES,(213) 225-2780,-118.53627,34.21475,"(34.21475, -118.53627)",18909,249,274,,2,12
6006006026,30157,MAIN STREET VISTAS,"5950 Main ST  Los Angeles, CA 90003",1,FLORENCE-FIRESTONE,9,READY FOR OCCUPANCY,NEW CONSTRUCTION,FAMILY,2444000.00,12079680.00,0.00,14523680.00,http://hcidapp.lacity.org/mpphotos/030157/Photo/Website/CD%209%20-%20Main%20St.%20Vistas.jpg,92,"MAIN STREET VISTAS,","MONROE GROUP LTD., PROFESSIONAL PROPERTY MANAGEMENT",(303) 322-8888,-118.27346,33.98525,"(33.98525, -118.27346)",22352,786,858,7,13,46
2218021034,11-118659,FICKETT TOWERS,"14801 W SHERMAN WAY  VAN NUYS, CA 91405",1,VAN NUYS,6,READY FOR OCCUPANCY,ACQUISITION + REHAB,SENIORS,0.00,5648228.00,15500000.00,21148228.00,http://hcidapp.lacity.org/mpphotos/11-118659/Photo/Website/Fickett.png,,"Camino Mercado Partners, L.P.",EDGEWOOD MANAGEMENT CORPORATION,(301) 562-1600,-118.45574,34.2014,"(34.2014, -118.45574)",19733,219,1324,,3,18
5191012020,12-118877,BESWICK SENIOR APARTMENTS,3553 E BESWICK ST CA 90023,1,BOYLE HEIGHTS,14,READY FOR OCCUPANCY,NEW CONSTRUCTION,SENIORS,2374632.00,9212897.00,0.00,11587529.00,http://hcidapp.lacity.org/mpphotos/12-118877/Photo/Website/beswick%20sr%20png.png,93,East LA Community Corporation,THE JOHN STEWART COMPANY,(213) 787-2700,-118.19931,34.02223,"(34.02223, -118.19931)",23441,528,1269,,9,38
5535012015,13-119154,HOLLYWOODLAND (SITE 5),5169 W MARATHON ST CA 90038,5,MELROSE,13,READY FOR OCCUPANCY,ACQUISITION + REHAB,SENIORS,0.00,7946357.00,10500000.00,18446357.00,http://hcidapp.lacity.org/mpphotos/ImageNotAvailable.png,53,Steele Properties LLC,"MONROE GROUP, LRD",(303) 322-8888,-118.31084,34.085,"(34.085, -118.31084)",23669,440,521,,8,57
6012009902,18-124723,RESIDENCES ON MAIN,6901 S MAIN ST CA 90003,1,FLORENCE-FIRESTONE,9,UNDERCONSTRUCTION,NEW CONSTRUCTION,SPECIAL NEEDS,21560000.00,1041000.00,0.00,22601000.00,http://hcidapp.lacity.org/mpphotos/18-124723/Photo/Website/Res.%20on%20main.JPG,,"Residences on Main, L.P.",THE JOHN STEWART COMPANY,(213) 878-2700,-118.27415,33.9772,"(33.9772, -118.27415)",22352,787,995,7,13,46
5544022059,30272,VIEWS AT 270,"5445 W SUNSET BLVD  HOLLYWOOD, CA 90027",1,HOLLYWOOD,13,READY FOR OCCUPANCY,NEW CONSTRUCTION,LARGE FAMILY / WAIVER REQUIRED,900000.00,23557005.00,1685900.00,26142905.00,http://hcidapp.lacity.org/mpphotos/030272/Photo/Website/CD%2013%20-%20Views%20@%20270.jpg,146,"HOLLYWOOD COMMUNITY HOUSING CORP.,",BARKER MANAGEMENT INC,(714) 533-3450,-118.30902,34.09876,"(34.09876, -118.30902)",23445,420,555,16,8,58
5157020019,30159,INGRAM PRESERVATION,234 N LAKE ST 1-14 CA 90026,1,HISTORIC FILIPINOTOWN,13,READY FOR OCCUPANCY,REHAB,LARGE FAMILY / WAIVER REQUIRED,4900000.00,6637761.00,2790000.00,14327761.00,http://hcidapp.lacity.org/mpphotos/030159/Photo/Website/IngramPres_Lake.png,21,"W.O.R.K.S.,","SOLARI ENTERPRISES, INC.",(714) 282-2520,-118.26989,34.06912,"(34.06912, -118.26989)",23444,553,838,,8,31
2537001032,10-117638,OSBORNE PLACE APARTMENTS,"12230-12232 W Osborne PL  Los Angeles, CA 91331",1,PACOIMA,7,READY FOR OCCUPANCY,NEW CONSTRUCTION,SPECIAL NEEDS,816074.00,27660460.00,0.00,28476534.00,http://hcidapp.lacity.org/mpphotos/10-117638/Photo/Website/10-117638%20.JPG,266,"A COMMUNITY OF FRIENDS,","BARKER MANAGEMENT, INC.",(213) 725-2897,-118.39991,34.26094,"(34.26094, -118.39991)",18907,32,330,,1,11
5037015030,15-122535,ROLLAND CURTIS EAST,"1077 W 38TH ST  LOS ANGELES, CA 90037",1,EXPOSITION PARK,8,READY FOR OCCUPANCY,NEW CONSTRUCTION,FAMILY,1000000.00,0.00,0.00,1000000.00,http://hcidapp.lacity.org/mpphotos/15-122535/Photo/Website/028.JPG,283,Abode Communities,ABODE COMMUNITIES,(213) 629-2702,-118.2942,34.01803,"(34.01803, -118.2942)",23668,729,1150,7,14,32
5535002026,40067,ROYALS APARTMENTS (SITE 2),772 N VAN NESS AVE CA 90038,2,MELROSE,13,READY FOR OCCUPANCY,REHAB,FAMILY,1100000.00,13039479.00,0.00,14139479.00,http://hcidapp.lacity.org/mpphotos/040067/Photo/Website%20Site2/royalsvanness772vannes315072of6(PNG).png,49,"Preservation Partners Management Group, Inc.",PRESERVATION PARTNERS MANAGEMENT GROUP,(310) 802-6673,-118.31559,34.08514,"(34.08514, -118.31559)",23669,440,928,,8,57
5147029002,20277,NEW TERMINAL HOTEL,901 E 7TH ST CA 90021,1,WHOLESALE DISTRICT,14,READY FOR OCCUPANCY,REHAB,SPECIAL NEEDS,2115000.00,3342950.00,0.00,5457950.00,http://hcidapp.lacity.org/mpphotos/020277/Photo/Website/CD_14_-_New_Terminal[1].png,27,SRO Housing Corp,SRO HOUSING CORPORATION,(213) 229-9641,-118.24415,34.03904,"(34.03904, -118.24415)",23082,537,1018,,9,76
7449014020,70170,TOBERMAN VILLAGE / AKA VISTA ALEGRE,"142 W SANTA CRUZ ST 1-49  SAN PEDRO, CA 90731",1,SAN PEDRO,15,READY FOR OCCUPANCY,N/A,N/A,4875640.00,10632391.00,1162445.00,16670476.00,http://hcidapp.lacity.org/mpphotos/070170/Photo/Website/toberman92711_006-.png,144,"NEW ECONOMICS FOR WOMEN,",N/A,N/A,-118.28107,33.74429,"(33.74429, -118.28107)",3342,969,1310,,15,36
5544020011,14-121714,CORONEL APARTMENTS (SITE 3),1606 N SERRANO AVE CA 90027,3,THAI TOWN,13,READY FOR OCCUPANCY,BOTH REHAB AND NEW CONSTRUCTION,FAMILY,0.00,29452609.00,0.00,29452609.00,http://hcidapp.lacity.org/mpphotos/ImageNotAvailable.png,172,Hollywood Community Housing Corporation,BARKER MANAGEMENT INCORPORATED,(714) 533-3450,-118.30696,34.10009,"(34.10009, -118.30696)",23445,421,555,16,8,58
5050011006,06-117222,WINDWARD APTS (A/B) (SITE 5),2815 S WEST BLVD CA 90016,5,CRENSHAW DISTRICT,10,READY FOR OCCUPANCY,REHAB,FAMILY,0.00,7438473.00,4641342.00,12079815.00,http://hcidapp.lacity.org/mpphotos/ImageNotAvailable.png,,1755 EFM 2,"ALPHA PROPERTY MANAGEMENT, INC.",(323) 231-4174,-118.34182,34.03056,"(34.03056, -118.34182)",23077,668,925,7,12,17
5058023044,06-117222,WINDWARD APTS (A/B) (SITE 20),2210 S LA SALLE AVE CA 90018,20,WEST ADAMS,8,READY FOR OCCUPANCY,REHAB,FAMILY,0.00,7438473.00,4641342.00,12079815.00,http://hcidapp.lacity.org/mpphotos/ImageNotAvailable.png,,1755 EFM 2,"ALPHA PROPERTY MANAGEMENT, INC.",(323) 231-4174,-118.30564,34.03599,"(34.03599, -118.30564)",23079,679,643,7,14,32
6032019034,14-121272,MARTHA BRYANT MANOR- RECAP,8300 S HOOVER ST CA 90044,1,VERMONT VISTA,8,READY FOR OCCUPANCY,ACQUISITION + REHAB,FAMILY,0.00,7558174.00,4410000.00,11968174.00,http://hcidapp.lacity.org/mpphotos/ImageNotAvailable.png,,"BARKER MANAGEMENT, INC.","LEVINE MANAGEMENT GROUP, INC.",(310) 358-3489,-118.28691,33.96297,"(33.96297, -118.28691)",23675,783,1005,7,14,45
5180002014,14-121648,CIELITO LINDO (1ST AND SOTO APTS I),2419 E 1ST ST CA 90033,1,BOYLE HEIGHTS,14,READY FOR OCCUPANCY,NEW CONSTRUCTION,FAMILY,959600.00,22124054.00,0.00,23083654.00,http://hcidapp.lacity.org/mpphotos/14-121648/Photo/Website/150_2831.png,203,East LA Community Corporation,THE JOHN STEWART COMPANY,(213) 787-2700,-118.20894,34.04349,"(34.04349, -118.20894)",23450,519,945,,9,38
2654021043,80003,COLUMBUS SQUARE,8557 N COLUMBUS AVE CA 91343,1,NORTH HILLS,6,READY FOR OCCUPANCY,REHAB,SENIORS,2350000.00,9475459.00,0.00,11825459.00,http://hcidapp.lacity.org/mpphotos/080003/Photo/Website/CD%207%20-%20Columbus%20Square.jpg,51,Columbus Preservation Limited Partnership,PRESERVATION PARTNERS MANAGEMENT GROUP,(310) 802-6673,-118.46566,34.22663,"(34.22663, -118.46566)",18914,127,420,,3,73
5154032016,07-117236,MACARTHUR PARK TOWER,450 S GRAND VIEW ST CA 90057,1,WESTLAKE,1,READY FOR OCCUPANCY,ACQUISITION + REHAB,SENIORS,0.00,21975257.00,7387654.00,29362911.00,http://hcidapp.lacity.org/mpphotos/07-117236/Photo/Website/BONDS%20MacArthur%20Park%20Tower%20(wide%20shot).png,,Retirement Housing Foundation,"FOUNDATION PROPERTY MANAGEMENT, INC.",(562) 257-5100,-118.27603,34.0617,"(34.0617, -118.27603)",24352,559,690,,11,63
5015013017,70172,TWO WORLD APARTMENTS (SITE 4),4807 S GRAMERCY PL CA 90062,4,WEST VERNON,8,READY FOR OCCUPANCY,REHAB,SENIORS,3225000.00,17094146.00,0.00,20319146.00,http://hcidapp.lacity.org/mpphotos/070172/Photo/Website%20Site4/Two%20Worlds%20%204807%20Gramercy%20Pl.%20-%20070172.png,99,"TWO WORLDS PRESERVATION LIMITED PARTNERSHIP,",N/A,N/A,-118.31397,33.9997,"(33.9997, -118.31397)",24027,742,1043,7,14,35
5429008030,20290,LAGUNA SENIOR APTS.,4201 W SUNSET BLVD CA 90029,1,SILVERLAKE,13,READY FOR OCCUPANCY,NEW CONSTRUCTION,SENIORS,2310000.00,10951074.00,1850000.00,15111074.00,http://hcidapp.lacity.org/mpphotos/020290/Photo/Website/Laguna_sunset.jpg,95,"PROJECT NEW HOPE,(App)",TELACU RESIDENTIAL MANAGEMENT,(323) 838-8556,-118.28204,34.09421,"(34.09421, -118.28204)",23447,467,620,,8,90
6020001037,16-123326,FLORENCE MOREHOUSE,910 W FLORENCE AVE 1-20 CA 90044,1,VERMONT KNOLLS,8,UNDERCONSTRUCTION,ACQUISITION + REHAB,FAMILY,3014663.00,12913795.00,1377000.00,17305458.00,http://hcidapp.lacity.org/mpphotos/ImageNotAvailable.png,,Century Affordable Development Inc,N/A,N/A,-118.28967,33.9744,"(33.9744, -118.28967)",23675,775,979,7,14,
5546020005,40011,AFTON PLACE,6231 AFTON PL CA 90028,1,HOLLYWOOD,13,READY FOR OCCUPANCY,ACQUISITION + REHAB,SENIORS,1732830.00,5188563.00,1830000.00,8751393.00,http://hcidapp.lacity.org/mpphotos/040011/Photo/Website/CD%2013%20-%20Afton%20Place.JPG,15,"AFTON PLACE SENIOR APARTMENTS, L.P.","LEVINE MANAGEMENT GROUP, INC",(310) 358-3489,-118.32507,34.09517,"(34.09517, -118.32507)",23446,423,539,,8,34
2536015225,50033,OSBORNE FAMILY,12360 W OSBORNE ST 1-2 CA 91331,1,PACOIMA,7,READY FOR OCCUPANCY,NEW CONSTRUCTION,LARGE FAMILY / WAIVER REQUIRED,2754000.00,14999914.00,0.00,17753914.00,http://hcidapp.lacity.org/mpphotos/050033/Photo/Website/CD_7_-_Osborne_Family_Apts..png,107,"DECRO CORPORATION,",FPI MANAGEMENT,(714) 641-5110,-118.40216,34.26199,"(34.26199, -118.40216)",18907,33,330,,1,11
5053006050,11-118593,JEFFERSON PARK TERRACE,3023 S WESTERN AVE CA 90018,1,EXPOSITION PARK,10,READY FOR OCCUPANCY,DEMO/NEW CONSTRUCTION,FAMILY,0.00,17162642.00,0.00,17162642.00,http://hcidapp.lacity.org/mpphotos/11-118593/Photo/Website/jeffersonparkterrace42314_004.png,154,MERCY HOUSING CALIFORNIA 56,MERCY HOUSING MANAGEMENT GROUP (MHM),(303) 830-3300,-118.30906,34.02708,"(34.02708, -118.30906)",23079,686,919,7,12,19
2239015008,16-123141,VIVIENDAS DEL VALLE (RECAP),"14045 W OXNARD ST  VAN NUYS, CA 91401",1,VAN NUYS,2,READY FOR OCCUPANCY,ACQUISITION + REHAB,FAMILY,0.00,13824218.00,7875467.00,21699685.00,http://hcidapp.lacity.org/mpphotos/16-123141/Photo/Website/Viviendas%20del%20Valle.JPG,,Abode Communities,ABODE COMMUNITIES,(213) 225-2780,-118.43917,34.17953,"(34.17953, -118.43917)",19729,243,510,,5,70
4233023025,13-119321,PATH VILLAS AT DEL REY-DOGTOWNSTATION (COURTLEIGH),11738 W COURTLEIGH DR 1-23 CA 90066,1,DEL REY,11,READY FOR OCCUPANCY,NEW CONSTRUCTION,SPECIAL NEEDS,270000.00,0.00,0.00,270000.00,http://hcidapp.lacity.org/mpphotos/ImageNotAvailable.png,63,PATH Ventures,THE JOHN STEWART COMPANY,(213) 787-2700,-118.4175,33.99872,"(33.99872, -118.4175)",24031,918,356,10,10,85
5055027031,07-117233,HDR I & II (SITE 5),2714 S ORCHARD AVE CA 90007,5,UNIVERSITY PARK,9,READY FOR OCCUPANCY,REHAB,FAMILY,0.00,8116043.00,6787000.00,14903043.00,http://hcidapp.lacity.org/mpphotos/ImageNotAvailable.png,,"Spruce DEV LA, LLC",PK MANAGEMENT,(818) 808-0600,-118.2873,34.02976,"(34.02976, -118.2873)",22724,684,976,7,13,32
5183005052,09-117211,LAS MARGARITAS,137 N SOTO ST 1-20 CA 90033,1,BOYLE HEIGHTS,14,READY FOR OCCUPANCY,BOTH REHAB AND NEW CONSTRUCTION,FAMILY,559761.00,14135658.00,0.00,14695419.00,http://hcidapp.lacity.org/mpphotos/09-117211/Photo/Website/Las_Margaritas_137_Soto.png,121,East L.A. Community Corporation,THE JOHN STEWART COMPANY,(213) 878-2716,-118.20946,34.04486,"(34.04486, -118.20946)",23450,522,350,,9,38
5533017010,11-118677,STEP UP ON VINE,1057 N VINE ST CA 90038,1,MELROSE,13,READY FOR OCCUPANCY,REHAB,SPECIAL NEEDS,334951.00,14811113.00,0.00,15146064.00,http://hcidapp.lacity.org/mpphotos/11-118677/Photo/Website/11-118677.JPG,113,Hollywood Community Housing Corporation,BARKER MANAGEMENT INCORPORATED,(714) 533-3450,-118.32678,34.09019,"(34.09019, -118.32678)",23669,442,535,,8,34
6040026034,05-117193,LEEWARD APTS.,230 W 88TH PL 1-12 CA 90003,1,VERMONT VISTA,8,READY FOR OCCUPANCY,REHAB,FAMILY,0.00,7103994.00,10208936.00,17312930.00,http://hcidapp.lacity.org/mpphotos/ImageNotAvailable.png,,"HAMPSTEAD PARTNERS, INC.","ALPHA PROPERTY MANAGEMENT, INC.",(323) 231-4174,-118.27724,33.95635,"(33.95635, -118.27724)",22352,800,358,7,14,45
5534015016,13-119154,HOLLYWOODLAND,"1206 N GOWER ST  HOLLYWOOD, CA 90038",1,HOLLYWOOD,13,READY FOR OCCUPANCY,ACQUISITION + REHAB,SENIORS,0.00,7946357.00,10500000.00,18446357.00,http://hcidapp.lacity.org/mpphotos/ImageNotAvailable.png,53,Steele Properties LLC,"MONROE GROUP, LRD",(303) 322-8888,-118.32213,34.09281,"(34.09281, -118.32213)",23669,426,539,,8,57
6022009004,05-117217,LEXINGTON APARTMENTS A/B (SITE 7),7219 S SAN PEDRO ST CA 90003,7,FLORENCE-FIRESTONE,9,READY FOR OCCUPANCY,REHAB,FAMILY,0.00,6771719.00,10247566.00,17019285.00,http://hcidapp.lacity.org/mpphotos/ImageNotAvailable.png,,"1755 EFM 2, LLC","ALPHA PROPERTY MANAGEMENT, INC.",(323) 231-4174,-118.26973,33.97405,"(33.97405, -118.26973)",22352,792,998,7,13,46
5408029005,10-117999,CHINATOWN METRO APARTMENTS,808 N NORTH SPRING ST CA 90012,1,CHINATOWN,1,READY FOR OCCUPANCY,BOTH REHAB AND NEW CONSTRUCTION,SENIORS,12600000.00,28500009.00,3810000.00,44910009.00,http://hcidapp.lacity.org/mpphotos/10-117999/Photo/Website/Chinatown%20Metro.JPG,322,META HOUSING CORPORATION,"WESTERN SENIORS HOUSING, INC.",(949) 748-8201,-118.23638,34.0622,"(34.0622, -118.23638)",22728,540,449,,11,28
5073024026,30159,INGRAM PRESERVATION (SITE 5),1809 S VAN NESS AVE 1-16 CA 90019,5,HARVARD HEIGHTS,10,READY FOR OCCUPANCY,REHAB,LARGE FAMILY / WAIVER REQUIRED,4900000.00,6637761.00,2790000.00,14327761.00,http://hcidapp.lacity.org/mpphotos/030159/Photo/Website%20Site5/IngramPres_VanNess.png,21,"W.O.R.K.S.,","SOLARI ENTERPRISES, INC.",(714) 282-2520,-118.31657,34.04119,"(34.04119, -118.31657)",23080,674,898,,12,19
5426016003,80057,VENDOME PALMS,975 N VENDOME ST 1-36 CA 90026,1,TEMPLE-BEAUDRY,13,READY FOR OCCUPANCY,REHAB,SPECIAL NEEDS,2832750.00,11031113.00,0.00,13863863.00,http://hcidapp.lacity.org/mpphotos/080057/Photo/Website/Vendome-Palms_overs-639x312.png,75,"A COMMUNITY OF FRIENDS,",BARKER MANAGEMENT INCORPORATED,(213) 822-6662,-118.27465,34.08417,"(34.08417, -118.27465)",23444,473,1297,,8,90
5538002039,07-118437,MARIPOSA PLACE,5030 W SANTA MONICA BLVD CA 90029,1,EAST HOLLYWOOD,13,READY FOR OCCUPANCY,NEW CONSTRUCTION,FAMILY,0.00,0.00,0.00,0.00,http://hcidapp.lacity.org/mpphotos/ImageNotAvailable.png,,N/A,BARKER MANAGEMENT INCORPORATED,(714) 533-3450,-118.29871,34.09059,"(34.09059, -118.29871)",23447,437,730,,8,58
2654011022,70046,RAYEN APARTMENTS,15320 W RAYEN ST 1-49 CA 91343,1,NORTH HILLS,6,READY FOR OCCUPANCY,NEW CONSTRUCTION,SPECIAL NEEDS,4547648.00,10522216.00,0.00,15069864.00,http://hcidapp.lacity.org/mpphotos/070046/Photo/Website/Rayen%20Apts.JPG,122,"A COMMUNITY OF FRIENDS,","BARKER MANAGEMENT, INC.",(213) 725-2897,-118.4668,34.23179,"(34.23179, -118.4668)",18914,126,420,,3,73
5110016027,18-125037,BROADWAY APARTMENTS,301 W 49TH ST 1-30 CA 90037,1,SOUTH PARK,9,UNDERCONSTRUCTION,REHAB,SPECIAL NEEDS,4443480.00,0.00,0.00,4443480.00,http://hcidapp.lacity.org/mpphotos/ImageNotAvailable.png,,Figueroa Economical Housing Development Corporation,"STEP UP ON SECOND, INC.",(310) 576-1308,-118.27853,33.99874,"(33.99874, -118.27853)",23668,737,655,7,13,
5545014044,13-119154,HOLLYWOODLAND (SITE 6),"1438 N GORDON ST  HOLLYWOOD, CA 90028",6,HOLLYWOOD,13,READY FOR OCCUPANCY,ACQUISITION + REHAB,SENIORS,0.00,7946357.00,10500000.00,18446357.00,http://hcidapp.lacity.org/mpphotos/ImageNotAvailable.png,53,Steele Properties LLC,"MONROE GROUP, LRD",(303) 322-8888,-118.31997,34.09674,"(34.09674, -118.31997)",23446,426,539,,8,57
5147034016,15-121799,SKID ROW SOUTHEAST 1 RECAP,1201 E 7TH ST CA 90021,1,WHOLESALE DISTRICT,14,READY FOR OCCUPANCY,ACQUISITION + REHAB,SPECIAL NEEDS,0.00,13103064.00,0.00,13103064.00,http://hcidapp.lacity.org/mpphotos/ImageNotAvailable.png,,SRHT Property Holding Company LLC,SKID ROW PROPERTY MANAGEMENT COMPANY,(213) 683-0522 x127,-118.24198,34.03775,"(34.03775, -118.24198)",23082,537,1018,,9,76
5075037024,80053,PROFESSIONAL HSG. & DEV. APTS. (PH & D) (SITE 4),"1745 W 20th  Los Angeles, CA 90007",4,WEST ADAMS,1,READY FOR OCCUPANCY,REHAB,FAMILY,4575000.00,10250907.00,0.00,14825907.00,http://hcidapp.lacity.org/mpphotos/080053/Photo/Website%20Site4/PH&D%201400%20Kenmore.jpg,45,Gubb and Barshay,LITTLE TOKYO SERVICE CENTER,(213) 434-1645,-118.29587,34.03824,"(34.03824, -118.29587)",22724,681,1282,,11,8
5143024008,10-117625,BIXEL HOUSE APARTMENTS,625 S BIXEL ST CA 90017,1,WESTLAKE,1,READY FOR OCCUPANCY,REHAB,SPECIAL NEEDS,850000.00,10220352.00,0.00,11070352.00,http://hcidapp.lacity.org/mpphotos/10-117625/Photo/Website/Bixel%20House.jpg,64,"Bixel House Apartments, LP","SOLARI ENTERPRISES, INC.",(714) 282-2520,-118.26286,34.05322,"(34.05322, -118.26286)",23078,567,847,54,11,76
5055019031,06-117222,WINDWARD APTS (A/B),2131 S HOOVER ST CA 90007,1,WEST ADAMS,8,READY FOR OCCUPANCY,REHAB,FAMILY,0.00,7438473.00,4641342.00,12079815.00,http://hcidapp.lacity.org/mpphotos/ImageNotAvailable.png,,1755 EFM 2,"ALPHA PROPERTY MANAGEMENT, INC.",(323) 231-4174,-118.28424,34.03613,"(34.03613, -118.28424)",22724,682,963,7,14,32
5545002901,09-117312,THE VILLAS AT GOWER,"1726 N GOWER ST 1-70  HOLLYWOOD, CA 90028",1,HOLLYWOOD,13,READY FOR OCCUPANCY,NEW CONSTRUCTION,SPECIAL NEEDS,1500000.00,29391014.00,0.00,30891014.00,http://hcidapp.lacity.org/mpphotos/09-117312/Photo/Website/09-117312.jpg,267,"A COMMUNITY OF FRIENDS,",THE JOHN STEWART COMPANY,(213) 833-1860,-118.32216,34.10253,"(34.10253, -118.32216)",23446,427,573,,8,64
6053015041,06-117222,WINDWARD APTS (A/B) (SITE 16),111 W 99TH ST 1-4 CA 90003,16,VERMONT VISTA,8,READY FOR OCCUPANCY,REHAB,FAMILY,0.00,7438473.00,4641342.00,12079815.00,http://hcidapp.lacity.org/mpphotos/ImageNotAvailable.png,,1755 EFM 2,"ALPHA PROPERTY MANAGEMENT, INC.",(323) 231-4174,-118.2746,33.94658,"(33.94658, -118.2746)",22352,804,1172,7,14,45
5131006005,14-121613,WASHINGTON 722 TOD,722 E WASHINGTON BLVD CA 90011,1,WHOLESALE DISTRICT,9,READY FOR OCCUPANCY,NEW CONSTRUCTION,FAMILY,2280000.00,23788431.00,0.00,26068431.00,http://hcidapp.lacity.org/mpphotos/14-121613/Photo/Website/P9080222.png,198,Meta Housing Corporation,"SOLARI ENTERPRISES, INC.",(714) 282-2520,-118.25684,34.02712,"(34.02712, -118.25684)",22727,702,972,7,13,6
5131008039,05-117217,LEXINGTON APARTMENTS A/B (SITE 13),1151 E 20TH ST CA 90011,13,WHOLESALE DISTRICT,9,READY FOR OCCUPANCY,REHAB,FAMILY,0.00,6771719.00,10247566.00,17019285.00,http://hcidapp.lacity.org/mpphotos/ImageNotAvailable.png,,"1755 EFM 2, LLC","ALPHA PROPERTY MANAGEMENT, INC.",(323) 231-4174,-118.25312,34.02466,"(34.02466, -118.25312)",22727,702,969,7,13,6
5005030026,14-121638,MIRAGE TOWN HOMES,5221 S WESTERN AVE CA 90062,1,WEST VERNON,8,READY FOR OCCUPANCY,NEW CONSTRUCTION,FAMILY,0.00,6604569.00,0.00,6604569.00,http://hcidapp.lacity.org/mpphotos/ImageNotAvailable.png,57,Leela Enterprises,BUCKINGHAM PROPERTY MANAGEMENT,(559) 452-8250,-118.30909,33.9944,"(33.9944, -118.30909)",24027,743,622,7,14,35
5148012009,60162,CHARLES COBB APARTMENTS,521 S SAN PEDRO ST CA 90013,1,WHOLESALE DISTRICT,14,READY FOR OCCUPANCY,NEW CONSTRUCTION,SPECIAL NEEDS,3772148.00,16506143.00,0.00,20278291.00,http://hcidapp.lacity.org/mpphotos/060162/Photo/Website/CD_9_-_Charles_Cobb_Apts.__-__060162[1].png,78,"SKID ROW HOUSING TRUST,",CHARLES COBB APARTMENTS LP,(213) 683-0522,-118.24454,34.04357,"(34.04357, -118.24454)",23074,537,1289,,9,76
5041023022,15-122549,METRO AT WESTERN,3651 S WESTERN AVE CA 90018,1,EXPOSITION PARK,8,READY FOR OCCUPANCY,NEW CONSTRUCTION,SPECIAL NEEDS,0.00,0.00,0.00,0.00,http://hcidapp.lacity.org/mpphotos/ImageNotAvailable.png,129,Meta Housing Corporation,SOLARI ENTERPRISES INC.,(714) 282-2520,-118.30928,34.02168,"(34.02168, -118.30928)",23079,687,1295,7,14,32
5036023014,11-118571,LA PRO II (SITE 3),3909 S DENKER AVE CA 90062,3,EXPOSITION PARK,8,READY FOR OCCUPANCY,N/A,N/A,2000000.00,31674331.00,0.00,33674331.00,http://hcidapp.lacity.org/mpphotos/11-118571/Photo/Website%20Site3/la%20pro%20ii%2011-118571c.JPG,208,LA Pro II Preservation Limited Partnership,PRESERVATION PARTNERS MANAGEMENT GROUP,(310) 802-6671,-118.30466,34.01413,"(34.01413, -118.30466)",24027,730,1011,7,14,32
5536021016,05-117193,LEEWARD APTS. (SITE 5),5426 W SIERRA VISTA AVE CA 90038,5,MELROSE,13,READY FOR OCCUPANCY,REHAB,FAMILY,0.00,7103994.00,10208936.00,17312930.00,http://hcidapp.lacity.org/mpphotos/ImageNotAvailable.png,,"HAMPSTEAD PARTNERS, INC.","ALPHA PROPERTY MANAGEMENT, INC.",(323) 231-4174,-118.31026,34.08942,"(34.08942, -118.31026)",23669,441,928,,8,57
5309017036,09-104531,CUATRO VIENTOS,5312 E ALMONT ST CA 90032,1,EL SERENO,14,READY FOR OCCUPANCY,NEW CONSTRUCTION,FAMILY,1769655.00,11345458.00,0.00,13115113.00,http://hcidapp.lacity.org/mpphotos/09-104531/Photo/Website/09-104531[1].png,97,"EAST LA COMMUNITY CORP.,",THE JOHN STEWART COMPANY,(213) 833-1860,-118.16525,34.09185,"(34.09185, -118.16525)",23449,496,514,,9,91
2125015003,12-118779,RIVERWALK AT RESEDA,18425 W KITTRIDGE ST CA 91335,1,RESEDA,3,READY FOR OCCUPANCY,NEW CONSTRUCTION,FAMILY,301059.00,23698618.00,0.00,23999677.00,http://hcidapp.lacity.org/mpphotos/12-118779/Photo/Website/12-118779.JPG,195,Abode Community Housing,ABODE COMMUNITIES (PROP MGMT DIVISION),(213) 225-2754,-118.53458,34.19033,"(34.19033, -118.53458)",18909,267,578,,4,12
4012018025,60013,MORGAN PLACE SENIOR APTS.,7305 S CRENSHAW BLVD CA 90043,1,HYDE PARK,8,READY FOR OCCUPANCY,NEW CONSTRUCTION,SENIORS,5281147.00,8428737.00,0.00,13709884.00,http://hcidapp.lacity.org/mpphotos/060013/Photo/Website/CD%208%20-%20Morgan%20Place%20Sr.%20Apts..jpg,110,Abode Communities previously known as LA COMMUNITY DESIGN CENTER,ABODE COMMUNITIES,(213) 225-2772,-118.33108,33.97348,"(33.97348, -118.33108)",23674,759,1071,7,14,24
5136020025,15-122548,CASA CARMEN SENIOR APARTMENTS,1800 W 11TH ST CA 90006,1,PICO-UNION,1,READY FOR OCCUPANCY,BOTH REHAB AND NEW CONSTRUCTION,SPECIAL NEEDS,2580000.00,9138795.00,0.00,11718795.00,http://hcidapp.lacity.org/mpphotos/15-122548/Photo/Website/Casa%20Carmen.JPG,123,1010 DEVELOPMENT CORPORATION,BARKER MANAGEMENT INC.,(213) 628-1036,-118.27783,34.04874,"(34.04874, -118.27783)",22723,575,908,,11,8
2654032001,50008,COLUMBUS PERMANENT,8906 N COLUMBUS AVE 1-6 CA 91343,1,NORTH HILLS,7,READY FOR OCCUPANCY,REHAB,SPECIAL NEEDS,557200.00,466000.00,250000.00,1273200.00,http://hcidapp.lacity.org/mpphotos/050008/Photo/Website/CD%207%20-%20Columbus%20Permanent%20-%20050008.jpg,7,"PENNY LANE CENTERS,","ABBEY ROAD, INC.",(818) 892-3423,-118.46492,34.232,"(34.232, -118.46492)",18914,125,1108,,1,73
5533003022,60018,STEVENSON MANOR,"1230 N COLE AVE  HOLLYWOOD, CA 90038",1,HOLLYWOOD,13,READY FOR OCCUPANCY,REHAB,SENIORS,5633960.00,8424474.00,0.00,14058434.00,http://hcidapp.lacity.org/mpphotos/060018/Photo/Website/CD%2013%20-%20Stevenson%20Manor.JPG,19,"INSITE DEVELOPMENT, LLC",IRONWOOD MANAGEMENT,(818) 789-5550,-118.32926,34.09356,"(34.09356, -118.32926)",23669,424,535,,8,34
5020031021,16-123080,WEST A HOMES (RECAP),4080 S VERMONT AVE CA 90037,1,WEST VERNON,9,UNDERCONSTRUCTION,ACQUISITION + REHAB,FAMILY,0.00,4809923.00,5000000.00,9809923.00,http://hcidapp.lacity.org/mpphotos/ImageNotAvailable.png,,"VHJS, L.L.C",BARKER MANAGEMENT,(714) 533-3450,-118.29139,34.0094,"(34.0094, -118.29139)",23668,734,977,7,13,2
6051023039,06-117222,WINDWARD APTS (A/B) (SITE 11),733 E 108TH ST CA 90059,11,CENTURY PALMS/COVE,8,READY FOR OCCUPANCY,REHAB,FAMILY,0.00,7438473.00,4641342.00,12079815.00,http://hcidapp.lacity.org/mpphotos/ImageNotAvailable.png,,1755 EFM 2,"ALPHA PROPERTY MANAGEMENT, INC.",(323) 231-4174,-118.2617,33.93843,"(33.93843, -118.2617)",24354,807,359,7,14,45
5076019031,10-104715,MENLO FAMILY HOUSING,1230 S MENLO AVE CA 90006,1,PICO-UNION,1,READY FOR OCCUPANCY,NEW CONSTRUCTION,FAMILY,6309887.00,19253250.00,0.00,25563137.00,http://hcidapp.lacity.org/mpphotos/10-104715/Photo/Website/10-104715.JPG,202,"Menlo Family Housing, L.P",LTSC CDC PROPERTY MANAGEMENT,(213) 473-3021,-118.29051,34.04815,"(34.04815, -118.29051)",22723,622,479,,11,8
5019026009,17-124314,RISE APARTMENTS,4050 S FIGUEROA ST CA 90037,1,SOUTH PARK,9,UNDERCONSTRUCTION,NEW CONSTRUCTION,SPECIAL NEEDS,12000000.00,0.00,0.00,12000000.00,http://hcidapp.lacity.org/mpphotos/17-124314/Photo/Website/RISE%20apartments%204-16-17.JPG,,Single Room Occupancy Housing Corporation,SINGLE ROOM OCCUPANCY HOUSING CORPORATION,(213) 229-9640,-118.28253,34.00991,"(34.00991, -118.28253)",23668,735,977,7,13,2
2327017034,115,COLONIA CORONA APTS,13044 W SHERMAN WAY CA 91605,1,VALLEY GLEN,2,READY FOR OCCUPANCY,NEW CONSTRUCTION,FAMILY,10527004.00,5835087.00,2918726.00,19280817.00,http://hcidapp.lacity.org/mpphotos/000115/Photo/Website/CD%202%20-%20Colonia%20Corona.JPG,146,"HERMANDAD LA ECONOMICS AND COMMUNITY DEV CORP,","SOLARI ENTERPRISES, INC.",(714) 282-2520,-118.4173,34.20103,"(34.20103, -118.4173)",8888,182,493,,5,71
5001033033,11-117735,FIGUEROA APARTMENTS,5216 S FIGUEROA ST CA 90037,1,SOUTH PARK,9,READY FOR OCCUPANCY,REHAB,SPECIAL NEEDS,0.00,0.00,0.00,0.00,http://hcidapp.lacity.org/mpphotos/11-117735/Photo/Website/figueroa_apartments_654_250hm.jpg,19,"COALITION FOR RESPONSIBLE COMM. DEVELOPMENT,",COMMUNITY HOUSING MANAGEMENT SERVICES,(562) 597-6200 x242,-118.28247,33.99536,"(33.99536, -118.28247)",23668,745,990,7,13,2
2221019117,13-119140,VISTAS APARTMENTS,"15211 W SHERMAN WAY 1-99  VAN NUYS, CA 91405",1,VAN NUYS,6,READY FOR OCCUPANCY,ACQUISITION + REHAB,SENIORS,0.00,11506201.00,10707645.00,22213846.00,http://hcidapp.lacity.org/mpphotos/13-119140/Photo/Website/Vistas%20Apartmetns.png,79,"RETIREMENT HOUSING FOUNDATION,","RETIREMENT HOUSING FOUNDATION,",N/A,-118.46417,34.20145,"(34.20145, -118.46417)",19733,218,581,,3,18
5542027032,05-117217,LEXINGTON APARTMENTS A/B (SITE 3),1141 N WESTMORELAND AVE CA 90029,3,EAST HOLLYWOOD,13,READY FOR OCCUPANCY,REHAB,FAMILY,0.00,6771719.00,10247566.00,17019285.00,http://hcidapp.lacity.org/mpphotos/ImageNotAvailable.png,,"1755 EFM 2, LLC","ALPHA PROPERTY MANAGEMENT, INC.",(323) 231-4174,-118.28791,34.09207,"(34.09207, -118.28791)",23447,433,1285,16,8,58
5502020005,80050,ALEXANDRIA HOUSE APTS.,510 S ALEXANDRIA AVE 1-20 CA 90020,1,KOREATOWN,10,READY FOR OCCUPANCY,REHAB,SPECIAL NEEDS,800000.00,5928306.00,0.00,6728306.00,http://hcidapp.lacity.org/mpphotos/080050/Photo/Website/Alexandria%20House.jpg,36,"HOLLYWOOD COMMUNITY HOUSING CORP.,",BARKER MANAGEMENT INC.,(714) 533-3450,-118.29775,34.06506,"(34.06506, -118.29775)",23081,598,1316,,12,89
2218023009,12-119044,HAZELTINE & WYANDOTTE (SITE 2),"14630 W WYANDOTTE ST  VAN NUYS, CA 91405",2,VAN NUYS,6,READY FOR OCCUPANCY,ACQUISITION + REHAB,FAMILY,0.00,8271924.00,10381000.00,18652924.00,http://hcidapp.lacity.org/mpphotos/12-119044/Photo/Website%20Site2/150_1643.png,41,"INSITE DEVELOPMENT, LLC",IRONWOOD COMPANY,(818) 789-5550,-118.45222,34.20289,"(34.20289, -118.45222)",19733,219,1324,,3,18
5148019011,12-118778,NEW PERSHING APARTMENTS,108 E 5TH ST 1-69 CA 90013,1,DOWNTOWN,14,READY FOR OCCUPANCY,REHAB,SPECIAL NEEDS,3500000.00,28113821.00,0.00,31613821.00,http://hcidapp.lacity.org/mpphotos/12-118778/Photo/Website/12-118778.jpg,264,Skid Row Housing Trust,SRHT PROPERTY MANAGEMENT COMPANY,(213) 683-0522,-118.2484,34.04636,"(34.04636, -118.2484)",23074,542,527,,9,76
2408006038,09-117266,GLENOAKS GARDENS,8925 N GLENOAKS BLVD CA 91352,1,SUN VALLEY,6,READY FOR OCCUPANCY,NEW CONSTRUCTION,SPECIAL NEEDS,2223673.00,16396025.00,0.00,18619698.00,http://hcidapp.lacity.org/mpphotos/09-117266/Photo/Website/glenoaks89251512_001-.png,171,L.A. FAMILY HOUSING,LA FAMILY HOUSING CORPORATION,(818) 255-2745,-118.36767,34.23074,"(34.23074, -118.36767)",19335,155,1371,,3,21
5148025025,10315,YANKEE HOTEL,501 E 7TH ST CA 90014,1,WHOLESALE DISTRICT,14,READY FOR OCCUPANCY,REHAB,SPECIAL NEEDS,2019320.00,8432786.00,0.00,10452106.00,http://hcidapp.lacity.org/mpphotos/010315/Photo/Website/CD%209%20-%20The%20Yankee%20Hotel.jpg,75,Single Room Occupancy Housing  Corp. (SRO),SRO HOUSING CORPORATION,(213) 229-9641,-118.24717,34.04117,"(34.04117, -118.24717)",23075,537,783,,9,76
5174024020,10-117557,BOYLE HOTEL,101 N BOYLE AVE CA 90033,1,WHOLESALE DISTRICT,14,READY FOR OCCUPANCY,REHAB,FAMILY,4265571.00,20018291.00,0.00,24283862.00,http://hcidapp.lacity.org/mpphotos/10-117557/Photo/Website/10-117557.JPG,160,"EAST LA COMMUNITY CORP,",THE JOHN STEWART COMPANY,(213) 833-7860,-118.2202,34.04739,"(34.04739, -118.2202)",23450,534,1033,,9,38
5077020016,05-117193,LEEWARD APTS. (SITE 4),2818 W LEEWARD AVE CA 90005,4,WILSHIRE CENTER,1,READY FOR OCCUPANCY,REHAB,FAMILY,0.00,7103994.00,10208936.00,17312930.00,http://hcidapp.lacity.org/mpphotos/ImageNotAvailable.png,,"HAMPSTEAD PARTNERS, INC.","ALPHA PROPERTY MANAGEMENT, INC.",(323) 231-4174,-118.28476,34.0586,"(34.0586, -118.28476)",22722,601,754,,11,63
2611007023,15-122400,SYLMAR COURT APTS.,"12415 N SAN FERNANDO RD  SYLMAR, CA 91342",1,SYLMAR,7,READY FOR OCCUPANCY,NEW CONSTRUCTION,FAMILY,5975000.00,27197810.00,7944000.00,41116810.00,http://hcidapp.lacity.org/mpphotos/15-122400/Photo/Website/Sylmar%20Court.jpg,407,Meta Housing Corporation,"SOLARI ENTERPRISES, INC.",(714) 282-2520 x220,-118.45524,34.29591,"(34.29591, -118.45524)",18912,57,244,,1,47
6071011007,06-117222,WINDWARD APTS (A/B) (SITE 12),732 E 108TH ST CA 90059,12,CENTURY PALMS/COVE,8,READY FOR OCCUPANCY,REHAB,FAMILY,0.00,7438473.00,4641342.00,12079815.00,http://hcidapp.lacity.org/mpphotos/ImageNotAvailable.png,,1755 EFM 2,"ALPHA PROPERTY MANAGEMENT, INC.",(323) 231-4174,-118.26174,33.93816,"(33.93816, -118.26174)",24354,807,359,7,14,45
5153024008,18-124748,HARTFORD VILLA APARTMENTS (SITE 2),459 S HARTFORD AVE 1-60 CA 90017,2,WESTLAKE,1,UNDERCONSTRUCTION,NEW CONSTRUCTION,SPECIAL NEEDS,14211535.00,0.00,0.00,14211535.00,http://hcidapp.lacity.org/mpphotos/ImageNotAvailable.png,406,Single Room Occupancy Housing Corporation,SINGLE ROOM OCCUPANCY HOUSING CORPORATION,(213) 229-9640,-118.26381,34.05708,"(34.05708, -118.26381)",23078,565,1047,54,11,67
5052001038,11-117798,JEFFERSON BLVD & FIFTH AVE. APARTMENTS,2425 W JEFFERSON BLVD CA 90018,1,JEFFERSON PARK,10,READY FOR OCCUPANCY,N/A,FAMILY,3250000.00,13946974.00,0.00,17196974.00,http://hcidapp.lacity.org/mpphotos/11-117798/Photo/Website/Jefferson%20blvd%20fifth%20ave.png,121,"New Urban Partners, LLC","THOMAS SAFRAN & ASSOCIATES, INC",(310) 820-4888,-118.3219,34.02575,"(34.02575, -118.3219)",23079,660,918,7,12,19
5119005012,05-117217,LEXINGTON APARTMENTS A/B (SITE 14),1317 E 23RD ST CA 90011,14,CENTRAL,9,READY FOR OCCUPANCY,REHAB,FAMILY,0.00,6771719.00,10247566.00,17019285.00,http://hcidapp.lacity.org/mpphotos/ImageNotAvailable.png,,"1755 EFM 2, LLC","ALPHA PROPERTY MANAGEMENT, INC.",(323) 231-4174,-118.25314,34.02056,"(34.02056, -118.25314)",22727,707,969,7,13,6
5142002904,80006,MACARTHUR PARK METRO APTS-PHASE A,681 S BONNIE BRAE ST CA 90057,1,WESTLAKE,1,READY FOR OCCUPANCY,N/A,N/A,10935748.00,14269866.00,2450000.00,27655614.00,http://hcidapp.lacity.org/mpphotos/080006/Photo/Website/macparkmetro1901_7th_7213019%20[2].png,312,McCormack Baron Salazar,"MCCORMACK BARON RAGAN MANAGEMENT SERVICES, INC.",(314) 421-1160,-118.27507,34.05652,"(34.05652, -118.27507)",24352,561,836,,11,68
5504022026,15-122419,HANCOCK GARDENS,303 S VAN NESS AVE CA 90020,1,HANCOCK PARK,4,READY FOR OCCUPANCY,ACQUISITION + REHAB,SENIORS,0.00,26719608.00,0.00,26719608.00,http://hcidapp.lacity.org/mpphotos/ImageNotAvailable.png,,"THOMAS SAFRAN & ASSOCIATES, Inc",THOMAS SAFRAN & ASSOCIATES INC,(310) 820 x4888,-118.3153,34.06874,"(34.06874, -118.3153)",23081,588,875,,7,86
5120009017,80071,36TH STREET AND BROADWAY APARTMENTS (SITE 2),161 E 36TH ST CA 90011,2,CENTRAL,9,READY FOR OCCUPANCY,REHAB,SPECIAL NEEDS,2938772.00,8338570.00,0.00,11277342.00,http://hcidapp.lacity.org/mpphotos/080071/Photo/Website%20Site2/36th-st--broadway---36th-st_250h.jpg,65,Gubb and Barshay,ABODE COMMUNITIES (FORMERLY LACDC),(213) 225-2812,-118.27164,34.01632,"(34.01632, -118.27164)",22727,727,975,7,13,6
5114014031,14-121652,FLORENCE MILLS (SITE 6),"1047 E MARTIN LUTHER KING, JR BLVD CA 90011",6,CENTRAL,9,UNDERCONSTRUCTION,NEW CONSTRUCTION,SPECIAL NEEDS,9389115.63,35861422.00,0.00,45250537.63,http://hcidapp.lacity.org/mpphotos/ImageNotAvailable.png,226,Hollywood Community Housing Corporation,BARKER MANAGEMENT INCORPORATED,(714) 533-3450,-118.25724,34.01115,"(34.01115, -118.25724)",22727,712,892,7,13,6
5078006025,06-117195,CONCORD APARTMENTS (GRP. A & B) (SITE 6),3030 W SAN MARINO ST CA 90006,6,KOREATOWN,10,READY FOR OCCUPANCY,REHAB,FAMILY,0.00,7334438.00,8579256.00,15913694.00,http://hcidapp.lacity.org/mpphotos/ImageNotAvailable.png,,"1755 EFM 2, LLC","ALPHA PROPERTY MANAGEMENT, INC.",(323) 231-4174,-118.29567,34.05431,"(34.05431, -118.29567)",22723,620,1246,,12,89
5108022001,13-120913,ONE WILKINS PLACE (RECAP),"1071 E 48th ST  Los Angeles, CA 90011",1,VERNON CENTRAL,9,READY FOR OCCUPANCY,ACQUISITION + REHAB,FAMILY,0.00,3657261.00,1174874.00,4832135.00,http://hcidapp.lacity.org/mpphotos/ImageNotAvailable.png,17,"CP Preservation Housing, LLC",CONCERNED CITIZENS OF SOUTH CENTRAL LOS ANGELES,N/A,-118.25697,34.00066,"(34.00066, -118.25697)",22727,723,563,7,13,
5474022011,12-118878,EAGLE VISTA (AKA TEAGUE TERRACE),4260 N EAGLE ROCK BLVD CA 90041,1,GLASSELL PARK,1,READY FOR OCCUPANCY,NEW CONSTRUCTION,SPECIAL NEEDS,1773961.00,15806726.00,0.00,17580687.00,http://hcidapp.lacity.org/mpphotos/12-118878/Photo/Website/150_2830.png,159,Women Organizing Resources Knowledge & Services,SOLARI ENTERPRISES INC.,(714) 282-2520,-118.22342,34.12243,"(34.12243, -118.22342)",24030,383,1433,,11,60
5163017900,10-117900,ONE SANTA FE,100 S SANTA FE AVE CA 90012,1,WHOLESALE DISTRICT,14,READY FOR OCCUPANCY,NEW CONSTRUCTION,FAMILY,4000000.00,94077717.00,0.00,98077717.00,http://hcidapp.lacity.org/mpphotos/10-117900/Photo/Website/10-117900.jpg,904,The McGregor Company,BERKSHIRE COMMUNITIES,(404) 614-5587,-118.23197,34.04798,"(34.04798, -118.23197)",23074,533,466,,9,28
5174013905,14-121628,SANTA CECILIA APARTMENTS,117 S BOYLE AVE CA 90033,1,WHOLESALE DISTRICT,14,READY FOR OCCUPANCY,NEW CONSTRUCTION,FAMILY,2231389.00,30346705.00,0.00,32578094.00,http://hcidapp.lacity.org/mpphotos/14-121628/Photo/Website/P2010029.png,287,"McCormack Baron Salzar, Inc.","MCCORMACK BARON RAGAN MANAGEMENT SERVICES, INC.",(213) 236-2694,-118.22011,34.04704,"(34.04704, -118.22011)",23450,534,349,,9,38
5060029026,30159,INGRAM PRESERVATION (SITE 4),2120 S 2ND AVE CA 90018,4,WEST ADAMS,10,READY FOR OCCUPANCY,REHAB,LARGE FAMILY / WAIVER REQUIRED,4900000.00,6637761.00,2790000.00,14327761.00,http://hcidapp.lacity.org/mpphotos/030159/Photo/Website%20Site4/2nd%20Ave%202.png,21,"W.O.R.K.S.,","SOLARI ENTERPRISES, INC.",(714) 282-2520,-118.3187,34.03733,"(34.03733, -118.3187)",23079,658,927,,12,19
5153015003,04-117264,WITMER MANOR PRESERVATION APTS.,201 S WITMER ST CA 90026,1,TEMPLE-BEAUDRY,13,READY FOR OCCUPANCY,REHAB,FAMILY,0.00,6846132.00,8834003.00,15680135.00,http://hcidapp.lacity.org/mpphotos/04-117264/Photo/Website/witmer2.png,,"HAMPSTEAD PARTNERS, INC.",ALPHA PROPERTY MANAGEMENT INC.,(323) 231-4174,-118.26174,34.06082,"(34.06082, -118.26174)",23444,550,942,,8,67
5153023017,07-117237,QUEEN APARTMENTS (SITE 3),445 S LUCAS AVE CA 90017,3,WESTLAKE,1,READY FOR OCCUPANCY,REHAB,FAMILY,0.00,10271751.00,7300000.00,17571751.00,http://hcidapp.lacity.org/mpphotos/07-117237/Photo/Website%20Site3/Queens%20(site3)%20445%20Lucas.png,,N/A,THE JOHN STEWART COMPANY,(213) 833-1860,-118.26297,34.05632,"(34.05632, -118.26297)",23078,565,1047,54,11,67
5501002032,15-122538,PATH METRO VILLAS PHASE 2,320 N MADISON AVE CA 90004,1,SILVERLAKE,13,UNDERCONSTRUCTION,NEW CONSTRUCTION,SPECIAL NEEDS,7713721.00,46364393.00,200882.00,54278996.00,http://hcidapp.lacity.org/mpphotos/15-122538/Photo/Website/PATH%20II%202.jpg,447,PATH Ventures,JOHN STEWART COMPANY,(213) 787-2700,-118.28902,34.07708,"(34.07708, -118.28902)",22721,455,507,16,8,80
5076019029,12-118854,FREEMAN VILLA,1229 S WESTMORELAND AVE CA 90006,1,PICO-UNION,1,READY FOR OCCUPANCY,ACQUISITION + REHAB,SENIORS,0.00,3973637.00,3886000.00,7859637.00,http://hcidapp.lacity.org/mpphotos/ImageNotAvailable.png,,"Blackbriar Development, LLC",ALPHA PROPERTY MANAGEMENT INC.,N/A,-118.2893,34.04818,"(34.04818, -118.2893)",22723,622,479,,11,8
6030011028,05-117193,LEEWARD APTS. (SITE 14),8318 S MAIN ST CA 90003,14,FLORENCE-FIRESTONE,9,READY FOR OCCUPANCY,REHAB,FAMILY,0.00,7103994.00,10208936.00,17312930.00,http://hcidapp.lacity.org/mpphotos/ImageNotAvailable.png,,"HAMPSTEAD PARTNERS, INC.","ALPHA PROPERTY MANAGEMENT, INC.",(323) 231-4174,-118.27371,33.96322,"(33.96322, -118.27371)",22352,795,1001,7,13,46
6046019903,16-123328,JORDAN DOWNS PHASE 1B,2020 E 97TH ST CA 90002,1,WATTS,15,UNDERCONSTRUCTION,NEW CONSTRUCTION,FAMILY,0.00,37109157.00,32650000.00,69759157.00,http://hcidapp.lacity.org/mpphotos/ImageNotAvailable.png,775,"The Michaels Development Company I, L.P.",N/A,N/A,-118.23653,33.94596,"(33.94596, -118.23653)",22351,818,1180,21,15,40
5153023008,08-117188,ANDALUCIA HEIGHTS,450 S HARTFORD AVE CA 90017,1,WESTLAKE,1,READY FOR OCCUPANCY,NEW CONSTRUCTION,FAMILY,5354118.00,19753513.00,0.00,25107631.00,http://hcidapp.lacity.org/mpphotos/08-117188/Photo/Website/andalucia%20heights.png,274,"W.O.R.K.S.,","FPI MANAGEMENT, INC",(916) 813-0056,-118.26328,34.05706,"(34.05706, -118.26328)",23078,565,1047,54,11,67
6039016029,15-122886,E. VICTOR VILLA,555 W 92ND ST 1-46 CA 90044,1,VERMONT VISTA,8,READY FOR OCCUPANCY,ACQUISITION + REHAB,SENIORS,0.00,5947360.00,4273000.00,10220360.00,http://hcidapp.lacity.org/mpphotos/ImageNotAvailable.png,,Abode Communities,ABODE COMMUNITIES (PROP MGMT DIVISION),(213) 629-0720,-118.28397,33.95296,"(33.95296, -118.28397)",23675,801,931,7,14,45
5148025024,17-124315,SP7 APARTMENTS,519 E 7TH ST CA 90014,1,WHOLESALE DISTRICT,14,UNDERCONSTRUCTION,BOTH REHAB AND NEW CONSTRUCTION,SPECIAL NEEDS,15000000.00,34485119.00,0.00,49485119.00,http://hcidapp.lacity.org/mpphotos/17-124315/Photo/Website/SP7%205-1-17.JPG,474,Skid Row Housing Trust,SRHT PROPERTY MANAGEMENT COMPANY,(213) 683-0522 x127,-118.24687,34.04099,"(34.04099, -118.24687)",23075,537,783,,9,76
5115018900,11-117837,DUNBAR VILLAGE (SITE 3),4251 S CENTRAL AVE CA 90011,3,VERNON CENTRAL,9,READY FOR OCCUPANCY,ACQUISITION + REHAB,FAMILY,12019660.00,17563532.00,0.00,29583192.00,http://hcidapp.lacity.org/mpphotos/11-117837/Photo/Website%20Site3/Dunbar2[1].jpg,215,THOMAS SAFRAN & ASSOCIATES,THOMAS SAFRAN & ASSOCIATES,(310) 820-4888,-118.25669,34.00649,"(34.00649, -118.25669)",22727,717,664,7,13,
5124031012,20291,ALEGRIA APARTMENTS,801 W 23RD ST CA 90007,1,UNIVERSITY PARK,1,READY FOR OCCUPANCY,REHAB,FAMILY,602162.00,3087124.00,0.00,3689286.00,http://hcidapp.lacity.org/mpphotos/020291/Photo/Website/CD%201%20-%20Alegria%20-%20020291.jpg,15,"ESPERANZA COMMUNITY HOUSING,",ABODE COMMUNITIES,(213) 225-2772,-118.27764,34.03251,"(34.03251, -118.27764)",22724,699,444,7,11,32
5093016018,60058,THE HOBART / AKA HOBART HEIGHTS APT. HOMES,924 S HOBART BLVD 1-49 CA 90006,1,KOREATOWN,10,READY FOR OCCUPANCY,N/A,N/A,3745640.00,14678863.00,0.00,18424503.00,http://hcidapp.lacity.org/mpphotos/060058/Photo/Website/CD%2010%20-%20Hobart%20Heights.png,110,"AMERICAN COMMUNITIES, LLC",THE JOHN STEWART COMPANY,(213) 739-2851,-118.30515,34.05502,"(34.05502, -118.30515)",22723,608,647,,12,89
5131026028,70018,ADAMS AND CENTRAL MIX-USE,1011 E ADAMS BLVD 1-80 CA 90011,1,CENTRAL,9,READY FOR OCCUPANCY,NEW CONSTRUCTION,FAMILY,5788800.00,25260320.00,0.00,31049120.00,http://hcidapp.lacity.org/mpphotos/070018/Photo/Website/CD%209%20-%20Adams%20&%20Central%20Mixed.jpg,281,"META HOUSING CORPORATION,",META HOUSING CORPORATION,(310) 575-3543,-118.25496,34.0193,"(34.0193, -118.25496)",22727,705,972,7,13,6
5546009043,30165,ENCORE HALL,"1602 N IVAR AVE 1-104  HOLLYWOOD, CA 90028",1,HOLLYWOOD,13,READY FOR OCCUPANCY,NEW CONSTRUCTION,SENIORS,1700000.00,16928000.00,2040000.00,20668000.00,http://hcidapp.lacity.org/mpphotos/030165/Photo/Website/CD%2013%20-%20Encore%20Hall.JPG,125,"COMMUNITY REDEVELOPMENT AGENCY, LA","MCCORMACK BARON RAGAN MANAGEMENT SERVICES, INC.",(314) 335-2754,-118.32793,34.09998,"(34.09998, -118.32793)",23446,422,468,,8,34
2138005006,50030,HART VILLAGE,6941 N OWENSMOUTH AVE CA 91303,1,CANOGA PARK,3,READY FOR OCCUPANCY,NEW CONSTRUCTION,LARGE FAMILY / WAIVER REQUIRED,2538000.00,16109027.00,0.00,18647027.00,http://hcidapp.lacity.org/mpphotos/050030/Photo/Website/CD%203%20-%20Hart%20Village.jpg,117,Abode Communities previously known as LA COMMUNITY DESIGN CENTER,ABODE COMMUNITIES,(213) 225-2770,-118.60179,34.19676,"(34.19676, -118.60179)",4278,286,1472,,4,37
5183005010,09-117211,LAS MARGARITAS (SITE 2),115 N SOTO ST CA 90033,2,BOYLE HEIGHTS,14,READY FOR OCCUPANCY,BOTH REHAB AND NEW CONSTRUCTION,FAMILY,559761.00,14135658.00,0.00,14695419.00,http://hcidapp.lacity.org/mpphotos/09-117211/Photo/Website%20Site2/Las%20Margaritas%20115%20Soto.JPG,121,East L.A. Community Corporation,THE JOHN STEWART COMPANY,(213) 878-2716,-118.20967,34.04422,"(34.04422, -118.20967)",23450,522,350,,9,38
5017027032,10-117605,VERMONT AVENUE APARTMENTS,4915 S VERMONT AVE 1-49 CA 90037,1,VERMONT SQUARE,9,READY FOR OCCUPANCY,NEW CONSTRUCTION,FAMILY,3017456.00,15172897.00,0.00,18190353.00,http://hcidapp.lacity.org/mpphotos/10-117605/Photo/Website/10-117605.JPG,142,Meta Housing Corp.,SOLARI ENTERPRISES INC.,(714) 282-2520 x201,-118.29191,33.99832,"(33.99832, -118.29191)",23668,741,1155,7,13,2
5544010027,80004,HOLLYWOOD BUNGALOW COURTS,"1721 N KINGSLEY DR  LOS ANGELES, CA 90027",1,THAI TOWN,4,READY FOR OCCUPANCY,ACQUISITION + REHAB,FAMILY,4390000.00,17823840.00,0.00,22213840.00,http://hcidapp.lacity.org/mpphotos/080004/Photo/Website/CD%2014%20-%20Hollywood%20Bungalows%20-%201721%20Kingsley.jpg,104,"HOLLYWOOD COMMUNITY HOUSING CORP.,",BARKER MANAGEMENT INCORPORATED,(714) 533-3450,-118.30363,34.10262,"(34.10262, -118.30363)",23445,418,470,16,8,3
5114014009,14-121652,FLORENCE MILLS,1036 E 35TH ST CA 90011,1,CENTRAL,9,UNDERCONSTRUCTION,NEW CONSTRUCTION,SPECIAL NEEDS,9389115.63,35861422.00,0.00,45250537.63,http://hcidapp.lacity.org/mpphotos/ImageNotAvailable.png,226,Hollywood Community Housing Corporation,BARKER MANAGEMENT INCORPORATED,(714) 533-3450,-118.25739,34.01161,"(34.01161, -118.25739)",22727,712,892,7,13,6
5036023007,05-117193,LEEWARD APTS. (SITE 9),3918 S LA SALLE AVE CA 90062,9,EXPOSITION PARK,8,READY FOR OCCUPANCY,REHAB,FAMILY,0.00,7103994.00,10208936.00,17312930.00,http://hcidapp.lacity.org/mpphotos/ImageNotAvailable.png,,"HAMPSTEAD PARTNERS, INC.","ALPHA PROPERTY MANAGEMENT, INC.",(323) 231-4174,-118.30555,34.01386,"(34.01386, -118.30555)",24027,730,1011,7,14,32
5502009900,18-124721,VERMONT CORRIDOR APARTMENTS (FKA 433 VERMONT APTS),433 S VERMONT AVE CA 90020,1,WILSHIRE CENTER,10,UNDERCONSTRUCTION,NEW CONSTRUCTION,SPECIAL NEEDS,8700000.00,42652600.00,0.00,51352600.00,http://hcidapp.lacity.org/mpphotos/18-124721/Photo/Website/433%20Vermont.JPG,459,Meta Housing Corporation,THE JOHN STEWART COMPANY,(213) 833-1860,-118.29186,34.06636,"(34.06636, -118.29186)",23081,595,1294,,12,89
5143013029,06-117195,CONCORD APARTMENTS (GRP. A & B),1348 W INGRAHAM ST CA 90017,1,WESTLAKE,1,READY FOR OCCUPANCY,REHAB,FAMILY,0.00,7334438.00,8579256.00,15913694.00,http://hcidapp.lacity.org/mpphotos/06-117195/Photo/Website/BONDS%20Concord%20A%20&%20B.png,,"1755 EFM 2, LLC","ALPHA PROPERTY MANAGEMENT, INC.",(323) 231-4174,-118.26853,34.05357,"(34.05357, -118.26853)",23078,564,1047,54,11,68
5103023033,13-119723,CENTRAL AVENUE VILLAGE SQUARE (RECAP),1060 E 53RD ST CA 90011,1,VERNON CENTRAL,9,READY FOR OCCUPANCY,ACQUISITION + REHAB,FAMILY,0.00,5034266.00,3007104.00,8041370.00,http://hcidapp.lacity.org/mpphotos/ImageNotAvailable.png,51,"CP Preservation Housing, LLC",CONCERNED CITIZENS OF SOUTH CENTRAL LOS ANGELES,N/A,-118.25716,33.99418,"(33.99418, -118.25716)",22727,726,984,7,13,
5141025005,13-119320,THE SIX (FORMERLY CARONDELET APARTMENTS),811 S CARONDELET ST CA 90057,1,WESTLAKE,1,READY FOR OCCUPANCY,NEW CONSTRUCTION,SPECIAL NEEDS,4277100.00,11875978.00,0.00,16153078.00,http://hcidapp.lacity.org/mpphotos/13-119320/Photo/Website/The-Six-dusk-495x400.png,158,Skid Row Housing Trust,SRHT PROPERTY MANAGEMENT COMPANY,(213) 683-0522 x127,-118.28261,34.0564,"(34.0564, -118.28261)",24352,569,867,,11,63
5433023040,11-118594,SILVERLAKE APARTMENTS,3740 W EVANS ST CA 90027,1,SILVERLAKE,4,READY FOR OCCUPANCY,REHAB,FAMILY,0.00,16093022.00,9300000.00,25393022.00,http://hcidapp.lacity.org/mpphotos/11-118594/Photo/Website/Silverlake.png,84,"Silverlake VOA Affordable Housing, L.P.","SILVERLAKE VOA AFFORDABLE HOUSING, L.P.",(804) 739-4812,-118.2743,34.10661,"(34.10661, -118.2743)",23445,464,1312,,7,3
6117009027,09-117197,ACADEMY HALL,12010 S VERMONT AVE CA 90044,1,HARBOR GATEWAY,15,READY FOR OCCUPANCY,REHAB,FAMILY,0.00,6631570.00,2278011.00,8909581.00,http://hcidapp.lacity.org/mpphotos/09-117197/Photo/Website/BONDS%20Burns%20Manor.png,,"CENTURY AFFORDABLE HOUSING, INC.",JOHN STEWART COMPANY,(213) 833-1860,-118.2914,33.92323,"(33.92323, -118.2914)",23675,938,803,7,15,53
5534015018,13-119154,HOLLYWOODLAND (SITE 2),"1222 N GOWER ST  HOLLYWOOD, CA 90038",2,HOLLYWOOD,13,READY FOR OCCUPANCY,ACQUISITION + REHAB,SENIORS,0.00,7946357.00,10500000.00,18446357.00,http://hcidapp.lacity.org/mpphotos/ImageNotAvailable.png,53,Steele Properties LLC,"MONROE GROUP, LRD",(303) 322-8888,-118.32212,34.09322,"(34.09322, -118.32212)",23669,426,539,,8,57
7455014029,07-117235,HARBOR TOWER,"340 S MESA ST  SAN PEDRO, CA 90731",1,SAN PEDRO,15,READY FOR OCCUPANCY,REHAB,SENIORS,0.00,21123352.00,6941082.00,28064434.00,http://hcidapp.lacity.org/mpphotos/07-117235/Photo/Website/BONDS%20Harbor%20Towers.png,,Retirement Housing Foundation,RETIREMENT HOUSING FOUNDATION,(562) 257-5110,-118.28554,33.7411,"(33.7411, -118.28554)",3342,970,433,,15,36
5124024009,15-122656,ST. JAMES PARK,839 W ADAMS BLVD 1-18 CA 90007,1,UNIVERSITY PARK,1,READY FOR OCCUPANCY,ACQUISITION + REHAB,FAMILY,0.00,27481703.00,9879228.00,37360931.00,http://hcidapp.lacity.org/mpphotos/ImageNotAvailable.png,,Retirement Housing Foundation,"FOUNDATION PROPERTY MANAGEMENT, INC.",(213) 746-9548,-118.28059,34.03043,"(34.03043, -118.28059)",22724,699,444,7,11,32
5035025030,20010,SANTOS PLAZA APARTMENTS,1608 W 38TH PL CA 90062,1,EXPOSITION PARK,8,READY FOR OCCUPANCY,REHAB,SPECIAL NEEDS,1185000.00,5219539.00,0.00,6404539.00,http://hcidapp.lacity.org/mpphotos/020010/Photo/Website/CD_9_-_Santos_Plaza[1].png,37,"A COMMUNITY OF FRIENDS,",A COMMUNITIY OF FRIENDS,(213) 480-0809 x223,-118.30909,34.01632,"(34.01632, -118.30909)",24027,731,1016,7,14,32
5135004006,70172,TWO WORLD APARTMENTS (SITE 3),1306 S WESTLAKE AVE CA 90006,3,PICO-UNION,1,READY FOR OCCUPANCY,REHAB,SENIORS,3225000.00,17094146.00,0.00,20319146.00,http://hcidapp.lacity.org/mpphotos/070172/Photo/Website%20Site3/Two%20Worlds%201306%20S.%20Westlake%20-%20070172.png,99,"TWO WORLDS PRESERVATION LIMITED PARTNERSHIP,",N/A,N/A,-118.28138,34.0463,"(34.0463, -118.28138)",22723,696,1521,,11,8
5143013022,15-122534,7TH & WITMER APARTMENTS,1301 W 7TH ST CA 90017,1,WESTLAKE,1,UNDERCONSTRUCTION,NEW CONSTRUCTION,SPECIAL NEEDS,1500000.00,0.00,0.00,1500000.00,http://hcidapp.lacity.org/mpphotos/ImageNotAvailable.png,270,Deep Green Housing and Community Development,"SOLARI ENTERPRISES, INC.",(714) 282-2520,-118.26794,34.05262,"(34.05262, -118.26794)",23078,564,1047,54,11,68
5075006018,40067,ROYALS APARTMENTS (SITE 3),1327 S CATALINA ST CA 90006,3,HARVARD HEIGHTS,1,READY FOR OCCUPANCY,REHAB,FAMILY,1100000.00,13039479.00,0.00,14139479.00,http://hcidapp.lacity.org/mpphotos/040067/Photo/Website%20Site3/royalscatalina1327catalina315072of6(PNG).png,49,"Preservation Partners Management Group, Inc.",PRESERVATION PARTNERS MANAGEMENT GROUP,(310) 802-6673,-118.29489,34.04642,"(34.04642, -118.29489)",22723,673,923,,11,8
5148011014,14-121647,PANAMA HOTEL APARTMENTS,403 E 5TH ST CA 90013,1,LITTLE TOKYO,14,READY FOR OCCUPANCY,REHAB,SPECIAL NEEDS,4489380.00,20995845.00,0.00,25485225.00,http://hcidapp.lacity.org/mpphotos/14-121647/Photo/Website/panama%20hotel%20side.png,210,Single Room Occupancy Housing Corporation,SINGLE ROOM OCCUPANCY HOUSING CORPORATION,(213) 229-9640,-118.24477,34.04466,"(34.04466, -118.24477)",23074,536,1289,,9,76
2654001052,70030,ORION GARDENS APARTMENTS,8955 N ORION AVE 1-32 CA 91343,1,NORTH HILLS,7,READY FOR OCCUPANCY,ACQUISITION + NEW CONSTRUCTION,FAMILY,3125520.00,11362911.00,0.00,14488431.00,http://hcidapp.lacity.org/mpphotos/070030/Photo/Website/DSCN2054.JPG,114,"DECRO ORION APARTMENTS, L.P.",FPI MANAGEMENT,(714) 641-5110 x419,-118.47234,34.23341,"(34.23341, -118.47234)",18914,122,1108,,1,73
5072036002,60064,SECOND AVENUE APARTMENTS,1309 S 2ND AVE CA 90019,1,VICTORIA PARK,10,READY FOR OCCUPANCY,REHAB,SENIORS,350829.00,3049057.00,0.00,3399886.00,http://hcidapp.lacity.org/mpphotos/060064/Photo/Website/Second%20Avenue%20-%20060064.jpg,14,"SECOND AVENUE PRESERVATION, L.P.",PRESERVATION PARTNERS MANAGEMENT GROUP,(310) 802-6673,-118.31909,34.04683,"(34.04683, -118.31909)",23080,649,899,,12,19
5155031031,16-123325,NEW PARK PLACE (RECAP),2500 W 4TH ST CA 90057,1,WESTLAKE,1,READY FOR OCCUPANCY,ACQUISITION + REHAB,FAMILY,0.00,4638956.00,1070000.00,5708956.00,http://hcidapp.lacity.org/mpphotos/16-123325/Photo/Website/2500%20W%204th%20St.png,,Abode Communities,ABODE COMMUNITIES,(213) 225-2708,-118.27742,34.06419,"(34.06419, -118.27742)",24352,560,690,,11,63
5067008008,06-117222,WINDWARD APTS (A/B) (SITE 4),4817 W SATURN ST CA 90019,4,ST ELMO VILLAGE,10,READY FOR OCCUPANCY,REHAB,FAMILY,0.00,7438473.00,4641342.00,12079815.00,http://hcidapp.lacity.org/mpphotos/ImageNotAvailable.png,,1755 EFM 2,"ALPHA PROPERTY MANAGEMENT, INC.",(323) 231-4174,-118.34217,34.04429,"(34.04429, -118.34217)",23080,650,1109,,12,69
6004015900,13-119709,PARK PLAZA (PLAZA VERMONT),960 W 62ND PL CA 90044,1,HARVARD PARK,9,READY FOR OCCUPANCY,ACQUISITION + REHAB,FAMILY,8518000.00,7042910.00,2397110.00,17958020.00,http://hcidapp.lacity.org/mpphotos/13-119709/Photo/Website/150_3038.png,87,"THOMAS SAFRAN & ASSOCIATES DEVELOPMENT, INC.",THOMAS SAFRAN & ASSOCIATES,(310) 820-4888,-118.29091,33.98218,"(33.98218, -118.29091)",23675,766,585,7,13,2
2654037082,10-117634,LA CORUNA SENIOR APARTMENTS,15301 W LANARK ST 1-87 CA 91405,1,NORTH HILLS,6,READY FOR OCCUPANCY,NEW CONSTRUCTION,SENIORS,2123930.00,23513261.00,0.00,25637191.00,http://hcidapp.lacity.org/mpphotos/10-117634/Photo/Website/10-117634.JPG,216,META HOUSING CORPORATION,"WESTERN SENIORS HOUSING, INC.",(818) 442-0170,-118.46702,34.21809,"(34.21809, -118.46702)",19730,222,424,,3,73
6031019008,06-117222,WINDWARD APTS (A/B) (SITE 19),120 W 78TH ST 1-4 CA 90003,19,FLORENCE-FIRESTONE,9,READY FOR OCCUPANCY,REHAB,FAMILY,0.00,7438473.00,4641342.00,12079815.00,http://hcidapp.lacity.org/mpphotos/ImageNotAvailable.png,,1755 EFM 2,"ALPHA PROPERTY MANAGEMENT, INC.",(323) 231-4174,-118.27479,33.96877,"(33.96877, -118.27479)",22352,793,1004,7,13,46
5137032023,09-117198,MOSAIC APARTMENTS,1521 W PICO BLVD 1-56 CA 90015,1,PICO-UNION,1,READY FOR OCCUPANCY,N/A,N/A,746480.00,20733937.00,0.00,21480417.00,http://hcidapp.lacity.org/mpphotos/09-117198/Photo/Website/mosaic%20cropped.png,149,"Foundation For Affordable Housing, Inc",FPI MANAGEMENT,(714) 641-5110,-118.27557,34.0449,"(34.0449, -118.27557)",23076,576,661,,11,8
5092003023,14-121119,LDK SENIOR APARTMENTS,900 S CRENSHAW BLVD CA 90019,1,COUNTRY CLUB PARK,4,READY FOR OCCUPANCY,NEW CONSTRUCTION,SENIORS,7687337.00,17414515.00,212000.00,25313852.00,http://hcidapp.lacity.org/mpphotos/14-121119/Photo/Website/100_3401.png,199,"LTSC COMMUNITY DEVELOPMENT CORP,","LEVINE MANAGEMENT GROUP, INC.",(310) 358-3489,-118.32202,34.05612,"(34.05612, -118.32202)",23080,612,605,,7,86
5054020020,05-117217,LEXINGTON APARTMENTS A/B (SITE 6),2521 S JULIET ST CA 90007,6,WEST ADAMS,8,READY FOR OCCUPANCY,REHAB,FAMILY,0.00,6771719.00,10247566.00,17019285.00,http://hcidapp.lacity.org/mpphotos/ImageNotAvailable.png,,"1755 EFM 2, LLC","ALPHA PROPERTY MANAGEMENT, INC.",(323) 231-4174,-118.29553,34.03314,"(34.03314, -118.29553)",22724,680,907,7,14,32
2556022033,08-117194,BURNS MANOR,8155 W FOOTHILL BLVD CA 91040,1,SUNLAND,7,READY FOR OCCUPANCY,ACQUISITION + REHAB,SENIORS,0.00,9454441.00,5245559.00,14700000.00,http://hcidapp.lacity.org/mpphotos/08-117194/Photo/Website/burnsmanor8155foothill_.png,,Volunteers of America National Services,"BARKER MANAGEMENT, INC.",(714) 533-3450,-118.31121,34.25983,"(34.25983, -118.31121)",3221,12,530,18,1,7
5056012007,80053,PROFESSIONAL HSG. & DEV. APTS. (PH & D) (SITE 5),1810 S MAGNOLIA AVE CA 90006,5,PICO-UNION,1,READY FOR OCCUPANCY,REHAB,FAMILY,4575000.00,10250907.00,0.00,14825907.00,http://hcidapp.lacity.org/mpphotos/080053/Photo/Website%20Site5/PH&D%201810%20Magnolia.jpg,45,Gubb and Barshay,LITTLE TOKYO SERVICE CENTER,(213) 434-1645,-118.28624,34.04098,"(34.04098, -118.28624)",22723,671,1521,,11,8
2217009015,50055,HFL VANOWEN APARTMENTS,"14419 W VANOWEN ST  VAN NUYS, CA 91405",1,VAN NUYS,6,READY FOR OCCUPANCY,NEW CONSTRUCTION,SPECIAL NEEDS,1225000.00,5917180.00,0.00,7142180.00,http://hcidapp.lacity.org/mpphotos/050055/Photo/Website/CD%206%20-%20HFL%20Vanowen%20Apts.jpg,42,"HFL VANOWEN APARTMENTS,",CARING HOUSING MINISTRIES,(626) 300-2447,-118.44719,34.19407,"(34.19407, -118.44719)",19733,233,880,,3,18
5501002036,15-122538,PATH METRO VILLAS PHASE 2 (SITE 2),333 N WESTMORELAND AVE CA 90004,2,SILVERLAKE,13,UNDERCONSTRUCTION,NEW CONSTRUCTION,SPECIAL NEEDS,7713721.00,46364393.00,200882.00,54278996.00,http://hcidapp.lacity.org/mpphotos/15-122538/Photo/Website%20Site2/PATH%20II%20Metro%20Villas.jpg,447,PATH Ventures,JOHN STEWART COMPANY,(213) 787-2700,-118.28811,34.07753,"(34.07753, -118.28811)",22721,455,507,16,8,80
5141013029,70034,SEVEN MAPLES,2618 W 7TH ST CA 90057,1,WESTLAKE,1,READY FOR OCCUPANCY,NEW CONSTRUCTION,SENIORS,4124520.00,14506378.00,0.00,18630898.00,http://hcidapp.lacity.org/mpphotos/070034/Photo/Website/CD%201%20-%20Seven%20Maples.jpg,144,"LOS ANGELES HOUSING PARTNERSHIP INC.,",THE JOHN STEWART COMPANY,(213) 787-2700,-118.28317,34.05912,"(34.05912, -118.28317)",24352,569,867,,11,63
5081028024,20275,PICO GRAMERCY APTS.,3215 W PICO BLVD CA 90019,1,KOREATOWN,10,READY FOR OCCUPANCY,N/A,N/A,3730206.00,11133044.00,2700000.00,17563250.00,http://hcidapp.lacity.org/mpphotos/020275/Photo/Website/CD%2010%20-%20Pico%20Gramercy.png,105,"META HOUSING CORPORATION,",HDSI MANAGEMENT INC.,(323) 231-1107,-118.31287,34.0475,"(34.0475, -118.31287)",23080,616,823,,12,52
2611010055,60009,EL DORADO FAMILY APARTMENTS,12129 N EL DORADO AVE CA 91342,1,SYLMAR,7,READY FOR OCCUPANCY,ACQUISITION + NEW CONSTRUCTION,FAMILY,5800000.00,15462252.00,0.00,21262252.00,http://hcidapp.lacity.org/mpphotos/060009/Photo/Website/CD%207%20-%20El%20Dorado%20Family%20Apts..JPG,157,"META HOUSING CORPORATION,","SOLARI ENTERPRISES, INC.",(714) 282-2520,-118.45104,34.29026,"(34.29026, -118.45104)",18912,57,244,,1,47
6041003037,40005,LAS BRISAS,8760 S MAIN ST CA 90003,1,VERMONT VISTA,8,READY FOR OCCUPANCY,NEW CONSTRUCTION,LARGE FAMILY / WAIVER REQUIRED,5616938.00,10809341.00,0.00,16426279.00,http://hcidapp.lacity.org/mpphotos/040005/Photo/Website/CD%208%20-%20Las%20Brisas.jpg,97,"AMCAL Multi-Housing, Inc(App)",JOHN STEWART COMPANY,N/A,-118.27368,33.95785,"(33.95785, -118.27368)",22352,800,358,7,14,45
5544020010,14-121714,CORONEL APARTMENTS (SITE 2),1600 N SERRANO AVE CA 90027,2,THAI TOWN,13,READY FOR OCCUPANCY,BOTH REHAB AND NEW CONSTRUCTION,FAMILY,0.00,29452609.00,0.00,29452609.00,http://hcidapp.lacity.org/mpphotos/ImageNotAvailable.png,172,Hollywood Community Housing Corporation,BARKER MANAGEMENT INCORPORATED,(714) 533-3450,-118.30697,34.10001,"(34.10001, -118.30697)",23445,421,555,16,8,58
5205012007,60021,CAMINO AL ORO,330 W AVENUE 26 CA 90031,1,LINCOLN HEIGHTS,1,READY FOR OCCUPANCY,NEW CONSTRUCTION,SENIORS,681735.00,13128422.00,0.00,13810157.00,http://hcidapp.lacity.org/mpphotos/060021/Photo/Website/CD%201%20-%20Camino%20Al%20Oro.jpg,96,"CAMINO AL ORO FUND, L.P.",FPI MANAGEMENT,(714) 641-5110,-118.21915,34.08032,"(34.08032, -118.21915)",23448,485,648,1,11,1
5521006019,05-117217,LEXINGTON APARTMENTS A/B (SITE 2),649 N KINGSLEY DR CA 90004,2,MELROSE,13,READY FOR OCCUPANCY,REHAB,FAMILY,0.00,6771719.00,10247566.00,17019285.00,http://hcidapp.lacity.org/mpphotos/ImageNotAvailable.png,,"1755 EFM 2, LLC","ALPHA PROPERTY MANAGEMENT, INC.",(323) 231-4174,-118.30356,34.08313,"(34.08313, -118.30356)",22721,452,932,,8,89
5018037015,60007,CASA DE ANGELES,4900 S FIGUEROA ST 1-49 CA 90037,1,SOUTH PARK,9,READY FOR OCCUPANCY,NEW CONSTRUCTION,FAMILY,3473280.00,12884573.00,0.00,16357853.00,http://hcidapp.lacity.org/mpphotos/060007/Photo/Website/CD%209%20-%20Casa%20de%20Angeles.jpg,105,"AMCAL CASA DE ANGELES FUND, L.P.",THE JOHN STEWART COMPANY,(213) 787-2700,-118.28211,33.9982,"(33.9982, -118.28211)",23668,739,989,7,13,2
4230007004,14-121137,GATEWAY APARTMENTS,"13366  W Beach AVE  Los Angeles, CA 90292",1,DEL REY,11,READY FOR OCCUPANCY,NEW CONSTRUCTION,SPECIAL NEEDS,1071261.00,10175405.00,0.00,11246666.00,http://hcidapp.lacity.org/mpphotos/14-121137/Photo/Website/png.png,71,Hollywood Community Housing Corporation,BARKER MANAGEMENT INC.,(714) 533-3450 x50,-118.44362,33.99147,"(33.99147, -118.44362)",24031,921,1135,10,10,85
2210021029,09-117301,MONTECITO TERRACES (SITE 2),14726 W BLYTHE ST CA 91402,2,PANORAMA CITY,6,READY FOR OCCUPANCY,ACQUISITION + NEW CONSTRUCTION,SENIORS,3035582.00,21684852.00,0.00,24720434.00,http://hcidapp.lacity.org/mpphotos/09-117301/Photo/Website%20Site2/Montecito_14726_Blythe%20Site%202.png,212,AMCAL Montecito Terraces Fund L.P.,THE JOHN STEWART COMPANY,(213) 787-2700,-118.45377,34.21509,"(34.21509, -118.45377)",19730,143,418,,3,59
5135005008,06-117195,CONCORD APARTMENTS (GRP. A & B) (SITE 9),1350 S BONNIE BRAE ST CA 90006,9,PICO-UNION,1,READY FOR OCCUPANCY,REHAB,FAMILY,0.00,7334438.00,8579256.00,15913694.00,http://hcidapp.lacity.org/mpphotos/ImageNotAvailable.png,,"1755 EFM 2, LLC","ALPHA PROPERTY MANAGEMENT, INC.",(323) 231-4174,-118.28066,34.04459,"(34.04459, -118.28066)",22723,697,1521,,11,8
5128022009,10-117457,THE 28TH ST APARTMENTS/FKA THE 28TH ST YMCA,1006 E 28TH ST 1-49 CA 90011,1,CENTRAL,9,READY FOR OCCUPANCY,BOTH REHAB AND NEW CONSTRUCTION,SRO,3287944.00,18200934.00,0.00,21488878.00,http://hcidapp.lacity.org/mpphotos/10-117457/Photo/Website/10-117457.JPG,216,"Clifford Beers Housing, Inc",LEVINE MANAGEMENT GROUP,(310) 730-3925,-118.25759,34.01701,"(34.01701, -118.25759)",22727,706,965,7,13,6
2111005028,124,TIERRA DEL SOL,7500 N ALABAMA AVE 1-119 CA 91303,1,CANOGA PARK,3,READY FOR OCCUPANCY,NEW CONSTRUCTION,LARGE FAMILY / WAIVER REQUIRED,8125000.00,15158179.00,2103714.00,25386893.00,http://hcidapp.lacity.org/mpphotos/000124/Photo/Website/CD%203%20-%20Tierra%20Del%20Sol%20-%20000124.jpg,169,"NEW ECONOMICS FOR WOMEN,",NEW CAPITAL LLC,(818) 887-6920,-118.59819,34.20813,"(34.20813, -118.59819)",4278,288,1465,,4,37
5077023015,11-117793,CAROLINE SEVERANCE MANOR,"2914 - 2924 W 8TH ST  Los Angeles, CA 90005",1,WILSHIRE CENTER,1,READY FOR OCCUPANCY,NEW CONSTRUCTION,SPECIAL NEEDS,891000.00,31386403.00,0.00,32277403.00,http://hcidapp.lacity.org/mpphotos/11-117793/Photo/Website/severancemanor4814_007.png,292,MERCY HOUSING CALIFORNIA 56,MERCY HOUSING MANAGEMENT GROUP (MHM),(213) 863-0250,-118.28972,34.05748,"(34.05748, -118.28972)",22722,599,1292,,11,63
2310025034,14-121651,THE FIESTA (FKA THE CAMPUS AT L.A. FAMILY HOUSING),"7860 N Simpson AVE  Los Angeles, CA 91605",1,SUN VALLEY,6,READY FOR OCCUPANCY,NEW CONSTRUCTION,SPECIAL NEEDS,2900000.00,14857568.00,0.00,17757568.00,http://hcidapp.lacity.org/mpphotos/14-121651/Photo/Website/The%20Campus.png,162,L.A. Family Housing Corporation,JOHN STEWART COMPANY,(213) 787-2722,-118.38872,34.21334,"(34.21334, -118.38872)",8888,161,473,,3,14
5142015004,80011,YOUNG BURLINGTON APARTMENTS,820 S BURLINGTON AVE 1-21 CA 90057,1,WESTLAKE,1,READY FOR OCCUPANCY,NEW CONSTRUCTION,SPECIAL NEEDS,1845000.00,9161655.00,0.00,11006655.00,http://hcidapp.lacity.org/mpphotos/080011/Photo/Website/080011.png,89,"W.O.R.K.S.,","SOLARI ENTERPRISES, INC.",(714) 282-2520 x201,-118.2748,34.05264,"(34.05264, -118.2748)",23078,571,628,,11,68
5183023003,13-119072,LINDA VISTA APARTMENTS (PHASE II),610 S ST LOUIS ST CA 90023,1,BOYLE HEIGHTS,14,READY FOR OCCUPANCY,BOTH REHAB AND NEW CONSTRUCTION,SENIORS,13635675.00,20513952.00,0.00,34149627.00,http://hcidapp.lacity.org/mpphotos/13-119072/Photo/Website/150_1603.png,295,"AMCAL Multi-Housing, Inc.","FPI MANAGEMENT, INC",(916) 850-4465,-118.2175,34.03863,"(34.03863, -118.2175)",23441,523,947,,9,38
5050001027,15-122550,CRENSHAW VILLAS,2631 1/2 S CRENSHAW BLVD CA 90016,1,CRENSHAW DISTRICT,10,READY FOR OCCUPANCY,NEW CONSTRUCTION,SENIORS,5017000.00,21631015.00,0.00,26648015.00,http://hcidapp.lacity.org/mpphotos/15-122550/Photo/Website/Crenshaw%20Villas.JPG,204,"American Communities, LLC",THE JOHN STEWART COMPANY,(213) 833-1860,-118.33538,34.03151,"(34.03151, -118.33538)",23077,668,926,7,12,17
2604021032,12-118868,SEVEN PALMS APTS.,12831 N SAN FERNANDO ROAD CA 91342,1,SYLMAR,7,READY FOR OCCUPANCY,ACQUISITION + REHAB,FAMILY,0.00,4707357.00,5442000.00,10149357.00,http://hcidapp.lacity.org/mpphotos/ImageNotAvailable.png,,"Seven Palms Sylmar COGP, LLC",KDF COMMUNITIES LLC,(949) 719-1888 x201,-118.46465,34.30306,"(34.30306, -118.46465)",18912,51,642,,1,47
5020032019,16-123080,WEST A HOMES (RECAP) (SITE 2),4100 S VERMONT AVE CA 90037,2,WEST VERNON,9,UNDERCONSTRUCTION,ACQUISITION + REHAB,FAMILY,0.00,4809923.00,5000000.00,9809923.00,http://hcidapp.lacity.org/mpphotos/ImageNotAvailable.png,,"VHJS, L.L.C",BARKER MANAGEMENT,(714) 533-3450,-118.29137,34.00887,"(34.00887, -118.29137)",23668,734,977,7,13,2
5148024026,17-124264,FLOR 401 LOFTS,401 E 7TH ST CA 90014,1,WHOLESALE DISTRICT,14,UNDERCONSTRUCTION,NEW CONSTRUCTION,SPECIAL NEEDS,12981892.00,0.00,0.00,12981892.00,http://hcidapp.lacity.org/mpphotos/17-124264/Photo/Website/Flor%20401%20Lofts%206-29-15.JPG,,Skid Row Housing Trust,SRHT PROPERTY MANAGEMENT COMPANY,(213) 683-0522 x127,-118.24802,34.04226,"(34.04226, -118.24802)",23075,537,783,,9,76
5148025009,17-124315,SP7 APARTMENTS (SITE 2),647 S SAN PEDRO ST CA 90014,2,WHOLESALE DISTRICT,14,UNDERCONSTRUCTION,BOTH REHAB AND NEW CONSTRUCTION,SPECIAL NEEDS,15000000.00,34485119.00,0.00,49485119.00,http://hcidapp.lacity.org/mpphotos/17-124315/Photo/Website%20Site2/SP7%20SP%20house.JPG,474,Skid Row Housing Trust,SRHT PROPERTY MANAGEMENT COMPANY,(213) 683-0522 x127,-118.24643,34.04132,"(34.04132, -118.24643)",23075,537,783,,9,76
2644025255,70019,ASTURIAS SENIOR APTS.,9628 N VAN NUYS BLVD CA 91402,1,PANORAMA CITY,6,READY FOR OCCUPANCY,NEW CONSTRUCTION,SENIORS,6437840.00,18806838.00,0.00,25244678.00,http://hcidapp.lacity.org/mpphotos/070019/Photo/Website/CD_7_-_Asturias_Sr._Apts._-_070019.png,161,"META HOUSING CORPORATION,","WESTERN SENIORS HOUSING, INC.",(949) 748-8201,-118.4499,34.24535,"(34.24535, -118.4499)",19730,132,958,,3,59
5037019051,30160,VERMONT SENIORS BY CRA,3901 S VERMONT AVE CA 90037,1,EXPOSITION PARK,8,READY FOR OCCUPANCY,NEW CONSTRUCTION,SENIORS,3600000.00,21500872.00,0.00,25100872.00,http://hcidapp.lacity.org/mpphotos/030160/Photo/Website/CD%208%20-%20Vermont%20Sr.%20I%20&%20%20II%20-%20030160.png,204,"COMMUNITY REDEVELOPMENT AGENCY, LA",N/A,N/A,-118.2918,34.01534,"(34.01534, -118.2918)",23668,729,1150,7,14,32
5405021065,30166,FIGUEROA PLACE,1320 W SUNSET BLVD 1-33 CA 90026,1,ANGELINO HEIGHTS,1,READY FOR OCCUPANCY,NEW CONSTRUCTION,FAMILY,1647000.00,8292373.00,0.00,9939373.00,http://hcidapp.lacity.org/mpphotos/030166/Photo/Website/CD%201%20-%20Figueroa%20Place%20-%20030166.jpg,63,"FIGUEROA PLACE, LP","MONROE GROUP LTD., PROFESSIONAL PROPERTY MANAGEMENT",N/A,-118.25105,34.072,"(34.072, -118.25105)",23444,483,1010,,11,31
5003029016,07-117233,HDR I & II,1733 W 58TH ST CA 90062,1,WEST VERNON,8,READY FOR OCCUPANCY,REHAB,FAMILY,0.00,8116043.00,6787000.00,14903043.00,http://hcidapp.lacity.org/mpphotos/ImageNotAvailable.png,,"Spruce DEV LA, LLC",PK MANAGEMENT,(818) 808-0600,-118.30812,33.98983,"(33.98983, -118.30812)",24027,743,1051,7,14,35
5001033033,11-117735,FIGUEROA APARTMENTS,5216 S FIGUEROA ST CA 90037,1,SOUTH PARK,9,READY FOR OCCUPANCY,REHAB,SPECIAL NEEDS,987637.00,3784378.00,0.00,4772015.00,http://hcidapp.lacity.org/mpphotos/11-117735/Photo/Website/figueroa_apartments_654_250hm.jpg,19,"COALITION FOR RESPONSIBLE COMM. DEVELOPMENT,",COMMUNITY HOUSING MANAGEMENT SERVICES,(562) 597-6200 x242,-118.28247,33.99536,"(33.99536, -118.28247)",23668,745,990,7,13,2
5154011012,40010,MAGNOLIA ON LAKE,201 S LAKE ST 1-46 CA 90057,1,TEMPLE-BEAUDRY,13,READY FOR OCCUPANCY,N/A,N/A,2669000.00,10784854.00,0.00,13453854.00,http://hcidapp.lacity.org/mpphotos/040010/Photo/Website/CD%2013%20-%20Magnolia%20on%20Lake.jpg,98,"MAGNOLIA ON LAKE, L.P. & SIPA",MCCORMACK BARON MANAGEMENT,(314) 335-2712,-118.2724,34.0663,"(34.0663, -118.2724)",24352,554,518,,8,67
5153023019,07-117237,QUEEN APARTMENTS (SITE 4),451 S LUCAS AVE CA 90017,4,WESTLAKE,1,READY FOR OCCUPANCY,REHAB,FAMILY,0.00,10271751.00,7300000.00,17571751.00,http://hcidapp.lacity.org/mpphotos/07-117237/Photo/Website%20Site4/Queens%20Apt%20(site4)%20457%20Lucas.png,,N/A,THE JOHN STEWART COMPANY,(213) 833-1860,-118.26304,34.05619,"(34.05619, -118.26304)",23078,565,1047,54,11,67
5078026028,11-118571,LA PRO II (SITE 2),1100 S BERENDO ST CA 90006,2,KOREATOWN,1,READY FOR OCCUPANCY,N/A,N/A,2000000.00,31674331.00,0.00,33674331.00,http://hcidapp.lacity.org/mpphotos/11-118571/Photo/Website%20Site2/la%20pro%20ii%2011-118571d.JPG,208,LA Pro II Preservation Limited Partnership,PRESERVATION PARTNERS MANAGEMENT GROUP,(310) 802-6671,-118.29357,34.05071,"(34.05071, -118.29357)",22723,620,1356,,11,8
5050012014,05-117193,LEEWARD APTS. (SITE 8),2828 S WEST BLVD CA 90016,8,CRENSHAW DISTRICT,10,READY FOR OCCUPANCY,REHAB,FAMILY,0.00,7103994.00,10208936.00,17312930.00,http://hcidapp.lacity.org/mpphotos/ImageNotAvailable.png,,"HAMPSTEAD PARTNERS, INC.","ALPHA PROPERTY MANAGEMENT, INC.",(323) 231-4174,-118.34156,34.03015,"(34.03015, -118.34156)",23077,668,926,7,12,17
5154001023,70157,BONNIE BRAE VILLAGE,208 S BONNIE BRAE ST 1-92 CA 90057,1,TEMPLE-BEAUDRY,13,READY FOR OCCUPANCY,ACQUISITION + NEW CONSTRUCTION,SENIORS,10948429.00,22282386.00,0.00,33230815.00,http://hcidapp.lacity.org/mpphotos/070157/Photo/Website/CD%2013%20-%20Bonnie%20Brae%20Village%20Apts..JPG,264,"ENHANCED AFFORDABLE DEV CO., LLC",AFFORDABLE LIVING FOR THE AGING,(213) 989-1550,-118.26862,34.06403,"(34.06403, -118.26862)",24352,551,942,,8,67
5149037010,12-118785,ROSSLYN HOTEL APARTMENTS,112 W 5TH ST CA 90013,1,DOWNTOWN,14,READY FOR OCCUPANCY,REHAB,SPECIAL NEEDS,8138435.00,27382725.00,0.00,35521160.00,http://hcidapp.lacity.org/mpphotos/12-118785/Photo/Website/12-118785.jpg,176,Single Room Occupancy Housing Corporation,SINGLE ROOM OCCUPANCY HOUSING CORPORATION,(213) 229-9640 x22,-118.24902,34.04687,"(34.04687, -118.24902)",23074,542,527,,9,76
5492023001,20284,PISGAH VILLAGE,6000 E ECHO ST CA 90042,1,HIGHLAND PARK,14,READY FOR OCCUPANCY,REHAB,SENIORS,3100000.00,6275599.00,0.00,9375599.00,http://hcidapp.lacity.org/mpphotos/020284/Photo/Website/CD%201%20-%20Pisgah%20Village.jpg,30,"W.O.R.K.S.,",SOLARI ENTERPRISES INC.,(714) 282-2520,-118.18824,34.11038,"(34.11038, -118.18824)",23673,372,575,28,9,93
2513006900,18-125040,METAMORPHOSIS ON FOOTHILL,13574 W FOOTHILL BLVD CA 91342,1,SYLMAR,7,UNDERCONSTRUCTION,NEW CONSTRUCTION,SPECIAL NEEDS,10340000.00,0.00,0.00,10340000.00,http://hcidapp.lacity.org/mpphotos/ImageNotAvailable.png,,Clifford Beers Housing Inc,JOHN STEWART COMPANY,(213) 787-2700,-118.42945,34.30638,"(34.30638, -118.42945)",18912,42,285,,1,47
5020025015,07-117233,HDR I & II (SITE 2),1040 W 43RD ST CA 90037,2,WEST VERNON,9,READY FOR OCCUPANCY,REHAB,FAMILY,0.00,8116043.00,6787000.00,14903043.00,http://hcidapp.lacity.org/mpphotos/ImageNotAvailable.png,,"Spruce DEV LA, LLC",PK MANAGEMENT,(818) 808-0600,-118.29298,34.00538,"(34.00538, -118.29298)",23668,733,1153,7,13,2
5142018010,15-121798,LEASTER APARTMENTS,825 S GREEN AVE CA 90017,1,WESTLAKE,1,READY FOR OCCUPANCY,ACQUISITION + REHAB,FAMILY,0.00,14979000.00,9162000.00,24141000.00,http://hcidapp.lacity.org/mpphotos/15-121798/Photo/Website/Project.png,,Pico Union Housing Corporation,"GENESSY MANAGEMENT AND DEVELOPMENT, LLC",(323) 913-2905,-118.27167,34.05105,"(34.05105, -118.27167)",23078,568,1378,,11,68
5148012005,70043,JAMES M. WOOD,408 E 5TH ST CA 90013,1,WHOLESALE DISTRICT,14,READY FOR OCCUPANCY,NEW CONSTRUCTION,SPECIAL NEEDS,4160000.00,10555970.00,0.00,14715970.00,http://hcidapp.lacity.org/mpphotos/070043/Photo/Website/James%20M%20Wood%20HIMS%20070043_Picture.png,132,Single Room Occupancy Housing  Corp. (SRO),JOSEPH CORCORAN,(213) 229-9640 x33,-118.24474,34.04439,"(34.04439, -118.24474)",23074,537,1289,,9,76
5124013020,16-123327,DUDLEY OAKS,2119 S OAK ST CA 90007,1,UNIVERSITY PARK,1,UNDERCONSTRUCTION,ACQUISITION + REHAB,AT-RISK,0.00,6351176.00,4912200.00,11263376.00,http://hcidapp.lacity.org/mpphotos/ImageNotAvailable.png,,"Thomas Safran & Associates Development, Inc","THOMAS SAFRAN AND ASSOCIATES, INC.",(310) 820-4888,-118.27969,34.03411,"(34.03411, -118.27969)",22724,698,444,7,11,32
5020027008,70172,TWO WORLD APARTMENTS (SITE 6),1048 W 42ND ST CA 90037,6,WEST VERNON,9,READY FOR OCCUPANCY,REHAB,SENIORS,3225000.00,17094146.00,0.00,20319146.00,http://hcidapp.lacity.org/mpphotos/070172/Photo/Website%20Site6/Two%20Worlds%201048%20W%2042nd%20St.%20-%20070172.png,99,"TWO WORLDS PRESERVATION LIMITED PARTNERSHIP,",N/A,N/A,-118.29322,34.0072,"(34.0072, -118.29322)",23668,733,1153,7,13,2
2629032001,15-122555,SUN VALLEY SENIOR VETERANS APARTMENTS,9041 N LAUREL CANYON BLVD CA 91352,1,SUN VALLEY,6,UNDERCONSTRUCTION,NEW CONSTRUCTION,SPECIAL NEEDS,0.00,31310988.00,0.00,31310988.00,http://hcidapp.lacity.org/mpphotos/ImageNotAvailable.png,,East LA Community Corporation,THE JOHN STEWART COMPANY,(213) 787-2700,-118.40573,34.23346,"(34.23346, -118.40573)",19335,156,1058,,3,21
2328014046,30115,HFL VAN NUYS APARTMENTS,13457 W VANOWEN ST CA 91405,1,VALLEY GLEN,2,READY FOR OCCUPANCY,NEW CONSTRUCTION,SPECIAL NEEDS,975900.00,2688221.00,0.00,3664121.00,http://hcidapp.lacity.org/mpphotos/030115/Photo/Website/CD%202%20-%20HFL%20Van%20Nuys.jpg,20,N/A,CARING HOUSING MINISTRIES,(626) 300-2447,-118.42638,34.19408,"(34.19408, -118.42638)",19733,183,491,,5,70
5586006016,15-122495,HCHC RECAP I,1924 N ARGYLE AVE CA 90068,1,HOLLYWOOD HILLS,4,READY FOR OCCUPANCY,ACQUISITION + REHAB,FAMILY,0.00,7026512.00,1126600.00,8153112.00,http://hcidapp.lacity.org/mpphotos/ImageNotAvailable.png,57,"HOLLYWOOD COMMUNITY HOUSING CORP.,",BARKER MANAGEMENT INC.,(714) 533-3450,-118.32509,34.10601,"(34.10601, -118.32509)",24033,405,371,,7,64
5152007049,40008,EMERALD TERRACE APTS.,"1345 W EMERALD DR  Los Angeles, CA 90026",1,TEMPLE-BEAUDRY,1,READY FOR OCCUPANCY,NEW CONSTRUCTION,LARGE FAMILY / WAIVER REQUIRED,4287128.00,19724861.00,0.00,24011989.00,http://hcidapp.lacity.org/mpphotos/040008/Photo/Website/CD%201%20-%20Emeral%20Terrace%20-%20040008.jpg,145,"META HOUSING CORPORATION,","SOLARI ENTERPRISES, INC.",(714) 282-2520,-118.26036,34.05977,"(34.05977, -118.26036)",23444,548,847,54,11,67
5080015076,11-118598,THE SERRANO,975 S SERRANO AVE 1-6 CA 90006,1,KOREATOWN,10,READY FOR OCCUPANCY,NEW CONSTRUCTION,FAMILY,3500000.00,14368683.00,0.00,17868683.00,http://hcidapp.lacity.org/mpphotos/11-118598/Photo/Website/serrano975sserrano_101713003-Resampled.png,137,"AMERICAN COMMUNITIES, LLC",THE JOHN STEWART COMPANY,(213) 787-2700,-118.30653,34.05333,"(34.05333, -118.30653)",22723,617,646,,12,89
2558034032,12-118770,DAY STREET APARTMENTS,7647 W DAY ST 1-3 CA 91042,1,TUJUNGA,7,READY FOR OCCUPANCY,NEW CONSTRUCTION,SPECIAL NEEDS,1745082.00,12860088.00,0.00,14605170.00,http://hcidapp.lacity.org/mpphotos/12-118770/Photo/Website/Day%20Street.png,121,"LA FAMILY HOUSING CORP.,",JOHN STEWART COMPANY,(213) 833-1860,-118.29973,34.25468,"(34.25468, -118.29973)",3222,6,260,18,1,7
5135016017,05-117193,LEEWARD APTS. (SITE 3),1134 W 17TH ST 1-28 CA 90015,3,PICO-UNION,1,READY FOR OCCUPANCY,REHAB,FAMILY,0.00,7103994.00,10208936.00,17312930.00,http://hcidapp.lacity.org/mpphotos/ImageNotAvailable.png,,"HAMPSTEAD PARTNERS, INC.","ALPHA PROPERTY MANAGEMENT, INC.",(323) 231-4174,-118.2809,34.04093,"(34.04093, -118.2809)",23076,697,1521,,11,8
6051030019,06-117222,WINDWARD APTS (A/B) (SITE 13),651 E 108TH ST CA 90059,13,CENTURY PALMS/COVE,8,READY FOR OCCUPANCY,REHAB,FAMILY,0.00,7438473.00,4641342.00,12079815.00,http://hcidapp.lacity.org/mpphotos/ImageNotAvailable.png,,1755 EFM 2,"ALPHA PROPERTY MANAGEMENT, INC.",(323) 231-4174,-118.26337,33.93844,"(33.93844, -118.26337)",24354,807,359,7,14,45
5005020011,11-118571,LA PRO II (SITE 4),5311 S RUTHELEN ST CA 90062,4,WEST VERNON,8,READY FOR OCCUPANCY,N/A,N/A,2000000.00,31674331.00,0.00,33674331.00,http://hcidapp.lacity.org/mpphotos/11-118571/Photo/Website%20Site4/la%20pro%20ii%2011-118571b.JPG,208,LA Pro II Preservation Limited Partnership,PRESERVATION PARTNERS MANAGEMENT GROUP,(310) 802-6671,-118.31272,33.99384,"(33.99384, -118.31272)",24027,743,622,7,14,35
6013006021,80010,MENLO PARK,831 W 70TH ST 1-49 CA 90044,1,HARVARD PARK,8,READY FOR OCCUPANCY,NEW CONSTRUCTION,FAMILY,6925014.00,18286197.00,0.00,25211211.00,http://hcidapp.lacity.org/mpphotos/080010/Photo/Website/080010.jpg,229,Advanced Development & Investments Inc.,FPI MANAGEMENT INC.,(714) 641-5110 x419,-118.28818,33.97648,"(33.97648, -118.28818)",23675,773,979,7,14,
2350006042,10-117669,NOHO SENIOR VILLAS,5525 N KLUMP AVE 1-49 CA 91601,1,NORTH HOLLYWOOD,2,READY FOR OCCUPANCY,NEW CONSTRUCTION,SENIORS,4932825.00,12092852.00,0.00,17025677.00,http://hcidapp.lacity.org/mpphotos/10-117669/Photo/Website/10-117669.JPG,139,"NoHo Senior Villas, L.P.",THE JOHN STEWART COMPANY,(213) 787-2700,-118.37542,34.17064,"(34.17064, -118.37542)",8488,208,279,,5,13
5073007004,30159,INGRAM PRESERVATION (SITE 3),1525 S ST ANDREWS PL 1-27 CA 90019,3,HARVARD HEIGHTS,10,READY FOR OCCUPANCY,REHAB,LARGE FAMILY / WAIVER REQUIRED,4900000.00,6637761.00,2790000.00,14327761.00,http://hcidapp.lacity.org/mpphotos/030159/Photo/Website%20Site3/St%20Andrews%204.png,21,"W.O.R.K.S.,","SOLARI ENTERPRISES, INC.",(714) 282-2520,-118.31179,34.0446,"(34.0446, -118.31179)",23080,676,897,,12,19
5142014043,16-123081,CRESCENT VILLAGES (RECAP),1721 W 8TH ST CA 90017,1,WESTLAKE,1,UNDERCONSTRUCTION,ACQUISITION + REHAB,FAMILY,535608.00,15855122.00,10144000.00,26534730.00,http://hcidapp.lacity.org/mpphotos/ImageNotAvailable.png,,"Valued Housing II, LLC",N/A,N/A,-118.27418,34.05339,"(34.05339, -118.27418)",23078,571,628,,11,68
6051028006,05-117193,LEEWARD APTS. (SITE 15),"10510 S AVALON BLVD  Los Angeles, CA 90002",15,CENTURY PALMS/COVE,8,READY FOR OCCUPANCY,REHAB,FAMILY,0.00,7103994.00,10208936.00,17312930.00,http://hcidapp.lacity.org/mpphotos/ImageNotAvailable.png,,"HAMPSTEAD PARTNERS, INC.","ALPHA PROPERTY MANAGEMENT, INC.",(323) 231-4174,-118.265,33.94056,"(33.94056, -118.265)",22351,807,359,7,14,45
5114015049,15-122537,PAUL WILLIAMS FAMILY APARTMENTS,"1010 E JEFFERSON BLVD  LOS ANGELES, CA 90011",1,CENTRAL,9,READY FOR OCCUPANCY,BOTH REHAB AND NEW CONSTRUCTION,FAMILY,5920435.37,17345555.00,0.00,23265990.37,http://hcidapp.lacity.org/mpphotos/15-122537/Photo/Website/Paul%20Williams%201.jpg,192,Hollywood Community Housing Corporation,BARKER MANAGEMENT INCORPORATED,(714) 533-3450,-118.258,34.01202,"(34.01202, -118.258)",22727,712,892,7,13,6
5141010004,20273,TIDES SENIORS APARTMENTS,623 S RAMPART BLVD CA 90057,1,WESTLAKE,1,READY FOR OCCUPANCY,NEW CONSTRUCTION,SENIORS,621614.00,4867990.00,0.00,5489604.00,"http://hcidapp.lacity.org/mpphotos/020273/Photo/Website/CD%201%20-%20Tides,%20The.JPG",5,"LOS ANGELES HOUSING PARTNERSHIP,",FPI MANAGEMENT,(714) 641-5110,-118.2821,34.06154,"(34.06154, -118.2821)",24352,558,884,,11,63
5214001002,18-125042,ROSA DE CASTILLA APARTMENTS,4208 E HUNTINGTON DR SOUTH CA 90032,1,EL SERENO,14,UNDERCONSTRUCTION,NEW CONSTRUCTION,SPECIAL NEEDS,12000000.00,0.00,0.00,12000000.00,http://hcidapp.lacity.org/mpphotos/ImageNotAvailable.png,,East LA Community Corportion,JOHN STEWART COMPANY,(213) 787-2700,-118.19263,34.07889,"(34.07889, -118.19263)",23449,500,614,,9,91
5037017010,40067,ROYALS APARTMENTS (SITE 4),3817 S WISCONSIN ST CA 90037,4,EXPOSITION PARK,8,READY FOR OCCUPANCY,REHAB,FAMILY,1100000.00,13039479.00,0.00,14139479.00,http://hcidapp.lacity.org/mpphotos/040067/Photo/Website%20Site4/royalswisconsin3817wisconsin315072of5(PNG).png,49,"Preservation Partners Management Group, Inc.",PRESERVATION PARTNERS MANAGEMENT GROUP,(310) 802-6673,-118.29319,34.01668,"(34.01668, -118.29319)",23668,729,1150,7,14,32
2219007027,13-119141,WEST VALLEY TOWERS,"14650 W SHERMAN WAY  VAN NUYS, CA 91405",1,VAN NUYS,6,READY FOR OCCUPANCY,ACQUISITION + REHAB,SENIORS,0.00,12527434.00,10924067.00,23451501.00,http://hcidapp.lacity.org/mpphotos/ImageNotAvailable.png,78,"RETIREMENT HOUSING FOUNDATION,","RETIREMENT HOUSING FOUNDATION,",N/A,-118.45208,34.20013,"(34.20013, -118.45208)",19733,229,288,,3,18
2644025006,60069,VILLAS LAS AMERICAS,9618 N VAN NUYS BLVD 1-55 CA 91402,1,PANORAMA CITY,6,READY FOR OCCUPANCY,NEW CONSTRUCTION,FAMILY,4657000.00,14709148.00,0.00,19366148.00,http://hcidapp.lacity.org/mpphotos/060069/Photo/Website/CD%207%20-%20Villas%20Las%20Americas%20-%20060069.jpg,134,"W.O.R.K.S.,",JOHN STEWART COMPANY,N/A,-118.45003,34.245,"(34.245, -118.45003)",19730,132,958,,3,59
5205013009,40051,FLORES DEL VALLE,"222 N AVENUE 23  LOS ANGELES, CA 90031",1,LINCOLN HEIGHTS,1,READY FOR OCCUPANCY,NEW CONSTRUCTION,FAMILY,4800000.00,25074282.00,0.00,29874282.00,http://hcidapp.lacity.org/mpphotos/040051/Photo/Website/CD%201%20-%20James%20Woods%20Apts.jpg,147,"AMCAL FLORES DEL VALLE FUND, L.P.","FPI MANAGEMENT, INC",(323) 235-5506,-118.21857,34.07842,"(34.07842, -118.21857)",23448,485,648,1,11,1
5108021026,13-120914,JUANITA TATE LEGACY TOWERS (RECAP),4827 S CENTRAL AVE 1-118 CA 90011,1,VERNON CENTRAL,9,READY FOR OCCUPANCY,ACQUISITION + REHAB,SENIORS,0.00,14005346.00,10291153.00,24296499.00,http://hcidapp.lacity.org/mpphotos/ImageNotAvailable.png,92,"CP Preservation Housing, LLC",CONCERNED CITIZENS OF SOUTH CENTRAL LOS ANGELES,N/A,-118.25668,33.99978,"(33.99978, -118.25668)",22727,723,563,7,13,
2210020003,09-117301,MONTECITO TERRACES,"14653 W BLYTHE ST  VAN NUYS, CA 91402",1,PANORAMA CITY,6,READY FOR OCCUPANCY,ACQUISITION + NEW CONSTRUCTION,SENIORS,3035582.00,21684852.00,0.00,24720434.00,http://hcidapp.lacity.org/mpphotos/09-117301/Photo/Website/Montecito__14655_Blythe.png,212,AMCAL Montecito Terraces Fund L.P.,THE JOHN STEWART COMPANY,(213) 787-2700,-118.45271,34.21532,"(34.21532, -118.45271)",19730,143,418,,3,59
5537023034,70159,HARVARD CIRCLE,952 N HARVARD BLVD 1-40 CA 90029,1,MELROSE,13,READY FOR OCCUPANCY,NEW CONSTRUCTION,FAMILY,6785617.00,16436770.00,0.00,23222387.00,http://hcidapp.lacity.org/mpphotos/070159/Photo/Website/CD%2013%20-%20Harvard%20Circle.JPG,142,"SADI, LLC",FPI MANAGEMENT INC.,(714) 641-5110 x419,-118.30371,34.0884,"(34.0884, -118.30371)",23447,439,929,,8,58
5501018035,14-121629,BEVERLY TERRACE,3322 W BEVERLY BLVD CA 90004,1,WILSHIRE CENTER,13,READY FOR OCCUPANCY,NEW CONSTRUCTION,SPECIAL NEEDS,7332409.00,14093153.00,951500.00,22377062.00,http://hcidapp.lacity.org/mpphotos/14-121629/Photo/Website/150_2873.png,211,A Community of Friends,BARKER MANAGEMENT INC.,(714) 971-5333 x450,-118.28506,34.07304,"(34.07304, -118.28506)",22721,579,885,16,8,80
5538002035,50004,MARIPOSA PLACE APARTMENTS,1050 N Mariposa AVE CA 90029,1,EAST HOLLYWOOD,13,READY FOR OCCUPANCY,NEW CONSTRUCTION,LARGE FAMILY / WAIVER REQUIRED,3132000.00,20876307.00,1532000.00,25540307.00,http://hcidapp.lacity.org/mpphotos/050004/Photo/Website/CD%2013%20-%20Mariposa%20Place.JPG,180,"HOLLYWOOD COMMUNITY HOUSING CORP.,",THE JOHN STEWART COMPANY,(213) 833-1860,-118.29906,34.09053,"(34.09053, -118.29906)",23447,437,730,,8,58
5535013015,07-117237,QUEEN APARTMENTS (SITE 2),5217 W MARATHON ST CA 90038,2,MELROSE,13,READY FOR OCCUPANCY,REHAB,FAMILY,0.00,10271751.00,7300000.00,17571751.00,http://hcidapp.lacity.org/mpphotos/07-117237/Photo/Website%20Site2/Queens%20Apt%20(Site2)%205217%20Marathon.png,,N/A,THE JOHN STEWART COMPANY,(213) 833-1860,-118.3121,34.085,"(34.085, -118.3121)",23669,440,521,,8,57
6038001020,70172,TWO WORLD APARTMENTS (SITE 2),8640 S DENVER AVE 1-8 CA 90044,2,VERMONT VISTA,8,READY FOR OCCUPANCY,REHAB,SENIORS,3225000.00,17094146.00,0.00,20319146.00,http://hcidapp.lacity.org/mpphotos/070172/Photo/Website%20Site2/Two%20Worlds%20%208640%20S.%20Denver%20-%20070172.png,99,"TWO WORLDS PRESERVATION LIMITED PARTNERSHIP,",N/A,N/A,-118.28373,33.95894,"(33.95894, -118.28373)",23675,801,931,7,14,45
5124024009,15-122656,ST. JAMES PARK (SITE 4),825 W ADAMS BLVD CA 90007,4,UNIVERSITY PARK,1,READY FOR OCCUPANCY,ACQUISITION + REHAB,FAMILY,0.00,27481703.00,9879228.00,37360931.00,http://hcidapp.lacity.org/mpphotos/ImageNotAvailable.png,,Retirement Housing Foundation,"FOUNDATION PROPERTY MANAGEMENT, INC.",(213) 746-9548,-118.28059,34.03043,"(34.03043, -118.28059)",22724,699,444,7,11,32
5059004029,70033,ROSA PARKS VILLAS,2440 S CRENSHAW BLVD CA 90018,1,WELLINGTON SQUARE,10,READY FOR OCCUPANCY,NEW CONSTRUCTION,SENIORS,6635267.00,12056911.00,0.00,18692178.00,http://hcidapp.lacity.org/mpphotos/070033/Photo/Website/CD%2010%20-%20Rosa%20Parks%20Villas%20-%20070033.png,153,"W.O.R.K.S.,",TELACU PROPERTY MANAGEMENT,(323) 721-1655,-118.33306,34.03429,"(34.03429, -118.33306)",23079,657,903,7,12,19
5054006007,06-117222,WINDWARD APTS (A/B) (SITE 8),2730 S NORMANDIE AVE CA 90007,8,ADAMS-NORMANDIE,8,READY FOR OCCUPANCY,REHAB,FAMILY,0.00,7438473.00,4641342.00,12079815.00,http://hcidapp.lacity.org/mpphotos/ImageNotAvailable.png,,1755 EFM 2,"ALPHA PROPERTY MANAGEMENT, INC.",(323) 231-4174,-118.30007,34.02996,"(34.02996, -118.30007)",22724,689,654,7,14,32
5110015013,80071,36TH STREET AND BROADWAY APARTMENTS,4777 S BROADWAY CA 90037,1,SOUTH PARK,9,READY FOR OCCUPANCY,REHAB,SPECIAL NEEDS,2938772.00,8338570.00,0.00,11277342.00,http://hcidapp.lacity.org/mpphotos/080071/Photo/Website/080071b.JPG,65,Gubb and Barshay,ABODE COMMUNITIES (FORMERLY LACDC),(213) 225-2812,-118.27853,33.99944,"(33.99944, -118.27853)",23668,737,655,7,13,
5115019908,11-117837,DUNBAR VILLAGE (SITE 2),4201 S CENTRAL AVE CA 90011,2,VERNON CENTRAL,9,READY FOR OCCUPANCY,ACQUISITION + REHAB,FAMILY,12019660.00,17563532.00,0.00,29583192.00,http://hcidapp.lacity.org/mpphotos/11-117837/Photo/Website%20Site2/dunbar4914_005%20copy.png,215,THOMAS SAFRAN & ASSOCIATES,THOMAS SAFRAN & ASSOCIATES,(310) 820-4888,-118.25688,34.00744,"(34.00744, -118.25688)",22727,713,664,7,13,
6046019906,16-123233,JORDAN DOWNS PHASE 1A,9901 S ALAMEDA ST CA 90002,1,,15,UNDERCONSTRUCTION,NEW CONSTRUCTION,FAMILY,0.00,24774444.00,33959951.00,58734395.00,http://hcidapp.lacity.org/mpphotos/ImageNotAvailable.png,,BRIDGE HOUSING CORPORATION,INTERSTATE REALTY MANAGEMENT,(209) 334-6565,-118.2289,33.9467,"(33.9467, -118.2289)",22351,1633,98,21,,
5058021013,05-117217,LEXINGTON APARTMENTS A/B (SITE 10),1835 W 25TH ST CA 90018,10,WEST ADAMS,8,READY FOR OCCUPANCY,REHAB,FAMILY,0.00,6771719.00,10247566.00,17019285.00,http://hcidapp.lacity.org/mpphotos/ImageNotAvailable.png,,"1755 EFM 2, LLC","ALPHA PROPERTY MANAGEMENT, INC.",(323) 231-4174,-118.30421,34.03376,"(34.03376, -118.30421)",23079,679,643,7,14,32
5164009012,15-121799,SKID ROW SOUTHEAST 1 RECAP (SITE 2),1205 E 6TH ST CA 90021,2,WHOLESALE DISTRICT,14,READY FOR OCCUPANCY,ACQUISITION + REHAB,SPECIAL NEEDS,0.00,13103064.00,0.00,13103064.00,http://hcidapp.lacity.org/mpphotos/ImageNotAvailable.png,,SRHT Property Holding Company LLC,SKID ROW PROPERTY MANAGEMENT COMPANY,(213) 683-0522 x127,-118.23797,34.03828,"(34.03828, -118.23797)",23082,533,1287,,9,28
5183001048,09-117211,LAS MARGARITAS (SITE 3),319 N CUMMINGS ST CA 90033,3,BOYLE HEIGHTS,14,READY FOR OCCUPANCY,BOTH REHAB AND NEW CONSTRUCTION,FAMILY,559761.00,14135658.00,0.00,14695419.00,http://hcidapp.lacity.org/mpphotos/09-117211/Photo/Website%20Site3/Las%20Margaritas%20319%20Cummings.JPG,121,East L.A. Community Corporation,THE JOHN STEWART COMPANY,(213) 878-2716,-118.2138,34.04789,"(34.04789, -118.2138)",23450,521,350,,9,38
5114014007,14-121652,FLORENCE MILLS (SITE 2),1046 E 35TH ST CA 90011,2,CENTRAL,9,UNDERCONSTRUCTION,NEW CONSTRUCTION,SPECIAL NEEDS,9389115.63,35861422.00,0.00,45250537.63,http://hcidapp.lacity.org/mpphotos/ImageNotAvailable.png,226,Hollywood Community Housing Corporation,BARKER MANAGEMENT INCORPORATED,(714) 533-3450,-118.25723,34.01161,"(34.01161, -118.25723)",22727,712,892,7,13,6
5540016014,05-117217,LEXINGTON APARTMENTS A/B (SITE 5),4829 W LEXINGTON AVE CA 90029,5,EAST HOLLYWOOD,13,READY FOR OCCUPANCY,REHAB,FAMILY,0.00,6771719.00,10247566.00,17019285.00,http://hcidapp.lacity.org/mpphotos/ImageNotAvailable.png,,"1755 EFM 2, LLC","ALPHA PROPERTY MANAGEMENT, INC.",(323) 231-4174,-118.29416,34.09354,"(34.09354, -118.29416)",23447,431,460,16,8,58
6073004030,10342,"TRI CITY APTS (AVALON, MARIPOSA, ROCKVIEW)",10803 S AVALON BLVD CA 90061,1,CENTURY PALMS/COVE,8,READY FOR OCCUPANCY,N/A,LARGE FAMILY / WAIVER REQUIRED,2655000.00,0.00,0.00,2655000.00,http://hcidapp.lacity.org/mpphotos/ImageNotAvailable.png,,"CORRIDOR ECONOMIC DEV. CORP.,",BARKER MANAGEMENT INCORPORATED,(714) 533-3450,-118.26535,33.93807,"(33.93807, -118.26535)",24355,808,1190,7,14,45
5502018025,10-117548,NORMANDIE TERRACE APARTMENT HOMES,540 S NORMANDIE AVE 1-66 CA 90020,1,KOREATOWN,10,READY FOR OCCUPANCY,NEW CONSTRUCTION,FAMILY,3200000.00,25449746.00,0.00,28649746.00,http://hcidapp.lacity.org/mpphotos/10-117548/Photo/Website/10-117548.JPG,196,"AMERICAN COMMUNITIES, LLC",THE JOHN STEWART COMPANY,(213) 787-2722,-118.30015,34.06411,"(34.06411, -118.30015)",23081,598,1261,,12,89
5536016005,13-119154,HOLLYWOODLAND (SITE 3),977 N WILTON PL CA 90038,3,MELROSE,13,READY FOR OCCUPANCY,ACQUISITION + REHAB,SENIORS,0.00,7946357.00,10500000.00,18446357.00,http://hcidapp.lacity.org/mpphotos/ImageNotAvailable.png,53,Steele Properties LLC,"MONROE GROUP, LRD",(303) 322-8888,-118.31368,34.08834,"(34.08834, -118.31368)",23669,441,928,,8,57
5137007027,40001,JAMES WOOD APARTMENTS,1328 W JAMES M. WOOD BLVD 1-18 CA 90015,1,PICO-UNION,1,READY FOR OCCUPANCY,NEW CONSTRUCTION,FAMILY,3233454.00,14858587.00,2100000.00,20192041.00,http://hcidapp.lacity.org/mpphotos/040001/Photo/Website/James%20Woods%20(1).jpg,61,"DECRO CORPORATION,",JOHN STERN,(213) 749-0214 x203,-118.27,34.04917,"(34.04917, -118.27)",23076,576,1378,54,11,68
5073018900,18-124672,GRAMERCY PLACE APARTMENTS,2375 W WASHINGTON BLVD CA 90018,1,HARVARD HEIGHTS,10,UNDERCONSTRUCTION,NEW CONSTRUCTION,SPECIAL NEEDS,13920000.00,28686550.00,90290.00,42696840.00,http://hcidapp.lacity.org/mpphotos/18-124672/Photo/Website/Gramercy%20Place%20Apartments.JPG,,Hollywood Community Housing Corporation,BARKER MANAGEMENT,(714) 533-3450,-118.31383,34.04009,"(34.04009, -118.31383)",23080,674,898,,12,19
5153005027,06-117195,CONCORD APARTMENTS (GRP. A & B) (SITE 2),522 S UNION AVE CA 90017,2,WESTLAKE,1,READY FOR OCCUPANCY,REHAB,FAMILY,0.00,7334438.00,8579256.00,15913694.00,http://hcidapp.lacity.org/mpphotos/ImageNotAvailable.png,,"1755 EFM 2, LLC","ALPHA PROPERTY MANAGEMENT, INC.",(323) 231-4174,-118.26934,34.05783,"(34.05783, -118.26934)",23078,564,836,,11,67
2536015029,12-118879,MOONLIGHT VILLAS,12381 W OSBORNE ST CA 91331,1,PACOIMA,7,READY FOR OCCUPANCY,NEW CONSTRUCTION,SPECIAL NEEDS,2044211.00,10243590.00,0.00,12287801.00,http://hcidapp.lacity.org/mpphotos/12-118879/Photo/Website/Moonlight%20Villas.png,103,Los Angeles Housing Partnership,BARKER MANAGEMENT INC,(213) 833-1860,-118.40283,34.26101,"(34.26101, -118.40283)",18907,33,330,,1,11
5148012022,11-117804,GATEWAYS APARTMENTS,505 S SAN PEDRO ST CA 90013,1,WHOLESALE DISTRICT,14,READY FOR OCCUPANCY,NEW CONSTRUCTION,SPECIAL NEEDS,9411904.00,19989366.00,0.00,29401270.00,http://hcidapp.lacity.org/mpphotos/11-117804/Photo/Website/gateway505sanpedro_102213004.png,232,SRO Housing Corporation,SRO HOUSING CORP,(213) 572-0251,-118.24444,34.04392,"(34.04392, -118.24444)",23074,537,1289,,9,76
5080030021,80053,PROFESSIONAL HSG. & DEV. APTS. (PH & D),1020 S KINGSLEY DR CA 90006,1,KOREATOWN,10,READY FOR OCCUPANCY,REHAB,FAMILY,4575000.00,10250907.00,0.00,14825907.00,http://hcidapp.lacity.org/mpphotos/080053/Photo/Website/PH&D%201020%20Kingsley.jpg,45,Gubb and Barshay,LITTLE TOKYO SERVICE CENTER,(213) 434-1645,-118.30298,34.05197,"(34.05197, -118.30298)",22723,617,646,,12,89
5046001021,15-122533,CRENSHAW GARDENS,3411 S CRENSHAW BLVD CA 90016,1,CRENSHAW DISTRICT,10,READY FOR OCCUPANCY,NEW CONSTRUCTION,FAMILY,6875000.00,21899538.00,0.00,28774538.00,http://hcidapp.lacity.org/mpphotos/15-122533/Photo/Website/Final%20Photo.png,229,Retirement Housing Foundation,"FOUNDATION PROPERTY MANAGEMENT, INC.",(562) 257-5100,-118.33529,34.02508,"(34.02508, -118.33529)",23077,668,926,7,12,17
5502031011,14-121509,WILSHIRE TOWERS,616 S NORMANDIE AVE CA 90005,1,KOREATOWN,10,READY FOR OCCUPANCY,ACQUISITION + REHAB,SENIORS,0.00,52443992.00,0.00,52443992.00,http://hcidapp.lacity.org/mpphotos/ImageNotAvailable.png,,N/A,THOMAS SAFRAN & ASSOCIATES,(310) 820-4888,-118.30016,34.06301,"(34.06301, -118.30016)",22722,598,1261,,12,89
5124015902,14-121653,NORWOOD LEARNING VILLAGE,2009 S OAK ST CA 90007,1,UNIVERSITY PARK,1,READY FOR OCCUPANCY,NEW CONSTRUCTION,FAMILY,2179360.00,17377723.00,0.00,19557083.00,http://hcidapp.lacity.org/mpphotos/14-121653/Photo/Website/Norwood%20Learning%20Center.jpg,100,"Thomas Safran & Associates Development, Inc",THOMAS SAFRAN & ASSOCIATES INC,(310) 820-4888,-118.27903,34.03517,"(34.03517, -118.27903)",22724,698,444,7,11,32
5137034009,06-117195,CONCORD APARTMENTS (GRP. A & B) (SITE 7),1682 W 12TH PL CA 90015,7,PICO-UNION,1,READY FOR OCCUPANCY,REHAB,FAMILY,0.00,7334438.00,8579256.00,15913694.00,http://hcidapp.lacity.org/mpphotos/ImageNotAvailable.png,,"1755 EFM 2, LLC","ALPHA PROPERTY MANAGEMENT, INC.",(323) 231-4174,-118.27908,34.0465,"(34.0465, -118.27908)",23076,575,908,,11,8
6120018084,13-119250,VERMONT VILLAS,16304 S VERMONT AVE CA 90247,1,HARBOR GATEWAY,15,READY FOR OCCUPANCY,NEW CONSTRUCTION,SPECIAL NEEDS,3872900.00,17861000.00,0.00,21733900.00,http://hcidapp.lacity.org/mpphotos/13-119250/Photo/Website/150_2748.png,187,"AHG Vermont, LLC (Affirmed Housing Group)","SOLARI ENTERPRISES, INC.",(714) 282-2520 x224,-118.2905,33.88332,"(33.88332, -118.2905)",24684,941,1197,7,15,53
5211007054,60060,MANITOU VISTAS I,3422 E MANITOU AVE CA 90031,1,LINCOLN HEIGHTS,1,READY FOR OCCUPANCY,N/A,N/A,2749622.00,20163903.00,0.00,22913525.00,http://hcidapp.lacity.org/mpphotos/060060/Photo/Website/CD%201%20-%20Manitou%20Vistas.jpg,174,"ADVANCED DEVELOPMENT & INVESTMENT,","WESTLAKE HOUSING, LP",(512) 782-4898,-118.20423,34.07189,"(34.07189, -118.20423)",23448,487,337,,11,1
5537020038,80054,SWANSEA PARK SENIOR APTS.,1015 N KINGSLEY DR CA 90029,1,MELROSE,13,READY FOR OCCUPANCY,REHAB,SENIORS,3600000.00,16208353.00,0.00,19808353.00,http://hcidapp.lacity.org/mpphotos/080054/Photo/Website/080054.jpg,40,Deep Green / Beyond Shelter (BSHDC),DEEP GREEN PROPERTY MANAGEMENT,(213) 688-5024,-118.30431,34.08915,"(34.08915, -118.30431)",23447,439,929,,8,58
5152007027,50029,CORONITA FAMILY,204 S LUCAS AVE 1-21 CA 90026,1,TEMPLE-BEAUDRY,1,READY FOR OCCUPANCY,ACQUISITION + NEW CONSTRUCTION,FAMILY,2269560.00,5680952.00,0.00,7950512.00,http://hcidapp.lacity.org/mpphotos/050029/Photo/Website/coronita204lucas3of511308(PNG).png,47,"META HOUSING CORPORATION,","SOLARI ENTERPRISES, INC.",(714) 282-2520,-118.26005,34.06047,"(34.06047, -118.26005)",23444,548,847,54,11,67
5082006029,05-117193,LEEWARD APTS. (SITE 10),1130 S WEST BLVD CA 90019,10,COUNTRY CLUB PARK,10,READY FOR OCCUPANCY,REHAB,FAMILY,0.00,7103994.00,10208936.00,17312930.00,http://hcidapp.lacity.org/mpphotos/ImageNotAvailable.png,,"HAMPSTEAD PARTNERS, INC.","ALPHA PROPERTY MANAGEMENT, INC.",(323) 231-4174,-118.33163,34.05356,"(34.05356, -118.33163)",23080,614,1345,,12,52
2421011046,09-117383,VINELAND AVENUE SENIOR HOUSING,4900 N VINELAND AVE 1-82 CA 91601,1,NORTH HOLLYWOOD,2,READY FOR OCCUPANCY,NEW CONSTRUCTION,SENIORS,1200212.00,19057134.00,0.00,20257346.00,http://hcidapp.lacity.org/mpphotos/09-117383/Photo/Website/09-117383.jpg,165,"VINELAND AVENUE SENIOR HOUSING, L.P.",MENORAH HOUSING FOUNDATION,(310) 475-6083,-118.37008,34.1595,"(34.1595, -118.37008)",8488,213,553,,5,13
6053006926,10-117596,BROADWAY VILLAS,9413 S SPRING ST 101-116 CA 90003,1,VERMONT VISTA,8,READY FOR OCCUPANCY,NEW CONSTRUCTION,SENIORS,4500000.00,9221011.00,1726432.00,15447443.00,http://hcidapp.lacity.org/mpphotos/10-117596/Photo/Website/Broadway%20Villas.jpg,109,"AMCAL Multi-Housing, Inc",JOHN STEWART COMPANY,N/A,-118.2769,33.95052,"(33.95052, -118.2769)",22352,804,1172,7,14,45
5492034006,07-117233,HDR I & II (SITE 8),111 S AVENUE 63 CA 90042,8,HIGHLAND PARK,14,READY FOR OCCUPANCY,REHAB,FAMILY,0.00,8116043.00,6787000.00,14903043.00,http://hcidapp.lacity.org/mpphotos/ImageNotAvailable.png,,"Spruce DEV LA, LLC",PK MANAGEMENT,(818) 808-0600,-118.18299,34.11442,"(34.11442, -118.18299)",23673,359,575,,9,93
5544019004,80004,HOLLYWOOD BUNGALOW COURTS (SITE 2),"1516 N SERRANO AVE  LOS ANGELES, CA 90027",2,THAI TOWN,13,READY FOR OCCUPANCY,ACQUISITION + REHAB,FAMILY,4390000.00,17823840.00,0.00,22213840.00,http://hcidapp.lacity.org/mpphotos/080004/Photo/Website%20Site2/CD%2013%20-%20Hollywood%20Bungalows%20-%201516%20Serrano.jpg,104,"HOLLYWOOD COMMUNITY HOUSING CORP.,",BARKER MANAGEMENT INCORPORATED,(714) 533-3450,-118.30696,34.09897,"(34.09897, -118.30696)",23445,421,555,16,8,58
6032026027,06-117222,WINDWARD APTS (A/B) (SITE 3),621 W 81ST ST 1-11 CA 90044,3,VERMONT VISTA,8,READY FOR OCCUPANCY,REHAB,FAMILY,0.00,7438473.00,4641342.00,12079815.00,http://hcidapp.lacity.org/mpphotos/ImageNotAvailable.png,,1755 EFM 2,"ALPHA PROPERTY MANAGEMENT, INC.",(323) 231-4174,-118.28495,33.96563,"(33.96563, -118.28495)",23675,782,1360,7,14,45
5518029006,13-119741,THE BERENDOS APTS. (RECAP),226 S BERENDO ST CA 90004,1,WILSHIRE CENTER,13,READY FOR OCCUPANCY,ACQUISITION + REHAB,SPECIAL NEEDS,0.00,9656868.00,0.00,9656868.00,http://hcidapp.lacity.org/mpphotos/13-119741/Photo/Website/HIMS%20PHOTO.png,86,A Communitiy of Friends,A COMMUNITIY OF FRIENDS,(213) 480-0809 x230,-118.29399,34.07003,"(34.07003, -118.29399)",22721,584,937,16,8,89
5148024007,60011,LYNDON HOTEL,413 E 7TH ST CA 90014,1,WHOLESALE DISTRICT,14,READY FOR OCCUPANCY,REHAB,SPECIAL NEEDS,2035070.00,6438646.00,0.00,8473716.00,http://hcidapp.lacity.org/mpphotos/060011/Photo/Website/Lyndon.png,45,Single Room Occupancy Housing  Corp. (SRO),SRO HOUSING CORPORATION,(213) 229-9641,-118.248,34.04177,"(34.04177, -118.248)",23075,537,783,,9,76
5006008026,15-122551,WEST ANGELES CITY PLACE SENIOR APARTMENTS,5414 S CRENSHAW BLVD CA 90043,1,HYDE PARK,8,UNDERCONSTRUCTION,NEW CONSTRUCTION,SENIORS,3385000.00,23782520.00,0.00,27167520.00,http://hcidapp.lacity.org/mpphotos/ImageNotAvailable.png,236,West Angeles Community Development Corporation,RELATED MANAGEMENT COMPANY,(212) 319-1200,-118.33045,33.99241,"(33.99241, -118.33045)",23674,752,1036,7,14,24
6058007004,11-118571,LA PRO II,10311 S WESTERN AVE CA 90047,1,GRAMERCY PLACE,8,READY FOR OCCUPANCY,N/A,N/A,2000000.00,31674331.00,0.00,33674331.00,http://hcidapp.lacity.org/mpphotos/11-118571/Photo/Website/LA%20PRO%20II%2010311_S._Western.JPG,208,LA Pro II Preservation Limited Partnership,PRESERVATION PARTNERS MANAGEMENT GROUP,(310) 802-6671,-118.30933,33.94237,"(33.94237, -118.30933)",23678,779,1170,7,14,20
2656018034,09-104740,CROSSINGS AT NORTH HILLS,9311 N SEPULVEDA BLVD 1-4 CA 91343,1,NORTH HILLS,7,READY FOR OCCUPANCY,ACQUISITION + NEW CONSTRUCTION,FAMILY,3620719.00,13390025.00,0.00,17010744.00,http://hcidapp.lacity.org/mpphotos/09-104740/Photo/Website/crossingnh1512_011-.png,79,UHC 00317 North Hills Development LLC,ABODE COMMUNITIES,(213) 629-2702,-118.468,34.24039,"(34.24039, -118.468)",18914,116,1092,,1,73
5076018023,15-122540,WESTMORE LINDEN SENIORS (PHASE 1),1250 S WESTMORELAND AVE CA 90006,1,PICO-UNION,1,UNDERCONSTRUCTION,NEW CONSTRUCTION,SENIORS,0.00,0.00,0.00,0.00,http://hcidapp.lacity.org/mpphotos/ImageNotAvailable.png,229,West Hollywood Community Housing Corporation,N/A,N/A,-118.2879,34.04805,"(34.04805, -118.2879)",22723,622,479,,11,8
2216002058,12-119044,HAZELTINE & WYANDOTTE,"7250 N HAZELTINE AVE  VAN NUYS, CA 91405",1,VALLEY GLEN,2,READY FOR OCCUPANCY,ACQUISITION + REHAB,FAMILY,0.00,8271924.00,10381000.00,18652924.00,http://hcidapp.lacity.org/mpphotos/12-119044/Photo/Website/150_1637.png,41,"INSITE DEVELOPMENT, LLC",IRONWOOD COMPANY,(818) 789-5550,-118.43982,34.20292,"(34.20292, -118.43982)",19733,217,469,,5,18
5205012008,60022,TESORO DEL VALLE,2301 N HUMBOLDT ST CA 90031,1,LINCOLN HEIGHTS,1,READY FOR OCCUPANCY,NEW CONSTRUCTION,FAMILY,936022.00,20075651.00,0.00,21011673.00,http://hcidapp.lacity.org/mpphotos/060022/Photo/Website/CD%201%20-%20Tesoro%20Del%20Valle%20-%20060022.jpg,121,"AMCAL Multi-Housing, Inc.",FPI MANAGEMENT,(714) 641-5110,-118.2195,34.07925,"(34.07925, -118.2195)",23448,485,648,1,11,1
5151004913,12-118869,PARCEL M-GRAND AVE.,225 S GRAND AVE CA 90012,1,DOWNTOWN,14,READY FOR OCCUPANCY,NEW CONSTRUCTION,FAMILY,0.00,14195189.00,102905000.00,117100189.00,http://hcidapp.lacity.org/mpphotos/12-118869/Photo/Website/Parcel%20M-%20Grand%20Ave.png,1165,"RELATED CALIFORNIA URBAN HOUSING, LLC",RELATED MANAGEMENT COMPANY,(949) 660-7272,-118.25078,34.05388,"(34.05388, -118.25078)",22728,545,1262,37,9,76
5137032023,09-117198,MOSAIC APARTMENTS,1526 W 12TH PL CA 90015,1,PICO-UNION,1,READY FOR OCCUPANCY,N/A,N/A,0.00,0.00,0.00,0.00,http://hcidapp.lacity.org/mpphotos/ImageNotAvailable.png,149,N/A,N/A,N/A,-118.27557,34.0449,"(34.0449, -118.27557)",23076,576,661,,11,8
5422020031,156,ALLESANDRO STREET APTS.,1934 N ALLESANDRO ST CA 90039,1,ECHO PARK,13,READY FOR OCCUPANCY,NEW CONSTRUCTION,SPECIAL NEEDS,620900.00,3037101.00,0.00,3658001.00,http://hcidapp.lacity.org/mpphotos/000156/Photo/Website/CD%2013%20-%20Allesandro%20St.%20Apts..jpg,29,"HOLLYWOOD COMMUNITY HOUSING CORP.,",BARKER MANAGEMENT INCORPORATED,(714) 533-3450,-118.25791,34.09106,"(34.09106, -118.25791)",23670,480,1427,,8,31
5545007097,11-117795,THE GORDON,"1553 N GORDON ST  HOLLYWOOD, CA 90028",1,HOLLYWOOD,13,READY FOR OCCUPANCY,NEW CONSTRUCTION,FAMILY,1650000.00,7777676.00,0.00,9427676.00,http://hcidapp.lacity.org/mpphotos/11-117795/Photo/Website/11-117795.jpg,76,"AMERICAN COMMUNITIES, LLC",THE JOHN STEWART COMPANY,(213) 787-2722,-118.31978,34.09966,"(34.09966, -118.31978)",23446,427,556,,8,57
5123001900,18-124729,CASA DE ROSAS CAMPUS,2600 S HOOVER ST CA 90007,1,UNIVERSITY PARK,9,UNDERCONSTRUCTION,REHAB,SPECIAL NEEDS,7920000.00,2560162.35,0.00,10480162.35,http://hcidapp.lacity.org/mpphotos/18-124729/Photo/Website/Casa%20de%20Rosas.JPG,,WARD Economic Development Corporation,TELACU,(323) 838-8556,-118.28362,34.03133,"(34.03133, -118.28362)",22724,701,967,7,13,32
5532021026,17-124372,MCCADDEN PLAZA YOUTH HOUSING,1136 N MCCADDEN PL CA 90038,1,MELROSE,4,UNDERCONSTRUCTION,NEW CONSTRUCTION,SPECIAL NEEDS,5518298.00,0.00,0.00,5518298.00,http://hcidapp.lacity.org/mpphotos/17-124372/Photo/Website/AMRC%2010-24-16%20(cannot%20be%20uploaded%20bc%20not%20in%20hims%20yet).JPG,,"Thomas Safran & Associates Development, Inc.","THOMAS SAFRAN & ASSOCIATES, INC.",(310) 820-4888,-118.33733,34.0917,"(34.0917, -118.33733)",23669,444,490,,7,34
5456012904,09-117384,GLASSELL PARK COMMUNITY HSG/AKA RIO VISTA APT,3000 N VERDUGO ROAD 1-50 CA 90065,1,GLASSELL PARK,1,READY FOR OCCUPANCY,NEW CONSTRUCTION,FAMILY,2640475.00,26061533.00,0.00,28702008.00,http://hcidapp.lacity.org/mpphotos/09-117384/Photo/Website/glassellpark1912_007-.png,260,"Abode Communities / fka LA COMMUNITY DESIGN CENTER,",ABODE COMMUNITIES (FORMERLY LACDC),(213) 225-2756,-118.23757,34.10548,"(34.10548, -118.23757)",24030,390,1056,13,11,56
6066019011,05-117217,LEXINGTON APARTMENTS A/B (SITE 9),10607 S KALMIA ST CA 90002,9,WATTS,15,READY FOR OCCUPANCY,REHAB,FAMILY,0.00,6771719.00,10247566.00,17019285.00,http://hcidapp.lacity.org/mpphotos/ImageNotAvailable.png,,"1755 EFM 2, LLC","ALPHA PROPERTY MANAGEMENT, INC.",(323) 231-4174,-118.23181,33.93941,"(33.93941, -118.23181)",22351,823,1184,7,15,40
2644025254,70022,CANTABRIA SENIOR APTS.,9640 N VAN NUYS BLVD CA 91402,1,PANORAMA CITY,6,READY FOR OCCUPANCY,NEW CONSTRUCTION,SENIORS,7561160.00,23323383.00,0.00,30884543.00,http://hcidapp.lacity.org/mpphotos/070022/Photo/Website/CD%207%20-%20Cantabria%20Sr.%20Apts..jpg,188,Meta Housing Corporation,"WESTERN SENIORS HOUSING, INC.",(949) 748-8201,-118.44969,34.2457,"(34.2457, -118.44969)",19730,132,958,,3,59
5075001016,30171,PICO NEW HAMPSHIRE APTS.,1308 S NEW HAMPSHIRE AVE 1-30 CA 90006,1,HARVARD HEIGHTS,1,READY FOR OCCUPANCY,NEW CONSTRUCTION,LARGE FAMILY / WAIVER REQUIRED,1942833.00,4694005.00,840000.00,7476838.00,http://hcidapp.lacity.org/mpphotos/030171/Photo/Website/CD%201%20-%20Pico%20New%20Hampshire.jpg,58,1010 DEVELOPMENT CORPORATION,1010 DEVELOPMENT,(213) 749-0214,-118.29227,34.04697,"(34.04697, -118.29227)",22723,673,923,,11,8
6020009032,17-124265,THE POINTE ON VERMONT,7600 S VERMONT AVE CA 90044,1,VERMONT KNOLLS,8,UNDERCONSTRUCTION,NEW CONSTRUCTION,SPECIAL NEEDS,12100000.00,0.00,0.00,12100000.00,http://hcidapp.lacity.org/mpphotos/17-124265/Photo/Website/The%20pointe%205-1-17.JPG,,EAH INC,EAH INC,(415) 258-1800,-118.29131,33.97054,"(33.97054, -118.29131)",23675,776,1360,7,14,
5153005026,07-117237,QUEEN APARTMENTS (SITE 5),516 S UNION AVE CA 90017,5,WESTLAKE,1,READY FOR OCCUPANCY,REHAB,FAMILY,0.00,10271751.00,7300000.00,17571751.00,http://hcidapp.lacity.org/mpphotos/07-117237/Photo/Website%20Site5/Queens%20Apt(site5)%20516%20Union.png,,N/A,THE JOHN STEWART COMPANY,(213) 833-1860,-118.26926,34.05794,"(34.05794, -118.26926)",23078,564,836,,11,67
2328008008,14-121716,CREST APARTMENTS,13604 W SHERMAN WAY CA 91405,1,VALLEY GLEN,2,READY FOR OCCUPANCY,NEW CONSTRUCTION,SPECIAL NEEDS,4200000.00,19590200.00,0.00,23790200.00,http://hcidapp.lacity.org/mpphotos/14-121716/Photo/Website/P9130382.png,174,Skid Row Housing Trust,THE JOHN STEWART COMPANY,(213) 833-1860,-118.4293,34.20102,"(34.20102, -118.4293)",19733,183,491,,5,70
5544003001,10-117631,5555 HOLLYWOOD,"5555 W HOLLYWOOD BLVD  HOLLYWOOD, CA 90028",1,HOLLYWOOD,13,READY FOR OCCUPANCY,NEW CONSTRUCTION,SENIORS,4904920.00,37674763.00,0.00,42579683.00,http://hcidapp.lacity.org/mpphotos/10-117631/Photo/Website/10-117631.JPG,362,"META HOUSING CORPORATION,","WESTERN SENIORS HOUSING, INC.",(949) 748-8201,-118.31132,34.1019,"(34.1019, -118.31132)",23446,417,554,16,8,64
5075007010,80053,PROFESSIONAL HSG. & DEV. APTS. (PH & D) (SITE 2),1400 S KENMORE AVE CA 90006,2,HARVARD HEIGHTS,1,READY FOR OCCUPANCY,REHAB,FAMILY,4575000.00,10250907.00,0.00,14825907.00,http://hcidapp.lacity.org/mpphotos/080053/Photo/Website%20Site2/PH&D%201745%20W%2020th.jpg,45,Gubb and Barshay,LITTLE TOKYO SERVICE CENTER,(213) 434-1645,-118.29687,34.04628,"(34.04628, -118.29687)",22723,673,923,,11,8
5036012028,06-117222,WINDWARD APTS (A/B) (SITE 7),3881 S DENKER AVE CA 90062,7,EXPOSITION PARK,8,READY FOR OCCUPANCY,REHAB,FAMILY,0.00,7438473.00,4641342.00,12079815.00,http://hcidapp.lacity.org/mpphotos/ImageNotAvailable.png,,1755 EFM 2,"ALPHA PROPERTY MANAGEMENT, INC.",(323) 231-4174,-118.30466,34.01493,"(34.01493, -118.30466)",24027,730,1011,7,14,32
5445006907,14-121136,TAYLOR YARD SENIOR HOUSING,2590 E ARVIA ST CA 90065,1,ATWATER VILLAGE,1,READY FOR OCCUPANCY,NEW CONSTRUCTION,SENIORS,3728729.00,30181206.00,0.00,33909935.00,http://hcidapp.lacity.org/mpphotos/14-121136/Photo/Website/Taylor%20Yard%20Senior.png,311,"McCormack Baron Salazar, Inc.","MCCORMACK BARON RAGAN MANAGEMENT SERVICES, INC.",(213) 236-2694,-118.231,34.09459,"(34.09459, -118.231)",24030,392,1430,,11,94
6032020018,06-117222,WINDWARD APTS (A/B) (SITE 18),621 W 84TH ST 1-5 CA 90044,18,VERMONT VISTA,8,READY FOR OCCUPANCY,REHAB,FAMILY,0.00,7438473.00,4641342.00,12079815.00,http://hcidapp.lacity.org/mpphotos/ImageNotAvailable.png,,1755 EFM 2,"ALPHA PROPERTY MANAGEMENT, INC.",(323) 231-4174,-118.28483,33.96227,"(33.96227, -118.28483)",23675,783,1005,7,14,45
4006020022,14-121640,SILVER STAR APARTMENTS/FKA WEST VILLAS,6570 S WEST BLVD CA 90043,1,HYDE PARK,8,READY FOR OCCUPANCY,DEMO/NEW CONSTRUCTION,SPECIAL NEEDS,2519384.00,17666601.00,0.00,20185985.00,http://hcidapp.lacity.org/mpphotos/14-121640/Photo/Website/P6060046.png,146,A Community of Friends,BARKER MANAGEMENT INC.,(714) 533-3450,-118.33503,33.97915,"(33.97915, -118.33503)",23674,756,353,7,14,24
2654037081,80001,ANDALUCIA SENIOR APARTMENTS,15305 W LANARK ST CA 91406,1,NORTH HILLS,6,READY FOR OCCUPANCY,NEW CONSTRUCTION,SENIORS,9000040.00,21031906.00,0.00,30031946.00,http://hcidapp.lacity.org/mpphotos/080001/Photo/Website/CD%206%20-%20Andalucia%20Sr.%20Apts.%20-%20080001.JPG,274,"META HOUSING CORPORATION,","WESTERN SENIORS HOUSING, INC.",(949) 748-8201,-118.46738,34.21785,"(34.21785, -118.46738)",19730,222,424,,3,73
5402039027,60082,CLINTON FAMILY APTS.,2114 W CLINTON ST 1-36 CA 90026,1,TEMPLE-BEAUDRY,13,READY FOR OCCUPANCY,NEW CONSTRUCTION,FAMILY,2804900.00,11184695.00,0.00,13989595.00,http://hcidapp.lacity.org/mpphotos/060082/Photo/Website/clintonfam_3(PNG).png,80,"META HOUSING CORPORATION,","WESTERN COMMUNITY HOUSING, INC.",(714) 549-4100,-118.26686,34.07381,"(34.07381, -118.26686)",23444,470,789,,8,31
5018034019,40050,MANSI TOWN HOMES,4520 S FIGUEROA ST 1-21 CA 90037,1,SOUTH PARK,9,READY FOR OCCUPANCY,N/A,N/A,892500.00,4654752.00,0.00,5547252.00,http://hcidapp.lacity.org/mpphotos/040050/Photo/Website/CD%209%20-%20Mansi%20Town%20Homes%20-%20040050.jpg,40,"MANSI TOWN HOMES L.P.,","MANSI TOWN HOMES L.P.,",(323) 465-6611,-118.28243,34.00221,"(34.00221, -118.28243)",23668,739,896,7,13,2
5050011005,05-117193,LEEWARD APTS. (SITE 7),2809 S WEST BLVD CA 90016,7,CRENSHAW DISTRICT,10,READY FOR OCCUPANCY,REHAB,FAMILY,0.00,7103994.00,10208936.00,17312930.00,http://hcidapp.lacity.org/mpphotos/ImageNotAvailable.png,,"HAMPSTEAD PARTNERS, INC.","ALPHA PROPERTY MANAGEMENT, INC.",(323) 231-4174,-118.34182,34.03071,"(34.03071, -118.34182)",23077,668,925,7,12,17
6111025905,12-118781,SAGE PARK,1310 W 177TH ST CA 90248,1,HARBOR GATEWAY,15,READY FOR OCCUPANCY,NEW CONSTRUCTION,FAMILY,3473070.00,24597678.00,0.00,28070748.00,http://hcidapp.lacity.org/mpphotos/12-118781/Photo/Website/150_2481.png,279,BRIDGE Housing Corporation - SoCal,THE JOHN STEWART COMPANY,(213) 787-2700,-118.29781,33.87019,"(33.87019, -118.29781)",24685,943,798,,15,55
5160010029,20285,COURT STREET APTS.,1301 W COURT ST CA 90026,1,TEMPLE-BEAUDRY,1,READY FOR OCCUPANCY,NEW CONSTRUCTION,FAMILY,2143000.00,4691845.00,0.00,6834845.00,http://hcidapp.lacity.org/mpphotos/020285/Photo/Website/CD%201%20-%20Court%20Street%20Apts..JPG,40,"COURT STREET APARTMENTS, L.P.",COMMUNITY HOUSING MANAGEMENT SERVICES,N/A,-118.25675,34.0642,"(34.0642, -118.25675)",23444,548,397,54,11,31
5159015009,11-118584,PWC FAMILY HOUSING,153 N GLENDALE BLVD 1-45 CA 90026,1,HISTORIC FILIPINOTOWN,13,READY FOR OCCUPANCY,NEW CONSTRUCTION,FAMILY,3406936.00,16171140.00,0.00,19578076.00,http://hcidapp.lacity.org/mpphotos/11-118584/Photo/Website/PWC%20Family%20Housing.png,179,"PWC Family Housing, L.P",LEVINE MANAGEMEENT COMPANY,,-118.26018,34.06346,"(34.06346, -118.26018)",23444,550,930,,8,31
5037020015,07-117233,HDR I & II (SITE 3),1063 W 39TH PL CA 90037,3,EXPOSITION PARK,8,READY FOR OCCUPANCY,REHAB,FAMILY,0.00,8116043.00,6787000.00,14903043.00,http://hcidapp.lacity.org/mpphotos/ImageNotAvailable.png,,"Spruce DEV LA, LLC",PK MANAGEMENT,(818) 808-0600,-118.29382,34.01426,"(34.01426, -118.29382)",23668,729,1150,7,14,32
5143013034,16-123081,CRESCENT VILLAGES (RECAP) (SITE 2),1315 W 7TH ST CA 90017,2,WESTLAKE,1,UNDERCONSTRUCTION,ACQUISITION + REHAB,FAMILY,535608.00,15855122.00,10144000.00,26534730.00,http://hcidapp.lacity.org/mpphotos/ImageNotAvailable.png,,"Valued Housing II, LLC",N/A,N/A,-118.26809,34.05269,"(34.05269, -118.26809)",23078,564,1047,54,11,68
5153030026,50036,WITMER HEIGHTS,116 S WITMER ST CA 90026,1,TEMPLE-BEAUDRY,13,READY FOR OCCUPANCY,N/A,N/A,2846000.00,10865989.00,0.00,13711989.00,http://hcidapp.lacity.org/mpphotos/050036/Photo/Website/CD%2013%20-%20Witmer%20Heights.jpg,95,"AMERICAN COMMUNITIES, LLC",THE JOHN STEWART COMPANY,(213) 482-9122,-118.26086,34.06173,"(34.06173, -118.26086)",23444,550,942,54,8,67
2137020037,13-119323,WINNETKA SENIOR APARTMENTS,20750 W SHERMAN WAY CA 91306,1,CANOGA PARK,3,READY FOR OCCUPANCY,NEW CONSTRUCTION,SENIORS,4400000.00,8461013.00,5500000.00,18361013.00,http://hcidapp.lacity.org/mpphotos/13-119323/Photo/Website/HIMS%20Photo.png,191,Meta Housing Corporation,THE JOHN STEWART COMPANY,(213) 833-1860,-118.5852,34.20086,"(34.20086, -118.5852)",4282,272,951,,4,66
7417010900,16-123033,VISTA DEL MAR,1116 W D ST CA 90744,1,WILMINGTON,15,READY FOR OCCUPANCY,NEW CONSTRUCTION,FAMILY,0.00,18205813.00,18068000.00,36273813.00,http://hcidapp.lacity.org/mpphotos/16-123033/Photo/Website/Lot%208.JPG,405,Abode Communities,ABODE COMMUNITIES,(213) 629-2702,-118.27463,33.77336,"(33.77336, -118.27463)",3350,967,1114,,15,15
5188005031,11-117205,THE WHITTIER,3555 E WHITTIER BLVD 1-60 CA 90023,1,BOYLE HEIGHTS,14,READY FOR OCCUPANCY,NEW CONSTRUCTION,FAMILY,4907400.00,19070042.00,0.00,23977442.00,http://hcidapp.lacity.org/mpphotos/11-117205/Photo/Website/thewhittier4814_009.png,189,"RETIREMENT HOUSING FOUNDATION,","FOUNDATION PROPERTY MANAGEMENT, INC.",(562) 257-5120,-118.19678,34.02612,"(34.02612, -118.19678)",23441,527,352,,9,38
7442001022,13-119071,NAVY VILLAGE,1556 W PALOS VERDES DR NORTH CA 90732,1,HARBOR CITY,15,READY FOR OCCUPANCY,REHAB,SPECIAL NEEDS,2673764.00,27005640.00,0.00,29679404.00,http://hcidapp.lacity.org/mpphotos/13-119071/Photo/Website/150_2668.png,243,Volunteers of America National Services,VOLUNTEERS OF AMERICA OF LOS ANGELES,(213) 251-7689,-118.30382,33.77938,"(33.77938, -118.30382)",3343,2330,1448,,15,25
2629019017,40052,PALM VILLAGE SR,9034 N LAUREL CANYON BLVD CA 91352,1,SUN VALLEY,6,READY FOR OCCUPANCY,NEW CONSTRUCTION,SENIORS,1772385.00,8934200.00,0.00,10706585.00,http://hcidapp.lacity.org/mpphotos/040052/Photo/Website/CD_6_-_Palm_Village_Apts[1].png,65,Gubb and Barshay,LTSC COMMUNITY DEVELOPMENT CORPORATION,(213) 473-1689,-118.40457,34.23397,"(34.23397, -118.40457)",19335,156,1058,,3,21
6065010050,05-117193,LEEWARD APTS. (SITE 11),"1206 E 105TH ST  Los Angeles, CA 90002",11,WATTS,15,READY FOR OCCUPANCY,REHAB,FAMILY,0.00,7103994.00,10208936.00,17312930.00,http://hcidapp.lacity.org/mpphotos/ImageNotAvailable.png,,"HAMPSTEAD PARTNERS, INC.","ALPHA PROPERTY MANAGEMENT, INC.",(323) 231-4174,-118.25379,33.94082,"(33.94082, -118.25379)",22351,817,1182,7,15,40
5544019002,80004,HOLLYWOOD BUNGALOW COURTS (SITE 3),"1544 N SERRANO AVE  LOS ANGELES, CA 90027",3,THAI TOWN,13,READY FOR OCCUPANCY,ACQUISITION + REHAB,FAMILY,4390000.00,17823840.00,0.00,22213840.00,http://hcidapp.lacity.org/mpphotos/080004/Photo/Website%20Site3/Cd%2013%20-%20Hollywood%20Bungalows%20-%201544%20Serrano.png,104,"HOLLYWOOD COMMUNITY HOUSING CORP.,",BARKER MANAGEMENT INCORPORATED,(714) 533-3450,-118.30697,34.09958,"(34.09958, -118.30697)",23445,421,555,16,8,58
6048001024,70044,MCCOY PLAZA APARTMENTS,"9315 S FIRTH BLVD 1-8  Los Angeles, CA 90002",1,WATTS,15,READY FOR OCCUPANCY,NEW CONSTRUCTION,FAMILY,5985000.00,41513856.00,0.00,47498856.00,http://hcidapp.lacity.org/mpphotos/070044/Photo/Website/070044.jpg,229,WATTS COMMUNITY LABOR ACTION COMMUNITY,BARKER MANAGEMENT INCORPORATED,(714) 533-3450,-118.24767,33.952,"(33.952, -118.24767)",22351,820,1178,7,15,40
5520006015,70167,ROSEWOOD GARDENS,502 N BERENDO ST CA 90004,1,MELROSE,13,READY FOR OCCUPANCY,NEW CONSTRUCTION,SENIORS,4123640.00,18371699.00,0.00,22495339.00,http://hcidapp.lacity.org/mpphotos/070167/Photo/Website/CD%2013%20-%20Rosewood%20Gardens.JPG,172,"LOS ANGELES HOUSING PARTNERSHIP,",THE JOHN STEWART COMPANY,(213) 787-2700,-118.2939,34.07931,"(34.07931, -118.2939)",22721,453,933,16,8,89
5518022016,13-119741,THE BERENDOS APTS. (RECAP) (SITE 2),235 S BERENDO ST CA 90004,2,WILSHIRE CENTER,13,READY FOR OCCUPANCY,ACQUISITION + REHAB,SPECIAL NEEDS,0.00,9656868.00,0.00,9656868.00,http://hcidapp.lacity.org/mpphotos/ImageNotAvailable.png,86,A Communitiy of Friends,A COMMUNITIY OF FRIENDS,(213) 480-0809 x230,-118.29432,34.0698,"(34.0698, -118.29432)",22721,584,937,16,8,89
5154027029,18-125018,WEST THIRD APARTMENTS,1900 W 3RD ST CA 90057,1,WESTLAKE,1,UNDERCONSTRUCTION,REHAB,SPECIAL NEEDS,10291998.00,32097588.00,0.00,42389586.00,http://hcidapp.lacity.org/mpphotos/ImageNotAvailable.png,,Figueroa Economical Housing Development Corporation,"STEP UP ON SECOND, INC.",(310) 576-1308,-118.27064,34.06192,"(34.06192, -118.27064)",24352,562,836,,11,68
5149008009,20282,VICTOR CLOTHING APARTMENTS,242 S BROADWAY CA 90012,1,DOWNTOWN,14,READY FOR OCCUPANCY,N/A,AT-RISK,2030000.00,0.00,0.00,2030000.00,http://hcidapp.lacity.org/mpphotos/ImageNotAvailable.png,,"NEIGHBORHOOD EFFORT,",THE EBERLY COMPANY,(323) 937-6468,-118.24752,34.05125,"(34.05125, -118.24752)",22728,541,1183,,9,76
5544020009,14-121714,CORONEL APARTMENTS,1601 N HOBART BLVD CA 90027,1,THAI TOWN,13,READY FOR OCCUPANCY,BOTH REHAB AND NEW CONSTRUCTION,FAMILY,0.00,29452609.00,0.00,29452609.00,http://hcidapp.lacity.org/mpphotos/ImageNotAvailable.png,172,Hollywood Community Housing Corporation,BARKER MANAGEMENT INCORPORATED,(714) 533-3450,-118.3058,34.10001,"(34.10001, -118.3058)",23445,421,555,16,8,58
5141024013,60006,CARONDELET COURT APT HOMES,816 S CARONDELET ST 1-33 CA 90057,1,WESTLAKE,1,READY FOR OCCUPANCY,NEW CONSTRUCTION,FAMILY,2587880.00,10716545.00,0.00,13304425.00,http://hcidapp.lacity.org/mpphotos/060006/Photo/Website/CD%201%20-%20Carondelet%20Court.JPG,78,"AMERICAN COMMUNITIES, LLC",THE JOHN STEWART COMPANY,(213) 384-3118,-118.28229,34.05618,"(34.05618, -118.28229)",24352,569,867,,11,63
5446025013,14-121118,MARMION WAY APARTMENTS,3500 N MARMION WAY CA 90065,1,LINCOLN HEIGHTS,1,READY FOR OCCUPANCY,NEW CONSTRUCTION,SPECIAL NEEDS,5315691.00,16387727.00,0.00,21703418.00,http://hcidapp.lacity.org/mpphotos/14-121118/Photo/Website/100_3940.png,158,"D.L.Horn & Associates, LLC",CONAM MANAGEMENT,(858) 614-7459,-118.21354,34.08726,"(34.08726, -118.21354)",24030,485,1365,,11,92
5501002033,14-121650,PATH METRO VILLAS PHASE I,345 N WESTMORELAND AVE CA 90004,1,SILVERLAKE,13,READY FOR OCCUPANCY,NEW CONSTRUCTION,SPECIAL NEEDS,8472548.00,18637452.00,1450000.00,28560000.00,http://hcidapp.lacity.org/mpphotos/14-121650/Photo/Website/PMV%20I.jpg,188,"Affirmed Housing Group, Inc.",THE JOHN STEWART COMPANY,(213) 787-2700,-118.28811,34.07753,"(34.07753, -118.28811)",22721,455,507,16,8,80
5037020016,30159,INGRAM PRESERVATION (SITE 7),1075 W 39TH PL CA 90037,7,EXPOSITION PARK,8,READY FOR OCCUPANCY,REHAB,LARGE FAMILY / WAIVER REQUIRED,4900000.00,6637761.00,2790000.00,14327761.00,http://hcidapp.lacity.org/mpphotos/030159/Photo/Website%20Site7/IngramPres_107539th.png,21,"W.O.R.K.S.,","SOLARI ENTERPRISES, INC.",(714) 282-2520,-118.29399,34.01423,"(34.01423, -118.29399)",23668,729,1150,7,14,32
5001021032,14-120872,FIGUEROA SENIOR HOUSING (RECAP),5503 S FIGUEROA ST CA 90037,1,WEST VERNON,9,READY FOR OCCUPANCY,N/A,N/A,0.00,4001864.00,1584000.00,5585864.00,http://hcidapp.lacity.org/mpphotos/ImageNotAvailable.png,29,"CP Preservation Housing, LLC","SOLARI ENTERPRISES, INC.",N/A,-118.28294,33.99219,"(33.99219, -118.28294)",23668,745,990,7,13,2
5442003016,07-117233,HDR I & II (SITE 7),2747 N NEWELL ST CA 90039,7,ELYSIAN VALLEY,13,READY FOR OCCUPANCY,REHAB,FAMILY,0.00,8116043.00,6787000.00,14903043.00,http://hcidapp.lacity.org/mpphotos/ImageNotAvailable.png,,"Spruce DEV LA, LLC",PK MANAGEMENT,(818) 808-0600,-118.24507,34.10088,"(34.10088, -118.24507)",23670,393,832,,8,22
2210027012,20206,SATICOY GARDENS,"14649 W SATICOY ST  VAN NUYS, CA 91405",1,VAN NUYS,6,READY FOR OCCUPANCY,NEW CONSTRUCTION,LARGE FAMILY / WAIVER REQUIRED,2003000.00,4126190.00,1100000.00,7229190.00,http://hcidapp.lacity.org/mpphotos/020206/Photo/Website/CD%206%20-%20Saticoy%20Gardens%20Apts..jpg,45,"LA FAMILY HOUSING CORP.,",THE JOHN STEWART COMPANY,(213) 833-1860 x203,-118.45245,34.20924,"(34.20924, -118.45245)",19733,218,263,,3,18
5208019043,05-117217,LEXINGTON APARTMENTS A/B,3035 N SIERRA ST CA 90031,1,LINCOLN HEIGHTS,1,READY FOR OCCUPANCY,REHAB,FAMILY,0.00,6771719.00,10247566.00,17019285.00,http://hcidapp.lacity.org/mpphotos/ImageNotAvailable.png,,"1755 EFM 2, LLC","ALPHA PROPERTY MANAGEMENT, INC.",(323) 231-4174,-118.20117,34.08183,"(34.08183, -118.20117)",23448,489,607,,11,1
5080031055,70037,THE ARDMORE,959 S ARDMORE AVE CA 90006,1,KOREATOWN,10,READY FOR OCCUPANCY,NEW CONSTRUCTION,FAMILY,3673280.00,17331397.00,0.00,21004677.00,"http://hcidapp.lacity.org/mpphotos/070037/Photo/Website/CD%2010%20-%20Ardmore,%20The.png",171,"AMERICAN COMMUNITIES, LLC",THE JOHN STEWART COMPANY,(213) 787-2700,-118.30225,34.05378,"(34.05378, -118.30225)",22723,617,646,,12,89
4305014900,15-122532,PICO ROBERTSON SENIOR COMMUNITY,8866 W PICO BLVD CA 90035,1,CRESTVIEW,5,UNDERCONSTRUCTION,NEW CONSTRUCTION,SENIORS,2789400.00,27234078.00,0.00,30023478.00,http://hcidapp.lacity.org/mpphotos/ImageNotAvailable.png,244,Mercy Housing California,MERCY HOUSING MANAGEMENT GROUP,(415) 355-7124,-118.38517,34.05485,"(34.05485, -118.38517)",23666,644,819,,6,95
2103009036,13-119142,CORAL WOOD COURT,8025 N RESEDA BLVD CA 91335,1,RESEDA,12,READY FOR OCCUPANCY,ACQUISITION + REHAB,FAMILY,0.00,13355261.00,13000000.00,26355261.00,http://hcidapp.lacity.org/mpphotos/13-119142/Photo/Website/Coralwood%20Court%20Apt.png,68,"Community Preservation Partners, LLC","MCCORMACK BARON SALAZAR,",(818) 774-9264,-118.53627,34.21616,"(34.21616, -118.53627)",18909,249,274,,2,12
2416010066,18-125110,HARMONY GATES (RECAP),5220 N HARMONY AVE CA 91601,1,NORTH HOLLYWOOD,2,UNDERCONSTRUCTION,ACQUISITION + REHAB,FAMILY,0.00,0.00,0.00,0.00,http://hcidapp.lacity.org/mpphotos/ImageNotAvailable.png,,N/A,IRONWOOD MANAGEMENT,(818) 789-5550,-118.36633,34.16575,"(34.16575, -118.36633)",8488,209,410,,5,13
5154031033,60068,VILLAS DEL LAGO,456 S LAKE ST CA 90057,1,WESTLAKE,1,READY FOR OCCUPANCY,NEW CONSTRUCTION,FAMILY,5282280.00,20093729.00,0.00,25376009.00,http://hcidapp.lacity.org/mpphotos/060068/Photo/Website/CD%201%20-%20Villas%20Del%20Lago.jpg,152,"W.O.R.K.S.,",FPI MANAGEMENT,(714) 641-5110,-118.27495,34.06145,"(34.06145, -118.27495)",24352,559,690,,11,63
5160005028,40007,TEMPLE VILLAS,1421 W TEMPLE ST 1-52 CA 90026,1,ECHO PARK,1,READY FOR OCCUPANCY,NEW CONSTRUCTION,FAMILY,3137768.00,10165531.00,0.00,13303299.00,http://hcidapp.lacity.org/mpphotos/040007/Photo/Website/CD%201%20-%20Temple%20Villas%20-%20040007.jpg,62,"TEMPLE VILLAS. L.P.,",COMMUNITY HOUSING MANAGEMENT SERVICES,(562) 597-6200,-118.25744,34.06759,"(34.06759, -118.25744)",23444,548,397,54,11,31
2119021045,10-117559,CANBY WOODS SENIOR HOUSING,7238 N CANBY AVE 1-98 CA 91335,1,RESEDA,3,READY FOR OCCUPANCY,NEW CONSTRUCTION,SENIORS,2347003.00,22425602.00,0.00,24772605.00,http://hcidapp.lacity.org/mpphotos/10-117559/Photo/Website/10-117559.JPG,212,THOMAS SAFRAN & ASSOCIATES,THOMAS SAFRAN & ASSOCIATES,(310) 820-4888,-118.53363,34.20245,"(34.20245, -118.53363)",18909,258,284,,4,12
5128015021,09-117212,THE CROSSING ON 29TH ST.,"814 E 29TH ST  Los Angeles, CA 90011",1,CENTRAL,9,READY FOR OCCUPANCY,NEW CONSTRUCTION,FAMILY,3262880.00,17610140.00,0.00,20873020.00,http://hcidapp.lacity.org/mpphotos/09-117212/Photo/Website/crossingat29thgo12612_031-.png,121,"UHC LA 29, L.P.",HYDER PROPERTY MANAGEMENT PROFESSIONALS,(760) 591-9737,-118.26081,34.01762,"(34.01762, -118.26081)",22727,706,965,7,13,6
5141014008,06-117195,CONCORD APARTMENTS (GRP. A & B) (SITE 3),743 S CARONDELET ST CA 90057,3,WESTLAKE,1,READY FOR OCCUPANCY,REHAB,FAMILY,0.00,7334438.00,8579256.00,15913694.00,http://hcidapp.lacity.org/mpphotos/ImageNotAvailable.png,,"1755 EFM 2, LLC","ALPHA PROPERTY MANAGEMENT, INC.",(323) 231-4174,-118.28184,34.05733,"(34.05733, -118.28184)",24352,569,867,,11,63
5114014006,14-121652,FLORENCE MILLS (SITE 3),3501 S CENTRAL AVE CA 90011,3,CENTRAL,9,UNDERCONSTRUCTION,NEW CONSTRUCTION,SPECIAL NEEDS,9389115.63,35861422.00,0.00,45250537.63,http://hcidapp.lacity.org/mpphotos/ImageNotAvailable.png,226,Hollywood Community Housing Corporation,BARKER MANAGEMENT INCORPORATED,(714) 533-3450,-118.2571,34.01165,"(34.01165, -118.2571)",22727,712,892,7,13,6
7417011900,50005,NEW DANA STRAND TOWNHOMES,425 N WILMINGTON BLVD CA 90744,1,WILMINGTON,15,READY FOR OCCUPANCY,NEW CONSTRUCTION,FAMILY,2904285.00,31786029.00,2090000.00,36780314.00,http://hcidapp.lacity.org/mpphotos/050005/Photo/Website/CD%2015%20-%20New%20Dana%20Strand%20Townhomes.JPG,291,MERCY HOUSING CALIFORNIA,ABODE COMMUNITIES,(213) 225-2772,-118.27448,33.77483,"(33.77483, -118.27448)",3350,967,1114,,15,15
5154003009,80009,MIRAMAR VILLAGE,240 S WESTLAKE AVE CA 90057,1,TEMPLE-BEAUDRY,13,READY FOR OCCUPANCY,NEW CONSTRUCTION,FAMILY,11569040.00,29891944.00,0.00,41460984.00,http://hcidapp.lacity.org/mpphotos/080009/Photo/Website/CD%2013%20-%20Miramar%20Village.JPG,336,"ENHANCED AFFORDABLE DEV CO., LLC",BUCKINGHAM PROPERTY MANAGEMENT,(559) 452-8250,-118.26934,34.06359,"(34.06359, -118.26934)",24352,551,518,,8,67
5148009015,80059,NEW GENESIS,452 S MAIN ST CA 90013,1,DOWNTOWN,14,READY FOR OCCUPANCY,NEW CONSTRUCTION,SPECIAL NEEDS,5587486.00,31038161.00,0.00,36625647.00,http://hcidapp.lacity.org/mpphotos/080059/Photo/Website/080059.JPG,305,"SKID ROW HOUSING TRUST,",SRHT PROPERTY MANAGEMENT COMPANY,(213) 683-0522 x114,-118.2482,34.04682,"(34.04682, -118.2482)",23074,542,1502,,9,76
5137025004,06-117195,CONCORD APARTMENTS (GRP. A & B) (SITE 8),1546 W 11TH PL CA 90015,8,PICO-UNION,1,READY FOR OCCUPANCY,REHAB,FAMILY,0.00,7334438.00,8579256.00,15913694.00,http://hcidapp.lacity.org/mpphotos/ImageNotAvailable.png,,"1755 EFM 2, LLC","ALPHA PROPERTY MANAGEMENT, INC.",(323) 231-4174,-118.27528,34.04672,"(34.04672, -118.27528)",23076,576,661,,11,8
5473006006,14-121712,T. BAILEY MANOR,4121 N EAGLE ROCK BLVD CA 90065,1,GLASSELL PARK,14,READY FOR OCCUPANCY,NEW CONSTRUCTION,SPECIAL NEEDS,0.00,4015323.00,10000000.00,14015323.00,http://hcidapp.lacity.org/mpphotos/14-121712/Photo/Website/El%20Segundo.png,191,"Women Organizing Resources, Knowledge and Services","SOLARI ENTERPRISES, INC.",(714) 282-2520 x220,-118.22666,34.12142,"(34.12142, -118.22666)",24030,384,373,,9,56
5535012016,13-119154,HOLLYWOODLAND (SITE 4),5155 W MARATHON ST CA 90038,4,MELROSE,13,READY FOR OCCUPANCY,ACQUISITION + REHAB,SENIORS,0.00,7946357.00,10500000.00,18446357.00,http://hcidapp.lacity.org/mpphotos/ImageNotAvailable.png,53,Steele Properties LLC,"MONROE GROUP, LRD",(303) 322-8888,-118.31064,34.085,"(34.085, -118.31064)",23669,440,521,,8,57
2783027046,40004,PARTHENIA ST SENIOR HSNG.,19455 W PARTHENIA ST 1-77 CA 91324,1,CHATSWORTH,12,READY FOR OCCUPANCY,NEW CONSTRUCTION,SENIORS,1931627.00,9229203.00,0.00,11160830.00,http://hcidapp.lacity.org/mpphotos/040004/Photo/Website/CD%2012%20-%20Parthenia%20St.%20Senior.jpg,77,"VINELAND AVENUE SENIOR HOUSING, L.P.",MENORAH HOUSING FOUNDATION,(310) 475-6083,-118.55738,34.22841,"(34.22841, -118.55738)",18513,101,1426,,2,65
5548018027,12-118880,MICHAEL'S VILLAGE,"7160 W SUNSET BLVD  HOLLYWOOD, CA 90046",1,HOLLYWOOD,4,READY FOR OCCUPANCY,REHAB,SPECIAL NEEDS,1301307.00,3677788.00,0.00,4979095.00,http://hcidapp.lacity.org/mpphotos/12-118880/Photo/Website/Michaels_Village.png,8,"Step Up on Second Street, Inc.",BARKER MANAGEMENT INCORPORATED,(714) 533-3450,-118.34615,34.09778,"(34.09778, -118.34615)",23677,410,863,,7,82
5074031027,30159,INGRAM PRESERVATION (SITE 2),1935 S LA SALLE AVE 1-33 CA 90018,2,WEST ADAMS,10,READY FOR OCCUPANCY,REHAB,LARGE FAMILY / WAIVER REQUIRED,4900000.00,6637761.00,2790000.00,14327761.00,http://hcidapp.lacity.org/mpphotos/030159/Photo/Website%20Site2/IngramPres_LaSalle.png,21,"W.O.R.K.S.,","SOLARI ENTERPRISES, INC.",(714) 282-2520,-118.30264,34.03909,"(34.03909, -118.30264)",23079,678,906,,12,19
2129035082,10-117639,SHERMAN VILLAGE,7135 N WILBUR AVE CA 91335,1,RESEDA,3,READY FOR OCCUPANCY,NEW CONSTRUCTION,FAMILY,2495405.00,23873005.00,0.00,26368410.00,http://hcidapp.lacity.org/mpphotos/10-117639/Photo/Website/10-117639.JPG,187,"Sherman Village Apartments, LP",SOLARI I ENTERPRISES INC.,(714) 282-2520 x211,-118.54502,34.20032,"(34.20032, -118.54502)",18909,265,310,,4,12
5055026019,07-117237,QUEEN APARTMENTS,2620 S ORCHARD AVE CA 90007,1,UNIVERSITY PARK,9,READY FOR OCCUPANCY,REHAB,FAMILY,0.00,10271751.00,7300000.00,17571751.00,http://hcidapp.lacity.org/mpphotos/07-117237/Photo/Website/Queens%20Apt%20(site1)%202620%20Orchid.png,,N/A,THE JOHN STEWART COMPANY,(213) 833-1860,-118.28731,34.032,"(34.032, -118.28731)",22724,684,976,7,13,32
5544021029,14-121632,5400 HOLLYWOOD FAMILY APARTMENTS,5400 W HOLLYWOOD BLVD CA 90027,1,HOLLYWOOD,13,READY FOR OCCUPANCY,NEW CONSTRUCTION,FAMILY,1950000.00,18803961.00,0.00,20753961.00,http://hcidapp.lacity.org/mpphotos/14-121632/Photo/Website/P1110047.png,161,Meta Housing Corporation,WSH MANAGEMENT,(949) 748-8204,-118.30734,34.1014,"(34.1014, -118.30734)",23445,420,555,16,8,58
5180002029,15-122536,1ST AND SOTO TOD APARTMENTS PHASE II,2423 3/4 E 1ST ST CA 90033,1,BOYLE HEIGHTS,14,UNDERCONSTRUCTION,NEW CONSTRUCTION,SPECIAL NEEDS,2050000.00,16439692.00,0.00,18489692.00,http://hcidapp.lacity.org/mpphotos/ImageNotAvailable.png,154,East LA Community Corporation,THE JOHN STEWART COMPANY,(213) 787-2700,-118.20887,34.04348,"(34.04348, -118.20887)",23450,519,945,,9,38
5124031013,70172,TWO WORLD APARTMENTS,809 W 23RD ST CA 90007,1,UNIVERSITY PARK,1,READY FOR OCCUPANCY,REHAB,SENIORS,3225000.00,17094146.00,0.00,20319146.00,http://hcidapp.lacity.org/mpphotos/070172/Photo/Website/Two%20Worlds%20809%20W.%2023rd%20St.%20-%20070172.png,99,"TWO WORLDS PRESERVATION LIMITED PARTNERSHIP,",N/A,N/A,-118.27779,34.03256,"(34.03256, -118.27779)",22724,699,444,7,11,32
2654002169,40071,WOODLAND TERRACE,15532 W NORDHOFF ST CA 91343,1,NORTH HILLS,7,READY FOR OCCUPANCY,NEW CONSTRUCTION,SPECIAL NEEDS,1758184.00,10482585.00,0.00,12240769.00,http://hcidapp.lacity.org/mpphotos/040071/Photo/Website/CD%207%20-%20Woodland%20Terrace.JPG,80,"A COMMUNITY OF FRIENDS,","BARKER MANAGEMENT, INC.",(213) 725-2897,-118.4709,34.23538,"(34.23538, -118.4709)",18914,122,1108,,1,73
5051015008,06-117222,WINDWARD APTS (A/B) (SITE 9),3922 W 27TH ST CA 90018,9,WEST ADAMS,10,READY FOR OCCUPANCY,REHAB,FAMILY,0.00,7438473.00,4641342.00,12079815.00,http://hcidapp.lacity.org/mpphotos/ImageNotAvailable.png,,1755 EFM 2,"ALPHA PROPERTY MANAGEMENT, INC.",(323) 231-4174,-118.32793,34.03141,"(34.03141, -118.32793)",23079,659,917,7,12,19
5148023031,15-122553,649 LOFTS (AKA SIX FOUR NINE LOFTS),649 S WALL ST CA 90014,1,WHOLESALE DISTRICT,14,UNDERCONSTRUCTION,NEW CONSTRUCTION,SPECIAL NEEDS,5500000.00,22907343.00,0.00,28407343.00,http://hcidapp.lacity.org/mpphotos/15-122553/Photo/Website/649%20lofts%2012-20-16.JPG,221,Skid Row Housing Trust,SRHT PROPERTY MANAGEMENT COMPANY,(213) 683-0522 x133,-118.24855,34.04215,"(34.04215, -118.24855)",23075,537,527,,9,76
5114026039,70032,RITTENHOUSE SQUARE,3310 S CENTRAL AVE CA 90011,1,CENTRAL,9,READY FOR OCCUPANCY,NEW CONSTRUCTION,SENIORS,5683872.00,22735937.00,0.00,28419809.00,http://hcidapp.lacity.org/mpphotos/070032/Photo/Website/CD%209%20-%20Rittenhouse%20Square.jpg,245,"THOMAS SAFRAN & ASSOCIATES,",THOMAS SAFRAN & ASSOCIATES,(310) 820-4888,-118.25621,34.0134,"(34.0134, -118.25621)",22727,710,892,7,13,6
6051010029,60059,IMANI FE EAST & WEST (SITE 2),10345 S CENTRAL AVE 1-43 CA 90002,2,GREEN MEADOWS,8,READY FOR OCCUPANCY,NEW CONSTRUCTION,FAMILY,6001178.00,31661768.00,0.00,37662946.00,http://hcidapp.lacity.org/mpphotos/060059/Photo/Website%20Site2/imani%20fe%20West.png,242,Grant Housing & Econ Dev Corp,AEGON ASSET MANAGEMENT,N/A,-118.25448,33.94227,"(33.94227, -118.25448)",22351,806,360,7,14,45
2509003180,16-123141,VIVIENDAS DEL VALLE (RECAP) (SITE 3),13230 N BROMONT AVE CA 91342,3,SYLMAR,7,READY FOR OCCUPANCY,ACQUISITION + REHAB,FAMILY,0.00,13824218.00,7875467.00,21699685.00,http://hcidapp.lacity.org/mpphotos/ImageNotAvailable.png,,Abode Communities,ABODE COMMUNITIES,(213) 225-2780,-118.43817,34.31123,"(34.31123, -118.43817)",18912,46,1307,,1,47
5148025008,30156,RAINBOW APARTMENTS,645 S SAN PEDRO ST CA 90014,1,WHOLESALE DISTRICT,14,READY FOR OCCUPANCY,NEW CONSTRUCTION,SPECIAL NEEDS,3500000.00,13279250.00,0.00,16779250.00,http://hcidapp.lacity.org/mpphotos/030156/Photo/Website/CD%209%20-%20Rainbow%20Apts..jpg,98,"RAINBOW APARTMENTS, L.P.",SRHT PROPERTY MGMT CO.,(213) 683-0522 x114,-118.2463,34.04147,"(34.04147, -118.2463)",23075,537,783,,9,76
5143020023,02-118256,SAN LUCAS APARTMENTS,1221 W 7TH ST CA 90017,1,WESTLAKE,1,READY FOR OCCUPANCY,NEW CONSTRUCTION,SENIORS,0.00,0.00,0.00,0.00,http://hcidapp.lacity.org/mpphotos/ImageNotAvailable.png,,N/A,GSL PROPERRTY MANAGEMENT,N/A,-118.26681,34.05209,"(34.05209, -118.26681)",23078,564,1047,54,11,76
5542028022,05-117217,LEXINGTON APARTMENTS A/B (SITE 4),4612 W LEXINGTON AVE CA 90029,4,EAST HOLLYWOOD,13,READY FOR OCCUPANCY,REHAB,FAMILY,0.00,6771719.00,10247566.00,17019285.00,http://hcidapp.lacity.org/mpphotos/ImageNotAvailable.png,,"1755 EFM 2, LLC","ALPHA PROPERTY MANAGEMENT, INC.",(323) 231-4174,-118.29,34.09333,"(34.09333, -118.29)",23447,433,1285,16,8,58
2322020066,11-118721,HAMLIN ESTATES,11735 W HAMLIN ST CA 91606,1,NORTH HOLLYWOOD,2,READY FOR OCCUPANCY,ACQUISITION + REHAB,FAMILY,0.00,2936450.00,3211916.00,6148366.00,http://hcidapp.lacity.org/mpphotos/11-118721/Photo/Website/Hamlin150_1749.JPG,27,"The Hampstead Group, Inc",EDGEWOOD MANAGEMENT CORPORATION,(301) 562-1600,-118.3893,34.18884,"(34.18884, -118.3893)",8889,189,489,,5,13
6071001013,06-117222,WINDWARD APTS (A/B) (SITE 14),636 E 108TH ST 1-4 CA 90059,14,CENTURY PALMS/COVE,8,READY FOR OCCUPANCY,REHAB,FAMILY,0.00,7438473.00,4641342.00,12079815.00,http://hcidapp.lacity.org/mpphotos/ImageNotAvailable.png,,1755 EFM 2,"ALPHA PROPERTY MANAGEMENT, INC.",(323) 231-4174,-118.26374,33.93817,"(33.93817, -118.26374)",24354,807,359,7,14,45
6075020013,05-117193,LEEWARD APTS. (SITE 2),10915 S FIGUEROA ST CA 90061,2,FIGUEROA PARK SQUARE,8,READY FOR OCCUPANCY,REHAB,FAMILY,0.00,7103994.00,10208936.00,17312930.00,http://hcidapp.lacity.org/mpphotos/ImageNotAvailable.png,,"HAMPSTEAD PARTNERS, INC.","ALPHA PROPERTY MANAGEMENT, INC.",(323) 231-4174,-118.2828,33.93688,"(33.93688, -118.2828)",24355,814,362,7,14,45
5078028023,15-122038,PILGRIM TOWER APTS.,1207 S VERMONT AVE CA 90006,1,KOREATOWN,1,READY FOR OCCUPANCY,ACQUISITION + REHAB,SENIORS,0.00,35561059.00,0.00,35561059.00,http://hcidapp.lacity.org/mpphotos/15-122038/Photo/Website/150_2866.png,,Brookmore Apartment Corporation,CARING HOUSING MINISTRIES,(626) 300-2440,-118.29207,34.04895,"(34.04895, -118.29207)",22723,620,1356,,11,8
4226006006,09-117283,HORIZON APARTMENTS,"15 E HORIZON AVE  VENICE, CA 90291",1,VENICE,11,READY FOR OCCUPANCY,REHAB,SPECIAL NEEDS,750000.00,4590602.00,0.00,5340602.00,http://hcidapp.lacity.org/mpphotos/09-117283/Photo/Website/Horizon%20Apartments.png,10,N/A,"VENICE COMMUNITY HOUSING CORP.,",(310) 573-8461,-118.47425,33.98837,"(33.98837, -118.47425)",25073,909,1263,10,10,30
4218007026,10-117553,DEL REY SQUARE SENIOR HOUSING,"11976 W Culver BLVD  Los Angeles, CA 90230",1,DEL REY,11,READY FOR OCCUPANCY,NEW CONSTRUCTION,SENIORS,9389134.00,28060445.00,0.00,37449579.00,http://hcidapp.lacity.org/mpphotos/10-117553/Photo/Website/10-117553.JPG,213,THOMAS SAFRAN & ASSOCIATES,THOMAS SAFRAN & ASSOCIATES,(310) 820-4888,-118.41705,33.99539,"(33.99539, -118.41705)",24678,922,442,10,10,85
5032004909,17-124942,METRO AT BUCKINGHAM AKA BUCKINGHAM PHASE 2,4018 S BUCKINGHAM ROAD CA 90008,1,BALDWIN HILLS,10,UNDERCONSTRUCTION,NEW CONSTRUCTION,SENIORS,0.00,0.00,0.00,0.00,http://hcidapp.lacity.org/mpphotos/ImageNotAvailable.png,,Meta Housing Corporation,N/A,N/A,-118.34225,34.0137,"(34.0137, -118.34225)",22725,761,1031,7,12,54
5154026026,80051,BONNIE BRAE APARTMENT HOMES,"501 S BONNIE BRAE ST  Los Angeles, CA 90057",1,WESTLAKE,1,READY FOR OCCUPANCY,NEW CONSTRUCTION,FAMILY,6400000.00,19143914.00,0.00,25543914.00,http://hcidapp.lacity.org/mpphotos/080051/Photo/Website/bonniebrae500_12-.png,190,"AMERICAN COMMUNITIES, LLC",THE JOHN STEWART COMPANY,(213) 401-1330,-118.27229,34.05924,"(34.05924, -118.27229)",24352,562,836,,11,68
5148023020,11-117809,STAR APARTMENTS,240 E 6TH ST CA 90014,1,WHOLESALE DISTRICT,14,READY FOR OCCUPANCY,NEW CONSTRUCTION,SPECIAL NEEDS,3000000.00,37140676.00,0.00,40140676.00,http://hcidapp.lacity.org/mpphotos/11-117809/Photo/Website/STAR_APARTMENTSmaple-845x684.png,273,Skid Row Housing Trust,SRHT PROPERTY MANAGEMENT COMPANY,(213) 683-0522,-118.24756,34.04346,"(34.04346, -118.24756)",23075,537,527,,9,76
5544021026,15-122495,HCHC RECAP I (SITE 2),"5425 W CARLTON WAY  HOLLYWOOD, CA 90027",2,HOLLYWOOD,13,READY FOR OCCUPANCY,ACQUISITION + REHAB,FAMILY,0.00,7026512.00,1126600.00,8153112.00,http://hcidapp.lacity.org/mpphotos/ImageNotAvailable.png,57,"HOLLYWOOD COMMUNITY HOUSING CORP.,",BARKER MANAGEMENT INC.,(714) 533-3450,-118.30776,34.10063,"(34.10063, -118.30776)",23445,420,555,16,8,58
5153030002,14-121611,"MOSAIC GARDENS AT WESTLAKE, FKA BEVERLY & LUCAS",1416 W BEVERLY BLVD CA 90026,1,TEMPLE-BEAUDRY,13,READY FOR OCCUPANCY,ACQUISITION + NEW CONSTRUCTION,SPECIAL NEEDS,6690000.00,50769439.00,0.00,57459439.00,http://hcidapp.lacity.org/mpphotos/14-121611/Photo/Website/Mosaic%20Gardens.JPG,365,LINC Housing Corporation,JOHN STEWART COMPANY,(213) 833-1860,-118.26017,34.06184,"(34.06184, -118.26017)",23444,550,942,54,8,67
5131020009,05-117217,LEXINGTON APARTMENTS A/B (SITE 11),1145 E 24TH ST CA 90011,11,CENTRAL,9,READY FOR OCCUPANCY,REHAB,FAMILY,0.00,6771719.00,10247566.00,17019285.00,http://hcidapp.lacity.org/mpphotos/ImageNotAvailable.png,,"1755 EFM 2, LLC","ALPHA PROPERTY MANAGEMENT, INC.",(323) 231-4174,-118.25561,34.02133,"(34.02133, -118.25561)",22727,705,972,7,13,6
2216034019,80055,IVY TERRACE  AKA THREE COURTYARDS APTS.,13751 W SHERMAN WAY 1-52 CA 91405,1,VALLEY GLEN,2,READY FOR OCCUPANCY,NEW CONSTRUCTION,LARGE FAMILY / WAIVER REQUIRED,7762524.00,16182763.00,0.00,23945287.00,http://hcidapp.lacity.org/mpphotos/080055/Photo/Website/080055.JPG,205,N/A,DESIGN CENTER HOUSING SERVICES,(310) 518-5398,-118.43266,34.20226,"(34.20226, -118.43266)",19733,217,469,,5,18
5160020051,11-118624,VISTA ANGELINA,418 N EAST EDGEWARE ROAD CA 90026,1,TEMPLE-BEAUDRY,1,READY FOR OCCUPANCY,ACQUISITION + REHAB,FAMILY,0.00,9932434.00,6227000.00,16159434.00,http://hcidapp.lacity.org/mpphotos/11-118624/Photo/Website/Vista%20Angelina%20png.png,82,Related Development Company of California,RELATED MANAGEMENT CO.,(949) 660-390,-118.25492,34.06597,"(34.06597, -118.25492)",23444,548,397,54,11,31
5124011008,07-117233,HDR I & II (SITE 4),2375 S SCARFF ST CA 90007,4,UNIVERSITY PARK,1,READY FOR OCCUPANCY,REHAB,FAMILY,0.00,8116043.00,6787000.00,14903043.00,http://hcidapp.lacity.org/mpphotos/ImageNotAvailable.png,,"Spruce DEV LA, LLC",PK MANAGEMENT,(818) 808-0600,-118.28106,34.03158,"(34.03158, -118.28106)",22724,698,444,7,11,32
5154035003,12-118876,KNOB HILL APTS.,2403 W 4TH ST CA 90057,1,WESTLAKE,1,READY FOR OCCUPANCY,NEW CONSTRUCTION,SPECIAL NEEDS,1100000.00,13788616.00,0.00,14888616.00,http://hcidapp.lacity.org/mpphotos/12-118876/Photo/Website/Nob%20Hills.png,139,"Affordable Housing CDC, Inc.",TELACU PROPERTY MANAGEMENT,(323) 485-5110,-118.27676,34.06415,"(34.06415, -118.27676)",24352,560,690,,11,63
2263009024,13-119143,ORANGE WOOD COURT,5050 N SEPULVEDA BLVD CA 91403,1,SHERMAN OAKS,4,READY FOR OCCUPANCY,ACQUISITION + REHAB,FAMILY,0.00,7321491.00,9334100.00,16655591.00,http://hcidapp.lacity.org/mpphotos/13-119143/Photo/Website/orangewood%20court.png,61,"Community Preservation Partners, LLC",PROFESSIONAL PROPERTY MANAGEMENT LLC,(815) 397-8827,-118.46592,34.16281,"(34.16281, -118.46592)",19732,248,675,,7,83
5532021032,17-124490,MCCADDEN CAMPUS SENIOR (AKA MCCADDEN PLAZA SENIOR),"1127 N Las Palmas AVE  Los Angeles, CA 90038",1,MELROSE,4,UNDERCONSTRUCTION,NEW CONSTRUCTION,SENIORS,10430159.00,0.00,0.00,10430159.00,http://hcidapp.lacity.org/mpphotos/ImageNotAvailable.png,294,"Thomas Safran & Associates Development, Inc.",N/A,N/A,-118.33711,34.09089,"(34.09089, -118.33711)",23669,444,490,,7,34
7417005912,16-123037,CAMINO DEL MAR,417 N HAWAIIAN AVE CA 90744,1,WILMINGTON,15,READY FOR OCCUPANCY,NEW CONSTRUCTION,FAMILY,0.00,29640430.00,100.00,29640530.00,http://hcidapp.lacity.org/mpphotos/16-123037/Photo/Website/Lot%204.JPG,388,Mercy Housing California,ABODE COMMUNITIES (PROP MGMT DIVISION),(213) 629-2702,-118.27658,33.77406,"(33.77406, -118.27658)",3350,967,1114,,15,15
5032004903,30188,CRA: BUCKINGHAM PLACE SR. HOUSING,4044 S BUCKINGHAM ROAD CA 90008,1,BALDWIN HILLS,10,READY FOR OCCUPANCY,NEW CONSTRUCTION,SENIORS,8500000.00,0.00,0.00,8500000.00,http://hcidapp.lacity.org/mpphotos/030188/Photo/Website/030188.JPG,228,"COMMUNITY REDEVELOPMENT AGENCY, LA",BARKER MANAGEMENT INCORPORATED,(714) 533-3450,-118.3422,34.0133,"(34.0133, -118.3422)",22725,761,1031,7,12,54
5211007052,70026,MANITOU VISTAS II,3416 E MANITOU AVE CA 90031,1,LINCOLN HEIGHTS,1,READY FOR OCCUPANCY,NEW CONSTRUCTION,FAMILY,1519500.00,8845275.00,0.00,10364775.00,http://hcidapp.lacity.org/mpphotos/070026/Photo/Website/CD%201%20-%20Manitou%20Vistas%20II%20-%20070026.JPG,77,"ADVANCED DEVELOPMENT & INVESTMENT,","BARKER MANAGEMENT, INC.",(714) 533-3450,-118.20449,34.07183,"(34.07183, -118.20449)",23448,487,337,,11,1
5183023003,10-118599,LINDA VISTA NURSES BUILDING,630 S ST LOUIS ST CA 90023,1,BOYLE HEIGHTS,14,READY FOR OCCUPANCY,ACQUISITION + REHAB,SENIORS,4214325.00,3959132.00,759870.00,8933327.00,http://hcidapp.lacity.org/mpphotos/10-118599/Photo/Website/10-118599.JPG,218,AMCAL Linda Vista Fund L.P.,"WESTERN SENIORS HOUSING, INC.",(949) 748-8204,-118.2175,34.03863,"(34.03863, -118.2175)",23441,523,947,,9,38
5210008030,60083,SICHEL FAMILY APARTMENTS,1805 N SICHEL ST 1-37 CA 90031,1,LINCOLN HEIGHTS,1,READY FOR OCCUPANCY,NEW CONSTRUCTION,FAMILY,2877300.00,11028167.00,0.00,13905467.00,http://hcidapp.lacity.org/mpphotos/060083/Photo/Website/sichel1805sichel1of211308%20cropped.png,75,"META HOUSING CORPORATION,","SOLARI ENTERPRISES, INC.",(714) 282-2520,-118.21305,34.06411,"(34.06411, -118.21305)",23448,494,721,,11,1
5037007026,30159,INGRAM PRESERVATION (SITE 6),1225 W 39TH PL CA 90037,6,EXPOSITION PARK,8,READY FOR OCCUPANCY,REHAB,LARGE FAMILY / WAIVER REQUIRED,4900000.00,6637761.00,2790000.00,14327761.00,http://hcidapp.lacity.org/mpphotos/030159/Photo/Website%20Site6/39th%20Place%20%202.png,21,"W.O.R.K.S.,","SOLARI ENTERPRISES, INC.",(714) 282-2520,-118.29834,34.01423,"(34.01423, -118.29834)",23668,728,1151,7,14,32
6117019016,40067,ROYALS APARTMENTS,717 W EL SEGUNDO BLVD CA 90247,1,HARBOR GATEWAY,15,READY FOR OCCUPANCY,REHAB,FAMILY,1100000.00,13039479.00,0.00,14139479.00,http://hcidapp.lacity.org/mpphotos/040067/Photo/Website/CD%2015%20-%20The%20Royals.jpg,49,"Preservation Partners Management Group, Inc.",PRESERVATION PARTNERS MANAGEMENT GROUP,(310) 802-6673,-118.28774,33.91659,"(33.91659, -118.28774)",24684,938,803,7,15,53
5124024010,15-122656,ST. JAMES PARK (SITE 3),"44 ST JAMES ST  Los Angeles, CA 90007",3,UNIVERSITY PARK,1,READY FOR OCCUPANCY,ACQUISITION + REHAB,FAMILY,0.00,27481703.00,9879228.00,37360931.00,http://hcidapp.lacity.org/mpphotos/ImageNotAvailable.png,,Retirement Housing Foundation,"FOUNDATION PROPERTY MANAGEMENT, INC.",(213) 746-9548,-118.2807,34.03122,"(34.03122, -118.2807)",22724,699,444,7,11,32
5053012035,70172,TWO WORLD APARTMENTS (SITE 5),2625 S HARVARD BLVD CA 90018,5,ADAMS-NORMANDIE,8,READY FOR OCCUPANCY,REHAB,SENIORS,3225000.00,17094146.00,0.00,20319146.00,http://hcidapp.lacity.org/mpphotos/070172/Photo/Website%20Site5/Two%20Worlds%202625%20S.%20Harvard%20-%20070172.png,99,"TWO WORLDS PRESERVATION LIMITED PARTNERSHIP,",N/A,N/A,-118.30689,34.03172,"(34.03172, -118.30689)",23079,689,654,7,14,32
5148014013,70168,RENATO APARTMENTS,531 S SAN JULIAN ST 1-96 CA 90013,1,WHOLESALE DISTRICT,14,READY FOR OCCUPANCY,NEW CONSTRUCTION,SPECIAL NEEDS,9500000.00,16649424.00,0.00,26149424.00,http://hcidapp.lacity.org/mpphotos/070168/Photo/Website/Renato.jpg,235,Single Room Occupancy Housing  Corp. (SRO),SINGLE ROOM OCCUPANCY HOUSING CORPORATION,(213) 229-9640,-118.24577,34.04385,"(34.04385, -118.24577)",23074,537,1289,,9,76
5108021026,20288,MOUNT ZION TOWERS,4827 S CENTRAL AVE 1-118 CA 90011,1,VERNON CENTRAL,9,READY FOR OCCUPANCY,REHAB,SENIORS,1833759.00,2925649.00,3701300.00,8460708.00,http://hcidapp.lacity.org/mpphotos/020288/Photo/Website/CD%209%20-%20Mount%20Zion.JPG,16,"CONCERNED CITIZENS OF SOUTH CENTRAL LA,",CONCERNED CITIZENS OF SCLA,(323) 846-2500,-118.25668,33.99978,"(33.99978, -118.25668)",22727,723,563,7,13,
5021032032,16-123326,FLORENCE MOREHOUSE (SITE 2),"1750 W MARTIN LUTHER KING, JR BLVD CA 90062",2,WEST VERNON,8,UNDERCONSTRUCTION,ACQUISITION + REHAB,FAMILY,3014663.00,12913795.00,1377000.00,17305458.00,http://hcidapp.lacity.org/mpphotos/ImageNotAvailable.png,,Century Affordable Development Inc,N/A,N/A,-118.31032,34.01068,"(34.01068, -118.31032)",24027,732,1017,7,14,35
5115019033,11-117837,DUNBAR VILLAGE,4225 S CENTRAL AVE CA 90011,1,VERNON CENTRAL,9,READY FOR OCCUPANCY,ACQUISITION + REHAB,FAMILY,12019660.00,17563532.00,0.00,29583192.00,http://hcidapp.lacity.org/mpphotos/11-117837/Photo/Website/Dunbar%20Village.JPG,215,THOMAS SAFRAN & ASSOCIATES,THOMAS SAFRAN & ASSOCIATES,(310) 820-4888,-118.25669,34.00692,"(34.00692, -118.25669)",22727,713,664,7,13,
5518033032,14-121715,MERIDIAN APARTMENTS,225 N VERMONT AVE CA 90004,1,WILSHIRE CENTER,13,READY FOR OCCUPANCY,NEW CONSTRUCTION,FAMILY,7685153.00,38294991.00,0.00,45980144.00,http://hcidapp.lacity.org/mpphotos/14-121715/Photo/Website/150_2870.png,332,"AMCAL Multi-Housing, Inc.",FPI MANAGEMENT INC.,(916) 357-5312,-118.29188,34.07571,"(34.07571, -118.29188)",22721,582,936,16,8,89
2626005032,12-118939,LAUREL VILLAGE (RECAP),"9700 N LAUREL CANYON BLVD  PACOIMA, CA 91331",1,PACOIMA,7,READY FOR OCCUPANCY,ACQUISITION + REHAB,FAMILY,0.00,13426883.00,9100000.00,22526883.00,http://hcidapp.lacity.org/mpphotos/ImageNotAvailable.png,97,Abode Communities,N/A,N/A,-118.4184,34.24745,"(34.24745, -118.4184)",18907,35,413,,1,11
5072037019,80053,PROFESSIONAL HSG. & DEV. APTS. (PH & D) (SITE 3),1401 S ARLINGTON AVE CA 90019,3,VICTORIA PARK,10,READY FOR OCCUPANCY,REHAB,FAMILY,4575000.00,10250907.00,0.00,14825907.00,http://hcidapp.lacity.org/mpphotos/080053/Photo/Website%20Site3/PH&D%201401%20Arlington.jpg,45,Gubb and Barshay,LITTLE TOKYO SERVICE CENTER,(213) 434-1645,-118.3179,34.0461,"(34.0461, -118.3179)",23080,649,899,,12,19
4286009111,13-119321,PATH VILLAS AT DEL REY-DOGTOWNSTATION (COURTLEIGH) (SITE 2),700 S MAIN ST CA 90291,2,VENICE,11,READY FOR OCCUPANCY,NEW CONSTRUCTION,SPECIAL NEEDS,270000.00,0.00,0.00,270000.00,http://hcidapp.lacity.org/mpphotos/ImageNotAvailable.png,63,PATH Ventures,THE JOHN STEWART COMPANY,(213) 787-2700,-118.47536,33.99386,"(33.99386, -118.47536)",25073,908,734,10,10,30
5056030010,06-117222,WINDWARD APTS (A/B) (SITE 2),1514 W 20TH ST CA 90007,2,WEST ADAMS,1,READY FOR OCCUPANCY,REHAB,FAMILY,0.00,7438473.00,4641342.00,12079815.00,http://hcidapp.lacity.org/mpphotos/ImageNotAvailable.png,,1755 EFM 2,"ALPHA PROPERTY MANAGEMENT, INC.",(323) 231-4174,-118.28932,34.038,"(34.038, -118.28932)",22724,681,1282,,11,8
6053022021,09-117382,MILAN TOWN HOMES,10006 S BROADWAY CA 90003,1,VERMONT VISTA,8,READY FOR OCCUPANCY,NEW CONSTRUCTION,FAMILY,1600000.00,6340418.00,0.00,7940418.00,http://hcidapp.lacity.org/mpphotos/09-117382/Photo/Website/milan10006sbroad_010-.png,77,Abhay Gokhani Corporation,MILAN TOWN HOMES LLC,(323) 645-6611,-118.27796,33.9453,"(33.9453, -118.27796)",22352,804,1191,7,14,45
5501001003,09-117641,JUANITA VILLAS / AKA LA KRETZ VILLAS,335 N JUANITA AVE 1-49 CA 90004,1,SILVERLAKE,13,READY FOR OCCUPANCY,NEW CONSTRUCTION,SPECIAL NEEDS,4809092.00,7010004.00,0.00,11819096.00,http://hcidapp.lacity.org/mpphotos/09-117641/Photo/Website/lakretz335njuanita_52214_017.png,103,"Related/Juanita SRO Development Co., LLC",THE JOHN STEWART COMPANY,(323) 644-2831,-118.29078,34.07732,"(34.07732, -118.29078)",22721,455,507,16,8,80
5539001025,201,EL CENTRO LORETTO,1021 N HOOVER ST 1-76 CA 90029,1,EAST HOLLYWOOD,13,READY FOR OCCUPANCY,N/A,LARGE FAMILY / WAIVER REQUIRED,9745944.00,0.00,0.00,9745944.00,http://hcidapp.lacity.org/mpphotos/ImageNotAvailable.png,,"SEARCH TO INVOLVE PILIPINO AMERICANS,",THE JOHN STEWART COMPANY,N/A,-118.2849,34.09043,"(34.09043, -118.2849)",23447,435,631,,8,58
5442002908,12-118780,RIO VISTA APARTMENTS,1515 N SAN FERNANDO ROAD 1-87 CA 90031,1,ATWATER VILLAGE,1,READY FOR OCCUPANCY,NEW CONSTRUCTION,FAMILY,6022354.00,23669584.00,0.00,29691938.00,http://hcidapp.lacity.org/mpphotos/12-118780/Photo/Website/DSCF7272.png,277,"McCormack Baron Salazar, Inc.","MCCORMACK BARON RAGAN MANAGEMENT SERVICES, INC.",(213) 236-2694,-118.23377,34.09729,"(34.09729, -118.23377)",24030,392,1430,,11,94
5534009030,60005,BRONSON COURTS,"1229 N BRONSON AVE 1-32  HOLLYWOOD, CA 90038",1,HOLLYWOOD,13,READY FOR OCCUPANCY,N/A,N/A,2240000.00,11494453.00,0.00,13734453.00,http://hcidapp.lacity.org/mpphotos/060005/Photo/Website/CD%2013%20-%20Bronson%20Court.jpg,86,"LOS ANGELES HOUSING PARTNERSHIP,",BARKER MANAGEMENT INC,N/A,-118.3181,34.09365,"(34.09365, -118.3181)",23669,426,517,,8,57
5544025033,60057,BRICKER,"1671 N WESTERN AVE  Los Angeles, CA 90028",1,HOLLYWOOD,13,READY FOR OCCUPANCY,ACQUISITION + REHAB,SENIORS,627878.00,6465419.00,0.00,7093297.00,http://hcidapp.lacity.org/mpphotos/060057/Photo/Website/060057.JPG,14,"ADVANCED BUSINESS SOLUTIONS, LLC",BARKER MANAGEMENT INCORPORATED,(714) 553-3450,-118.30957,34.10127,"(34.10127, -118.30957)",23446,420,608,16,8,57
5109004053,14-121135,PALOMA TERRACE,5000 S MAIN ST CA 90037,1,SOUTH PARK,9,READY FOR OCCUPANCY,NEW CONSTRUCTION,FAMILY,0.00,25023772.00,0.00,25023772.00,http://hcidapp.lacity.org/mpphotos/ImageNotAvailable.png,184,Retirement Housing Foundation,"FOUNDATION PROPERTY MANAGEMENT, INC.",(562) 257-5100,-118.2734,33.99728,"(33.99728, -118.2734)",22727,724,895,7,13,
2532017068,11-117796,OSBORNE STREET APARTMENTS,12059 W OSBORNE ST CA 91331,1,LAKEVIEW TERRACE,7,READY FOR OCCUPANCY,NEW CONSTRUCTION,FAMILY,3805976.00,15063116.00,0.00,18869092.00,http://hcidapp.lacity.org/mpphotos/11-117796/Photo/Website/11-117796.JPG,144,"RELATED CALIFORNIA URBAN HOUSING, LLC",RELATED MANAGEMENT CO.,(949) 660-390,-118.39505,34.27294,"(34.27294, -118.39505)",18912,18,248,,1,11
6132002001,14-121649,127TH STREET APARTMENTS,550 W 127TH ST CA 90044,1,HARBOR GATEWAY,15,READY FOR OCCUPANCY,NEW CONSTRUCTION,SPECIAL NEEDS,8900000.00,22694976.00,0.00,31594976.00,http://hcidapp.lacity.org/mpphotos/14-121649/Photo/Website/127th%20St%20Apt.png,238,Meta Housing Corporation,JOHN STEWARD COMPANY,N/A,-118.28472,33.91745,"(33.91745, -118.28472)",23675,938,803,7,15,53
5049014013,05-117217,LEXINGTON APARTMENTS A/B (SITE 8),2607 S MANSFIELD AVE CA 90016,8,ALSACE,10,READY FOR OCCUPANCY,REHAB,FAMILY,0.00,6771719.00,10247566.00,17019285.00,http://hcidapp.lacity.org/mpphotos/ImageNotAvailable.png,,"1755 EFM 2, LLC","ALPHA PROPERTY MANAGEMENT, INC.",(323) 231-4174,-118.35251,34.03212,"(34.03212, -118.35251)",23077,665,986,,12,17
6117003018,80002,MY TOWN HOMES,12015 S FIGUEROA ST 1-21 CA 90061,1,HARBOR GATEWAY,15,READY FOR OCCUPANCY,NEW CONSTRUCTION,FAMILY,2006300.00,6359207.00,0.00,8365507.00,http://hcidapp.lacity.org/mpphotos/080002/Photo/Website/mytownhomes12015figueroa42414_005.png,83,"LEELA ENTERPRISES,",MY TOWN HOMES L.P.,(323) 465-6611,-118.28301,33.92316,"(33.92316, -118.28301)",23675,938,803,7,15,53
5142023013,18-124724,ARIA APARTMENTS (FKA CAMBRIA APTS),1532 W CAMBRIA ST CA 90017,1,WESTLAKE,1,UNDERCONSTRUCTION,NEW CONSTRUCTION,SPECIAL NEEDS,24000000.00,0.00,0.00,24000000.00,http://hcidapp.lacity.org/mpphotos/18-124724/Photo/Website/Cambria.JPG,,"Affirmed Housing Group, Inc",SOLARI ENTERPRISES,(714) 282-2520,-118.27116,34.05268,"(34.05268, -118.27116)",23078,568,1378,,11,68
5037015030,15-122552,ROLLAND CURTIS WEST,1077 W 38TH ST CA 90037,1,EXPOSITION PARK,8,READY FOR OCCUPANCY,NEW CONSTRUCTION,FAMILY,5300000.00,27498802.00,2756800.00,35555602.00,http://hcidapp.lacity.org/mpphotos/15-122552/Photo/Website/017.JPG,,Abode Communities,ABODE COMMUNITIES,(213) 629-2702,-118.2942,34.01803,"(34.01803, -118.2942)",23668,729,1150,7,14,32
5153006024,50035,UNION POINT,420 S UNION DR 1-21 CA 90017,1,WESTLAKE,1,READY FOR OCCUPANCY,NEW CONSTRUCTION,LARGE FAMILY / WAIVER REQUIRED,2334000.00,5910494.00,0.00,8244494.00,http://hcidapp.lacity.org/mpphotos/050035/Photo/Website/CD%201%20-%20Union%20Point%20Apts.jpg,40,"META HOUSING CORPORATION,","SOLARI ENTERPRISES, INC.",(714) 282-2520,-118.26768,34.05845,"(34.05845, -118.26768)",23078,564,1047,,11,67
2651009078,11-118591,TOBIAS TERRACE APARTMENTS,9247 N VAN NUYS BLVD 1-56 CA 91402,1,PANORAMA CITY,6,READY FOR OCCUPANCY,NEW CONSTRUCTION,FAMILY,4856000.00,12875942.00,0.00,17731942.00,http://hcidapp.lacity.org/mpphotos/11-118591/Photo/Website/11-118591.JPG,124,META HOUSING CORPORATION,"SOLARI ENTERPRISES, INC",(714) 282-2520 x201,-118.45064,34.23862,"(34.23862, -118.45064)",19730,133,407,,3,59
5142014047,16-123081,CRESCENT VILLAGES (RECAP) (SITE 3),731 S BEACON AVE CA 90017,3,WESTLAKE,1,UNDERCONSTRUCTION,ACQUISITION + REHAB,FAMILY,535608.00,15855122.00,10144000.00,26534730.00,http://hcidapp.lacity.org/mpphotos/ImageNotAvailable.png,,"Valued Housing II, LLC",N/A,N/A,-118.27403,34.05378,"(34.05378, -118.27403)",23078,571,628,,11,68
6132002014,15-122546,EL SEGUNDO APARTMENTS,535 W EL SEGUNDO BLVD CA 90248,1,HARBOR GATEWAY,15,READY FOR OCCUPANCY,NEW CONSTRUCTION,FAMILY,4000000.00,21492908.00,2084704.00,27577612.00,http://hcidapp.lacity.org/mpphotos/15-122546/Photo/Website/El%20Segundo.png,259,Meta Housing Corporation,JOHN STEWART COMPANY,(213) 833-1860,-118.284,33.91658,"(33.91658, -118.284)",23675,938,803,7,15,53
5128024037,13-120909,ROBERTA STEPHENS VILLAS I & II (RECAP),"1035 E 27TH  Los Angeles, CA 90011",1,CENTRAL,9,READY FOR OCCUPANCY,ACQUISITION + REHAB,SENIORS,0.00,3360040.00,1995093.00,5355133.00,http://hcidapp.lacity.org/mpphotos/ImageNotAvailable.png,32,"CP Preservation Housing, LLC",CONCERNED CITIZENS OF SOUTH CENTRAL LOS ANGELES,(323) 846-2500,-118.25565,34.01801,"(34.01801, -118.25565)",22727,705,972,7,13,6
2409003046,17-124266,CASA DEL SOL,10966 W RATNER ST CA 91352,1,SUN VALLEY,6,UNDERCONSTRUCTION,NEW CONSTRUCTION,SPECIAL NEEDS,8065143.00,0.00,0.00,8065143.00,http://hcidapp.lacity.org/mpphotos/17-124266/Photo/Website/casa%20del%20sol%204-28-17.JPG,,A Community of Friends,"BARKER MANAGEMENT, INC.",(714) 533-3450,-118.36932,34.21679,"(34.21679, -118.36932)",19335,166,272,,3,21
5001024019,60012,MIMMIM TOWN HOMES,5417 S FIGUEROA ST 1-21 CA 90037,1,WEST VERNON,9,READY FOR OCCUPANCY,NEW CONSTRUCTION,FAMILY,945683.00,6101295.00,0.00,7046978.00,http://hcidapp.lacity.org/mpphotos/060012/Photo/Website/CD%209%20-%20Mimmim%20Townhomes.jpg,48,CENTRAL VALLEY COALITION FOR AFFORDABLE HOUSING,BARKER MANAGEMENT INC.,(323) 465-6611,-118.28298,33.99255,"(33.99255, -118.28298)",23668,745,990,7,13,2
5546020005,40011,AFTON PLACE (SITE 2),"6230 W AFTON PL  HOLLYWOOD, CA 90028",2,HOLLYWOOD,13,READY FOR OCCUPANCY,ACQUISITION + REHAB,SENIORS,1732830.00,5188563.00,1830000.00,8751393.00,http://hcidapp.lacity.org/mpphotos/ImageNotAvailable.png,15,"AFTON PLACE SENIOR APARTMENTS, L.P.","LEVINE MANAGEMENT GROUP, INC",(310) 358-3489,-118.32507,34.09517,"(34.09517, -118.32507)",23446,423,539,,8,34
5155029010,20279,ASBURY,2501 W 6TH ST CA 90057,1,WESTLAKE,1,READY FOR OCCUPANCY,N/A,N/A,4018000.00,3307020.00,5600000.00,12925020.00,http://hcidapp.lacity.org/mpphotos/020279/Photo/Website/CD%201%20-%20Asbury%20Apts..jpg,18,"LOS ANGELES HOUSING PARTNERSHIP,","LOS ANGELES HOUSING PARTNERSHIP, INC.",N/A,-118.27908,34.06158,"(34.06158, -118.27908)",24352,560,884,,11,63
4322010032,07-117248,PICO VETERAN SENIOR HOUSING,10991 W PICO BLVD CA 90064,1,RANCHO PARK,5,READY FOR OCCUPANCY,NEW CONSTRUCTION,SENIORS,2400000.00,8573015.00,0.00,10973015.00,http://hcidapp.lacity.org/mpphotos/07-117248/Photo/Website/Pico%20Veteran%20Senior%20Housing.jpg,108,"MENORAH HOUSING FOUNDATION,(App)",MENORAN HOUSING FOUNDATION,(310) 475-6083,-118.43237,34.03855,"(34.03855, -118.43237)",24029,869,814,9,6,75
5544019001,80004,HOLLYWOOD BUNGALOW COURTS (SITE 4),"1554 N SERRANO AVE  LOS ANGELES, CA 90027",4,THAI TOWN,13,READY FOR OCCUPANCY,ACQUISITION + REHAB,FAMILY,4390000.00,17823840.00,0.00,22213840.00,http://hcidapp.lacity.org/mpphotos/080004/Photo/Website%20Site4/CD%2013%20-%20Hollywood%20Bungalows%20-%201554%20Serrano.png,104,"HOLLYWOOD COMMUNITY HOUSING CORP.,",BARKER MANAGEMENT INCORPORATED,(714) 533-3450,-118.30697,34.09988,"(34.09988, -118.30697)",23445,421,555,16,8,58
6065010046,05-117193,LEEWARD APTS. (SITE 12),10634 S CENTRAL AVE CA 90002,12,WATTS,15,READY FOR OCCUPANCY,REHAB,FAMILY,0.00,7103994.00,10208936.00,17312930.00,http://hcidapp.lacity.org/mpphotos/ImageNotAvailable.png,,"HAMPSTEAD PARTNERS, INC.","ALPHA PROPERTY MANAGEMENT, INC.",(323) 231-4174,-118.25394,33.93947,"(33.93947, -118.25394)",22351,817,1182,7,15,40
5042027012,05-117193,LEEWARD APTS. (SITE 6),1811 W 36TH PL CA 90018,6,EXPOSITION PARK,8,READY FOR OCCUPANCY,REHAB,FAMILY,0.00,7103994.00,10208936.00,17312930.00,http://hcidapp.lacity.org/mpphotos/ImageNotAvailable.png,,"HAMPSTEAD PARTNERS, INC.","ALPHA PROPERTY MANAGEMENT, INC.",(323) 231-4174,-118.31231,34.02198,"(34.02198, -118.31231)",23079,687,1295,7,14,32
5134014019,70045,NEW CARVER,1624 S HOPE ST 1-97 CA 90015,1,DOWNTOWN,14,READY FOR OCCUPANCY,NEW CONSTRUCTION,SPECIAL NEEDS,6600000.00,27345678.00,0.00,33945678.00,http://hcidapp.lacity.org/mpphotos/070045/Photo/Website/070045.JPG,265,"SKID ROW HOUSING TRUST,","NEW CARVER APARTMENTS, LP",(213) 683-0522,-118.26787,34.03576,"(34.03576, -118.26787)",23076,693,1291,,9,76
2582002017,11-117922,OAKRIDGE FAMILY HOMES,"15455 GLENOAKS BLVD  LOS ANGELES, CA 91342",1,SYLMAR,7,READY FOR OCCUPANCY,REHAB,FAMILY,4500000.00,8548904.00,0.00,13048904.00,http://hcidapp.lacity.org/mpphotos/11-117922/Photo/Website/oakridge4714_002.png,102,"LOS ANGELES HOUSING PARTNERSHIP INC.,",FPI MANAGEMENT,(714) 641-5110,-118.46988,34.32402,"(34.32402, -118.46988)",18912,45,1397,,1,47
5005031026,18-125019,WESTERN AVENUE APARTMENTS,5501 S WESTERN AVE CA 90062,1,WEST VERNON,8,UNDERCONSTRUCTION,REHAB,SPECIAL NEEDS,4660033.00,6780346.00,0.00,11440379.00,http://hcidapp.lacity.org/mpphotos/ImageNotAvailable.png,,Figueroa Economical Housing Development Corporation,"STEP UP ON SECOND, INC.",(310) 576-1308 x1646,-118.30913,33.99225,"(33.99225, -118.30913)",24027,743,622,7,14,35
5155025900,14-121713,RAMPART MINT APARTMENTS,252 S RAMPART BLVD CA 90057,1,TEMPLE-BEAUDRY,13,UNDERCONSTRUCTION,NEW CONSTRUCTION,SPECIAL NEEDS,4750060.00,10833615.00,0.00,15583675.00,http://hcidapp.lacity.org/mpphotos/ImageNotAvailable.png,,West Hollywood Community Housing Corp.,AFFORDABLE LIVING FOR THE AGING,(323) 650-8034,-118.27813,34.067,"(34.067, -118.27813)",24352,556,612,,8,31
5148025017,50028,ABBEY APARTMENTS,625 S SAN PEDRO ST 1-115 CA 90014,1,WHOLESALE DISTRICT,14,READY FOR OCCUPANCY,NEW CONSTRUCTION,SPECIAL NEEDS,3500000.00,23108748.00,1091000.00,27699748.00,http://hcidapp.lacity.org/mpphotos/050028/Photo/Website/CD%209%20-%20Abbey%20Apts.JPG,152,"SKID ROW HOUSING TRUST,",SRHT PROPERTY MANAGEMENT COMPANY,(213) 683-0522 x123,-118.246,34.04183,"(34.04183, -118.246)",23075,537,783,,9,76
5037009012,06-117222,WINDWARD APTS (A/B) (SITE 6),1253 W 39TH ST CA 90037,6,EXPOSITION PARK,8,READY FOR OCCUPANCY,REHAB,FAMILY,0.00,7438473.00,4641342.00,12079815.00,http://hcidapp.lacity.org/mpphotos/ImageNotAvailable.png,,1755 EFM 2,"ALPHA PROPERTY MANAGEMENT, INC.",(323) 231-4174,-118.29915,34.01563,"(34.01563, -118.29915)",23668,728,1151,7,14,32
2651012028,10-117630,WILLIS AVENUE APARTMENTS,14731 W RAYEN ST 1-42 CA 91402,1,PANORAMA CITY,6,READY FOR OCCUPANCY,NEW CONSTRUCTION,SENIORS,3119057.00,14281039.00,0.00,17400096.00,http://hcidapp.lacity.org/mpphotos/10-117630/Photo/Website/10-117630.JPG,152,A Communitiy of Friends,"A COMMUNITY OF FRIENDS,",(213) 480-0809 x227,-118.45487,34.23197,"(34.23197, -118.45487)",19730,149,667,,3,59
5019023028,09-117207,STOVALL VILLAS,4057 S FIGUEROA ST CA 90037,1,WEST VERNON,9,READY FOR OCCUPANCY,NEW CONSTRUCTION,SENIORS,4230942.00,4868100.00,0.00,9099042.00,http://hcidapp.lacity.org/mpphotos/09-117207/Photo/Website/Stovall%20villas.jpg,85,"Laurel Place West Hollywood, Inc.",HDSI MANAGEMENT INC.,(323) 231-1104,-118.28341,34.01039,"(34.01039, -118.28341)",23668,735,977,7,13,2
7413012938,13-119184,HARBOR VILLAGE APARTMENTS,981 W HARBOR VILLAGE DR CA 90710,1,HARBOR CITY,15,READY FOR OCCUPANCY,ACQUISITION + REHAB,FAMILY,0.00,23791743.00,41877000.00,65668743.00,http://hcidapp.lacity.org/mpphotos/13-119184/Photo/Website/Harbor%20Village%20Aprts.png,253,"RELATED COMPANIES OF CALIFORNIA,",RELATED MANAGEMENT COMPANY,(949) 660-7272,-118.2925,33.79288,"(33.79288, -118.2925)",26327,957,1288,,15,29
5154026001,14-121117,THE PASEO AT CALIFORNIAN,1901 W 6TH ST CA 90057,1,WESTLAKE,1,READY FOR OCCUPANCY,NEW CONSTRUCTION,FAMILY,6361830.00,12978417.00,2700000.00,22040247.00,http://hcidapp.lacity.org/mpphotos/14-121117/Photo/Website/Paseo%20At%20Californian.png,166,"American Communities, LLC","FOUNDATION PROPERTY MANAGEMENT, INC.",N/A,-118.27231,34.05891,"(34.05891, -118.27231)",24352,562,836,,11,68
6041015033,06-117222,WINDWARD APTS (A/B) (SITE 17),219 E 87TH PL CA 90003,17,GREEN MEADOWS,9,READY FOR OCCUPANCY,REHAB,FAMILY,0.00,7438473.00,4641342.00,12079815.00,http://hcidapp.lacity.org/mpphotos/ImageNotAvailable.png,,1755 EFM 2,"ALPHA PROPERTY MANAGEMENT, INC.",(323) 231-4174,-118.27095,33.95817,"(33.95817, -118.27095)",22352,798,1175,7,13,45
5049034009,14-121639,YBARRA VILLAGE (FKA NEW DIRECTIONS WEST ADAMS),3023 1/2 S WEST VIEW ST CA 90016,1,EXPOSITION,10,UNDERCONSTRUCTION,NEW CONSTRUCTION,SPECIAL NEEDS,4600000.00,27626008.00,0.00,32226008.00,http://hcidapp.lacity.org/mpphotos/ImageNotAvailable.png,193,D.L. Horn & Associates LLC,CONAM PROPERTY MANAGEMENT CORPORATION,(858) 614-7248,-118.3534,34.02623,"(34.02623, -118.3534)",23077,664,924,7,12,17
5119002017,05-117217,LEXINGTON APARTMENTS A/B (SITE 12),1386 E 20TH ST CA 90011,12,CENTRAL,9,READY FOR OCCUPANCY,REHAB,FAMILY,0.00,6771719.00,10247566.00,17019285.00,http://hcidapp.lacity.org/mpphotos/ImageNotAvailable.png,,"1755 EFM 2, LLC","ALPHA PROPERTY MANAGEMENT, INC.",(323) 231-4174,-118.24932,34.02167,"(34.02167, -118.24932)",22727,707,969,7,13,6
5414013900,13-119070,BLOSSOM PLAZA,900 N NORTH BROADWAY CA 90012,1,WHOLESALE DISTRICT,1,READY FOR OCCUPANCY,NEW CONSTRUCTION,FAMILY,6874398.00,22244151.00,0.00,29118549.00,http://hcidapp.lacity.org/mpphotos/13-119070/Photo/Website/Final%20Picture.png,794,"Forest City Blossom, LLC",N/A,N/A,-118.23697,34.06469,"(34.06469, -118.23697)",22728,531,886,,11,28
5141001036,80056,PARKVIEW ON THE PARK,622 S ALVARADO ST CA 90057,1,WESTLAKE,1,READY FOR OCCUPANCY,REHAB,SPECIAL NEEDS,6000000.00,15159034.00,0.00,21159034.00,http://hcidapp.lacity.org/mpphotos/080056/Photo/Website/080056%2009-05-2008.jpg,158,"LOS ANGELES HOUSING PARTNERSHIP,",AFFORDABLE COMMUNITIES/SOCAL,(714) 641-5110 x418,-118.27516,34.05877,"(34.05877, -118.27516)",24352,562,836,,11,68
2656018027,09-104740,CROSSINGS AT NORTH HILLS,"9311-9345 Sepulveda Blvd., 91343",1,NORTH HILLS,0,READY FOR OCCUPANCY,ACQUISITION + NEW CONSTRUCTION,FAMILY,3657320.00,11196299.00,0.00,14853619.00,http://hcidapp.lacity.org/mpphotos/ImageNotAvailable.png,79,"UHC 00137 NORTH HILLS DEVELOPMENT, LLC",N/A,N/A,-118.46796,34.23957,"(34.23957, -118.46796)",18914,116,1092,,1,73
5114014004,14-121652,FLORENCE MILLS (SITE 4),3509 S CENTRAL AVE CA 90011,4,CENTRAL,9,UNDERCONSTRUCTION,NEW CONSTRUCTION,SPECIAL NEEDS,9389115.63,35861422.00,0.00,45250537.63,http://hcidapp.lacity.org/mpphotos/ImageNotAvailable.png,226,Hollywood Community Housing Corporation,BARKER MANAGEMENT INCORPORATED,(714) 533-3450,-118.2567,34.01136,"(34.01136, -118.2567)",22727,712,892,7,13,6
5128015021,09-117212,THE CROSSING ON 29TH ST.,"814 E 29TH ST  Los Angeles, CA 90011",1,CENTRAL,9,READY FOR OCCUPANCY,NEW CONSTRUCTION,FAMILY,0.00,0.00,0.00,0.00,http://hcidapp.lacity.org/mpphotos/09-117212/Photo/Website/crossingat29thgo12612_031-.png,121,"UHC LA 29, L.P.","SOLARI ENTERPRISES, INC",(714) 282-2520,-118.26081,34.01762,"(34.01762, -118.26081)",22727,706,965,7,13,6
5589034026,06-117195,CONCORD APARTMENTS (GRP. A & B) (SITE 4),1801 N ALEXANDRIA AVE CA 90027,4,LOS FELIZ,4,READY FOR OCCUPANCY,REHAB,FAMILY,0.00,7334438.00,8579256.00,15913694.00,http://hcidapp.lacity.org/mpphotos/ImageNotAvailable.png,,"1755 EFM 2, LLC","ALPHA PROPERTY MANAGEMENT, INC.",(323) 231-4174,-118.29852,34.1036,"(34.1036, -118.29852)",23445,401,1327,16,7,3
